{
  "resource": {
    "resourceType": "Organization",
    "id": "39E8045033EB223BE0540010E076CAE3",
    "identifier": [
      {
        "system": "http://hl7.org/fhir/sid/us-npi",
        "value": "1811944101"
      }
    ],
    "active": true,
    "type": [
      {
        "coding": [
          {
            "system": "http://terminology.hl7.org/CodeSystem/organization-type",
            "code": "prov",
            "display": "Healthcare Provider"
          }
        ],
        "text": "Healthcare Provider"
      }
    ],
    "name": "Texas Oncology",
    "telecom": [
      {
        "extension": [
          {
            "url": "http://hl7.org/fhir/StructureDefinition/data-absent-reason",
            "valueCode": "unknown"
          }
        ]
      }
    ],
    "address": [
      {
        "line": [
          "3001 E President George Bush Hwy",
          "Suite 100"
        ],
        "city": "Richardson",
        "state": "TX",
        "postalCode": "75082"
      },
      {
        "line": [
          "124 Bandera Road",
          "STE 301"
        ],
        "city": "Boerne",
        "state": "TX",
        "postalCode": "78006"
      },
      {
        "line": [
          "1051 US Highway 90 E"
        ],
        "city": "Castroville",
        "state": "TX",
        "postalCode": "78009"
      },
      {
        "line": [
          "7219 Culebra Rd"
        ],
        "city": "San Antonio",
        "state": "TX",
        "postalCode": "78251"
      },
      {
        "line": [
          "1200 Brooklyn Ave.",
          "STE 115"
        ],
        "city": "San Antonio",
        "state": "TX",
        "postalCode": "78212"
      },
      {
        "line": [
          "497 10th Street",
          "STE 203"
        ],
        "city": "Floresville",
        "state": "TX",
        "postalCode": "78114"
      },
      {
        "line": [
          "506 W. Windcrest",
          "STE 300"
        ],
        "city": "Fredericksburg",
        "state": "TX",
        "postalCode": "78624"
      },
      {
        "line": [
          "902 Bandera Road"
        ],
        "city": "San Antonio",
        "state": "TX",
        "postalCode": "78228"
      },
      {
        "line": [
          "610 31st Street"
        ],
        "city": "Hondo",
        "state": "TX",
        "postalCode": "78861"
      },
      {
        "line": [
          "1907 US Highway 97 E",
          "STE 240"
        ],
        "city": "Jourdanton",
        "state": "TX",
        "postalCode": "78026"
      },
      {
        "line": [
          "694 Hill Country Drive"
        ],
        "city": "Kerrville",
        "state": "TX",
        "postalCode": "78028"
      },
      {
        "line": [
          "5206 Research Drive"
        ],
        "city": "San Antonio",
        "state": "TX",
        "postalCode": "78240"
      },
      {
        "line": [
          "7940 Floyd Curl Drive",
          "Tower II STE 1010"
        ],
        "city": "San Antonio",
        "state": "TX",
        "postalCode": "78229"
      },
      {
        "line": [
          "1448 E. Common Street"
        ],
        "city": "New Braunfels",
        "state": "TX",
        "postalCode": "78130"
      },
      {
        "line": [
          "2130 NE Loop 410",
          "STE 100"
        ],
        "city": "San Antonio",
        "state": "TX",
        "postalCode": "78217"
      },
      {
        "line": [
          "3327 Research Plaza",
          "STE 102"
        ],
        "city": "San Antonio",
        "state": "TX",
        "postalCode": "78235"
      },
      {
        "line": [
          "18707 Hardy Oak Blvd.",
          "STE 320"
        ],
        "city": "San Antonio",
        "state": "TX",
        "postalCode": "78258"
      },
      {
        "line": [
          "11130 Christus Hills",
          "STE 210"
        ],
        "city": "San Antonio",
        "state": "TX",
        "postalCode": "78251"
      },
      {
        "line": [
          "6204 Balcones Drive"
        ],
        "city": "Austin",
        "state": "TX",
        "postalCode": "78731"
      },
      {
        "line": [
          "1015 East 32nd Street",
          "STE 306"
        ],
        "city": "Austin",
        "state": "TX",
        "postalCode": "78705"
      },
      {
        "line": [
          "805 West 37th Street"
        ],
        "city": "Austin",
        "state": "TX",
        "postalCode": "78705"
      },
      {
        "line": [
          "901 West 38th Street",
          "STE 200"
        ],
        "city": "Austin",
        "state": "TX",
        "postalCode": "78705"
      },
      {
        "line": [
          "901 West 38th Street",
          "STE 300"
        ],
        "city": "Austin",
        "state": "TX",
        "postalCode": "78705"
      },
      {
        "line": [
          "805 West 37th Street"
        ],
        "city": "Austin",
        "state": "TX",
        "postalCode": "78705"
      },
      {
        "line": [
          "12221 Renfert Way",
          "STE 120"
        ],
        "city": "Austin",
        "state": "TX",
        "postalCode": "78758"
      },
      {
        "line": [
          "12221 Renfert Way",
          "STE 300"
        ],
        "city": "Austin",
        "state": "TX",
        "postalCode": "78758"
      },
      {
        "line": [
          "4101 James Casey Blvd.",
          "STE 100"
        ],
        "city": "Austin",
        "state": "TX",
        "postalCode": "78745"
      },
      {
        "line": [
          "3107 Highway 71 East"
        ],
        "city": "Bastrop",
        "state": "TX",
        "postalCode": "78602"
      },
      {
        "line": [
          "2150 N. Expressway 83"
        ],
        "city": "Brownsville",
        "state": "TX",
        "postalCode": "78521"
      },
      {
        "line": [
          "1401 Medical Pkwy.",
          "Building C, STE 200"
        ],
        "city": "Cedar Park",
        "state": "TX",
        "postalCode": "78613"
      },
      {
        "line": [
          "202 Posey Avenue"
        ],
        "city": "Clifton",
        "state": "TX",
        "postalCode": "76634"
      },
      {
        "line": [
          "1507 West Main Street"
        ],
        "city": "Gatesville",
        "state": "TX",
        "postalCode": "76528"
      },
      {
        "line": [
          "1500 Rivery Blvd.",
          "STE 2215"
        ],
        "city": "Georgetown",
        "state": "TX",
        "postalCode": "78628"
      },
      {
        "line": [
          "701 McClintic Drive",
          "Limestone Medical Center"
        ],
        "city": "Groesbeck",
        "state": "TX",
        "postalCode": "76642"
      },
      {
        "line": [
          "400 North Brown Street"
        ],
        "city": "Hamilton",
        "state": "TX",
        "postalCode": "76531"
      },
      {
        "line": [
          "800 W. Central Texas Expwy.",
          "STE 305"
        ],
        "city": "Harker Heights",
        "state": "TX",
        "postalCode": "76548"
      },
      {
        "line": [
          "2121 Pease",
          "STE 101"
        ],
        "city": "Harlingen",
        "state": "TX",
        "postalCode": "78550"
      },
      {
        "line": [
          "1323 E. Franklin Street",
          "STE 103"
        ],
        "city": "Hillsboro",
        "state": "TX",
        "postalCode": "76645"
      },
      {
        "line": [
          "211 Elmhurst Drive",
          "STE A"
        ],
        "city": "Kyle",
        "state": "TX",
        "postalCode": "78640"
      },
      {
        "line": [
          "2300 Lohmans Spur",
          "STE 104"
        ],
        "city": "Lakeway",
        "state": "TX",
        "postalCode": "78734"
      },
      {
        "line": [
          "505 Saint Davids Loop",
          "STE 311"
        ],
        "city": "Leander",
        "state": "TX",
        "postalCode": "78641"
      },
      {
        "line": [
          "104 Max Starcke Dam Road"
        ],
        "city": "Marble Falls",
        "state": "TX",
        "postalCode": "78654"
      },
      {
        "line": [
          "1901 S. Col Rowe Blvd."
        ],
        "city": "McAllen",
        "state": "TX",
        "postalCode": "78503"
      },
      {
        "line": [
          "514 S. Bonham Street",
          "STE. A"
        ],
        "city": "Mexia",
        "state": "TX",
        "postalCode": "76667"
      },
      {
        "line": [
          "2410 Round Rock Ave.",
          "STE 150"
        ],
        "city": "Round Rock",
        "state": "TX",
        "postalCode": "78681"
      },
      {
        "line": [
          "301 Seton Parkway",
          "STE 104"
        ],
        "city": "Round Rock",
        "state": "TX",
        "postalCode": "78665"
      },
      {
        "line": [
          "1308 Wonder World Drive"
        ],
        "city": "San Marcos",
        "state": "TX",
        "postalCode": "78666"
      },
      {
        "line": [
          "101 West Expressway 83"
        ],
        "city": "McAllen",
        "state": "TX",
        "postalCode": "78503"
      },
      {
        "line": [
          "1700 W. State Highway 6"
        ],
        "city": "Waco",
        "state": "TX",
        "postalCode": "76712"
      },
      {
        "line": [
          "6520 Horizon Circle"
        ],
        "city": "Waco",
        "state": "TX",
        "postalCode": "76712"
      },
      {
        "line": [
          "1330 E. 6th Street",
          "STE 204"
        ],
        "city": "Weslaco",
        "state": "TX",
        "postalCode": "78596"
      },
      {
        "line": [
          "7777 Forest Lane"
        ],
        "city": "Dallas",
        "state": "TX",
        "postalCode": "75230"
      },
      {
        "line": [
          "7777 Forest Lane",
          "STE D220"
        ],
        "city": "Dallas",
        "state": "TX",
        "postalCode": "75230"
      },
      {
        "line": [
          "7777 Forest Lane",
          "STE D400"
        ],
        "city": "Dallas",
        "state": "TX",
        "postalCode": "75230"
      },
      {
        "line": [
          "7777 Forest Lane",
          "STE C585"
        ],
        "city": "Dallas",
        "state": "TX",
        "postalCode": "75230"
      },
      {
        "line": [
          "7777 Forest Lane",
          "STE C614"
        ],
        "city": "Dallas",
        "state": "TX",
        "postalCode": "75230"
      },
      {
        "line": [
          "7777 Forest Lane",
          "STE C850"
        ],
        "city": "Dallas",
        "state": "TX",
        "postalCode": "75230"
      },
      {
        "line": [
          "7777 Forest Lane",
          "STE D110"
        ],
        "city": "Dallas",
        "state": "TX",
        "postalCode": "75230"
      },
      {
        "line": [
          "7777 Forest Lane",
          "STE D220"
        ],
        "city": "Dallas",
        "state": "TX",
        "postalCode": "75230"
      },
      {
        "line": [
          "7777 Forest Lane",
          "STE D400"
        ],
        "city": "Dallas",
        "state": "TX",
        "postalCode": "75230"
      },
      {
        "line": [
          "4700 N. Galloway Ave."
        ],
        "city": "Mesquite",
        "state": "TX",
        "postalCode": "75150"
      },
      {
        "line": [
          "2001 N. Jefferson",
          "STE 300"
        ],
        "city": "Mount Pleasant",
        "state": "TX",
        "postalCode": "75455"
      },
      {
        "line": [
          "3709 W. 15th Street"
        ],
        "city": "Plano",
        "state": "TX",
        "postalCode": "75075"
      },
      {
        "line": [
          "3705 W. 15th Street"
        ],
        "city": "Plano",
        "state": "TX",
        "postalCode": "75075"
      },
      {
        "line": [
          "7211 Preston Road",
          "3rd Floor, STE T3920"
        ],
        "city": "Plano",
        "state": "TX",
        "postalCode": "75024"
      },
      {
        "line": [
          "6300 W. Parker Road",
          "STE 123"
        ],
        "city": "Plano",
        "state": "TX",
        "postalCode": "75093"
      },
      {
        "line": [
          "6957 W. Plano Parkway",
          "STE 2000"
        ],
        "city": "Plano",
        "state": "TX",
        "postalCode": "75093"
      },
      {
        "line": [
          "8196 Walnut Hill Lane",
          "STE 100"
        ],
        "city": "Dallas",
        "state": "TX",
        "postalCode": "75231"
      },
      {
        "line": [
          "8160 Walnut Hill Lane ",
          "STE113"
        ],
        "city": "Dallas",
        "state": "TX",
        "postalCode": "75231"
      },
      {
        "line": [
          "3144 Horizon Road",
          "STE 110"
        ],
        "city": "Rockwall",
        "state": "TX",
        "postalCode": "75032"
      },
      {
        "line": [
          "3410 Worth Street",
          "STE 150"
        ],
        "city": "Dallas",
        "state": "TX",
        "postalCode": "75246"
      },
      {
        "line": [
          "3410 Worth Street",
          "STE 100"
        ],
        "city": "Dallas",
        "state": "TX",
        "postalCode": "75246"
      },
      {
        "line": [
          "3410 Worth Street",
          "STE 160"
        ],
        "city": "Dallas",
        "state": "TX",
        "postalCode": "75246"
      },
      {
        "line": [
          "3410 Worth Street",
          "STE 300"
        ],
        "city": "Dallas",
        "state": "TX",
        "postalCode": "75246"
      },
      {
        "line": [
          "3410 Worth Street",
          "STE 400"
        ],
        "city": "Dallas",
        "state": "TX",
        "postalCode": "75246"
      },
      {
        "line": [
          "3410 Worth Street",
          "STE 730"
        ],
        "city": "Dallas",
        "state": "TX",
        "postalCode": "75246"
      },
      {
        "line": [
          "10425 N. Central Expressway"
        ],
        "city": "Dallas",
        "state": "TX",
        "postalCode": "75231"
      },
      {
        "line": [
          "151 RGV PKWY",
          "STE 100"
        ],
        "city": "Waxahachie",
        "state": "TX",
        "postalCode": "75165"
      },
      {
        "line": [
          "906 West Randol Mill Road"
        ],
        "city": "Arlington",
        "state": "TX",
        "postalCode": "76012"
      },
      {
        "line": [
          "515 West Mayfield Road",
          "STE 101"
        ],
        "city": "Arlington",
        "state": "TX",
        "postalCode": "76014"
      },
      {
        "line": [
          "324 N.W. Parkway",
          "STE A"
        ],
        "city": "Azle",
        "state": "TX",
        "postalCode": "76020"
      },
      {
        "line": [
          "1609 Hospital Parkway"
        ],
        "city": "Bedford",
        "state": "TX",
        "postalCode": "76022"
      },
      {
        "line": [
          "191 Walls Drive"
        ],
        "city": "Cleburne",
        "state": "TX",
        "postalCode": "76033"
      },
      {
        "line": [
          "301 Hospital Drive"
        ],
        "city": "Corsicana",
        "state": "TX",
        "postalCode": "75110"
      },
      {
        "line": [
          "500 South Henderson Street"
        ],
        "city": "Fort Worth",
        "state": "TX",
        "postalCode": "76104"
      },
      {
        "line": [
          "6500 Harris Parkway"
        ],
        "city": "Fort Worth",
        "state": "TX",
        "postalCode": "76132"
      },
      {
        "line": [
          "1310B Paluxy Road ",
          "STE 2000"
        ],
        "city": "Granbury",
        "state": "TX",
        "postalCode": "76048"
      },
      {
        "line": [
          "1631 Lancaster Drive",
          "STE 150"
        ],
        "city": "Grapevine",
        "state": "TX",
        "postalCode": "76051"
      },
      {
        "line": [
          "2021 North MacArthur Blvd.",
          "STE 400"
        ],
        "city": "Irving",
        "state": "TX",
        "postalCode": "75061"
      },
      {
        "line": [
          "2001 North MacArthur Blvd.",
          "STE 120"
        ],
        "city": "Irving",
        "state": "TX",
        "postalCode": "75061"
      },
      {
        "line": [
          "9750 Hillwood Parkway"
        ],
        "city": "Fort Worth",
        "state": "TX",
        "postalCode": "76177"
      },
      {
        "line": [
          "7200 TX-Hwy. 161",
          "STE 300"
        ],
        "city": "Irving",
        "state": "TX",
        "postalCode": "75039"
      },
      {
        "line": [
          "252 Matlock Road",
          "STE 140 and 248"
        ],
        "city": "Mansfield",
        "state": "TX",
        "postalCode": "76063"
      },
      {
        "line": [
          "3555 W. Wheatland Road"
        ],
        "city": "Dallas",
        "state": "TX",
        "postalCode": "75237"
      },
      {
        "line": [
          "1441 N. Beckley Ave.",
          "STE 101"
        ],
        "city": "Dallas",
        "state": "TX",
        "postalCode": "75203"
      },
      {
        "line": [
          "221 W. Colorado Blvd.",
          "STE 532"
        ],
        "city": "Dallas",
        "state": "TX",
        "postalCode": "75208"
      },
      {
        "line": [
          "979 Don Floyd Drive",
          "STE 104"
        ],
        "city": "Midlothian",
        "state": "TX",
        "postalCode": "76065"
      },
      {
        "line": [
          "150 River North Blvd. "
        ],
        "city": "Stephenville",
        "state": "TX",
        "postalCode": "76401"
      },
      {
        "line": [
          "1626 W Hwy 287",
          "STE 102"
        ],
        "city": "Waxahachie",
        "state": "TX",
        "postalCode": "75165"
      },
      {
        "line": [
          "911 Foster Lane"
        ],
        "city": "Weatherford",
        "state": "TX",
        "postalCode": "76086"
      },
      {
        "line": [
          "1025 Birdsong Drive",
          "STE C"
        ],
        "city": "Baytown",
        "state": "TX",
        "postalCode": "77521"
      },
      {
        "line": [
          "3010 Harrison Avenue"
        ],
        "city": "Beaumont",
        "state": "TX",
        "postalCode": "77702"
      },
      {
        "line": [
          "235 W. Palm Street",
          "STE 108"
        ],
        "city": "Bellville",
        "state": "TX",
        "postalCode": "77418"
      },
      {
        "line": [
          "27700 Northwest Freeway",
          "STE 390"
        ],
        "city": "Cypress",
        "state": "TX",
        "postalCode": "77433"
      },
      {
        "line": [
          "21216 Northwest Freeway",
          "STE 140"
        ],
        "city": "Cypress",
        "state": "TX",
        "postalCode": "77429"
      },
      {
        "line": [
          "305 Sandy Corner Rd. ",
          "STE 220"
        ],
        "city": "El Campo",
        "state": "TX",
        "postalCode": "77437"
      },
      {
        "line": [
          "7500 Fannin Street ",
          "STE 100A and 100B"
        ],
        "city": "Houston",
        "state": "TX",
        "postalCode": "77054"
      },
      {
        "line": [
          "11920 Astoria Blvd.",
          "STE 240"
        ],
        "city": "Houston",
        "state": "TX",
        "postalCode": "77089"
      },
      {
        "line": [
          "18980 W. Memorial Drive",
          "STE 440"
        ],
        "city": "Humble",
        "state": "TX",
        "postalCode": "77338"
      },
      {
        "line": [
          "2014 S. Wheeler",
          "STE 170"
        ],
        "city": "Jasper",
        "state": "TX",
        "postalCode": "75951"
      },
      {
        "line": [
          "1331 West Grand Parkway North",
          "STE 340"
        ],
        "city": "Katy",
        "state": "TX",
        "postalCode": "77493"
      },
      {
        "line": [
          "925 Gessner Road",
          "STE 310"
        ],
        "city": "Houston",
        "state": "TX",
        "postalCode": "77024-2546"
      },
      {
        "line": [
          "925 Gessner Road",
          "STE 550"
        ],
        "city": "Houston",
        "state": "TX",
        "postalCode": "77024"
      },
      {
        "line": [
          "6901 Medical Center Dr., STE 200"
        ],
        "city": "Orange",
        "state": "TX",
        "postalCode": "77630-1411"
      },
      {
        "line": [
          "4000 Spencer Highway",
          "STE 200"
        ],
        "city": "Pasadena",
        "state": "TX",
        "postalCode": "77504"
      },
      {
        "line": [
          "10970 Shadow Creek Pkwy.",
          "STE 280"
        ],
        "city": "Pearland",
        "state": "TX",
        "postalCode": "77584"
      },
      {
        "line": [
          "2501 Jimmy Johnson Blvd.",
          "STE 205"
        ],
        "city": "Port Arthur",
        "state": "TX",
        "postalCode": "77640"
      },
      {
        "line": [
          "1036 N Circle Dr. STE 102"
        ],
        "city": "Sealy",
        "state": "TX",
        "postalCode": "77474"
      },
      {
        "line": [
          "7515 South Main Street",
          "STE 740"
        ],
        "city": "Houston",
        "state": "TX",
        "postalCode": "77030"
      },
      {
        "line": [
          "1350 First Colony Blvd."
        ],
        "city": "Sugar Land",
        "state": "TX",
        "postalCode": "77479"
      },
      {
        "line": [
          "6807 Emmett F. Lowry Expwy.",
          "STE 304"
        ],
        "city": "Texas City",
        "state": "TX",
        "postalCode": "77591"
      },
      {
        "line": [
          "920 Medical Plaza Drive",
          "STE 100"
        ],
        "city": "The Woodlands",
        "state": "TX",
        "postalCode": "77380"
      },
      {
        "line": [
          "9180 Pinecroft",
          "STE 600"
        ],
        "city": "Shenandoah",
        "state": "TX",
        "postalCode": "77380"
      },
      {
        "line": [
          "920 Medical Plaza Drive",
          "STE 100"
        ],
        "city": "The Woodlands",
        "state": "TX",
        "postalCode": "77380"
      },
      {
        "line": [
          "506 Graham Drive",
          "STE 200"
        ],
        "city": "Tomball",
        "state": "TX",
        "postalCode": "77375"
      },
      {
        "line": [
          "501 West Medical Center Blvd."
        ],
        "city": "Webster",
        "state": "TX",
        "postalCode": "77598"
      },
      {
        "line": [
          "400 West Medical Center Blvd.",
          "STE 205"
        ],
        "city": "Webster",
        "state": "TX",
        "postalCode": "77598"
      },
      {
        "line": [
          "450 West Medical Center Blvd.",
          "STE 540"
        ],
        "city": "Webster",
        "state": "TX",
        "postalCode": "77598"
      },
      {
        "line": [
          "12121 Richmond Ave",
          "STE115"
        ],
        "city": "Houston",
        "state": "TX",
        "postalCode": "77082"
      },
      {
        "line": [
          "13215 Dotson Road",
          "STE 170"
        ],
        "city": "Houston",
        "state": "TX",
        "postalCode": "77070"
      },
      {
        "line": [
          "13215 Dotson Road",
          "STE 300"
        ],
        "city": "Houston",
        "state": "TX",
        "postalCode": "77070"
      },
      {
        "line": [
          "7777 Forest Lane, Building C",
          "Suite 707"
        ],
        "city": "Dallas",
        "state": "TX",
        "postalCode": "75230"
      },
      {
        "line": [
          "1105 Central Expressway ",
          "STE 320"
        ],
        "city": "Allen",
        "state": "TX",
        "postalCode": "75013"
      },
      {
        "line": [
          "18780 Interstate 20"
        ],
        "city": "Canton",
        "state": "TX",
        "postalCode": "75103"
      },
      {
        "line": [
          "4352 N. Josey Lane"
        ],
        "city": "Carrollton",
        "state": "TX",
        "postalCode": "75010"
      },
      {
        "line": [
          "1713 S. FM 51",
          "STE 201"
        ],
        "city": "Decatur",
        "state": "TX",
        "postalCode": "76234"
      },
      {
        "line": [
          "5125 Texoma Medical Center Drive",
          "STE 100"
        ],
        "city": "Denison",
        "state": "TX",
        "postalCode": "75020"
      },
      {
        "line": [
          "2600 Scripture Street"
        ],
        "city": "Denton",
        "state": "TX",
        "postalCode": "76201"
      },
      {
        "line": [
          "4370 Medical Arts Drive",
          "STE 100 and 315"
        ],
        "city": "Flower Mound",
        "state": "TX",
        "postalCode": "75028"
      },
      {
        "line": [
          "4461 Coit Road",
          "STE 100"
        ],
        "city": "Frisco",
        "state": "TX",
        "postalCode": "75035"
      },
      {
        "line": [
          "5858 W. Main Street ",
          "STE 120"
        ],
        "city": "Frisco",
        "state": "TX",
        "postalCode": "75033"
      },
      {
        "line": [
          "7150 N. President George Bush Hwy.",
          "STE 200"
        ],
        "city": "Garland",
        "state": "TX",
        "postalCode": "75044"
      },
      {
        "line": [
          "4215 Joe Ramsey Blvd."
        ],
        "city": "Greenville",
        "state": "TX",
        "postalCode": "75401"
      },
      {
        "line": [
          "1425 E. Lincoln Road",
          "STE B3"
        ],
        "city": "Idabel",
        "state": "OK",
        "postalCode": "74745"
      },
      {
        "line": [
          "2026 South Jackson"
        ],
        "city": "Jacksonville",
        "state": "TX",
        "postalCode": "75766"
      },
      {
        "line": [
          "500 W. Main Street",
          "STE 350"
        ],
        "city": "Lewisville",
        "state": "TX",
        "postalCode": "75057"
      },
      {
        "line": [
          "1921 State Hwy 121",
          "STE 200"
        ],
        "city": "Lewisville",
        "state": "TX",
        "postalCode": "75056"
      },
      {
        "line": [
          "1300 North 4th Street"
        ],
        "city": "Longview",
        "state": "TX",
        "postalCode": "75601"
      },
      {
        "line": [
          "1400 North 4th Street"
        ],
        "city": "Longview",
        "state": "TX",
        "postalCode": "75601"
      },
      {
        "line": [
          "815 S. Washington Ave.",
          "STE 204"
        ],
        "city": "Marshall",
        "state": "TX",
        "postalCode": "75670"
      },
      {
        "line": [
          "5236 W. University Drive",
          "STE 1000"
        ],
        "city": "McKinney",
        "state": "TX",
        "postalCode": "75071"
      },
      {
        "line": [
          "5236 W. University Drive",
          "STE 1700"
        ],
        "city": "McKinney",
        "state": "TX",
        "postalCode": "75071"
      },
      {
        "line": [
          "4510 Medical Center Drive",
          "STE 215"
        ],
        "city": "McKinney",
        "state": "TX",
        "postalCode": "75069"
      },
      {
        "line": [
          "506 S. State Hwy. 37"
        ],
        "city": "Mount Vernon",
        "state": "TX",
        "postalCode": "75457"
      },
      {
        "line": [
          "4800 NE Stallings STE 1500"
        ],
        "city": "Nacogdoches ",
        "state": "TX",
        "postalCode": "75965"
      },
      {
        "line": [
          "3415 South Loop 256"
        ],
        "city": "Palestine",
        "state": "TX",
        "postalCode": "75801"
      },
      {
        "line": [
          "3550 N.E. Loop 286"
        ],
        "city": "Paris",
        "state": "TX",
        "postalCode": "75460"
      },
      {
        "line": [
          "408 Quitman Street",
          "STE B"
        ],
        "city": "Pittsburg",
        "state": "TX",
        "postalCode": "75686"
      },
      {
        "line": [
          "4708 Alliance Blvd. ",
          "STE 150 and STE 475"
        ],
        "city": "Plano",
        "state": "TX",
        "postalCode": "75093"
      },
      {
        "line": [
          "4708 Alliance Blvd.",
          "STE 750"
        ],
        "city": "Plano",
        "state": "TX",
        "postalCode": "75093"
      },
      {
        "line": [
          "5920 W. Parker Road",
          "STE 100"
        ],
        "city": "Plano",
        "state": "TX",
        "postalCode": "75093"
      },
      {
        "line": [
          "1501 West Royal Lane"
        ],
        "city": "Irving",
        "state": "TX",
        "postalCode": "75063"
      },
      {
        "line": [
          "9100 Lakeview Parkway"
        ],
        "city": "Rowlett",
        "state": "TX",
        "postalCode": "75088"
      },
      {
        "line": [
          "1228 Church Street"
        ],
        "city": "Sulphur Springs",
        "state": "TX",
        "postalCode": "75482"
      },
      {
        "line": [
          "501 Saunders Ave."
        ],
        "city": "Tyler",
        "state": "TX",
        "postalCode": "75702"
      },
      {
        "line": [
          "12221 Merit Drive",
          "Suite 500"
        ],
        "city": "Dallas",
        "state": "TX",
        "postalCode": "75251"
      },
      {
        "line": [
          "6204 Balcones Drive"
        ],
        "city": "Austin",
        "state": "TX",
        "postalCode": "78731"
      },
      {
        "line": [
          "1904 Pine Street ",
          "STE 1A "
        ],
        "city": "Abilene",
        "state": "TX",
        "postalCode": "79601"
      },
      {
        "line": [
          "1957 Antilley Road"
        ],
        "city": "Abilene",
        "state": "TX",
        "postalCode": "79606"
      },
      {
        "line": [
          "1042 Hickory St."
        ],
        "city": "Abilene",
        "state": "TX",
        "postalCode": "76901-4106"
      },
      {
        "line": [
          "1826 Point West Pkwy"
        ],
        "city": "Amarillo",
        "state": "TX",
        "postalCode": "79124"
      },
      {
        "line": [
          "1411 N. Main Street"
        ],
        "city": "Andrews",
        "state": "TX",
        "postalCode": "79714"
      },
      {
        "line": [
          "1608 W. FM 700",
          "STE. A"
        ],
        "city": "Big Spring",
        "state": "TX",
        "postalCode": "79720"
      },
      {
        "line": [
          "1010 N. Mill Street"
        ],
        "city": "Bowie",
        "state": "TX",
        "postalCode": "76230"
      },
      {
        "line": [
          "200 S. Geneva Street"
        ],
        "city": "Breckenridge",
        "state": "TX",
        "postalCode": "76424"
      },
      {
        "line": [
          "310 Pecos Street"
        ],
        "city": "Coleman",
        "state": "TX",
        "postalCode": "76834"
      },
      {
        "line": [
          "304 S. Daugherty"
        ],
        "city": "Eastland",
        "state": "TX",
        "postalCode": "76448"
      },
      {
        "line": [
          "7848 Gateway East"
        ],
        "city": "El Paso",
        "state": "TX",
        "postalCode": "79915"
      },
      {
        "line": [
          "1901 Grandview Avenue"
        ],
        "city": "El Paso",
        "state": "TX",
        "postalCode": "79902"
      },
      {
        "line": [
          "3270 Joe Battle",
          "STE 312"
        ],
        "city": "El Paso",
        "state": "TX",
        "postalCode": "79938"
      },
      {
        "line": [
          "10460 Vista Del Sol Drive",
          "STE 100"
        ],
        "city": "El Paso",
        "state": "TX",
        "postalCode": "79925"
      },
      {
        "line": [
          "1339 East Street"
        ],
        "city": "Graham",
        "state": "TX",
        "postalCode": "76450"
      },
      {
        "line": [
          "217 W. Belknap Street"
        ],
        "city": "Jacksboro",
        "state": "TX",
        "postalCode": "76458"
      },
      {
        "line": [
          "424 N Utica Ave"
        ],
        "city": "Lubbock",
        "state": "TX",
        "postalCode": "79416"
      },
      {
        "line": [
          "400 Rosalind Redfern Grover Pkwy.",
          "STE 100, Craddick MOB"
        ],
        "city": "Midland",
        "state": "TX",
        "postalCode": "79701"
      },
      {
        "line": [
          "100 Park Road"
        ],
        "city": "Nocona",
        "state": "TX",
        "postalCode": "76255"
      },
      {
        "line": [
          "500 W. 3rd Street"
        ],
        "city": "Odessa",
        "state": "TX",
        "postalCode": "79761"
      },
      {
        "line": [
          "100 S. Avenue M"
        ],
        "city": "Olney",
        "state": "TX",
        "postalCode": "76374"
      },
      {
        "line": [
          "301 Jenny George Lane",
          "BLDG B, STE 4"
        ],
        "city": "Sweetwater",
        "state": "TX",
        "postalCode": "79556"
      },
      {
        "line": [
          "4103 Wilbarger Street"
        ],
        "city": "Vernon",
        "state": "TX",
        "postalCode": "76384"
      },
      {
        "line": [
          "5400 Kell Boulevard"
        ],
        "city": "Wichita Falls",
        "state": "TX",
        "postalCode": "76310"
      }
    ],
    "endpoint": [
      {
        "reference": "Endpoint/b003-4871-b587-ff6ce4705fcb"
      }
    ]
  },
  "fullUrl": "https://g2fhir.mckesson.com/xfhir/Organization/39E8045033EB223BE0540010E076CAE3"
}