{
  "resource": {
    "resourceType": "Organization",
    "id": "CBA62F61F36C41C5AD49DF9D090D9F08",
    "identifier": [
      {
        "system": "http://hl7.org/fhir/sid/us-npi",
        "value": "1346294519"
      }
    ],
    "active": true,
    "type": [
      {
        "coding": [
          {
            "system": "http://terminology.hl7.org/CodeSystem/organization-type",
            "code": "prov",
            "display": "Healthcare Provider"
          }
        ],
        "text": "Healthcare Provider"
      }
    ],
    "name": "Virginia Cancer Specialists",
    "telecom": [
      {
        "extension": [
          {
            "url": "http://hl7.org/fhir/StructureDefinition/data-absent-reason",
            "valueCode": "unknown"
          }
        ]
      }
    ],
    "address": [
      {
        "line": [
          "4660 Kenmore Ave",
          "Suite 1018"
        ],
        "city": "Alexandria",
        "state": "VA",
        "postalCode": "22304"
      },
      {
        "line": [
          "1100 North Glebe Road, Ste 1600"
        ],
        "city": "Arlington",
        "state": "VA",
        "postalCode": "22201"
      },
      {
        "line": [
          "1635 N George Mason Drive",
          "Ste 170"
        ],
        "city": "Arlington",
        "state": "VA",
        "postalCode": "22205"
      },
      {
        "line": [
          "1701 N George Mason Drive",
          "Ste G-101"
        ],
        "city": "Arlington",
        "state": "VA",
        "postalCode": "22205"
      },
      {
        "line": [
          "1100 N. Glebe Rd, Suite 1600"
        ],
        "city": "Arlington",
        "state": "VA",
        "postalCode": "22201"
      },
      {
        "line": [
          "7500 Old Georgetown Road",
          "Suite 301"
        ],
        "city": "Bethesda",
        "state": "MD",
        "postalCode": "20814"
      },
      {
        "line": [
          "8503 Arlington Blvd",
          "STE 340"
        ],
        "city": "Fairfax",
        "state": "VA",
        "postalCode": "22031"
      },
      {
        "line": [
          "5530 Wisconsin Ave",
          "Suite 1660"
        ],
        "city": "Chevy Chase",
        "state": "MD",
        "postalCode": "20815"
      },
      {
        "line": [
          "3650 Joseph Siewick Dr",
          "STE 200"
        ],
        "city": "Fairfax",
        "state": "VA",
        "postalCode": "22033"
      },
      {
        "line": [
          "3700 Joseph Siewick Dr, Ste 408"
        ],
        "city": "Fairfax",
        "state": "VA",
        "postalCode": "22033"
      },
      {
        "line": [
          "8503 Arlington Blvd",
          "Suit 400"
        ],
        "city": "Fairfax",
        "state": "VA",
        "postalCode": "22031"
      },
      {
        "line": [
          "8613 Lee Hwy"
        ],
        "city": "Fairfax",
        "state": "VA",
        "postalCode": "22031"
      },
      {
        "line": [
          "8613 Lee Hwy"
        ],
        "city": "Fairfax",
        "state": "VA",
        "postalCode": "22031"
      },
      {
        "line": [
          "210 West Shirley Ave",
          "Suite 111"
        ],
        "city": "Warrenton",
        "state": "VA",
        "postalCode": "20186"
      },
      {
        "line": [
          "7901 Lake Manassas Drive"
        ],
        "city": "Gainesville",
        "state": "VA",
        "postalCode": "20155"
      },
      {
        "line": [
          "44035 Riverside Pkwy"
        ],
        "city": "Leesburg",
        "state": "VA",
        "postalCode": "20176"
      },
      {
        "line": [
          "277 S Washington St",
          "Suite 100"
        ],
        "city": "Alexandria",
        "state": "VA",
        "postalCode": "22314"
      },
      {
        "line": [
          "8613 Lee Hwy"
        ],
        "city": "Fairfax",
        "state": "VA",
        "postalCode": "22031"
      },
      {
        "line": [
          "8613 Lee Hwy"
        ],
        "city": "Fairfax",
        "state": "VA",
        "postalCode": "22031"
      },
      {
        "line": [
          "8613 Lee Hwy"
        ],
        "city": "Fairfax",
        "state": "VA",
        "postalCode": "22031"
      },
      {
        "line": [
          "8503 Arlington Blvd",
          "STE 400"
        ],
        "city": "Fairfax",
        "state": "VA",
        "postalCode": "22031"
      },
      {
        "line": [
          "8503 Arlington Blvd",
          "STE 400"
        ],
        "city": "Fairfax",
        "state": "VA",
        "postalCode": "22031"
      },
      {
        "line": [
          "1860 Town Center Dr",
          "STE 460"
        ],
        "city": "Reston",
        "state": "VA",
        "postalCode": "20190"
      },
      {
        "line": [
          "1850 Town Center Pkwy"
        ],
        "city": "Reston",
        "state": "VA",
        "postalCode": "20190"
      },
      {
        "line": [
          "1860 Town Center Pkwy",
          "Suite G100"
        ],
        "city": "Reston",
        "state": "VA",
        "postalCode": "20190"
      },
      {
        "line": [
          "9905 Medical Center Dr",
          "STE 200"
        ],
        "city": "Rockville",
        "state": "MD",
        "postalCode": "20850"
      },
      {
        "line": [
          "8613 Lee Hwy"
        ],
        "city": "Fairfax",
        "state": "VA",
        "postalCode": "22031"
      },
      {
        "line": [
          "9450 INNOVATION DR"
        ],
        "city": "MANASSAS",
        "state": "VA",
        "postalCode": "20110"
      },
      {
        "line": [
          "44035 Riverside Parkway Ste. 310"
        ],
        "city": "Leesburg",
        "state": "VA",
        "postalCode": "20176"
      },
      {
        "line": [
          "3040 Williams Dr",
          "Suite 100"
        ],
        "city": "Fairfax",
        "state": "VA",
        "postalCode": "22031"
      },
      {
        "line": [
          "2280 Opitz Blvd ",
          "Suite 130"
        ],
        "city": "Woodbridge",
        "state": "VA",
        "postalCode": "22191"
      },
      {
        "line": [
          "2280 Opitz Blvd",
          "Suite 300"
        ],
        "city": "Woodbridge",
        "state": "VA",
        "postalCode": "22191"
      }
    ],
    "endpoint": [
      {
        "reference": "Endpoint/b003-4871-b587-ff6ce4705fcb"
      }
    ]
  },
  "fullUrl": "https://g2fhir.mckesson.com/xfhir/Organization/CBA62F61F36C41C5AD49DF9D090D9F08"
}