{
  "resource": {
    "resourceType": "Organization",
    "id": "B3A6C78C09B5450097F16929EB9E1EC6",
    "active": true,
    "type": [
      {
        "coding": [
          {
            "system": "http://terminology.hl7.org/CodeSystem/organization-type",
            "code": "prov",
            "display": "Healthcare Provider"
          }
        ],
        "text": "Healthcare Provider"
      }
    ],
    "name": "Willamette Valley Cancer Institute ",
    "telecom": [
      {
        "extension": [
          {
            "url": "http://hl7.org/fhir/StructureDefinition/data-absent-reason",
            "valueCode": "unknown"
          }
        ]
      }
    ],
    "address": [
      {
        "line": [
          "2615 Willetta St"
        ],
        "city": "Albany",
        "state": "OR",
        "postalCode": "97321"
      },
      {
        "line": [
          "444 NW Elks Drive"
        ],
        "city": "Corvallis",
        "state": "OR",
        "postalCode": "97330"
      },
      {
        "line": [
          "520 Country Club Road"
        ],
        "city": "Eugene",
        "state": "OR",
        "postalCode": "97401"
      },
      {
        "line": [
          "340 9th ST"
        ],
        "city": "Florence",
        "state": "OR",
        "postalCode": "97439"
      },
      {
        "line": [
          "3600 NW Samaritan Dr,"
        ],
        "city": "Corvallis",
        "state": "OR",
        "postalCode": "97330"
      },
      {
        "line": [
          "3105 NE West Devils Lake Road"
        ],
        "city": "Lincoln City",
        "state": "OR",
        "postalCode": "97367"
      },
      {
        "line": [
          "2039 North Coast Hwy"
        ],
        "city": "Newport",
        "state": "OR",
        "postalCode": "97365"
      },
      {
        "line": [
          "3355 RiverBend Drive",
          "Suite 240"
        ],
        "city": "Springfield",
        "state": "OR",
        "postalCode": "97477"
      },
      {
        "line": [
          "1460 G St,"
        ],
        "city": "Springfield",
        "state": "OR",
        "postalCode": " 97477"
      },
      {
        "line": [
          "1460 G St,"
        ],
        "city": "Springfield",
        "state": "OR",
        "postalCode": "97477"
      }
    ],
    "endpoint": [
      {
        "reference": "Endpoint/b003-4871-b587-ff6ce4705fcb"
      }
    ]
  },
  "fullUrl": "https://g2fhir.mckesson.com/xfhir/Organization/B3A6C78C09B5450097F16929EB9E1EC6"
}