{
  "resource": {
    "resourceType": "Organization",
    "id": "E16D0FE374BD4523A546AACE6F51939B",
    "identifier": [
      {
        "system": "http://hl7.org/fhir/sid/us-npi",
        "value": "1467551762"
      }
    ],
    "active": true,
    "type": [
      {
        "coding": [
          {
            "system": "http://terminology.hl7.org/CodeSystem/organization-type",
            "code": "prov",
            "display": "Healthcare Provider"
          }
        ],
        "text": "Healthcare Provider"
      }
    ],
    "name": "Cancer Care Centers of Brevard",
    "telecom": [
      {
        "extension": [
          {
            "url": "http://hl7.org/fhir/StructureDefinition/data-absent-reason",
            "valueCode": "unknown"
          }
        ]
      }
    ],
    "address": [
      {
        "line": [
          "2290 W Eau Gallie Blvd",
          "STE 202"
        ],
        "city": "Melbourne",
        "state": "FL",
        "postalCode": "32935"
      },
      {
        "line": [
          "1430 S. Pine Street"
        ],
        "city": "Melbourne",
        "state": "FL",
        "postalCode": "32901"
      },
      {
        "line": [
          "20 San Filippo Dr SE"
        ],
        "city": "Palm Bay",
        "state": "FL",
        "postalCode": "32909"
      },
      {
        "line": [
          "20  San Filippo Dr. SE"
        ],
        "city": "Palm Bay ",
        "state": "FL",
        "postalCode": "32909-2200"
      },
      {
        "line": [
          "1048 Harvin Way"
        ],
        "city": "Rockledge",
        "state": "FL",
        "postalCode": "32955"
      },
      {
        "line": [
          "1541 South Wickham Road"
        ],
        "city": "Melbourne",
        "state": "FL",
        "postalCode": "32904-3540"
      },
      {
        "line": [
          "13050 US Highway 1"
        ],
        "city": "Sebastian",
        "state": "FL",
        "postalCode": "32958"
      },
      {
        "line": [
          "6450 N. Wickham Rd",
          "Suite 105"
        ],
        "city": "Melbourne",
        "state": "FL",
        "postalCode": "32940"
      },
      {
        "line": [
          "850 Century Medical Dr."
        ],
        "city": "Titusville",
        "state": "FL",
        "postalCode": "32796"
      }
    ],
    "endpoint": [
      {
        "reference": "Endpoint/b003-4871-b587-ff6ce4705fcb"
      }
    ]
  },
  "fullUrl": "https://g2fhir.mckesson.com/xfhir/Organization/E16D0FE374BD4523A546AACE6F51939B"
}