{
  "resource": {
    "resourceType": "Organization",
    "id": "DE6FDB4D8A0241A0994EE4D31E07F3F0",
    "identifier": [
      {
        "system": "http://hl7.org/fhir/sid/us-npi",
        "value": "1841251394"
      }
    ],
    "active": true,
    "type": [
      {
        "coding": [
          {
            "system": "http://terminology.hl7.org/CodeSystem/organization-type",
            "code": "prov",
            "display": "Healthcare Provider"
          }
        ],
        "text": "Healthcare Provider"
      }
    ],
    "name": "Cancer Center of Kansas",
    "telecom": [
      {
        "extension": [
          {
            "url": "http://hl7.org/fhir/StructureDefinition/data-absent-reason",
            "valueCode": "unknown"
          }
        ]
      }
    ],
    "address": [
      {
        "line": [
          "505 S. Plummer",
          "Ashley Clinic"
        ],
        "city": "Chanute",
        "state": "KS",
        "postalCode": "66720"
      },
      {
        "line": [
          "116 W. Ross Blvd"
        ],
        "city": "Dodge City",
        "state": "KS",
        "postalCode": "67801"
      },
      {
        "line": [
          "700 W. Central, Ste 100",
          "Susan B. Allen Memorial Hospital"
        ],
        "city": "El Dorado",
        "state": "KS",
        "postalCode": "67042"
      },
      {
        "line": [
          "9050 E 29th St N ",
          "Suite 40"
        ],
        "city": "Wichita",
        "state": "KS",
        "postalCode": "67226"
      },
      {
        "line": [
          "510 N. Peter Pan Rd.",
          "Independence Healthcare Center"
        ],
        "city": "Independence",
        "state": "KS",
        "postalCode": "67301"
      },
      {
        "line": [
          "1102 St Mary's Rd, Suite 202",
          "Geary Community Hospital"
        ],
        "city": "Junction City",
        "state": "KS",
        "postalCode": "66441-4139"
      },
      {
        "line": [
          "750 W. Ave. D",
          "Kingman Hospital"
        ],
        "city": "Kingman",
        "state": "KS",
        "postalCode": "67068"
      },
      {
        "line": [
          "818 N Emporia St.",
          "Suite 100"
        ],
        "city": "Wichita",
        "state": "KS",
        "postalCode": "67214"
      },
      {
        "line": [
          "305 W. 15th St. ",
          "Southwest Medical Center, Ste 203"
        ],
        "city": "Liberal",
        "state": "KS",
        "postalCode": "67901"
      },
      {
        "line": [
          "8301 Positano Dr"
        ],
        "city": "Manhattan",
        "state": "KS",
        "postalCode": "66502-4861"
      },
      {
        "line": [
          "708 N. 18th St."
        ],
        "city": "Marysville",
        "state": "KS",
        "postalCode": "66508-1338"
      },
      {
        "line": [
          "1000 Hospital Dr.",
          "McPherson Memorial Hospital"
        ],
        "city": "McPherson",
        "state": "KS",
        "postalCode": "67460"
      },
      {
        "line": [
          "2600 Ottawa Rd",
          "Wilson Medical Center"
        ],
        "city": "Neodesha",
        "state": "KS",
        "postalCode": "66757"
      },
      {
        "line": [
          "720 Medical Center Dr.",
          "Newton Medical Center"
        ],
        "city": "Newton",
        "state": "KS",
        "postalCode": "67114"
      },
      {
        "line": [
          "1902 S. US Hwy 59, Building E, Suite 304",
          "Labette Health"
        ],
        "city": "Parsons",
        "state": "KS",
        "postalCode": "67357"
      },
      {
        "line": [
          "124 Commodore, Suite A",
          "Pratt Regional Medical Center"
        ],
        "city": "Pratt",
        "state": "KS",
        "postalCode": "67124"
      },
      {
        "line": [
          "600 S. Santa Fe",
          "Suite E"
        ],
        "city": "Salina",
        "state": "KS",
        "postalCode": "67401"
      },
      {
        "line": [
          "507 E. 16th St.",
          "Suite 1"
        ],
        "city": "Wellington",
        "state": "KS",
        "postalCode": "67152"
      },
      {
        "line": [
          "9050 E 29th N",
          "Suite 100"
        ],
        "city": "Wichita",
        "state": "KS",
        "postalCode": "67226"
      },
      {
        "line": [
          "3243 E. Murdock St.",
          "Suite 300"
        ],
        "city": "Wichita",
        "state": "KS",
        "postalCode": "67208"
      },
      {
        "line": [
          "818 N. Emporia St.",
          "Suite 403"
        ],
        "city": "Wichita",
        "state": "KS",
        "postalCode": "67214"
      },
      {
        "line": [
          "1305 E 5th Ave",
          "Winfield Health Care Center"
        ],
        "city": "Winfield",
        "state": "KS",
        "postalCode": "67156"
      }
    ],
    "endpoint": [
      {
        "reference": "Endpoint/b003-4871-b587-ff6ce4705fcb"
      }
    ]
  },
  "fullUrl": "https://g2fhir.mckesson.com/xfhir/Organization/DE6FDB4D8A0241A0994EE4D31E07F3F0"
}