{
  "resource": {
    "resourceType": "Organization",
    "id": "AF45C682892B49B0A6865D37DEBD7F17",
    "identifier": [
      {
        "system": "http://hl7.org/fhir/sid/us-npi",
        "value": "1518941186"
      }
    ],
    "active": true,
    "type": [
      {
        "coding": [
          {
            "system": "http://terminology.hl7.org/CodeSystem/organization-type",
            "code": "prov",
            "display": "Healthcare Provider"
          }
        ],
        "text": "Healthcare Provider"
      }
    ],
    "name": "Rocky Mountain Cancer Centers",
    "telecom": [
      {
        "extension": [
          {
            "url": "http://hl7.org/fhir/StructureDefinition/data-absent-reason",
            "valueCode": "unknown"
          }
        ]
      }
    ],
    "address": [
      {
        "line": [
          "1700 South Potomac St. "
        ],
        "city": "Aurora",
        "state": "CO",
        "postalCode": "80012"
      },
      {
        "line": [
          "1700 S. POTOMAC ST."
        ],
        "city": "Aurora",
        "state": "CO",
        "postalCode": "80012"
      },
      {
        "line": [
          "80 Health Park Drive",
          "STE 270"
        ],
        "city": "Louisville",
        "state": "CO",
        "postalCode": "80027"
      },
      {
        "line": [
          "4715 Arapahoe Ave."
        ],
        "city": "Boulder",
        "state": "CO",
        "postalCode": "80303-1385"
      },
      {
        "line": [
          "4715 Arapahoe Avenue"
        ],
        "city": "Boulder",
        "state": "CO",
        "postalCode": "80303"
      },
      {
        "line": [
          "4715 ARAPAHOE AVE"
        ],
        "city": "Boulder",
        "state": "CO",
        "postalCode": "80303"
      },
      {
        "line": [
          "286 16th Street"
        ],
        "city": "Burlington",
        "state": "CO",
        "postalCode": "80807"
      },
      {
        "line": [
          "109 Latigo Lane, Suite E"
        ],
        "city": "Canon City",
        "state": "CO",
        "postalCode": "81212"
      },
      {
        "line": [
          "1189 S Perry St",
          "Suite 230"
        ],
        "city": "Castle Rock",
        "state": "CO",
        "postalCode": "80104"
      },
      {
        "line": [
          "14000 East Arapahoe Road, Suite 160"
        ],
        "city": "Centennial",
        "state": "CO",
        "postalCode": "80112"
      },
      {
        "line": [
          "111 6th Street"
        ],
        "city": "Hugo",
        "state": "CO",
        "postalCode": "80821"
      },
      {
        "line": [
          "1100 Carson Avenue, Suite 201"
        ],
        "city": "La Junta",
        "state": "CO",
        "postalCode": "81050"
      },
      {
        "line": [
          "11750  W 2nd Place, Ste 160",
          "Medical Plaza 1"
        ],
        "city": "Lakewood",
        "state": "CO",
        "postalCode": "80228"
      },
      {
        "line": [
          "22 West Dry Creek Circle"
        ],
        "city": "Littleton",
        "state": "CO",
        "postalCode": "80120"
      },
      {
        "line": [
          "22 W Dry Creek Circle"
        ],
        "city": "Littleton",
        "state": "CO",
        "postalCode": "80120"
      },
      {
        "line": [
          "1760 E Ken Pratt Blvd",
          " Suite 302"
        ],
        "city": "Longmont",
        "state": "CO",
        "postalCode": "80504"
      },
      {
        "line": [
          "1760 E Ken Pratt Blvd",
          "Suite 301"
        ],
        "city": "Longmont",
        "state": "CO",
        "postalCode": "80504"
      },
      {
        "line": [
          "90 Health Park Drive",
          "#340"
        ],
        "city": "Louisville",
        "state": "CO",
        "postalCode": "80027"
      },
      {
        "line": [
          "1800 Williams Street",
          "Suite 200"
        ],
        "city": "Denver",
        "state": "CO",
        "postalCode": "80218"
      },
      {
        "line": [
          "1800 Williams Street #100"
        ],
        "city": "Denver",
        "state": "CO",
        "postalCode": "80218"
      },
      {
        "line": [
          "1800 Williams Street, Suite 200"
        ],
        "city": "Denver",
        "state": "CO",
        "postalCode": "80218"
      },
      {
        "line": [
          "8820 Huron Street"
        ],
        "city": "Thornton",
        "state": "CO",
        "postalCode": "80260"
      },
      {
        "line": [
          "2312 N. Nevada #400"
        ],
        "city": "Colorado Springs ",
        "state": "CO",
        "postalCode": "80907"
      },
      {
        "line": [
          "2312 N. Nevada Ave",
          "Suite 400"
        ],
        "city": "Colorado Springs",
        "state": "CO",
        "postalCode": "80907"
      },
      {
        "line": [
          "525 WEST 15TH ST SUITE 200"
        ],
        "city": "Pueblo",
        "state": "CO",
        "postalCode": "81003"
      },
      {
        "line": [
          "701 East Hampden Avenue, Suite 300"
        ],
        "city": "Englewood",
        "state": "CO",
        "postalCode": "80113"
      },
      {
        "line": [
          "4700 East Hale Parkway, Suite 400"
        ],
        "city": "Denver",
        "state": "CO",
        "postalCode": "80220"
      },
      {
        "line": [
          "10107 RidgeGate Pkwy #g01"
        ],
        "city": "Lonetree",
        "state": "CO",
        "postalCode": "80124"
      },
      {
        "line": [
          "10107 RidgeGate Parkway, Suite 200"
        ],
        "city": "Lone Tree",
        "state": "CO",
        "postalCode": "80124"
      },
      {
        "line": [
          "6031 E. Woodmen Rd., Ste 200"
        ],
        "city": "Colorado Springs",
        "state": "CO",
        "postalCode": "80923"
      },
      {
        "line": [
          "1100 Central Park Drive",
          "Ste. 2000"
        ],
        "city": "Steamboat Springs",
        "state": "CO",
        "postalCode": "80487"
      },
      {
        "line": [
          "8820 Huron Street"
        ],
        "city": "Thornton",
        "state": "CO",
        "postalCode": "80260"
      },
      {
        "line": [
          "8820 Huron Street"
        ],
        "city": "Thornton",
        "state": "CO",
        "postalCode": "80260"
      }
    ],
    "endpoint": [
      {
        "reference": "Endpoint/b003-4871-b587-ff6ce4705fcb"
      }
    ]
  },
  "fullUrl": "https://g2fhir.mckesson.com/xfhir/Organization/AF45C682892B49B0A6865D37DEBD7F17"
}