{
  "resource": {
    "resourceType": "Organization",
    "id": "1cea82fa-90b7-59a3-952f-1cf4d4fe3a25",
    "name": "Southwest District Health",
    "endpoint": [
      {
        "reference": "Endpoint/27a4e967-47aa-5a9c-a572-b8297ee268a2"
      },
      {
        "reference": "Endpoint/9586f830-6497-59d7-a435-b3ef150b4f07"
      }
    ],
    "identifier": [
      {
        "system": "http://hl7.org/fhir/sid/us-npi",
        "value": "1598748337"
      }
    ],
    "address": [
      {
        "line": [
          "1511 7th Street South"
        ],
        "city": "NAMPA",
        "state": "ID",
        "postalCode": "83651-4701"
      },
      {
        "line": [
          "1008 EAST LOCUST"
        ],
        "city": "EMMETT",
        "state": "ID",
        "postalCode": "83617-2711"
      },
      {
        "line": [
          "207 1ST STREET SOUTH"
        ],
        "city": "NAMPA",
        "state": "ID",
        "postalCode": "83651-3703"
      },
      {
        "line": [
          "205 8th Ave W"
        ],
        "city": "MARSING",
        "state": "ID",
        "postalCode": "83639-0340"
      },
      {
        "line": [
          "13307 MIAMI LANE"
        ],
        "city": "CALDWELL",
        "state": "ID",
        "postalCode": "83607-4701"
      },
      {
        "line": [
          "46 WEST COURT ST"
        ],
        "city": "WEISER",
        "state": "ID",
        "postalCode": "83672-1941"
      },
      {
        "line": [
          "22730 FARMWAY ROAD  114"
        ],
        "city": "CALDWELL",
        "state": "ID",
        "postalCode": "88607-8894"
      },
      {
        "line": [
          "1155 THIRD AVE NORTH"
        ],
        "city": "PAYETTE",
        "state": "ID",
        "postalCode": "83661-2407"
      },
      {
        "line": [
          "125 W Owyhee Avenue"
        ],
        "city": "HOMEDALE",
        "state": "ID",
        "postalCode": "83628-5003"
      },
      {
        "line": [
          "516 N 11TH AVE"
        ],
        "city": "CALDWELL",
        "state": "ID",
        "postalCode": "83605-3422"
      }
    ],
    "extension": [
      {
        "url": "https://fhir.athena.io/StructureDefinition/ah-practice",
        "valueReference": {
          "reference": "Organization/a-1.Practice-20689"
        }
      },
      {
        "url": "https://fhir.athena.io/StructureDefinition/ah-brand",
        "valueReference": {
          "reference": "Organization/a-20689.Brand-1"
        }
      }
    ]
  },
  "fullUrl": "urn:uuid:1cea82fa-90b7-59a3-952f-1cf4d4fe3a25"
}