{
  "resource": {
    "resourceType": "Organization",
    "id": "3e485c4b-d1d0-5128-ae13-196340fcddd0",
    "name": "Delhi Community Health Center",
    "endpoint": [
      {
        "reference": "Endpoint/27a4e967-47aa-5a9c-a572-b8297ee268a2"
      },
      {
        "reference": "Endpoint/49a049e4-e5ed-5124-958e-5c71e0e63de8"
      }
    ],
    "identifier": [
      {
        "system": "http://hl7.org/fhir/sid/us-npi",
        "value": "1588917660"
      },
      {
        "system": "http://hl7.org/fhir/sid/us-npi",
        "value": "1093459844"
      },
      {
        "system": "http://hl7.org/fhir/sid/us-npi",
        "value": "1174586283"
      },
      {
        "system": "http://hl7.org/fhir/sid/us-npi",
        "value": "1851317911"
      },
      {
        "system": "http://hl7.org/fhir/sid/us-npi",
        "value": "1083967178"
      },
      {
        "system": "http://hl7.org/fhir/sid/us-npi",
        "value": "1154686665"
      },
      {
        "system": "http://hl7.org/fhir/sid/us-npi",
        "value": "1780937896"
      }
    ],
    "address": [
      {
        "line": [
          "501 Broadway St"
        ],
        "city": "DELHI",
        "state": "LA",
        "postalCode": "71232-2844"
      },
      {
        "line": [
          "32 Crothers Drive"
        ],
        "city": "TALLULAH",
        "state": "LA",
        "postalCode": "71282-5510"
      },
      {
        "line": [
          "501 Broadway"
        ],
        "city": "DELHI",
        "state": "LA",
        "postalCode": "71232-3001"
      },
      {
        "line": [
          "P O BOX 803",
          "307 Foster Street"
        ],
        "city": "RAYVILLE",
        "state": "LA",
        "postalCode": "71269-0874"
      },
      {
        "line": [
          "119 Broadway Street"
        ],
        "city": "DELHI",
        "state": "LA",
        "postalCode": "71233-2903"
      },
      {
        "line": [
          "727 OHIO STREET"
        ],
        "city": "DELHI",
        "state": "LA",
        "postalCode": "71232-2722"
      },
      {
        "line": [
          "109 Elm Street"
        ],
        "city": "DELHI",
        "state": "LA",
        "postalCode": "71232-2844"
      },
      {
        "line": [
          "407 Cincinnati Street"
        ],
        "city": "DELHI",
        "state": "LA",
        "postalCode": "71232-3007"
      },
      {
        "line": [
          "522 Main Street"
        ],
        "city": "DELHI",
        "state": "LA",
        "postalCode": "71233-2538"
      }
    ],
    "extension": [
      {
        "url": "https://fhir.athena.io/StructureDefinition/ah-practice",
        "valueReference": {
          "reference": "Organization/a-1.Practice-13199"
        }
      },
      {
        "url": "https://fhir.athena.io/StructureDefinition/ah-brand",
        "valueReference": {
          "reference": "Organization/a-13199.Brand-1"
        }
      }
    ]
  },
  "fullUrl": "urn:uuid:3e485c4b-d1d0-5128-ae13-196340fcddd0"
}