{
  "resource": {
    "resourceType": "Organization",
    "id": "f83246bf-e2be-570d-a99b-5705c473318b",
    "name": "HEART AND VASCULAR CARE",
    "endpoint": [
      {
        "reference": "Endpoint/27a4e967-47aa-5a9c-a572-b8297ee268a2"
      },
      {
        "reference": "Endpoint/afef29e0-b98c-5b38-b41e-01a6a63a1af8"
      }
    ],
    "identifier": [
      {
        "system": "http://hl7.org/fhir/sid/us-npi",
        "value": "1144371576"
      },
      {
        "system": "http://hl7.org/fhir/sid/us-npi",
        "value": "1740960434"
      }
    ],
    "address": [
      {
        "line": [
          "53 Gordon Road, Suite 102"
        ],
        "city": "JASPER",
        "state": "GA",
        "postalCode": "30143-7104"
      },
      {
        "line": [
          "320 HOSPITAL RD"
        ],
        "city": "CANTON",
        "state": "GA",
        "postalCode": "30114-2410"
      },
      {
        "line": [
          "3970 DEP BILL CANTRELL MEMORIAL RD"
        ],
        "city": "CUMMING",
        "state": "GA",
        "postalCode": "30040-2824"
      },
      {
        "line": [
          "11315 JOHNS CREEK PKWY",
          "STE 320"
        ],
        "city": "DULUTH",
        "state": "GA",
        "postalCode": "30097-2644"
      },
      {
        "line": [
          "3970 Dep Bill Cantrell Memorial Rd"
        ],
        "city": "CUMMING",
        "state": "GA",
        "postalCode": "30040-2824"
      },
      {
        "line": [
          "4465 Nelson Brogdon Blvd.",
          "STE 103"
        ],
        "city": "BUFORD",
        "state": "GA",
        "postalCode": "30518-3487"
      },
      {
        "line": [
          "1495 Hickory Flat Hwy",
          "Suite 140"
        ],
        "city": "CANTON",
        "state": "GA",
        "postalCode": "30115-4229"
      },
      {
        "line": [
          "3905 BROOKSIDE PKWY STE 101"
        ],
        "city": "ALPHARETTA",
        "state": "GA",
        "postalCode": "30022-4429"
      },
      {
        "line": [
          "73 PRESTIGE LANE",
          "SUITE 205"
        ],
        "city": "DAWSONVILLE",
        "state": "GA",
        "postalCode": "30534-8952"
      },
      {
        "line": [
          "290 HERITAGE WALK STE B"
        ],
        "city": "WOODSTOCK",
        "state": "GA",
        "postalCode": "30188-6402"
      },
      {
        "line": [
          "101 GREENFIELD DR",
          "STE 260"
        ],
        "city": "CUMMING",
        "state": "GA",
        "postalCode": "30040-2824"
      },
      {
        "line": [
          "3905 BROOKSIDE PKWY STE 202"
        ],
        "city": "ALPHARETTA",
        "state": "GA",
        "postalCode": "30022-4429"
      }
    ],
    "extension": [
      {
        "url": "https://fhir.athena.io/StructureDefinition/ah-practice",
        "valueReference": {
          "reference": "Organization/a-1.Practice-1164"
        }
      },
      {
        "url": "https://fhir.athena.io/StructureDefinition/ah-brand",
        "valueReference": {
          "reference": "Organization/a-1164.Brand-1"
        }
      }
    ]
  },
  "fullUrl": "urn:uuid:f83246bf-e2be-570d-a99b-5705c473318b"
}