{
  "resource": {
    "resourceType": "Organization",
    "id": "98ab2f59-edab-5179-8675-7dd17741fe8e",
    "name": "AdvocateWoundCenter",
    "endpoint": [
      {
        "reference": "Endpoint/27a4e967-47aa-5a9c-a572-b8297ee268a2"
      },
      {
        "reference": "Endpoint/29478ac1-7fab-5d90-8b73-8b26158f056f"
      }
    ],
    "identifier": [
      {
        "system": "http://hl7.org/fhir/sid/us-npi",
        "value": "1467074138"
      },
      {
        "system": "http://hl7.org/fhir/sid/us-npi",
        "value": "1053378349"
      },
      {
        "system": "http://hl7.org/fhir/sid/us-npi",
        "value": "1104883487"
      },
      {
        "system": "http://hl7.org/fhir/sid/us-npi",
        "value": "1942899281"
      },
      {
        "system": "http://hl7.org/fhir/sid/us-npi",
        "value": "1063420248"
      }
    ],
    "address": [
      {
        "line": [
          "1111 Trinity Lane, Suite 111"
        ],
        "city": "BLOOMINGTON",
        "state": "IL",
        "postalCode": "61704-3738"
      },
      {
        "line": [
          "VIRGINIA AT FRANKLIN"
        ],
        "city": "NORMAL",
        "state": "IL",
        "postalCode": "61761-3558"
      },
      {
        "line": [
          "1304 franklin avenue"
        ],
        "city": "NORMAL",
        "state": "IL",
        "postalCode": "61761-3558"
      },
      {
        "line": [
          "2200 E Washington"
        ],
        "city": "BLOOMINGTON",
        "state": "IL",
        "postalCode": "61701-4364"
      },
      {
        "line": [
          "736 SW Washington St.",
          "Suite 2A"
        ],
        "city": "PEORIA",
        "state": "IL",
        "postalCode": "61602-1643"
      },
      {
        "line": [
          "1111 Trinity Ln",
          "Suite 111"
        ],
        "city": "BLOOMINGTON",
        "state": "IL",
        "postalCode": "61704-8112"
      },
      {
        "line": [
          "2502 B EAST EMPIRE ST"
        ],
        "city": "BLOOMINGTON",
        "state": "IL",
        "postalCode": "61704-3739"
      },
      {
        "line": [
          "2200 E. Washington St."
        ],
        "city": "BLOOMINGTON",
        "state": "IL",
        "postalCode": "61701-8365"
      },
      {
        "line": [
          "102 E Cemetery Ave."
        ],
        "city": "CHENOA",
        "state": "IL",
        "postalCode": "61726-1366"
      },
      {
        "line": [
          "2100 FORT JESSE ROAD"
        ],
        "city": "NORMAL",
        "state": "IL",
        "postalCode": "61761-9370"
      },
      {
        "line": [
          "1111 Trinity Lane",
          "Suite 111"
        ],
        "city": "BLOOMINGTON",
        "state": "IL",
        "postalCode": "61704-8111"
      },
      {
        "line": [
          "1302 franklin avenue"
        ],
        "city": "NORMAL",
        "state": "IL",
        "postalCode": "61761-3551"
      },
      {
        "line": [
          "1304 FRANKLIN AVE"
        ],
        "city": "NORMAL",
        "state": "IL",
        "postalCode": "61761-3558"
      },
      {
        "line": [
          "1505 EASTLAND DRIVE"
        ],
        "city": "BLOOMINGTON",
        "state": "IL",
        "postalCode": "61701-3534"
      },
      {
        "line": [
          "2502 D EAST EMPIRE STREET"
        ],
        "city": "BLOOMINGTON",
        "state": "IL",
        "postalCode": "61704-3739"
      },
      {
        "line": [
          "1111 TRINITY LANE"
        ],
        "city": "BLOOMINGTON",
        "state": "IL",
        "postalCode": "61704-8111"
      },
      {
        "line": [
          "2200 E WASHINGTON"
        ],
        "city": "BLOOMINGTON",
        "state": "IL",
        "postalCode": "61701-4364"
      },
      {
        "line": [
          "2200 E WASHINGTON ST"
        ],
        "city": "BLOOMINGTON",
        "state": "IL",
        "postalCode": "61701-4364"
      },
      {
        "line": [
          "1111 Trinty Lane",
          "Suite 111"
        ],
        "city": "BLOOMINGTON",
        "state": "IL",
        "postalCode": "61704-8112"
      },
      {
        "line": [
          "1111 Trinity Lane",
          "Suite 111"
        ],
        "city": "BLOOMINGTON",
        "state": "IL",
        "postalCode": "61704-8112"
      }
    ],
    "extension": [
      {
        "url": "https://fhir.athena.io/StructureDefinition/ah-practice",
        "valueReference": {
          "reference": "Organization/a-1.Practice-491"
        }
      },
      {
        "url": "https://fhir.athena.io/StructureDefinition/ah-brand",
        "valueReference": {
          "reference": "Organization/a-491.Brand-1"
        }
      }
    ]
  },
  "fullUrl": "urn:uuid:98ab2f59-edab-5179-8675-7dd17741fe8e"
}