{
  "resource": {
    "resourceType": "Organization",
    "id": "b8204ee3-c9fb-57f4-9ad5-2ab23ec431fc",
    "name": "Visiting Physicians of California",
    "endpoint": [
      {
        "reference": "Endpoint/27a4e967-47aa-5a9c-a572-b8297ee268a2"
      },
      {
        "reference": "Endpoint/f1dd4b76-1178-5be2-8271-d15443d876e3"
      }
    ],
    "identifier": [
      {
        "system": "http://hl7.org/fhir/sid/us-npi",
        "value": "1083055545"
      }
    ],
    "address": [
      {
        "line": [
          "505 N LA BREA AVE."
        ],
        "city": "LOS ANGELES",
        "state": "CA",
        "postalCode": "90036-2015"
      },
      {
        "line": [
          "628 W. 52nd Place"
        ],
        "city": "LOS ANGELES",
        "state": "CA",
        "postalCode": "90037-3706"
      },
      {
        "line": [
          "825 Larrabee St."
        ],
        "city": "WEST HOLLYWOOD",
        "state": "CA",
        "postalCode": "90069-4503"
      },
      {
        "line": [
          "126 N SAN GABRIEL  BLVD"
        ],
        "city": "SAN GABRIEL",
        "state": "CA",
        "postalCode": "91775-2427"
      },
      {
        "line": [
          "5318 Manzanita Ave."
        ],
        "city": "CARMICHAEL",
        "state": "CA",
        "postalCode": "95608-0512"
      },
      {
        "line": [
          "27104 Fond-du-lac Rd"
        ],
        "city": "RANCHO PALOS VERDES",
        "state": "CA",
        "postalCode": "90275-2268"
      },
      {
        "line": [
          "3034 DONA NENITA PLACE"
        ],
        "city": "STUDIO CITY",
        "state": "CA",
        "postalCode": "91604-4328"
      },
      {
        "line": [
          "502 S. HARVARD BLVD."
        ],
        "city": "LOS ANGELES",
        "state": "CA",
        "postalCode": "90020-3539"
      },
      {
        "line": [
          "1330 17TH ST."
        ],
        "city": "SANTA MONICA",
        "state": "CA",
        "postalCode": "90404-1902"
      },
      {
        "line": [
          "1156 N. Gardner St."
        ],
        "city": "LOS ANGELES",
        "state": "CA",
        "postalCode": "90046-5603"
      },
      {
        "line": [
          "3233 W. PICO BLVD."
        ],
        "city": "LOS ANGELES",
        "state": "CA",
        "postalCode": "90019-3640"
      },
      {
        "line": [
          "849 N. GARDNER ST."
        ],
        "city": "LOS ANGELES",
        "state": "CA",
        "postalCode": "90046-7405"
      },
      {
        "line": [
          "6711 S. Halm Ave."
        ],
        "city": "LOS ANGELES",
        "state": "CA",
        "postalCode": "90056-2227"
      },
      {
        "line": [
          "22711 S. VERMONT AVE.",
          "22711 S. VERMONT AVE."
        ],
        "city": "TORRANCE",
        "state": "CA",
        "postalCode": "90502-2552"
      },
      {
        "line": [
          "341 N. La Jolla Ave."
        ],
        "city": "LOS ANGELES",
        "state": "CA",
        "postalCode": "90048-2230"
      },
      {
        "line": [
          "3002 Rowena Avenue"
        ],
        "city": "LOS ANGELES",
        "state": "CA",
        "postalCode": "90039-2005"
      },
      {
        "line": [
          "2108 OAK ST."
        ],
        "city": "SANTA MONICA",
        "state": "CA",
        "postalCode": "90405-5010"
      },
      {
        "line": [
          "3340 Shelby Drive"
        ],
        "city": "LOS ANGELES",
        "state": "CA",
        "postalCode": "90034-2725"
      },
      {
        "line": [
          "580 S. SAN VICENTE BOULEVARD"
        ],
        "city": "LOS ANGELES",
        "state": "CA",
        "postalCode": "90048-3838"
      },
      {
        "line": [
          "11500 DOLAN AVE"
        ],
        "city": "DOWNEY",
        "state": "CA",
        "postalCode": "90241-4900"
      },
      {
        "line": [
          "11647 Balboa Blvd."
        ],
        "city": "GRANADA HILLS",
        "state": "CA",
        "postalCode": "91344-2710"
      },
      {
        "line": [
          "4907 Maymont Dr."
        ],
        "city": "LOS ANGELES",
        "state": "CA",
        "postalCode": "90043-2031"
      },
      {
        "line": [
          "2051 N. HIGHLAND AVE."
        ],
        "city": "LOS ANGELES",
        "state": "CA",
        "postalCode": "90068-1373"
      },
      {
        "line": [
          "15100 PRAIRIE AVE."
        ],
        "city": "LAWNDALE",
        "state": "CA",
        "postalCode": "90260-2209"
      },
      {
        "line": [
          "2228 WESTWOOD BLVD."
        ],
        "city": "LOS ANGELES",
        "state": "CA",
        "postalCode": "90064-2018"
      },
      {
        "line": [
          "960 N MARTEL AVE"
        ],
        "city": "LOS ANGELES",
        "state": "CA",
        "postalCode": "90046-6608"
      },
      {
        "line": [
          "325 N. Hayworth Ave."
        ],
        "city": "LOS ANGELES",
        "state": "CA",
        "postalCode": "90048-2701"
      },
      {
        "line": [
          "8757 BURTON WAY"
        ],
        "city": "LOS ANGELES",
        "state": "CA",
        "postalCode": "90048-3839"
      },
      {
        "line": [
          "852 N. Sierra Bonita Ave."
        ],
        "city": "LOS ANGELES",
        "state": "CA",
        "postalCode": "90046-7410"
      },
      {
        "line": [
          "619 N. FAIRFAX AVE."
        ],
        "city": "LOS ANGELES",
        "state": "CA",
        "postalCode": "90036-1714"
      },
      {
        "line": [
          "415 S. GARFIELD AVE."
        ],
        "city": "ALHAMBRA",
        "state": "CA",
        "postalCode": "91801-3838"
      },
      {
        "line": [
          "533 S. Fairfax Ave"
        ],
        "city": "LOS ANGELES",
        "state": "CA",
        "postalCode": "90036-3129"
      },
      {
        "line": [
          "1075 Fulton ave"
        ],
        "city": "SACRAMENTO",
        "state": "CA",
        "postalCode": "95825-4206"
      },
      {
        "line": [
          "3503 CEDAR AVE."
        ],
        "city": "LONG BEACH",
        "state": "CA",
        "postalCode": "90807-3809"
      },
      {
        "line": [
          "8750 BURTON WAY"
        ],
        "city": "LOS ANGELES",
        "state": "CA",
        "postalCode": "90048-3838"
      },
      {
        "line": [
          "6070 W. Pico Blvd."
        ],
        "city": "LOS ANGELES",
        "state": "CA",
        "postalCode": "90035-2647"
      },
      {
        "line": [
          "5426 AVENIDA FIESTA"
        ],
        "city": "LA JOLLA",
        "state": "CA",
        "postalCode": "92037-7202"
      },
      {
        "line": [
          "201 N. Crescent Drive"
        ],
        "city": "BEVERLY HILLS",
        "state": "CA",
        "postalCode": "90210-4898"
      },
      {
        "line": [
          "6658 CAPISTRANO AVE"
        ],
        "city": "WEST HILLS",
        "state": "CA",
        "postalCode": "91307-3731"
      },
      {
        "line": [
          "1071 Fulton Ave."
        ],
        "city": "SACRAMENTO",
        "state": "CA",
        "postalCode": "95825-4290"
      },
      {
        "line": [
          "705 LUTHER RD."
        ],
        "city": "RED BLUFF",
        "state": "CA",
        "postalCode": "96080-4265"
      },
      {
        "line": [
          "11390 Coloma Road"
        ],
        "city": "GOLD RIVER",
        "state": "CA",
        "postalCode": "95670-6311"
      },
      {
        "line": [
          "3515 Overland Ave"
        ],
        "city": "LOS ANGELES",
        "state": "CA",
        "postalCode": "90034-5521"
      },
      {
        "line": [
          "150 BELLEFONTAINE ST."
        ],
        "city": "PASADENA",
        "state": "CA",
        "postalCode": "91105-3102"
      }
    ],
    "extension": [
      {
        "url": "https://fhir.athena.io/StructureDefinition/ah-practice",
        "valueReference": {
          "reference": "Organization/a-1.Practice-8150"
        }
      },
      {
        "url": "https://fhir.athena.io/StructureDefinition/ah-brand",
        "valueReference": {
          "reference": "Organization/a-8150.Brand-1"
        }
      }
    ]
  },
  "fullUrl": "urn:uuid:b8204ee3-c9fb-57f4-9ad5-2ab23ec431fc"
}