{
  "resource": {
    "resourceType": "Organization",
    "id": "3ac0d7a9-4372-5168-ae78-883919b08da7",
    "name": "Greenbrook Alexandria",
    "endpoint": [
      {
        "reference": "Endpoint/27a4e967-47aa-5a9c-a572-b8297ee268a2"
      },
      {
        "reference": "Endpoint/fc0adcbe-499b-5d50-a333-634776c21e79"
      }
    ],
    "identifier": [
      {
        "system": "http://hl7.org/fhir/sid/us-npi",
        "value": "1144713884"
      },
      {
        "system": "http://hl7.org/fhir/sid/us-npi",
        "value": "1093282360"
      },
      {
        "system": "http://hl7.org/fhir/sid/us-npi",
        "value": "1376930685"
      },
      {
        "system": "http://hl7.org/fhir/sid/us-npi",
        "value": "1073179123"
      },
      {
        "system": "http://hl7.org/fhir/sid/us-npi",
        "value": "1013409176"
      },
      {
        "system": "http://hl7.org/fhir/sid/us-npi",
        "value": "1366005183"
      }
    ],
    "address": [
      {
        "line": [
          "16091 Swingley Ridge Rd",
          "Suite 100"
        ],
        "city": "CHESTERFIELD",
        "state": "MO",
        "postalCode": "63017-1147"
      },
      {
        "line": [
          "88 Noble Avenue",
          "Suite 202"
        ],
        "city": "MILFORD",
        "state": "CT",
        "postalCode": "06460-5200"
      },
      {
        "line": [
          "770 Lynnhaven Pkwy",
          "STE 150"
        ],
        "city": "VIRGINIA BEACH",
        "state": "VA",
        "postalCode": "23452-7343"
      },
      {
        "line": [
          "17222 HOSPITAL BOULEVARD",
          "SUITE 222"
        ],
        "city": "BROOKSVILLE",
        "state": "FL",
        "postalCode": "34601-8925"
      },
      {
        "line": [
          "728 Post Road East",
          "Suite 202"
        ],
        "city": "MILFORD",
        "state": "CT",
        "postalCode": "06460-5200"
      },
      {
        "line": [
          "121 Becks Woods Dr",
          "Suite 202"
        ],
        "city": "BEAR",
        "state": "DE",
        "postalCode": "19701-3852"
      },
      {
        "line": [
          "901 Farmington Avenue",
          "Suite 300"
        ],
        "city": "WEST HARTFORD",
        "state": "CT",
        "postalCode": "06119-1418"
      },
      {
        "line": [
          "11477 Olde Cabin Rd"
        ],
        "city": "SAINT LOUIS",
        "state": "MO",
        "postalCode": "63141-1147"
      },
      {
        "line": [
          "64 Thompson Street",
          "Unit A103"
        ],
        "city": "NEW HAVEN",
        "state": "CT",
        "postalCode": "06513-5707"
      },
      {
        "line": [
          "2963 GULF TO BAY BOULEVARD",
          "SUITE 250"
        ],
        "city": "CLEARWATER",
        "state": "FL",
        "postalCode": "33759-4255"
      },
      {
        "line": [
          "9904 Clayton Rd"
        ],
        "city": "SAINT LOUIS",
        "state": "MO",
        "postalCode": "63124-1147"
      }
    ],
    "extension": [
      {
        "url": "https://fhir.athena.io/StructureDefinition/ah-practice",
        "valueReference": {
          "reference": "Organization/a-1.Practice-18773"
        }
      },
      {
        "url": "https://fhir.athena.io/StructureDefinition/ah-brand",
        "valueReference": {
          "reference": "Organization/a-18773.Brand-1"
        }
      }
    ]
  },
  "fullUrl": "urn:uuid:3ac0d7a9-4372-5168-ae78-883919b08da7"
}