{
  "resource": {
    "resourceType": "Organization",
    "id": "c93d7061-ebfa-5a3f-a5b7-7a6e69603c89",
    "name": "Dexterity Surgical, LLC",
    "endpoint": [
      {
        "reference": "Endpoint/27a4e967-47aa-5a9c-a572-b8297ee268a2"
      },
      {
        "reference": "Endpoint/dd103844-3a9f-52f7-8add-8b7f30fc9b3f"
      }
    ],
    "identifier": [
      {
        "system": "http://hl7.org/fhir/sid/us-npi",
        "value": "1851469555"
      }
    ],
    "address": [
      {
        "line": [
          "100 Unicorn Park Drive",
          "Suite 102"
        ],
        "city": "WOBURN",
        "state": "MA",
        "postalCode": "01801-3799"
      },
      {
        "line": [
          "100 UNICORN PARK DR.",
          "SUITE 102"
        ],
        "city": "WOBURN",
        "state": "MA",
        "postalCode": "01801-3379"
      },
      {
        "line": [
          "300 MOUNT AUBURN STREET",
          "SUITE 510N"
        ],
        "city": "CAMBRIDGE",
        "state": "MA",
        "postalCode": "02138-5202"
      },
      {
        "line": [
          "330 MT AUBURN STREET"
        ],
        "city": "CAMBRIDGE",
        "state": "MA",
        "postalCode": "02138-5502"
      },
      {
        "line": [
          "41 HIGHLAND AVENUE"
        ],
        "city": "WINCHESTER",
        "state": "MA",
        "postalCode": "01890-1446"
      },
      {
        "line": [
          "100 Unicorn Park Drive Suite 102"
        ],
        "city": "WOBURN",
        "state": "MA",
        "postalCode": "01801-3813"
      },
      {
        "line": [
          "41INNOVATIVE WAY"
        ],
        "city": "NASHUA",
        "state": "NH",
        "postalCode": "03062-6600"
      },
      {
        "line": [
          "585 LEBANON STREET"
        ],
        "city": "MELROSE",
        "state": "MA",
        "postalCode": "02176-3225"
      },
      {
        "line": [
          "100 UNICORN PARK",
          "SUITE 102"
        ],
        "city": "WOBURN",
        "state": "MA",
        "postalCode": "01801-3339"
      },
      {
        "line": [
          "100 Unicorn Park Drive",
          "Suite 102"
        ],
        "city": "WOBURN",
        "state": "MA",
        "postalCode": "01801-3379"
      }
    ],
    "extension": [
      {
        "url": "https://fhir.athena.io/StructureDefinition/ah-practice",
        "valueReference": {
          "reference": "Organization/a-1.Practice-1748"
        }
      },
      {
        "url": "https://fhir.athena.io/StructureDefinition/ah-brand",
        "valueReference": {
          "reference": "Organization/a-1748.Brand-1"
        }
      }
    ]
  },
  "fullUrl": "urn:uuid:c93d7061-ebfa-5a3f-a5b7-7a6e69603c89"
}