{
  "resource": {
    "resourceType": "Organization",
    "id": "41e53590-5298-58e0-a275-c818ecfcdc93",
    "name": "Diabetes Metabolic Wellness Center",
    "endpoint": [
      {
        "reference": "Endpoint/27a4e967-47aa-5a9c-a572-b8297ee268a2"
      },
      {
        "reference": "Endpoint/b3cf600c-6b85-5568-a75d-26d81503326e"
      }
    ],
    "identifier": [
      {
        "system": "http://hl7.org/fhir/sid/us-npi",
        "value": "1992297816"
      }
    ],
    "address": [
      {
        "line": [
          "2140 Independence Dr"
        ],
        "city": "NEW BRAUNFELS",
        "state": "TX",
        "postalCode": "78132-4455"
      },
      {
        "line": [
          "1820 E Common St"
        ],
        "city": "NEW BRAUNFELS",
        "state": "TX",
        "postalCode": "78130-3467"
      },
      {
        "line": [
          "1762 E Common Street"
        ],
        "city": "NEW BRAUNFELS",
        "state": "TX",
        "postalCode": "78130-6059"
      },
      {
        "line": [
          "5001 Schertz Pkwy"
        ],
        "city": "SCHERTZ",
        "state": "TX",
        "postalCode": "78154-1478"
      },
      {
        "line": [
          "1900 MEDICAL PKWY"
        ],
        "city": "SAN MARCOS",
        "state": "TX",
        "postalCode": "78666-7520"
      },
      {
        "line": [
          "1215 E COURT ST"
        ],
        "city": "SEGUIN",
        "state": "TX",
        "postalCode": "78155-5129"
      },
      {
        "line": [
          "1770 State Highway 46 W",
          "Suite 1201"
        ],
        "city": "NEW BRAUNFELS",
        "state": "TX",
        "postalCode": "78132-5393"
      },
      {
        "line": [
          "6900 TAVISTOCK LAKES BLVD",
          "Suite 300"
        ],
        "city": "ORLANDO",
        "state": "FL",
        "postalCode": "32827-7592"
      },
      {
        "line": [
          "220 Creekside Crossing"
        ],
        "city": "NEW BRAUNFELS",
        "state": "TX",
        "postalCode": "78130-3927"
      },
      {
        "line": [
          "816 Everyday Way"
        ],
        "city": "CIBOLO",
        "state": "TX",
        "postalCode": "78108-4080"
      }
    ],
    "extension": [
      {
        "url": "https://fhir.athena.io/StructureDefinition/ah-practice",
        "valueReference": {
          "reference": "Organization/a-1.Practice-29617"
        }
      },
      {
        "url": "https://fhir.athena.io/StructureDefinition/ah-brand",
        "valueReference": {
          "reference": "Organization/a-29617.Brand-1"
        }
      }
    ]
  },
  "fullUrl": "urn:uuid:41e53590-5298-58e0-a275-c818ecfcdc93"
}