{
  "resource": {
    "resourceType": "Organization",
    "id": "1f4d3736-e0f8-53b5-bca2-f3d50f3a49ba",
    "name": "Pelikan Health",
    "endpoint": [
      {
        "reference": "Endpoint/27a4e967-47aa-5a9c-a572-b8297ee268a2"
      },
      {
        "reference": "Endpoint/bd438cf5-48d9-55cd-bd24-3676235b8f44"
      }
    ],
    "identifier": [
      {
        "system": "http://hl7.org/fhir/sid/us-npi",
        "value": "1699386151"
      }
    ],
    "address": [
      {
        "line": [
          "17515 W 9 MILE RD",
          "STE 395"
        ],
        "city": "SOUTHFIELD",
        "state": "MI",
        "postalCode": "48075-4403"
      },
      {
        "line": [
          "7550 DIXIE HWY"
        ],
        "city": "CLARKSTON",
        "state": "MI",
        "postalCode": "48346-2024"
      },
      {
        "line": [
          "19933 W 13 MILE RD"
        ],
        "city": "SOUTHFIELD",
        "state": "MI",
        "postalCode": "48076-1024"
      },
      {
        "line": [
          "30637 W 14 Mile Rd"
        ],
        "city": "FARMINGTON",
        "state": "MI",
        "postalCode": "48334-1522"
      },
      {
        "line": [
          "985 N LAPEER RD"
        ],
        "city": "LAKE ORION",
        "state": "MI",
        "postalCode": "48362-1534"
      },
      {
        "line": [
          "2511 Wixom Rd"
        ],
        "city": "COMMERCE TOWNSHIP",
        "state": "MI",
        "postalCode": "48382-2056"
      },
      {
        "line": [
          "496 E LOVELL DR"
        ],
        "city": "TROY",
        "state": "MI",
        "postalCode": "48085-1522"
      },
      {
        "line": [
          "15100 WEST 10 MILE ROAD"
        ],
        "city": "OAK PARK",
        "state": "MI",
        "postalCode": "48237-1458"
      },
      {
        "line": [
          "2080 S TELEGRAPH RD"
        ],
        "city": "BLOOMFIELD HILLS",
        "state": "MI",
        "postalCode": "48302-0247"
      },
      {
        "line": [
          "25250 EUREKA RD"
        ],
        "city": "TAYLOR",
        "state": "MI",
        "postalCode": "48180-6420"
      },
      {
        "line": [
          "8111 S STATE RD"
        ],
        "city": "GOODRICH",
        "state": "MI",
        "postalCode": "48438-8946"
      },
      {
        "line": [
          "1442 SUNCREST DR"
        ],
        "city": "LAPEER",
        "state": "MI",
        "postalCode": "48446-4420"
      },
      {
        "line": [
          "17515 W 9 MILE RD"
        ],
        "city": "SOUTHFIELD",
        "state": "MI",
        "postalCode": "48075-4403"
      },
      {
        "line": [
          "2525 DEMILLE BLVD"
        ],
        "city": "LAPEER",
        "state": "MI",
        "postalCode": "48446-3461"
      }
    ],
    "extension": [
      {
        "url": "https://fhir.athena.io/StructureDefinition/ah-practice",
        "valueReference": {
          "reference": "Organization/a-1.Practice-22421"
        }
      },
      {
        "url": "https://fhir.athena.io/StructureDefinition/ah-brand",
        "valueReference": {
          "reference": "Organization/a-22421.Brand-1"
        }
      }
    ]
  },
  "fullUrl": "urn:uuid:1f4d3736-e0f8-53b5-bca2-f3d50f3a49ba"
}