{
  "resource": {
    "resourceType": "Organization",
    "id": "5a33100c-fd62-58f5-a07e-72493538b355",
    "name": "Ocala Infectious Disease and Wound Center",
    "endpoint": [
      {
        "reference": "Endpoint/27a4e967-47aa-5a9c-a572-b8297ee268a2"
      },
      {
        "reference": "Endpoint/1c9048b8-86ab-56a8-a06f-4ce97ce1ab21"
      }
    ],
    "identifier": [
      {
        "system": "http://hl7.org/fhir/sid/us-npi",
        "value": "1093911935"
      }
    ],
    "address": [
      {
        "line": [
          "9655 FLORIDA MINING BLVD W STE 411"
        ],
        "city": "JACKSONVILLE",
        "state": "FL",
        "postalCode": "32257-2041"
      },
      {
        "line": [
          "1582 N MEADOW CREST BLVD"
        ],
        "city": "CRYSTAL RIVER",
        "state": "FL",
        "postalCode": "34429-5757"
      },
      {
        "line": [
          "7750 SW 60TH AVE STE C"
        ],
        "city": "OCALA",
        "state": "FL",
        "postalCode": "34476-6472"
      },
      {
        "line": [
          "9280 SW 81ST CT"
        ],
        "city": "OCALA",
        "state": "FL",
        "postalCode": "34481-7848"
      },
      {
        "line": [
          "706 North Suncoast Blvd"
        ],
        "city": "CRYSTAL RIVER",
        "state": "FL",
        "postalCode": "34429-4096"
      },
      {
        "line": [
          "1805 SE 17TH AVE SUITE 601"
        ],
        "city": "OCALA",
        "state": "FL",
        "postalCode": "34471-4121"
      },
      {
        "line": [
          "3930 E SILVER SPRING BLVD"
        ],
        "city": "OCALA",
        "state": "FL",
        "postalCode": "34470-5086"
      },
      {
        "line": [
          "1400 US HWY 441 N STE 553"
        ],
        "city": "THE VILLAGES",
        "state": "FL",
        "postalCode": "32162-8975"
      },
      {
        "line": [
          "1421 OakField Drive"
        ],
        "city": "BRANDON",
        "state": "FL",
        "postalCode": "33511-2801"
      },
      {
        "line": [
          "1500 SW 1ST AVE"
        ],
        "city": "OCALA",
        "state": "FL",
        "postalCode": "34471-6504"
      },
      {
        "line": [
          "2651 SW 32ND PLACE"
        ],
        "city": "OCALA",
        "state": "FL",
        "postalCode": "34471-7848"
      },
      {
        "line": [
          "8449 SW HWY 200"
        ],
        "city": "OCALA",
        "state": "FL",
        "postalCode": "34481-9662"
      },
      {
        "line": [
          "1431 SW 1ST ST"
        ],
        "city": "OCALA",
        "state": "FL",
        "postalCode": "34471-6500"
      },
      {
        "line": [
          "706 N SUNCOAST BLVD"
        ],
        "city": "CRYSTAL RIVER",
        "state": "FL",
        "postalCode": "34429-5470"
      },
      {
        "line": [
          "1750 NORTH FLORIDA"
        ],
        "city": "WEST PALM BEACH",
        "state": "FL",
        "postalCode": "33409-5251"
      },
      {
        "line": [
          "9848 SW 110TH ST"
        ],
        "city": "OCALA",
        "state": "FL",
        "postalCode": "34481-7651"
      },
      {
        "line": [
          "5300 W ATLANTIC AVE SUITE 300"
        ],
        "city": "DELRAY BEACH",
        "state": "FL",
        "postalCode": "33484-9998"
      },
      {
        "line": [
          "6793 SW HWY 200"
        ],
        "city": "OCALA",
        "state": "FL",
        "postalCode": "34476-9209"
      },
      {
        "line": [
          "908 W DIXIE AVE"
        ],
        "city": "LEESBURG",
        "state": "FL",
        "postalCode": "34748-6308"
      },
      {
        "line": [
          "620 S LAKE ST"
        ],
        "city": "LEESBURG",
        "state": "FL",
        "postalCode": "34748-6059"
      },
      {
        "line": [
          "6158 SW STATE RD 200"
        ],
        "city": "OCALA",
        "state": "FL",
        "postalCode": "34476-8308"
      },
      {
        "line": [
          "4100 SW 33RD AVE"
        ],
        "city": "OCALA",
        "state": "FL",
        "postalCode": "34474-4466"
      },
      {
        "line": [
          "1711 CITRUS BLVD"
        ],
        "city": "LEESBURG",
        "state": "FL",
        "postalCode": "34748-3423"
      },
      {
        "line": [
          "980 del mar drive"
        ],
        "city": "LADY LAKE",
        "state": "FL",
        "postalCode": "32159-7705"
      },
      {
        "line": [
          "1610 NW 23RD AVE"
        ],
        "city": "GAINESVILLE",
        "state": "FL",
        "postalCode": "32605-3021"
      },
      {
        "line": [
          "402 GRACESTREET"
        ],
        "city": "INVERNESS",
        "state": "FL",
        "postalCode": "34452-4712"
      },
      {
        "line": [
          "6471 OREGON JAY ROAD"
        ],
        "city": "BROOKSVILLE",
        "state": "FL",
        "postalCode": "34613-6311"
      },
      {
        "line": [
          "3760 NW 83RD STREET"
        ],
        "city": "GAINESVILLE",
        "state": "FL",
        "postalCode": "32606-6020"
      },
      {
        "line": [
          "17860 SE AVE STE 610"
        ],
        "city": "SUMMERFIELD",
        "state": "FL",
        "postalCode": "34491-9682"
      },
      {
        "line": [
          "1201 SE 24TH RD"
        ],
        "city": "OCALA",
        "state": "FL",
        "postalCode": "34471-6009"
      },
      {
        "line": [
          "1500 SW 1ST AVE"
        ],
        "city": "OCALA",
        "state": "FL",
        "postalCode": "34474-6504"
      },
      {
        "line": [
          "2760 SE 17TH STREET STE 101"
        ],
        "city": "OCALA",
        "state": "FL",
        "postalCode": "34471-5571"
      },
      {
        "line": [
          "2700 SW 34TH STREET"
        ],
        "city": "OCALA",
        "state": "FL",
        "postalCode": "34474-4470"
      },
      {
        "line": [
          "2472 BURNSED BLVD #107"
        ],
        "city": "THE VILLAGES",
        "state": "FL",
        "postalCode": "32162-2702"
      },
      {
        "line": [
          "445 S LAWRENCE BLVD"
        ],
        "city": "KEYSTONE HEIGHTS",
        "state": "FL",
        "postalCode": "32656-9222"
      },
      {
        "line": [
          "2201 SE 30TH AVE"
        ],
        "city": "OCALA",
        "state": "FL",
        "postalCode": "34471-7500"
      },
      {
        "line": [
          "3520 NW 43RD ST"
        ],
        "city": "GAINESVILLE",
        "state": "FL",
        "postalCode": "32606-6104"
      },
      {
        "line": [
          "10502 N Dale Mabry Ave"
        ],
        "city": "TAMPA",
        "state": "FL",
        "postalCode": "33618-4136"
      },
      {
        "line": [
          "3325 WEDGEWOOD LANE"
        ],
        "city": "THE VILLAGES",
        "state": "FL",
        "postalCode": "32162-7177"
      },
      {
        "line": [
          "3875 WEDGEWOOD LN"
        ],
        "city": "THE VILLAGES",
        "state": "FL",
        "postalCode": "32162-9301"
      },
      {
        "line": [
          "8182 SW 146TH PLACE"
        ],
        "city": "DUNNELLON",
        "state": "FL",
        "postalCode": "34432-7126"
      },
      {
        "line": [
          "1213 WEST MILLER STREET, STE 1"
        ],
        "city": "FRUITLAND PARK",
        "state": "FL",
        "postalCode": "34731-3030"
      },
      {
        "line": [
          "1333 SE 25TH LOOP"
        ],
        "city": "OCALA",
        "state": "FL",
        "postalCode": "34471-1072"
      },
      {
        "line": [
          "402 GRACE STREET"
        ],
        "city": "INVERNESS",
        "state": "FL",
        "postalCode": "34452-4712"
      },
      {
        "line": [
          "3440 US 1 SOUTH ST SUITE 403"
        ],
        "city": "SAINT AUGUSTINE",
        "state": "FL",
        "postalCode": "32086-6363"
      },
      {
        "line": [
          "5925 SE ABSHIRE BLVD"
        ],
        "city": "BELLEVIEW",
        "state": "FL",
        "postalCode": "34420-4025"
      },
      {
        "line": [
          "500 SW 10TH STREET STE 311"
        ],
        "city": "OCALA",
        "state": "FL",
        "postalCode": "34471-0205"
      },
      {
        "line": [
          "3304 SW 34TH CIRCLE STE 201"
        ],
        "city": "OCALA",
        "state": "FL",
        "postalCode": "34474-3358"
      },
      {
        "line": [
          "2685 SW 32ND PLACE"
        ],
        "city": "OCALA",
        "state": "FL",
        "postalCode": "34471-7862"
      },
      {
        "line": [
          "7515 SW 24TH AVENUE"
        ],
        "city": "GAINESVILLE",
        "state": "FL",
        "postalCode": "32607-4724"
      },
      {
        "line": [
          "8296 SW 103RD STREET RD"
        ],
        "city": "OCALA",
        "state": "FL",
        "postalCode": "34481-1701"
      },
      {
        "line": [
          "1504 South St"
        ],
        "city": "LEESBURG",
        "state": "FL",
        "postalCode": "34748-9998"
      },
      {
        "line": [
          "130 N. OLD DIXIE HWY"
        ],
        "city": "LADY LAKE",
        "state": "FL",
        "postalCode": "32159-4347"
      },
      {
        "line": [
          "1700 NW 80TH BLVD"
        ],
        "city": "GAINESVILLE",
        "state": "FL",
        "postalCode": "32606-9177"
      },
      {
        "line": [
          "900 HIGHWAY 466"
        ],
        "city": "LADY LAKE",
        "state": "FL",
        "postalCode": "32159-3926"
      },
      {
        "line": [
          "635 SE 17TH STREET"
        ],
        "city": "OCALA",
        "state": "FL",
        "postalCode": "34471-4428"
      },
      {
        "line": [
          "239 SW 7TH TERRACE"
        ],
        "city": "GAINESVILLE",
        "state": "FL",
        "postalCode": "32601-1406"
      },
      {
        "line": [
          "311 SE 17TH PLACE"
        ],
        "city": "OCALA",
        "state": "FL",
        "postalCode": "34471-5224"
      },
      {
        "line": [
          "630 GRIFFIN AVE"
        ],
        "city": "LADY LAKE",
        "state": "FL",
        "postalCode": "32159-8101"
      },
      {
        "line": [
          "1609 SW 17TH STREET STE 600"
        ],
        "city": "OCALA",
        "state": "FL",
        "postalCode": "34471-1224"
      },
      {
        "line": [
          "5838 DAILEY LN"
        ],
        "city": "NEW PORT RICHEY",
        "state": "FL",
        "postalCode": "34652-3823"
      },
      {
        "line": [
          "900 E Orange Avenue"
        ],
        "city": "EUSTIS",
        "state": "FL",
        "postalCode": "32726-4250"
      },
      {
        "line": [
          "600 WEST NORTH BOULEVARD STE D"
        ],
        "city": "LEESBURG",
        "state": "FL",
        "postalCode": "34748-5000"
      },
      {
        "line": [
          "303 SE OSCEOLA AVE"
        ],
        "city": "OCALA",
        "state": "FL",
        "postalCode": "34471-2171"
      },
      {
        "line": [
          "2212 HIGHWAY 44 WEST"
        ],
        "city": "INVERNESS",
        "state": "FL",
        "postalCode": "34453-3860"
      },
      {
        "line": [
          "6807 Rowan Rd"
        ],
        "city": "NEW PORT RICHEY",
        "state": "FL",
        "postalCode": "34653-2952"
      },
      {
        "line": [
          "11H COMMERCE WAY"
        ],
        "city": "TOTOWA",
        "state": "NJ",
        "postalCode": "07512-3113"
      },
      {
        "line": [
          "2800 SW 41ST STREET"
        ],
        "city": "OCALA",
        "state": "FL",
        "postalCode": "34474-4454"
      },
      {
        "line": [
          "3906 Tampa Rd STE E"
        ],
        "city": "OLDSMAR",
        "state": "FL",
        "postalCode": "34677-3100"
      },
      {
        "line": [
          "3009 EXCHANGE COURT"
        ],
        "city": "WEST PALM BEACH",
        "state": "FL",
        "postalCode": "33409-4023"
      },
      {
        "line": [
          "2651 SW 32nd Pl"
        ],
        "city": "OCALA",
        "state": "FL",
        "postalCode": "34471-7848"
      },
      {
        "line": [
          "212 NORTHSIDE DRIVE"
        ],
        "city": "VALDOSTA",
        "state": "GA",
        "postalCode": "31602-1858"
      },
      {
        "line": [
          "3697 CROWN POINT CT"
        ],
        "city": "JACKSONVILLE",
        "state": "FL",
        "postalCode": "32257-5967"
      },
      {
        "line": [
          "5431 SW 35TH DRIVE STE 200"
        ],
        "city": "GAINESVILLE",
        "state": "FL",
        "postalCode": "32608-5277"
      },
      {
        "line": [
          "2275 SW 22ND LANE"
        ],
        "city": "OCALA",
        "state": "FL",
        "postalCode": "34474-7710"
      },
      {
        "line": [
          "2977 Landover Blvd"
        ],
        "city": "SPRING HILL",
        "state": "FL",
        "postalCode": "34608-7258"
      },
      {
        "line": [
          "4359 SOUTH SUNCOAST BLVD"
        ],
        "city": "HOMOSASSA",
        "state": "FL",
        "postalCode": "34446-1181"
      },
      {
        "line": [
          "3951 NW 48TH TERR"
        ],
        "city": "GAINESVILLE",
        "state": "FL",
        "postalCode": "32606-7230"
      }
    ],
    "extension": [
      {
        "url": "https://fhir.athena.io/StructureDefinition/ah-practice",
        "valueReference": {
          "reference": "Organization/a-1.Practice-19367"
        }
      },
      {
        "url": "https://fhir.athena.io/StructureDefinition/ah-brand",
        "valueReference": {
          "reference": "Organization/a-19367.Brand-1"
        }
      }
    ]
  },
  "fullUrl": "urn:uuid:5a33100c-fd62-58f5-a07e-72493538b355"
}