{
  "resource": {
    "resourceType": "Organization",
    "id": "e3bb5bb3-99aa-5a89-b6e0-f0d500089840",
    "name": "NORTHWEST PHYSICIANS LLC",
    "endpoint": [
      {
        "reference": "Endpoint/27a4e967-47aa-5a9c-a572-b8297ee268a2"
      },
      {
        "reference": "Endpoint/c9359736-51eb-5a36-bb87-d5083381a725"
      }
    ],
    "identifier": [
      {
        "system": "http://hl7.org/fhir/sid/us-npi",
        "value": "1871553073"
      },
      {
        "system": "http://hl7.org/fhir/sid/us-npi",
        "value": "1205137536"
      },
      {
        "system": "http://hl7.org/fhir/sid/us-npi",
        "value": "1194768721"
      },
      {
        "system": "http://hl7.org/fhir/sid/us-npi",
        "value": "1023204062"
      },
      {
        "system": "http://hl7.org/fhir/sid/us-npi",
        "value": "1811762701"
      }
    ],
    "address": [
      {
        "line": [
          "609 W MAPLE AVE"
        ],
        "city": "SPRINGDALE",
        "state": "AR",
        "postalCode": "72764-5335"
      },
      {
        "line": [
          "609 W. Maple Ave"
        ],
        "city": "SPRINGDALE",
        "state": "AR",
        "postalCode": "72764-5335"
      },
      {
        "line": [
          "1011 Main Street"
        ],
        "city": "SPRING HILL",
        "state": "TN",
        "postalCode": "37174-4531"
      },
      {
        "line": [
          "4301 Greathouse Springs Rd"
        ],
        "city": "JOHNSON",
        "state": "AR",
        "postalCode": "72741-8701"
      },
      {
        "line": [
          "4077 Elm Springs RD STE 105"
        ],
        "city": "SPRINGDALE",
        "state": "AR",
        "postalCode": "72762-3748"
      },
      {
        "line": [
          "4077 Elm Springs Rd Ste 105"
        ],
        "city": "SPRINGDALE",
        "state": "AR",
        "postalCode": "72762-2754"
      },
      {
        "line": [
          "609 W. Maple Ave."
        ],
        "city": "SPRINGDALE",
        "state": "AR",
        "postalCode": "72764-5335"
      },
      {
        "line": [
          "4301 Greathouse Springs Road,"
        ],
        "city": "SPRINGDALE",
        "state": "AR",
        "postalCode": "72762-8701"
      },
      {
        "line": [
          "603 N. PROGRESS AVE"
        ],
        "city": "SILOAM SPRINGS",
        "state": "AR",
        "postalCode": "72761-4352"
      },
      {
        "line": [
          "4301 GREATHOUSE SPRINGS RD"
        ],
        "city": "JOHNSON",
        "state": "AR",
        "postalCode": "72741-0000"
      },
      {
        "line": [
          "4077 ELM SPRINGS RD STE 105"
        ],
        "city": "SPRINGDALE",
        "state": "AR",
        "postalCode": "72762-3748"
      },
      {
        "line": [
          "2900 MEDICAL CENTER PKWY STE 310"
        ],
        "city": "BENTONVILLE",
        "state": "AR",
        "postalCode": "72712-3214"
      },
      {
        "line": [
          "4301 Greathouse Springs Rd."
        ],
        "city": "SPRINGDALE",
        "state": "AR",
        "postalCode": "72762-8701"
      },
      {
        "line": [],
        "city": "GRAVETTE",
        "state": "AR",
        "postalCode": "72736-9121"
      },
      {
        "line": [
          "3000 Medical Center Parkway"
        ],
        "city": "BENTONVILLE",
        "state": "AR",
        "postalCode": "72712-3217"
      },
      {
        "line": [
          "3000 Medical Center Pkwy"
        ],
        "city": "BENTONVILLE",
        "state": "AR",
        "postalCode": "72712-3217"
      },
      {
        "line": [
          "3000 MEDICAL CENTER PKWY"
        ],
        "city": "BENTONVILLE",
        "state": "AR",
        "postalCode": "72712-3217"
      },
      {
        "line": [
          "4313 S Pleasant Crossing Blvd"
        ],
        "city": "ROGERS",
        "state": "AR",
        "postalCode": "72758-1347"
      },
      {
        "line": [],
        "city": "BENTONVILLE",
        "state": "AR",
        "postalCode": "72712-3217"
      },
      {
        "line": [
          "2900 Medical Center Pkwy Ste 140"
        ],
        "city": "BENTONVILLE",
        "state": "AR",
        "postalCode": "72712-3212"
      },
      {
        "line": [
          "212 W MONROE AVE STE A"
        ],
        "city": "LOWELL",
        "state": "AR",
        "postalCode": "72745-9451"
      },
      {
        "line": [
          "603 N PROGRESS AVE"
        ],
        "city": "SILOAM SPRINGS",
        "state": "AR",
        "postalCode": "72761-4352"
      },
      {
        "line": [
          "5501 Willow Creek Dr Ste 104"
        ],
        "city": "SPRINGDALE",
        "state": "AR",
        "postalCode": "72762-8707"
      },
      {
        "line": [
          "609 W Maple Ave"
        ],
        "city": "SPRINGDALE",
        "state": "AR",
        "postalCode": "72764-5397"
      },
      {
        "line": [
          "4301 Greathouse Springs Rd, ,"
        ],
        "city": "JOHNSON",
        "state": "AR",
        "postalCode": "72741-9998"
      },
      {
        "line": [
          "601 W. Maple Suite 403"
        ],
        "city": "SPRINGDALE",
        "state": "AR",
        "postalCode": "72764-5374"
      },
      {
        "line": [
          "4301 Greathouse Springs Rd"
        ],
        "city": "SPRINGDALE",
        "state": "AR",
        "postalCode": "72762-8701"
      },
      {
        "line": [
          "609 W Maple Ave"
        ],
        "city": "SPRINGDALE",
        "state": "AR",
        "postalCode": "72764-5378"
      },
      {
        "line": [
          "2158 Butterfield Coach Road",
          "Ste 100"
        ],
        "city": "SPRINGDALE",
        "state": "AR",
        "postalCode": "72764-9142"
      },
      {
        "line": [
          "4301 GREATHOUSE SPRINGS RD"
        ],
        "city": "JOHNSON",
        "state": "AR",
        "postalCode": "72741-9998"
      },
      {
        "line": [
          "2900 MEDICAL CENTER PKWY STE 300"
        ],
        "city": "BENTONVILLE",
        "state": "AR",
        "postalCode": "72712-3214"
      },
      {
        "line": [
          "609 W Maple Ave"
        ],
        "city": "SPRINGDALE",
        "state": "AR",
        "postalCode": "72764-5335"
      },
      {
        "line": [
          "4301 GREATHOUSE SPRINGS RD"
        ],
        "city": "SPRINGDALE",
        "state": "AR",
        "postalCode": "72762-8701"
      },
      {
        "line": [
          "4313 S PLEASANT CROSSING BLVD"
        ],
        "city": "ROGERS",
        "state": "AR",
        "postalCode": "72758-1347"
      },
      {
        "line": [
          "603  N PROGRESS AVE"
        ],
        "city": "SILOAM SPRINGS",
        "state": "AR",
        "postalCode": "72761-4352"
      },
      {
        "line": [
          "4301 Greathouse Springs Rd."
        ],
        "city": "JOHNSON",
        "state": "AR",
        "postalCode": "72741-8701"
      },
      {
        "line": [
          "4301 Greathouse Springs Rd,"
        ],
        "city": "JOHNSON",
        "state": "AR",
        "postalCode": "72741-9998"
      },
      {
        "line": [
          "1102 NW LOWES AVE SUITE 2"
        ],
        "city": "BENTONVILLE",
        "state": "AR",
        "postalCode": "72712-8093"
      },
      {
        "line": [
          "4301 Willow Creek Drive"
        ],
        "city": "SPRINGDALE",
        "state": "AR",
        "postalCode": "72762-8711"
      },
      {
        "line": [
          "609 W Maple"
        ],
        "city": "SPRINGDALE",
        "state": "AR",
        "postalCode": "72764-5335"
      },
      {
        "line": [
          "331 Commercial St"
        ],
        "city": "CENTERTON",
        "state": "AR",
        "postalCode": "72719-9791"
      },
      {
        "line": [
          "4301 Greathouse Springs Rd Ste 100"
        ],
        "city": "SPRINGDALE",
        "state": "AR",
        "postalCode": "72762-8701"
      },
      {
        "line": [
          "3873 N PARKVIEW DR"
        ],
        "city": "FAYETTEVILLE",
        "state": "AR",
        "postalCode": "72703-6286"
      },
      {
        "line": [],
        "city": "ROGERS",
        "state": "AR",
        "postalCode": "72756-2200"
      },
      {
        "line": [
          "3873 N. Parkview Dr"
        ],
        "city": "FAYETTEVILLE",
        "state": "AR",
        "postalCode": "72703-6296"
      },
      {
        "line": [
          "2900 MEDICAL CENTER PKWY STE 240A"
        ],
        "city": "BENTONVILLE",
        "state": "AR",
        "postalCode": "72712-3214"
      },
      {
        "line": [
          "4301 Greathouse Springs Rd"
        ],
        "city": "JOHNSON",
        "state": "AR",
        "postalCode": "72741-9998"
      },
      {
        "line": [
          "3873 PARKVIEW DR"
        ],
        "city": "FAYETTEVILLE",
        "state": "AR",
        "postalCode": "72703-6286"
      },
      {
        "line": [
          "601 SW REGIONAL AIRPORT BLVD"
        ],
        "city": "BENTONVILLE",
        "state": "AR",
        "postalCode": "72713-9256"
      },
      {
        "line": [
          "609 W  Maple Ave"
        ],
        "city": "SPRINGDALE",
        "state": "AR",
        "postalCode": "72764-5335"
      },
      {
        "line": [
          "601 SW Regional Airport Blvd."
        ],
        "city": "BENTONVILLE",
        "state": "AR",
        "postalCode": "72712-9256"
      },
      {
        "line": [
          "4301 GREATHOUSE RD"
        ],
        "city": "SPRINGDALE",
        "state": "AR",
        "postalCode": "72762-8701"
      },
      {
        "line": [
          "601 W. Maple, Suite 401"
        ],
        "city": "SPRINGDALE",
        "state": "AR",
        "postalCode": "72764-8999"
      },
      {
        "line": [
          "3873 N Parkview Dr"
        ],
        "city": "FAYETTEVILLE",
        "state": "AR",
        "postalCode": "72703-6286"
      },
      {
        "line": [
          "4077 Elm Springs RD STE 5"
        ],
        "city": "SPRINGDALE",
        "state": "AR",
        "postalCode": "72762-3748"
      },
      {
        "line": [
          "2900 MEDICAL CENTER PKWY STE 380"
        ],
        "city": "BENTONVILLE",
        "state": "AR",
        "postalCode": "72712-3204"
      },
      {
        "line": [
          "1101 Jackson Street"
        ],
        "city": "GRAVETTE",
        "state": "AR",
        "postalCode": "72736-9121"
      },
      {
        "line": [],
        "city": "BENTONVILLE",
        "state": "AR",
        "postalCode": "72713-9256"
      },
      {
        "line": [
          "4077 Elm Springs Rd Ste 105"
        ],
        "city": "SPRINGDALE",
        "state": "AR",
        "postalCode": "72762-3748"
      },
      {
        "line": [
          "2900 MEDICAL CENTER PKWY STE 380"
        ],
        "city": "BENTONVILLE",
        "state": "AR",
        "postalCode": "72712-3214"
      },
      {
        "line": [
          "6636 W. Sunset Ave."
        ],
        "city": "SPRINGDALE",
        "state": "AR",
        "postalCode": "72762-0939"
      },
      {
        "line": [
          "2900 Medical Center Pkwy"
        ],
        "city": "BENTONVILLE",
        "state": "AR",
        "postalCode": "72712-3204"
      },
      {
        "line": [
          "3873 N. Parkview Dr"
        ],
        "city": "FAYETTEVILLE",
        "state": "AR",
        "postalCode": "72703-6286"
      },
      {
        "line": [
          "3399 W Black Forest Dr STE 2"
        ],
        "city": "FAYETTEVILLE",
        "state": "AR",
        "postalCode": "72704-6541"
      },
      {
        "line": [
          "601 W. Maple Suite 213"
        ],
        "city": "SPRINGDALE",
        "state": "AR",
        "postalCode": "72764-5397"
      },
      {
        "line": [
          "3873 N. Parkview Drive"
        ],
        "city": "FAYETTEVILLE",
        "state": "AR",
        "postalCode": "72703-6286"
      },
      {
        "line": [
          "609 W Maple Ave"
        ],
        "city": "SPRINGDALE",
        "state": "AR",
        "postalCode": "72762-5335"
      },
      {
        "line": [
          "609 W MAPLE AVE."
        ],
        "city": "SPRINGDALE",
        "state": "AR",
        "postalCode": "72764-5335"
      },
      {
        "line": [
          "603 N Progress Ave."
        ],
        "city": "SILOAM SPRINGS",
        "state": "AR",
        "postalCode": "72761-4352"
      },
      {
        "line": [
          "603 N Progress Ave"
        ],
        "city": "SILOAM SPRINGS",
        "state": "AR",
        "postalCode": "72761-4352"
      },
      {
        "line": [
          "603 N. Progress Ave."
        ],
        "city": "SILOAM SPRINGS",
        "state": "AR",
        "postalCode": "72761-4352"
      },
      {
        "line": [
          "4301 Willow Creek Dr"
        ],
        "city": "SPRINGDALE",
        "state": "AR",
        "postalCode": "72762-8711"
      },
      {
        "line": [
          "609 W Maple Ave."
        ],
        "city": "SPRINGDALE",
        "state": "AR",
        "postalCode": "72764-5335"
      },
      {
        "line": [
          "2158 Butterfield Coach Road, Suite 100"
        ],
        "city": "SPRINGDALE",
        "state": "AR",
        "postalCode": "72764-9142"
      },
      {
        "line": [
          "3399 Forest Drive Suite 2"
        ],
        "city": "FAYETTEVILLE",
        "state": "AR",
        "postalCode": "72704-6541"
      },
      {
        "line": [],
        "city": "FRANKLIN",
        "state": "TN",
        "postalCode": "37067-1704"
      },
      {
        "line": [
          "2000 S 42nd ST STE 100"
        ],
        "city": "ROGERS",
        "state": "AR",
        "postalCode": "72758-2001"
      },
      {
        "line": [
          "3873 N. Parkview Dr."
        ],
        "city": "FAYETTEVILLE",
        "state": "AR",
        "postalCode": "72703-6286"
      }
    ],
    "extension": [
      {
        "url": "https://fhir.athena.io/StructureDefinition/ah-practice",
        "valueReference": {
          "reference": "Organization/a-1.Practice-2229"
        }
      },
      {
        "url": "https://fhir.athena.io/StructureDefinition/ah-brand",
        "valueReference": {
          "reference": "Organization/a-2229.Brand-1"
        }
      }
    ]
  },
  "fullUrl": "urn:uuid:e3bb5bb3-99aa-5a89-b6e0-f0d500089840"
}