{
  "resource": {
    "resourceType": "Organization",
    "id": "d12b3011-ff9c-54f2-a3c9-ab7f4a54ad3b",
    "name": "At Your Door Visiting Healthcare Services",
    "endpoint": [
      {
        "reference": "Endpoint/27a4e967-47aa-5a9c-a572-b8297ee268a2"
      },
      {
        "reference": "Endpoint/92cb1feb-6201-553e-a4db-52e6e8b3505f"
      }
    ],
    "identifier": [
      {
        "system": "http://hl7.org/fhir/sid/us-npi",
        "value": "1750760849"
      }
    ],
    "address": [
      {
        "line": [
          "2750 W FAIR AVE"
        ],
        "city": "LANCASTER",
        "state": "OH",
        "postalCode": "43130-9500"
      },
      {
        "line": [
          "6355 EMERALD PKWAY"
        ],
        "city": "DUBLIN",
        "state": "OH",
        "postalCode": "43016-1682"
      },
      {
        "line": [
          "1131 DELIQUIA DR."
        ],
        "city": "CINCINNATI",
        "state": "OH",
        "postalCode": "45230-1399"
      },
      {
        "line": [
          "4522 Hickory Chase Way"
        ],
        "city": "HILLIARD",
        "state": "OH",
        "postalCode": "43026-9998"
      },
      {
        "line": [
          "7222 HERITAGESPRING DR"
        ],
        "city": "WEST CHESTER",
        "state": "OH",
        "postalCode": "45069-6589"
      },
      {
        "line": [
          "79 Blossom Field Blvd."
        ],
        "city": "COLUMBUS",
        "state": "OH",
        "postalCode": "43213-3007"
      },
      {
        "line": [
          "1650 ALLENTOWN RD"
        ],
        "city": "LIMA",
        "state": "OH",
        "postalCode": "45805-1802"
      },
      {
        "line": [
          "2272 SISKIN AVE."
        ],
        "city": "COLUMBUS",
        "state": "OH",
        "postalCode": "43228-9007"
      },
      {
        "line": [
          "9482 CARROLL NORTHERN RD"
        ],
        "city": "PICKERINGTON",
        "state": "OH",
        "postalCode": "43147-9468"
      },
      {
        "line": [
          "4588 WESLEY WOODS BLVD"
        ],
        "city": "NEW ALBANY",
        "state": "OH",
        "postalCode": "43054-7674"
      },
      {
        "line": [
          "155 MARION-CARDINGTON RD W"
        ],
        "city": "MARION",
        "state": "OH",
        "postalCode": "43302-9998"
      },
      {
        "line": [
          "79 BLOSSOM FIELD BLVD"
        ],
        "city": "COLUMBUS",
        "state": "OH",
        "postalCode": "43213-3076"
      },
      {
        "line": [
          "314 AGLER RD"
        ],
        "city": "COLUMBUS",
        "state": "OH",
        "postalCode": "43230-2546"
      },
      {
        "line": [
          "212 FAIRVIEW AVE."
        ],
        "city": "CENTERBURG",
        "state": "OH",
        "postalCode": "43011-8314"
      },
      {
        "line": [
          "100 Red Oak Drive"
        ],
        "city": "Cridersville",
        "state": "OH",
        "postalCode": "45806-9998"
      },
      {
        "line": [
          "8160 DUSTN RD"
        ],
        "city": "GALENA",
        "state": "OH",
        "postalCode": "43021-9776"
      },
      {
        "line": [
          "1991 OSTEGO AVE"
        ],
        "city": "COSHOCTON",
        "state": "OH",
        "postalCode": "43812-9998"
      },
      {
        "line": [
          "3550 FISHINGER BLVD."
        ],
        "city": "HILLIARD",
        "state": "OH",
        "postalCode": "43026-9549"
      },
      {
        "line": [
          "7041 BENT TREE BLVD"
        ],
        "city": "COLUMBUS",
        "state": "OH",
        "postalCode": "43235-3916"
      },
      {
        "line": [
          "2867 E. Livingston Ave"
        ],
        "city": "COLUMBUS",
        "state": "OH",
        "postalCode": "43209-9998"
      },
      {
        "line": [
          "153 UNIVERSITY DR"
        ],
        "city": "CHILLICOTHE",
        "state": "OH",
        "postalCode": "45601-2168"
      },
      {
        "line": [
          "5919 BLUE STAR DR"
        ],
        "city": "GROVE CITY",
        "state": "OH",
        "postalCode": "43123-7595"
      },
      {
        "line": [
          "5691 THOMPSON ROAD"
        ],
        "city": "COLUMBUS",
        "state": "OH",
        "postalCode": "43230-1345"
      },
      {
        "line": [
          "660 E 5TH ST"
        ],
        "city": "WAVERLY",
        "state": "OH",
        "postalCode": "45690-1551"
      },
      {
        "line": [
          "5757 Maple Canyon Ave"
        ],
        "city": "COLUMBUS",
        "state": "OH",
        "postalCode": "43229-9998"
      },
      {
        "line": [
          "1800 RIVERSIDE DR."
        ],
        "city": "COLUMBUS",
        "state": "OH",
        "postalCode": "43212-1855"
      },
      {
        "line": [
          "1320 OLD HENDERSON RD"
        ],
        "city": "COLUMBUS",
        "state": "OH",
        "postalCode": "43220-3608"
      },
      {
        "line": [
          "3682 DOLSON CT"
        ],
        "city": "CARROLL",
        "state": "OH",
        "postalCode": "43112-9462"
      },
      {
        "line": [
          "314 AGLER RD"
        ],
        "city": "COLUMBUS",
        "state": "OH",
        "postalCode": "43230-9882"
      },
      {
        "line": [
          "6975 GRAPHICS WAY"
        ],
        "city": "LEWIS CENTER",
        "state": "OH",
        "postalCode": "43035-1128"
      },
      {
        "line": [
          "9180 Antares Avenue"
        ],
        "city": "COLUMBUS",
        "state": "OH",
        "postalCode": "43240-9998"
      },
      {
        "line": [
          "1001 PARKVIEW BLVD"
        ],
        "city": "COLUMBUS",
        "state": "OH",
        "postalCode": "43219-2270"
      },
      {
        "line": [
          "5225 COX-SMITH ROAD"
        ],
        "city": "MASON",
        "state": "OH",
        "postalCode": "45040-9276"
      },
      {
        "line": [
          "142 UNIVERSITY DR"
        ],
        "city": "CHILLICOTHE",
        "state": "OH",
        "postalCode": "45601-2198"
      },
      {
        "line": [
          "1150 COLONY DR"
        ],
        "city": "WESTERVILLE",
        "state": "OH",
        "postalCode": "43081-3624"
      },
      {
        "line": [
          "4299 BACH BUXTON ROAD"
        ],
        "city": "BATAVIA",
        "state": "OH",
        "postalCode": "45103-2948"
      },
      {
        "line": [
          "1150 W RUSSELL RD"
        ],
        "city": "SIDNEY",
        "state": "OH",
        "postalCode": "45365-7025"
      },
      {
        "line": [
          "622 S SUNBURY ROAD"
        ],
        "city": "WESTERVILLE",
        "state": "OH",
        "postalCode": "43081-9998"
      },
      {
        "line": [
          "702 POLARIS PARKWAY EAST"
        ],
        "city": "WESTERVILLE",
        "state": "OH",
        "postalCode": "43082-7649"
      },
      {
        "line": [
          "8580 Township Road 237"
        ],
        "city": "FINDLAY",
        "state": "OH",
        "postalCode": "45840-9998"
      },
      {
        "line": [
          "1839 WESTERN AVE"
        ],
        "city": "CHILLICOTHE",
        "state": "OH",
        "postalCode": "45601-1038"
      },
      {
        "line": [
          "119 W. Second Street"
        ],
        "city": "XENIA",
        "state": "OH",
        "postalCode": "45385-9998"
      },
      {
        "line": [
          "6255 DELTA LOOP APT 201"
        ],
        "city": "DUBLIN",
        "state": "OH",
        "postalCode": "43016-9678"
      },
      {
        "line": [
          "402 LIBERTY WAY"
        ],
        "city": "COLUMBUS",
        "state": "OH",
        "postalCode": "43230-3502"
      },
      {
        "line": [
          "10400 RANDALL PARK DR."
        ],
        "city": "DAYTON",
        "state": "OH",
        "postalCode": "45458-5810"
      },
      {
        "line": [
          "883 W SPRING ST"
        ],
        "city": "LIMA",
        "state": "OH",
        "postalCode": "45805-3228"
      },
      {
        "line": [
          "6480 POST ROAD"
        ],
        "city": "DUBLIN",
        "state": "OH",
        "postalCode": "43016-1682"
      },
      {
        "line": [
          "300 OVERSTREET WAY"
        ],
        "city": "COLUMBUS",
        "state": "OH",
        "postalCode": "43228-9998"
      },
      {
        "line": [
          "4855 BABSON PL"
        ],
        "city": "CINCINNATI",
        "state": "OH",
        "postalCode": "45227-2637"
      },
      {
        "line": [
          "65 S WILLIAMS ST"
        ],
        "city": "JOHNSTOWN",
        "state": "OH",
        "postalCode": "43031-1184"
      },
      {
        "line": [
          "5531 CHAPPELL CROSSING BLVD"
        ],
        "city": "WEST CHESTER",
        "state": "OH",
        "postalCode": "45069-5226"
      },
      {
        "line": [
          "2618 FLORIBUNDA DR."
        ],
        "city": "COLUMBUS",
        "state": "OH",
        "postalCode": "43209-3118"
      },
      {
        "line": [
          "600 W NATIONAL ROAD"
        ],
        "city": "ENGLEWOOD",
        "state": "OH",
        "postalCode": "45322-1469"
      },
      {
        "line": [
          "241 Whitter Dr. S"
        ],
        "city": "LANCASTER",
        "state": "OH",
        "postalCode": "43130-5717"
      },
      {
        "line": [
          "120 E STAFFORD AVE"
        ],
        "city": "COLUMBUS",
        "state": "OH",
        "postalCode": "43085-3283"
      },
      {
        "line": [
          "245 E MAIN STREET"
        ],
        "city": "NEW ALBANY",
        "state": "OH",
        "postalCode": "43054-9717"
      },
      {
        "line": [
          "1070 Gloria Ave"
        ],
        "city": "LIMA",
        "state": "OH",
        "postalCode": "45805-9998"
      },
      {
        "line": [
          "7143 ROUTE 23 SOUTH"
        ],
        "city": "PIKETON",
        "state": "OH",
        "postalCode": "45661-9998"
      },
      {
        "line": [
          "350 COUNTY LINE RD W"
        ],
        "city": "WESTERVILLE",
        "state": "OH",
        "postalCode": "43082-8103"
      },
      {
        "line": [
          "9191 ROUND TOP RD"
        ],
        "city": "CINCINNATI",
        "state": "OH",
        "postalCode": "45251-2446"
      },
      {
        "line": [
          "215 Huber Village Blvd"
        ],
        "city": "WESTERVILLE",
        "state": "OH",
        "postalCode": "43081-9998"
      },
      {
        "line": [
          "2150 MONTEGO DR."
        ],
        "city": "SPRINGFIELD",
        "state": "OH",
        "postalCode": "45503-6464"
      },
      {
        "line": [
          "2380 S US HighWAY 68"
        ],
        "city": "URBANA",
        "state": "OH",
        "postalCode": "43078-9470"
      },
      {
        "line": [
          "2320 SONORA DR"
        ],
        "city": "GROVE CITY",
        "state": "OH",
        "postalCode": "43123-2423"
      },
      {
        "line": [
          "6885 FREEMAN ROAD"
        ],
        "city": "WESTERVILLE",
        "state": "OH",
        "postalCode": "43082-9113"
      },
      {
        "line": [
          "6800 Gender Rd."
        ],
        "city": "CANAL WINCHESTER",
        "state": "OH",
        "postalCode": "43110-9998"
      },
      {
        "line": [
          "2126 BELLTREE DRIVE"
        ],
        "city": "REYNOLDSBURG",
        "state": "OH",
        "postalCode": "43068-3506"
      },
      {
        "line": [
          "781 Greenfield Street"
        ],
        "city": "TIFFIN",
        "state": "OH",
        "postalCode": "44883-0001"
      },
      {
        "line": [
          "6800 GENDER ROAD"
        ],
        "city": "CANAL WINCHESTER",
        "state": "OH",
        "postalCode": "43110-8232"
      },
      {
        "line": [
          "141 GRACELAND DR"
        ],
        "city": "LANCASTER",
        "state": "OH",
        "postalCode": "43130-3407"
      },
      {
        "line": [
          "2380 US HWY 68 S"
        ],
        "city": "URBANA",
        "state": "OH",
        "postalCode": "43078-9470"
      },
      {
        "line": [
          "1195 NORTH ST"
        ],
        "city": "WESTERVILLE",
        "state": "OH",
        "postalCode": "43081-9406"
      },
      {
        "line": [
          "383 W COSHOCTON ST"
        ],
        "city": "JOHNSTOWN",
        "state": "OH",
        "postalCode": "43031-1112"
      },
      {
        "line": [
          "3291 NORTHPOINTE DR"
        ],
        "city": "ZANESVILLE",
        "state": "OH",
        "postalCode": "43701-2593"
      },
      {
        "line": [
          "2380 S US HIGHWAY 68"
        ],
        "city": "URBANA",
        "state": "OH",
        "postalCode": "43078-9470"
      },
      {
        "line": [
          "8069 BRADFORD CT."
        ],
        "city": "POWELL",
        "state": "OH",
        "postalCode": "43065-8069"
      },
      {
        "line": [
          "6377 COOPER RD"
        ],
        "city": "COLUMBUS",
        "state": "OH",
        "postalCode": "43231-8600"
      },
      {
        "line": [
          "702 POLARIS PKWY"
        ],
        "city": "WESTERVILLE",
        "state": "OH",
        "postalCode": "43082-7649"
      },
      {
        "line": [
          "2511 Bretton woods drive"
        ],
        "city": "COLUMBUS",
        "state": "OH",
        "postalCode": "43231-9998"
      },
      {
        "line": [
          "12050 MONTGOMERY ROAD"
        ],
        "city": "CINCINNATI",
        "state": "OH",
        "postalCode": "45249-9998"
      },
      {
        "line": [
          "2225 Taylor Park Dr."
        ],
        "city": "REYNOLDSBURG",
        "state": "OH",
        "postalCode": "43068-9998"
      },
      {
        "line": [
          "700 East St."
        ],
        "city": "WESTERVILLE",
        "state": "OH",
        "postalCode": "43081-9998"
      },
      {
        "line": [
          "1201 RIVARIDGE CT"
        ],
        "city": "COLUMBUS",
        "state": "OH",
        "postalCode": "43230-8801"
      },
      {
        "line": [
          "730 N SPRING RD"
        ],
        "city": "WESTERVILLE",
        "state": "OH",
        "postalCode": "43082-1803"
      },
      {
        "line": [
          "11915 Township Rd. 145"
        ],
        "city": "FINDLAY",
        "state": "OH",
        "postalCode": "45840-9998"
      },
      {
        "line": [
          "3717 ORDERS RD"
        ],
        "city": "GROVE CITY",
        "state": "OH",
        "postalCode": "43123-9598"
      },
      {
        "line": [
          "3872 ATTUCKS DR"
        ],
        "city": "POWELL",
        "state": "OH",
        "postalCode": "43065-6164"
      },
      {
        "line": [
          "120 MORSE RD"
        ],
        "city": "COLUMBUS",
        "state": "OH",
        "postalCode": "43214-1700"
      },
      {
        "line": [
          "444 CHERRY ST"
        ],
        "city": "WAVERLY",
        "state": "OH",
        "postalCode": "45690-1277"
      },
      {
        "line": [
          "300 Overstreeet Way"
        ],
        "city": "COLUMBUS",
        "state": "OH",
        "postalCode": "43228-0000"
      },
      {
        "line": [
          "3754 MCCUTCHEON RD."
        ],
        "city": "COLUMBUS",
        "state": "OH",
        "postalCode": "43230-4816"
      },
      {
        "line": [
          "6466 FOX HILL DR."
        ],
        "city": "CANAL WINCHESTER",
        "state": "OH",
        "postalCode": "43110-8766"
      },
      {
        "line": [
          "2225 TAYLOR PARK DR"
        ],
        "city": "REYNOLDSBURG",
        "state": "OH",
        "postalCode": "43068-8039"
      },
      {
        "line": [
          "1550 WELLNESS DRIVE"
        ],
        "city": "MARION",
        "state": "OH",
        "postalCode": "43302-6585"
      },
      {
        "line": [
          "695 WYCLIFFE DR"
        ],
        "city": "XENIA",
        "state": "OH",
        "postalCode": "45385-7254"
      },
      {
        "line": [
          "1480 DEERPATH DR."
        ],
        "city": "CAMBRIDGE",
        "state": "OH",
        "postalCode": "43725-9098"
      },
      {
        "line": [
          "1572 TIMBER TOP DRIVE"
        ],
        "city": "LANCASTER",
        "state": "OH",
        "postalCode": "43130-9998"
      },
      {
        "line": [
          "590 ISSAC PRUGH WAY"
        ],
        "city": "DAYTON",
        "state": "OH",
        "postalCode": "45429-3482"
      },
      {
        "line": [
          "45 CATHEDRAL LN"
        ],
        "city": "CUYAHOGA FALLS",
        "state": "OH",
        "postalCode": "44223-1657"
      },
      {
        "line": [
          "3664 W. US 22 & OH-3"
        ],
        "city": "LOVELAND",
        "state": "OH",
        "postalCode": "45140-0000"
      },
      {
        "line": [
          "4959 MEDFIELD WAY"
        ],
        "city": "COLUMBUS",
        "state": "OH",
        "postalCode": "43228-1653"
      },
      {
        "line": [
          "401 HILL RD. N"
        ],
        "city": "PICKERINGTON",
        "state": "OH",
        "postalCode": "43147-1299"
      },
      {
        "line": [
          "1065 JOHNSON AVE"
        ],
        "city": "NEWARK",
        "state": "OH",
        "postalCode": "43055-7233"
      },
      {
        "line": [
          "144 E BROAD ST"
        ],
        "city": "PATASKALA",
        "state": "OH",
        "postalCode": "43062-7536"
      },
      {
        "line": [
          "3500 TRILLIUM XING"
        ],
        "city": "COLUMBUS",
        "state": "OH",
        "postalCode": "43235-7991"
      },
      {
        "line": [
          "3784 FRAZEYSBURG RD"
        ],
        "city": "ZANESVILLE",
        "state": "OH",
        "postalCode": "43701-7575"
      },
      {
        "line": [
          "3000 MCGEE AVE"
        ],
        "city": "MIDDLETOWN",
        "state": "OH",
        "postalCode": "45044-4991"
      },
      {
        "line": [
          "7143 US ROUTE 23 SOUTH"
        ],
        "city": "PIKETON",
        "state": "OH",
        "postalCode": "45661-9998"
      },
      {
        "line": [
          "755 Ottawa St"
        ],
        "city": "KALIDA",
        "state": "OH",
        "postalCode": "45853-9998"
      },
      {
        "line": [
          "8000 EVERGREEN RIDGE DR."
        ],
        "city": "CINCINNATI",
        "state": "OH",
        "postalCode": "45215-5750"
      },
      {
        "line": [
          "1150 COLONY DR"
        ],
        "city": "WESTERVILLE",
        "state": "OH",
        "postalCode": "43081-9998"
      },
      {
        "line": [
          "7400 HAZELTON ETNA RD SW"
        ],
        "city": "PATASKALA",
        "state": "OH",
        "postalCode": "43062-9403"
      },
      {
        "line": [
          "4175 INDIAN RIPPLE RD"
        ],
        "city": "DAYTON",
        "state": "OH",
        "postalCode": "45440-3245"
      },
      {
        "line": [
          "579 W 5th Ave."
        ],
        "city": "COLUMBUS",
        "state": "OH",
        "postalCode": "43201-3174"
      },
      {
        "line": [
          "2346 Senora Drive"
        ],
        "city": "COLUMBUS",
        "state": "OH",
        "postalCode": "43213-9288"
      },
      {
        "line": [
          "45 CATHEDRAL LN"
        ],
        "city": "CUYAHOGA FALLS",
        "state": "OH",
        "postalCode": "44223-1118"
      },
      {
        "line": [
          "611 WINDMILLER DR"
        ],
        "city": "PICKERINGTON",
        "state": "OH",
        "postalCode": "43147-9867"
      },
      {
        "line": [
          "1020 TAYLOR ST"
        ],
        "city": "ZANESVILLE",
        "state": "OH",
        "postalCode": "43701-2656"
      },
      {
        "line": [
          "3200 ELIM MANOR COURT"
        ],
        "city": "COLUMBUS",
        "state": "OH",
        "postalCode": "43232-3982"
      },
      {
        "line": [
          "4531 Columbus Rd"
        ],
        "city": "CENTERBURG",
        "state": "OH",
        "postalCode": "43011-9998"
      },
      {
        "line": [
          "300 Overlook Drive"
        ],
        "city": "PIKETON",
        "state": "OH",
        "postalCode": "45661-9118"
      },
      {
        "line": [
          "1640 ALLENTOWN RD"
        ],
        "city": "LIMA",
        "state": "OH",
        "postalCode": "45805-1875"
      },
      {
        "line": [
          "5757 Maple Canyon Blvd"
        ],
        "city": "COLUMBUS",
        "state": "OH",
        "postalCode": "43229-9998"
      },
      {
        "line": [
          "500 2nd Street"
        ],
        "city": "PORTSMOUTH",
        "state": "OH",
        "postalCode": "45662-9998"
      },
      {
        "line": [
          "331 GOOSEPOND RD"
        ],
        "city": "NEWARK",
        "state": "OH",
        "postalCode": "43055-3184"
      },
      {
        "line": [
          "630 S Sunbury Road"
        ],
        "city": "WESTERVILLE",
        "state": "OH",
        "postalCode": "43081-9998"
      },
      {
        "line": [
          "2656 W ALEX BELL RD."
        ],
        "city": "DAYTON",
        "state": "OH",
        "postalCode": "45459-6235"
      },
      {
        "line": [
          "5055 THOMPSON RD"
        ],
        "city": "COLUMBUS",
        "state": "OH",
        "postalCode": "43230-6336"
      },
      {
        "line": [
          "9480 BLACKLICK EASTERN RD."
        ],
        "city": "PICKERINGTON",
        "state": "OH",
        "postalCode": "43147-8854"
      },
      {
        "line": [
          "1991 OTSEGO AVE"
        ],
        "city": "COSHOCTON",
        "state": "OH",
        "postalCode": "43812-9998"
      },
      {
        "line": [
          "142 UNIVERSITY DR"
        ],
        "city": "CHILLICOTHE",
        "state": "OH",
        "postalCode": "45601-9998"
      },
      {
        "line": [
          "4212 NORTHPOINTE DR"
        ],
        "city": "ZANESVILLE",
        "state": "OH",
        "postalCode": "43701-5970"
      },
      {
        "line": [
          "11915 Township Rd 145"
        ],
        "city": "FINDLAY",
        "state": "OH",
        "postalCode": "45840-9998"
      },
      {
        "line": [
          "579 W 5TH AVE"
        ],
        "city": "COLUMBUS",
        "state": "OH",
        "postalCode": "43201-3174"
      },
      {
        "line": [
          "12050 MONTGOMERY ROAD"
        ],
        "city": "CINCINNATI",
        "state": "OH",
        "postalCode": "45249-1118"
      },
      {
        "line": [
          "1769 GRAHAM RD."
        ],
        "city": "REYNOLDSBURG",
        "state": "OH",
        "postalCode": "43068-3104"
      },
      {
        "line": [
          "1740 EDEN PARK DRIVE"
        ],
        "city": "HAMILTON",
        "state": "OH",
        "postalCode": "45013-6310"
      },
      {
        "line": [
          "350 COUNTY LINE ROAD"
        ],
        "city": "WESTERVILLE",
        "state": "OH",
        "postalCode": "43082-8103"
      }
    ],
    "extension": [
      {
        "url": "https://fhir.athena.io/StructureDefinition/ah-practice",
        "valueReference": {
          "reference": "Organization/a-1.Practice-26689"
        }
      },
      {
        "url": "https://fhir.athena.io/StructureDefinition/ah-brand",
        "valueReference": {
          "reference": "Organization/a-26689.Brand-1"
        }
      }
    ]
  },
  "fullUrl": "urn:uuid:d12b3011-ff9c-54f2-a3c9-ab7f4a54ad3b"
}