{
  "resource": {
    "resourceType": "Organization",
    "id": "0386d89e-ef78-5f6d-906a-daa9389a0cc3",
    "name": "Monogram Health PC",
    "endpoint": [
      {
        "reference": "Endpoint/27a4e967-47aa-5a9c-a572-b8297ee268a2"
      },
      {
        "reference": "Endpoint/7d30c303-1b17-5d05-889b-1e439223a9bd"
      }
    ],
    "identifier": [
      {
        "system": "http://hl7.org/fhir/sid/us-npi",
        "value": "1396481255"
      },
      {
        "system": "http://hl7.org/fhir/sid/us-npi",
        "value": "1538883111"
      },
      {
        "system": "http://hl7.org/fhir/sid/us-npi",
        "value": "1285344150"
      },
      {
        "system": "http://hl7.org/fhir/sid/us-npi",
        "value": "1124738463"
      },
      {
        "system": "http://hl7.org/fhir/sid/us-npi",
        "value": "1740999218"
      },
      {
        "system": "http://hl7.org/fhir/sid/us-npi",
        "value": "1376252999"
      },
      {
        "system": "http://hl7.org/fhir/sid/us-npi",
        "value": "1730804477"
      },
      {
        "system": "http://hl7.org/fhir/sid/us-npi",
        "value": "1568169845"
      },
      {
        "system": "http://hl7.org/fhir/sid/us-npi",
        "value": "1871218511"
      },
      {
        "system": "http://hl7.org/fhir/sid/us-npi",
        "value": "1134739089"
      },
      {
        "system": "http://hl7.org/fhir/sid/us-npi",
        "value": "1962112326"
      },
      {
        "system": "http://hl7.org/fhir/sid/us-npi",
        "value": "1922714633"
      },
      {
        "system": "http://hl7.org/fhir/sid/us-npi",
        "value": "1215647441"
      },
      {
        "system": "http://hl7.org/fhir/sid/us-npi",
        "value": "1245950757"
      },
      {
        "system": "http://hl7.org/fhir/sid/us-npi",
        "value": "1366162885"
      },
      {
        "system": "http://hl7.org/fhir/sid/us-npi",
        "value": "1578284246"
      },
      {
        "system": "http://hl7.org/fhir/sid/us-npi",
        "value": "1831804699"
      },
      {
        "system": "http://hl7.org/fhir/sid/us-npi",
        "value": "1023733359"
      }
    ],
    "address": [
      {
        "line": [
          "101 Park Ave",
          "Suite 1300"
        ],
        "city": "OKLAHOMA CITY",
        "state": "OK",
        "postalCode": "73102-7216"
      },
      {
        "line": [
          "4720 Salisbury Rd"
        ],
        "city": "JACKSONVILLE",
        "state": "FL",
        "postalCode": "32256-6101"
      },
      {
        "line": [
          "4620 E 53rd St",
          "Suite 200"
        ],
        "city": "DAVENPORT",
        "state": "IA",
        "postalCode": "52807-3627"
      },
      {
        "line": [
          "101 S Reid St",
          "Suite 307"
        ],
        "city": "SIOUX FALLS",
        "state": "SD",
        "postalCode": "57103-7045"
      },
      {
        "line": [
          "1253 Canyon Rd"
        ],
        "city": "MORGANTOWN",
        "state": "WV",
        "postalCode": "26508-9273"
      },
      {
        "line": [
          "1603 Capitol Ave",
          "Suite 403"
        ],
        "city": "CHEYENNE",
        "state": "WY",
        "postalCode": "82001-4562"
      },
      {
        "line": [
          "2810 Crossroads Dr",
          "Suite 4000"
        ],
        "city": "MADISON",
        "state": "WI",
        "postalCode": "53718-8014"
      },
      {
        "line": [
          "708 MAIN ST FL 10"
        ],
        "city": "HOUSTON",
        "state": "TX",
        "postalCode": "77002-3246"
      },
      {
        "line": [
          "50 Fountain Plaza",
          "Suite 1400"
        ],
        "city": "BUFFALO",
        "state": "NY",
        "postalCode": "14202-2215"
      },
      {
        "line": [
          "7500 College Blvd",
          "5th Floor"
        ],
        "city": "OVERLAND PARK",
        "state": "KS",
        "postalCode": "66210-4043"
      },
      {
        "line": [
          "5410 MARYLAND WAY"
        ],
        "city": "BRENTWOOD",
        "state": "TN",
        "postalCode": "37027-5064"
      },
      {
        "line": [
          "1200 G St NW",
          "Suite 800"
        ],
        "city": "WASHINGTON",
        "state": "DC",
        "postalCode": "20005-6705"
      },
      {
        "line": [
          "222 S Main St",
          "5th Fl"
        ],
        "city": "SALT LAKE CITY",
        "state": "UT",
        "postalCode": "84101-2185"
      },
      {
        "line": [
          "200 Continental Dr",
          "Suite 401"
        ],
        "city": "NEWARK",
        "state": "DE",
        "postalCode": "19713-4337"
      },
      {
        "line": [
          "333 City Blvd W",
          "Suite 362"
        ],
        "city": "ORANGE",
        "state": "CA",
        "postalCode": "92868-2972"
      },
      {
        "line": [
          "615 St George Sq Ct",
          "Suite 300"
        ],
        "city": "WINSTON SALEM",
        "state": "NC",
        "postalCode": "27103-1368"
      },
      {
        "line": [
          "140 E Ridgewood Ave",
          "Suite 415"
        ],
        "city": "PARAMUS",
        "state": "NJ",
        "postalCode": "07652-3915"
      },
      {
        "line": [
          "500 Marquette Ave NW",
          "Suite 1200"
        ],
        "city": "ALBUQUERQUE",
        "state": "NM",
        "postalCode": "87102-5312"
      },
      {
        "line": [
          "8354 Northfield Blvd",
          "Suite 3700"
        ],
        "city": "DENVER",
        "state": "CO",
        "postalCode": "80238-3135"
      }
    ],
    "extension": [
      {
        "url": "https://fhir.athena.io/StructureDefinition/ah-practice",
        "valueReference": {
          "reference": "Organization/a-1.Practice-22854"
        }
      },
      {
        "url": "https://fhir.athena.io/StructureDefinition/ah-brand",
        "valueReference": {
          "reference": "Organization/a-22854.Brand-1"
        }
      }
    ]
  },
  "fullUrl": "urn:uuid:0386d89e-ef78-5f6d-906a-daa9389a0cc3"
}