{
  "resource": {
    "resourceType": "Organization",
    "id": "ff74cead-48d3-509f-b644-42ccf2be91c1",
    "name": "Medical Associates of Navarro County",
    "endpoint": [
      {
        "reference": "Endpoint/27a4e967-47aa-5a9c-a572-b8297ee268a2"
      },
      {
        "reference": "Endpoint/a196c308-faf6-5234-bb66-d7ac1fda0eaf"
      }
    ],
    "identifier": [
      {
        "system": "http://hl7.org/fhir/sid/us-npi",
        "value": "1962602300"
      },
      {
        "system": "http://hl7.org/fhir/sid/us-npi",
        "value": "1669801585"
      },
      {
        "system": "http://hl7.org/fhir/sid/us-npi",
        "value": "1215348487"
      },
      {
        "system": "http://hl7.org/fhir/sid/us-npi",
        "value": "1124080320"
      },
      {
        "system": "http://hl7.org/fhir/sid/us-npi",
        "value": "1750302923"
      },
      {
        "system": "http://hl7.org/fhir/sid/us-npi",
        "value": "1730484031"
      },
      {
        "system": "http://hl7.org/fhir/sid/us-npi",
        "value": "1053373951"
      },
      {
        "system": "http://hl7.org/fhir/sid/us-npi",
        "value": "1649232984"
      },
      {
        "system": "http://hl7.org/fhir/sid/us-npi",
        "value": "1215999511"
      },
      {
        "system": "http://hl7.org/fhir/sid/us-npi",
        "value": "1881656247"
      }
    ],
    "address": [
      {
        "line": [
          "3002 W 2ND AVE"
        ],
        "city": "CORSICANA",
        "state": "TX",
        "postalCode": "75110-2492"
      },
      {
        "line": [
          "1400 MEDICAL CENTER DR"
        ],
        "city": "ENNIS",
        "state": "TX",
        "postalCode": "75119-1587"
      },
      {
        "line": [
          "3210 W STATE HIGHWAY 22"
        ],
        "city": "CORSICANA",
        "state": "TX",
        "postalCode": "75110-2449"
      },
      {
        "line": [
          "301 HOSPITAL DR STE 170"
        ],
        "city": "CORSICANA",
        "state": "TX",
        "postalCode": "75110-2471"
      },
      {
        "line": [
          "3301 W PARK ROW BLVD"
        ],
        "city": "CORSICANA",
        "state": "TX",
        "postalCode": "75110-4846"
      },
      {
        "line": [
          "201 NORTH HOUSTON AVENUE"
        ],
        "city": "STREETMAN",
        "state": "TX",
        "postalCode": "75859-9999"
      },
      {
        "line": [
          "400 Hospital Dr Ste 208"
        ],
        "city": "CORSICANA",
        "state": "TX",
        "postalCode": "75110-2489"
      },
      {
        "line": [
          "3201 Corsicana Crossing Blvd Ste 101"
        ],
        "city": "CORSICANA",
        "state": "TX",
        "postalCode": "75109-1230"
      },
      {
        "line": [
          "900 GEORGE HOPPER RD"
        ],
        "city": "MIDLOTHIAN",
        "state": "TX",
        "postalCode": "76065-5509"
      },
      {
        "line": [
          "4000 MERIDIAN"
        ],
        "city": "FRANKLIN",
        "state": "TN",
        "postalCode": "37067-6325"
      },
      {
        "line": [
          "2500 YORLSTOWN DR"
        ],
        "city": "ENNIS",
        "state": "TX",
        "postalCode": "75119-2199"
      },
      {
        "line": [
          "205 PARK ST"
        ],
        "city": "TRINIDAD",
        "state": "TX",
        "postalCode": "75163-6116"
      },
      {
        "line": [
          "3201 CORSICANA CROSSINGS BLVD",
          "ste 101"
        ],
        "city": "CORSICANA",
        "state": "TX",
        "postalCode": "75110-9302"
      },
      {
        "line": [
          "800 E DAWSON ST"
        ],
        "city": "TYLER",
        "state": "TX",
        "postalCode": "75701-2036"
      },
      {
        "line": [
          "3201 W STATE HIGHWAY 22"
        ],
        "city": "CORSICANA",
        "state": "TX",
        "postalCode": "75110-2450"
      },
      {
        "line": [
          "3001 W 4TH AVE"
        ],
        "city": "CORSICANA",
        "state": "TX",
        "postalCode": "75110-3913"
      }
    ],
    "extension": [
      {
        "url": "https://fhir.athena.io/StructureDefinition/ah-practice",
        "valueReference": {
          "reference": "Organization/a-1.Practice-1902"
        }
      },
      {
        "url": "https://fhir.athena.io/StructureDefinition/ah-brand",
        "valueReference": {
          "reference": "Organization/a-1902.Brand-3"
        }
      }
    ]
  },
  "fullUrl": "urn:uuid:ff74cead-48d3-509f-b644-42ccf2be91c1"
}