{
  "resource": {
    "resourceType": "Organization",
    "id": "62798493-521e-5bfc-afdc-c22fd1eab23b",
    "name": "Aaron Margulies MD",
    "endpoint": [
      {
        "reference": "Endpoint/27a4e967-47aa-5a9c-a572-b8297ee268a2"
      },
      {
        "reference": "Endpoint/b7bd7691-56e6-5f51-9028-9caef3a78a9a"
      }
    ],
    "identifier": [
      {
        "system": "http://hl7.org/fhir/sid/us-npi",
        "value": "1346633724"
      }
    ],
    "address": [
      {
        "line": [
          "Aaron Margulies, MD, PLLC",
          "120 Hospital Drive,Suite G50"
        ],
        "city": "JEFFERSON CITY",
        "state": "TN",
        "postalCode": "37760-5287"
      },
      {
        "line": [
          "2001 Laurel Ave suite NG-6",
          "Newland Professional Bldg."
        ],
        "city": "KNOXVILLE",
        "state": "TN",
        "postalCode": "37916-1810"
      },
      {
        "line": [
          "110 Hospital Drive"
        ],
        "city": "JEFFERSON CITY",
        "state": "TN",
        "postalCode": "37760-5282"
      },
      {
        "line": [
          "1901 Clinch Avenue"
        ],
        "city": "KNOXVILLE",
        "state": "TN",
        "postalCode": "37916-2307"
      },
      {
        "line": [
          "435 second street"
        ],
        "city": "NEWPORT",
        "state": "TN",
        "postalCode": "37821-3703"
      },
      {
        "line": [
          "435 Second Street"
        ],
        "city": "NEWPORT",
        "state": "TN",
        "postalCode": "37821-3703"
      },
      {
        "line": [
          "Aaron Margulies, MD, PLLC",
          "434 Fourth Street, Suite 301"
        ],
        "city": "NEWPORT",
        "state": "TN",
        "postalCode": "37821-3735"
      },
      {
        "line": [
          "Aaron Margulies,MD, PLLC",
          "7714 Connor Road,Suite 107"
        ],
        "city": "POWELL",
        "state": "TN",
        "postalCode": "37849-3559"
      },
      {
        "line": [
          "10810 Parkside Drive, Suite G11"
        ],
        "city": "KNOXVILLE",
        "state": "TN",
        "postalCode": "37934-1981"
      }
    ],
    "extension": [
      {
        "url": "https://fhir.athena.io/StructureDefinition/ah-practice",
        "valueReference": {
          "reference": "Organization/a-1.Practice-11337"
        }
      },
      {
        "url": "https://fhir.athena.io/StructureDefinition/ah-brand",
        "valueReference": {
          "reference": "Organization/a-11337.Brand-1"
        }
      }
    ]
  },
  "fullUrl": "urn:uuid:62798493-521e-5bfc-afdc-c22fd1eab23b"
}