{
  "resource": {
    "resourceType": "Organization",
    "id": "bde74788-b0fb-57ba-9e20-7a31babfe2a7",
    "name": "Dr. Christopher Gelvin",
    "endpoint": [
      {
        "reference": "Endpoint/27a4e967-47aa-5a9c-a572-b8297ee268a2"
      },
      {
        "reference": "Endpoint/f42574e2-f3a9-5e59-b546-2aa9c4a64733"
      }
    ],
    "identifier": [
      {
        "system": "http://hl7.org/fhir/sid/us-npi",
        "value": "1437378239"
      }
    ],
    "address": [
      {
        "line": [
          "3280 LAKE POINTE BLVD"
        ],
        "city": "SARASOTA",
        "state": "FL",
        "postalCode": "34231-6896"
      },
      {
        "line": [
          "1700 TAMIAMI TRAIL"
        ],
        "city": "SARASOTA",
        "state": "FL",
        "postalCode": "34239-3509"
      },
      {
        "line": [
          "1217 S EAST AVE"
        ],
        "city": "SARASOTA",
        "state": "FL",
        "postalCode": "34239-2344"
      },
      {
        "line": [
          "1217 S EAST AVE. SUITE 301"
        ],
        "city": "SARASOTA",
        "state": "FL",
        "postalCode": "34239-2352"
      },
      {
        "line": [
          "34239-2348"
        ],
        "city": "SARASOTA",
        "state": "FL",
        "postalCode": "34239-2348"
      },
      {
        "line": [
          "8104 TUTTLE AVE"
        ],
        "city": "SARASOTA",
        "state": "FL",
        "postalCode": "34243-2885"
      },
      {
        "line": [
          "1217 S East AVE STE 301"
        ],
        "city": "SARASOTA",
        "state": "FL",
        "postalCode": "34239-2348"
      },
      {
        "line": [
          "5381 DESOTO RD"
        ],
        "city": "SARASOTA",
        "state": "FL",
        "postalCode": "34235-2618"
      }
    ],
    "extension": [
      {
        "url": "https://fhir.athena.io/StructureDefinition/ah-practice",
        "valueReference": {
          "reference": "Organization/a-1.Practice-23219"
        }
      },
      {
        "url": "https://fhir.athena.io/StructureDefinition/ah-brand",
        "valueReference": {
          "reference": "Organization/a-23219.Brand-1"
        }
      }
    ]
  },
  "fullUrl": "urn:uuid:bde74788-b0fb-57ba-9e20-7a31babfe2a7"
}