{
  "resource": {
    "resourceType": "Organization",
    "id": "a73a66e8-bdef-576e-96b7-e8a29180f419",
    "name": "Imminent Health PLLC",
    "endpoint": [
      {
        "reference": "Endpoint/27a4e967-47aa-5a9c-a572-b8297ee268a2"
      },
      {
        "reference": "Endpoint/e77731e9-a8a9-568b-af11-44ceb8c3ac25"
      }
    ],
    "identifier": [
      {
        "system": "http://hl7.org/fhir/sid/us-npi",
        "value": "1154912673"
      }
    ],
    "address": [
      {
        "line": [
          "2001 W 5TH ST"
        ],
        "city": "GRANDVIEW",
        "state": "WA",
        "postalCode": "98930-9362"
      },
      {
        "line": [
          "770 GAGE BLVD"
        ],
        "city": "RICHLAND",
        "state": "WA",
        "postalCode": "99352-9702"
      },
      {
        "line": [
          "245 VAN GIESEN ST"
        ],
        "city": "RICHLAND",
        "state": "WA",
        "postalCode": "99354-2368"
      },
      {
        "line": [
          "4000 W 24TH AVE"
        ],
        "city": "KENNEWICK",
        "state": "WA",
        "postalCode": "99338-2071"
      },
      {
        "line": [
          "1629 GEORGE WASHIGNTON WAY"
        ],
        "city": "RICHLAND",
        "state": "WA",
        "postalCode": "99354-2368"
      },
      {
        "line": [
          "7255 WEST GRANDRIDGE BLVD"
        ],
        "city": "KENNEWICK",
        "state": "WA",
        "postalCode": "99336-7761"
      },
      {
        "line": [
          "221 TORBETT ST"
        ],
        "city": "RICHLAND",
        "state": "WA",
        "postalCode": "99354-2368"
      },
      {
        "line": [
          "2000 N 22ND AVE"
        ],
        "city": "PASCO",
        "state": "WA",
        "postalCode": "99301-3370"
      },
      {
        "line": [
          "520 N FISHER ST"
        ],
        "city": "KENNEWICK",
        "state": "WA",
        "postalCode": "99336-7761"
      },
      {
        "line": [
          "1208 WEST 11TH PLACE"
        ],
        "city": "KENNEWICK",
        "state": "WA",
        "postalCode": "99337-7761"
      },
      {
        "line": [
          "575 N. YOUNG ST"
        ],
        "city": "KENNEWICK",
        "state": "WA",
        "postalCode": "99336-7761"
      },
      {
        "line": [
          "3502 W 4TH AVE"
        ],
        "city": "KENNEWICK",
        "state": "WA",
        "postalCode": "99336-4537"
      },
      {
        "line": [
          "2800 W VIOLA AVE"
        ],
        "city": "YAKIMA",
        "state": "WA",
        "postalCode": "98902-4947"
      },
      {
        "line": [
          "1031 N KELLOGG ST"
        ],
        "city": "KENNEWICK",
        "state": "WA",
        "postalCode": "99336-7661"
      },
      {
        "line": [
          "5921 ROAD 60 DR"
        ],
        "city": "PASCO",
        "state": "WA",
        "postalCode": "99301-7040"
      },
      {
        "line": [
          "631 RIVERSTONE DR"
        ],
        "city": "RICHLAND",
        "state": "WA",
        "postalCode": "99352-4110"
      },
      {
        "line": [
          "1939 HOXIE AVE"
        ],
        "city": "RICHLAND",
        "state": "WA",
        "postalCode": "99354-2368"
      },
      {
        "line": [
          "2802 W 35TH AVE"
        ],
        "city": "KENNEWICK",
        "state": "WA",
        "postalCode": "99337-2580"
      }
    ],
    "extension": [
      {
        "url": "https://fhir.athena.io/StructureDefinition/ah-practice",
        "valueReference": {
          "reference": "Organization/a-1.Practice-25495"
        }
      },
      {
        "url": "https://fhir.athena.io/StructureDefinition/ah-brand",
        "valueReference": {
          "reference": "Organization/a-25495.Brand-1"
        }
      }
    ]
  },
  "fullUrl": "urn:uuid:a73a66e8-bdef-576e-96b7-e8a29180f419"
}