{
  "resource": {
    "resourceType": "Organization",
    "id": "df4b597b-db68-52f8-996e-96ba8a04f3be",
    "name": "UH Physician Services",
    "endpoint": [
      {
        "reference": "Endpoint/27a4e967-47aa-5a9c-a572-b8297ee268a2"
      },
      {
        "reference": "Endpoint/3a6581a4-8ee6-54ef-b51a-46d679d7f6c3"
      }
    ],
    "identifier": [
      {
        "system": "http://hl7.org/fhir/sid/us-npi",
        "value": "1669499414"
      }
    ],
    "address": [
      {
        "line": [
          "11100 Euclid Ave",
          "Interface Issues"
        ],
        "city": "CLEVELAND",
        "state": "OH",
        "postalCode": "44106-1716"
      },
      {
        "line": [
          "28105 Clemens Rd",
          "Bldg 3"
        ],
        "city": "Westlake",
        "state": "OH",
        "postalCode": "44145-1100"
      },
      {
        "line": [
          "2181 Ambleside Dr"
        ],
        "city": "CLEVELAND",
        "state": "OH",
        "postalCode": "44106-4645"
      },
      {
        "line": [
          "27100 Cedar Rd"
        ],
        "city": "Beachwood",
        "state": "OH",
        "postalCode": "44122-1109"
      },
      {
        "line": [
          "11100 Euclid Ave",
          "Mather Ste 1800"
        ],
        "city": "Cleveland",
        "state": "OH",
        "postalCode": "44106-1716"
      },
      {
        "line": [
          "3909 Orange Place",
          "Ste 4600 SCC"
        ],
        "city": "BEACHWOOD",
        "state": "OH",
        "postalCode": "44122-4478"
      },
      {
        "line": [
          "11100 Euclid Ave",
          "Hanna House"
        ],
        "city": "Cleveland",
        "state": "OH",
        "postalCode": "44106-1716"
      },
      {
        "line": [
          "8819 Commons Blvd",
          "Ste 200"
        ],
        "city": "TWINSBURG",
        "state": "OH",
        "postalCode": "44087-2177"
      },
      {
        "line": [
          "6270 N Ridge Road"
        ],
        "city": "MADISON",
        "state": "OH",
        "postalCode": "44057-2567"
      },
      {
        "line": [
          "1025 Center St"
        ],
        "city": "Ashland",
        "state": "OH",
        "postalCode": "44805-4011"
      },
      {
        "line": [
          "6115 Powers Blvd",
          "MAC4 Ste 101"
        ],
        "city": "Cleveland",
        "state": "OH",
        "postalCode": "44129-5469"
      },
      {
        "line": [
          "5805 Euclid Ave",
          "2nd Floor"
        ],
        "city": "Cleveland",
        "state": "OH",
        "postalCode": "44103-3715"
      },
      {
        "line": [
          "11100 Euclid Ave",
          "RBC 1200 Deforia Lane"
        ],
        "city": "Cleveland",
        "state": "OH",
        "postalCode": "44106-1716"
      },
      {
        "line": [],
        "city": "RAVENNA",
        "state": "OH",
        "postalCode": "44266-3929"
      },
      {
        "line": [
          "11100 Euclid Ave",
          "Seidman Cancer Ctr"
        ],
        "city": "Cleveland",
        "state": "OH",
        "postalCode": "44106-1716"
      },
      {
        "line": [
          "1000 AUBURN DR"
        ],
        "city": "BEACHWOOD",
        "state": "OH",
        "postalCode": "44122-4317"
      },
      {
        "line": [
          "630 E River St"
        ],
        "city": "Elyria",
        "state": "OH",
        "postalCode": "44035-5902"
      },
      {
        "line": [
          "24701 EUCLID AVE"
        ],
        "city": "EUCLID",
        "state": "OH",
        "postalCode": "44117-1714"
      },
      {
        "line": [
          "11100 Euclid Ave",
          "RB&C Fowler 8th Fl"
        ],
        "city": "Cleveland",
        "state": "OH",
        "postalCode": "44106-1716"
      },
      {
        "line": [
          "960 Clague Rd",
          "Ste 2480"
        ],
        "city": "WESTLAKE",
        "state": "OH",
        "postalCode": "44145-1582"
      },
      {
        "line": [
          "3151 Mayfield Rd"
        ],
        "city": "Cleveland",
        "state": "OH",
        "postalCode": "44118-1757"
      },
      {
        "line": [
          "3999 Richmond Rd"
        ],
        "city": "Beachwood",
        "state": "OH",
        "postalCode": "44122-6046"
      },
      {
        "line": [
          "3151 Mayfield Rd"
        ],
        "city": "CLEVELAND",
        "state": "OH",
        "postalCode": "44118-1757"
      },
      {
        "line": [
          "3909 Orange Place",
          "Ste 3100"
        ],
        "city": "Beachwood",
        "state": "OH",
        "postalCode": "44122-4478"
      },
      {
        "line": [
          "76 Lou Groza Blvd"
        ],
        "city": "BEREA",
        "state": "OH",
        "postalCode": "44017-1238"
      },
      {
        "line": [
          "11100 Euclid Ave"
        ],
        "city": "Cleveland",
        "state": "OH",
        "postalCode": "44106-1716"
      },
      {
        "line": [
          "26520 Center Ridge Rd"
        ],
        "city": "WESTLAKE",
        "state": "OH",
        "postalCode": "44145-4033"
      },
      {
        "line": [
          "960 Clague Rd",
          "Ste 3110"
        ],
        "city": "Westlake",
        "state": "OH",
        "postalCode": "44145-1582"
      },
      {
        "line": [
          "3909 Orange Place",
          "Suite 4300"
        ],
        "city": "BEACHWOOD",
        "state": "OH",
        "postalCode": "44122-4478"
      },
      {
        "line": [
          "870 W Main St"
        ],
        "city": "GENEVA",
        "state": "OH",
        "postalCode": "44041-1219"
      },
      {
        "line": [
          "18697 Bagley Rd"
        ],
        "city": "Middleburg Hts",
        "state": "OH",
        "postalCode": "44130-3417"
      },
      {
        "line": [],
        "city": "Cleveland",
        "state": "OH",
        "postalCode": "44129-5437"
      },
      {
        "line": [],
        "city": "Cleveland",
        "state": "OH",
        "postalCode": "44106-1716"
      },
      {
        "line": [
          "960 Clague Rd",
          "Ste 1100"
        ],
        "city": "WESTLAKE",
        "state": "OH",
        "postalCode": "44145-1582"
      }
    ],
    "extension": [
      {
        "url": "https://fhir.athena.io/StructureDefinition/ah-practice",
        "valueReference": {
          "reference": "Organization/a-1.Practice-1926"
        }
      },
      {
        "url": "https://fhir.athena.io/StructureDefinition/ah-brand",
        "valueReference": {
          "reference": "Organization/a-1926.Brand-1"
        }
      }
    ]
  },
  "fullUrl": "urn:uuid:df4b597b-db68-52f8-996e-96ba8a04f3be"
}