{
  "resource": {
    "resourceType": "Organization",
    "id": "ac0acad3-aa74-522b-8915-9d67bbd24c2f",
    "name": "DLP MARQUETTE PHYSICIAN PRACTICES INC",
    "endpoint": [
      {
        "reference": "Endpoint/27a4e967-47aa-5a9c-a572-b8297ee268a2"
      },
      {
        "reference": "Endpoint/c12c431c-a2c8-5f54-b6fe-e8fc0ca48d3c"
      }
    ],
    "identifier": [
      {
        "system": "http://hl7.org/fhir/sid/us-npi",
        "value": "1265780621"
      },
      {
        "system": "http://hl7.org/fhir/sid/us-npi",
        "value": "1730437245"
      },
      {
        "system": "http://hl7.org/fhir/sid/us-npi",
        "value": "1487902995"
      },
      {
        "system": "http://hl7.org/fhir/sid/us-npi",
        "value": "1073861431"
      },
      {
        "system": "http://hl7.org/fhir/sid/us-npi",
        "value": "1215287362"
      }
    ],
    "address": [
      {
        "line": [
          "850 W BARAGA AVE"
        ],
        "city": "MARQUETTE",
        "state": "MI",
        "postalCode": "49855-4550"
      },
      {
        "line": [
          "500 OSBORN BLVD"
        ],
        "city": "SAULT SAINTE MARIE",
        "state": "MI",
        "postalCode": "49783-1822"
      },
      {
        "line": [
          "901 LAKESHORE DR"
        ],
        "city": "ISHPEMING",
        "state": "MI",
        "postalCode": "49849-1367"
      },
      {
        "line": [
          "330 LINCOLN AVE"
        ],
        "city": "IRON RIVER",
        "state": "MI",
        "postalCode": "49935-8452"
      },
      {
        "line": [
          "501 S LINCOLN ROAD"
        ],
        "city": "ESCANABA",
        "state": "MI",
        "postalCode": "49829-1276"
      },
      {
        "line": [
          "1721 S STEPHENSON AVE"
        ],
        "city": "IRON MOUNTAIN",
        "state": "MI",
        "postalCode": "49801-3637"
      },
      {
        "line": [
          "2405 LUDINGTON ST"
        ],
        "city": "ESCANABA",
        "state": "MI",
        "postalCode": "49829-1328"
      },
      {
        "line": [
          "200 SAGINAW STREET"
        ],
        "city": "ISHPEMING",
        "state": "MI",
        "postalCode": "49849-9999"
      },
      {
        "line": [
          "425 FISHER STREET"
        ],
        "city": "MARQUETTE",
        "state": "MI",
        "postalCode": "49855-4521"
      },
      {
        "line": [
          "1600 Mill Creek"
        ],
        "city": "MARQUETTE",
        "state": "MI",
        "postalCode": "49855-2675"
      },
      {
        "line": [
          "2415 FIFTH AVENUE SOUTH"
        ],
        "city": "ESCANABA",
        "state": "MI",
        "postalCode": "49829-1201"
      },
      {
        "line": [
          "1414 W FAIR AVE",
          "STE 36"
        ],
        "city": "MARQUETTE",
        "state": "MI",
        "postalCode": "49855-2675"
      },
      {
        "line": [
          "850 W Baraga Ave"
        ],
        "city": "MARQUETTE",
        "state": "MI",
        "postalCode": "49855-2675"
      },
      {
        "line": [
          "502 W HARRIE ST"
        ],
        "city": "NEWBERRY",
        "state": "MI",
        "postalCode": "49868-1209"
      },
      {
        "line": [
          "900 EAST MAAS"
        ],
        "city": "NEGAUNEE",
        "state": "MI",
        "postalCode": "49866-9999"
      },
      {
        "line": [
          "601 EAST G ST"
        ],
        "city": "IRON MOUNTAIN",
        "state": "MI",
        "postalCode": "49801-4061"
      },
      {
        "line": [
          "701 S LINCOLN RD",
          "STE 100"
        ],
        "city": "ESCANABA",
        "state": "MI",
        "postalCode": "49829-1292"
      },
      {
        "line": [
          "501 2ND STREET"
        ],
        "city": "MENOMINEE",
        "state": "MI",
        "postalCode": "49858-3203"
      },
      {
        "line": [
          "901 Lakeshore Drive"
        ],
        "city": "ISHPEMING",
        "state": "MI",
        "postalCode": "49849-1367"
      },
      {
        "line": [
          "3401 LUDINGTON STREET"
        ],
        "city": "ESCANABA",
        "state": "MI",
        "postalCode": "49829-1300"
      },
      {
        "line": [
          "40 US 41 EAST"
        ],
        "city": "NEGAUNEE",
        "state": "MI",
        "postalCode": "49866-1327"
      },
      {
        "line": [
          "580 W COLLEGE AVE"
        ],
        "city": "MARQUETTE",
        "state": "MI",
        "postalCode": "49855-2736"
      },
      {
        "line": [
          "2525 7TH AVENUE SOUTH"
        ],
        "city": "ESCANABA",
        "state": "MI",
        "postalCode": "49829-1201"
      },
      {
        "line": [
          "710 S LINCOLN RD",
          "STE 100"
        ],
        "city": "ESCANABA",
        "state": "MI",
        "postalCode": "49829-1293"
      },
      {
        "line": [
          "500 CAMPUS DR"
        ],
        "city": "HANCOCK",
        "state": "MI",
        "postalCode": "49930-1452"
      },
      {
        "line": [
          "850 W BARAGA AVE",
          "SUITE 10"
        ],
        "city": "MARQUETTE",
        "state": "MI",
        "postalCode": "49855-4550"
      },
      {
        "line": [
          "1523 US 2"
        ],
        "city": "CRYSTAL FALLS",
        "state": "MI",
        "postalCode": "49920-9633"
      },
      {
        "line": [
          "901 Lakeshore Dr"
        ],
        "city": "ISHPEMING",
        "state": "MI",
        "postalCode": "49849-1367"
      },
      {
        "line": [
          "1225 WOODWARD AVE"
        ],
        "city": "IRON MOUNTAIN",
        "state": "MI",
        "postalCode": "49801-4312"
      },
      {
        "line": [
          "1100 N LAKE SHORE DR"
        ],
        "city": "GLADSTONE",
        "state": "MI",
        "postalCode": "49837-1133"
      },
      {
        "line": [
          "1414 W FAIR AVE",
          "SUITE 344"
        ],
        "city": "MARQUETTE",
        "state": "MI",
        "postalCode": "49855-5407"
      },
      {
        "line": [
          "1328 US HIGHWAY 2"
        ],
        "city": "CRYSTAL FALLS",
        "state": "MI",
        "postalCode": "49920-1045"
      },
      {
        "line": [
          "1901 Division Street"
        ],
        "city": "MARQUETTE",
        "state": "MI",
        "postalCode": "49855-2675"
      },
      {
        "line": [
          "1009 HARBOR HILLS DRIVE"
        ],
        "city": "MARQUETTE",
        "state": "MI",
        "postalCode": "49855-2736"
      },
      {
        "line": [
          "1805 PYLE DR"
        ],
        "city": "KINGSFORD",
        "state": "MI",
        "postalCode": "49802-4254"
      }
    ],
    "extension": [
      {
        "url": "https://fhir.athena.io/StructureDefinition/ah-practice",
        "valueReference": {
          "reference": "Organization/a-1.Practice-8233"
        }
      },
      {
        "url": "https://fhir.athena.io/StructureDefinition/ah-brand",
        "valueReference": {
          "reference": "Organization/a-8233.Brand-3"
        }
      }
    ]
  },
  "fullUrl": "urn:uuid:ac0acad3-aa74-522b-8915-9d67bbd24c2f"
}