{
  "resource": {
    "resourceType": "Organization",
    "id": "bf16665d-4037-56c7-9f17-4a7a6cc980f8",
    "name": "Northern VA Nephrology Assoc-Dr Ikhinmwin",
    "endpoint": [
      {
        "reference": "Endpoint/27a4e967-47aa-5a9c-a572-b8297ee268a2"
      },
      {
        "reference": "Endpoint/5bf56284-d1ea-5c7e-9e63-b3cd45278d3a"
      }
    ],
    "identifier": [
      {
        "system": "http://hl7.org/fhir/sid/us-npi",
        "value": "1770632630"
      }
    ],
    "address": [
      {
        "line": [
          "2751 KILLARNEY DR"
        ],
        "city": "WOODBRIDGE",
        "state": "VA",
        "postalCode": "22192-4119"
      },
      {
        "line": [
          "1121 RESTON AVE"
        ],
        "city": "HERNDON",
        "state": "VA",
        "postalCode": "20170-2402"
      },
      {
        "line": [
          "3057 GOLANSKY BLVD"
        ],
        "city": "WOODBRIDGE",
        "state": "VA",
        "postalCode": "22192-4234"
      },
      {
        "line": [
          "2300 OPITZ BLVD"
        ],
        "city": "WOODBRIDGE",
        "state": "VA",
        "postalCode": "22191-3311"
      },
      {
        "line": [
          "8033 HOLLAND RD"
        ],
        "city": "ALEXANDRIA",
        "state": "VA",
        "postalCode": "22306-3133"
      },
      {
        "line": [
          "8315 TURNING LEAF LN"
        ],
        "city": "MC LEAN",
        "state": "VA",
        "postalCode": "22102-2615"
      },
      {
        "line": [
          "224D CORNWALL ST NW STE 100"
        ],
        "city": "LEESBURG",
        "state": "VA",
        "postalCode": "20176-2700"
      },
      {
        "line": [
          "3750 JOSEPH SIEWICK DR"
        ],
        "city": "FAIRFAX",
        "state": "VA",
        "postalCode": "22033-1742"
      },
      {
        "line": [
          "8501 ARLINGTON BLVD"
        ],
        "city": "FAIRFAX",
        "state": "VA",
        "postalCode": "22031-4617"
      },
      {
        "line": [
          "4151 OLD BRIDGE RD"
        ],
        "city": "WOODBRIDGE",
        "state": "VA",
        "postalCode": "22192-7669"
      },
      {
        "line": [
          "2133 MONTGOMERY AVE"
        ],
        "city": "WOODBRIDGE",
        "state": "VA",
        "postalCode": "22191-2655"
      },
      {
        "line": [
          "4439 N PERSHING DR"
        ],
        "city": "ARLINGTON",
        "state": "VA",
        "postalCode": "22203-2780"
      },
      {
        "line": [
          "7060 COLUMBIA PIKE"
        ],
        "city": "ANNANDALE",
        "state": "VA",
        "postalCode": "22003-3104"
      },
      {
        "line": [
          "2980 CENTREVILLE RD"
        ],
        "city": "HERNDON",
        "state": "VA",
        "postalCode": "20171-6254"
      },
      {
        "line": [
          "24640 SOUTHPOINT DR STE 160"
        ],
        "city": "CHANTILLY",
        "state": "VA",
        "postalCode": "20152-4141"
      },
      {
        "line": [
          "14225 SULLYFIELD CIR STE A"
        ],
        "city": "CHANTILLY",
        "state": "VA",
        "postalCode": "20151-1688"
      },
      {
        "line": [
          "3600 JOSEPH SIEWICK DR"
        ],
        "city": "FAIRFAX",
        "state": "VA",
        "postalCode": "22033-1709"
      },
      {
        "line": [
          "8316 ARLINGTON BLVD STE 104"
        ],
        "city": "FAIRFAX",
        "state": "VA",
        "postalCode": "22031-5216"
      },
      {
        "line": [
          "4027 OLLEY LN"
        ],
        "city": "FAIRFAX",
        "state": "VA",
        "postalCode": "22032-1323"
      },
      {
        "line": [
          "1850 TOWN CENTER PKWY"
        ],
        "city": "RESTON",
        "state": "VA",
        "postalCode": "20190-3219"
      },
      {
        "line": [
          "330 N WASHINGTON ST"
        ],
        "city": "FALLS CHURCH",
        "state": "VA",
        "postalCode": "22046-3431"
      },
      {
        "line": [
          "530 HUNTMAR PARK DR"
        ],
        "city": "HERNDON",
        "state": "VA",
        "postalCode": "20170-5100"
      },
      {
        "line": [
          "5910 WILSON BLVD"
        ],
        "city": "ARLINGTON",
        "state": "VA",
        "postalCode": "22205-1554"
      },
      {
        "line": [
          "45800 JONA DR"
        ],
        "city": "STERLING",
        "state": "VA",
        "postalCode": "20165-5685"
      },
      {
        "line": [
          "4710 N CHAMBLISS ST"
        ],
        "city": "ALEXANDRIA",
        "state": "VA",
        "postalCode": "22312-1703"
      },
      {
        "line": [
          "9490 SPRAGUE AVE"
        ],
        "city": "FAIRFAX",
        "state": "VA",
        "postalCode": "22031-1172"
      },
      {
        "line": [
          "8391 OLD COURTHOUSE RD"
        ],
        "city": "VIENNA",
        "state": "VA",
        "postalCode": "22182-3819"
      },
      {
        "line": [
          "2000 N GLEBE RD"
        ],
        "city": "ARLINGTON",
        "state": "VA",
        "postalCode": "22207-2223"
      }
    ],
    "extension": [
      {
        "url": "https://fhir.athena.io/StructureDefinition/ah-practice",
        "valueReference": {
          "reference": "Organization/a-1.Practice-30089"
        }
      },
      {
        "url": "https://fhir.athena.io/StructureDefinition/ah-brand",
        "valueReference": {
          "reference": "Organization/a-30089.Brand-1"
        }
      }
    ]
  },
  "fullUrl": "urn:uuid:bf16665d-4037-56c7-9f17-4a7a6cc980f8"
}