{
  "resource": {
    "resourceType": "Organization",
    "id": "a60c5d47-6129-5228-8945-971f641c7249",
    "name": "Bluetail - Chesterfield",
    "endpoint": [
      {
        "reference": "Endpoint/27a4e967-47aa-5a9c-a572-b8297ee268a2"
      },
      {
        "reference": "Endpoint/99e33acb-0f10-540f-ac19-15f8c0177e4e"
      }
    ],
    "identifier": [
      {
        "system": "http://hl7.org/fhir/sid/us-npi",
        "value": "1285986398"
      }
    ],
    "address": [
      {
        "line": [
          "101 HODENCAMP RD"
        ],
        "city": "THOUSAND OAKS",
        "state": "CA",
        "postalCode": "91360-5836"
      },
      {
        "line": [
          "1970 S. Ridge Rd."
        ],
        "city": "GREEN BAY",
        "state": "WI",
        "postalCode": "54304-4125"
      },
      {
        "line": [
          "17300 N. Outer Forty Dr.",
          "Suite 201"
        ],
        "city": "CHESTERFIELD",
        "state": "MO",
        "postalCode": "63005-1364"
      },
      {
        "line": [
          "1575 Lookout Dr."
        ],
        "city": "MANKATO",
        "state": "MN",
        "postalCode": "56003-2503"
      },
      {
        "line": [
          "1879 veterans park drive #101"
        ],
        "city": "NAPLES",
        "state": "FL",
        "postalCode": "34109-0500"
      },
      {
        "line": [
          "2807 W. Broadway Suite 107"
        ],
        "city": "COLUMBIA",
        "state": "MO",
        "postalCode": "65203-1312"
      },
      {
        "line": [
          "160 Westmount Dr."
        ],
        "city": "FARMINGTON",
        "state": "MO",
        "postalCode": "63640-7331"
      },
      {
        "line": [
          "516 E STATE ROAD 32"
        ],
        "city": "WESTFIELD",
        "state": "IN",
        "postalCode": "46074-8767"
      },
      {
        "line": [
          "1875 VETERANS PARK DR STE 2201"
        ],
        "city": "NAPLES",
        "state": "FL",
        "postalCode": "34109-0596"
      },
      {
        "line": [
          "36 OLD KINGS HWY S STE 105"
        ],
        "city": "DARIEN",
        "state": "CT",
        "postalCode": "06820-4523"
      },
      {
        "line": [
          "593 Horsebarn",
          "Suite 202"
        ],
        "city": "ROGERS",
        "state": "AR",
        "postalCode": "72758-8797"
      },
      {
        "line": [
          "17300 N OUTER 40 RD # 201"
        ],
        "city": "CHESTERFIELD",
        "state": "MO",
        "postalCode": "63005-1364"
      }
    ],
    "extension": [
      {
        "url": "https://fhir.athena.io/StructureDefinition/ah-practice",
        "valueReference": {
          "reference": "Organization/a-1.Practice-5924"
        }
      },
      {
        "url": "https://fhir.athena.io/StructureDefinition/ah-brand",
        "valueReference": {
          "reference": "Organization/a-5924.Brand-1"
        }
      }
    ]
  },
  "fullUrl": "urn:uuid:a60c5d47-6129-5228-8945-971f641c7249"
}