{
  "resource": {
    "resourceType": "Organization",
    "id": "b27b3a17-8328-5111-80ab-bf7dd0c6b79d",
    "name": "CSRA Renal Services",
    "endpoint": [
      {
        "reference": "Endpoint/27a4e967-47aa-5a9c-a572-b8297ee268a2"
      },
      {
        "reference": "Endpoint/60a29539-ffee-5062-8efb-5a7bd712c86a"
      }
    ],
    "identifier": [
      {
        "system": "http://hl7.org/fhir/sid/us-npi",
        "value": "1295799641"
      }
    ],
    "address": [
      {
        "line": [
          "208 UNIVERSITY PKWY # 208"
        ],
        "city": "AIKEN",
        "state": "SC",
        "postalCode": "29801-6334"
      },
      {
        "line": [
          "10708 MARLBORO AVE"
        ],
        "city": "BARNWELL",
        "state": "SC",
        "postalCode": "29812-6376"
      },
      {
        "line": [
          "775 MEDICAL PARK DR"
        ],
        "city": "AIKEN",
        "state": "SC",
        "postalCode": "29801-6306"
      },
      {
        "line": [
          "169 CREPE MYRTLE DR"
        ],
        "city": "AIKEN",
        "state": "SC",
        "postalCode": "29803-7576"
      },
      {
        "line": [
          "755 MEDICAL PARK DR"
        ],
        "city": "AIKEN",
        "state": "SC",
        "postalCode": "29801-6306"
      },
      {
        "line": [
          "208 UNIVERSITY PKWY"
        ],
        "city": "AIKEN",
        "state": "SC",
        "postalCode": "29801-6334"
      },
      {
        "line": [
          "306 MAIN ST"
        ],
        "city": "EDGEFIELD",
        "state": "SC",
        "postalCode": "29824-1326"
      },
      {
        "line": [
          "302 UNIVERSITY PKWY"
        ],
        "city": "AIKEN",
        "state": "SC",
        "postalCode": "29801-6302"
      },
      {
        "line": [
          "755 Medical Park Dr"
        ],
        "city": "AIKEN",
        "state": "SC",
        "postalCode": "29801-6306"
      }
    ],
    "extension": [
      {
        "url": "https://fhir.athena.io/StructureDefinition/ah-practice",
        "valueReference": {
          "reference": "Organization/a-1.Practice-27530"
        }
      },
      {
        "url": "https://fhir.athena.io/StructureDefinition/ah-brand",
        "valueReference": {
          "reference": "Organization/a-27530.Brand-1"
        }
      }
    ]
  },
  "fullUrl": "urn:uuid:b27b3a17-8328-5111-80ab-bf7dd0c6b79d"
}