{
  "resource": {
    "resourceType": "Organization",
    "id": "4aa39e3b-ed66-5b6b-a8df-929354687c05",
    "name": "Complete Health",
    "endpoint": [
      {
        "reference": "Endpoint/27a4e967-47aa-5a9c-a572-b8297ee268a2"
      },
      {
        "reference": "Endpoint/9a2e0eb9-f434-50e4-a864-627bc99e43c1"
      }
    ],
    "identifier": [
      {
        "system": "http://hl7.org/fhir/sid/us-npi",
        "value": "1598796542"
      },
      {
        "system": "http://hl7.org/fhir/sid/us-npi",
        "value": "1215936901"
      },
      {
        "system": "http://hl7.org/fhir/sid/us-npi",
        "value": "1215981634"
      }
    ],
    "address": [
      {
        "line": [
          "408 CLARK ST NE"
        ],
        "city": "CULLMAN",
        "state": "AL",
        "postalCode": "35055-1953"
      },
      {
        "line": [
          "4000 GLENSIDE DR"
        ],
        "city": "HENRICO",
        "state": "VA",
        "postalCode": "23228-4102"
      },
      {
        "line": [
          "513 Brookwood Blvd Suite 260"
        ],
        "city": "BIRMINGHAM",
        "state": "AL",
        "postalCode": "35209-6899"
      },
      {
        "line": [
          "3056 Healthy Way"
        ],
        "city": "BIRMINGHAM",
        "state": "AL",
        "postalCode": "35243-2434"
      },
      {
        "line": [
          "2884 SANDY HOOK RD"
        ],
        "city": "SANDY HOOK",
        "state": "VA",
        "postalCode": "23153-2226"
      },
      {
        "line": [
          "3570 Grandview Parkway",
          "Suite 100"
        ],
        "city": "BIRMINGHAM",
        "state": "AL",
        "postalCode": "35243-2065"
      },
      {
        "line": [
          "701 PRINCETON AVE SW"
        ],
        "city": "BIRMINGHAM",
        "state": "AL",
        "postalCode": "35211-1303"
      },
      {
        "line": [
          "74 Plaza Drive"
        ],
        "city": "PELL CITY",
        "state": "AL",
        "postalCode": "35125-9314"
      },
      {
        "line": [
          "200 N Pine Hill Rd"
        ],
        "city": "BIRMINGHAM",
        "state": "AL",
        "postalCode": "35217-1215"
      },
      {
        "line": [
          "513 Brookwood Blvd",
          "Suite 200"
        ],
        "city": "BIRMINGHAM",
        "state": "AL",
        "postalCode": "35209-5807"
      },
      {
        "line": [
          "2834 Moody Parkway"
        ],
        "city": "MOODY",
        "state": "AL",
        "postalCode": "35004-3101"
      },
      {
        "line": [
          "339 Walker Chapel Plaza"
        ],
        "city": "FULTONDALE",
        "state": "AL",
        "postalCode": "35068-3402"
      },
      {
        "line": [
          "513 Brookwood Blvd Suite 260"
        ],
        "city": "BIRMINGHAM",
        "state": "AL",
        "postalCode": "35209-7844"
      },
      {
        "line": [
          "1021 Montgomery Highway"
        ],
        "city": "BIRMINGHAM",
        "state": "AL",
        "postalCode": "35216-2805"
      },
      {
        "line": [
          "46A BROAD STREET RD"
        ],
        "city": "MANAKIN SABOT",
        "state": "VA",
        "postalCode": "23103-2213"
      },
      {
        "line": [
          "501 CLARK ST NE"
        ],
        "city": "CULLMAN",
        "state": "AL",
        "postalCode": "35055-1921"
      },
      {
        "line": [
          "70 Plaza Drive"
        ],
        "city": "PELL CITY",
        "state": "AL",
        "postalCode": "35125-9314"
      },
      {
        "line": [
          "251 Sunset Pl"
        ],
        "city": "GUIN",
        "state": "AL",
        "postalCode": "35563-2239"
      },
      {
        "line": [
          "2112 ROCKY RIDGE RD",
          "STE 200"
        ],
        "city": "BIRMINGHAM",
        "state": "AL",
        "postalCode": "35216-5531"
      },
      {
        "line": [
          "7625 W 92ND AVE"
        ],
        "city": "BROOMFIELD",
        "state": "CO",
        "postalCode": "80021-4567"
      },
      {
        "line": [
          "401 AIRPORT COMMONS DR"
        ],
        "city": "CALERA",
        "state": "AL",
        "postalCode": "35040-7004"
      },
      {
        "line": [
          "1406 WALL ST"
        ],
        "city": "CULLMAN",
        "state": "AL",
        "postalCode": "35055-6011"
      },
      {
        "line": [
          "810 St Vincent Drive"
        ],
        "city": "BIRMINGHAM",
        "state": "AL",
        "postalCode": "35205-1601"
      },
      {
        "line": [
          "1280 Columbiana Road Suite 102"
        ],
        "city": "BIRMINGHAM",
        "state": "AL",
        "postalCode": "35216-4308"
      },
      {
        "line": [
          "2010 Brookwood Medical Center Drive"
        ],
        "city": "BIRMINGHAM",
        "state": "AL",
        "postalCode": "35209-6804"
      },
      {
        "line": [
          "2650 Decatur Hwy"
        ],
        "city": "GARDENDALE",
        "state": "AL",
        "postalCode": "35071-2116"
      },
      {
        "line": [
          "7191 Cahaba Valley Road",
          "Suite 300"
        ],
        "city": "BIRMINGHAM",
        "state": "AL",
        "postalCode": "35242-6482"
      },
      {
        "line": [
          "3056 Healthy Way",
          "Suite B-7"
        ],
        "city": "BIRMINGHAM",
        "state": "AL",
        "postalCode": "35243-2434"
      },
      {
        "line": [
          "3056 Healthy Way",
          "Suites B-7"
        ],
        "city": "BIRMINGHAM",
        "state": "AL",
        "postalCode": "35243-2434"
      },
      {
        "line": [
          "5718 US HIGHWAY 11"
        ],
        "city": "SPRINGVILLE",
        "state": "AL",
        "postalCode": "35146-3249"
      },
      {
        "line": [
          "339 Walker Chapel Plaza"
        ],
        "city": "FULTONDALE",
        "state": "AL",
        "postalCode": "35068-1962"
      }
    ],
    "extension": [
      {
        "url": "https://fhir.athena.io/StructureDefinition/ah-practice",
        "valueReference": {
          "reference": "Organization/a-1.Practice-15135"
        }
      },
      {
        "url": "https://fhir.athena.io/StructureDefinition/ah-brand",
        "valueReference": {
          "reference": "Organization/a-15135.Brand-2"
        }
      }
    ]
  },
  "fullUrl": "urn:uuid:4aa39e3b-ed66-5b6b-a8df-929354687c05"
}