{
  "resource": {
    "resourceType": "Organization",
    "id": "5a604030-0f77-571d-b6d3-e695edc14188",
    "name": "UH CMC",
    "endpoint": [
      {
        "reference": "Endpoint/27a4e967-47aa-5a9c-a572-b8297ee268a2"
      },
      {
        "reference": "Endpoint/3a6581a4-8ee6-54ef-b51a-46d679d7f6c3"
      }
    ],
    "identifier": [
      {
        "system": "http://hl7.org/fhir/sid/us-npi",
        "value": "1669499414"
      }
    ],
    "address": [
      {
        "line": [
          "11100 Euclid Ave"
        ],
        "city": "Cleveland",
        "state": "OH",
        "postalCode": "44106-1716"
      },
      {
        "line": [
          "11100 Euclid Ave"
        ],
        "city": "CLEVELAND",
        "state": "OH",
        "postalCode": "44106-1716"
      },
      {
        "line": [
          "11100 Euclid Ave",
          "Digestive Disease Ctr"
        ],
        "city": "CLEVELAND",
        "state": "OH",
        "postalCode": "44106-1716"
      },
      {
        "line": [
          "11100 EUCLID AVE"
        ],
        "city": "CLEVELAND",
        "state": "OH",
        "postalCode": "44106-1716"
      },
      {
        "line": [
          "11100 Euclid Ave",
          "Mather EKG Lab"
        ],
        "city": "CLEVELAND",
        "state": "OH",
        "postalCode": "44106-1716"
      },
      {
        "line": [
          "11100 Euclid Ave",
          "3rd Flr Psych"
        ],
        "city": "Cleveland",
        "state": "OH",
        "postalCode": "44106-1716"
      },
      {
        "line": [
          "11100 Euclid Ave",
          "MacDonald"
        ],
        "city": "Cleveland",
        "state": "OH",
        "postalCode": "44106-1716"
      },
      {
        "line": [
          "11100 Euclid Ave",
          "Bolwell B200"
        ],
        "city": "Cleveland",
        "state": "OH",
        "postalCode": "44106-1716"
      },
      {
        "line": [
          "11100 Euclid Ave",
          "MacDonald"
        ],
        "city": "CLEVELAND",
        "state": "OH",
        "postalCode": "44106-1716"
      },
      {
        "line": [
          "11100 Euclid Ave",
          "3rd Flr PSYCH at RMC"
        ],
        "city": "Cleveland",
        "state": "OH",
        "postalCode": "44106-1716"
      },
      {
        "line": [
          "11100 Euclid Ave",
          "RHCMC 3rd Fl Psych"
        ],
        "city": "CLEVELAND",
        "state": "OH",
        "postalCode": "44106-1716"
      },
      {
        "line": [
          "11100 Euclid Ave",
          "3rd Fl Psych"
        ],
        "city": "Cleveland",
        "state": "OH",
        "postalCode": "44106-1716"
      },
      {
        "line": [
          "11100 Euclid Ave",
          "Lakeside 2100"
        ],
        "city": "Cleveland",
        "state": "OH",
        "postalCode": "44106-1716"
      },
      {
        "line": [
          "11100 Euclid Ave",
          "Bolwell 6th Flr - Transplant"
        ],
        "city": "Cleveland",
        "state": "OH",
        "postalCode": "44106-1716"
      },
      {
        "line": [
          "11100 Euclid Ave",
          "ECT"
        ],
        "city": "Cleveland",
        "state": "OH",
        "postalCode": "44106-1716"
      },
      {
        "line": [
          "11100 Euclid Ave\t\t"
        ],
        "city": "Cleveland",
        "state": "OH",
        "postalCode": "44106-1716"
      },
      {
        "line": [
          "11100 Euclid Ave",
          "Humphrey 1635"
        ],
        "city": "CLEVELAND",
        "state": "OH",
        "postalCode": "44106-1706"
      },
      {
        "line": [
          "11100 Euclid Ave",
          "Dermpath Lab"
        ],
        "city": "Cleveland",
        "state": "OH",
        "postalCode": "44106-1716"
      },
      {
        "line": [
          "11100 Euclid Ave",
          "Bolwell 3400"
        ],
        "city": "Cleveland",
        "state": "OH",
        "postalCode": "44106-1716"
      },
      {
        "line": [
          "11100 Euclid Ave",
          "MacDonald Ste 1200 SCC"
        ],
        "city": "CLEVELAND",
        "state": "OH",
        "postalCode": "44106-1716"
      },
      {
        "line": [
          "11100 Euclid Ave",
          "Bolwell 6th Flr DHI"
        ],
        "city": "Cleveland",
        "state": "OH",
        "postalCode": "44106-1716"
      },
      {
        "line": [
          "11100 Euclid Ave",
          "ECT"
        ],
        "city": "CLEVELAND",
        "state": "OH",
        "postalCode": "44106-1716"
      },
      {
        "line": [
          "11100 Euclid Ave",
          "Mather EKG Lab"
        ],
        "city": "Cleveland",
        "state": "OH",
        "postalCode": "44106-1716"
      },
      {
        "line": [
          "11100 Euclid Ave",
          "Mather Ste 1800"
        ],
        "city": "Cleveland",
        "state": "OH",
        "postalCode": "44106-1716"
      },
      {
        "line": [
          "11100 Euclid Ave",
          "MacDonald Ste 1200 HHVI"
        ],
        "city": "Cleveland",
        "state": "OH",
        "postalCode": "44106-1716"
      },
      {
        "line": [
          "11100 Euclid Ave",
          "Wearn 319"
        ],
        "city": "Cleveland",
        "state": "OH",
        "postalCode": "44106-1716"
      },
      {
        "line": [
          "11100 Euclid Ave",
          "EP Lab"
        ],
        "city": "CLEVELAND",
        "state": "OH",
        "postalCode": "44106-1716"
      },
      {
        "line": [
          "11100 Euclid Ave",
          "Bolwell 5th Flr"
        ],
        "city": "CLEVELAND",
        "state": "OH",
        "postalCode": "44106-1716"
      },
      {
        "line": [
          "11100 Euclid Ave",
          "Bolwell 6th Flr DHI"
        ],
        "city": "CLEVELAND",
        "state": "OH",
        "postalCode": "44106-1716"
      },
      {
        "line": [
          "11100 Euclid Ave",
          "Bolwell 5"
        ],
        "city": "Cleveland",
        "state": "OH",
        "postalCode": "44106-1716"
      },
      {
        "line": [
          "11100 Euclid Ave",
          "RHCMC 3rd Flr Psych"
        ],
        "city": "Cleveland",
        "state": "OH",
        "postalCode": "44106-1716"
      },
      {
        "line": [
          "11100 Euclid Ave",
          "Bolwell 5"
        ],
        "city": "CLEVELAND",
        "state": "OH",
        "postalCode": "44106-1716"
      },
      {
        "line": [
          "11100 Euclid Ave",
          "3rd Flr Psych at RMC"
        ],
        "city": "Cleveland",
        "state": "OH",
        "postalCode": "44106-1716"
      },
      {
        "line": [
          "11100 Euclid Ave",
          "Bolwell 2700 EEG"
        ],
        "city": "CLEVELAND",
        "state": "OH",
        "postalCode": "44106-1716"
      }
    ],
    "extension": [
      {
        "url": "https://fhir.athena.io/StructureDefinition/ah-practice",
        "valueReference": {
          "reference": "Organization/a-1.Practice-1926"
        }
      },
      {
        "url": "https://fhir.athena.io/StructureDefinition/ah-brand",
        "valueReference": {
          "reference": "Organization/a-1926.Brand-1"
        }
      }
    ]
  },
  "fullUrl": "urn:uuid:5a604030-0f77-571d-b6d3-e695edc14188"
}