{
  "resource": {
    "resourceType": "Organization",
    "id": "78f0b69e-7a1a-5774-80f0-04752d07c526",
    "name": "Hand Center of Boca and Delray, LLC",
    "endpoint": [
      {
        "reference": "Endpoint/27a4e967-47aa-5a9c-a572-b8297ee268a2"
      },
      {
        "reference": "Endpoint/d3c47053-1259-5268-91a0-58b453f0b9ac"
      }
    ],
    "identifier": [
      {
        "system": "http://hl7.org/fhir/sid/us-npi",
        "value": "1508511783"
      }
    ],
    "address": [
      {
        "line": [
          "4800 LINTON BLVD STE B"
        ],
        "city": "DELRAY BEACH",
        "state": "FL",
        "postalCode": "33445-6600"
      },
      {
        "line": [
          "21644 STATE RD. 7"
        ],
        "city": "BOCA RATON",
        "state": "FL",
        "postalCode": "33428-1842"
      },
      {
        "line": [
          "6806 N STATE RD 7"
        ],
        "city": "POMPANO BEACH",
        "state": "FL",
        "postalCode": "33073-4304"
      },
      {
        "line": [
          "201 E SAMPLE RD."
        ],
        "city": "POMPANO BEACH",
        "state": "FL",
        "postalCode": "33064-3502"
      },
      {
        "line": [
          "4600 LINTON BLVD STE 100"
        ],
        "city": "DELRAY BEACH",
        "state": "FL",
        "postalCode": "33445-6600"
      },
      {
        "line": [
          "800 MEADOWS ROAD"
        ],
        "city": "BOCA RATON",
        "state": "FL",
        "postalCode": "33486-9952"
      },
      {
        "line": [
          "5258 LINTON BLVD STE 304"
        ],
        "city": "DELRAY BEACH",
        "state": "FL",
        "postalCode": "33484-6530"
      },
      {
        "line": [
          "5352 LINTON BLVD"
        ],
        "city": "DELRAY BEACH",
        "state": "FL",
        "postalCode": "33484-6514"
      }
    ],
    "extension": [
      {
        "url": "https://fhir.athena.io/StructureDefinition/ah-practice",
        "valueReference": {
          "reference": "Organization/a-1.Practice-26221"
        }
      },
      {
        "url": "https://fhir.athena.io/StructureDefinition/ah-brand",
        "valueReference": {
          "reference": "Organization/a-26221.Brand-1"
        }
      }
    ]
  },
  "fullUrl": "urn:uuid:78f0b69e-7a1a-5774-80f0-04752d07c526"
}