{
  "resource": {
    "resourceType": "Organization",
    "id": "652f8492-962c-561a-a9be-084e76532f6d",
    "name": "MinuteClinic",
    "endpoint": [
      {
        "reference": "Endpoint/27a4e967-47aa-5a9c-a572-b8297ee268a2"
      },
      {
        "reference": "Endpoint/0bb45c47-624a-5358-b57f-1e22a922d659"
      }
    ],
    "identifier": [
      {
        "system": "http://hl7.org/fhir/sid/us-npi",
        "value": "1033309372"
      }
    ],
    "address": [
      {
        "line": [
          "738 Bancroft Rd"
        ],
        "city": "WALNUT CREEK",
        "state": "CA",
        "postalCode": "94598-1531"
      },
      {
        "line": [
          "2964 Broadway"
        ],
        "city": "OAKLAND",
        "state": "CA",
        "postalCode": "94611-5711"
      },
      {
        "line": [
          "1350 Florin Rd"
        ],
        "city": "SACRAMENTO",
        "state": "CA",
        "postalCode": "95822-3690"
      },
      {
        "line": [
          "2700 Homestead Rd"
        ],
        "city": "SANTA CLARA",
        "state": "CA",
        "postalCode": "95051-5353"
      },
      {
        "line": [
          "45 N Milpitas Blvd"
        ],
        "city": "MILPITAS",
        "state": "CA",
        "postalCode": "95035-4402"
      },
      {
        "line": [
          "576 El Camino Real"
        ],
        "city": "SUNNYVALE",
        "state": "CA",
        "postalCode": "94087-1940"
      },
      {
        "line": [
          "2791 Agoura Rd"
        ],
        "city": "Thousand Oaks",
        "state": "CA",
        "postalCode": "91361-3101"
      },
      {
        "line": [
          "25880 Mcbean Pkwy"
        ],
        "city": "Santa Clarita",
        "state": "CA",
        "postalCode": "91355-2004"
      },
      {
        "line": [
          "5040 Laguna Blvd"
        ],
        "city": "ELK GROVE",
        "state": "CA",
        "postalCode": "95758-4150"
      },
      {
        "line": [
          "987 E Hillsdale Blvd"
        ],
        "city": "Foster City",
        "state": "CA",
        "postalCode": "94404-2112"
      },
      {
        "line": [
          "1900 19th Avenue"
        ],
        "city": "SAN FRANCISCO",
        "state": "CA",
        "postalCode": "94116-1250"
      },
      {
        "line": [
          "2630 W El Camino Real"
        ],
        "city": "MOUNTAIN VIEW",
        "state": "CA",
        "postalCode": "94040-1117"
      },
      {
        "line": [
          "1720 S Bascom Ave"
        ],
        "city": "CAMPBELL",
        "state": "CA",
        "postalCode": "95008-0608"
      },
      {
        "line": [
          "650 San Ramon Valley Blvd"
        ],
        "city": "DANVILLE",
        "state": "CA",
        "postalCode": "94526-4022"
      },
      {
        "line": [
          "727 S Arroyo Parkway"
        ],
        "city": "PASADENA",
        "state": "CA",
        "postalCode": "91105-3209"
      },
      {
        "line": [
          "2973 State St"
        ],
        "city": "SANTA BARBARA",
        "state": "CA",
        "postalCode": "93105-3425"
      },
      {
        "line": [
          "2514 Berryessa Rd"
        ],
        "city": "SAN JOSE",
        "state": "CA",
        "postalCode": "95132-2947"
      },
      {
        "line": [
          "2455 San Ramon Valley Blvd"
        ],
        "city": "SAN RAMON",
        "state": "CA",
        "postalCode": "94583-1601"
      },
      {
        "line": [
          "8101 Greenback Lane"
        ],
        "city": "FAIR OAKS",
        "state": "CA",
        "postalCode": "95628-2502"
      },
      {
        "line": [
          "2400 KEYSTONE PACIFIC PKWY"
        ],
        "city": "PATTERSON",
        "state": "CA",
        "postalCode": "95363-8866"
      },
      {
        "line": [
          "10455 S De Anza Blvd"
        ],
        "city": "CUPERTINO",
        "state": "CA",
        "postalCode": "95014-3011"
      },
      {
        "line": [
          "2825 Cochran St"
        ],
        "city": "SIMI VALLEY",
        "state": "CA",
        "postalCode": "93065-2775"
      },
      {
        "line": [
          "5875 Calle Real"
        ],
        "city": "GOLETA",
        "state": "CA",
        "postalCode": "93117-2313"
      },
      {
        "line": [
          "2505 Santa Monica Blvd"
        ],
        "city": "SANTA MONICA",
        "state": "CA",
        "postalCode": "90404-2011"
      },
      {
        "line": [
          "1871 El Camino Real"
        ],
        "city": "BURLINGAME",
        "state": "CA",
        "postalCode": "94010-3220"
      },
      {
        "line": [
          "8491 Santa Monica Blvd"
        ],
        "city": "WEST HOLLYWOOD",
        "state": "CA",
        "postalCode": "90069-4218"
      },
      {
        "line": [
          "3751 Wilshire Blvd"
        ],
        "city": "LOS ANGELES",
        "state": "CA",
        "postalCode": "90010-2802"
      }
    ],
    "extension": [
      {
        "url": "https://fhir.athena.io/StructureDefinition/ah-practice",
        "valueReference": {
          "reference": "Organization/a-1.Practice-1647"
        }
      },
      {
        "url": "https://fhir.athena.io/StructureDefinition/ah-brand",
        "valueReference": {
          "reference": "Organization/a-1647.Brand-1"
        }
      }
    ]
  },
  "fullUrl": "urn:uuid:652f8492-962c-561a-a9be-084e76532f6d"
}