{
  "resource": {
    "resourceType": "Organization",
    "id": "183e2b3c-2810-5d4f-a08b-044705692c26",
    "name": "CENTERAL MISSISSIPPI MEDICAL CENTERAL",
    "endpoint": [
      {
        "reference": "Endpoint/27a4e967-47aa-5a9c-a572-b8297ee268a2"
      },
      {
        "reference": "Endpoint/3d97db34-72b9-58c3-beae-04c2e0831d14"
      }
    ],
    "identifier": [
      {
        "system": "http://hl7.org/fhir/sid/us-npi",
        "value": "1790840080"
      }
    ],
    "address": [
      {
        "line": [
          "705 HIGHWAY 80 W"
        ],
        "city": "CLINTON",
        "state": "MS",
        "postalCode": "39056-4103"
      },
      {
        "line": [
          "1900 CHADWICK DR"
        ],
        "city": "JACKSON",
        "state": "MS",
        "postalCode": "39204-3406"
      },
      {
        "line": [
          "1458 Moncure Marble Rd"
        ],
        "city": "TERRY",
        "state": "MS",
        "postalCode": "39170-9605"
      },
      {
        "line": [
          "4500 NORTH STATE STREET"
        ],
        "city": "JACKSON",
        "state": "MS",
        "postalCode": "39206-5307"
      },
      {
        "line": [
          "2300 Seven Spring Rd"
        ],
        "city": "RAYMOND",
        "state": "MS",
        "postalCode": "39154-7628"
      },
      {
        "line": [
          "1116 Forest Ave"
        ],
        "city": "JACKSON",
        "state": "MS",
        "postalCode": "39206-3216"
      },
      {
        "line": [
          "650 HIGHLAND COLONY PARKWAY"
        ],
        "city": "RIDGELAND",
        "state": "MS",
        "postalCode": "39157-8724"
      },
      {
        "line": [
          "399 CAUTHEN STREET"
        ],
        "city": "CANTON",
        "state": "MS",
        "postalCode": "39046-3134"
      },
      {
        "line": [
          "4022 CALIFORNIA AVENUE"
        ],
        "city": "JACKSON",
        "state": "MS",
        "postalCode": "39213-5513"
      },
      {
        "line": [
          "1850 CHADWICK DRIVE"
        ],
        "city": "JACKSON",
        "state": "MS",
        "postalCode": "39204-3404"
      },
      {
        "line": [
          "960 Avent Drive"
        ],
        "city": "GRENADA",
        "state": "MS",
        "postalCode": "38901-5230"
      },
      {
        "line": [
          "1970 Hospital Drive"
        ],
        "city": "CLARKSDALE",
        "state": "MS",
        "postalCode": "38614-7202"
      },
      {
        "line": [
          "2300 SEVEN SPRINGS RD"
        ],
        "city": "RAYMOND",
        "state": "MS",
        "postalCode": "39154-7628"
      },
      {
        "line": [
          "4540 Manhattan Rd."
        ],
        "city": "JACKSON",
        "state": "MS",
        "postalCode": "39206-6022"
      },
      {
        "line": [
          "641 Flag Chapel Road"
        ],
        "city": "JACKSON",
        "state": "MS",
        "postalCode": "39206-2204"
      },
      {
        "line": [
          "205 BRYAM PARKWAY"
        ],
        "city": "BYRAM",
        "state": "MS",
        "postalCode": "39272-9609"
      },
      {
        "line": [
          "110 E. Baker Street"
        ],
        "city": "INDIANOLA",
        "state": "MS",
        "postalCode": "38751-2451"
      }
    ],
    "extension": [
      {
        "url": "https://fhir.athena.io/StructureDefinition/ah-practice",
        "valueReference": {
          "reference": "Organization/a-1.Practice-9847"
        }
      },
      {
        "url": "https://fhir.athena.io/StructureDefinition/ah-brand",
        "valueReference": {
          "reference": "Organization/a-9847.Brand-1"
        }
      }
    ]
  },
  "fullUrl": "urn:uuid:183e2b3c-2810-5d4f-a08b-044705692c26"
}