{
  "resource": {
    "resourceType": "Organization",
    "id": "fe7bdeea-db0d-515a-aff5-a2353861ef8d",
    "name": "Ascension Saint Thomas Hospital",
    "endpoint": [
      {
        "reference": "Endpoint/27a4e967-47aa-5a9c-a572-b8297ee268a2"
      },
      {
        "reference": "Endpoint/f67628aa-42b5-5e0f-a003-f23e4861bd7b"
      }
    ],
    "identifier": [
      {
        "system": "http://hl7.org/fhir/sid/us-npi",
        "value": "1881981033"
      },
      {
        "system": "http://hl7.org/fhir/sid/us-npi",
        "value": "1396798302"
      },
      {
        "system": "http://hl7.org/fhir/sid/us-npi",
        "value": "1437194669"
      },
      {
        "system": "http://hl7.org/fhir/sid/us-npi",
        "value": "1902043433"
      },
      {
        "system": "http://hl7.org/fhir/sid/us-npi",
        "value": "1033294673"
      },
      {
        "system": "http://hl7.org/fhir/sid/us-npi",
        "value": "1598929135"
      }
    ],
    "address": [
      {
        "line": [
          "2000 Church St"
        ],
        "city": "NASHVILLE",
        "state": "TN",
        "postalCode": "37236-0002"
      },
      {
        "line": [
          "2000 Church St"
        ],
        "city": "NASHVILLE",
        "state": "TN",
        "postalCode": "37236-0001"
      },
      {
        "line": [
          "4220 Harding Road, Suite 500"
        ],
        "city": "NASHVILLE",
        "state": "TN",
        "postalCode": "37205-2005"
      },
      {
        "line": [
          "2000 Church St"
        ],
        "city": "Nashville",
        "state": "TN",
        "postalCode": "37236-0001"
      },
      {
        "line": [
          "4220 Harding Rd"
        ],
        "city": "Nashville",
        "state": "TN",
        "postalCode": "37205-2005"
      },
      {
        "line": [
          "4220 Harding Road"
        ],
        "city": "NASHVILLE",
        "state": "TN",
        "postalCode": "37205-2098"
      },
      {
        "line": [
          "4220 Harding Road"
        ],
        "city": "NASHVILLE",
        "state": "TN",
        "postalCode": "37205-2005"
      },
      {
        "line": [
          "4220 Harding Rd"
        ],
        "city": "NASHVILLE",
        "state": "TN",
        "postalCode": "37205-2005"
      },
      {
        "line": [
          "2000 Church Street"
        ],
        "city": "NASHVILLE",
        "state": "TN",
        "postalCode": "37236-0001"
      },
      {
        "line": [
          "4230 Harding Rd. Suite 330"
        ],
        "city": "NASHVILLE",
        "state": "TN",
        "postalCode": "37205-2098"
      },
      {
        "line": [
          "4220 HARDING RD STE 500"
        ],
        "city": "NASHVILLE",
        "state": "TN",
        "postalCode": "37205-2005"
      },
      {
        "line": [
          "2000 Church St"
        ],
        "city": "NASHVILLE",
        "state": "TN",
        "postalCode": "37236-4400"
      },
      {
        "line": [
          "2000 Church Street"
        ],
        "city": "NASHVILLE",
        "state": "TN",
        "postalCode": "37210-0002"
      },
      {
        "line": [
          "2723 New Salem Hwy"
        ],
        "city": "MURFREESBORO",
        "state": "TN",
        "postalCode": "37128-5253"
      },
      {
        "line": [
          "4230 Harding Rd",
          "Suite 325"
        ],
        "city": "Nashville",
        "state": "TN",
        "postalCode": "37205-2018"
      },
      {
        "line": [
          "4220 Harding Rd",
          "Suite 401"
        ],
        "city": "NASHVILLE",
        "state": "TN",
        "postalCode": "37205-2005"
      },
      {
        "line": [
          "2000 Church Street"
        ],
        "city": "NASHVILLE",
        "state": "TN",
        "postalCode": "37236-0002"
      },
      {
        "line": [
          "4220 Harding Rd",
          "Ste 500"
        ],
        "city": "NASHVILLE",
        "state": "TN",
        "postalCode": "37205-2005"
      },
      {
        "line": [
          "2000 CHURCH STREET"
        ],
        "city": "NASHVILLE",
        "state": "TN",
        "postalCode": "37236-4400"
      },
      {
        "line": [
          "2000 Hayes Street Ste 500"
        ],
        "city": "NASHVILLE",
        "state": "TN",
        "postalCode": "37236-2318"
      },
      {
        "line": [
          "2000 Hayes St"
        ],
        "city": "Nashville",
        "state": "TN",
        "postalCode": "37236-2318"
      },
      {
        "line": [
          "4220 Harding Road, Suite 401"
        ],
        "city": "NASHVILLE",
        "state": "TN",
        "postalCode": "37205-2098"
      },
      {
        "line": [
          "4220 Harding Road",
          "Ste 500"
        ],
        "city": "NASHVILLE",
        "state": "TN",
        "postalCode": "37205-2005"
      },
      {
        "line": [
          "4220 HARDING ROAD"
        ],
        "city": "NASHVILLE",
        "state": "TN",
        "postalCode": "37205-2005"
      },
      {
        "line": [
          "2000 Church St"
        ],
        "city": "NASHVILLE",
        "state": "TN",
        "postalCode": "37210-4400"
      },
      {
        "line": [
          "4230 HARDING RD, STE 450"
        ],
        "city": "NASHVILLE",
        "state": "TN",
        "postalCode": "37205-6048"
      },
      {
        "line": [
          "2000 CHRUCH ST BOX 102"
        ],
        "city": "NASHVILLE",
        "state": "TN",
        "postalCode": "37236-0001"
      },
      {
        "line": [
          "4220 Harding Road; Suite 500"
        ],
        "city": "NASHVILLE",
        "state": "TN",
        "postalCode": "37205-2005"
      },
      {
        "line": [
          "4230 Harding Rd",
          "Suite 450"
        ],
        "city": "Nashville",
        "state": "TN",
        "postalCode": "37205-6048"
      },
      {
        "line": [
          "4230 Harding Rd Ste 450"
        ],
        "city": "NASHVILLE",
        "state": "TN",
        "postalCode": "37205-6048"
      }
    ],
    "extension": [
      {
        "url": "https://fhir.athena.io/StructureDefinition/ah-practice",
        "valueReference": {
          "reference": "Organization/a-1.Practice-7654"
        }
      },
      {
        "url": "https://fhir.athena.io/StructureDefinition/ah-brand",
        "valueReference": {
          "reference": "Organization/a-7654.Brand-1"
        }
      }
    ]
  },
  "fullUrl": "urn:uuid:fe7bdeea-db0d-515a-aff5-a2353861ef8d"
}