{
  "resource": {
    "resourceType": "Organization",
    "id": "dc314d93-92be-5987-b576-3a80f65d79b4",
    "name": "Appling County Hospital - OP",
    "endpoint": [
      {
        "reference": "Endpoint/27a4e967-47aa-5a9c-a572-b8297ee268a2"
      },
      {
        "reference": "Endpoint/dc23db35-732f-54d5-98d5-58482d090d85"
      }
    ],
    "identifier": [
      {
        "system": "http://hl7.org/fhir/sid/us-npi",
        "value": "1740244276"
      }
    ],
    "address": [
      {
        "line": [
          "131 Silverwood Ctr",
          "Suite 100"
        ],
        "city": "RINCON",
        "state": "GA",
        "postalCode": "31326-5131"
      },
      {
        "line": [
          "122 Scranton Connector",
          "Suite 112"
        ],
        "city": "BRUNSWICK",
        "state": "GA",
        "postalCode": "31525-0550"
      },
      {
        "line": [
          "340 HODGSON CT"
        ],
        "city": "SAVANNAH",
        "state": "GA",
        "postalCode": "31406-1520"
      },
      {
        "line": [
          "12B ARLEY WAY"
        ],
        "city": "BLUFFTON",
        "state": "SC",
        "postalCode": "29910-4883"
      },
      {
        "line": [
          "370 Peachtree St"
        ],
        "city": "JESUP",
        "state": "GA",
        "postalCode": "31545-0244"
      },
      {
        "line": [
          "200 Doctors Drive",
          "Suite O"
        ],
        "city": "DOUGLAS",
        "state": "GA",
        "postalCode": "31533-2202"
      },
      {
        "line": [
          "340 Hodgson Court",
          "Suite 2"
        ],
        "city": "SAVANNAH",
        "state": "GA",
        "postalCode": "31406-1523"
      },
      {
        "line": [
          "23 Main Street",
          "Suite 202"
        ],
        "city": "HILTON HEAD ISLAND",
        "state": "SC",
        "postalCode": "29926-6607"
      },
      {
        "line": [
          "601 E General Stewart Way"
        ],
        "city": "HINESVILLE",
        "state": "GA",
        "postalCode": "31313-2627"
      },
      {
        "line": [
          "163 East Tollision Street"
        ],
        "city": "Baxley",
        "state": "GA",
        "postalCode": "31513-0120"
      }
    ],
    "extension": [
      {
        "url": "https://fhir.athena.io/StructureDefinition/ah-practice",
        "valueReference": {
          "reference": "Organization/a-1.Practice-23844"
        }
      },
      {
        "url": "https://fhir.athena.io/StructureDefinition/ah-brand",
        "valueReference": {
          "reference": "Organization/a-23844.Brand-1"
        }
      }
    ]
  },
  "fullUrl": "urn:uuid:dc314d93-92be-5987-b576-3a80f65d79b4"
}