{
  "resource": {
    "resourceType": "Organization",
    "id": "0db62c77-6a0a-5781-a714-bbbde2de626b",
    "name": "ALDERSGATE ELMHURST",
    "endpoint": [
      {
        "reference": "Endpoint/27a4e967-47aa-5a9c-a572-b8297ee268a2"
      },
      {
        "reference": "Endpoint/8281ebf2-d2c7-58bd-b542-cf747373f513"
      }
    ],
    "identifier": [
      {
        "system": "http://hl7.org/fhir/sid/us-npi",
        "value": "1134420821"
      }
    ],
    "address": [
      {
        "line": [
          "4712 SW 6TH AVE"
        ],
        "city": "TOPEKA",
        "state": "KS",
        "postalCode": "66606-2272"
      },
      {
        "line": [
          "1301 NE Jefferson St"
        ],
        "city": "TOPEKA",
        "state": "KS",
        "postalCode": "66608-1118"
      },
      {
        "line": [
          "2015 SE 10th Ave"
        ],
        "city": "TOPEKA",
        "state": "KS",
        "postalCode": "66607-1615"
      },
      {
        "line": [
          "1415 Maple St"
        ],
        "city": "EUDORA",
        "state": "KS",
        "postalCode": "66025-9419"
      },
      {
        "line": [
          "7200 SW Uxbridge Cir"
        ],
        "city": "TOPEKA",
        "state": "KS",
        "postalCode": "66614-6095"
      },
      {
        "line": [
          "2655 SW Wanamaker Rd. Ste H"
        ],
        "city": "TOPEKA",
        "state": "KS",
        "postalCode": "66614-4477"
      },
      {
        "line": [
          "2025 LITTLE KITTEN AVE"
        ],
        "city": "MANHATTAN",
        "state": "KS",
        "postalCode": "66503-7545"
      },
      {
        "line": [
          "1815 SW Westwood Cir"
        ],
        "city": "TOPEKA",
        "state": "KS",
        "postalCode": "66604-3269"
      },
      {
        "line": [
          "1800 Fairmont Rd."
        ],
        "city": "TOPEKA",
        "state": "KS",
        "postalCode": "66604-3699"
      },
      {
        "line": [
          "4450 Bauer Farm"
        ],
        "city": "LAWRENCE",
        "state": "KS",
        "postalCode": "66049-9170"
      },
      {
        "line": [
          "6732 sw 17th"
        ],
        "city": "TOPEKA",
        "state": "KS",
        "postalCode": "66618-5506"
      },
      {
        "line": [
          "2800 WILLOW GROVE RD.",
          "E. COURT 224"
        ],
        "city": "MANHATTAN",
        "state": "KS",
        "postalCode": "66502-2096"
      },
      {
        "line": [
          "1920 SW 32ND ST"
        ],
        "city": "TOPEKA",
        "state": "KS",
        "postalCode": "66611-2063"
      },
      {
        "line": [
          "3220 SW ALBRIGHT DR."
        ],
        "city": "TOPEKA",
        "state": "KS",
        "postalCode": "66614-4707"
      },
      {
        "line": [
          "3566 62ND ST"
        ],
        "city": "MERIDEN",
        "state": "KS",
        "postalCode": "66512-9213"
      }
    ],
    "extension": [
      {
        "url": "https://fhir.athena.io/StructureDefinition/ah-practice",
        "valueReference": {
          "reference": "Organization/a-1.Practice-14729"
        }
      },
      {
        "url": "https://fhir.athena.io/StructureDefinition/ah-brand",
        "valueReference": {
          "reference": "Organization/a-14729.Brand-1"
        }
      }
    ]
  },
  "fullUrl": "urn:uuid:0db62c77-6a0a-5781-a714-bbbde2de626b"
}