{
  "resource": {
    "resourceType": "Organization",
    "id": "36b1206c-67df-5982-ac90-3bb74f66c704",
    "name": "Lifespark Primary Care",
    "endpoint": [
      {
        "reference": "Endpoint/27a4e967-47aa-5a9c-a572-b8297ee268a2"
      },
      {
        "reference": "Endpoint/ce0eadc7-9133-56cd-bd15-009e78355222"
      }
    ],
    "identifier": [
      {
        "system": "http://hl7.org/fhir/sid/us-npi",
        "value": "1427551746"
      }
    ],
    "address": [
      {
        "line": [
          "1640 155TH LANE NW"
        ],
        "city": "ANDOVER",
        "state": "MN",
        "postalCode": "55304-9999"
      },
      {
        "line": [
          "6490 CENTRAL AVE NE"
        ],
        "city": "FRIDLEY",
        "state": "MN",
        "postalCode": "55432-9999"
      },
      {
        "line": [
          "3720 23RD AVE S"
        ],
        "city": "MINNEAPOLIS",
        "state": "MN",
        "postalCode": "55407-9999"
      },
      {
        "line": [
          "19131 TAYLOR ST NE"
        ],
        "city": "EAST BETHEL",
        "state": "MN",
        "postalCode": "55011-9999"
      },
      {
        "line": [
          "7141 YORK AVE S"
        ],
        "city": "EDINA",
        "state": "MN",
        "postalCode": "55435-9999"
      },
      {
        "line": [
          "5200 Oak Grove Pkwy"
        ],
        "city": "MINNEAPOLIS",
        "state": "MN",
        "postalCode": "55443-3031"
      },
      {
        "line": [
          "192 JADE TRAIL N"
        ],
        "city": "LAKE ELMO",
        "state": "MN",
        "postalCode": "55042-9999"
      },
      {
        "line": [
          "26369 2ND ST E"
        ],
        "city": "ZIMMERMAN",
        "state": "MN",
        "postalCode": "55398-9999"
      },
      {
        "line": [
          "1861 COMMERCE BLVD"
        ],
        "city": "MOUND",
        "state": "MN",
        "postalCode": "55364-9999"
      },
      {
        "line": [
          "8000 BASS LAKE ROAD"
        ],
        "city": "MINNEAPOLIS",
        "state": "MN",
        "postalCode": "55428-3118"
      },
      {
        "line": [
          "7012 LAKE RD"
        ],
        "city": "SAINT PAUL",
        "state": "MN",
        "postalCode": "55125-9999"
      },
      {
        "line": [
          "5200 OAK GROVE PKWY"
        ],
        "city": "MINNEAPOLIS",
        "state": "MN",
        "postalCode": "55443-3031"
      },
      {
        "line": [
          "4400 LANGE AVENUE NE"
        ],
        "city": "SAINT MICHAEL",
        "state": "MN",
        "postalCode": "55376-9999"
      },
      {
        "line": [
          "2365 HELEN ST N"
        ],
        "city": "SAINT PAUL",
        "state": "MN",
        "postalCode": "55109-9999"
      },
      {
        "line": [
          "604 NE FIRST ST"
        ],
        "city": "FOREST LAKE",
        "state": "MN",
        "postalCode": "55025-9999"
      },
      {
        "line": [
          "1350 ST PETER AVE EAST"
        ],
        "city": "DELANO",
        "state": "MN",
        "postalCode": "55328-9999"
      },
      {
        "line": [
          "5601 94TH AVE N"
        ],
        "city": "BROOKLYN PARK",
        "state": "MN",
        "postalCode": "55443-9999"
      },
      {
        "line": [
          "501 SECOND ST SE"
        ],
        "city": "OSSEO",
        "state": "MN",
        "postalCode": "55369-9999"
      },
      {
        "line": [
          "3120 N CHESTNUT ST N"
        ],
        "city": "CHASKA",
        "state": "MN",
        "postalCode": "55318-9999"
      },
      {
        "line": [
          "1740 PARKSHORE DRIVE"
        ],
        "city": "ARDEN HILLS",
        "state": "MN",
        "postalCode": "55112-9999"
      },
      {
        "line": [
          "5399 155TH ST WEST"
        ],
        "city": "APPLE VALLEY",
        "state": "MN",
        "postalCode": "55124-9999"
      },
      {
        "line": [
          "2825 WOODLANE DR"
        ],
        "city": "WOODBURY",
        "state": "MN",
        "postalCode": "55125-9999"
      },
      {
        "line": [
          "3733 23RD AVE S"
        ],
        "city": "MINNEAPOLIS",
        "state": "MN",
        "postalCode": "55407-9999"
      },
      {
        "line": [
          "920 6TH STREET W"
        ],
        "city": "CARVER",
        "state": "MN",
        "postalCode": "55315-9999"
      },
      {
        "line": [
          "5320 W 23RD ST STE 130"
        ],
        "city": "MINNEAPOLIS",
        "state": "MN",
        "postalCode": "55416-1670"
      },
      {
        "line": [
          "5320 W 23rd Street, Suite 130"
        ],
        "city": "MINNEAPOLIS",
        "state": "MN",
        "postalCode": "55416-2532"
      },
      {
        "line": [
          "8000 Bass Lake Road"
        ],
        "city": "MINNEAPOLIS",
        "state": "MN",
        "postalCode": "55428-3118"
      },
      {
        "line": [
          "7008 LAKE ROAD"
        ],
        "city": "WOODBURY",
        "state": "MN",
        "postalCode": "55125-9999"
      },
      {
        "line": [
          "22300 DENMARK AVENUE"
        ],
        "city": "FARMINGTON",
        "state": "MN",
        "postalCode": "55024-9437"
      },
      {
        "line": [
          "1880 INDEPENDENCE DR"
        ],
        "city": "SHAKOPEE",
        "state": "MN",
        "postalCode": "55379-9999"
      }
    ],
    "extension": [
      {
        "url": "https://fhir.athena.io/StructureDefinition/ah-practice",
        "valueReference": {
          "reference": "Organization/a-1.Practice-17901"
        }
      },
      {
        "url": "https://fhir.athena.io/StructureDefinition/ah-brand",
        "valueReference": {
          "reference": "Organization/a-17901.Brand-1"
        }
      }
    ]
  },
  "fullUrl": "urn:uuid:36b1206c-67df-5982-ac90-3bb74f66c704"
}