{
  "resource": {
    "resourceType": "Organization",
    "id": "e338c651-8975-581e-a37e-5440185a3b18",
    "name": "Franklin Clinic",
    "endpoint": [
      {
        "reference": "Endpoint/27a4e967-47aa-5a9c-a572-b8297ee268a2"
      },
      {
        "reference": "Endpoint/d8b9e186-8dd5-5a45-9cf0-6c2c79848b48"
      }
    ],
    "identifier": [
      {
        "system": "http://hl7.org/fhir/sid/us-npi",
        "value": "1336199900"
      }
    ],
    "address": [
      {
        "line": [
          "2750 Godwin Blvd"
        ],
        "city": "SUFFOLK",
        "state": "VA",
        "postalCode": "23434-8036"
      },
      {
        "line": [
          "2000 MEADE PKWAY"
        ],
        "city": "SUFFOLK",
        "state": "VA",
        "postalCode": "23434-4259"
      },
      {
        "line": [
          "100 FAIRVIEW DR"
        ],
        "city": "FRANKLIN",
        "state": "VA",
        "postalCode": "23851-1238"
      },
      {
        "line": [
          "Six Doctors Drive"
        ],
        "city": "EMPORIA",
        "state": "VA",
        "postalCode": "23847-1240"
      },
      {
        "line": [
          "5818 HARBOUR VIEW SUITE 2",
          "BUILDING D"
        ],
        "city": "SUFFOLK",
        "state": "VA",
        "postalCode": "23435-3315"
      },
      {
        "line": [
          "727 N. Main St"
        ],
        "city": "EMPORIA",
        "state": "VA",
        "postalCode": "23847-1274"
      },
      {
        "line": [
          "100 FAIRVIEW DRIVE"
        ],
        "city": "FRANKLIN",
        "state": "VA",
        "postalCode": "23851-1238"
      },
      {
        "line": [
          "100 Fairview Dr"
        ],
        "city": "FRANKLIN",
        "state": "VA",
        "postalCode": "23851-1214"
      },
      {
        "line": [
          "102 Fairview Dr, Suite A"
        ],
        "city": "FRANKLIN",
        "state": "VA",
        "postalCode": "23851-1214"
      },
      {
        "line": [
          "2800 Godwin Blvd"
        ],
        "city": "SUFFOLK",
        "state": "VA",
        "postalCode": "23434-8038"
      },
      {
        "line": [
          "100 Fairview Dr"
        ],
        "city": "FRANKLIN",
        "state": "VA",
        "postalCode": "23851-1213"
      },
      {
        "line": [],
        "city": "FRANKLIN",
        "state": "VA",
        "postalCode": "23851-1238"
      },
      {
        "line": [
          "6 Doctors Drive"
        ],
        "city": "EMPORIA",
        "state": "VA",
        "postalCode": "23847-1240"
      }
    ],
    "extension": [
      {
        "url": "https://fhir.athena.io/StructureDefinition/ah-practice",
        "valueReference": {
          "reference": "Organization/a-1.Practice-9278"
        }
      },
      {
        "url": "https://fhir.athena.io/StructureDefinition/ah-brand",
        "valueReference": {
          "reference": "Organization/a-9278.Brand-1"
        }
      }
    ]
  },
  "fullUrl": "urn:uuid:e338c651-8975-581e-a37e-5440185a3b18"
}