{
  "resource": {
    "resourceType": "Organization",
    "id": "0d6b14e2-77c3-5f15-ab1d-82fa1a0e37d6",
    "name": "Ascension St Vincents Southside",
    "endpoint": [
      {
        "reference": "Endpoint/27a4e967-47aa-5a9c-a572-b8297ee268a2"
      },
      {
        "reference": "Endpoint/41679759-bc4e-5bb2-88c8-0a8bdfd90431"
      }
    ],
    "identifier": [
      {
        "system": "http://hl7.org/fhir/sid/us-npi",
        "value": "1396926747"
      }
    ],
    "address": [
      {
        "line": [
          "10058 BAYMEADOWS RD"
        ],
        "city": "JACKSONVILLE",
        "state": "FL",
        "postalCode": "32256-7177"
      },
      {
        "line": [
          "3 SHIRCLIFF WAY",
          "STE 625"
        ],
        "city": "JACKSONVILLE",
        "state": "FL",
        "postalCode": "32204-4776"
      },
      {
        "line": [
          "1760 W EDGEWOOD AVENUE",
          "SUITES A & B"
        ],
        "city": "JACKSONVILLE",
        "state": "FL",
        "postalCode": "32208-7209"
      },
      {
        "line": [
          "6699 Gate Parkway, Suite B"
        ],
        "city": "JACKSONVILLE",
        "state": "FL",
        "postalCode": "32256-8079"
      },
      {
        "line": [
          "3 SHIRCLIFF WAY",
          "STE 333"
        ],
        "city": "JACKSONVILLE",
        "state": "FL",
        "postalCode": "32204-4790"
      },
      {
        "line": [
          "4205 Belfort Road, Suite 3004"
        ],
        "city": "JACKSONVILLE",
        "state": "FL",
        "postalCode": "32216-1475"
      },
      {
        "line": [
          "4205 Belfort Road, Suite 4030"
        ],
        "city": "JACKSONVILLE",
        "state": "FL",
        "postalCode": "32216-1475"
      },
      {
        "line": [
          "4203 Belfort Road, Suite 108"
        ],
        "city": "JACKSONVILLE",
        "state": "FL",
        "postalCode": "32216-1411"
      },
      {
        "line": [
          "1658 ST VINCENTS WAY",
          "STE 100"
        ],
        "city": "MIDDLEBURG",
        "state": "FL",
        "postalCode": "32068-8459"
      },
      {
        "line": [
          "10503 San Jose Blvd"
        ],
        "city": "JACKSONVILLE",
        "state": "FL",
        "postalCode": "32257-6295"
      },
      {
        "line": [
          "4205 Belfort Road, Suite 2005"
        ],
        "city": "JACKSONVILLE",
        "state": "FL",
        "postalCode": "32216-5876"
      },
      {
        "line": [
          "8075 GATE PKWY W",
          "STE 202"
        ],
        "city": "JACKSONVILLE",
        "state": "FL",
        "postalCode": "32216-1475"
      },
      {
        "line": [
          "300 SAINT ELIZABETH WAY",
          "STE 140"
        ],
        "city": "SAINT JOHNS",
        "state": "FL",
        "postalCode": "32259-1153"
      },
      {
        "line": [
          "2001 COUNTY ROAD 210 W",
          "STE 200"
        ],
        "city": "SAINT JOHNS",
        "state": "FL",
        "postalCode": "32259-1181"
      },
      {
        "line": [
          "3 SHIRCLIFF WAY",
          "STE 333"
        ],
        "city": "JACKSONVILLE",
        "state": "FL",
        "postalCode": "32204-4753"
      },
      {
        "line": [
          "4203 Belfort Road Suite 215"
        ],
        "city": "JACKSONVILLE",
        "state": "FL",
        "postalCode": "32216-1416"
      },
      {
        "line": [
          "2300 PARK AVE",
          "STE 200"
        ],
        "city": "ORANGE PARK",
        "state": "FL",
        "postalCode": "32073-5574"
      },
      {
        "line": [
          "300 Saint Elizabeth Way, Suite 270"
        ],
        "city": "SAINT JOHNS",
        "state": "FL",
        "postalCode": "32259-1152"
      },
      {
        "line": [
          "1570 ISLAND LN"
        ],
        "city": "FLEMING ISLAND",
        "state": "FL",
        "postalCode": "32003-7453"
      },
      {
        "line": [
          "2332 RIVERSIDE AVE"
        ],
        "city": "JACKSONVILLE",
        "state": "FL",
        "postalCode": "32204-4610"
      },
      {
        "line": [
          "4205 Belfort road, Suite 1100"
        ],
        "city": "JACKSONVILLE",
        "state": "FL",
        "postalCode": "32216-5876"
      },
      {
        "line": [
          "4203 Belfort Rd Ste 204"
        ],
        "city": "JACKSONVILLE",
        "state": "FL",
        "postalCode": "32216-1418"
      },
      {
        "line": [
          "9504 CROSSHILL BLVD",
          "STE 108"
        ],
        "city": "JACKSONVILLE",
        "state": "FL",
        "postalCode": "32222-5851"
      },
      {
        "line": [
          "2300 PARK AVE, STE 204"
        ],
        "city": "ORANGE PARK",
        "state": "FL",
        "postalCode": "32073-5573"
      },
      {
        "line": [
          "858 MONUMENT RD",
          "STE A"
        ],
        "city": "JACKSONVILLE",
        "state": "FL",
        "postalCode": "32225-6670"
      },
      {
        "line": [
          "4205 BELFORT RD, Suite 2065"
        ],
        "city": "JACKSONVILLE",
        "state": "FL",
        "postalCode": "32216-1473"
      },
      {
        "line": [
          "858 Monument Road, Suite A"
        ],
        "city": "JACKSONVILLE",
        "state": "FL",
        "postalCode": "32225-6670"
      },
      {
        "line": [
          "4205 Belfort Road, Suite 2069"
        ],
        "city": "JACKSONVILLE",
        "state": "FL",
        "postalCode": "32216-1471"
      },
      {
        "line": [
          "2 SHIRCLIFF WAY",
          "STE 920"
        ],
        "city": "JACKSONVILLE",
        "state": "FL",
        "postalCode": "32204-4753"
      },
      {
        "line": [
          "6699 GATE PKWY",
          "STE B"
        ],
        "city": "JACKSONVILLE",
        "state": "FL",
        "postalCode": "32256-8079"
      },
      {
        "line": [
          "10058 Baymeadows Road"
        ],
        "city": "JACKSONVILLE",
        "state": "FL",
        "postalCode": "32256-7177"
      }
    ],
    "extension": [
      {
        "url": "https://fhir.athena.io/StructureDefinition/ah-practice",
        "valueReference": {
          "reference": "Organization/a-1.Practice-8967"
        }
      },
      {
        "url": "https://fhir.athena.io/StructureDefinition/ah-brand",
        "valueReference": {
          "reference": "Organization/a-8967.Brand-3"
        }
      }
    ]
  },
  "fullUrl": "urn:uuid:0d6b14e2-77c3-5f15-ab1d-82fa1a0e37d6"
}