{
  "resource": {
    "resourceType": "Organization",
    "id": "53b28b25-1c83-5a51-bccb-282e1e760685",
    "name": "Dr Tauth Healthy Connections Mena",
    "endpoint": [
      {
        "reference": "Endpoint/27a4e967-47aa-5a9c-a572-b8297ee268a2"
      },
      {
        "reference": "Endpoint/6c869913-da6b-5d91-b039-059620020c8c"
      }
    ],
    "identifier": [
      {
        "system": "http://hl7.org/fhir/sid/us-npi",
        "value": "1568082840"
      }
    ],
    "address": [
      {
        "line": [
          "300 Werner St"
        ],
        "city": "HOT SPRINGS NATIONAL PARK",
        "state": "AR",
        "postalCode": "71913-6406"
      },
      {
        "line": [
          "552 GOLF LINKS RD"
        ],
        "city": "HOT SPRINGS NATIONAL PARK",
        "state": "AR",
        "postalCode": "71901-7917"
      },
      {
        "line": [
          "110 CRACKER BOX LN"
        ],
        "city": "HOT SPRINGS NATIONAL PARK",
        "state": "AR",
        "postalCode": "71913-5418"
      },
      {
        "line": [
          "300 Werner"
        ],
        "city": "HOT SPRINGS NATIONAL PARK",
        "state": "AR",
        "postalCode": "71913-6406"
      },
      {
        "line": [
          "110 CRACKERBOX LANE"
        ],
        "city": "HOT SPRINGS NATIONAL PARK",
        "state": "AR",
        "postalCode": "71913-5418"
      },
      {
        "line": [
          "215 Homewood Circle"
        ],
        "city": "MENA",
        "state": "AR",
        "postalCode": "71953-4338"
      },
      {
        "line": [
          "11 Crackerbox Lane"
        ],
        "city": "HOT SPRINGS NATIONAL PARK",
        "state": "AR",
        "postalCode": "71913-5418"
      },
      {
        "line": [
          "1636 HIGDON FERRY RD"
        ],
        "city": "HOT SPRINGS NATIONAL PARK",
        "state": "AR",
        "postalCode": "71913-6912"
      },
      {
        "line": [
          "136 HEALTH PARK DR"
        ],
        "city": "MENA",
        "state": "AR",
        "postalCode": "71953-9072"
      },
      {
        "line": [
          "110 Crackerbox lane"
        ],
        "city": "HOT SPRINGS NATIONAL PARK",
        "state": "AR",
        "postalCode": "71913-5418"
      }
    ],
    "extension": [
      {
        "url": "https://fhir.athena.io/StructureDefinition/ah-practice",
        "valueReference": {
          "reference": "Organization/a-1.Practice-21572"
        }
      },
      {
        "url": "https://fhir.athena.io/StructureDefinition/ah-brand",
        "valueReference": {
          "reference": "Organization/a-21572.Brand-1"
        }
      }
    ]
  },
  "fullUrl": "urn:uuid:53b28b25-1c83-5a51-bccb-282e1e760685"
}