{
  "resource": {
    "resourceType": "Organization",
    "id": "63deb2c2-ab7f-5480-a361-cf0d54f1f90b",
    "name": "Hendrick Clinic Cardiology",
    "endpoint": [
      {
        "reference": "Endpoint/27a4e967-47aa-5a9c-a572-b8297ee268a2"
      },
      {
        "reference": "Endpoint/bbfaf341-24b9-5bc2-b658-1ae193413a34"
      }
    ],
    "identifier": [
      {
        "system": "http://hl7.org/fhir/sid/us-npi",
        "value": "1396961322"
      },
      {
        "system": "http://hl7.org/fhir/sid/us-npi",
        "value": "1538656186"
      }
    ],
    "address": [
      {
        "line": [
          "1 Avenue N"
        ],
        "city": "HASKELL",
        "state": "TX",
        "postalCode": "79521-5415"
      },
      {
        "line": [
          "1680 ANTILLEY RD STE 270"
        ],
        "city": "ABILENE",
        "state": "TX",
        "postalCode": "79606-5247"
      },
      {
        "line": [
          "301 Jenny George Ln. Building B"
        ],
        "city": "SWEETWATER",
        "state": "TX",
        "postalCode": "79556-7120"
      },
      {
        "line": [
          "10201 HWY 16N"
        ],
        "city": "COMANCHE",
        "state": "TX",
        "postalCode": "76442-4462"
      },
      {
        "line": [
          "10201 Hwy 16 N"
        ],
        "city": "COMANCHE",
        "state": "TX",
        "postalCode": "76442-4462"
      },
      {
        "line": [
          "2008 NINE RD"
        ],
        "city": "BRADY",
        "state": "TX",
        "postalCode": "76825-7210"
      },
      {
        "line": [
          "1680 Antilley Rd. Ste. 270"
        ],
        "city": "ABILENE",
        "state": "TX",
        "postalCode": "79606-5247"
      },
      {
        "line": [
          "2001 HUTCHINS AVE STE B"
        ],
        "city": "BALLINGER",
        "state": "TX",
        "postalCode": "76821-4453"
      },
      {
        "line": [
          "203 S GENEVA ST"
        ],
        "city": "BRECKENRIDGE",
        "state": "TX",
        "postalCode": "76424-4701"
      },
      {
        "line": [
          "125 S PARK DR STE H"
        ],
        "city": "BROWNWOOD",
        "state": "TX",
        "postalCode": "76801-5952"
      },
      {
        "line": [
          "997 West Interstate 20"
        ],
        "city": "COLORADO CITY",
        "state": "TX",
        "postalCode": "79512-2685"
      },
      {
        "line": [
          "1601 Columbia"
        ],
        "city": "STAMFORD",
        "state": "TX",
        "postalCode": "79553-6863"
      },
      {
        "line": [
          "403 W Wallace St"
        ],
        "city": "SAN SABA",
        "state": "TX",
        "postalCode": "76877-4433"
      },
      {
        "line": [
          "304 S Daugherty"
        ],
        "city": "EASTLAND",
        "state": "TX",
        "postalCode": "76448-2609"
      },
      {
        "line": [
          "1201 N 18th St"
        ],
        "city": "ABILENE",
        "state": "TX",
        "postalCode": "79601-2932"
      },
      {
        "line": [
          "310 S. Pecos"
        ],
        "city": "COLEMAN",
        "state": "TX",
        "postalCode": "76834-4159"
      }
    ],
    "extension": [
      {
        "url": "https://fhir.athena.io/StructureDefinition/ah-practice",
        "valueReference": {
          "reference": "Organization/a-1.Practice-21794"
        }
      },
      {
        "url": "https://fhir.athena.io/StructureDefinition/ah-brand",
        "valueReference": {
          "reference": "Organization/a-21794.Brand-1"
        }
      }
    ]
  },
  "fullUrl": "urn:uuid:63deb2c2-ab7f-5480-a361-cf0d54f1f90b"
}