{
  "resource": {
    "resourceType": "Organization",
    "id": "b0236310-23f4-5869-b1e1-b3afdc251b77",
    "name": "Gastroenterology Specialists",
    "endpoint": [
      {
        "reference": "Endpoint/27a4e967-47aa-5a9c-a572-b8297ee268a2"
      },
      {
        "reference": "Endpoint/caf26148-9fe3-558b-a34c-44cf0acc3e15"
      }
    ],
    "identifier": [
      {
        "system": "http://hl7.org/fhir/sid/us-npi",
        "value": "1326651688"
      }
    ],
    "address": [
      {
        "line": [
          "10408 INDUSTRIAL CIR"
        ],
        "city": "REDLANDS",
        "state": "CA",
        "postalCode": "92374-4548"
      },
      {
        "line": [
          "8945 MAGNOLIA AVE STE 200"
        ],
        "city": "RIVERSIDE",
        "state": "CA",
        "postalCode": "92503-4436"
      },
      {
        "line": [
          "255 E BONITA AVE # BLD 3B"
        ],
        "city": "POMONA",
        "state": "CA",
        "postalCode": "91767-1923"
      },
      {
        "line": [
          "1805 MEDICAL CENTER DR"
        ],
        "city": "SAN BERNARDINO",
        "state": "CA",
        "postalCode": "92411-1217"
      },
      {
        "line": [
          "255 EAST BONITA AVENUE"
        ],
        "city": "POMONA",
        "state": "CA",
        "postalCode": "91767-1923"
      },
      {
        "line": [
          "9674 ARCHIBALD AVENUE"
        ],
        "city": "RANCHO CUCAMONGA",
        "state": "CA",
        "postalCode": "91730-7941"
      },
      {
        "line": [
          "8221 ROCHESTER AVE STE 130"
        ],
        "city": "RANCHO CUCAMONGA",
        "state": "CA",
        "postalCode": "91730-0721"
      },
      {
        "line": [
          "1800 WESTERN AVE STE 406"
        ],
        "city": "SAN BERNARDINO",
        "state": "CA",
        "postalCode": "92411-1355"
      },
      {
        "line": [
          "1281 W C ST"
        ],
        "city": "COLTON",
        "state": "CA",
        "postalCode": "92324-1916"
      },
      {
        "line": [
          "1211 W. 6TH ST."
        ],
        "city": "ONTARIO",
        "state": "CA",
        "postalCode": "91762-1103"
      },
      {
        "line": [
          "901 SAN BERNARDINO RD SUITE 202"
        ],
        "city": "UPLAND",
        "state": "CA",
        "postalCode": "91786-7299"
      },
      {
        "line": [
          "4511 CHINO HILLS PKWY STE C"
        ],
        "city": "CHINO HILLS",
        "state": "CA",
        "postalCode": "91709-5853"
      },
      {
        "line": [
          "8300 UTICA AVE",
          "SUITE 300"
        ],
        "city": "RANCHO CUCAMONGA",
        "state": "CA",
        "postalCode": "91730-0721"
      }
    ],
    "extension": [
      {
        "url": "https://fhir.athena.io/StructureDefinition/ah-practice",
        "valueReference": {
          "reference": "Organization/a-1.Practice-24495"
        }
      },
      {
        "url": "https://fhir.athena.io/StructureDefinition/ah-brand",
        "valueReference": {
          "reference": "Organization/a-24495.Brand-1"
        }
      }
    ]
  },
  "fullUrl": "urn:uuid:b0236310-23f4-5869-b1e1-b3afdc251b77"
}