{
  "resource": {
    "resourceType": "Organization",
    "id": "8558c124-4071-53e3-a6ef-0a2254cbf859",
    "name": "Central Texas Colon and Rectal Surgeons",
    "endpoint": [
      {
        "reference": "Endpoint/27a4e967-47aa-5a9c-a572-b8297ee268a2"
      },
      {
        "reference": "Endpoint/65466eee-dcb9-5c6f-819d-b7018e68b348"
      }
    ],
    "identifier": [
      {
        "system": "http://hl7.org/fhir/sid/us-npi",
        "value": "1528108792"
      }
    ],
    "address": [
      {
        "line": [
          "13915 NORTH MOPAC EXPWY, SUITE 100"
        ],
        "city": "AUSTIN",
        "state": "TX",
        "postalCode": "78728-6500"
      },
      {
        "line": [
          "12221 Renfert Way Ste 345"
        ],
        "city": "AUSTIN",
        "state": "TX",
        "postalCode": "78758-2401"
      },
      {
        "line": [
          "6818 Austin Center Blvd",
          "Suite 100"
        ],
        "city": "AUSTIN",
        "state": "TX",
        "postalCode": "78732-3199"
      },
      {
        "line": [
          "1401 Medical Parkway"
        ],
        "city": "CEDAR PARK",
        "state": "TX",
        "postalCode": "78613-7763"
      },
      {
        "line": [
          "1500 Red River St."
        ],
        "city": "AUSTIN",
        "state": "TX",
        "postalCode": "78701-1234"
      },
      {
        "line": [
          "1201 W LOUIS HENNA DR"
        ],
        "city": "ROUND ROCK",
        "state": "TX",
        "postalCode": "78681-2301"
      },
      {
        "line": [
          "11113 Research Blvd"
        ],
        "city": "AUSTIN",
        "state": "TX",
        "postalCode": "78759-5236"
      },
      {
        "line": [
          "4007 James Casey Ste D150"
        ],
        "city": "AUSTIN",
        "state": "TX",
        "postalCode": "78745-3346"
      },
      {
        "line": [
          "4106 Medical Parkway"
        ],
        "city": "AUSTIN",
        "state": "TX",
        "postalCode": "78756-3310"
      },
      {
        "line": [
          "7200 Wyoming Springs Ste 1400"
        ],
        "city": "ROUND ROCK",
        "state": "TX",
        "postalCode": "78681-4306"
      },
      {
        "line": [
          "4207 James Casey, Suite 201"
        ],
        "city": "AUSTIN",
        "state": "TX",
        "postalCode": "78745-1108"
      },
      {
        "line": [
          "16030 Park Valley Dr"
        ],
        "city": "ROUND ROCK",
        "state": "TX",
        "postalCode": "78681-3647"
      },
      {
        "line": [
          "1201 W Louis Henna Blvd"
        ],
        "city": "ROUND ROCK",
        "state": "TX",
        "postalCode": "78681-2301"
      }
    ],
    "extension": [
      {
        "url": "https://fhir.athena.io/StructureDefinition/ah-practice",
        "valueReference": {
          "reference": "Organization/a-1.Practice-14837"
        }
      },
      {
        "url": "https://fhir.athena.io/StructureDefinition/ah-brand",
        "valueReference": {
          "reference": "Organization/a-14837.Brand-2"
        }
      }
    ]
  },
  "fullUrl": "urn:uuid:8558c124-4071-53e3-a6ef-0a2254cbf859"
}