{
  "resource": {
    "resourceType": "Organization",
    "id": "d769e4c2-520f-50d2-bf59-bc9909113494",
    "name": "AHEARN ASSOCIATES MEDICAL CENTER, INC",
    "endpoint": [
      {
        "reference": "Endpoint/27a4e967-47aa-5a9c-a572-b8297ee268a2"
      },
      {
        "reference": "Endpoint/76bab37d-42e9-58d1-ac97-76cb28b016d3"
      }
    ],
    "identifier": [
      {
        "system": "http://hl7.org/fhir/sid/us-npi",
        "value": "1114036308"
      }
    ],
    "address": [
      {
        "line": [
          "1250 W CARL SANDBURG DR"
        ],
        "city": "GALESBURG",
        "state": "IL",
        "postalCode": "61401-1329"
      },
      {
        "line": [
          "8 DOCTORS LN"
        ],
        "city": "MACOMB",
        "state": "IL",
        "postalCode": "61455-3310"
      },
      {
        "line": [
          "1200 E PARTRIDGE ST"
        ],
        "city": "METAMORA",
        "state": "IL",
        "postalCode": "61548-9619"
      },
      {
        "line": [
          "409 NW 9th Avenue"
        ],
        "city": "ALEDO",
        "state": "IL",
        "postalCode": "61231-1258"
      },
      {
        "line": [
          "900 N 3RD ST"
        ],
        "city": "ROCHELLE",
        "state": "IL",
        "postalCode": "61068-1666"
      },
      {
        "line": [
          "141 Acorn Street"
        ],
        "city": "KEWANEE",
        "state": "IL",
        "postalCode": "61443-3361"
      },
      {
        "line": [
          "516 W FRECH ST"
        ],
        "city": "STREATOR",
        "state": "IL",
        "postalCode": "61364-1216"
      },
      {
        "line": [
          "515 Bureau Valley pky"
        ],
        "city": "PRINCETON",
        "state": "IL",
        "postalCode": "61356-2203"
      },
      {
        "line": [
          "833 16TH AVE"
        ],
        "city": "MOLINE",
        "state": "IL",
        "postalCode": "61265-3808"
      },
      {
        "line": [
          "519 Elliott Street",
          "Suite S1"
        ],
        "city": "KEWANEE",
        "state": "IL",
        "postalCode": "61443-2776"
      },
      {
        "line": [
          "4343 KENNEDY DR"
        ],
        "city": "EAST MOLINE",
        "state": "IL",
        "postalCode": "61244-4203"
      },
      {
        "line": [
          "1701 N BOWMAN AVENUE RD"
        ],
        "city": "DANVILLE",
        "state": "IL",
        "postalCode": "61832-2200"
      },
      {
        "line": [
          "275 E CARL SANDBURG DR"
        ],
        "city": "GALESBURG",
        "state": "IL",
        "postalCode": "61401-1249"
      },
      {
        "line": [
          "830 W TRAILCREEK DR"
        ],
        "city": "PEORIA",
        "state": "IL",
        "postalCode": "61614-1862"
      },
      {
        "line": [
          "101 E Via Ghiglieri St"
        ],
        "city": "TOLUCA",
        "state": "IL",
        "postalCode": "61369-9596"
      },
      {
        "line": [
          "1500 W Northmoor Rd"
        ],
        "city": "PEORIA",
        "state": "IL",
        "postalCode": "61614-3435"
      },
      {
        "line": [
          "519 ELLIOTT STREET",
          "SUITE S1"
        ],
        "city": "KEWANEE",
        "state": "IL",
        "postalCode": "61443-2776"
      },
      {
        "line": [
          "800 N MARKET ST"
        ],
        "city": "KNOXVILLE",
        "state": "IL",
        "postalCode": "61448-1096"
      },
      {
        "line": [
          "850 E 2ND STREET"
        ],
        "city": "EL PASO",
        "state": "IL",
        "postalCode": "61738-1309"
      },
      {
        "line": [
          "280 E LOSEY ST"
        ],
        "city": "GALESBURG",
        "state": "IL",
        "postalCode": "61401-2819"
      },
      {
        "line": [
          "3507 N Molleck Dr"
        ],
        "city": "PEORIA",
        "state": "IL",
        "postalCode": "61604-1013"
      },
      {
        "line": [
          "902 E ARNOLD ST"
        ],
        "city": "SANDWICH",
        "state": "IL",
        "postalCode": "60548-1119"
      },
      {
        "line": [
          "1021 N CARON RD"
        ],
        "city": "ROCHELLE",
        "state": "IL",
        "postalCode": "61068-9647"
      },
      {
        "line": [
          "715 E RAYMOND RD"
        ],
        "city": "WATSEKA",
        "state": "IL",
        "postalCode": "60970-9730"
      },
      {
        "line": [
          "900 CENTENNIAL DR"
        ],
        "city": "EAST PEORIA",
        "state": "IL",
        "postalCode": "61611-4928"
      },
      {
        "line": [
          "5600 N GLEN ELM DR"
        ],
        "city": "PEORIA",
        "state": "IL",
        "postalCode": "61614-4340"
      },
      {
        "line": [
          "1403 9TH AVENUE"
        ],
        "city": "SILVIS",
        "state": "IL",
        "postalCode": "61282-1757"
      },
      {
        "line": [
          "605 E CHURCH STREET"
        ],
        "city": "KEWANEE",
        "state": "IL",
        "postalCode": "61443-3503"
      },
      {
        "line": [
          "144 JUNIOR AVENUE"
        ],
        "city": "KEWANEE",
        "state": "IL",
        "postalCode": "61443-2554"
      },
      {
        "line": [
          "3601 16TH AVE"
        ],
        "city": "STERLING",
        "state": "IL",
        "postalCode": "61081-4059"
      },
      {
        "line": [
          "117 N Western Avenue"
        ],
        "city": "PEORIA",
        "state": "IL",
        "postalCode": "61604-5629"
      },
      {
        "line": [
          "304 SW 12TH ST"
        ],
        "city": "ALEDO",
        "state": "IL",
        "postalCode": "61231-2707"
      },
      {
        "line": [
          "highway 17 east"
        ],
        "city": "TOULON",
        "state": "IL",
        "postalCode": "61483-0249"
      },
      {
        "line": [
          "129 S 1ST AVE"
        ],
        "city": "CANTON",
        "state": "IL",
        "postalCode": "61520-2612"
      },
      {
        "line": [
          "401 9th St"
        ],
        "city": "LACON",
        "state": "IL",
        "postalCode": "61540-1140"
      },
      {
        "line": [
          "190 E QUEENWOOD RD"
        ],
        "city": "MORTON",
        "state": "IL",
        "postalCode": "61550-2926"
      },
      {
        "line": [
          "141 JUNIOR AVENUE"
        ],
        "city": "KEWANEE",
        "state": "IL",
        "postalCode": "61443-2507"
      }
    ],
    "extension": [
      {
        "url": "https://fhir.athena.io/StructureDefinition/ah-practice",
        "valueReference": {
          "reference": "Organization/a-1.Practice-5670"
        }
      },
      {
        "url": "https://fhir.athena.io/StructureDefinition/ah-brand",
        "valueReference": {
          "reference": "Organization/a-5670.Brand-1"
        }
      }
    ]
  },
  "fullUrl": "urn:uuid:d769e4c2-520f-50d2-bf59-bc9909113494"
}