{
  "resource": {
    "resourceType": "Organization",
    "id": "dde9e49b-49b7-5a26-a501-ffaaa7ded803",
    "name": "St. Peter's  Diabetes and Endocrine Care",
    "endpoint": [
      {
        "reference": "Endpoint/27a4e967-47aa-5a9c-a572-b8297ee268a2"
      },
      {
        "reference": "Endpoint/e390e632-aa3f-567b-a157-2f27e7c66d9b"
      }
    ],
    "identifier": [
      {
        "system": "http://hl7.org/fhir/sid/us-npi",
        "value": "1750626834"
      },
      {
        "system": "http://hl7.org/fhir/sid/us-npi",
        "value": "1538606181"
      }
    ],
    "address": [
      {
        "line": [
          "2 Empire Dr"
        ],
        "city": "RENSSELAER",
        "state": "NY",
        "postalCode": "12144-5730"
      },
      {
        "line": [
          "315 South Manning Blvd"
        ],
        "city": "ALBANY",
        "state": "NY",
        "postalCode": "12208-1707"
      },
      {
        "line": [
          "1270 Belmont Avenue"
        ],
        "city": "SCHENECTADY",
        "state": "NY",
        "postalCode": "12308-2104"
      },
      {
        "line": [
          "315 South Manning Blvd"
        ],
        "city": "Albany",
        "state": "NY",
        "postalCode": "12208-1707"
      },
      {
        "line": [
          "279 Troy Road"
        ],
        "city": "RENSSELAER",
        "state": "NY",
        "postalCode": "12144-9518"
      },
      {
        "line": [
          "279 Troy Rd"
        ],
        "city": "RENSSELAER",
        "state": "NY",
        "postalCode": "12144-9518"
      },
      {
        "line": [
          "55 Mohawk St"
        ],
        "city": "COHOES",
        "state": "NY",
        "postalCode": "12047-2629"
      },
      {
        "line": [
          "855 Rte 146",
          "Bldg B suite 150"
        ],
        "city": "CLIFTON PARK",
        "state": "NY",
        "postalCode": "12065-3874"
      },
      {
        "line": [
          "1101 Nott Street"
        ],
        "city": "SCHENECTADY",
        "state": "NY",
        "postalCode": "12308-2414"
      },
      {
        "line": [
          "63 Shaker Rd",
          "Suite 201"
        ],
        "city": "Albany",
        "state": "NY",
        "postalCode": "12204-1030"
      },
      {
        "line": [
          "5 Palisades Dr",
          "Suite 200"
        ],
        "city": "ALBANY",
        "state": "NY",
        "postalCode": "12205-6433"
      }
    ],
    "extension": [
      {
        "url": "https://fhir.athena.io/StructureDefinition/ah-practice",
        "valueReference": {
          "reference": "Organization/a-1.Practice-15557"
        }
      },
      {
        "url": "https://fhir.athena.io/StructureDefinition/ah-brand",
        "valueReference": {
          "reference": "Organization/a-15557.Brand-8"
        }
      }
    ]
  },
  "fullUrl": "urn:uuid:dde9e49b-49b7-5a26-a501-ffaaa7ded803"
}