{
  "resource": {
    "resourceType": "Organization",
    "id": "a865dfc0-a63c-5966-a095-c66a0e9ba4de",
    "name": "JACKSON",
    "endpoint": [
      {
        "reference": "Endpoint/27a4e967-47aa-5a9c-a572-b8297ee268a2"
      },
      {
        "reference": "Endpoint/c42c6f0a-0bc6-58f0-8d59-692e58f4ff41"
      }
    ],
    "identifier": [
      {
        "system": "http://hl7.org/fhir/sid/us-npi",
        "value": "1639818040"
      }
    ],
    "address": [
      {
        "line": [
          "101 RICKY D BRITT SR BLVD STE 2A"
        ],
        "city": "OXFORD",
        "state": "MS",
        "postalCode": "38655-9111"
      },
      {
        "line": [
          "101 RICKY D BRITT SR BLVD"
        ],
        "city": "OXFORD",
        "state": "MS",
        "postalCode": "38655-9103"
      },
      {
        "line": [
          "625 LAKELAND EAST DR"
        ],
        "city": "FLOWOOD",
        "state": "MS",
        "postalCode": "39232-8817"
      },
      {
        "line": [
          "115 N THOMAS ST STE D"
        ],
        "city": "TUPELO",
        "state": "MS",
        "postalCode": "38801-3082"
      },
      {
        "line": [
          "2405 MS-39 S",
          "Suite B"
        ],
        "city": "MERIDIAN",
        "state": "MS",
        "postalCode": "39301-0700"
      },
      {
        "line": [
          "203 S 40TH AVE"
        ],
        "city": "HATTIESBURG",
        "state": "MS",
        "postalCode": "39402-1604"
      },
      {
        "line": [
          "101 RICKY D BRITT SR BLVD",
          "STE 1A"
        ],
        "city": "OXFORD",
        "state": "MS",
        "postalCode": "38655-9111"
      },
      {
        "line": [
          "2210 PASS RD",
          "Unit B"
        ],
        "city": "GULFPORT",
        "state": "MS",
        "postalCode": "39501-4905"
      }
    ],
    "extension": [
      {
        "url": "https://fhir.athena.io/StructureDefinition/ah-practice",
        "valueReference": {
          "reference": "Organization/a-1.Practice-26304"
        }
      },
      {
        "url": "https://fhir.athena.io/StructureDefinition/ah-brand",
        "valueReference": {
          "reference": "Organization/a-26304.Brand-1"
        }
      }
    ]
  },
  "fullUrl": "urn:uuid:a865dfc0-a63c-5966-a095-c66a0e9ba4de"
}