{
  "resource": {
    "resourceType": "Organization",
    "id": "62c8379b-0e58-5bd3-8d55-f20b350a4113",
    "name": "MILLTOWN FAMILY MEDICINE LLC",
    "endpoint": [
      {
        "reference": "Endpoint/27a4e967-47aa-5a9c-a572-b8297ee268a2"
      },
      {
        "reference": "Endpoint/39dd724e-de46-5bb3-9fef-895bdea5bded"
      }
    ],
    "identifier": [
      {
        "system": "http://hl7.org/fhir/sid/us-npi",
        "value": "1073640645"
      }
    ],
    "address": [
      {
        "line": [
          "701 EAST MARSHALL STREET"
        ],
        "city": "WEST CHESTER",
        "state": "PA",
        "postalCode": "19380-4412"
      },
      {
        "line": [
          "1145 WEST KING ROAD"
        ],
        "city": "MALVERN",
        "state": "PA",
        "postalCode": "19345-0100"
      },
      {
        "line": [
          "470 MANOR AVENUE"
        ],
        "city": "DOWNINGTOWN",
        "state": "PA",
        "postalCode": "19335-2545"
      },
      {
        "line": [
          "490 MANOR AVE"
        ],
        "city": "DOWNINGTOWN",
        "state": "PA",
        "postalCode": "19335-2591"
      },
      {
        "line": [
          "201 REECEVILLE ROAD"
        ],
        "city": "COATESVILLE",
        "state": "PA",
        "postalCode": "19320-1542"
      },
      {
        "line": [
          "101 PLAZA DRIVE"
        ],
        "city": "DOWNINGTOWN",
        "state": "PA",
        "postalCode": "19335-5301"
      },
      {
        "line": [
          "3120 HORSESHOE PIKE"
        ],
        "city": "HONEY BROOK",
        "state": "PA",
        "postalCode": "19344-8666"
      },
      {
        "line": [
          "600 N. POTTSTOWN PIKE"
        ],
        "city": "EXTON",
        "state": "PA",
        "postalCode": "19341-1682"
      },
      {
        "line": [],
        "city": "DOWNINGTOWN",
        "state": "PA",
        "postalCode": "19335-3315"
      },
      {
        "line": [
          "219 REECEVILLE ROAD"
        ],
        "city": "COATESVILLE",
        "state": "PA",
        "postalCode": "19320-1546"
      }
    ],
    "extension": [
      {
        "url": "https://fhir.athena.io/StructureDefinition/ah-practice",
        "valueReference": {
          "reference": "Organization/a-1.Practice-4590"
        }
      },
      {
        "url": "https://fhir.athena.io/StructureDefinition/ah-brand",
        "valueReference": {
          "reference": "Organization/a-4590.Brand-1"
        }
      }
    ]
  },
  "fullUrl": "urn:uuid:62c8379b-0e58-5bd3-8d55-f20b350a4113"
}