{
  "resource": {
    "resourceType": "Organization",
    "id": "4f8eb3ad-8c35-591a-8246-baa1ffe5a6a7",
    "name": "Children's Blood and Cancer Center",
    "endpoint": [
      {
        "reference": "Endpoint/27a4e967-47aa-5a9c-a572-b8297ee268a2"
      },
      {
        "reference": "Endpoint/9cc18d86-9cfd-51f4-8362-613d94d57769"
      }
    ],
    "identifier": [
      {
        "system": "http://hl7.org/fhir/sid/us-npi",
        "value": "1588971477"
      },
      {
        "system": "http://hl7.org/fhir/sid/us-npi",
        "value": "1336456227"
      },
      {
        "system": "http://hl7.org/fhir/sid/us-npi",
        "value": "1326072943"
      },
      {
        "system": "http://hl7.org/fhir/sid/us-npi",
        "value": "1790103869"
      }
    ],
    "address": [
      {
        "line": [
          "1301 Barbara Jordan Blvd"
        ],
        "city": "AUSTIN",
        "state": "TX",
        "postalCode": "78723-3054"
      },
      {
        "line": [
          "1000 Hesters Crossing Rd"
        ],
        "city": "Round Rock",
        "state": "TX",
        "postalCode": "78681-8020"
      },
      {
        "line": [
          "5339 North Interstate 35 Frontage Rd, Ste 100"
        ],
        "city": "AUSTIN",
        "state": "TX",
        "postalCode": "78723-2428"
      },
      {
        "line": [
          "1301 Barbara Jordan Blvd",
          "Ste 401"
        ],
        "city": "AUSTIN",
        "state": "TX",
        "postalCode": "78723-3078"
      },
      {
        "line": [
          "4910 Mueller Blvd",
          "STE 300"
        ],
        "city": "AUSTIN",
        "state": "TX",
        "postalCode": "78723-3079"
      },
      {
        "line": [
          "1301 Barbara Jordan Blvd Ste 402"
        ],
        "city": "Austin",
        "state": "TX",
        "postalCode": "78723-3078"
      },
      {
        "line": [
          "1301 Barbara Jordan Blvd Ste 401"
        ],
        "city": "Austin",
        "state": "TX",
        "postalCode": "78723-3078"
      },
      {
        "line": [
          "1301 W 38th St Ste 113"
        ],
        "city": "Austin",
        "state": "TX",
        "postalCode": "78705-1010"
      },
      {
        "line": [
          "1301 Barbara Jordan Blvd Ste 301"
        ],
        "city": "Austin",
        "state": "TX",
        "postalCode": "78723-3078"
      },
      {
        "line": [
          "9010 N Lake Creek Pkwy",
          "BLDG 2 Suite 300"
        ],
        "city": "AUSTIN",
        "state": "TX",
        "postalCode": "78717-6217"
      },
      {
        "line": [
          "4910 Mueller Blvd",
          "STE 200"
        ],
        "city": "AUSTIN",
        "state": "TX",
        "postalCode": "78723-3079"
      },
      {
        "line": [
          "1301 Barbara Jordan Blvd Ste 307"
        ],
        "city": "Austin",
        "state": "TX",
        "postalCode": "78723-3080"
      },
      {
        "line": [
          "1301 Barbara Jordan Blvd Ste 400"
        ],
        "city": "Austin",
        "state": "TX",
        "postalCode": "78723-3078"
      }
    ],
    "extension": [
      {
        "url": "https://fhir.athena.io/StructureDefinition/ah-practice",
        "valueReference": {
          "reference": "Organization/a-1.Practice-8363"
        }
      },
      {
        "url": "https://fhir.athena.io/StructureDefinition/ah-brand",
        "valueReference": {
          "reference": "Organization/a-8363.Brand-1"
        }
      }
    ]
  },
  "fullUrl": "urn:uuid:4f8eb3ad-8c35-591a-8246-baa1ffe5a6a7"
}