{
  "resource": {
    "resourceType": "Organization",
    "id": "e966bea0-7f4d-56d5-908e-11746bff1129",
    "name": "2020 On-site",
    "endpoint": [
      {
        "reference": "Endpoint/27a4e967-47aa-5a9c-a572-b8297ee268a2"
      },
      {
        "reference": "Endpoint/0936c129-9a25-5365-a9e2-0daeb3fce34e"
      }
    ],
    "identifier": [
      {
        "system": "http://hl7.org/fhir/sid/us-npi",
        "value": "1457762890"
      },
      {
        "system": "http://hl7.org/fhir/sid/us-npi",
        "value": "1326460916"
      },
      {
        "system": "http://hl7.org/fhir/sid/us-npi",
        "value": "1376644831"
      },
      {
        "system": "http://hl7.org/fhir/sid/us-npi",
        "value": "1437158854"
      }
    ],
    "address": [
      {
        "line": [
          "399 Revolution Dr."
        ],
        "city": "SOMERVILLE",
        "state": "MA",
        "postalCode": "02145-1446"
      },
      {
        "line": [
          "3297 WASHINGTON ST"
        ],
        "city": "JAMAICA PLAIN",
        "state": "MA",
        "postalCode": "02130-2655"
      },
      {
        "line": [
          "415 Main St"
        ],
        "city": "CAMBRIDGE",
        "state": "MA",
        "postalCode": "02139-1027"
      },
      {
        "line": [
          "9 Oak Park Dr"
        ],
        "city": "BEDFORD",
        "state": "MA",
        "postalCode": "01730-1413"
      },
      {
        "line": [
          "One Financial Center"
        ],
        "city": "BOSTON",
        "state": "MA",
        "postalCode": "02110-2621"
      },
      {
        "line": [
          "770 Cochituate Road"
        ],
        "city": "FRAMINGHAM",
        "state": "MA",
        "postalCode": "01701-4666"
      },
      {
        "line": [
          "600 W Chicago Ave",
          "Suite 620"
        ],
        "city": "CHICAGO",
        "state": "IL",
        "postalCode": "60654-2284"
      },
      {
        "line": [
          "111 Huntington Ave"
        ],
        "city": "BOSTON",
        "state": "MA",
        "postalCode": "02199-7610"
      },
      {
        "line": [
          "2 Technology Dr"
        ],
        "city": "WESTBOROUGH",
        "state": "MA",
        "postalCode": "01581-1727"
      },
      {
        "line": [
          "311 ARSENAL ST"
        ],
        "city": "WATERTOWN",
        "state": "MA",
        "postalCode": "02472-2782"
      },
      {
        "line": [
          "20 10TH ST NW",
          "UNIT 1101"
        ],
        "city": "ATLANTA",
        "state": "GA",
        "postalCode": "30309-3868"
      },
      {
        "line": [
          "290 Congress St"
        ],
        "city": "BOSTON",
        "state": "MA",
        "postalCode": "02110-1033"
      },
      {
        "line": [
          "131 Dartmouth St"
        ],
        "city": "BOSTON",
        "state": "MA",
        "postalCode": "02116-5297"
      },
      {
        "line": [
          "900 Chelmsford Street",
          "Building 1"
        ],
        "city": "LOWELL",
        "state": "MA",
        "postalCode": "01851-8100"
      },
      {
        "line": [
          "131 Dartmouth"
        ],
        "city": "BOSTON",
        "state": "MA",
        "postalCode": "02116-5297"
      },
      {
        "line": [
          "220 Donald Lynch Boulevard"
        ],
        "city": "MARLBOROUGH",
        "state": "MA",
        "postalCode": "01752-4708"
      },
      {
        "line": [
          "675 Ponce de leon ave"
        ],
        "city": "ATLANTA",
        "state": "GA",
        "postalCode": "30313-1234"
      },
      {
        "line": [
          "12 Farnsworth St."
        ],
        "city": "BOSTON",
        "state": "MA",
        "postalCode": "02210-1224"
      },
      {
        "line": [
          "77 FOURTH AVE",
          "5TH FLOOR"
        ],
        "city": "WALTHAM",
        "state": "MA",
        "postalCode": "02451-7559"
      },
      {
        "line": [
          "251 Ballardvale St"
        ],
        "city": "WILMINGTON",
        "state": "MA",
        "postalCode": "01887-1096"
      },
      {
        "line": [
          "71 1st Ave"
        ],
        "city": "WALTHAM",
        "state": "MA",
        "postalCode": "02451-1105"
      },
      {
        "line": [
          "75 State Street",
          "26th Fl"
        ],
        "city": "BOSTON",
        "state": "MA",
        "postalCode": "02109-1827"
      },
      {
        "line": [
          "529 Pleasant St"
        ],
        "city": "ATTLEBORO",
        "state": "MA",
        "postalCode": "02703-2421"
      },
      {
        "line": [
          "333 W. Ohio Street"
        ],
        "city": "CHICAGO",
        "state": "IL",
        "postalCode": "60654-7809"
      },
      {
        "line": [
          "4200 Wildwood Pkwy"
        ],
        "city": "ATLANTA",
        "state": "GA",
        "postalCode": "30339-8402"
      },
      {
        "line": [
          "102 Christian Lane"
        ],
        "city": "SOUTH DEERFIELD",
        "state": "MA",
        "postalCode": "01373-7309"
      },
      {
        "line": [
          "965 Massachusetts Ave"
        ],
        "city": "BOSTON",
        "state": "MA",
        "postalCode": "02118-2613"
      },
      {
        "line": [
          "One Ocean Spray Drive"
        ],
        "city": "MIDDLEBORO",
        "state": "MA",
        "postalCode": "02349-1000"
      },
      {
        "line": [
          "16 Yankee Candle Way"
        ],
        "city": "SOUTH DEERFIELD",
        "state": "MA",
        "postalCode": "01373-7325"
      },
      {
        "line": [
          "79 Monroe Street"
        ],
        "city": "AMESBURY",
        "state": "MA",
        "postalCode": "01913-3204"
      },
      {
        "line": [
          "100 Technology Dr"
        ],
        "city": "CAMBRIDGE",
        "state": "MA",
        "postalCode": "02139-3585"
      }
    ],
    "extension": [
      {
        "url": "https://fhir.athena.io/StructureDefinition/ah-practice",
        "valueReference": {
          "reference": "Organization/a-1.Practice-17653"
        }
      },
      {
        "url": "https://fhir.athena.io/StructureDefinition/ah-brand",
        "valueReference": {
          "reference": "Organization/a-17653.Brand-1"
        }
      }
    ]
  },
  "fullUrl": "urn:uuid:e966bea0-7f4d-56d5-908e-11746bff1129"
}