{
  "resource": {
    "resourceType": "Organization",
    "id": "c9cc49f0-f52d-5506-8e03-530c036361f1",
    "name": "ALLEN HOSPITAL ER",
    "endpoint": [
      {
        "reference": "Endpoint/27a4e967-47aa-5a9c-a572-b8297ee268a2"
      },
      {
        "reference": "Endpoint/19b3ab5d-28da-582b-8eaf-bf755d85f5d6"
      }
    ],
    "identifier": [
      {
        "system": "http://hl7.org/fhir/sid/us-npi",
        "value": "1710064290"
      }
    ],
    "address": [
      {
        "line": [
          "2950 W SHAULIS ROAD"
        ],
        "city": "WATERLOO",
        "state": "IA",
        "postalCode": "50701-9702"
      },
      {
        "line": [
          "502 NORTH 9TH AVENUE"
        ],
        "city": "VINTON",
        "state": "IA",
        "postalCode": "52349-2234"
      },
      {
        "line": [
          "1300 10TH AVE SW STE B"
        ],
        "city": "WAVERLY",
        "state": "IA",
        "postalCode": "50677-3776"
      },
      {
        "line": [
          "1410 W DUNKERTON ROAD"
        ],
        "city": "WATERLOO",
        "state": "IA",
        "postalCode": "50703-1916"
      },
      {
        "line": [
          "604 3RD STREET SW"
        ],
        "city": "TRIPOLI",
        "state": "IA",
        "postalCode": "50676-9614"
      },
      {
        "line": [
          "936 VIKING ROAD",
          "STE 101"
        ],
        "city": "CEDAR FALLS",
        "state": "IA",
        "postalCode": "50613-9520"
      },
      {
        "line": [
          "1100 HWY 218 NORTH"
        ],
        "city": "LA PORTE CITY",
        "state": "IA",
        "postalCode": "50651-1031"
      },
      {
        "line": [
          "927 W 4TH ST"
        ],
        "city": "WATERLOO",
        "state": "IA",
        "postalCode": "50702-2801"
      },
      {
        "line": [
          "345 PARROTT STREET"
        ],
        "city": "APLINGTON",
        "state": "IA",
        "postalCode": "50604-1063"
      },
      {
        "line": [
          "325 21ST STREET NW"
        ],
        "city": "WAVERLY",
        "state": "IA",
        "postalCode": "50677-2019"
      },
      {
        "line": [
          "1223 PRAIRIE VIEW ROAD"
        ],
        "city": "CEDAR FALLS",
        "state": "IA",
        "postalCode": "50613-2500"
      },
      {
        "line": [
          "1825 LOGAN AVE"
        ],
        "city": "WATERLOO",
        "state": "IA",
        "postalCode": "50703-1916"
      },
      {
        "line": [
          "1922 FIFTH AVE. N.W."
        ],
        "city": "WAVERLY",
        "state": "IA",
        "postalCode": "50677-2019"
      },
      {
        "line": [
          "115 N. HILTON STREET"
        ],
        "city": "CLARKSVILLE",
        "state": "IA",
        "postalCode": "50619-7936"
      },
      {
        "line": [
          "235 N. MILL STREET"
        ],
        "city": "DENVER",
        "state": "IA",
        "postalCode": "50622-7720"
      }
    ],
    "extension": [
      {
        "url": "https://fhir.athena.io/StructureDefinition/ah-practice",
        "valueReference": {
          "reference": "Organization/a-1.Practice-27130"
        }
      },
      {
        "url": "https://fhir.athena.io/StructureDefinition/ah-brand",
        "valueReference": {
          "reference": "Organization/a-27130.Brand-1"
        }
      }
    ]
  },
  "fullUrl": "urn:uuid:c9cc49f0-f52d-5506-8e03-530c036361f1"
}