{
  "resource": {
    "resourceType": "Organization",
    "id": "ee0b4dba-c01a-5db0-a471-e2021daab5ac",
    "name": "Physicians Home Care of Texas",
    "endpoint": [
      {
        "reference": "Endpoint/27a4e967-47aa-5a9c-a572-b8297ee268a2"
      },
      {
        "reference": "Endpoint/8d3ca7f7-dd93-5b2e-9a5c-eba69c059171"
      }
    ],
    "identifier": [
      {
        "system": "http://hl7.org/fhir/sid/us-npi",
        "value": "1730412271"
      }
    ],
    "address": [
      {
        "line": [
          "1221 Graham Drive"
        ],
        "city": "TOMBALL",
        "state": "TX",
        "postalCode": "77375-6407"
      },
      {
        "line": [
          "19929 Chasewood Park Dr."
        ],
        "city": "HOUSTON",
        "state": "TX",
        "postalCode": "77070-1444"
      },
      {
        "line": [
          "609 South Pine Street"
        ],
        "city": "TOMBALL",
        "state": "TX",
        "postalCode": "77375-9999"
      },
      {
        "line": [
          "1701 Westview Blvd."
        ],
        "city": "CONROE",
        "state": "TX",
        "postalCode": "77304-1911"
      },
      {
        "line": [
          "27521 Calvert Road"
        ],
        "city": "TOMBALL",
        "state": "TX",
        "postalCode": "77377-6172"
      },
      {
        "line": [
          "431 Nursery Road",
          "Suite B300"
        ],
        "city": "SPRING",
        "state": "TX",
        "postalCode": "77380-9999"
      },
      {
        "line": [
          "17808 Lakecrest View Drive"
        ],
        "city": "CYPRESS",
        "state": "TX",
        "postalCode": "77433-4959"
      },
      {
        "line": [
          "11206 Wind Pine Lane"
        ],
        "city": "TOMBALL",
        "state": "TX",
        "postalCode": "77375-8340"
      },
      {
        "line": [
          "25206 Oakhurst Drive"
        ],
        "city": "SPRING",
        "state": "TX",
        "postalCode": "77386-1423"
      },
      {
        "line": [
          "500 River Pointe Drive"
        ],
        "city": "CONROE",
        "state": "TX",
        "postalCode": "77304-2802"
      },
      {
        "line": [
          "14520 Huffmeister"
        ],
        "city": "CYPRESS",
        "state": "TX",
        "postalCode": "77429-1826"
      },
      {
        "line": [
          "808 Inwood Street"
        ],
        "city": "TOMBALL",
        "state": "TX",
        "postalCode": "77375-4130"
      },
      {
        "line": [
          "10120 Louetta Road"
        ],
        "city": "HOUSTON",
        "state": "TX",
        "postalCode": "77070-2116"
      },
      {
        "line": [
          "15055 N Eldridge Parkway"
        ],
        "city": "CYPRESS",
        "state": "TX",
        "postalCode": "77429-3668"
      },
      {
        "line": [
          "608 S Conroe Medical Drive"
        ],
        "city": "CONROE",
        "state": "TX",
        "postalCode": "77304-9999"
      },
      {
        "line": [
          "23164 Landrum Village Drive"
        ],
        "city": "MONTGOMERY",
        "state": "TX",
        "postalCode": "77316-1843"
      },
      {
        "line": [
          "6327 Cypresswood Drive"
        ],
        "city": "SPRING",
        "state": "TX",
        "postalCode": "77379-8208"
      },
      {
        "line": [
          "25555 Decker Prairie Rosehill Rd"
        ],
        "city": "MAGNOLIA",
        "state": "TX",
        "postalCode": "77355-7915"
      },
      {
        "line": [
          "303 Lantern Bend Drive"
        ],
        "city": "HOUSTON",
        "state": "TX",
        "postalCode": "77090-2823"
      },
      {
        "line": [
          "27919 Johnson Road"
        ],
        "city": "TOMBALL",
        "state": "TX",
        "postalCode": "77375-9998"
      },
      {
        "line": [
          "6510 CYPRESSWOOD DR"
        ],
        "city": "SPRING",
        "state": "TX",
        "postalCode": "77379-9999"
      },
      {
        "line": [
          "5000 Cypresswood Drive"
        ],
        "city": "SPRING",
        "state": "TX",
        "postalCode": "77379-9999"
      },
      {
        "line": [
          "5600 Cypresswood Drive"
        ],
        "city": "SPRING",
        "state": "TX",
        "postalCode": "77379-8260"
      },
      {
        "line": [
          "19206 JUERGEN RD"
        ],
        "city": "TOMBALL",
        "state": "TX",
        "postalCode": "77377-5758"
      },
      {
        "line": [
          "11246 Fallbrook Drive"
        ],
        "city": "HOUSTON",
        "state": "TX",
        "postalCode": "77065-4273"
      },
      {
        "line": [
          "11424 Richmond Avenue"
        ],
        "city": "HOUSTON",
        "state": "TX",
        "postalCode": "77082-2519"
      },
      {
        "line": [
          "7450 Willow Chase Blvd."
        ],
        "city": "HOUSTON",
        "state": "TX",
        "postalCode": "77070-5867"
      },
      {
        "line": [
          "14050 Cutten Road"
        ],
        "city": "HOUSTON",
        "state": "TX",
        "postalCode": "77069-2229"
      },
      {
        "line": [
          "21126 Kirkland Wood Drive"
        ],
        "city": "HOUSTON",
        "state": "TX",
        "postalCode": "77095-2859"
      },
      {
        "line": [
          "8524 Cooperbrook Drive"
        ],
        "city": "HOUSTON",
        "state": "TX",
        "postalCode": "77095-4589"
      },
      {
        "line": [
          "450 n rivershire drive"
        ],
        "city": "CONROE",
        "state": "TX",
        "postalCode": "77304-9999"
      },
      {
        "line": [
          "505 Bering Drive"
        ],
        "city": "HOUSTON",
        "state": "TX",
        "postalCode": "77057-9999"
      },
      {
        "line": [
          "12102 Steepleway Blvd."
        ],
        "city": "HOUSTON",
        "state": "TX",
        "postalCode": "77065-4759"
      },
      {
        "line": [
          "903 Longmire Rd"
        ],
        "city": "CONROE",
        "state": "TX",
        "postalCode": "77304-1817"
      },
      {
        "line": [
          "13415 Medical Complex Drive"
        ],
        "city": "TOMBALL",
        "state": "TX",
        "postalCode": "77375-9999"
      },
      {
        "line": [
          "14902 Welcome Lane"
        ],
        "city": "HOUSTON",
        "state": "TX",
        "postalCode": "77014-1406"
      },
      {
        "line": [
          "520 Baker Drive"
        ],
        "city": "TOMBALL",
        "state": "TX",
        "postalCode": "77375-4121"
      },
      {
        "line": [
          "33417 Pinehurst Loop"
        ],
        "city": "MAGNOLIA",
        "state": "TX",
        "postalCode": "77355-8825"
      },
      {
        "line": [
          "201 BYBEE DR"
        ],
        "city": "CONROE",
        "state": "TX",
        "postalCode": "77301-2104"
      },
      {
        "line": [
          "9505 Northpointe Blvd"
        ],
        "city": "SPRING",
        "state": "TX",
        "postalCode": "77379-3799"
      },
      {
        "line": [
          "9922 Grant Road"
        ],
        "city": "HOUSTON",
        "state": "TX",
        "postalCode": "77070-4504"
      },
      {
        "line": [
          "7810 Trentway"
        ],
        "city": "HOUSTON",
        "state": "TX",
        "postalCode": "77040-6118"
      },
      {
        "line": [
          "17376 Northwest Freeway"
        ],
        "city": "HOUSTON",
        "state": "TX",
        "postalCode": "77040-1114"
      },
      {
        "line": [
          "11500 Fallbrook Drive"
        ],
        "city": "HOUSTON",
        "state": "TX",
        "postalCode": "77065-4281"
      }
    ],
    "extension": [
      {
        "url": "https://fhir.athena.io/StructureDefinition/ah-practice",
        "valueReference": {
          "reference": "Organization/a-1.Practice-3423"
        }
      },
      {
        "url": "https://fhir.athena.io/StructureDefinition/ah-brand",
        "valueReference": {
          "reference": "Organization/a-3423.Brand-1"
        }
      }
    ]
  },
  "fullUrl": "urn:uuid:ee0b4dba-c01a-5db0-a471-e2021daab5ac"
}