{
  "resource": {
    "resourceType": "Organization",
    "id": "0ccbe409-7f8b-5212-85a0-397bef657666",
    "name": "Complete Orthopedics",
    "endpoint": [
      {
        "reference": "Endpoint/27a4e967-47aa-5a9c-a572-b8297ee268a2"
      },
      {
        "reference": "Endpoint/145e20c9-e5e9-591a-b5ef-6ca0c3cc630c"
      }
    ],
    "identifier": [
      {
        "system": "http://hl7.org/fhir/sid/us-npi",
        "value": "1093150385"
      }
    ],
    "address": [
      {
        "line": [
          "10520 ROCKAWAY BEACH BLVD"
        ],
        "city": "ROCKAWAY PARK",
        "state": "NY",
        "postalCode": "11694-2645"
      },
      {
        "line": [
          "221 JERICHO TURNPIKE"
        ],
        "city": "SYOSSET",
        "state": "NY",
        "postalCode": "11791-4515"
      },
      {
        "line": [
          "4295 HEMPSTEAD TURNPIKE"
        ],
        "city": "BETHPAGE",
        "state": "NY",
        "postalCode": "11714-5713"
      },
      {
        "line": [
          "105 MEDFORD AVE ROUTE 112, SUITE A"
        ],
        "city": "PATCHOGUE",
        "state": "NY",
        "postalCode": "11772-1223"
      },
      {
        "line": [
          "301 E MAIN ST"
        ],
        "city": "BAY SHORE",
        "state": "NY",
        "postalCode": "11706-8408"
      },
      {
        "line": [
          "12 VANDERBILT DR"
        ],
        "city": "GREAT NECK",
        "state": "NY",
        "postalCode": "11020-1117"
      },
      {
        "line": [
          "127 E 107TH ST"
        ],
        "city": "NEW YORK",
        "state": "NY",
        "postalCode": "10029-3939"
      },
      {
        "line": [
          "1500 ROUTE 112"
        ],
        "city": "PORT JEFFERSON STATION",
        "state": "NY",
        "postalCode": "11776-8054"
      },
      {
        "line": [
          "100 E. 77TH STREET"
        ],
        "city": "NEW YORK",
        "state": "NY",
        "postalCode": "10075-1850"
      },
      {
        "line": [
          "1300 ROANOKE AVENUE"
        ],
        "city": "RIVERHEAD",
        "state": "NY",
        "postalCode": "11901-2031"
      },
      {
        "line": [
          "2500 NESCONSET HWY",
          "BUILDING 10D"
        ],
        "city": "STONY BROOK",
        "state": "NY",
        "postalCode": "11790-2553"
      },
      {
        "line": [
          "10005 ROOSEVELT AVE # 102"
        ],
        "city": "CORONA",
        "state": "NY",
        "postalCode": "11368-4880"
      },
      {
        "line": [
          "501 5TH AVENUE, SUITE 1203"
        ],
        "city": "NEW YORK",
        "state": "NY",
        "postalCode": "10017-6306"
      },
      {
        "line": [
          "1000 MONTAUK HIGHWAY"
        ],
        "city": "WEST ISLIP",
        "state": "NY",
        "postalCode": "11795-4927"
      },
      {
        "line": [
          "75 NORTH COUNTRY RD"
        ],
        "city": "PORT JEFFERSON",
        "state": "NY",
        "postalCode": "11777-2119"
      },
      {
        "line": [
          "50 NY 25 A"
        ],
        "city": "SMITHTOWN",
        "state": "NY",
        "postalCode": "11787-3448"
      },
      {
        "line": [
          "105 MEDFORD AVE"
        ],
        "city": "PATCHOGUE",
        "state": "NY",
        "postalCode": "11772-1223"
      },
      {
        "line": [
          "18 EAST 41ST STREET",
          "SUITE 406"
        ],
        "city": "NEW YORK",
        "state": "NY",
        "postalCode": "10017-6222"
      },
      {
        "line": [
          "1049 5TH AVE"
        ],
        "city": "NEW YORK",
        "state": "NY",
        "postalCode": "10028-0115"
      },
      {
        "line": [
          "200 BELLE TERRE RD"
        ],
        "city": "PORT JEFFERSON",
        "state": "NY",
        "postalCode": "11777-1928"
      },
      {
        "line": [
          "3075 VETERANS MEMORIAL HWY"
        ],
        "city": "RONKONKOMA",
        "state": "NY",
        "postalCode": "11779-7666"
      },
      {
        "line": [
          "22215 NORTHERN BLVD LLB SUITE A"
        ],
        "city": "BAYSIDE",
        "state": "NY",
        "postalCode": "11361-3678"
      },
      {
        "line": [
          "5221 LITTLE NECK PARKWAY"
        ],
        "city": "LITTLE NECK",
        "state": "NY",
        "postalCode": "11362-1836"
      },
      {
        "line": [
          "1646 BRENTWOOD RD"
        ],
        "city": "BRENTWOOD",
        "state": "NY",
        "postalCode": "11717-5534"
      },
      {
        "line": [
          "313 43RD ST"
        ],
        "city": "BROOKLYN",
        "state": "NY",
        "postalCode": "11232-3609"
      },
      {
        "line": [
          "989 WEST JERICHO TURNPIKE"
        ],
        "city": "SMITHTOWN",
        "state": "NY",
        "postalCode": "11787-1234"
      },
      {
        "line": [
          "1787 MIDDLE COUNTRY ROAD"
        ],
        "city": "CENTEREACH",
        "state": "NY",
        "postalCode": "11720-3507"
      },
      {
        "line": [
          "46 LITTLE EAST NECK ROAD"
        ],
        "city": "BABYLON",
        "state": "NY",
        "postalCode": "11702-2509"
      },
      {
        "line": [
          "9212 165TH ST"
        ],
        "city": "JAMAICA",
        "state": "NY",
        "postalCode": "11433-1104"
      },
      {
        "line": [
          "125 KENNEDY DR STE 300"
        ],
        "city": "HAUPPAUGE",
        "state": "NY",
        "postalCode": "11788-4017"
      },
      {
        "line": [
          "75 N. COUNTRY ROAD"
        ],
        "city": "PORT JEFFERSON",
        "state": "NY",
        "postalCode": "11777-2119"
      },
      {
        "line": [
          "970 WELLWOOD AVE"
        ],
        "city": "LINDENHURST",
        "state": "NY",
        "postalCode": "11757-1016"
      },
      {
        "line": [
          "45-64 FRANCIS LEWIS BLVD",
          "STE 200"
        ],
        "city": "BAYSIDE",
        "state": "NY",
        "postalCode": "11361-3085"
      },
      {
        "line": [
          "1333 ROANOKE AVE, SUITE 203 A"
        ],
        "city": "RIVERHEAD",
        "state": "NY",
        "postalCode": "11901-2029"
      }
    ],
    "extension": [
      {
        "url": "https://fhir.athena.io/StructureDefinition/ah-practice",
        "valueReference": {
          "reference": "Organization/a-1.Practice-21645"
        }
      },
      {
        "url": "https://fhir.athena.io/StructureDefinition/ah-brand",
        "valueReference": {
          "reference": "Organization/a-21645.Brand-1"
        }
      }
    ]
  },
  "fullUrl": "urn:uuid:0ccbe409-7f8b-5212-85a0-397bef657666"
}