{
  "resource": {
    "resourceType": "Organization",
    "id": "16d85276-89a7-5aed-ac5b-f02cd8002e3c",
    "name": "Cardiovascular Health Clinic",
    "endpoint": [
      {
        "reference": "Endpoint/27a4e967-47aa-5a9c-a572-b8297ee268a2"
      },
      {
        "reference": "Endpoint/42354828-baca-557e-869e-66c7585082dc"
      }
    ],
    "identifier": [
      {
        "system": "http://hl7.org/fhir/sid/us-npi",
        "value": "1215324553"
      }
    ],
    "address": [
      {
        "line": [
          "2015 W Broadway Ste 12C"
        ],
        "city": "ARDMORE",
        "state": "OK",
        "postalCode": "73401-1206"
      },
      {
        "line": [
          "1015 SW 4TH ST"
        ],
        "city": "OKLAHOMA CITY",
        "state": "OK",
        "postalCode": "73160-2404"
      },
      {
        "line": [
          "100 N 30TH ST"
        ],
        "city": "CLINTON",
        "state": "OK",
        "postalCode": "73601-3117"
      },
      {
        "line": [
          "101 WEST ASH STREET"
        ],
        "city": "CARNEGIE",
        "state": "OK",
        "postalCode": "73015-0060"
      },
      {
        "line": [
          "1810 KANSAS"
        ],
        "city": "WOODWARD",
        "state": "OK",
        "postalCode": "73801-2912"
      },
      {
        "line": [
          "800 SHARE DRIVE, STE 100"
        ],
        "city": "ALVA",
        "state": "OK",
        "postalCode": "73717-3618"
      },
      {
        "line": [
          "1315 N WASHINGTON AVE"
        ],
        "city": "WEATHERFORD",
        "state": "OK",
        "postalCode": "73096-2443"
      },
      {
        "line": [
          "420 S 22ND STREET"
        ],
        "city": "CHICKASHA",
        "state": "OK",
        "postalCode": "73018-2736"
      },
      {
        "line": [
          "106 BURR AVE"
        ],
        "city": "PAULS VALLEY",
        "state": "OK",
        "postalCode": "73075-6610"
      },
      {
        "line": [
          "3200 QUAIL SPRINGS PKWY STE 200"
        ],
        "city": "OKLAHOMA CITY",
        "state": "OK",
        "postalCode": "73134-2699"
      },
      {
        "line": [
          "9800 BROADWAY EXT STE 200"
        ],
        "city": "OKLAHOMA CITY",
        "state": "OK",
        "postalCode": "73114-6304"
      },
      {
        "line": [
          "3201 N VAN BUREN ST STE 500"
        ],
        "city": "ENID",
        "state": "OK",
        "postalCode": "73703-1813"
      },
      {
        "line": [
          "112 E LUELLEN RD"
        ],
        "city": "HINTON",
        "state": "OK",
        "postalCode": "73047-9524"
      },
      {
        "line": [
          "4400 GRANT BLVD"
        ],
        "city": "YUKON",
        "state": "OK",
        "postalCode": "73099-0037"
      },
      {
        "line": [
          "38509 HIGHWAY 7 W"
        ],
        "city": "DAVIS",
        "state": "OK",
        "postalCode": "73030-9619"
      },
      {
        "line": [
          "221 SOUTH GRAND"
        ],
        "city": "CHEROKEE",
        "state": "OK",
        "postalCode": "73728-2029"
      }
    ],
    "extension": [
      {
        "url": "https://fhir.athena.io/StructureDefinition/ah-practice",
        "valueReference": {
          "reference": "Organization/a-1.Practice-23723"
        }
      },
      {
        "url": "https://fhir.athena.io/StructureDefinition/ah-brand",
        "valueReference": {
          "reference": "Organization/a-23723.Brand-1"
        }
      }
    ]
  },
  "fullUrl": "urn:uuid:16d85276-89a7-5aed-ac5b-f02cd8002e3c"
}