{
  "resource": {
    "resourceType": "Organization",
    "id": "7a50b6e1-b9bc-5b7a-a66a-4c474ad81ac7",
    "name": "ADMIN",
    "endpoint": [
      {
        "reference": "Endpoint/27a4e967-47aa-5a9c-a572-b8297ee268a2"
      },
      {
        "reference": "Endpoint/d5e3e300-b25f-55ee-a0e4-9415fed8ed6b"
      }
    ],
    "identifier": [
      {
        "system": "http://hl7.org/fhir/sid/us-npi",
        "value": "1598965667"
      }
    ],
    "address": [
      {
        "line": [
          "12225 Shale Ridge lane"
        ],
        "city": "AUBURN",
        "state": "CA",
        "postalCode": "95602-8870"
      },
      {
        "line": [
          "4635 College Oaks Dr"
        ],
        "city": "SACRAMENTO",
        "state": "CA",
        "postalCode": "95841-0041"
      },
      {
        "line": [
          "3529 Walnut Ave."
        ],
        "city": "CARMICHAEL",
        "state": "CA",
        "postalCode": "95608-3049"
      },
      {
        "line": [
          "3275 Villa Lane"
        ],
        "city": "NAPA",
        "state": "CA",
        "postalCode": "94558-3016"
      },
      {
        "line": [
          "2600 L St"
        ],
        "city": "SACRAMENTO",
        "state": "CA",
        "postalCode": "95841-5612"
      },
      {
        "line": [
          "6608 MERCY CT"
        ],
        "city": "FAIR OAKS",
        "state": "CA",
        "postalCode": "95628-3170"
      },
      {
        "line": [
          "1139 Cirby Way"
        ],
        "city": "ROSEVILLE",
        "state": "CA",
        "postalCode": "95661-4421"
      },
      {
        "line": [
          "625 Cottonwood St"
        ],
        "city": "WOODLAND",
        "state": "CA",
        "postalCode": "95695-3614"
      },
      {
        "line": [
          "3400 Bell Road"
        ],
        "city": "AUBURN",
        "state": "CA",
        "postalCode": "95603-9241"
      },
      {
        "line": [
          "8151 Bruceville rd"
        ],
        "city": "SACRAMENTO",
        "state": "CA",
        "postalCode": "95823-2300"
      },
      {
        "line": [
          "1550 3rd st"
        ],
        "city": "Lincoln",
        "state": "CA",
        "postalCode": "95648-1576"
      },
      {
        "line": [
          "2410 Del Paso Rd"
        ],
        "city": "SACRAMENTO",
        "state": "CA",
        "postalCode": "95819-2410"
      },
      {
        "line": [
          "501 JESSIE AVE"
        ],
        "city": "SACRAMENTO",
        "state": "CA",
        "postalCode": "95838-2608"
      },
      {
        "line": [
          "841 Sterling Park Way",
          " Suite 120"
        ],
        "city": "LINCOLN",
        "state": "CA",
        "postalCode": "95648-2521"
      },
      {
        "line": [
          "1161 Cirby Way"
        ],
        "city": "ROSEVILLE",
        "state": "CA",
        "postalCode": "95661-4421"
      },
      {
        "line": [
          "1617 Ramirez St"
        ],
        "city": "MARYSVILLE",
        "state": "CA",
        "postalCode": "95901-4334"
      },
      {
        "line": [
          "1550 3rd St"
        ],
        "city": "LINCOLN",
        "state": "CA",
        "postalCode": "95648-1576"
      },
      {
        "line": [
          "3529 Walnut Ave"
        ],
        "city": "CARMICHAEL",
        "state": "CA",
        "postalCode": "95608-3409"
      },
      {
        "line": [
          "5255 Hemlock St"
        ],
        "city": "SACRAMENTO",
        "state": "CA",
        "postalCode": "95841-3017"
      },
      {
        "line": [
          "5255 Hemlock St."
        ],
        "city": "SACRAMENTO",
        "state": "CA",
        "postalCode": "95841-3017"
      },
      {
        "line": [
          "321 W Turner Rd"
        ],
        "city": "LODI",
        "state": "CA",
        "postalCode": "95240-0517"
      },
      {
        "line": [
          "1075 Fulton Ave."
        ],
        "city": "SACRAMENTO",
        "state": "CA",
        "postalCode": "95825-4206"
      },
      {
        "line": [
          "1617 RAMIREZ ST"
        ],
        "city": "MARYSVILLE",
        "state": "CA",
        "postalCode": "95901-4334"
      },
      {
        "line": [
          "6608 Mercy Ct"
        ],
        "city": "FAIR OAKS",
        "state": "CA",
        "postalCode": "95628-3170"
      },
      {
        "line": [
          "110 Sterling Ct."
        ],
        "city": "ROSEVILLE",
        "state": "CA",
        "postalCode": "95661-3750"
      },
      {
        "line": [
          "260 Racetrack st"
        ],
        "city": "AUBURN",
        "state": "CA",
        "postalCode": "95603-5422"
      },
      {
        "line": [
          "1220 Plumas St."
        ],
        "city": "YUBA CITY",
        "state": "CA",
        "postalCode": "95991-3411"
      },
      {
        "line": [
          "2540 CARMICHAEL WAY"
        ],
        "city": "CARMICHAEL",
        "state": "CA",
        "postalCode": "95608-5314"
      },
      {
        "line": [
          "1200 Springfield Drive"
        ],
        "city": "CHICO",
        "state": "CA",
        "postalCode": "95928-6340"
      },
      {
        "line": [
          "1220 PLUMAS ST"
        ],
        "city": "YUBA CITY",
        "state": "CA",
        "postalCode": "95991-3411"
      },
      {
        "line": [
          "3280 Washington St."
        ],
        "city": "PLACERVILLE",
        "state": "CA",
        "postalCode": "95667-5838"
      },
      {
        "line": [
          "3400 ALTA ARDEN EXPY"
        ],
        "city": "SACRAMENTO",
        "state": "CA",
        "postalCode": "95825-2103"
      },
      {
        "line": [
          "3700 H St."
        ],
        "city": "SACRAMENTO",
        "state": "CA",
        "postalCode": "95816-4611"
      },
      {
        "line": [
          "1517 Knickerbocker Dr"
        ],
        "city": "STOCKTON",
        "state": "CA",
        "postalCode": "95210-3119"
      },
      {
        "line": [
          "396 DORSEY DR"
        ],
        "city": "GRASS VALLEY",
        "state": "CA",
        "postalCode": "95945-5368"
      },
      {
        "line": [
          "12225 Shale Ridge Lane"
        ],
        "city": "AUBURN",
        "state": "CA",
        "postalCode": "95602-8870"
      },
      {
        "line": [
          "2600 L St."
        ],
        "city": "SACRAMENTO",
        "state": "CA",
        "postalCode": "95841-5612"
      },
      {
        "line": [
          "602 FALCON WAY"
        ],
        "city": "ROSEVILLE",
        "state": "CA",
        "postalCode": "95661-3606"
      },
      {
        "line": [
          "678 3rd st."
        ],
        "city": "WOODLAND",
        "state": "CA",
        "postalCode": "95695-4034"
      },
      {
        "line": [
          "841 Sterling park way",
          "suite 120"
        ],
        "city": "LINCOLN",
        "state": "CA",
        "postalCode": "95648-2521"
      },
      {
        "line": [
          "3700 H St"
        ],
        "city": "SACRAMENTO",
        "state": "CA",
        "postalCode": "95816-4611"
      },
      {
        "line": [
          "260 Racetrack St."
        ],
        "city": "AUBURN",
        "state": "CA",
        "postalCode": "95603-5422"
      },
      {
        "line": [
          "135 Woodland Ave."
        ],
        "city": "WOODLAND",
        "state": "CA",
        "postalCode": "95695-2701"
      },
      {
        "line": [
          "9000 LARKIN RD"
        ],
        "city": "LIVE OAK",
        "state": "CA",
        "postalCode": "95953-9599"
      },
      {
        "line": [
          "3900 GARFIELD AVE"
        ],
        "city": "CARMICHAEL",
        "state": "CA",
        "postalCode": "95608-6647"
      },
      {
        "line": [
          "5959 Greenback lane, Ste 210"
        ],
        "city": "CITRUS HEIGHTS",
        "state": "CA",
        "postalCode": "95621-4700"
      },
      {
        "line": [
          "ATTN # 25174M"
        ],
        "city": "BELFAST",
        "state": "ME",
        "postalCode": "04915-4033"
      },
      {
        "line": [
          "8151 Bruceville Rd"
        ],
        "city": "SACRAMENTO",
        "state": "CA",
        "postalCode": "95823-2300"
      },
      {
        "line": [
          "1040 Marshall Way."
        ],
        "city": "PLACERVILLE",
        "state": "CA",
        "postalCode": "95667-5706"
      },
      {
        "line": [
          "2290 Forrest Lane."
        ],
        "city": "YUBA CITY",
        "state": "CA",
        "postalCode": "95993-9340"
      }
    ],
    "extension": [
      {
        "url": "https://fhir.athena.io/StructureDefinition/ah-practice",
        "valueReference": {
          "reference": "Organization/a-1.Practice-19797"
        }
      },
      {
        "url": "https://fhir.athena.io/StructureDefinition/ah-brand",
        "valueReference": {
          "reference": "Organization/a-19797.Brand-1"
        }
      }
    ]
  },
  "fullUrl": "urn:uuid:7a50b6e1-b9bc-5b7a-a66a-4c474ad81ac7"
}