{
  "resource": {
    "resourceType": "Organization",
    "id": "c1cf730a-fab8-532e-b907-39d2317a215a",
    "name": "A A Pain and Spine Institute a division of Redefine Healthcare",
    "endpoint": [
      {
        "reference": "Endpoint/27a4e967-47aa-5a9c-a572-b8297ee268a2"
      },
      {
        "reference": "Endpoint/b0eae396-d3cf-544d-9a6f-cb813521473b"
      }
    ],
    "identifier": [
      {
        "system": "http://hl7.org/fhir/sid/us-npi",
        "value": "1922771377"
      }
    ],
    "address": [
      {
        "line": [
          "922 Main Street",
          "Ste 201"
        ],
        "city": "PATERSON",
        "state": "NJ",
        "postalCode": "07503-2602"
      },
      {
        "line": [
          "3535 QUAKERBRIDGE RD STE 200"
        ],
        "city": "Hamilton",
        "state": "NJ",
        "postalCode": "08619-1200"
      },
      {
        "line": [
          "80 BROAD ST STE 1401"
        ],
        "city": "NEW YORK",
        "state": "NY",
        "postalCode": "10004-2249"
      },
      {
        "line": [
          "20 Prospect Ave",
          "Suite 905"
        ],
        "city": "Hackensack",
        "state": "NJ",
        "postalCode": "07601-1974"
      },
      {
        "line": [
          "70 Hatfield Ln",
          "Ste 201"
        ],
        "city": "Goshen",
        "state": "NY",
        "postalCode": "10924-6735"
      },
      {
        "line": [
          "2500 MORRIS AVE STE 220"
        ],
        "city": "UNION",
        "state": "NJ",
        "postalCode": "07083-5675"
      },
      {
        "line": [
          "860 ROUTE 168 STE 104"
        ],
        "city": "Turnersville",
        "state": "NJ",
        "postalCode": "08012-3224"
      },
      {
        "line": [
          "2271 Hwy 33",
          "Suite 103"
        ],
        "city": "Hamilton",
        "state": "NJ",
        "postalCode": "08690-1749"
      },
      {
        "line": [
          "1000 W MAIN ST STE 201"
        ],
        "city": "FREEHOLD",
        "state": "NJ",
        "postalCode": "07728-2521"
      },
      {
        "line": [
          "1200 DELAFIELD ST"
        ],
        "city": "WAUKESHA",
        "state": "WI",
        "postalCode": "53188-3430"
      },
      {
        "line": [
          "300 CENTRAL AVE FL 3",
          "Family Health Center"
        ],
        "city": "EAST ORANGE",
        "state": "NJ",
        "postalCode": "07018-2819"
      },
      {
        "line": [
          "2466 E CHESTNUT AVE",
          "Suite 2"
        ],
        "city": "VINELAND",
        "state": "NJ",
        "postalCode": "08361-8486"
      },
      {
        "line": [
          "1400 ROUTE 70 E"
        ],
        "city": "CHERRY HILL",
        "state": "NJ",
        "postalCode": "08034-2240"
      },
      {
        "line": [
          "10 PARSONAGE RD",
          "STE 500"
        ],
        "city": "EDISON",
        "state": "NJ",
        "postalCode": "08837-2475"
      },
      {
        "line": [
          "2A PRINCESS RD STE 200 FL 2"
        ],
        "city": "LAWRENCE TOWNSHIP",
        "state": "NJ",
        "postalCode": "08648-2302"
      },
      {
        "line": [
          "901 West Main Street",
          "Suite 240"
        ],
        "city": "Freehold",
        "state": "NJ",
        "postalCode": "07728-2579"
      },
      {
        "line": [
          "836 BROADWAY"
        ],
        "city": "BAYONNE",
        "state": "NJ",
        "postalCode": "07002-2970"
      },
      {
        "line": [
          "146 N STATE RT 17 STE 1"
        ],
        "city": "HACKENSACK",
        "state": "NJ",
        "postalCode": "07601-1071"
      },
      {
        "line": [
          "185 Fairfield Ave",
          "Unit 2A"
        ],
        "city": "West Caldwell",
        "state": "NJ",
        "postalCode": "07006-6426"
      },
      {
        "line": [
          "10 Parsonage Road",
          "Ste 208"
        ],
        "city": "EDISON",
        "state": "NJ",
        "postalCode": "08837-2429"
      },
      {
        "line": [
          "3100 HINGSTON AVE STE 104"
        ],
        "city": "EGG HARBOR TOWNSHIP",
        "state": "NJ",
        "postalCode": "08234-4409"
      },
      {
        "line": [
          "10 Parsonage Road",
          "Ste 208"
        ],
        "city": "Edison",
        "state": "NJ",
        "postalCode": "08837-2429"
      },
      {
        "line": [
          "10 FORRESTAL RD S STE 105 FL 1"
        ],
        "city": "PRINCETON",
        "state": "NJ",
        "postalCode": "08540-6666"
      },
      {
        "line": [
          "922 Main Street",
          "Ste 201"
        ],
        "city": "Paterson",
        "state": "NJ",
        "postalCode": "07503-2602"
      },
      {
        "line": [
          "2500 Morris Avenue",
          "Ste 220"
        ],
        "city": "UNION",
        "state": "NJ",
        "postalCode": "07083-5675"
      },
      {
        "line": [
          "3540 JOHN F KENNEDY BLVD"
        ],
        "city": "JERSEY CITY",
        "state": "NJ",
        "postalCode": "07307-3450"
      },
      {
        "line": [
          "146 N STATE RT 17 FL2"
        ],
        "city": "HACKENSACK",
        "state": "NJ",
        "postalCode": "07601-1071"
      },
      {
        "line": [
          "445 Pleasant Valley Way"
        ],
        "city": "West Orange",
        "state": "NJ",
        "postalCode": "07052-2919"
      },
      {
        "line": [
          "2500 MORRIS AVE"
        ],
        "city": "UNION",
        "state": "NJ",
        "postalCode": "07083-5675"
      },
      {
        "line": [
          "2501 KUSER RD STE 3"
        ],
        "city": "Hamilton",
        "state": "NJ",
        "postalCode": "08691-3386"
      },
      {
        "line": [
          "2500 Morris Avenue",
          "Ste 220"
        ],
        "city": "Union",
        "state": "NJ",
        "postalCode": "07083-5675"
      },
      {
        "line": [
          "350 FORSGATE DR STE 102"
        ],
        "city": "MONROE TOWNSHIP",
        "state": "NJ",
        "postalCode": "08831-5155"
      },
      {
        "line": [
          "1001 LAUREL OAK RD STE A2"
        ],
        "city": "VOORHEES",
        "state": "NJ",
        "postalCode": "08043-3512"
      },
      {
        "line": [
          "113 W Essex St",
          "Ste 204"
        ],
        "city": "Maywood",
        "state": "NJ",
        "postalCode": "07607-1023"
      }
    ],
    "extension": [
      {
        "url": "https://fhir.athena.io/StructureDefinition/ah-practice",
        "valueReference": {
          "reference": "Organization/a-1.Practice-21449"
        }
      },
      {
        "url": "https://fhir.athena.io/StructureDefinition/ah-brand",
        "valueReference": {
          "reference": "Organization/a-21449.Brand-1"
        }
      }
    ]
  },
  "fullUrl": "urn:uuid:c1cf730a-fab8-532e-b907-39d2317a215a"
}