{
  "resource": {
    "resourceType": "Organization",
    "id": "fa4f7706-a5f3-5ac3-9e3f-f41a069e8c5d",
    "name": "BONE DRs Orthopedic Care",
    "endpoint": [
      {
        "reference": "Endpoint/27a4e967-47aa-5a9c-a572-b8297ee268a2"
      },
      {
        "reference": "Endpoint/7982e700-88e5-5d06-b142-a54ec96ab25a"
      }
    ],
    "identifier": [
      {
        "system": "http://hl7.org/fhir/sid/us-npi",
        "value": "1225647233"
      }
    ],
    "address": [
      {
        "line": [
          "150 SETTLEMENT DR STE B"
        ],
        "city": "BASTROP",
        "state": "TX",
        "postalCode": "78602-9662"
      },
      {
        "line": [
          "1619 E COMMON ST STE 1004"
        ],
        "city": "NEW BRAUNFELS",
        "state": "TX",
        "postalCode": "78130-3462"
      },
      {
        "line": [
          "12221 N MOPAC EXPY"
        ],
        "city": "AUSTIN",
        "state": "TX",
        "postalCode": "78758-2401"
      },
      {
        "line": [
          "1301 Wonder World Dr",
          "STE 203"
        ],
        "city": "SAN MARCOS",
        "state": "TX",
        "postalCode": "78666-7533"
      },
      {
        "line": [
          "1619 E COMMON ST STE 1004B"
        ],
        "city": "NEW BRAUNFELS",
        "state": "TX",
        "postalCode": "78130-3462"
      },
      {
        "line": [
          "1301 Wonder World Dr"
        ],
        "city": "SAN MARCOS",
        "state": "TX",
        "postalCode": "78666-7533"
      },
      {
        "line": [
          "1305 WONDER WORLD DR STE 100"
        ],
        "city": "SAN MARCOS",
        "state": "TX",
        "postalCode": "78666-7502"
      },
      {
        "line": [
          "747 Highway 71 W Suite B-200"
        ],
        "city": "BASTROP",
        "state": "TX",
        "postalCode": "78602-0346"
      },
      {
        "line": [
          "4316 JAMES CASEY ST BLDG F STE 201"
        ],
        "city": "AUSTIN",
        "state": "TX",
        "postalCode": "78745-1116"
      },
      {
        "line": [
          "3107 OAK CREEK DR STE 100"
        ],
        "city": "AUSTIN",
        "state": "TX",
        "postalCode": "78727-3025"
      },
      {
        "line": [
          "901 W Ben White BLVD"
        ],
        "city": "AUSTIN",
        "state": "TX",
        "postalCode": "78704-6903"
      },
      {
        "line": [
          "1601 TRINITY STREET",
          "BLDG A; SUITE 1.106"
        ],
        "city": "AUSTIN",
        "state": "TX",
        "postalCode": "78712-1766"
      },
      {
        "line": [
          "1305 Wonder World Dr",
          "Suite 100"
        ],
        "city": "SAN MARCOS",
        "state": "TX",
        "postalCode": "78666-7540"
      },
      {
        "line": [
          "4207 James Casey, Suite 203"
        ],
        "city": "AUSTIN",
        "state": "TX",
        "postalCode": "78745-1192"
      },
      {
        "line": [
          "2501 W WILLIAM CANNON DR STE 301"
        ],
        "city": "AUSTIN",
        "state": "TX",
        "postalCode": "78745-5256"
      },
      {
        "line": [
          "1305 WONDER WORLD DR STE 301"
        ],
        "city": "SAN MARCOS",
        "state": "TX",
        "postalCode": "78666-7541"
      },
      {
        "line": [
          "1009 W SAN ANTONIO ST"
        ],
        "city": "LOCKHART",
        "state": "TX",
        "postalCode": "78644-2421"
      },
      {
        "line": [
          "1305 Wonder World Dr",
          "Suite 203"
        ],
        "city": "SAN MARCOS",
        "state": "TX",
        "postalCode": "78666-7540"
      },
      {
        "line": [
          "1891 Medical Parkway"
        ],
        "city": "SAN MARCOS",
        "state": "TX",
        "postalCode": "78666-7559"
      },
      {
        "line": [
          "1601 TRINITY ST"
        ],
        "city": "AUSTIN",
        "state": "TX",
        "postalCode": "78712-1765"
      },
      {
        "line": [
          "1201 W 38TH ST"
        ],
        "city": "AUSTIN",
        "state": "TX",
        "postalCode": "78705-1006"
      },
      {
        "line": [
          "4316 JAMES CASEY ST. BLDG F, STE 201"
        ],
        "city": "AUSTIN",
        "state": "TX",
        "postalCode": "78745-1116"
      }
    ],
    "extension": [
      {
        "url": "https://fhir.athena.io/StructureDefinition/ah-practice",
        "valueReference": {
          "reference": "Organization/a-1.Practice-22579"
        }
      },
      {
        "url": "https://fhir.athena.io/StructureDefinition/ah-brand",
        "valueReference": {
          "reference": "Organization/a-22579.Brand-1"
        }
      }
    ]
  },
  "fullUrl": "urn:uuid:fa4f7706-a5f3-5ac3-9e3f-f41a069e8c5d"
}