{
  "resource": {
    "resourceType": "Organization",
    "id": "675ad2d1-f5d1-5d6e-9d4e-92cf22f129a7",
    "name": "YMCA of the Greater Twin Cities",
    "endpoint": [
      {
        "reference": "Endpoint/27a4e967-47aa-5a9c-a572-b8297ee268a2"
      },
      {
        "reference": "Endpoint/abb5f7d5-468e-5806-be46-fb2282afef02"
      }
    ],
    "identifier": [
      {
        "system": "http://hl7.org/fhir/sid/us-npi",
        "value": "1427438894"
      }
    ],
    "address": [
      {
        "line": [
          "3788 N Arm Rd"
        ],
        "city": "ELY",
        "state": "MN",
        "postalCode": "55731-8441"
      },
      {
        "line": [
          "2211 Vine St"
        ],
        "city": "HUDSON",
        "state": "WI",
        "postalCode": "54016-1899"
      },
      {
        "line": [
          "15200 Hanson Blvd"
        ],
        "city": "ANDOVER",
        "state": "MN",
        "postalCode": "55304-2764"
      },
      {
        "line": [
          "2125 E Hennepin Ave"
        ],
        "city": "MINNEAPOLIS",
        "state": "MN",
        "postalCode": "55413-1766"
      },
      {
        "line": [
          "3575 North Berens Road N.W.",
          "Shepherd's Path Campus"
        ],
        "city": "Prior Lake",
        "state": "MN",
        "postalCode": "55379-5899"
      },
      {
        "line": [
          "7601 42nd Ave N"
        ],
        "city": "MINNEAPOLIS",
        "state": "MN",
        "postalCode": "55427-1226"
      },
      {
        "line": [
          "889A 115th Street"
        ],
        "city": "AMERY",
        "state": "WI",
        "postalCode": "54001-5146"
      },
      {
        "line": [
          "7355 York Ave South"
        ],
        "city": "Edina",
        "state": "MN",
        "postalCode": "55435-4701"
      },
      {
        "line": [
          "12301 Ridgedale Dr"
        ],
        "city": "MINNETONKA",
        "state": "MN",
        "postalCode": "55305-1738"
      },
      {
        "line": [
          "85 Pleasant Dr"
        ],
        "city": "HASTINGS",
        "state": "MN",
        "postalCode": "55033-1648"
      },
      {
        "line": [
          "532 County Road F"
        ],
        "city": "HUDSON",
        "state": "WI",
        "postalCode": "54016-8006"
      },
      {
        "line": [
          "3726 Miller Trunk Road"
        ],
        "city": "EVELETH",
        "state": "MN",
        "postalCode": "55734-4023"
      },
      {
        "line": [
          "13850 Portland Avenue South"
        ],
        "city": "BURNSVILLE",
        "state": "MN",
        "postalCode": "55337-4572"
      },
      {
        "line": [
          "7690 Village Dr"
        ],
        "city": "Lino Lakes",
        "state": "MN",
        "postalCode": "55014-1188"
      },
      {
        "line": [
          "19845 Forest Rd"
        ],
        "city": "FOREST LAKE",
        "state": "MN",
        "postalCode": "55025-8167"
      },
      {
        "line": [
          "1761 University Ave W"
        ],
        "city": "SAINT PAUL",
        "state": "MN",
        "postalCode": "55104-3509"
      },
      {
        "line": [
          "3606 North Arm Road"
        ],
        "city": "ELY",
        "state": "MN",
        "postalCode": "55731-8440"
      },
      {
        "line": [
          "1015 4th Ave N"
        ],
        "city": "MINNEAPOLIS",
        "state": "MN",
        "postalCode": "55405-1189"
      },
      {
        "line": [
          "194 6th St E"
        ],
        "city": "SAINT PAUL",
        "state": "MN",
        "postalCode": "55101-1999"
      },
      {
        "line": [
          "123 Street"
        ],
        "city": "MINNEAPOLIS",
        "state": "MN",
        "postalCode": "55408-4496"
      },
      {
        "line": [
          "8950 Springbrook Dr NW"
        ],
        "city": "MINNEAPOLIS",
        "state": "MN",
        "postalCode": "55433-5848"
      },
      {
        "line": [
          "3425 Ihduhapi Road"
        ],
        "city": "LORETTO",
        "state": "MN",
        "postalCode": "55357-0037"
      },
      {
        "line": [
          "550 Opperman Dr"
        ],
        "city": "SAINT PAUL",
        "state": "MN",
        "postalCode": "55123-1337"
      },
      {
        "line": [
          "30 S 9th St"
        ],
        "city": "MINNEAPOLIS",
        "state": "MN",
        "postalCode": "55402-3106"
      },
      {
        "line": [
          "1801 University Ave SE"
        ],
        "city": "MINNEAPOLIS",
        "state": "MN",
        "postalCode": "55414-2024"
      },
      {
        "line": [
          "1711 West Broadway Avenue"
        ],
        "city": "MINNEAPOLIS",
        "state": "MN",
        "postalCode": "55411-2499"
      },
      {
        "line": [
          "3760 Lexington Ave N"
        ],
        "city": "SAINT PAUL",
        "state": "MN",
        "postalCode": "55126-2915"
      },
      {
        "line": [
          "875 Arcade St"
        ],
        "city": "SAINT PAUL",
        "state": "MN",
        "postalCode": "55106-3800"
      },
      {
        "line": [
          "2100 Orchard Ln"
        ],
        "city": "White Bear Lake",
        "state": "MN",
        "postalCode": "55110-5495"
      },
      {
        "line": [
          "13337 Business Center Drive"
        ],
        "city": "ELK RIVER",
        "state": "MN",
        "postalCode": "55330-4794"
      },
      {
        "line": [
          "4100 28th Ave S"
        ],
        "city": "MINNEAPOLIS",
        "state": "MN",
        "postalCode": "55406-3121"
      },
      {
        "line": [
          "55 Menogyn Trail"
        ],
        "city": "GRAND MARAIS",
        "state": "MN",
        "postalCode": "55604-2043"
      },
      {
        "line": [
          "150 Thompson Ave E"
        ],
        "city": "West Saint Paul",
        "state": "MN",
        "postalCode": "55118-3216"
      },
      {
        "line": [
          "2175 Radio Dr"
        ],
        "city": "Woodbury",
        "state": "MN",
        "postalCode": "55125-9453"
      }
    ],
    "extension": [
      {
        "url": "https://fhir.athena.io/StructureDefinition/ah-practice",
        "valueReference": {
          "reference": "Organization/a-1.Practice-14268"
        }
      },
      {
        "url": "https://fhir.athena.io/StructureDefinition/ah-brand",
        "valueReference": {
          "reference": "Organization/a-14268.Brand-1"
        }
      }
    ]
  },
  "fullUrl": "urn:uuid:675ad2d1-f5d1-5d6e-9d4e-92cf22f129a7"
}