{
  "resource": {
    "resourceType": "Organization",
    "id": "0141af48-cc73-5047-bd7c-b6022c4c11d8",
    "name": "JON J. EHRICH",
    "endpoint": [
      {
        "reference": "Endpoint/27a4e967-47aa-5a9c-a572-b8297ee268a2"
      },
      {
        "reference": "Endpoint/8e9cbaca-5637-5447-a069-6dd5387ab9e7"
      }
    ],
    "identifier": [
      {
        "system": "http://hl7.org/fhir/sid/us-npi",
        "value": "1942595996"
      }
    ],
    "address": [
      {
        "line": [
          "3060 MELALEUCA  LANE"
        ],
        "city": "LAKE WORTH",
        "state": "FL",
        "postalCode": "33461-5174"
      },
      {
        "line": [
          "901 45TH STREET"
        ],
        "city": "WEST PALM BEACH",
        "state": "FL",
        "postalCode": "33407-2413"
      },
      {
        "line": [
          "1200 45TH STREET"
        ],
        "city": "WEST PALM BEACH",
        "state": "FL",
        "postalCode": "33407-2342"
      },
      {
        "line": [
          "750 BAYBERRY DRIVE"
        ],
        "city": "WEST PALM BEACH",
        "state": "FL",
        "postalCode": "33403-3248"
      },
      {
        "line": [
          "2501 N AUSTRALIAN AVE"
        ],
        "city": "WEST PALM BEACH",
        "state": "FL",
        "postalCode": "33407-5638"
      },
      {
        "line": [
          "2090 N CONGRESS AVE"
        ],
        "city": "WEST PALM BEACH",
        "state": "FL",
        "postalCode": "33401-8210"
      },
      {
        "line": [
          "3803 PGA BLVD"
        ],
        "city": "PALM BEACH GARDENS",
        "state": "FL",
        "postalCode": "33410-2720"
      },
      {
        "line": [
          "600 BUSINESS PARK HIGHWAY"
        ],
        "city": "ROYAL PALM BEACH",
        "state": "FL",
        "postalCode": "33411-1747"
      },
      {
        "line": [
          "4847 FRED GLADSTONE DR"
        ],
        "city": "WEST PALM BEACH",
        "state": "FL",
        "postalCode": "33417-8023"
      }
    ],
    "extension": [
      {
        "url": "https://fhir.athena.io/StructureDefinition/ah-practice",
        "valueReference": {
          "reference": "Organization/a-1.Practice-3491"
        }
      },
      {
        "url": "https://fhir.athena.io/StructureDefinition/ah-brand",
        "valueReference": {
          "reference": "Organization/a-3491.Brand-1"
        }
      }
    ]
  },
  "fullUrl": "urn:uuid:0141af48-cc73-5047-bd7c-b6022c4c11d8"
}