{
  "resource": {
    "resourceType": "Organization",
    "id": "932d94cc-c708-58c7-82cf-1ed4183a9bd8",
    "name": "Hendrick Clinic",
    "endpoint": [
      {
        "reference": "Endpoint/27a4e967-47aa-5a9c-a572-b8297ee268a2"
      },
      {
        "reference": "Endpoint/bbfaf341-24b9-5bc2-b658-1ae193413a34"
      }
    ],
    "identifier": [
      {
        "system": "http://hl7.org/fhir/sid/us-npi",
        "value": "1396961322"
      },
      {
        "system": "http://hl7.org/fhir/sid/us-npi",
        "value": "1538656186"
      },
      {
        "system": "http://hl7.org/fhir/sid/us-npi",
        "value": "1851394993"
      },
      {
        "system": "http://hl7.org/fhir/sid/us-npi",
        "value": "1245084169"
      }
    ],
    "address": [
      {
        "line": [
          "109 S. Park Dr"
        ],
        "city": "BROWNWOOD",
        "state": "TX",
        "postalCode": "76801-5917"
      },
      {
        "line": [
          "109 S PARK DR"
        ],
        "city": "BROWNWOOD",
        "state": "TX",
        "postalCode": "76801-5917"
      },
      {
        "line": [
          "1700 Cogdell Blvd."
        ],
        "city": "SNYDER",
        "state": "TX",
        "postalCode": "79549-6162"
      },
      {
        "line": [
          "2722 OLD ANSON RD"
        ],
        "city": "ABILENE",
        "state": "TX",
        "postalCode": "79603-1834"
      },
      {
        "line": [
          "608 Ave B."
        ],
        "city": "BALLINGER",
        "state": "TX",
        "postalCode": "76821-2406"
      },
      {
        "line": [
          "1501 Burnett Rd"
        ],
        "city": "BROWNWOOD",
        "state": "TX",
        "postalCode": "76801-8520"
      },
      {
        "line": [
          "5302 BUFFALO GAP RD"
        ],
        "city": "ABILENE",
        "state": "TX",
        "postalCode": "79606-4246"
      },
      {
        "line": [
          "725 MEDICAL DR"
        ],
        "city": "ABILENE",
        "state": "TX",
        "postalCode": "79601-4524"
      },
      {
        "line": [
          "1927 PINE ST"
        ],
        "city": "ABILENE",
        "state": "TX",
        "postalCode": "79601-2471"
      },
      {
        "line": [
          "1150 N 18TH ST STE 400"
        ],
        "city": "ABILENE",
        "state": "TX",
        "postalCode": "79601-2931"
      },
      {
        "line": [
          "6250 US HWY 83"
        ],
        "city": "ABILENE",
        "state": "TX",
        "postalCode": "79606-5215"
      },
      {
        "line": [
          "1900 PINE ST"
        ],
        "city": "ABILENE",
        "state": "TX",
        "postalCode": "79601-2432"
      },
      {
        "line": [
          "2700 Memorial Park Dr"
        ],
        "city": "BROWNWOOD",
        "state": "TX",
        "postalCode": "76801-8481"
      },
      {
        "line": [
          "6050 HOSPITAL DR"
        ],
        "city": "ABILENE",
        "state": "TX",
        "postalCode": "79606-5252"
      },
      {
        "line": [
          "1900 Pine St"
        ],
        "city": "ABILENE",
        "state": "TX",
        "postalCode": "79601-2432"
      },
      {
        "line": [
          "200 COUNTY ROAD 616"
        ],
        "city": "EARLY",
        "state": "TX",
        "postalCode": "76802-3294"
      },
      {
        "line": [
          "101 Miller Dr"
        ],
        "city": "BROWNWOOD",
        "state": "TX",
        "postalCode": "76801-5494"
      },
      {
        "line": [
          "1501 Burnet Rd"
        ],
        "city": "BROWNWOOD",
        "state": "TX",
        "postalCode": "76801-8520"
      },
      {
        "line": [
          "2410 SONG BIRD CIR"
        ],
        "city": "BROWNWOOD",
        "state": "TX",
        "postalCode": "76801-8413"
      },
      {
        "line": [
          "4424 BUFFALO GAP RD"
        ],
        "city": "ABILENE",
        "state": "TX",
        "postalCode": "79606-2703"
      },
      {
        "line": [
          "1690 N TREADAWAY BLVD"
        ],
        "city": "ABILENE",
        "state": "TX",
        "postalCode": "79601-3051"
      },
      {
        "line": [
          "2502 CROCKETT DR STE A"
        ],
        "city": "BROWNWOOD",
        "state": "TX",
        "postalCode": "76801-5900"
      },
      {
        "line": [
          "751 N 18th St"
        ],
        "city": "ABILENE",
        "state": "TX",
        "postalCode": "79601-3017"
      },
      {
        "line": [
          "2182 HICKORY ST"
        ],
        "city": "ABILENE",
        "state": "TX",
        "postalCode": "79601-2340"
      },
      {
        "line": [
          "101 Miller DR"
        ],
        "city": "BROWNWOOD",
        "state": "TX",
        "postalCode": "76801-5494"
      },
      {
        "line": [
          "2371 Crockett Dr. Ste 102"
        ],
        "city": "BROWNWOOD",
        "state": "TX",
        "postalCode": "76801-5994"
      },
      {
        "line": [
          "1605 CALVERT RD"
        ],
        "city": "BROWNWOOD",
        "state": "TX",
        "postalCode": "76801-7322"
      },
      {
        "line": [
          "2400 W BROWN ST"
        ],
        "city": "SAN SABA",
        "state": "TX",
        "postalCode": "76877-3863"
      },
      {
        "line": [
          "2000 PINE ST"
        ],
        "city": "ABILENE",
        "state": "TX",
        "postalCode": "79601-2434"
      },
      {
        "line": [
          "200 CR 616"
        ],
        "city": "EARLY",
        "state": "TX",
        "postalCode": "76802-3294"
      },
      {
        "line": [
          "301 Jenny George Ln. Building B"
        ],
        "city": "SWEETWATER",
        "state": "TX",
        "postalCode": "79556-7120"
      },
      {
        "line": [
          "1514 INDIAN CREEK DR"
        ],
        "city": "BROWNWOOD",
        "state": "TX",
        "postalCode": "76801-6536"
      }
    ],
    "extension": [
      {
        "url": "https://fhir.athena.io/StructureDefinition/ah-practice",
        "valueReference": {
          "reference": "Organization/a-1.Practice-21794"
        }
      },
      {
        "url": "https://fhir.athena.io/StructureDefinition/ah-brand",
        "valueReference": {
          "reference": "Organization/a-21794.Brand-1"
        }
      }
    ]
  },
  "fullUrl": "urn:uuid:932d94cc-c708-58c7-82cf-1ed4183a9bd8"
}