{
  "resource": {
    "resourceType": "Organization",
    "id": "6b42c9d9-ed4e-52f4-b6da-5d71eadb9887",
    "name": "ALPINE URGENT CARE MEDICINE",
    "endpoint": [
      {
        "reference": "Endpoint/27a4e967-47aa-5a9c-a572-b8297ee268a2"
      },
      {
        "reference": "Endpoint/257691db-854f-5c0e-938b-75015d996200"
      }
    ],
    "identifier": [
      {
        "system": "http://hl7.org/fhir/sid/us-npi",
        "value": "1467709220"
      }
    ],
    "address": [
      {
        "line": [
          "4290 Layla Way"
        ],
        "city": "SAN DIEGO",
        "state": "CA",
        "postalCode": "92154-3835"
      },
      {
        "line": [
          "971 Hilltop Dr"
        ],
        "city": "CHULA VISTA",
        "state": "CA",
        "postalCode": "91911-2247"
      },
      {
        "line": [
          "13773 Whispering Meadows Ln"
        ],
        "city": "JAMUL",
        "state": "CA",
        "postalCode": "91935-3138"
      },
      {
        "line": [
          "8950 Johnson Dr"
        ],
        "city": "LA MESA",
        "state": "CA",
        "postalCode": "91941-5422"
      },
      {
        "line": [
          "9515 Date St"
        ],
        "city": "SPRING VALLEY",
        "state": "CA",
        "postalCode": "91977-4464"
      },
      {
        "line": [
          "1730 Alpine Blvd",
          "Suite 109-B"
        ],
        "city": "ALPINE",
        "state": "CA",
        "postalCode": "91901-3877"
      },
      {
        "line": [
          "3520 4TH AVE"
        ],
        "city": "SAN DIEGO",
        "state": "CA",
        "postalCode": "92103-4913"
      },
      {
        "line": [
          "1717 Katy Pl"
        ],
        "city": "ESCONDIDO",
        "state": "CA",
        "postalCode": "92026-1855"
      },
      {
        "line": [
          "290 S MAGNOLIA AVE"
        ],
        "city": "EL CAJON",
        "state": "CA",
        "postalCode": "92020-4524"
      },
      {
        "line": [
          "555 WASHINGTON ST"
        ],
        "city": "SAN DIEGO",
        "state": "CA",
        "postalCode": "92103-2289"
      },
      {
        "line": [
          "16925 Deer Hill Ests"
        ],
        "city": "LAKESIDE",
        "state": "CA",
        "postalCode": "92040-1101"
      },
      {
        "line": [
          "9975 San Juan St"
        ],
        "city": "SPRING VALLEY",
        "state": "CA",
        "postalCode": "91977-1623"
      },
      {
        "line": [
          "8681 Lepus Rd"
        ],
        "city": "SAN DIEGO",
        "state": "CA",
        "postalCode": "92126-1610"
      },
      {
        "line": [
          "4633 Denwood Rd"
        ],
        "city": "LA MESA",
        "state": "CA",
        "postalCode": "91942-8803"
      },
      {
        "line": [
          "2150 Washington St"
        ],
        "city": "LEMON GROVE",
        "state": "CA",
        "postalCode": "91946-4269"
      },
      {
        "line": [
          "5874 Honors Dr"
        ],
        "city": "SAN DIEGO",
        "state": "CA",
        "postalCode": "92122-2237"
      },
      {
        "line": [
          "2555 Hopkins St"
        ],
        "city": "SAN DIEGO",
        "state": "CA",
        "postalCode": "92139-3436"
      },
      {
        "line": [
          "6061 Banbury St"
        ],
        "city": "SAN DIEGO",
        "state": "CA",
        "postalCode": "92139-3624"
      },
      {
        "line": [
          "1290 Santa Rosa Dr"
        ],
        "city": "CHULA VISTA",
        "state": "CA",
        "postalCode": "91913-1849"
      },
      {
        "line": [
          "7172 Bobhird Dr"
        ],
        "city": "SAN DIEGO",
        "state": "CA",
        "postalCode": "92119-1404"
      },
      {
        "line": [
          "111 Third Ave"
        ],
        "city": "CHULA VISTA",
        "state": "CA",
        "postalCode": "91910-1822"
      },
      {
        "line": [
          "3636 Christine St"
        ],
        "city": "SAN DIEGO",
        "state": "CA",
        "postalCode": "92117-1801"
      },
      {
        "line": [
          "350 S Vine St"
        ],
        "city": "ESCONDIDO",
        "state": "CA",
        "postalCode": "92025-3858"
      },
      {
        "line": [
          "848 Felcita Ave"
        ],
        "city": "SPRING VALLEY",
        "state": "CA",
        "postalCode": "91977-4905"
      },
      {
        "line": [
          "3602 S CORDOBA ST"
        ],
        "city": "SPRING VALLEY",
        "state": "CA",
        "postalCode": "91977-1812"
      },
      {
        "line": [
          "1515 Jamacha Way"
        ],
        "city": "EL CAJON",
        "state": "CA",
        "postalCode": "92019-4123"
      },
      {
        "line": [
          "11812 LAKESIDE AVE"
        ],
        "city": "LAKESIDE",
        "state": "CA",
        "postalCode": "92040-1619"
      },
      {
        "line": [
          "3202 Duke St"
        ],
        "city": "SAN DIEGO",
        "state": "CA",
        "postalCode": "92110-5401"
      },
      {
        "line": [
          "505 Hills Lane Dr"
        ],
        "city": "EL CAJON",
        "state": "CA",
        "postalCode": "92020-2973"
      },
      {
        "line": [
          "5740 Lake Murray Blvd"
        ],
        "city": "LA MESA",
        "state": "CA",
        "postalCode": "91942-2217"
      },
      {
        "line": [
          "9290 Murray Dr"
        ],
        "city": "LA MESA",
        "state": "CA",
        "postalCode": "91942-3501"
      },
      {
        "line": [
          "6665 Decanture St"
        ],
        "city": "SAN DIEGO",
        "state": "CA",
        "postalCode": "92120-2138"
      },
      {
        "line": [
          "2996 Mission Village Dr"
        ],
        "city": "SAN DIEGO",
        "state": "CA",
        "postalCode": "92123-3212"
      },
      {
        "line": [
          "183 Third Ave"
        ],
        "city": "CHULA VISTA",
        "state": "CA",
        "postalCode": "91910-1822"
      },
      {
        "line": [
          "660 Van Houten Ave"
        ],
        "city": "El Cajon",
        "state": "CA",
        "postalCode": "92020-5134"
      },
      {
        "line": [
          "7815 Mount Vernon St"
        ],
        "city": "LEMON GROVE",
        "state": "CA",
        "postalCode": "91945-2919"
      },
      {
        "line": [
          "744 E CHASE AVE"
        ],
        "city": "EL CAJON",
        "state": "CA",
        "postalCode": "92020-7606"
      },
      {
        "line": [
          "2340 4th Ave"
        ],
        "city": "SAN DIEGO",
        "state": "CA",
        "postalCode": "92101-1607"
      },
      {
        "line": [
          "13110 GATE DR",
          "POWAY"
        ],
        "city": "POWAY",
        "state": "CA",
        "postalCode": "92064-5844"
      },
      {
        "line": [
          "7971 Cullowee St"
        ],
        "city": "La Mesa",
        "state": "CA",
        "postalCode": "91942-5509"
      },
      {
        "line": [
          "1420 E Palomar St"
        ],
        "city": "CHULA VISTA",
        "state": "CA",
        "postalCode": "91913-1800"
      },
      {
        "line": [
          "1575 Casteel Ct"
        ],
        "city": "SAN DIEGO",
        "state": "CA",
        "postalCode": "92114-6913"
      },
      {
        "line": [
          "6211 LA JOLLA HERMOSA AVE"
        ],
        "city": "LA JOLLA",
        "state": "CA",
        "postalCode": "92037-6736"
      },
      {
        "line": [
          "1889 Almagro Ln"
        ],
        "city": "ESCONDIDO",
        "state": "CA",
        "postalCode": "92026-1728"
      },
      {
        "line": [
          "3434 Bonita Rd"
        ],
        "city": "CHULA VISTA",
        "state": "CA",
        "postalCode": "91910-3209"
      },
      {
        "line": [
          "2840 CARMAR WAY"
        ],
        "city": "SAN DIEGO",
        "state": "CA",
        "postalCode": "92139-3809"
      },
      {
        "line": [
          "235 Nutmeg St"
        ],
        "city": "SAN DIEGO",
        "state": "CA",
        "postalCode": "92103-6201"
      },
      {
        "line": [
          "541 South V Ave"
        ],
        "city": "NATIONAL CITY",
        "state": "CA",
        "postalCode": "91950-2828"
      },
      {
        "line": [
          "218 OLYMPIC LN"
        ],
        "city": "PAYSON",
        "state": "UT",
        "postalCode": "84651-5712"
      },
      {
        "line": [
          "484 Chardonnay Ct"
        ],
        "city": "SAN MARCOS",
        "state": "CA",
        "postalCode": "92069-7820"
      },
      {
        "line": [
          "793 Wichita Ave"
        ],
        "city": "EL CAJON",
        "state": "CA",
        "postalCode": "92019-2608"
      },
      {
        "line": [
          "659 Sunnyside Ave"
        ],
        "city": "SAN DIEGO",
        "state": "CA",
        "postalCode": "92114-4945"
      },
      {
        "line": [
          "9009 Campo Rd"
        ],
        "city": "SPRING VALLEY",
        "state": "CA",
        "postalCode": "91977-1112"
      },
      {
        "line": [
          "14215 Midland Rd"
        ],
        "city": "Poway",
        "state": "CA",
        "postalCode": "92064-3405"
      },
      {
        "line": [
          "1817 Avenida Del Diablo"
        ],
        "city": "ESCONDIDO",
        "state": "CA",
        "postalCode": "92029-3112"
      },
      {
        "line": [
          "1310 E 9TH ST"
        ],
        "city": "NATIONAL CITY",
        "state": "CA",
        "postalCode": "91950-3619"
      },
      {
        "line": [
          "4224 Nabal Dr"
        ],
        "city": "LA MESA",
        "state": "CA",
        "postalCode": "91941-7171"
      },
      {
        "line": [
          "5580 Aztec Dr"
        ],
        "city": "LA MESA",
        "state": "CA",
        "postalCode": "91942-2132"
      },
      {
        "line": [
          "1035 S Harbison Ave"
        ],
        "city": "NATIONAL CITY",
        "state": "CA",
        "postalCode": "91950-7089"
      },
      {
        "line": [
          "4141 Pacific Hwy"
        ],
        "city": "SAN DIEGO",
        "state": "CA",
        "postalCode": "92110-2030"
      },
      {
        "line": [
          "3245 Star Acres Dr"
        ],
        "city": "SPRING VALLEY",
        "state": "CA",
        "postalCode": "91978-2303"
      },
      {
        "line": [
          "1233 Cresthill Rd"
        ],
        "city": "EL CAJON",
        "state": "CA",
        "postalCode": "92021-3305"
      },
      {
        "line": [
          "448 Ringwood Dr"
        ],
        "city": "SAN DIEGO",
        "state": "CA",
        "postalCode": "92114-6043"
      },
      {
        "line": [
          "7760 Parkway Dr"
        ],
        "city": "LA MESA",
        "state": "CA",
        "postalCode": "91942-2132"
      },
      {
        "line": [
          "1080 Avocado Ave"
        ],
        "city": "ESCONDIDO",
        "state": "CA",
        "postalCode": "92026-2414"
      },
      {
        "line": [
          "1580 Broadway"
        ],
        "city": "EL CAJON",
        "state": "CA",
        "postalCode": "92021-5124"
      },
      {
        "line": [
          "3281 Massachusetts Ave"
        ],
        "city": "LEMON GROVE",
        "state": "CA",
        "postalCode": "91945-2241"
      },
      {
        "line": [
          "3223 Duke St"
        ],
        "city": "SAN DIEGO",
        "state": "CA",
        "postalCode": "92110-5401"
      },
      {
        "line": [
          "6897 Freed Manor Ln"
        ],
        "city": "SAN DIEGO",
        "state": "CA",
        "postalCode": "92114-7810"
      },
      {
        "line": [
          "306 Dolo St"
        ],
        "city": "SAN DIEGO",
        "state": "CA",
        "postalCode": "92114-4644"
      },
      {
        "line": [
          "281 Flowerdale Ln"
        ],
        "city": "SAN DIEGO",
        "state": "CA",
        "postalCode": "92114-7333"
      },
      {
        "line": [
          "635 S Magnolia Ave"
        ],
        "city": "EL CAJON",
        "state": "CA",
        "postalCode": "92020-6012"
      },
      {
        "line": [
          "6530 Boon Lake Ave"
        ],
        "city": "SAN DIEGO",
        "state": "CA",
        "postalCode": "92119-2614"
      },
      {
        "line": [
          "1019 Greenfield Dr"
        ],
        "city": "EL CAJON",
        "state": "CA",
        "postalCode": "92021-3226"
      },
      {
        "line": [
          "930 Monticello Dr"
        ],
        "city": "ESCONDIDO",
        "state": "CA",
        "postalCode": "92029-4432"
      },
      {
        "line": [
          "850 Duncan Ranch Road"
        ],
        "city": "CHULA VISTA",
        "state": "CA",
        "postalCode": "91914-2526"
      },
      {
        "line": [
          "2525 Reed Rd"
        ],
        "city": "ESCONDIDO",
        "state": "CA",
        "postalCode": "92027-4218"
      },
      {
        "line": [
          "1636 LILY AVE"
        ],
        "city": "EL CAJON",
        "state": "CA",
        "postalCode": "92021-3538"
      },
      {
        "line": [
          "4960 MILLS ST"
        ],
        "city": "LA MESA",
        "state": "CA",
        "postalCode": "91942-9310"
      },
      {
        "line": [
          "2575 E 8th St"
        ],
        "city": "National City",
        "state": "CA",
        "postalCode": "91950-2913"
      },
      {
        "line": [
          "19231 MARSHALL WAY"
        ],
        "city": "VALLEY CENTER",
        "state": "CA",
        "postalCode": "92082-6859"
      },
      {
        "line": [
          "1940 El Cajon Blvd,"
        ],
        "city": "SAN DIEGO",
        "state": "CA",
        "postalCode": "92104-1005"
      },
      {
        "line": [
          "1290 Santa Rosa Dr"
        ],
        "city": "Chula Vista",
        "state": "CA",
        "postalCode": "91913-1849"
      },
      {
        "line": [
          "7766 Prairie Mound Way"
        ],
        "city": "SAN DIEGO",
        "state": "CA",
        "postalCode": "92139-1410"
      },
      {
        "line": [
          "1201 34th St"
        ],
        "city": "SAN DIEGO",
        "state": "CA",
        "postalCode": "92102-2416"
      },
      {
        "line": [
          "8637 Dobyns Dr"
        ],
        "city": "SANTEE",
        "state": "CA",
        "postalCode": "92071-3908"
      },
      {
        "line": [
          "1312 Leaf Terrace"
        ],
        "city": "San Diego",
        "state": "CA",
        "postalCode": "92114-6816"
      },
      {
        "line": [
          "222 Charise Ct"
        ],
        "city": "SPRING VALLEY",
        "state": "CA",
        "postalCode": "91977-6115"
      },
      {
        "line": [
          "6684 Danville Ave"
        ],
        "city": "SAN DIEGO",
        "state": "CA",
        "postalCode": "92120-3221"
      },
      {
        "line": [
          "8080 Tommy Dr"
        ],
        "city": "SAN DIEGO",
        "state": "CA",
        "postalCode": "92119-1836"
      },
      {
        "line": [
          "8596 Atlas View Dr"
        ],
        "city": "SANTEE",
        "state": "CA",
        "postalCode": "92071-4103"
      },
      {
        "line": [
          "571 Terra Lane"
        ],
        "city": "EL CAJON",
        "state": "CA",
        "postalCode": "92019-1058"
      },
      {
        "line": [
          "9412 Hilmer Dr"
        ],
        "city": "LA MESA",
        "state": "CA",
        "postalCode": "91942-3914"
      },
      {
        "line": [
          "2269 POINTE PARKWAY"
        ],
        "city": "SPRING VALLEY",
        "state": "CA",
        "postalCode": "91978-2031"
      },
      {
        "line": [
          "7570 BROOKHAVEN RD"
        ],
        "city": "SAN DIEGO",
        "state": "CA",
        "postalCode": "92114-7201"
      },
      {
        "line": [
          "12526 Old Campo Rd"
        ],
        "city": "SPRING VALLEY",
        "state": "CA",
        "postalCode": "91978-9998"
      },
      {
        "line": [
          "4033 6th Ave"
        ],
        "city": "SAN DIEGO",
        "state": "CA",
        "postalCode": "92103-2202"
      },
      {
        "line": [
          "151 Claydelle Ave"
        ],
        "city": "EL CAJON",
        "state": "CA",
        "postalCode": "92020-4505"
      },
      {
        "line": [
          "3884 Nobel Dr"
        ],
        "city": "SAN DIEGO",
        "state": "CA",
        "postalCode": "92122-5700"
      },
      {
        "line": [
          "1832 Alpine Bvld",
          "Suite B"
        ],
        "city": "ALPINE",
        "state": "CA",
        "postalCode": "91901-3876"
      },
      {
        "line": [
          "4075 54th St"
        ],
        "city": "SAN DIEGO",
        "state": "CA",
        "postalCode": "92105-2301"
      },
      {
        "line": [
          "510 E Washington Ave"
        ],
        "city": "EL CAJON",
        "state": "CA",
        "postalCode": "92020-5324"
      },
      {
        "line": [
          "789 SKYVIEW ST"
        ],
        "city": "EL CAJON",
        "state": "CA",
        "postalCode": "92020-7256"
      },
      {
        "line": [
          "1202 S Orange Ave"
        ],
        "city": "EL CAJON",
        "state": "CA",
        "postalCode": "92020-7522"
      },
      {
        "line": [
          "444 Prescott Ave"
        ],
        "city": "EL CAJON",
        "state": "CA",
        "postalCode": "92020-5200"
      },
      {
        "line": [
          "8569 Innsdale Ln"
        ],
        "city": "SAN DIEGO",
        "state": "CA",
        "postalCode": "92114-7429"
      },
      {
        "line": [
          "344 E 27TH ST"
        ],
        "city": "NATIONAL CITY",
        "state": "CA",
        "postalCode": "91950-6815"
      },
      {
        "line": [
          "6302 Division St"
        ],
        "city": "SAN DIEGO",
        "state": "CA",
        "postalCode": "92114-6918"
      },
      {
        "line": [
          "2619 Nida Pl"
        ],
        "city": "LEMON GROVE",
        "state": "CA",
        "postalCode": "91945-2947"
      },
      {
        "line": [
          "1418 S Grade Rd"
        ],
        "city": "ALPINE",
        "state": "CA",
        "postalCode": "91901-3007"
      },
      {
        "line": [
          "2579 WINDMILL VIEW RD"
        ],
        "city": "EL CAJON",
        "state": "CA",
        "postalCode": "92020-1048"
      },
      {
        "line": [
          "11443 Meadow Creek Rd"
        ],
        "city": "EL CAJON",
        "state": "CA",
        "postalCode": "92020-8273"
      },
      {
        "line": [
          "1123 Peach Ave"
        ],
        "city": "EL CAJON",
        "state": "CA",
        "postalCode": "92021-4819"
      },
      {
        "line": [
          "2083 Greenfield Dr"
        ],
        "city": "EL CAJON",
        "state": "CA",
        "postalCode": "92019-1156"
      },
      {
        "line": [
          "508 Berland Way"
        ],
        "city": "CHULA VISTA",
        "state": "CA",
        "postalCode": "91910-6425"
      },
      {
        "line": [
          "2828 Meadow Lark Dr"
        ],
        "city": "SAN DIEGO",
        "state": "CA",
        "postalCode": "92123-2710"
      },
      {
        "line": [
          "2325 Proctor Valley Rd"
        ],
        "city": "CHULA VISTA",
        "state": "CA",
        "postalCode": "91914-2099"
      },
      {
        "line": [
          "9345 MONONA DR"
        ],
        "city": "LA MESA",
        "state": "CA",
        "postalCode": "91942-3912"
      },
      {
        "line": [
          "2828 MEADOW LARK DR"
        ],
        "city": "SAN DIEGO",
        "state": "CA",
        "postalCode": "92123-2710"
      },
      {
        "line": [
          "8618 Troy St"
        ],
        "city": "SPRING VALLEY",
        "state": "CA",
        "postalCode": "91977-2534"
      },
      {
        "line": [
          "6655 Crampton Ct"
        ],
        "city": "SAN DIEGO",
        "state": "CA",
        "postalCode": "92119-2409"
      },
      {
        "line": [
          "4949 Mount Longs Dr"
        ],
        "city": "SAN DIEGO",
        "state": "CA",
        "postalCode": "92117-3054"
      },
      {
        "line": [
          "9141 Spice St"
        ],
        "city": "LA MESA",
        "state": "CA",
        "postalCode": "91941-5663"
      },
      {
        "line": [
          "11065 Wyndemere Ln"
        ],
        "city": "ESCONDIDO",
        "state": "CA",
        "postalCode": "92026-8502"
      },
      {
        "line": [
          "6655 Alvarado Rd"
        ],
        "city": "SAN DIEGO",
        "state": "CA",
        "postalCode": "92120-5208"
      },
      {
        "line": [
          "7675 Family Circle"
        ],
        "city": "SAN DIEGO",
        "state": "CA",
        "postalCode": "92111-5403"
      },
      {
        "line": [
          "6667 Wandermere Ct"
        ],
        "city": "SAN DIEGO",
        "state": "CA",
        "postalCode": "92120-3246"
      },
      {
        "line": [
          "9308 Emerald Grove Ave"
        ],
        "city": "LAKESIDE",
        "state": "CA",
        "postalCode": "92040-3718"
      },
      {
        "line": [
          "5105 Bancroft Dr"
        ],
        "city": "LA MESA",
        "state": "CA",
        "postalCode": "91941-4204"
      },
      {
        "line": [
          "2921 Murat St"
        ],
        "city": "SAN DIEGO",
        "state": "CA",
        "postalCode": "92117-2447"
      },
      {
        "line": [
          "4075 54TH ST"
        ],
        "city": "SAN DIEGO",
        "state": "CA",
        "postalCode": "92105-2301"
      },
      {
        "line": [
          "8060 Frost St"
        ],
        "city": "San Diego",
        "state": "CA",
        "postalCode": "92123-2703"
      },
      {
        "line": [
          "299 Prospect Pl"
        ],
        "city": "CORONADO",
        "state": "CA",
        "postalCode": "92118-1967"
      },
      {
        "line": [
          "819 Wulff St"
        ],
        "city": "SAN MARCOS",
        "state": "CA",
        "postalCode": "92069-2134"
      },
      {
        "line": [
          "444 Lexington Ave"
        ],
        "city": "EL CAJON",
        "state": "CA",
        "postalCode": "92020-4416"
      },
      {
        "line": [
          "180 W Lexington Ave"
        ],
        "city": "EL CAJON",
        "state": "CA",
        "postalCode": "92020-4410"
      },
      {
        "line": [
          "8215 Mount Vernon St"
        ],
        "city": "LEMON GROVE",
        "state": "CA",
        "postalCode": "91945-3323"
      },
      {
        "line": [
          "2349 MONTCLIFF RD"
        ],
        "city": "SAN DIEGO",
        "state": "CA",
        "postalCode": "92139-3925"
      },
      {
        "line": [
          "8100 Birnney Pl"
        ],
        "city": "LA MESA",
        "state": "CA",
        "postalCode": "91942-2621"
      },
      {
        "line": [
          "1412 Groveland Ter"
        ],
        "city": "El Cajon",
        "state": "CA",
        "postalCode": "92021-3418"
      },
      {
        "line": [
          "5735 Sunny View Dr"
        ],
        "city": "BONITA",
        "state": "CA",
        "postalCode": "91902-2952"
      },
      {
        "line": [
          "1832 Alpine Blvd",
          "Suite B"
        ],
        "city": "ALPINE",
        "state": "CA",
        "postalCode": "91901-3876"
      },
      {
        "line": [
          "5555 Grossmont Center Dr"
        ],
        "city": "LA MESA",
        "state": "CA",
        "postalCode": "91942-3019"
      },
      {
        "line": [
          "8308 N Poinciana Dr"
        ],
        "city": "EL CAJON",
        "state": "CA",
        "postalCode": "92021-1004"
      },
      {
        "line": [
          "3423 Channel Way"
        ],
        "city": "SAN DIEGO",
        "state": "CA",
        "postalCode": "92110-5104"
      },
      {
        "line": [
          "520 Cardiff St"
        ],
        "city": "SAN DIEGO",
        "state": "CA",
        "postalCode": "92114-5119"
      },
      {
        "line": [
          "1325 Las Villas Way"
        ],
        "city": "ESCONDIDO",
        "state": "CA",
        "postalCode": "92026-1946"
      },
      {
        "line": [
          "2921 Mural St"
        ],
        "city": "SAN DIEGO",
        "state": "CA",
        "postalCode": "92117-0000"
      },
      {
        "line": [
          "6217 Acorn Street"
        ],
        "city": "SAN DIEGO",
        "state": "CA",
        "postalCode": "92115-4030"
      },
      {
        "line": [
          "2211 Massachusetts Ave"
        ],
        "city": "LEMON GROVE",
        "state": "CA",
        "postalCode": "91945-3616"
      },
      {
        "line": [
          "8702 Tommy Dr"
        ],
        "city": "SAN DIEGO",
        "state": "CA",
        "postalCode": "92119-2014"
      },
      {
        "line": [
          "3207 Massachusetts Ave"
        ],
        "city": "LEMON GROVE",
        "state": "CA",
        "postalCode": "91945-2241"
      },
      {
        "line": [
          "523 EMERALD AVE"
        ],
        "city": "EL CAJON",
        "state": "CA",
        "postalCode": "92020-5005"
      },
      {
        "line": [
          "171 4TH AVE"
        ],
        "city": "CHULA VISTA",
        "state": "CA",
        "postalCode": "91910-2519"
      },
      {
        "line": [
          "5480 Marengo Ave"
        ],
        "city": "LA MESA",
        "state": "CA",
        "postalCode": "91942-2408"
      },
      {
        "line": [
          "2875 Morningside St"
        ],
        "city": "SAN DIEGO",
        "state": "CA",
        "postalCode": "92139-3527"
      },
      {
        "line": [
          "9427 Los Coches Rd"
        ],
        "city": "LAKESIDE",
        "state": "CA",
        "postalCode": "92040-4611"
      },
      {
        "line": [
          "1500 Borden Rd"
        ],
        "city": "ESCONDIDO",
        "state": "CA",
        "postalCode": "92026-2372"
      },
      {
        "line": [
          "5219 Clairemont Mesa Blvd"
        ],
        "city": "SAN DIEGO",
        "state": "CA",
        "postalCode": "92117-2206"
      },
      {
        "line": [
          "1882 Euclid Ave"
        ],
        "city": "EL CAJON",
        "state": "CA",
        "postalCode": "92019-2050"
      },
      {
        "line": [
          "3857 Alameda Way"
        ],
        "city": "BONITA",
        "state": "CA",
        "postalCode": "91902-1207"
      },
      {
        "line": [
          "6395 Blanchard Rd"
        ],
        "city": "LA MESA",
        "state": "CA",
        "postalCode": "91942-3605"
      },
      {
        "line": [
          "6364 Gallegos Terrace"
        ],
        "city": "SAN DIEGO",
        "state": "CA",
        "postalCode": "92114-7016"
      },
      {
        "line": [
          "5610 Dehesa Rd"
        ],
        "city": "EL CAJON",
        "state": "CA",
        "postalCode": "92019-1618"
      },
      {
        "line": [
          "371 E Millan St"
        ],
        "city": "CHULA VISTA",
        "state": "CA",
        "postalCode": "91910-6313"
      },
      {
        "line": [
          "667 ALDERSON ST"
        ],
        "city": "EL CAJON",
        "state": "CA",
        "postalCode": "92019-2350"
      },
      {
        "line": [
          "11895 AVENUE OF INDUSTRY"
        ],
        "city": "SAN DIEGO",
        "state": "CA",
        "postalCode": "92128-3423"
      },
      {
        "line": [
          "1350 Euclid Ave"
        ],
        "city": "SAN DIEGO",
        "state": "CA",
        "postalCode": "92105-5424"
      },
      {
        "line": [
          "655 S Mollison Ave"
        ],
        "city": "EL CAJON",
        "state": "CA",
        "postalCode": "92020-6609"
      },
      {
        "line": [
          "4960 Mills St"
        ],
        "city": "LA MESA",
        "state": "CA",
        "postalCode": "91942-9310"
      },
      {
        "line": [
          "7232 Glenflora Ave"
        ],
        "city": "SAN DIEGO",
        "state": "CA",
        "postalCode": "92119-2442"
      },
      {
        "line": [
          "6281 Jackson Dr"
        ],
        "city": "SAN DIEGO",
        "state": "CA",
        "postalCode": "92119-3405"
      },
      {
        "line": [
          "810 Turquoise St"
        ],
        "city": "SAN DIEGO",
        "state": "CA",
        "postalCode": "92109-1126"
      },
      {
        "line": [
          "13075 Evening Creek Dr S"
        ],
        "city": "SAN DIEGO",
        "state": "CA",
        "postalCode": "92128-8101"
      },
      {
        "line": [
          "738 Avenida Amigo"
        ],
        "city": "SAN MARCOS",
        "state": "CA",
        "postalCode": "92069-7313"
      },
      {
        "line": [
          "112 S 58th St"
        ],
        "city": "SAN DIEGO",
        "state": "CA",
        "postalCode": "92114-4001"
      },
      {
        "line": [
          "836 Eagles Nest Glen"
        ],
        "city": "ESCONDIDO",
        "state": "CA",
        "postalCode": "92027-1855"
      },
      {
        "line": [
          "960 Grossmont Ave"
        ],
        "city": "EL CAJON",
        "state": "CA",
        "postalCode": "92020-5733"
      },
      {
        "line": [
          "2690 Cowley Way"
        ],
        "city": "SAN DIEGO",
        "state": "CA",
        "postalCode": "92110-1001"
      },
      {
        "line": [
          "5403 Avenida Fiesta"
        ],
        "city": "LA JOLLA",
        "state": "CA",
        "postalCode": "92037-7202"
      },
      {
        "line": [
          "5720 DESERT VIEW DR"
        ],
        "city": "LA JOLLA",
        "state": "CA",
        "postalCode": "92037-7240"
      },
      {
        "line": [
          "9208 BELLAGIO RD"
        ],
        "city": "SANTEE",
        "state": "CA",
        "postalCode": "92071-2101"
      },
      {
        "line": [
          "5211 Joan Ct"
        ],
        "city": "SAN DIEGO",
        "state": "CA",
        "postalCode": "92115-2141"
      },
      {
        "line": [
          "1088 Laguna Dr"
        ],
        "city": "CARLSBAD",
        "state": "CA",
        "postalCode": "92008-1858"
      },
      {
        "line": [
          "11881 Calle Albara"
        ],
        "city": "EL CAJON",
        "state": "CA",
        "postalCode": "92019-4087"
      },
      {
        "line": [
          "4706 Leathers Street"
        ],
        "city": "SAN DIEGO",
        "state": "CA",
        "postalCode": "92117-2436"
      },
      {
        "line": [
          "12536 JACKSON HILL LN"
        ],
        "city": "EL CAJON",
        "state": "CA",
        "postalCode": "92021-1710"
      },
      {
        "line": [
          "638 S Gregory St"
        ],
        "city": "SAN DIEGO",
        "state": "CA",
        "postalCode": "92113-0000"
      },
      {
        "line": [
          "2013 Flying Hills Ct"
        ],
        "city": "EL CAJON",
        "state": "CA",
        "postalCode": "92020-1308"
      },
      {
        "line": [
          "325 KEMPTON ST"
        ],
        "city": "SPRING VALLEY",
        "state": "CA",
        "postalCode": "91977-5810"
      },
      {
        "line": [
          "17737 Hunters Ridge Rd"
        ],
        "city": "SAN DIEGO",
        "state": "CA",
        "postalCode": "92127-7612"
      },
      {
        "line": [
          "9000 Murray Dr"
        ],
        "city": "LA MESA",
        "state": "CA",
        "postalCode": "91942-3572"
      },
      {
        "line": [
          "1863 Dehesa Rd"
        ],
        "city": "EL CAJON",
        "state": "CA",
        "postalCode": "92019-2636"
      },
      {
        "line": [
          "325 Kempton St"
        ],
        "city": "LAKESIDE",
        "state": "CA",
        "postalCode": "92040-5810"
      },
      {
        "line": [
          "11085 Zagala Ct"
        ],
        "city": "SAN DIEGO",
        "state": "CA",
        "postalCode": "92124-2206"
      },
      {
        "line": [
          "9319 NORTHVIEW TER"
        ],
        "city": "SANTEE",
        "state": "CA",
        "postalCode": "92071-6112"
      },
      {
        "line": [
          "1046 HELIX AVE"
        ],
        "city": "CHULA VISTA",
        "state": "CA",
        "postalCode": "91911-2232"
      },
      {
        "line": [
          "12515 Springhurst Dr"
        ],
        "city": "SAN DIEGO",
        "state": "CA",
        "postalCode": "92128-6305"
      },
      {
        "line": [
          "8914 Troy St"
        ],
        "city": "SPRING VALLEY",
        "state": "CA",
        "postalCode": "91977-2609"
      },
      {
        "line": [
          "1903 Olive Ave"
        ],
        "city": "SAN DIEGO",
        "state": "CA",
        "postalCode": "92139-1627"
      },
      {
        "line": [
          "1268 Stamen St"
        ],
        "city": "SAN DIEGO",
        "state": "CA",
        "postalCode": "92114-7042"
      },
      {
        "line": [
          "4418 Orange Ave"
        ],
        "city": "SAN DIEGO",
        "state": "CA",
        "postalCode": "92116-4833"
      },
      {
        "line": [
          "944 REGAL RD"
        ],
        "city": "ENCINITAS",
        "state": "CA",
        "postalCode": "92024-4634"
      },
      {
        "line": [
          "1832 ALPINE BLVD"
        ],
        "city": "ALPINE",
        "state": "CA",
        "postalCode": "91901-2107"
      },
      {
        "line": [
          "6396 Lake Decatur Ave"
        ],
        "city": "SAN DIEGO",
        "state": "CA",
        "postalCode": "92119-3127"
      },
      {
        "line": [
          "146 Wedgewood Dr"
        ],
        "city": "SAN DIEGO",
        "state": "CA",
        "postalCode": "92114-7416"
      },
      {
        "line": [
          "2567 2nd Ave"
        ],
        "city": "SAN DIEGO",
        "state": "CA",
        "postalCode": "92103-6503"
      },
      {
        "line": [
          "7867 Lake Andrita Ave"
        ],
        "city": "SAN DIEGO",
        "state": "CA",
        "postalCode": "92119-2525"
      },
      {
        "line": [
          "3524 Lake Blvd"
        ],
        "city": "OCEANSIDE",
        "state": "CA",
        "postalCode": "92056-4600"
      },
      {
        "line": [
          "7156 Viewcrest Dr"
        ],
        "city": "SAN DIEGO",
        "state": "CA",
        "postalCode": "92114-3032"
      },
      {
        "line": [
          "116 Lausanne Dr"
        ],
        "city": "SAN DIEGO",
        "state": "CA",
        "postalCode": "92114-4605"
      },
      {
        "line": [
          "1744 S Maple"
        ],
        "city": "ESCONDIDO",
        "state": "CA",
        "postalCode": "92025-6106"
      },
      {
        "line": [
          "1081 Oleander Ave"
        ],
        "city": "CHULA VISTA",
        "state": "CA",
        "postalCode": "91911-2533"
      },
      {
        "line": [
          "13849 CAMINO CANADA"
        ],
        "city": "EL CAJON",
        "state": "CA",
        "postalCode": "92021-2060"
      },
      {
        "line": [
          "15720 Bernardo Center Dr"
        ],
        "city": "SAN DIEGO",
        "state": "CA",
        "postalCode": "92127-5861"
      },
      {
        "line": [
          "6045 REO PL"
        ],
        "city": "SAN DIEGO",
        "state": "CA",
        "postalCode": "92139-3536"
      },
      {
        "line": [
          "8100 Binney Pl"
        ],
        "city": "LA MESA",
        "state": "CA",
        "postalCode": "91942-2621"
      },
      {
        "line": [
          "4224 Emet Ct"
        ],
        "city": "SAN DIEGO",
        "state": "CA",
        "postalCode": "92117-5530"
      },
      {
        "line": [
          "8625 Lamar St"
        ],
        "city": "SPRING VALLEY",
        "state": "CA",
        "postalCode": "91977-2518"
      },
      {
        "line": [
          "735 Arcadia Ave"
        ],
        "city": "NATIONAL CITY",
        "state": "CA",
        "postalCode": "91950-3949"
      },
      {
        "line": [
          "1340 E Madison Ave"
        ],
        "city": "EL CAJON",
        "state": "CA",
        "postalCode": "92021-8501"
      }
    ],
    "extension": [
      {
        "url": "https://fhir.athena.io/StructureDefinition/ah-practice",
        "valueReference": {
          "reference": "Organization/a-1.Practice-12903"
        }
      },
      {
        "url": "https://fhir.athena.io/StructureDefinition/ah-brand",
        "valueReference": {
          "reference": "Organization/a-12903.Brand-2"
        }
      }
    ]
  },
  "fullUrl": "urn:uuid:6b42c9d9-ed4e-52f4-b6da-5d71eadb9887"
}