{
  "resource": {
    "resourceType": "Organization",
    "id": "3663ead8-c21c-5d84-acd1-b4ac418418a6",
    "name": "Ultra Health Providers of Florida",
    "endpoint": [
      {
        "reference": "Endpoint/27a4e967-47aa-5a9c-a572-b8297ee268a2"
      },
      {
        "reference": "Endpoint/9ff63120-c71e-5ee4-b49e-50a267176d10"
      }
    ],
    "identifier": [
      {
        "system": "http://hl7.org/fhir/sid/us-npi",
        "value": "1528549490"
      }
    ],
    "address": [
      {
        "line": [
          "2121 E Commercial Blvd"
        ],
        "city": "FORT LAUDERDALE",
        "state": "FL",
        "postalCode": "33308-3821"
      },
      {
        "line": [
          "710 N. Sun Drive"
        ],
        "city": "LAKE MARY",
        "state": "FL",
        "postalCode": "32746-2507"
      },
      {
        "line": [
          "9311 S Orange Blossom Trail"
        ],
        "city": "ORLANDO",
        "state": "FL",
        "postalCode": "32837-8310"
      },
      {
        "line": [
          "1701 NE 26th St"
        ],
        "city": "FORT LAUDERDALE",
        "state": "FL",
        "postalCode": "33305-1412"
      },
      {
        "line": [
          "701 N Wilder Road"
        ],
        "city": "PLANT CITY",
        "state": "FL",
        "postalCode": "33566-7547"
      },
      {
        "line": [
          "100 N Lake Street"
        ],
        "city": "CRESCENT CITY",
        "state": "FL",
        "postalCode": "32112-2620"
      },
      {
        "line": [
          "100 N Lake Street"
        ],
        "city": "ORLANDO",
        "state": "FL",
        "postalCode": "32837-8310"
      },
      {
        "line": [
          "701 N. Wilder Road"
        ],
        "city": "PLANT CITY",
        "state": "FL",
        "postalCode": "33566-7547"
      },
      {
        "line": [
          "211 E RICH AVE"
        ],
        "city": "DELAND",
        "state": "FL",
        "postalCode": "32724-4356"
      }
    ],
    "extension": [
      {
        "url": "https://fhir.athena.io/StructureDefinition/ah-practice",
        "valueReference": {
          "reference": "Organization/a-1.Practice-18512"
        }
      },
      {
        "url": "https://fhir.athena.io/StructureDefinition/ah-brand",
        "valueReference": {
          "reference": "Organization/a-18512.Brand-1"
        }
      }
    ]
  },
  "fullUrl": "urn:uuid:3663ead8-c21c-5d84-acd1-b4ac418418a6"
}