{
  "resource": {
    "resourceType": "Organization",
    "id": "e884d11e-208c-5733-8cf1-f4ff0520618f",
    "name": "BHCS Wound Care Center",
    "endpoint": [
      {
        "reference": "Endpoint/27a4e967-47aa-5a9c-a572-b8297ee268a2"
      },
      {
        "reference": "Endpoint/e1885ba8-fb43-5c5e-8071-6e24835cf28d"
      }
    ],
    "identifier": [
      {
        "system": "http://hl7.org/fhir/sid/us-npi",
        "value": "1699904169"
      }
    ],
    "address": [
      {
        "line": [
          "1101 S HAVERHILL RD"
        ],
        "city": "WEST PALM BEACH",
        "state": "FL",
        "postalCode": "33415-5130"
      },
      {
        "line": [
          "288 LAS PALMAS ST"
        ],
        "city": "WEST PALM BEACH",
        "state": "FL",
        "postalCode": "33411-1323"
      },
      {
        "line": [
          "190 Congress Park Drive",
          "Suite 160"
        ],
        "city": "DELRAY BEACH",
        "state": "FL",
        "postalCode": "33445-4707"
      },
      {
        "line": [
          "7775 Lake Worth Rd"
        ],
        "city": "LAKE WORTH",
        "state": "FL",
        "postalCode": "33467-2536"
      },
      {
        "line": [
          "440 EAST OCEAN AVE"
        ],
        "city": "LAKE WORTH",
        "state": "FL",
        "postalCode": "33462-4431"
      },
      {
        "line": [
          "2000 LOWSON BLVD"
        ],
        "city": "DELRAY BEACH",
        "state": "FL",
        "postalCode": "33445-2033"
      },
      {
        "line": [
          "5203 COLBRIGHT RD"
        ],
        "city": "LAKE WORTH",
        "state": "FL",
        "postalCode": "33467-5640"
      },
      {
        "line": [
          "300 EXECUTIVE CENTER DR"
        ],
        "city": "WEST PALM BEACH",
        "state": "FL",
        "postalCode": "33401-4842"
      },
      {
        "line": [
          "2815 S SEACREST BLVD"
        ],
        "city": "BOYNTON BEACH",
        "state": "FL",
        "postalCode": "33435-7969"
      },
      {
        "line": [
          "2950 NW 5 AVE"
        ],
        "city": "BOCA RATON",
        "state": "FL",
        "postalCode": "33431-8270"
      },
      {
        "line": [
          "13219 44 PLACE NORTH"
        ],
        "city": "WEST PALM BEACH",
        "state": "FL",
        "postalCode": "33411-8418"
      },
      {
        "line": [
          "4405 LAKEWOOD RD"
        ],
        "city": "LAKE WORTH",
        "state": "FL",
        "postalCode": "33461-3414"
      },
      {
        "line": [
          "1155 SE Monterey Rd Ext."
        ],
        "city": "STUART",
        "state": "FL",
        "postalCode": "34994-4617"
      },
      {
        "line": [
          "10521 SW Village Center Drive",
          "#104"
        ],
        "city": "PORT SAINT LUCIE",
        "state": "FL",
        "postalCode": "34987-1930"
      },
      {
        "line": [
          "137 SANTIAGO STREET"
        ],
        "city": "WEST PALM BEACH",
        "state": "FL",
        "postalCode": "33411-1228"
      }
    ],
    "extension": [
      {
        "url": "https://fhir.athena.io/StructureDefinition/ah-practice",
        "valueReference": {
          "reference": "Organization/a-1.Practice-15305"
        }
      },
      {
        "url": "https://fhir.athena.io/StructureDefinition/ah-brand",
        "valueReference": {
          "reference": "Organization/a-15305.Brand-1"
        }
      }
    ]
  },
  "fullUrl": "urn:uuid:e884d11e-208c-5733-8cf1-f4ff0520618f"
}