{
  "resource": {
    "resourceType": "Organization",
    "id": "ee113526-6286-5b01-a107-90703c87caf4",
    "name": "Mindful Care",
    "endpoint": [
      {
        "reference": "Endpoint/27a4e967-47aa-5a9c-a572-b8297ee268a2"
      },
      {
        "reference": "Endpoint/0b49c339-7660-545c-9e7c-0773c5c18507"
      }
    ],
    "identifier": [
      {
        "system": "http://hl7.org/fhir/sid/us-npi",
        "value": "1174784953"
      },
      {
        "system": "http://hl7.org/fhir/sid/us-npi",
        "value": "1013514447"
      },
      {
        "system": "http://hl7.org/fhir/sid/us-npi",
        "value": "1386238707"
      }
    ],
    "address": [
      {
        "line": [
          "35 Broadway",
          "1st Floor"
        ],
        "city": "HICKSVILLE",
        "state": "NY",
        "postalCode": "11801-4284"
      },
      {
        "line": [
          "510 HEMPSTEAD TURNPIKE",
          "SUITE 203"
        ],
        "city": "WEST HEMPSTEAD",
        "state": "NY",
        "postalCode": "11552-1152"
      },
      {
        "line": [
          "3100 47th Ave",
          "Ste 3100"
        ],
        "city": "LONG ISLAND CITY",
        "state": "NY",
        "postalCode": "11101-3010"
      },
      {
        "line": [
          "230 PARK AVE",
          "FLOORS 3 AND 4"
        ],
        "city": "NEW YORK",
        "state": "NY",
        "postalCode": "10169-0005"
      },
      {
        "line": [
          "159 N Sangamon Street",
          "Floor 2"
        ],
        "city": "CHICAGO",
        "state": "IL",
        "postalCode": "60607-2201"
      },
      {
        "line": [
          "221 River street",
          "Ste 901"
        ],
        "city": "HOBOKEN",
        "state": "NJ",
        "postalCode": "07030-5989"
      },
      {
        "line": [
          "1500 North Halsted Street",
          "Floor 2"
        ],
        "city": "CHICAGO",
        "state": "IL",
        "postalCode": "60642-2517"
      },
      {
        "line": [
          "44 Mamaroneck Avenue",
          "#2"
        ],
        "city": "WHITE PLAINS",
        "state": "NY",
        "postalCode": "10601-3308"
      },
      {
        "line": [
          "902 BROADWAY",
          "FL 6"
        ],
        "city": "NEW YORK",
        "state": "NY",
        "postalCode": "10010-6039"
      },
      {
        "line": [
          "41 Flatbush Ave",
          "Floor 1 & 2"
        ],
        "city": "BROOKLYN",
        "state": "NY",
        "postalCode": "11217-1145"
      }
    ],
    "extension": [
      {
        "url": "https://fhir.athena.io/StructureDefinition/ah-practice",
        "valueReference": {
          "reference": "Organization/a-1.Practice-23787"
        }
      },
      {
        "url": "https://fhir.athena.io/StructureDefinition/ah-brand",
        "valueReference": {
          "reference": "Organization/a-23787.Brand-1"
        }
      }
    ]
  },
  "fullUrl": "urn:uuid:ee113526-6286-5b01-a107-90703c87caf4"
}