{
  "resource": {
    "resourceType": "Organization",
    "id": "0930a0b6-4551-55aa-a128-914dfcaba9f8",
    "name": "Consultants of Kidney Disease",
    "endpoint": [
      {
        "reference": "Endpoint/27a4e967-47aa-5a9c-a572-b8297ee268a2"
      },
      {
        "reference": "Endpoint/d0936605-8d14-510c-8a91-d20e59bfbc5c"
      }
    ],
    "identifier": [
      {
        "system": "http://hl7.org/fhir/sid/us-npi",
        "value": "1033658174"
      }
    ],
    "address": [
      {
        "line": [
          "8440 Walnut Hill Lane",
          "Professional Building 4 Suite 580"
        ],
        "city": "DALLAS",
        "state": "TX",
        "postalCode": "75231-4142"
      },
      {
        "line": [
          "1024 N Galloway Ave"
        ],
        "city": "MESQUITE",
        "state": "TX",
        "postalCode": "75149-2434"
      },
      {
        "line": [
          "2329 PARKER RD"
        ],
        "city": "CARROLLTON",
        "state": "TX",
        "postalCode": "75010-4713"
      },
      {
        "line": [
          "401 W Campbell Rd"
        ],
        "city": "RICHARDSON",
        "state": "TX",
        "postalCode": "75080-3416"
      },
      {
        "line": [
          "7600 lakeview pkwy"
        ],
        "city": "ROWLETT",
        "state": "TX",
        "postalCode": "75088-4384"
      },
      {
        "line": [
          "3001 E PRESIDENT GEORGE BUSH HWY STE 175"
        ],
        "city": "RICHARDSON",
        "state": "TX",
        "postalCode": "75082-3551"
      },
      {
        "line": [
          "3650 N Buckner Blvd Ste 108"
        ],
        "city": "DALLAS",
        "state": "TX",
        "postalCode": "75228-5661"
      },
      {
        "line": [
          "3150 Horizon Rd"
        ],
        "city": "ROCKWALL",
        "state": "TX",
        "postalCode": "75032-7805"
      },
      {
        "line": [
          "8050 Meadow Rd"
        ],
        "city": "DALLAS",
        "state": "TX",
        "postalCode": "75231-3406"
      },
      {
        "line": [
          "2231 Highway 80"
        ],
        "city": "MESQUITE",
        "state": "TX",
        "postalCode": "75150-5510"
      },
      {
        "line": [
          "3901 W 15th Street"
        ],
        "city": "PLANO",
        "state": "TX",
        "postalCode": "75075-3901"
      },
      {
        "line": [
          "6800 Scenic Dr"
        ],
        "city": "ROWLETT",
        "state": "TX",
        "postalCode": "75088-4552"
      },
      {
        "line": [
          "1105 Central Expressway"
        ],
        "city": "PLANO",
        "state": "TX",
        "postalCode": "75024-1105"
      },
      {
        "line": [
          "5242 Medical Drive"
        ],
        "city": "ROCKWALL",
        "state": "TX",
        "postalCode": "75032-5001"
      },
      {
        "line": [
          "1650 Republic Pkwy #100"
        ],
        "city": "MESQUITE",
        "state": "TX",
        "postalCode": "75150-6920"
      },
      {
        "line": [
          "11255 GARLAND RD STE 1160"
        ],
        "city": "DALLAS",
        "state": "TX",
        "postalCode": "75218-2573"
      },
      {
        "line": [
          "901 Interstate Hwy 30"
        ],
        "city": "ROYSE CITY",
        "state": "TX",
        "postalCode": "75189-7518"
      },
      {
        "line": [
          "12400 Dallas Parkway"
        ],
        "city": "FRISCO",
        "state": "TX",
        "postalCode": "75034-0000"
      },
      {
        "line": [
          "1601 N belt line Rd"
        ],
        "city": "MESQUITE",
        "state": "TX",
        "postalCode": "75149-1790"
      },
      {
        "line": [
          "2300 E Farm to Market Rd 544"
        ],
        "city": "WYLIE",
        "state": "TX",
        "postalCode": "75098-4939"
      },
      {
        "line": [
          "3617 O'Hare Dr"
        ],
        "city": "MESQUITE",
        "state": "TX",
        "postalCode": "75150-4539"
      },
      {
        "line": [
          "6800 Preston Road"
        ],
        "city": "PLANO",
        "state": "TX",
        "postalCode": "75024-0000"
      },
      {
        "line": [
          "1023 N Belt Line Rd"
        ],
        "city": "MESQUITE",
        "state": "TX",
        "postalCode": "75149-1788"
      },
      {
        "line": [
          "10611 Garland Road",
          "Ste 105"
        ],
        "city": "DALLAS",
        "state": "TX",
        "postalCode": "75218-2680"
      },
      {
        "line": [
          "101 Circle Drive"
        ],
        "city": "HILLSBORO",
        "state": "TX",
        "postalCode": "76645-2670"
      },
      {
        "line": [
          "2600 W Pleasant Run Rd"
        ],
        "city": "LANCASTER",
        "state": "TX",
        "postalCode": "75146-1114"
      },
      {
        "line": [
          "1011 N Galloway Ave"
        ],
        "city": "MESQUITE",
        "state": "TX",
        "postalCode": "75149-2433"
      },
      {
        "line": [
          "3330 N Galloway Ave #160"
        ],
        "city": "MESQUITE",
        "state": "TX",
        "postalCode": "75150-4701"
      },
      {
        "line": [
          "6700 Heritage Parkway"
        ],
        "city": "ROCKWALL",
        "state": "TX",
        "postalCode": "75087-8748"
      },
      {
        "line": [
          "7700 Lakeview Pkwy Suite 400"
        ],
        "city": "ROWLETT",
        "state": "TX",
        "postalCode": "75088-9322"
      },
      {
        "line": [
          "2850 RIDGE ROAD SUITE 112"
        ],
        "city": "ROCKWALL",
        "state": "TX",
        "postalCode": "75032-5506"
      },
      {
        "line": [
          "8200 Walnut Hill Ln"
        ],
        "city": "DALLAS",
        "state": "TX",
        "postalCode": "75231-4426"
      },
      {
        "line": [
          "2504 RIDGE RD STE 206"
        ],
        "city": "ROCKWALL",
        "state": "TX",
        "postalCode": "75087-2571"
      },
      {
        "line": [
          "2831 E President George Bush Hwy"
        ],
        "city": "RICHARDSON",
        "state": "TX",
        "postalCode": "75082-3561"
      },
      {
        "line": [
          "6200 W PARKER RD"
        ],
        "city": "PLANO",
        "state": "TX",
        "postalCode": "75093-8185"
      },
      {
        "line": [
          "6300 W PARKER RD STE G20"
        ],
        "city": "PLANO",
        "state": "TX",
        "postalCode": "75093-8105"
      },
      {
        "line": [
          "4500 Medical Center Drive"
        ],
        "city": "MCKINNEY",
        "state": "TX",
        "postalCode": "75069-4500"
      },
      {
        "line": [
          "9440 Poppy Drive",
          "9440 Poppy Drive"
        ],
        "city": "DALLAS",
        "state": "TX",
        "postalCode": "75218-2612"
      },
      {
        "line": [
          "3615 N BELT LINE RD STE 300"
        ],
        "city": "SUNNYVALE",
        "state": "TX",
        "postalCode": "75182-9228"
      },
      {
        "line": [
          "200 Arch Street"
        ],
        "city": "ROYSE CITY",
        "state": "TX",
        "postalCode": "75189-8631"
      },
      {
        "line": [
          "9840 N Central Expy Ste 340"
        ],
        "city": "DALLAS",
        "state": "TX",
        "postalCode": "75231-0952"
      },
      {
        "line": [
          "3505 S Buckner Blvd"
        ],
        "city": "DALLAS",
        "state": "TX",
        "postalCode": "75227-5451"
      },
      {
        "line": [
          "6300 Samuell Blvd, Village II Shopping Center"
        ],
        "city": "DALLAS",
        "state": "TX",
        "postalCode": "75228-7137"
      },
      {
        "line": [
          "9525 Greenville Ave"
        ],
        "city": "DALLAS",
        "state": "TX",
        "postalCode": "75243-4116"
      },
      {
        "line": [
          "1001 Raintree Circle"
        ],
        "city": "ALLEN",
        "state": "TX",
        "postalCode": "75013-0000"
      },
      {
        "line": [
          "1010 Emerald Isle Dr"
        ],
        "city": "DALLAS",
        "state": "TX",
        "postalCode": "75218-3980"
      },
      {
        "line": [
          "10611 GARLAND RD STE 105"
        ],
        "city": "DALLAS",
        "state": "TX",
        "postalCode": "75218-2680"
      },
      {
        "line": [
          "3330 North Galloway Ave"
        ],
        "city": "MESQUITE",
        "state": "TX",
        "postalCode": "75150-4728"
      }
    ],
    "extension": [
      {
        "url": "https://fhir.athena.io/StructureDefinition/ah-practice",
        "valueReference": {
          "reference": "Organization/a-1.Practice-16621"
        }
      },
      {
        "url": "https://fhir.athena.io/StructureDefinition/ah-brand",
        "valueReference": {
          "reference": "Organization/a-16621.Brand-2"
        }
      }
    ]
  },
  "fullUrl": "urn:uuid:0930a0b6-4551-55aa-a128-914dfcaba9f8"
}