{
  "resource": {
    "resourceType": "Organization",
    "id": "28ecc29c-41ce-59af-823c-aa9c6beffcc1",
    "name": "NHCLV - Hamilton",
    "endpoint": [
      {
        "reference": "Endpoint/27a4e967-47aa-5a9c-a572-b8297ee268a2"
      },
      {
        "reference": "Endpoint/83a8f517-cc8b-5940-9e52-9181eae64adc"
      }
    ],
    "identifier": [
      {
        "system": "http://hl7.org/fhir/sid/us-npi",
        "value": "1841429529"
      },
      {
        "system": "http://hl7.org/fhir/sid/us-npi",
        "value": "1326418245"
      },
      {
        "system": "http://hl7.org/fhir/sid/us-npi",
        "value": "1750821369"
      },
      {
        "system": "http://hl7.org/fhir/sid/us-npi",
        "value": "1053946079"
      },
      {
        "system": "http://hl7.org/fhir/sid/us-npi",
        "value": "1699418509"
      }
    ],
    "address": [
      {
        "line": [
          "218 N 2nd St"
        ],
        "city": "ALLENTOWN",
        "state": "PA",
        "postalCode": "18102-3508"
      },
      {
        "line": [
          "160 Hamilton St"
        ],
        "city": "ALLENTOWN",
        "state": "PA",
        "postalCode": "18101-1948"
      },
      {
        "line": [
          "1210 E 4th St"
        ],
        "city": "BETHLEHEM",
        "state": "PA",
        "postalCode": "18015-2016"
      },
      {
        "line": [
          "160 HAMILTON ST",
          "340B00131100LV"
        ],
        "city": "ALLENTOWN",
        "state": "PA",
        "postalCode": "18101-1948"
      },
      {
        "line": [
          "635 E Broad St",
          "340B00131100LV"
        ],
        "city": "BETHLEHEM",
        "state": "PA",
        "postalCode": "18018-6332"
      },
      {
        "line": [
          "218 North 2nd Street",
          "340B00131100LV"
        ],
        "city": "ALLENTOWN",
        "state": "PA",
        "postalCode": "18102-3508"
      },
      {
        "line": [
          "1210 East 4th Street",
          "340B00131100LV"
        ],
        "city": "BETHLEHEM",
        "state": "PA",
        "postalCode": "18015-2016"
      },
      {
        "line": [
          "635 E Broad St"
        ],
        "city": "BETHLEHEM",
        "state": "PA",
        "postalCode": "18018-6332"
      },
      {
        "line": [
          "1101 Northampton Street",
          "340B00131100LV"
        ],
        "city": "EASTON",
        "state": "PA",
        "postalCode": "18042-4152"
      },
      {
        "line": [
          "1101 Northampton St"
        ],
        "city": "EASTON",
        "state": "PA",
        "postalCode": "18042-4152"
      },
      {
        "line": [
          "1101 Northampton St",
          "Ste 102"
        ],
        "city": "EASTON",
        "state": "PA",
        "postalCode": "18042-4152"
      },
      {
        "line": [
          "160 Hamilton St",
          "340B00131100LV"
        ],
        "city": "ALLENTOWN",
        "state": "PA",
        "postalCode": "18101-1948"
      }
    ],
    "extension": [
      {
        "url": "https://fhir.athena.io/StructureDefinition/ah-practice",
        "valueReference": {
          "reference": "Organization/a-1.Practice-21036"
        }
      },
      {
        "url": "https://fhir.athena.io/StructureDefinition/ah-brand",
        "valueReference": {
          "reference": "Organization/a-21036.Brand-1"
        }
      }
    ]
  },
  "fullUrl": "urn:uuid:28ecc29c-41ce-59af-823c-aa9c6beffcc1"
}