{
  "resource": {
    "resourceType": "Organization",
    "id": "d287a42d-f32e-5a7e-80b5-54f55828bdbc",
    "name": "AH_CEL_IP",
    "endpoint": [
      {
        "reference": "Endpoint/27a4e967-47aa-5a9c-a572-b8297ee268a2"
      },
      {
        "reference": "Endpoint/5a6ce72d-55f1-568b-abdc-c4ae8ab1efc5"
      }
    ],
    "identifier": [
      {
        "system": "http://hl7.org/fhir/sid/us-npi",
        "value": "1679666598"
      }
    ],
    "address": [
      {
        "line": [
          "8300 RED BUG LAKE RD"
        ],
        "city": "OVIEDO",
        "state": "FL",
        "postalCode": "32765-6801"
      },
      {
        "line": [
          "601 E ALTAMONTE DR"
        ],
        "city": "ALTAMONTE SPRINGS",
        "state": "FL",
        "postalCode": "32701-4802"
      },
      {
        "line": [
          "1401 W SEMINOLE BLVD"
        ],
        "city": "SANFORD",
        "state": "FL",
        "postalCode": "32771-6743"
      },
      {
        "line": [
          "805 Oakley Seaver Dr, Ste. A"
        ],
        "city": "CLERMONT",
        "state": "FL",
        "postalCode": "34711-1968"
      },
      {
        "line": [
          "700 W OAK ST"
        ],
        "city": "KISSIMMEE",
        "state": "FL",
        "postalCode": "34741-4924"
      },
      {
        "line": [
          "400 CELEBRATION PL"
        ],
        "city": "KISSIMMEE",
        "state": "FL",
        "postalCode": "34747-4970"
      },
      {
        "line": [
          "6700 LAKE NONA BLVD"
        ],
        "city": "ORLANDO",
        "state": "FL",
        "postalCode": "32827-7729"
      },
      {
        "line": [
          "207 PARK PLACE BLVD STE 3"
        ],
        "city": "KISSIMMEE",
        "state": "FL",
        "postalCode": "34741-2373"
      },
      {
        "line": [
          "6718 LAKE NONA BLVD STE 240"
        ],
        "city": "ORLANDO",
        "state": "FL",
        "postalCode": "32827-7985"
      },
      {
        "line": [
          "7148 Curry Ford Road, Ste 200"
        ],
        "city": "ORLANDO",
        "state": "FL",
        "postalCode": "32822-5803"
      },
      {
        "line": [
          "6424 ALEXANDRA LOUISE DR STE 480"
        ],
        "city": "ORLANDO",
        "state": "FL",
        "postalCode": "32827-5810"
      },
      {
        "line": [
          "1723 Lucerne Terrace Ste 100"
        ],
        "city": "ORLANDO",
        "state": "FL",
        "postalCode": "32806-2916"
      },
      {
        "line": [
          "795 Primera Blvd Ste 1031"
        ],
        "city": "LAKE MARY",
        "state": "FL",
        "postalCode": "32746-2191"
      },
      {
        "line": [
          "6424 ALEXANDRA LOUISE DR STE 400"
        ],
        "city": "ORLANDO",
        "state": "FL",
        "postalCode": "32827-5810"
      },
      {
        "line": [
          "7483 Sand Lake Commons Blvd",
          "Suite 100"
        ],
        "city": "ORLANDO",
        "state": "FL",
        "postalCode": "32819-8040"
      },
      {
        "line": [
          "2859 Delaney Ave"
        ],
        "city": "ORLANDO",
        "state": "FL",
        "postalCode": "32806-5412"
      },
      {
        "line": [
          "8400 RED BUG LAKE RD"
        ],
        "city": "OVIEDO",
        "state": "FL",
        "postalCode": "32765-6828"
      },
      {
        "line": [
          "845 Oakley Seaver Drive"
        ],
        "city": "CLERMONT",
        "state": "FL",
        "postalCode": "34711-1957"
      },
      {
        "line": [
          "9430 Turkey Lake Road",
          "Suite 116"
        ],
        "city": "ORLANDO",
        "state": "FL",
        "postalCode": "32819-8015"
      },
      {
        "line": [
          "7301 Stonerock Cir, Ste 1"
        ],
        "city": "ORLANDO",
        "state": "FL",
        "postalCode": "32819-8004"
      },
      {
        "line": [
          "1711 Amazing Way, Ste 206"
        ],
        "city": "OCOEE",
        "state": "FL",
        "postalCode": "34761-3491"
      }
    ],
    "extension": [
      {
        "url": "https://fhir.athena.io/StructureDefinition/ah-practice",
        "valueReference": {
          "reference": "Organization/a-1.Practice-29679"
        }
      },
      {
        "url": "https://fhir.athena.io/StructureDefinition/ah-brand",
        "valueReference": {
          "reference": "Organization/a-29679.Brand-1"
        }
      }
    ]
  },
  "fullUrl": "urn:uuid:d287a42d-f32e-5a7e-80b5-54f55828bdbc"
}