{
  "resource": {
    "resourceType": "Organization",
    "id": "3cbfe7da-2901-59aa-b2c8-8555cebf21cd",
    "name": "Achieve Brain and Spine",
    "endpoint": [
      {
        "reference": "Endpoint/27a4e967-47aa-5a9c-a572-b8297ee268a2"
      },
      {
        "reference": "Endpoint/235f82bf-5e19-5257-afe7-bdfc5d6970a3"
      }
    ],
    "identifier": [
      {
        "system": "http://hl7.org/fhir/sid/us-npi",
        "value": "1437621117"
      }
    ],
    "address": [
      {
        "line": [
          "2811 WILSHIRE BLVD., SUITE 930"
        ],
        "city": "SANTA MONICA",
        "state": "CA",
        "postalCode": "90403-4803"
      },
      {
        "line": [
          "120 South Spalding Dr Suite 402"
        ],
        "city": "BEVERLY HILLS",
        "state": "CA",
        "postalCode": "90212-1842"
      },
      {
        "line": [
          "8700 BEVERLY BLVD"
        ],
        "city": "LOS ANGELES",
        "state": "CA",
        "postalCode": "90048-1804"
      },
      {
        "line": [
          "4650 Lincoln Blvd"
        ],
        "city": "MARINA DEL REY",
        "state": "CA",
        "postalCode": "90292-6306"
      },
      {
        "line": [
          "5601 DE SOTO AVE"
        ],
        "city": "WOODLAND HILLS",
        "state": "CA",
        "postalCode": "91367-6701"
      },
      {
        "line": [
          "420 34th St"
        ],
        "city": "BAKERSFIELD",
        "state": "CA",
        "postalCode": "93301-2237"
      },
      {
        "line": [
          "2121 SANTA MONICA BLVD"
        ],
        "city": "SANTA MONICA",
        "state": "CA",
        "postalCode": "90403-2303"
      },
      {
        "line": [
          "16501 Ventura Blvd Ste 103"
        ],
        "city": "ENCINO",
        "state": "CA",
        "postalCode": "91436-2007"
      },
      {
        "line": [
          "1250 16TH ST"
        ],
        "city": "SANTA MONICA",
        "state": "CA",
        "postalCode": "90404-1249"
      },
      {
        "line": [
          "2121 WILSHIRE BLVD STE 201"
        ],
        "city": "SANTA MONICA",
        "state": "CA",
        "postalCode": "90403-5742"
      },
      {
        "line": [
          "13160 Mindanao Way, Suite 150"
        ],
        "city": "MARINA DEL REY",
        "state": "CA",
        "postalCode": "90292-6308"
      },
      {
        "line": [
          "3828 Delmas Terrace"
        ],
        "city": "CULVER CITY",
        "state": "CA",
        "postalCode": "90232-2713"
      },
      {
        "line": [
          "10780 SANTA MONICA BLVD SUITE 210"
        ],
        "city": "LOS ANGELES",
        "state": "CA",
        "postalCode": "90025-7614"
      },
      {
        "line": [
          "18321 CLARK ST"
        ],
        "city": "TARZANA",
        "state": "CA",
        "postalCode": "91356-3501"
      },
      {
        "line": [
          "1300 N VERMONT AVE"
        ],
        "city": "LOS ANGELES",
        "state": "CA",
        "postalCode": "90027-6005"
      },
      {
        "line": [
          "3330 LOMITA BLVD"
        ],
        "city": "TORRANCE",
        "state": "CA",
        "postalCode": "90505-5002"
      },
      {
        "line": [
          "1401 S Grand Ave"
        ],
        "city": "LOS ANGELES",
        "state": "CA",
        "postalCode": "90015-3010"
      },
      {
        "line": [
          "2121 SANTA MONICA BLVD"
        ],
        "city": "Santa Monica",
        "state": "CA",
        "postalCode": "90404-2303"
      },
      {
        "line": [
          "2801 WILSHIRE BLVD"
        ],
        "city": "SANTA MONICA",
        "state": "CA",
        "postalCode": "90403-4801"
      },
      {
        "line": [
          "18840 Ventura Blvd Ste 207"
        ],
        "city": "TARZANA",
        "state": "CA",
        "postalCode": "91356-3301"
      },
      {
        "line": [
          "2080 Century Park East 1200"
        ],
        "city": "LOS ANGELES",
        "state": "CA",
        "postalCode": "90067-2001"
      }
    ],
    "extension": [
      {
        "url": "https://fhir.athena.io/StructureDefinition/ah-practice",
        "valueReference": {
          "reference": "Organization/a-1.Practice-19074"
        }
      },
      {
        "url": "https://fhir.athena.io/StructureDefinition/ah-brand",
        "valueReference": {
          "reference": "Organization/a-19074.Brand-1"
        }
      }
    ]
  },
  "fullUrl": "urn:uuid:3cbfe7da-2901-59aa-b2c8-8555cebf21cd"
}