{
  "resource": {
    "resourceType": "Organization",
    "id": "1f61b625-8259-5efd-a865-b70372634bfd",
    "name": "Rocco Tutela Jr MD",
    "endpoint": [
      {
        "reference": "Endpoint/27a4e967-47aa-5a9c-a572-b8297ee268a2"
      },
      {
        "reference": "Endpoint/e9699d2b-cd11-5a0e-bdef-9923c9dc4dbb"
      }
    ],
    "identifier": [
      {
        "system": "http://hl7.org/fhir/sid/us-npi",
        "value": "1306979208"
      }
    ],
    "address": [
      {
        "line": [
          "254 Easton Avenue"
        ],
        "city": "NEW BRUNSWICK",
        "state": "NJ",
        "postalCode": "08901-1766"
      },
      {
        "line": [
          "1 RWJ Place"
        ],
        "city": "NEW BRUNSWICK",
        "state": "NJ",
        "postalCode": "08901-1766"
      },
      {
        "line": [
          "1 RWJ Place"
        ],
        "city": "NEW BRUNSWICK",
        "state": "NJ",
        "postalCode": "08901-1928"
      },
      {
        "line": [
          "1 ROBERT WOOD DR",
          "NEW BRUNSWIK"
        ],
        "city": "NEW BRUNSWICK",
        "state": "NJ",
        "postalCode": "08901-1928"
      },
      {
        "line": [
          "1250 MARIGOLD ST."
        ],
        "city": "NORTH BRUNSWICK",
        "state": "NJ",
        "postalCode": "08902-1722"
      },
      {
        "line": [
          "1250 Marigold St."
        ],
        "city": "NORTH BRUNSWICK",
        "state": "NJ",
        "postalCode": "08902-1722"
      },
      {
        "line": [
          "294 APPLEGARTH RD",
          "SUITE E"
        ],
        "city": "MONROE TOWNSHIP",
        "state": "NJ",
        "postalCode": "08831-3809"
      },
      {
        "line": [
          "254 EASTON AVE"
        ],
        "city": "NEW BRUNSWICK",
        "state": "NJ",
        "postalCode": "08901-1766"
      }
    ],
    "extension": [
      {
        "url": "https://fhir.athena.io/StructureDefinition/ah-practice",
        "valueReference": {
          "reference": "Organization/a-1.Practice-20317"
        }
      },
      {
        "url": "https://fhir.athena.io/StructureDefinition/ah-brand",
        "valueReference": {
          "reference": "Organization/a-20317.Brand-1"
        }
      }
    ]
  },
  "fullUrl": "urn:uuid:1f61b625-8259-5efd-a865-b70372634bfd"
}