{
  "resource": {
    "resourceType": "Organization",
    "id": "e69bdb07-1f6f-566f-a20e-3f9b0911d6c6",
    "name": "Comprehensive Medical Services LLC",
    "endpoint": [
      {
        "reference": "Endpoint/27a4e967-47aa-5a9c-a572-b8297ee268a2"
      },
      {
        "reference": "Endpoint/7a9389b7-0750-5cd2-94dc-75c7ce0f6623"
      }
    ],
    "identifier": [
      {
        "system": "http://hl7.org/fhir/sid/us-npi",
        "value": "1568046837"
      }
    ],
    "address": [
      {
        "line": [
          "4000 Village View Dr"
        ],
        "city": "GAINESVILLE",
        "state": "GA",
        "postalCode": "30506-4331"
      },
      {
        "line": [
          "2450 BUFORD DR"
        ],
        "city": "LAWRENCEVILLE",
        "state": "GA",
        "postalCode": "30043-2102"
      },
      {
        "line": [
          "7901 4TH ST N."
        ],
        "city": "SAINT PETERSBURG",
        "state": "FL",
        "postalCode": "33702-4399"
      },
      {
        "line": [
          "7901 4TH ST N.",
          "Suite 300"
        ],
        "city": "SAINT PETERSBURG",
        "state": "FL",
        "postalCode": "33702-4399"
      },
      {
        "line": [
          "3997 FIVE FORKS TRICKUM RD SW"
        ],
        "city": "LILBURN",
        "state": "GA",
        "postalCode": "30047-2338"
      },
      {
        "line": [
          "89 OZORA RD"
        ],
        "city": "LOGANVILLE",
        "state": "GA",
        "postalCode": "30052-2158"
      },
      {
        "line": [
          "3315 Thompson Bridge Rd"
        ],
        "city": "GAINESVILLE",
        "state": "GA",
        "postalCode": "30506-1521"
      },
      {
        "line": [
          "4608 Lawrenceville Hwy"
        ],
        "city": "TUCKER",
        "state": "GA",
        "postalCode": "30084-2903"
      },
      {
        "line": [
          "4355 S Lee St"
        ],
        "city": "BUFORD",
        "state": "GA",
        "postalCode": "30518-5756"
      },
      {
        "line": [
          "1375 WEBB GIN HOUSE RD"
        ],
        "city": "LAWRENCEVILLE",
        "state": "GA",
        "postalCode": "30045-5440"
      },
      {
        "line": [
          "3051 WHITESIDE RD"
        ],
        "city": "MACON",
        "state": "GA",
        "postalCode": "31216-6209"
      },
      {
        "line": [
          "2601 THOMPSON BRIDGE RD"
        ],
        "city": "GAINESVILLE",
        "state": "GA",
        "postalCode": "30501-1673"
      },
      {
        "line": [
          "1740 OLD 41 HWY NW"
        ],
        "city": "KENNESAW",
        "state": "GA",
        "postalCode": "30152-4428"
      },
      {
        "line": [
          "11405 MEDLOCK BRIDGE RD"
        ],
        "city": "DULUTH",
        "state": "GA",
        "postalCode": "30097-1688"
      },
      {
        "line": [
          "3500 ANNANDALE LN"
        ],
        "city": "SUWANEE",
        "state": "GA",
        "postalCode": "30024-2150"
      },
      {
        "line": [
          "5373 THOMPSON MILL RD"
        ],
        "city": "HOSCHTON",
        "state": "GA",
        "postalCode": "30548-4037"
      }
    ],
    "extension": [
      {
        "url": "https://fhir.athena.io/StructureDefinition/ah-practice",
        "valueReference": {
          "reference": "Organization/a-1.Practice-24144"
        }
      },
      {
        "url": "https://fhir.athena.io/StructureDefinition/ah-brand",
        "valueReference": {
          "reference": "Organization/a-24144.Brand-1"
        }
      }
    ]
  },
  "fullUrl": "urn:uuid:e69bdb07-1f6f-566f-a20e-3f9b0911d6c6"
}