{
  "resource": {
    "resourceType": "Organization",
    "id": "6666a88b-9242-5bc9-ba0a-d928be61694c",
    "name": "Florida Vascular Care",
    "endpoint": [
      {
        "reference": "Endpoint/27a4e967-47aa-5a9c-a572-b8297ee268a2"
      },
      {
        "reference": "Endpoint/f08ba7de-1366-542e-9d02-a488c5cd20c4"
      }
    ],
    "identifier": [
      {
        "system": "http://hl7.org/fhir/sid/us-npi",
        "value": "1538686498"
      }
    ],
    "address": [
      {
        "line": [
          "213 E. Oak Street",
          "Ste. A"
        ],
        "city": "KISSIMMEE",
        "state": "FL",
        "postalCode": "34744-4503"
      },
      {
        "line": [
          "250 N Alafaya Trail",
          "Suite 115"
        ],
        "city": "ORLANDO",
        "state": "FL",
        "postalCode": "32828-4336"
      },
      {
        "line": [
          "10417 Moss Park Road"
        ],
        "city": "ORLANDO",
        "state": "FL",
        "postalCode": "32832-5812"
      },
      {
        "line": [
          "2014 South Orange Avenue",
          "Suite 100"
        ],
        "city": "ORLANDO",
        "state": "FL",
        "postalCode": "32806-3069"
      },
      {
        "line": [
          "1307 South International Pkwy",
          "Suite 1061"
        ],
        "city": "LAKE MARY",
        "state": "FL",
        "postalCode": "32746-1412"
      },
      {
        "line": [
          "2111 Glenwood Drive",
          "Suite 208"
        ],
        "city": "WINTER PARK",
        "state": "FL",
        "postalCode": "32792-3328"
      },
      {
        "line": [
          "661 E. Altamonte Drive",
          "#210"
        ],
        "city": "ALTAMONTE SPRINGS",
        "state": "FL",
        "postalCode": "32701-5102"
      },
      {
        "line": [
          "6000 Turkey Lake Road",
          "Suite 108"
        ],
        "city": "ORLANDO",
        "state": "FL",
        "postalCode": "32819-4200"
      },
      {
        "line": [
          "2111 Glenwood Drive"
        ],
        "city": "WINTER PARK",
        "state": "FL",
        "postalCode": "32792-3328"
      },
      {
        "line": [
          "7148 Curry Ford Road"
        ],
        "city": "ORLANDO",
        "state": "FL",
        "postalCode": "32822-5803"
      },
      {
        "line": [
          "819 East Oak Street",
          "Ste. B"
        ],
        "city": "KISSIMMEE",
        "state": "FL",
        "postalCode": "34744-5842"
      },
      {
        "line": [
          "499 E. Central Parkway",
          "Suite 120"
        ],
        "city": "ALTAMONTE SPRINGS",
        "state": "FL",
        "postalCode": "32701-3449"
      }
    ],
    "extension": [
      {
        "url": "https://fhir.athena.io/StructureDefinition/ah-practice",
        "valueReference": {
          "reference": "Organization/a-1.Practice-4399"
        }
      },
      {
        "url": "https://fhir.athena.io/StructureDefinition/ah-brand",
        "valueReference": {
          "reference": "Organization/a-4399.Brand-13"
        }
      }
    ]
  },
  "fullUrl": "urn:uuid:6666a88b-9242-5bc9-ba0a-d928be61694c"
}