{
  "resource": {
    "resourceType": "Organization",
    "id": "76b0ae5f-1ca6-5f58-bdf1-4a1e1b68e190",
    "name": "Jun R. Chiong, MD, MPH, Inc",
    "endpoint": [
      {
        "reference": "Endpoint/27a4e967-47aa-5a9c-a572-b8297ee268a2"
      },
      {
        "reference": "Endpoint/e64d3fce-b594-5976-a960-4c90d998342a"
      }
    ],
    "identifier": [
      {
        "system": "http://hl7.org/fhir/sid/us-npi",
        "value": "1093099046"
      }
    ],
    "address": [
      {
        "line": [
          "11513 Acacia Court"
        ],
        "city": "LOMA LINDA",
        "state": "CA",
        "postalCode": "92354-3504"
      },
      {
        "line": [
          "12658 15th Street"
        ],
        "city": "Yucaipa",
        "state": "CA",
        "postalCode": "92399-1786"
      },
      {
        "line": [
          "1256 Morrison"
        ],
        "city": "REDLANDS",
        "state": "CA",
        "postalCode": "92373-1111"
      },
      {
        "line": [
          "5801 Sun Lakes Boulevard"
        ],
        "city": "BANNING",
        "state": "CA",
        "postalCode": "92220-6507"
      },
      {
        "line": [
          "7750 Bolero Drive"
        ],
        "city": "RIVERSIDE",
        "state": "CA",
        "postalCode": "92509-5213"
      },
      {
        "line": [
          "720 East Home Street"
        ],
        "city": "RIALTO",
        "state": "CA",
        "postalCode": "92376-3738"
      },
      {
        "line": [
          "9246 Avenida Miravilla"
        ],
        "city": "BEAUMONT",
        "state": "CA",
        "postalCode": "92223-3835"
      },
      {
        "line": [
          "10466 GRAMERCY Place"
        ],
        "city": "RIVERSIDE",
        "state": "CA",
        "postalCode": "92505-1300"
      },
      {
        "line": [
          "7910 Lakeside"
        ],
        "city": "RIVERSIDE",
        "state": "CA",
        "postalCode": "92509-7033"
      },
      {
        "line": [
          "1680 N Waterman"
        ],
        "city": "SAN BERNARDINO",
        "state": "CA",
        "postalCode": "92404-5113"
      },
      {
        "line": [
          "5523 Jones Avenue"
        ],
        "city": "RIVERSIDE",
        "state": "CA",
        "postalCode": "92505-1357"
      },
      {
        "line": [
          "24576 Ormista Street"
        ],
        "city": "Moreno Valley",
        "state": "CA",
        "postalCode": "92553-5328"
      }
    ],
    "extension": [
      {
        "url": "https://fhir.athena.io/StructureDefinition/ah-practice",
        "valueReference": {
          "reference": "Organization/a-1.Practice-3574"
        }
      },
      {
        "url": "https://fhir.athena.io/StructureDefinition/ah-brand",
        "valueReference": {
          "reference": "Organization/a-3574.Brand-1"
        }
      }
    ]
  },
  "fullUrl": "urn:uuid:76b0ae5f-1ca6-5f58-bdf1-4a1e1b68e190"
}