{
  "resource": {
    "resourceType": "Organization",
    "id": "70a30ba2-65b5-5892-9dd9-a2916139a6c9",
    "name": "Geri Young LLC",
    "endpoint": [
      {
        "reference": "Endpoint/27a4e967-47aa-5a9c-a572-b8297ee268a2"
      },
      {
        "reference": "Endpoint/6add5e69-ebbc-5a49-a1a8-6fef34640714"
      }
    ],
    "identifier": [
      {
        "system": "http://hl7.org/fhir/sid/us-npi",
        "value": "1982278867"
      }
    ],
    "address": [
      {
        "line": [
          "14902 WELCOME LN"
        ],
        "city": "HOUSTON",
        "state": "TX",
        "postalCode": "77014-1406"
      },
      {
        "line": [
          "16820 WEST RD"
        ],
        "city": "HOUSTON",
        "state": "TX",
        "postalCode": "77095-5577"
      },
      {
        "line": [
          "14977 TERRACE OAKS DR"
        ],
        "city": "HOUSTON",
        "state": "TX",
        "postalCode": "77068-2070"
      },
      {
        "line": [
          "194 CAMELOT ST"
        ],
        "city": "CONROE",
        "state": "TX",
        "postalCode": "77304-2236"
      },
      {
        "line": [
          "1701 WESTVIEW BLVD"
        ],
        "city": "CONROE",
        "state": "TX",
        "postalCode": "77304-1911"
      },
      {
        "line": [
          "609 S PINE ST"
        ],
        "city": "TOMBALL",
        "state": "TX",
        "postalCode": "77375-4616"
      },
      {
        "line": [
          "17935 LONGENBAUGH RD"
        ],
        "city": "CYPRESS",
        "state": "TX",
        "postalCode": "77433-6756"
      },
      {
        "line": [
          "2275 RIVERWAY DR"
        ],
        "city": "CONROE",
        "state": "TX",
        "postalCode": "77304-2961"
      },
      {
        "line": [
          "25615 SPRING RIDGE DR"
        ],
        "city": "SPRING",
        "state": "TX",
        "postalCode": "77386-1517"
      },
      {
        "line": [
          "307 WEISINGER DR"
        ],
        "city": "MAGNOLIA",
        "state": "TX",
        "postalCode": "77354-2536"
      },
      {
        "line": [
          "24814 BRILL LN"
        ],
        "city": "TOMBALL",
        "state": "TX",
        "postalCode": "77375-3166"
      },
      {
        "line": [
          "903 LONGMIRE RD"
        ],
        "city": "CONROE",
        "state": "TX",
        "postalCode": "77304-1817"
      },
      {
        "line": [
          "155 S VERSHIRE CIR THE"
        ],
        "city": "MAGNOLIA",
        "state": "TX",
        "postalCode": "77354-3299"
      },
      {
        "line": [
          "16008 HONEA RD W"
        ],
        "city": "MONTGOMERY",
        "state": "TX",
        "postalCode": "77316-2382"
      },
      {
        "line": [
          "12102 STEEPLE WAY BLVD"
        ],
        "city": "HOUSTON",
        "state": "TX",
        "postalCode": "77065-4759"
      },
      {
        "line": [
          "116 OAKMONT DR"
        ],
        "city": "CONROE",
        "state": "TX",
        "postalCode": "77301-3246"
      },
      {
        "line": [
          "750 LONGMIRE RD"
        ],
        "city": "CONROE",
        "state": "TX",
        "postalCode": "77304-1893"
      },
      {
        "line": [
          "25118 SPRING RIDGE DR"
        ],
        "city": "SPRING",
        "state": "TX",
        "postalCode": "77386-1502"
      },
      {
        "line": [
          "25914 OAK RIDGE DR"
        ],
        "city": "SPRING",
        "state": "TX",
        "postalCode": "77380-2018"
      },
      {
        "line": [
          "10700 W MONTFAIR BLVD"
        ],
        "city": "SPRING",
        "state": "TX",
        "postalCode": "77382-2052"
      },
      {
        "line": [
          "5000 CYPRESSWOOD DR"
        ],
        "city": "SPRING",
        "state": "TX",
        "postalCode": "77379-1500"
      },
      {
        "line": [
          "120 PARKGATE"
        ],
        "city": "CONROE",
        "state": "TX",
        "postalCode": "77304-1766"
      },
      {
        "line": [
          "4141 N BRAESWOOD BLVD"
        ],
        "city": "HOUSTON",
        "state": "TX",
        "postalCode": "77025-2900"
      },
      {
        "line": [
          "1999 Lakes of Wedgewood Drive"
        ],
        "city": "CONROE",
        "state": "TX",
        "postalCode": "77304-1000"
      },
      {
        "line": [
          "5406 RANCH LAKE DR"
        ],
        "city": "MAGNOLIA",
        "state": "TX",
        "postalCode": "77354-5019"
      },
      {
        "line": [
          "2309 TARRYTOWN CROSSING DR"
        ],
        "city": "CONROE",
        "state": "TX",
        "postalCode": "77304-6819"
      },
      {
        "line": [
          "15055 N ELDRIDGE PKWY"
        ],
        "city": "CYPRESS",
        "state": "TX",
        "postalCode": "77429-3668"
      },
      {
        "line": [
          "15584 GUINEVERE LN"
        ],
        "city": "MONTGOMERY",
        "state": "TX",
        "postalCode": "77316-6877"
      },
      {
        "line": [
          "10943 REDBIRD"
        ],
        "city": "CONROE",
        "state": "TX",
        "postalCode": "77385-6340"
      },
      {
        "line": [
          "21327 FALVEL RD"
        ],
        "city": "SPRING",
        "state": "TX",
        "postalCode": "77388-3214"
      },
      {
        "line": [
          "11223 WIND PINE LN"
        ],
        "city": "TOMBALL",
        "state": "TX",
        "postalCode": "77375-8340"
      },
      {
        "line": [
          "19926 S PLANTATION ESTATES DR"
        ],
        "city": "PORTER",
        "state": "TX",
        "postalCode": "77365-6945"
      },
      {
        "line": [
          "19930 S PLANTATION ESTATES DR"
        ],
        "city": "PORTER",
        "state": "TX",
        "postalCode": "77365-6945"
      }
    ],
    "extension": [
      {
        "url": "https://fhir.athena.io/StructureDefinition/ah-practice",
        "valueReference": {
          "reference": "Organization/a-1.Practice-23962"
        }
      },
      {
        "url": "https://fhir.athena.io/StructureDefinition/ah-brand",
        "valueReference": {
          "reference": "Organization/a-23962.Brand-1"
        }
      }
    ]
  },
  "fullUrl": "urn:uuid:70a30ba2-65b5-5892-9dd9-a2916139a6c9"
}