{
  "resource": {
    "resourceType": "Organization",
    "id": "d3bbf517-4848-5217-995b-6e6fc6be497a",
    "name": "Joshua Medical Group",
    "endpoint": [
      {
        "reference": "Endpoint/27a4e967-47aa-5a9c-a572-b8297ee268a2"
      },
      {
        "reference": "Endpoint/7b409e7c-a363-52d1-b4ef-f581ef5c0d10"
      }
    ],
    "identifier": [
      {
        "system": "http://hl7.org/fhir/sid/us-npi",
        "value": "1205023249"
      }
    ],
    "address": [
      {
        "line": [
          "8925 Sepulveda Blvd Suite 201"
        ],
        "city": "NORTH HILLS",
        "state": "CA",
        "postalCode": "91343-4578"
      },
      {
        "line": [
          "44567 N 15th West"
        ],
        "city": "LANCASTER",
        "state": "CA",
        "postalCode": "93534-2848"
      },
      {
        "line": [
          "3629 N. Sepulveda Blvd"
        ],
        "city": "MANHATTAN BEACH",
        "state": "CA",
        "postalCode": "90266-3632"
      },
      {
        "line": [
          "520 La Fayette Park Place"
        ],
        "city": "LOS ANGELES",
        "state": "CA",
        "postalCode": "90057-5402"
      },
      {
        "line": [
          "38460 5TH ST. WEST, STE A-E"
        ],
        "city": "PALMDALE",
        "state": "CA",
        "postalCode": "93551-1411"
      },
      {
        "line": [
          "16501 SHERMAN WAY STE 225"
        ],
        "city": "VAN NUYS",
        "state": "CA",
        "postalCode": "91406-3787"
      },
      {
        "line": [
          "2347 Honolulu Ave"
        ],
        "city": "MONTROSE",
        "state": "CA",
        "postalCode": "91020-1102"
      },
      {
        "line": [
          "12135 Riverside Dr"
        ],
        "city": "VALLEY VILLAGE",
        "state": "CA",
        "postalCode": "91607-1002"
      },
      {
        "line": [
          "28436 CONSTELLATION RD STE 200"
        ],
        "city": "VALENCIA",
        "state": "CA",
        "postalCode": "91355-5081"
      },
      {
        "line": [
          "44445 N. 15th St West"
        ],
        "city": "LANCASTER",
        "state": "CA",
        "postalCode": "93534-2803"
      },
      {
        "line": [
          "554 E Foothill Blvd Ste 107",
          "E"
        ],
        "city": "SAN DIMAS",
        "state": "CA",
        "postalCode": "91773-1222"
      },
      {
        "line": [
          "43830 10th St West"
        ],
        "city": "Lancaster",
        "state": "CA",
        "postalCode": "93534-4826"
      },
      {
        "line": [
          "454 S. Central Ave"
        ],
        "city": "GLENDALE",
        "state": "CA",
        "postalCode": "91204-4760"
      },
      {
        "line": [
          "1716 Erringer Road Suite 106"
        ],
        "city": "SIMI VALLEY",
        "state": "CA",
        "postalCode": "93065-0100"
      },
      {
        "line": [
          "44567 15th St. West"
        ],
        "city": "LANCASTER",
        "state": "CA",
        "postalCode": "93534-2803"
      },
      {
        "line": [
          "38460 5Th. St. West",
          "Suite D"
        ],
        "city": "PALMDALE",
        "state": "CA",
        "postalCode": "93551-4685"
      },
      {
        "line": [
          "1642 West Ave J"
        ],
        "city": "PALMDALE",
        "state": "CA",
        "postalCode": "93534-2814"
      },
      {
        "line": [
          "14621 Titus St. #203"
        ],
        "city": "PANORAMA CITY",
        "state": "CA",
        "postalCode": "91402-7307"
      },
      {
        "line": [
          "237 W BONITA AVE STE B"
        ],
        "city": "SAN DIMAS",
        "state": "CA",
        "postalCode": "91773-3048"
      },
      {
        "line": [
          "6005 Vineland Ave Suite 204"
        ],
        "city": "NORTH HOLLYWOOD",
        "state": "CA",
        "postalCode": "91606-1000"
      },
      {
        "line": [
          "9045 Corbin Ave Suite 301"
        ],
        "city": "NORTHRIDGE",
        "state": "CA",
        "postalCode": "91324-3300"
      },
      {
        "line": [
          "237 W Bonita Ave Ste E"
        ],
        "city": "SAN DIMAS",
        "state": "CA",
        "postalCode": "91773-0421"
      },
      {
        "line": [
          "44335 Lowtree Ave"
        ],
        "city": "LANCASTER",
        "state": "CA",
        "postalCode": "93534-4167"
      },
      {
        "line": [
          "44445 N 15th St West"
        ],
        "city": "LANCASTER",
        "state": "CA",
        "postalCode": "93534-2801"
      },
      {
        "line": [
          "343 E. Palmdale Blvd Suite #4"
        ],
        "city": "PALMDALE",
        "state": "CA",
        "postalCode": "93550-7138"
      },
      {
        "line": [
          "16501 Sherman Way #210"
        ],
        "city": "VAN NUYS",
        "state": "CA",
        "postalCode": "91406-3757"
      },
      {
        "line": [
          "111 N Brea Ave, Suite 305"
        ],
        "city": "INGLEWOOD",
        "state": "CA",
        "postalCode": "90302-0300"
      },
      {
        "line": [
          "23300 Cinema Dr Ste 275"
        ],
        "city": "VALENCIA",
        "state": "CA",
        "postalCode": "91355-1792"
      },
      {
        "line": [
          "3800 La Cresenta Ave #203"
        ],
        "city": "LA CRESCENTA",
        "state": "CA",
        "postalCode": "91214-3948"
      },
      {
        "line": [
          "5805 Sepulveda Blvd Suite 605"
        ],
        "city": "VAN NUYS",
        "state": "CA",
        "postalCode": "91411-2546"
      },
      {
        "line": [
          "1642 W. Avenue J"
        ],
        "city": "LANCASTER",
        "state": "CA",
        "postalCode": "93534-2814"
      },
      {
        "line": [
          "1061 W Ave M-14"
        ],
        "city": "PALMDALE",
        "state": "CA",
        "postalCode": "93551-1430"
      },
      {
        "line": [
          "116 Ee. Broadway Suite 201"
        ],
        "city": "GLENDALE",
        "state": "CA",
        "postalCode": "91205-1005"
      },
      {
        "line": [
          "842 N FAIR OAKS AVE UNIT 150"
        ],
        "city": "PASADENA",
        "state": "CA",
        "postalCode": "91103-3052"
      },
      {
        "line": [
          "6345 Balboa Ave"
        ],
        "city": "ENCINO",
        "state": "CA",
        "postalCode": "91316-1519"
      },
      {
        "line": [
          "1117 N. Hollywood Way Suite B"
        ],
        "city": "BURBANK",
        "state": "CA",
        "postalCode": "91505-1009"
      },
      {
        "line": [
          "6705 Columbia Way"
        ],
        "city": "LANCASTER",
        "state": "CA",
        "postalCode": "93536-1002"
      }
    ],
    "extension": [
      {
        "url": "https://fhir.athena.io/StructureDefinition/ah-practice",
        "valueReference": {
          "reference": "Organization/a-1.Practice-23208"
        }
      },
      {
        "url": "https://fhir.athena.io/StructureDefinition/ah-brand",
        "valueReference": {
          "reference": "Organization/a-23208.Brand-1"
        }
      }
    ]
  },
  "fullUrl": "urn:uuid:d3bbf517-4848-5217-995b-6e6fc6be497a"
}