{
  "resource": {
    "resourceType": "Organization",
    "id": "28509488-f757-51ed-a2d8-9a0950a956f7",
    "name": "Bay Surgery Centers - Glen Burnie, LLC",
    "endpoint": [
      {
        "reference": "Endpoint/27a4e967-47aa-5a9c-a572-b8297ee268a2"
      },
      {
        "reference": "Endpoint/ab3e295d-0b97-516c-a1e8-4481b35d3b93"
      }
    ],
    "identifier": [
      {
        "system": "http://hl7.org/fhir/sid/us-npi",
        "value": "1154792232"
      },
      {
        "system": "http://hl7.org/fhir/sid/us-npi",
        "value": "1316315740"
      },
      {
        "system": "http://hl7.org/fhir/sid/us-npi",
        "value": "1639554835"
      },
      {
        "system": "http://hl7.org/fhir/sid/us-npi",
        "value": "1861418220"
      },
      {
        "system": "http://hl7.org/fhir/sid/us-npi",
        "value": "1679136469"
      },
      {
        "system": "http://hl7.org/fhir/sid/us-npi",
        "value": "1114344280"
      },
      {
        "system": "http://hl7.org/fhir/sid/us-npi",
        "value": "1649655887"
      },
      {
        "system": "http://hl7.org/fhir/sid/us-npi",
        "value": "1376928499"
      },
      {
        "system": "http://hl7.org/fhir/sid/us-npi",
        "value": "1790160992"
      },
      {
        "system": "http://hl7.org/fhir/sid/us-npi",
        "value": "1578087334"
      },
      {
        "system": "http://hl7.org/fhir/sid/us-npi",
        "value": "1912607300"
      },
      {
        "system": "http://hl7.org/fhir/sid/us-npi",
        "value": "1629592472"
      },
      {
        "system": "http://hl7.org/fhir/sid/us-npi",
        "value": "1669712287"
      },
      {
        "system": "http://hl7.org/fhir/sid/us-npi",
        "value": "1245980093"
      },
      {
        "system": "http://hl7.org/fhir/sid/us-npi",
        "value": "1306297817"
      },
      {
        "system": "http://hl7.org/fhir/sid/us-npi",
        "value": "1881419935"
      },
      {
        "system": "http://hl7.org/fhir/sid/us-npi",
        "value": "1265275010"
      },
      {
        "system": "http://hl7.org/fhir/sid/us-npi",
        "value": "1962011775"
      },
      {
        "system": "http://hl7.org/fhir/sid/us-npi",
        "value": "1396329033"
      },
      {
        "system": "http://hl7.org/fhir/sid/us-npi",
        "value": "1578154514"
      },
      {
        "system": "http://hl7.org/fhir/sid/us-npi",
        "value": "1609559442"
      },
      {
        "system": "http://hl7.org/fhir/sid/us-npi",
        "value": "1285479808"
      },
      {
        "system": "http://hl7.org/fhir/sid/us-npi",
        "value": "1831934454"
      },
      {
        "system": "http://hl7.org/fhir/sid/us-npi",
        "value": "1396588141"
      },
      {
        "system": "http://hl7.org/fhir/sid/us-npi",
        "value": "1285678979"
      },
      {
        "system": "http://hl7.org/fhir/sid/us-npi",
        "value": "1861001372"
      },
      {
        "system": "http://hl7.org/fhir/sid/us-npi",
        "value": "1871052712"
      },
      {
        "system": "http://hl7.org/fhir/sid/us-npi",
        "value": "1336605351"
      },
      {
        "system": "http://hl7.org/fhir/sid/us-npi",
        "value": "1346923182"
      },
      {
        "system": "http://hl7.org/fhir/sid/us-npi",
        "value": "1750612446"
      },
      {
        "system": "http://hl7.org/fhir/sid/us-npi",
        "value": "1518617364"
      },
      {
        "system": "http://hl7.org/fhir/sid/us-npi",
        "value": "1184364333"
      },
      {
        "system": "http://hl7.org/fhir/sid/us-npi",
        "value": "1417566217"
      },
      {
        "system": "http://hl7.org/fhir/sid/us-npi",
        "value": "1194564674"
      },
      {
        "system": "http://hl7.org/fhir/sid/us-npi",
        "value": "1013584762"
      },
      {
        "system": "http://hl7.org/fhir/sid/us-npi",
        "value": "1902661341"
      },
      {
        "system": "http://hl7.org/fhir/sid/us-npi",
        "value": "1275376121"
      },
      {
        "system": "http://hl7.org/fhir/sid/us-npi",
        "value": "1043974694"
      },
      {
        "system": "http://hl7.org/fhir/sid/us-npi",
        "value": "1104563444"
      },
      {
        "system": "http://hl7.org/fhir/sid/us-npi",
        "value": "1649735861"
      }
    ],
    "address": [
      {
        "line": [
          "251 NATIONAL HARBOR BLVD STE 500"
        ],
        "city": "OXON HILL",
        "state": "MD",
        "postalCode": "20745-1052"
      },
      {
        "line": [
          "23619 OAK VIEW DR"
        ],
        "city": "CALIFORNIA",
        "state": "MD",
        "postalCode": "20619-2496"
      },
      {
        "line": [
          "7920 McDonogh Rd.",
          "Suite 201"
        ],
        "city": "OWINGS MILLS",
        "state": "MD",
        "postalCode": "21117-5350"
      },
      {
        "line": [
          "110 Hospital Road",
          "Suite 305"
        ],
        "city": "PRINCE FREDERICK",
        "state": "MD",
        "postalCode": "20678-4044"
      },
      {
        "line": [
          "6503 Deer Pointe Drive Condo",
          "Unit 5A"
        ],
        "city": "SALISBURY",
        "state": "MD",
        "postalCode": "21804-1674"
      },
      {
        "line": [
          "950 Harry S Truman Drive N"
        ],
        "city": "UPPER MARLBORO",
        "state": "MD",
        "postalCode": "20774-1234"
      },
      {
        "line": [
          "6503 Deer Pointe Drive Condo",
          "Unit 5C"
        ],
        "city": "SALISBURY",
        "state": "MD",
        "postalCode": "21804-1674"
      },
      {
        "line": [
          "826 WASHINGTON RD STE 102"
        ],
        "city": "WESTMINSTER",
        "state": "MD",
        "postalCode": "21157-5779"
      },
      {
        "line": [
          "2373 N ROLLING RD"
        ],
        "city": "WINDSOR MILL",
        "state": "MD",
        "postalCode": "21244-1952"
      },
      {
        "line": [
          "655 S BAY RD",
          "Suite 3D"
        ],
        "city": "DOVER",
        "state": "DE",
        "postalCode": "19901-4615"
      },
      {
        "line": [
          "2405 YORK RD STE 200"
        ],
        "city": "LUTHERVILLE TIMONIUM",
        "state": "MD",
        "postalCode": "21093-2252"
      },
      {
        "line": [
          "8100 Sandpiper Circle",
          "Suite 214"
        ],
        "city": "NOTTINGHAM",
        "state": "MD",
        "postalCode": "21236-4999"
      },
      {
        "line": [
          "918 MAR WALT DR"
        ],
        "city": "FORT WALTON BEACH",
        "state": "FL",
        "postalCode": "32547-6706"
      },
      {
        "line": [
          "7100 GUILFORD DR STE 150"
        ],
        "city": "FREDERICK",
        "state": "MD",
        "postalCode": "21704-5257"
      },
      {
        "line": [
          "7552 Navarre Pkwy",
          "Suite 61"
        ],
        "city": "NAVARRE",
        "state": "FL",
        "postalCode": "32566-7305"
      },
      {
        "line": [
          "4901 Market Place Rd"
        ],
        "city": "PENSACOLA",
        "state": "FL",
        "postalCode": "32504-8986"
      },
      {
        "line": [
          "598 Cynwood Dr",
          "Ste 103"
        ],
        "city": "EASTON",
        "state": "MD",
        "postalCode": "21601-4302"
      },
      {
        "line": [
          "6410 Rockledge Dr",
          "Ste 421"
        ],
        "city": "BETHESDA",
        "state": "MD",
        "postalCode": "20817-1899"
      },
      {
        "line": [
          "7704 QUARTERFIELD RD STE F"
        ],
        "city": "GLEN BURNIE",
        "state": "MD",
        "postalCode": "21061-4412"
      },
      {
        "line": [
          "10720 COLUMBIA PIKE STE 200"
        ],
        "city": "SILVER SPRING",
        "state": "MD",
        "postalCode": "20901-4437"
      },
      {
        "line": [
          "17051 DALLAS PKWY STE 150"
        ],
        "city": "ADDISON",
        "state": "TX",
        "postalCode": "75001-7102"
      },
      {
        "line": [
          "1165 IMPERIAL DR Ste 102"
        ],
        "city": "HAGERSTOWN",
        "state": "MD",
        "postalCode": "21740-6582"
      },
      {
        "line": [
          "5500 Knoll N Drive",
          "Ste 500"
        ],
        "city": "COLUMBIA",
        "state": "MD",
        "postalCode": "21045-2370"
      },
      {
        "line": [
          "7140 CONTEE RD STE 2800"
        ],
        "city": "LAUREL",
        "state": "MD",
        "postalCode": "20707-9527"
      },
      {
        "line": [
          "201 DEFENSE HWY STE 260"
        ],
        "city": "ANNAPOLIS",
        "state": "MD",
        "postalCode": "21401-7096"
      },
      {
        "line": [
          "2401 Brandermill Blvd",
          "Ste 210"
        ],
        "city": "GAMBRILLS",
        "state": "MD",
        "postalCode": "21054-1690"
      },
      {
        "line": [
          "6569 North Charles St",
          "Suite #500"
        ],
        "city": "TOWSON",
        "state": "MD",
        "postalCode": "21204-0001"
      },
      {
        "line": [
          "12660 10 Mile Rd"
        ],
        "city": "SOUTH LYON",
        "state": "MI",
        "postalCode": "48178-9141"
      },
      {
        "line": [
          "180 WINGO WAY STE 105"
        ],
        "city": "MOUNT PLEASANT",
        "state": "SC",
        "postalCode": "29464-1810"
      },
      {
        "line": [
          "101 CHESAPEAKE BLVD"
        ],
        "city": "ELKTON",
        "state": "MD",
        "postalCode": "21921-6607"
      },
      {
        "line": [
          "655 S BAY RD"
        ],
        "city": "DOVER",
        "state": "DE",
        "postalCode": "19901-4615"
      },
      {
        "line": [
          "6503 Deer Pointe Drive",
          "Unit 5B"
        ],
        "city": "SALISBURY",
        "state": "MD",
        "postalCode": "21804-1674"
      },
      {
        "line": [
          "1005 N GLEBE RD STE 610"
        ],
        "city": "ARLINGTON",
        "state": "VA",
        "postalCode": "22201-5758"
      },
      {
        "line": [
          "110 Hospital Road",
          "Suite 304"
        ],
        "city": "PRINCE FREDERICK",
        "state": "MD",
        "postalCode": "20678-4044"
      },
      {
        "line": [
          "2507 HARRISON AVE UNIT 200"
        ],
        "city": "PANAMA CITY",
        "state": "FL",
        "postalCode": "32405-4447"
      },
      {
        "line": [
          "7920 McDonogh Rd",
          "#201"
        ],
        "city": "OWINGS MILLS",
        "state": "MD",
        "postalCode": "21117-5273"
      },
      {
        "line": [
          "408 Medical Park Dr"
        ],
        "city": "ATMORE",
        "state": "AL",
        "postalCode": "36502-3016"
      },
      {
        "line": [
          "6503 Deer Pointe Drive Condo",
          "Unit 5B"
        ],
        "city": "SALISBURY",
        "state": "MD",
        "postalCode": "21804-1674"
      },
      {
        "line": [
          "8100 Sandpiper Circle"
        ],
        "city": "NOTTINGHAM",
        "state": "MD",
        "postalCode": "21236-4999"
      },
      {
        "line": [
          "135 Medical Park Dr",
          "Ste 2B"
        ],
        "city": "ANDALUSIA",
        "state": "AL",
        "postalCode": "36420-5352"
      },
      {
        "line": [
          "602 South Atwood Road",
          "Suite 105"
        ],
        "city": "BEL AIR",
        "state": "MD",
        "postalCode": "21014-4198"
      },
      {
        "line": [
          "3810 Hwy 90"
        ],
        "city": "MILTON",
        "state": "FL",
        "postalCode": "32571-1014"
      },
      {
        "line": [
          "4175 N Hanson Court",
          "Suite 202"
        ],
        "city": "BOWIE",
        "state": "MD",
        "postalCode": "20716-3182"
      },
      {
        "line": [
          "130 Hospital Road",
          "Suite 101B"
        ],
        "city": "PRINCE FREDERICK",
        "state": "MD",
        "postalCode": "20678-4015"
      },
      {
        "line": [
          "810 Bestgate Rd Suite 120"
        ],
        "city": "ANNAPOLIS",
        "state": "MD",
        "postalCode": "21401-3033"
      },
      {
        "line": [
          "23000 Moakley Street",
          "Suite 206"
        ],
        "city": "LEONARDTOWN",
        "state": "MD",
        "postalCode": "20650-2917"
      },
      {
        "line": [
          "7100 GUILFORD DR STE 152"
        ],
        "city": "FREDERICK",
        "state": "MD",
        "postalCode": "21704-5257"
      },
      {
        "line": [
          "20 COURTHOUSE SQ STE 204"
        ],
        "city": "ROCKVILLE",
        "state": "MD",
        "postalCode": "20850-2338"
      },
      {
        "line": [
          "501 HEALTH SERVICES DR"
        ],
        "city": "SEAFORD",
        "state": "DE",
        "postalCode": "19973-5782"
      },
      {
        "line": [
          "7704 QUARTERFIELD RD STE E"
        ],
        "city": "GLEN BURNIE",
        "state": "MD",
        "postalCode": "21061-4412"
      },
      {
        "line": [
          "826 Washington Rd",
          "Suite 210"
        ],
        "city": "WESTMINSTER",
        "state": "MD",
        "postalCode": "21157-5780"
      },
      {
        "line": [
          "8505 ARLINGTON BLVD STE 420"
        ],
        "city": "FAIRFAX",
        "state": "VA",
        "postalCode": "22031-4636"
      },
      {
        "line": [
          "602 South Atwood Road",
          "Unit 103B"
        ],
        "city": "BEL AIR",
        "state": "MD",
        "postalCode": "21014-4198"
      },
      {
        "line": [
          "2405 YORK RD STE 100"
        ],
        "city": "LUTHERVILLE TIMONIUM",
        "state": "MD",
        "postalCode": "21093-2256"
      },
      {
        "line": [
          "4901 Marketplace Rd"
        ],
        "city": "PENSACOLA",
        "state": "FL",
        "postalCode": "32504-8986"
      },
      {
        "line": [
          "7671 Quarterfield Rd",
          "Suite 301"
        ],
        "city": "GLEN BURNIE",
        "state": "MD",
        "postalCode": "21061-4525"
      },
      {
        "line": [
          "2560 CENTRAL PARK AVE STE 340"
        ],
        "city": "FLOWER MOUND",
        "state": "TX",
        "postalCode": "75028-1563"
      },
      {
        "line": [
          "17980 DALLAS PKWY STE 100"
        ],
        "city": "DALLAS",
        "state": "TX",
        "postalCode": "75287-6817"
      },
      {
        "line": [
          "499 IDLEWILD AVE"
        ],
        "city": "EASTON",
        "state": "MD",
        "postalCode": "21601-4049"
      },
      {
        "line": [
          "6603 Church Hill Rd",
          "Suite 550"
        ],
        "city": "CHESTERTOWN",
        "state": "MD",
        "postalCode": "21620-2323"
      },
      {
        "line": [
          "3261 Old Washington Rd",
          "Suite 3010"
        ],
        "city": "WALDORF",
        "state": "MD",
        "postalCode": "20602-3223"
      },
      {
        "line": [
          "1014 SAINT ANDREWS BLVD",
          "STE 210A"
        ],
        "city": "CHARLESTON",
        "state": "SC",
        "postalCode": "29407-7177"
      },
      {
        "line": [
          "160 Salitt Drive",
          "Suite 100"
        ],
        "city": "STEVENSVILLE",
        "state": "MD",
        "postalCode": "21666-2285"
      },
      {
        "line": [
          "8367 Cherry Lane"
        ],
        "city": "LAUREL",
        "state": "MD",
        "postalCode": "20707-4831"
      },
      {
        "line": [
          "6600 UNIVERSITY PKWY STE 104"
        ],
        "city": "SARASOTA",
        "state": "FL",
        "postalCode": "34240-9040"
      },
      {
        "line": [
          "4415 US HIGHWAY 331 S STE 500"
        ],
        "city": "DEFUNIAK SPRINGS",
        "state": "FL",
        "postalCode": "32435-6307"
      },
      {
        "line": [
          "1165 IMPERIAL DR STE 100"
        ],
        "city": "HAGERSTOWN",
        "state": "MD",
        "postalCode": "21740-6582"
      },
      {
        "line": [
          "7671 Quarterfield Rd"
        ],
        "city": "GLEN BURNIE",
        "state": "MD",
        "postalCode": "21061-4525"
      },
      {
        "line": [
          "1 CENTURIAN DR STE 301"
        ],
        "city": "NEWARK",
        "state": "DE",
        "postalCode": "19713-2127"
      },
      {
        "line": [
          "602 South Atwood Road",
          "Unit 103"
        ],
        "city": "BEL AIR",
        "state": "MD",
        "postalCode": "21014-4172"
      },
      {
        "line": [
          "950 HARRY S TRUMAN DR N STE 130"
        ],
        "city": "Largo",
        "state": "MD",
        "postalCode": "20774-5477"
      },
      {
        "line": [
          "314 FRANKLIN AVE",
          "STE 104"
        ],
        "city": "BERLIN",
        "state": "MD",
        "postalCode": "21811-1261"
      },
      {
        "line": [
          "4660 Wilkens Ave",
          "Suite 302"
        ],
        "city": "BALTIMORE",
        "state": "MD",
        "postalCode": "21229-4848"
      },
      {
        "line": [
          "810 Bestgate Rd",
          "Suite 220"
        ],
        "city": "ANNAPOLIS",
        "state": "MD",
        "postalCode": "21401-3033"
      },
      {
        "line": [
          "17051 DALLAS PKWY STE 320"
        ],
        "city": "ADDISON",
        "state": "TX",
        "postalCode": "75001-7112"
      },
      {
        "line": [
          "2405 YORK RD STE 100"
        ],
        "city": "LUTHERVILLE TIMONIUM",
        "state": "MD",
        "postalCode": "21093-2264"
      },
      {
        "line": [
          "598 Cynwood Dr #105"
        ],
        "city": "EASTON",
        "state": "MD",
        "postalCode": "21601-4302"
      },
      {
        "line": [
          "5500 Knoll N Drive",
          "Ste 501"
        ],
        "city": "COLUMBIA",
        "state": "MD",
        "postalCode": "21045-2370"
      },
      {
        "line": [
          "5500 Knoll N Drive"
        ],
        "city": "COLUMBIA",
        "state": "MD",
        "postalCode": "21045-2370"
      },
      {
        "line": [
          "180 WINGO WAY STE 110"
        ],
        "city": "MOUNT PLEASANT",
        "state": "SC",
        "postalCode": "29464-1810"
      },
      {
        "line": [
          "42 BUSINESS CENTRE DR UNIT 310"
        ],
        "city": "MIRAMAR BEACH",
        "state": "FL",
        "postalCode": "32550-6995"
      },
      {
        "line": [
          "2960 Technology Place",
          "Suite 103"
        ],
        "city": "WALDORF",
        "state": "MD",
        "postalCode": "20601-4968"
      },
      {
        "line": [
          "1576 Merritt Blvd",
          "Suite 18B"
        ],
        "city": "DUNDALK",
        "state": "MD",
        "postalCode": "21222-2132"
      },
      {
        "line": [
          "9 Park Center Court, Suite 100"
        ],
        "city": "OWINGS MILLS",
        "state": "MD",
        "postalCode": "21117-0358"
      },
      {
        "line": [
          "5102 N DAVIS HWY"
        ],
        "city": "PENSACOLA",
        "state": "FL",
        "postalCode": "32503-2030"
      },
      {
        "line": [
          "5530 WISCONSIN AVE STE 1620"
        ],
        "city": "CHEVY CHASE",
        "state": "MD",
        "postalCode": "20815-4322"
      },
      {
        "line": [
          "110 Hospital Road",
          "Suite 304"
        ],
        "city": "PRINCE FREDERICK",
        "state": "MD",
        "postalCode": "20678-4046"
      },
      {
        "line": [
          "7140 CONTEE RD STE 2800"
        ],
        "city": "LAUREL",
        "state": "MD",
        "postalCode": "20707-9532"
      },
      {
        "line": [
          "10905 Fort Washington Rd",
          "Suite 405"
        ],
        "city": "FORT WASHINGTON",
        "state": "MD",
        "postalCode": "20744-5807"
      },
      {
        "line": [
          "120 Sallitt Drive",
          "Suite D"
        ],
        "city": "STEVENSVILLE",
        "state": "MD",
        "postalCode": "21666-2154"
      },
      {
        "line": [
          "1600 JENKS AVE",
          "STE 2"
        ],
        "city": "PANAMA CITY",
        "state": "FL",
        "postalCode": "32405-4740"
      },
      {
        "line": [
          "4660 Wilkens Ave",
          "Suite 208"
        ],
        "city": "BALTIMORE",
        "state": "MD",
        "postalCode": "21229-4848"
      },
      {
        "line": [
          "7671 Quarterfield Rd.",
          "Suite 301"
        ],
        "city": "GLEN BURNIE",
        "state": "MD",
        "postalCode": "21061-4525"
      },
      {
        "line": [
          "855 Downtowner Blvd"
        ],
        "city": "MOBILE",
        "state": "AL",
        "postalCode": "36609-5403"
      },
      {
        "line": [
          "602 South Atwood Road",
          "Unit 103"
        ],
        "city": "BEL AIR",
        "state": "MD",
        "postalCode": "21014-4198"
      },
      {
        "line": [
          "6503 Deer Pointe Drive Condo",
          "Unit B"
        ],
        "city": "SALISBURY",
        "state": "MD",
        "postalCode": "21804-1674"
      },
      {
        "line": [
          "19851 Observation Dr",
          "Suite 360"
        ],
        "city": "GERMANTOWN",
        "state": "MD",
        "postalCode": "20876-4070"
      },
      {
        "line": [
          "8505 ARLINGTON BLVD STE 420810 BESTGATE RD STE 220"
        ],
        "city": "FAIRFAX",
        "state": "VA",
        "postalCode": "22031-4636"
      },
      {
        "line": [
          "10437 Sorrento Rd",
          "#203"
        ],
        "city": "PENSACOLA",
        "state": "FL",
        "postalCode": "32507-7620"
      },
      {
        "line": [
          "7552 Navarre Pkwy",
          "Suite 54"
        ],
        "city": "NAVARRE",
        "state": "FL",
        "postalCode": "32566-7305"
      },
      {
        "line": [
          "2318 SAINT ANDREWS BLVD"
        ],
        "city": "PANAMA CITY",
        "state": "FL",
        "postalCode": "32405-2168"
      },
      {
        "line": [
          "6410 Rockledge Dr",
          "Ste 400"
        ],
        "city": "BETHESDA",
        "state": "MD",
        "postalCode": "20817-1899"
      },
      {
        "line": [
          "19851 Observation Drive, Suite 350"
        ],
        "city": "GERMANTOWN",
        "state": "MD",
        "postalCode": "20876-4070"
      },
      {
        "line": [
          "251 NATIONAL HARBOR BLVD STE 501"
        ],
        "city": "OXON HILL",
        "state": "MD",
        "postalCode": "20745-1052"
      },
      {
        "line": [
          "602 South Atwood Road"
        ],
        "city": "BEL AIR",
        "state": "MD",
        "postalCode": "21014-4198"
      },
      {
        "line": [
          "1673 S State Street"
        ],
        "city": "DOVER",
        "state": "DE",
        "postalCode": "19901-5148"
      },
      {
        "line": [
          "1576 Merritt Blvd",
          "Suite 18"
        ],
        "city": "DUNDALK",
        "state": "MD",
        "postalCode": "21222-2132"
      },
      {
        "line": [
          "9801 Geogia Ave Suite339"
        ],
        "city": "SILVER SPRING",
        "state": "MD",
        "postalCode": "20902-5276"
      },
      {
        "line": [
          "182 E REDSTONE AVE STE A"
        ],
        "city": "CRESTVIEW",
        "state": "FL",
        "postalCode": "32539-5371"
      }
    ],
    "extension": [
      {
        "url": "https://fhir.athena.io/StructureDefinition/ah-practice",
        "valueReference": {
          "reference": "Organization/a-1.Practice-11679"
        }
      },
      {
        "url": "https://fhir.athena.io/StructureDefinition/ah-brand",
        "valueReference": {
          "reference": "Organization/a-11679.Brand-3"
        }
      }
    ]
  },
  "fullUrl": "urn:uuid:28509488-f757-51ed-a2d8-9a0950a956f7"
}