{
  "resource": {
    "resourceType": "Organization",
    "id": "e51741e6-265f-58d9-bbe1-36838cdc1018",
    "name": "610 Extended Clinic",
    "endpoint": [
      {
        "reference": "Endpoint/27a4e967-47aa-5a9c-a572-b8297ee268a2"
      },
      {
        "reference": "Endpoint/10878a27-826e-5a5b-a611-984f9a9a32d6"
      }
    ],
    "identifier": [
      {
        "system": "http://hl7.org/fhir/sid/us-npi",
        "value": "1023317849"
      },
      {
        "system": "http://hl7.org/fhir/sid/us-npi",
        "value": "1508143074"
      },
      {
        "system": "http://hl7.org/fhir/sid/us-npi",
        "value": "1366725418"
      },
      {
        "system": "http://hl7.org/fhir/sid/us-npi",
        "value": "1003238635"
      },
      {
        "system": "http://hl7.org/fhir/sid/us-npi",
        "value": "1356397673"
      },
      {
        "system": "http://hl7.org/fhir/sid/us-npi",
        "value": "1144533670"
      }
    ],
    "address": [
      {
        "line": [
          "124 DEVONSHIRE DR"
        ],
        "city": "ROARING BROOK TWP",
        "state": "PA",
        "postalCode": "18444-9547"
      },
      {
        "line": [
          "468 NORTHAMPTON ST"
        ],
        "city": "KINGSTON",
        "state": "PA",
        "postalCode": "18704-4566"
      },
      {
        "line": [
          "223 24TH ST"
        ],
        "city": "SANTA MONICA",
        "state": "CA",
        "postalCode": "90402-2515"
      },
      {
        "line": [
          "2 SADDLEBROOK CIR"
        ],
        "city": "MEDIA",
        "state": "PA",
        "postalCode": "19063-1053"
      },
      {
        "line": [
          "549 Fair St"
        ],
        "city": "BLOOMSBURG",
        "state": "PA",
        "postalCode": "17815-1419"
      },
      {
        "line": [
          "746 Jefferson Ave"
        ],
        "city": "SCRANTON",
        "state": "PA",
        "postalCode": "18510-1624"
      },
      {
        "line": [
          "1195 LANTERN HILL RD"
        ],
        "city": "SHAVERTOWN",
        "state": "PA",
        "postalCode": "18708-9591"
      },
      {
        "line": [
          "1543 ABINGTON RD"
        ],
        "city": "DALTON",
        "state": "PA",
        "postalCode": "18414-8096"
      },
      {
        "line": [
          "14 SAUNDERS RD"
        ],
        "city": "ITHACA",
        "state": "NY",
        "postalCode": "14850-9498"
      },
      {
        "line": [
          "607 N 41ST ST"
        ],
        "city": "ALLENTOWN",
        "state": "PA",
        "postalCode": "18104-4560"
      },
      {
        "line": [
          "575 N RIVER ST"
        ],
        "city": "WILKES BARRE",
        "state": "PA",
        "postalCode": "18702-2634"
      },
      {
        "line": [
          "615 Wyoming Ave"
        ],
        "city": "KINGSTON",
        "state": "PA",
        "postalCode": "18704-3703"
      },
      {
        "line": [
          "1195 LANTERN HILL ROAD"
        ],
        "city": "SHAVERTOWN",
        "state": "PA",
        "postalCode": "18708-9591"
      },
      {
        "line": [
          "341 Wyoming Ave #2"
        ],
        "city": "PITTSTON",
        "state": "PA",
        "postalCode": "18643-2839"
      },
      {
        "line": [
          "1800 Mulberry St"
        ],
        "city": "SCRANTON",
        "state": "PA",
        "postalCode": "18510-2369"
      },
      {
        "line": [
          "26 STAR LN"
        ],
        "city": "BARRINGTON",
        "state": "IL",
        "postalCode": "60010-8111"
      },
      {
        "line": [
          "80 E Northampton St"
        ],
        "city": "WILKES BARRE",
        "state": "PA",
        "postalCode": "18702-3035"
      },
      {
        "line": [
          "101 E Mountain Blvd"
        ],
        "city": "WILKES BARRE",
        "state": "PA",
        "postalCode": "18702-7911"
      },
      {
        "line": [
          "720 S Keyser Ave"
        ],
        "city": "TAYLOR",
        "state": "PA",
        "postalCode": "18517-9621"
      },
      {
        "line": [
          "1000 East Mountain Blvd"
        ],
        "city": "WILKES BARRE",
        "state": "PA",
        "postalCode": "18702-0027"
      },
      {
        "line": [
          "241 North Rd"
        ],
        "city": "POUGHKEEPSIE",
        "state": "NY",
        "postalCode": "12601-1154"
      },
      {
        "line": [
          "675 Saint Marys Rd"
        ],
        "city": "MOSCOW",
        "state": "PA",
        "postalCode": "18444-9614"
      },
      {
        "line": [
          "700 Quincy Ave"
        ],
        "city": "SCRANTON",
        "state": "PA",
        "postalCode": "18510-1724"
      },
      {
        "line": [
          "325 BRISTOL LN"
        ],
        "city": "HOLLIDAYSBURG",
        "state": "PA",
        "postalCode": "16648-2948"
      },
      {
        "line": [
          "743 Jefferson Ave"
        ],
        "city": "SCRANTON",
        "state": "PA",
        "postalCode": "18510-1639"
      },
      {
        "line": [
          "11253 S APOPKA VINELAND RD"
        ],
        "city": "ORLANDO",
        "state": "FL",
        "postalCode": "32836-6110"
      },
      {
        "line": [
          "545 N River St"
        ],
        "city": "WILKES BARRE",
        "state": "PA",
        "postalCode": "18702-2643"
      },
      {
        "line": [
          "701 E 16th St"
        ],
        "city": "BERWICK",
        "state": "PA",
        "postalCode": "18603-2316"
      },
      {
        "line": [
          "1543 ABINGTON RD"
        ],
        "city": "ABINGTON TOWNSHIP",
        "state": "PA",
        "postalCode": "18414-8096"
      },
      {
        "line": [
          "824 Adams Ave"
        ],
        "city": "SCRANTON",
        "state": "PA",
        "postalCode": "18510-1002"
      },
      {
        "line": [
          "600 Baltimore Dr"
        ],
        "city": "WILKES BARRE",
        "state": "PA",
        "postalCode": "18702-7901"
      },
      {
        "line": [
          "1850 S OCEAN DR APT 1810"
        ],
        "city": "HALLANDALE",
        "state": "FL",
        "postalCode": "33009-7680"
      },
      {
        "line": [
          "207 W Grove St"
        ],
        "city": "SCRANTON",
        "state": "PA",
        "postalCode": "18509-2529"
      },
      {
        "line": [
          "9203 PINE ISLAND CT"
        ],
        "city": "TAMPA",
        "state": "FL",
        "postalCode": "33647-2301"
      },
      {
        "line": [
          "545 N River St"
        ],
        "city": "WILKES BARRE",
        "state": "PA",
        "postalCode": "18702-2600"
      },
      {
        "line": [
          "1100 RIDGESIDE DR"
        ],
        "city": "MONTEREY PARK",
        "state": "CA",
        "postalCode": "91754-3731"
      },
      {
        "line": [
          "260 S Meade St"
        ],
        "city": "WILKES BARRE",
        "state": "PA",
        "postalCode": "18702-6221"
      },
      {
        "line": [
          "206 E BROWN ST"
        ],
        "city": "EAST STROUDSBURG",
        "state": "PA",
        "postalCode": "18301-3006"
      },
      {
        "line": [
          "2969 ORCHARD PLC"
        ],
        "city": "ORCHARD LAKE",
        "state": "MI",
        "postalCode": "48324-2362"
      },
      {
        "line": [
          "1101 Vine St"
        ],
        "city": "SCRANTON",
        "state": "PA",
        "postalCode": "18510-2126"
      },
      {
        "line": [
          "637 Flycather Ln"
        ],
        "city": "BLYTHEWOOD",
        "state": "SC",
        "postalCode": "29016-8041"
      },
      {
        "line": [
          "4 COUNTRY CLUB DR"
        ],
        "city": "AMARILLO",
        "state": "TX",
        "postalCode": "79124-1704"
      },
      {
        "line": [
          "163 Fallbrook St"
        ],
        "city": "CARBONDALE",
        "state": "PA",
        "postalCode": "18407-1810"
      },
      {
        "line": [
          "718 S State St"
        ],
        "city": "CLARKS SUMMIT",
        "state": "PA",
        "postalCode": "18411-1749"
      },
      {
        "line": [
          "610 Wyoming Ave"
        ],
        "city": "KINGSTON",
        "state": "PA",
        "postalCode": "18704-8999"
      },
      {
        "line": [
          "702 Third Ave"
        ],
        "city": "KINGSTON",
        "state": "PA",
        "postalCode": "18704-5845"
      },
      {
        "line": [
          "74 FORSTER AVE"
        ],
        "city": "MOUNT VERNON",
        "state": "NY",
        "postalCode": "10552-3409"
      },
      {
        "line": [
          "10102 BEVERLY DR"
        ],
        "city": "HUNTINGTON BEACH",
        "state": "CA",
        "postalCode": "92646-5415"
      },
      {
        "line": [
          "5950 State Route 6"
        ],
        "city": "TUNKHANNOCK",
        "state": "PA",
        "postalCode": "18657-6149"
      },
      {
        "line": [
          "2741 Boulevard Ave"
        ],
        "city": "SCRANTON",
        "state": "PA",
        "postalCode": "18509-1000"
      },
      {
        "line": [
          "575 N River St"
        ],
        "city": "WILKES BARRE",
        "state": "PA",
        "postalCode": "18702-2634"
      },
      {
        "line": [
          "1720 MARS HILL RD"
        ],
        "city": "FLORENCE",
        "state": "AL",
        "postalCode": "35630-6652"
      },
      {
        "line": [
          "915 Delaware St"
        ],
        "city": "FOREST CITY",
        "state": "PA",
        "postalCode": "18421-1005"
      },
      {
        "line": [
          "190 Welles St"
        ],
        "city": "KINGSTON",
        "state": "PA",
        "postalCode": "18704-4968"
      },
      {
        "line": [
          "746 JEFFERSON AVE"
        ],
        "city": "SCRANTON",
        "state": "PA",
        "postalCode": "18510-1624"
      },
      {
        "line": [
          "637 FLYCATCHER LN"
        ],
        "city": "BLYTHEWOOD",
        "state": "SC",
        "postalCode": "29016-8041"
      },
      {
        "line": [
          "209 Roberts Rd"
        ],
        "city": "PITTSTON",
        "state": "PA",
        "postalCode": "18640-3111"
      },
      {
        "line": [
          "1255 S CEDAR CREST BLVD",
          "STE 2500"
        ],
        "city": "ALLENTOWN",
        "state": "PA",
        "postalCode": "18103-6240"
      },
      {
        "line": [
          "147 Newport St"
        ],
        "city": "NANTICOKE",
        "state": "PA",
        "postalCode": "18634-1327"
      },
      {
        "line": [
          "1189 Highway 315, Suite 4"
        ],
        "city": "WILKES BARRE",
        "state": "PA",
        "postalCode": "18702-6959"
      },
      {
        "line": [
          "2057 N AUTUMN CHASE DR"
        ],
        "city": "MECHANICSBURG",
        "state": "PA",
        "postalCode": "17055-9614"
      },
      {
        "line": [
          "26 STAR LN"
        ],
        "city": "SOUTH BARRINGTON",
        "state": "IL",
        "postalCode": "60010-7139"
      },
      {
        "line": [
          "824 ADAMS AVE"
        ],
        "city": "SCRANTON",
        "state": "PA",
        "postalCode": "18510-1002"
      },
      {
        "line": [
          "1248 S HARBOR CITY BLVD"
        ],
        "city": "MELBOURNE",
        "state": "FL",
        "postalCode": "32901-3242"
      },
      {
        "line": [
          "270 Pierce St"
        ],
        "city": "KINGSTON",
        "state": "PA",
        "postalCode": "18704-5141"
      },
      {
        "line": [
          "1250 N 9th Street"
        ],
        "city": "STROUDSBURG",
        "state": "PA",
        "postalCode": "18360-7800"
      },
      {
        "line": [
          "211 Roberts Rd"
        ],
        "city": "PITTSTON",
        "state": "PA",
        "postalCode": "18640-3112"
      },
      {
        "line": [
          "12 KIPLING DR"
        ],
        "city": "MOOSIC",
        "state": "PA",
        "postalCode": "18507-1934"
      },
      {
        "line": [
          "453 S MAIN RD"
        ],
        "city": "MOUNTAIN TOP",
        "state": "PA",
        "postalCode": "18707-1944"
      },
      {
        "line": [
          "100 Abington Executive Park"
        ],
        "city": "CLARKS SUMMIT",
        "state": "PA",
        "postalCode": "18411-2258"
      },
      {
        "line": [
          "1548 San Souci Pkwy"
        ],
        "city": "WILKES BARRE",
        "state": "PA",
        "postalCode": "18702-6028"
      },
      {
        "line": [
          "2933 McCarthy St"
        ],
        "city": "SCRANTON",
        "state": "PA",
        "postalCode": "18505-3014"
      },
      {
        "line": [
          "344 18th St"
        ],
        "city": "SANTA MONICA",
        "state": "CA",
        "postalCode": "90402-2406"
      },
      {
        "line": [
          "423 Third Ave, Suite B"
        ],
        "city": "KINGSTON",
        "state": "PA",
        "postalCode": "18704-5809"
      },
      {
        "line": [
          "746 Jefferson Ave, Floor 2R"
        ],
        "city": "SCRANTON",
        "state": "PA",
        "postalCode": "18501-1624"
      },
      {
        "line": [
          "10 Harrison Ave"
        ],
        "city": "CARBONDALE",
        "state": "PA",
        "postalCode": "18407-2580"
      },
      {
        "line": [
          "26 STAR LN"
        ],
        "city": "BARRINGTON",
        "state": "IL",
        "postalCode": "60010-7139"
      },
      {
        "line": [
          "809 HARBOR LN"
        ],
        "city": "DESTIN",
        "state": "FL",
        "postalCode": "32541-1807"
      },
      {
        "line": [
          "45 N Scott St"
        ],
        "city": "CARBONDALE",
        "state": "PA",
        "postalCode": "18407-1833"
      },
      {
        "line": [
          "911 Delaware St"
        ],
        "city": "FOREST CITY",
        "state": "PA",
        "postalCode": "18421-1005"
      },
      {
        "line": [
          "68 W Bennett St"
        ],
        "city": "KINGSTON",
        "state": "PA",
        "postalCode": "18704-3790"
      },
      {
        "line": [
          "575 N River Street"
        ],
        "city": "WILKES BARRE",
        "state": "PA",
        "postalCode": "18764-2634"
      },
      {
        "line": [
          "1189 HIGHWAY 315 BLVD STE 4"
        ],
        "city": "WILKES BARRE",
        "state": "PA",
        "postalCode": "18702-6959"
      },
      {
        "line": [
          "500 W Hospital St"
        ],
        "city": "TAYLOR",
        "state": "PA",
        "postalCode": "18517-2012"
      },
      {
        "line": [
          "450 GLASS LN"
        ],
        "city": "MODESTO",
        "state": "CA",
        "postalCode": "95356-9287"
      },
      {
        "line": [
          "395 E Middle Rd"
        ],
        "city": "NANTICOKE",
        "state": "PA",
        "postalCode": "18634-3806"
      },
      {
        "line": [
          "423 Third Ave, Suite D"
        ],
        "city": "KINGSTON",
        "state": "PA",
        "postalCode": "18704-5809"
      },
      {
        "line": [
          "150 Brooklyn St"
        ],
        "city": "CARBONDALE",
        "state": "PA",
        "postalCode": "18407-2274"
      },
      {
        "line": [
          "30 Virginia Dr"
        ],
        "city": "TUNKHANNOCK",
        "state": "PA",
        "postalCode": "18657-1701"
      },
      {
        "line": [
          "472 S Poplar St"
        ],
        "city": "HAZLETON",
        "state": "PA",
        "postalCode": "18201-7736"
      },
      {
        "line": [
          "2140 CAVE HILL LN"
        ],
        "city": "LEXINGTON",
        "state": "KY",
        "postalCode": "40513-1055"
      },
      {
        "line": [
          "100 N Academy Ave"
        ],
        "city": "DANVILLE",
        "state": "PA",
        "postalCode": "17822-9118"
      },
      {
        "line": [
          "145 N Main St"
        ],
        "city": "SHAVERTOWN",
        "state": "PA",
        "postalCode": "18708-1122"
      },
      {
        "line": [
          "246 S Main St"
        ],
        "city": "OLD FORGE",
        "state": "PA",
        "postalCode": "18518-1605"
      },
      {
        "line": [
          "109 Woodbine Ln"
        ],
        "city": "DANVILLE",
        "state": "PA",
        "postalCode": "17822-9118"
      },
      {
        "line": [
          "819 JEFFERSON AVE"
        ],
        "city": "SCRANTON",
        "state": "PA",
        "postalCode": "18510-1031"
      },
      {
        "line": [
          "37 Woodlands Dr"
        ],
        "city": "WAYMART",
        "state": "PA",
        "postalCode": "18472-9366"
      },
      {
        "line": [
          "150 Edella Road"
        ],
        "city": "CLARKS SUMMIT",
        "state": "PA",
        "postalCode": "18411-1061"
      },
      {
        "line": [
          "1065 Highway 315, Suite 301"
        ],
        "city": "WILKES BARRE",
        "state": "PA",
        "postalCode": "18702-6901"
      },
      {
        "line": [
          "940 Scranton Carbondale Hwy"
        ],
        "city": "ARCHBALD",
        "state": "PA",
        "postalCode": "18403-1019"
      },
      {
        "line": [
          "1101 VIne St"
        ],
        "city": "SCRANTON",
        "state": "PA",
        "postalCode": "18510-2126"
      },
      {
        "line": [
          "239 S MOUNTAIN BLVD"
        ],
        "city": "MOUNTAIN TOP",
        "state": "PA",
        "postalCode": "18707-1968"
      },
      {
        "line": [
          "1126 Meade St"
        ],
        "city": "SCRANTON",
        "state": "PA",
        "postalCode": "18512-3196"
      },
      {
        "line": [
          "1099 S TOWNSHIP BLVD"
        ],
        "city": "PITTSTON",
        "state": "PA",
        "postalCode": "18640-3247"
      },
      {
        "line": [
          "1555 E End Blvd"
        ],
        "city": "WILKES BARRE",
        "state": "PA",
        "postalCode": "18711-1011"
      },
      {
        "line": [
          "2500 Adams Ave"
        ],
        "city": "SCRANTON",
        "state": "PA",
        "postalCode": "18509-1515"
      },
      {
        "line": [
          "475 Morgan Hwy"
        ],
        "city": "SCRANTON",
        "state": "PA",
        "postalCode": "18504-2605"
      },
      {
        "line": [
          "601 Wyoming Ave"
        ],
        "city": "KINGSTON",
        "state": "PA",
        "postalCode": "18704-3701"
      },
      {
        "line": [
          "1099 South Township Blvd"
        ],
        "city": "PITTSTON",
        "state": "PA",
        "postalCode": "18640-3247"
      },
      {
        "line": [
          "80 E NORTHAMPTON ST"
        ],
        "city": "WILKES BARRE",
        "state": "PA",
        "postalCode": "18701-3035"
      },
      {
        "line": [
          "10102 Beverly Dr"
        ],
        "city": "HUNTINGTON BEACH",
        "state": "CA",
        "postalCode": "92646-5415"
      },
      {
        "line": [
          "50 W Tioga St"
        ],
        "city": "TUNKHANNOCK",
        "state": "PA",
        "postalCode": "18657-1445"
      },
      {
        "line": [
          "200 S Meade St"
        ],
        "city": "WILKES BARRE",
        "state": "PA",
        "postalCode": "18702-6221"
      },
      {
        "line": [
          "150 Mundy St"
        ],
        "city": "WILKES BARRE",
        "state": "PA",
        "postalCode": "18702-6830"
      },
      {
        "line": [
          "2309 Stafford Ave"
        ],
        "city": "SCRANTON",
        "state": "PA",
        "postalCode": "18505-3686"
      },
      {
        "line": [
          "176 N MAIN ST"
        ],
        "city": "SHAVERTOWN",
        "state": "PA",
        "postalCode": "18708-1121"
      },
      {
        "line": [
          "1444 E Lackawanna Ave Ste 218"
        ],
        "city": "OLYPHANT",
        "state": "PA",
        "postalCode": "18447-2174"
      },
      {
        "line": [
          "344 18TH ST"
        ],
        "city": "SANTA MONICA",
        "state": "CA",
        "postalCode": "90402-2406"
      },
      {
        "line": [
          "200 South Meade Street"
        ],
        "city": "WILKES BARRE",
        "state": "PA",
        "postalCode": "18702-6221"
      },
      {
        "line": [
          "440 N River St"
        ],
        "city": "WILKES BARRE",
        "state": "PA",
        "postalCode": "18702-2631"
      },
      {
        "line": [
          "1000 MEADE ST"
        ],
        "city": "SCRANTON",
        "state": "PA",
        "postalCode": "18512-3195"
      },
      {
        "line": [
          "190 WELLES ST"
        ],
        "city": "KINGSTON",
        "state": "PA",
        "postalCode": "18704-4968"
      },
      {
        "line": [
          "672 N River St, Suite 102"
        ],
        "city": "WILKES BARRE",
        "state": "PA",
        "postalCode": "18705-1014"
      },
      {
        "line": [
          "575 N River St, 7th Floor"
        ],
        "city": "WILKES BARRE",
        "state": "PA",
        "postalCode": "18764-2634"
      },
      {
        "line": [
          "1101 VINE ST"
        ],
        "city": "SCRANTON",
        "state": "PA",
        "postalCode": "18510-2126"
      },
      {
        "line": [
          "1000 MEADE ST"
        ],
        "city": "Dunmore",
        "state": "PA",
        "postalCode": "18512-3195"
      },
      {
        "line": [
          "423 Scranton Carbondale Hwy"
        ],
        "city": "SCRANTON",
        "state": "PA",
        "postalCode": "18508-1115"
      },
      {
        "line": [
          "1065 Highway 315 Ste 301"
        ],
        "city": "WILKES BARRE",
        "state": "PA",
        "postalCode": "18701-6901"
      },
      {
        "line": [
          "2080 N Township Blvd"
        ],
        "city": "PITTSTON",
        "state": "PA",
        "postalCode": "18640-3547"
      },
      {
        "line": [
          "415 Adams Ave"
        ],
        "city": "SCRANTON",
        "state": "PA",
        "postalCode": "18510-2001"
      },
      {
        "line": [
          "272 Turnpike St"
        ],
        "city": "SUSQUEHANNA",
        "state": "PA",
        "postalCode": "18847-2771"
      },
      {
        "line": [
          "150 Mundy St, MAC IV"
        ],
        "city": "WILKES BARRE",
        "state": "PA",
        "postalCode": "18702-6830"
      },
      {
        "line": [
          "1065 Highway 315, Suite 301"
        ],
        "city": "WILKES BARRE",
        "state": "PA",
        "postalCode": "18702-6941"
      },
      {
        "line": [
          "1011 Main Street"
        ],
        "city": "SPRING HILL",
        "state": "TN",
        "postalCode": "37174-4531"
      },
      {
        "line": [
          "RR 2 Box 463A"
        ],
        "city": "HARVEYS LAKE",
        "state": "PA",
        "postalCode": "18618-9518"
      },
      {
        "line": [
          "700 Northampton St"
        ],
        "city": "KINGSTON",
        "state": "PA",
        "postalCode": "18704-3424"
      },
      {
        "line": [
          "1104 Plaza Dr"
        ],
        "city": "STATE COLLEGE",
        "state": "PA",
        "postalCode": "16801-4625"
      },
      {
        "line": [
          "1250 N 9th St"
        ],
        "city": "EAST STROUDSBURG",
        "state": "PA",
        "postalCode": "18301-2649"
      },
      {
        "line": [
          "601 Park St"
        ],
        "city": "HONESDALE",
        "state": "PA",
        "postalCode": "18431-1445"
      },
      {
        "line": [
          "610 Wyoming Avenue"
        ],
        "city": "KINGSTON",
        "state": "PA",
        "postalCode": "18704-3702"
      },
      {
        "line": [
          "4000 Meridian"
        ],
        "city": "FRANKLIN",
        "state": "TN",
        "postalCode": "37064-6235"
      },
      {
        "line": [
          "1710 E Broad St"
        ],
        "city": "HAZLETON",
        "state": "PA",
        "postalCode": "18201-5695"
      },
      {
        "line": [
          "400 Gleason Dr"
        ],
        "city": "PITTSTON",
        "state": "PA",
        "postalCode": "18641-9535"
      },
      {
        "line": [
          "1000 Mill St"
        ],
        "city": "SCRANTON",
        "state": "PA",
        "postalCode": "18512-3069"
      },
      {
        "line": [
          "1550 Highway 315"
        ],
        "city": "WILKES BARRE",
        "state": "PA",
        "postalCode": "18702-7005"
      },
      {
        "line": [
          "716 Main St"
        ],
        "city": "PITTSTON",
        "state": "PA",
        "postalCode": "18641-1623"
      },
      {
        "line": [
          "100 Edella Rd"
        ],
        "city": "CLARKS SUMMIT",
        "state": "PA",
        "postalCode": "18411-1628"
      },
      {
        "line": [
          "2969 ORCHARD PLC"
        ],
        "city": "WEST BLOOMFIELD",
        "state": "MI",
        "postalCode": "48324-2362"
      },
      {
        "line": [
          "224 Main St"
        ],
        "city": "PITTSTON",
        "state": "PA",
        "postalCode": "18641-2014"
      },
      {
        "line": [
          "109 W Ninth St"
        ],
        "city": "BERWICK",
        "state": "PA",
        "postalCode": "18603-3024"
      },
      {
        "line": [
          "301 Delaware Ave"
        ],
        "city": "OLYPHANT",
        "state": "PA",
        "postalCode": "18447-1351"
      },
      {
        "line": [
          "750 Schooley Ave"
        ],
        "city": "PITTSTON",
        "state": "PA",
        "postalCode": "18643-9380"
      },
      {
        "line": [
          "101 E Mountain Dr"
        ],
        "city": "WILKES BARRE",
        "state": "PA",
        "postalCode": "18702-7911"
      },
      {
        "line": [
          "475 Morgan Highway"
        ],
        "city": "SCRANTON",
        "state": "PA",
        "postalCode": "18504-2605"
      },
      {
        "line": [
          "1 Kim Ave"
        ],
        "city": "TUNKHANNOCK",
        "state": "PA",
        "postalCode": "18657-9103"
      },
      {
        "line": [
          "200 Second Ave"
        ],
        "city": "KINGSTON",
        "state": "PA",
        "postalCode": "18704-5722"
      },
      {
        "line": [
          "4 E MAIN ST"
        ],
        "city": "NANTICOKE",
        "state": "PA",
        "postalCode": "18634-1602"
      },
      {
        "line": [
          "81 Sturges Rd"
        ],
        "city": "PECKVILLE",
        "state": "PA",
        "postalCode": "18452-1302"
      },
      {
        "line": [
          "240 N Sherman St"
        ],
        "city": "WILKES BARRE",
        "state": "PA",
        "postalCode": "18702-5316"
      },
      {
        "line": [
          "264 Highland Blvd"
        ],
        "city": "WILKES BARRE",
        "state": "PA",
        "postalCode": "18702-6768"
      },
      {
        "line": [
          "80 Wyoming Ave"
        ],
        "city": "WYOMING",
        "state": "PA",
        "postalCode": "18644-1722"
      },
      {
        "line": [
          "200 Overlook Dr"
        ],
        "city": "PITTSTON",
        "state": "PA",
        "postalCode": "18640-3450"
      },
      {
        "line": [
          "4113 Birney Ave, Suite 6"
        ],
        "city": "MOOSIC",
        "state": "PA",
        "postalCode": "18507-1330"
      },
      {
        "line": [
          "303 Smallcombe Drive"
        ],
        "city": "SCRANTON",
        "state": "PA",
        "postalCode": "18508-2634"
      },
      {
        "line": [
          "468 Northhampton St"
        ],
        "city": "KINGSTON",
        "state": "PA",
        "postalCode": "18704-4566"
      },
      {
        "line": [
          "10 Hart Pl"
        ],
        "city": "CARBONDALE",
        "state": "PA",
        "postalCode": "18407-1593"
      },
      {
        "line": [
          "300 E Brown St"
        ],
        "city": "EAST STROUDSBURG",
        "state": "PA",
        "postalCode": "18301-3012"
      },
      {
        "line": [
          "260 Daleville Hwy Ste 103"
        ],
        "city": "MOSCOW",
        "state": "PA",
        "postalCode": "18444-7951"
      },
      {
        "line": [
          "124 DEVONSHIRE DR"
        ],
        "city": "MOSCOW",
        "state": "PA",
        "postalCode": "18444-9547"
      },
      {
        "line": [
          "1401 Electric St"
        ],
        "city": "SCRANTON",
        "state": "PA",
        "postalCode": "18509-2098"
      },
      {
        "line": [
          "100 Linwood Ave"
        ],
        "city": "SCRANTON",
        "state": "PA",
        "postalCode": "18505-2868"
      },
      {
        "line": [
          "749 Northern Blvd"
        ],
        "city": "CLARKS SUMMIT",
        "state": "PA",
        "postalCode": "18411-9087"
      },
      {
        "line": [
          "1065 Highway 315 Ste 301"
        ],
        "city": "WILKES BARRE",
        "state": "PA",
        "postalCode": "18702-6901"
      },
      {
        "line": [
          "200 Third St"
        ],
        "city": "OLYPHANT",
        "state": "PA",
        "postalCode": "18447-1017"
      },
      {
        "line": [
          "245 State Route 239"
        ],
        "city": "SWEET VALLEY",
        "state": "PA",
        "postalCode": "18656-4430"
      },
      {
        "line": [
          "900 Rutter Ave"
        ],
        "city": "KINGSTON",
        "state": "PA",
        "postalCode": "18704-4962"
      },
      {
        "line": [
          "700 Third Ave"
        ],
        "city": "KINGSTON",
        "state": "PA",
        "postalCode": "18704-5845"
      },
      {
        "line": [
          "113 W Drinker St"
        ],
        "city": "SCRANTON",
        "state": "PA",
        "postalCode": "18512-1913"
      },
      {
        "line": [
          "4000 MERIDIAN BLVD"
        ],
        "city": "FRANKLIN",
        "state": "TN",
        "postalCode": "37067-6325"
      },
      {
        "line": [
          "239 Schuyler Ave"
        ],
        "city": "KINGSTON",
        "state": "PA",
        "postalCode": "18704-3336"
      },
      {
        "line": [
          "108 Terrace Dr"
        ],
        "city": "OLYPHANT",
        "state": "PA",
        "postalCode": "18447-2503"
      },
      {
        "line": [
          "1401 Electric St"
        ],
        "city": "SCRANTON",
        "state": "PA",
        "postalCode": "18509-8999"
      },
      {
        "line": [
          "4 EAST MAIN STREET"
        ],
        "city": "NANTICOKE",
        "state": "PA",
        "postalCode": "18634-1602"
      },
      {
        "line": [
          "3 W Olive St, Suite 206"
        ],
        "city": "SCRANTON",
        "state": "PA",
        "postalCode": "18508-2572"
      },
      {
        "line": [
          "1619 Main St"
        ],
        "city": "OLYPHANT",
        "state": "PA",
        "postalCode": "18447-1335"
      },
      {
        "line": [
          "269 Route 6 West"
        ],
        "city": "COUDERSPORT",
        "state": "PA",
        "postalCode": "16915-8179"
      },
      {
        "line": [
          "55 W Center Hill Rd"
        ],
        "city": "DALLAS",
        "state": "PA",
        "postalCode": "18612-1069"
      },
      {
        "line": [
          "819 Jefferson Ave"
        ],
        "city": "SCRANTON",
        "state": "PA",
        "postalCode": "18510-1031"
      },
      {
        "line": [
          "301 Lake St"
        ],
        "city": "DALLAS",
        "state": "PA",
        "postalCode": "18612-1032"
      },
      {
        "line": [
          "5950 SR 6"
        ],
        "city": "TUNKHANNOCK",
        "state": "PA",
        "postalCode": "18657-7905"
      },
      {
        "line": [
          "301 Delaware Ave"
        ],
        "city": "OLYPHANT",
        "state": "PA",
        "postalCode": "18447-1531"
      },
      {
        "line": [
          "50 N PENNSYLVANIA AVE"
        ],
        "city": "WILKES BARRE",
        "state": "PA",
        "postalCode": "18701-3503"
      },
      {
        "line": [
          "670 S RIVER ST STE 301"
        ],
        "city": "WILKES BARRE",
        "state": "PA",
        "postalCode": "18705-1028"
      },
      {
        "line": [
          "300 Lackawanna Ave Ste 200"
        ],
        "city": "SCRANTON",
        "state": "PA",
        "postalCode": "18503-2001"
      },
      {
        "line": [
          "1789 N KEYSER AVE"
        ],
        "city": "SCRANTON",
        "state": "PA",
        "postalCode": "18508-1250"
      }
    ],
    "extension": [
      {
        "url": "https://fhir.athena.io/StructureDefinition/ah-practice",
        "valueReference": {
          "reference": "Organization/a-1.Practice-21771"
        }
      },
      {
        "url": "https://fhir.athena.io/StructureDefinition/ah-brand",
        "valueReference": {
          "reference": "Organization/a-21771.Brand-1"
        }
      }
    ]
  },
  "fullUrl": "urn:uuid:e51741e6-265f-58d9-bbe1-36838cdc1018"
}