{
  "resource": {
    "resourceType": "Organization",
    "id": "b0c1360e-1640-5a9f-89e8-d632164bcddd",
    "name": "R Rubinstein MD Inc",
    "endpoint": [
      {
        "reference": "Endpoint/27a4e967-47aa-5a9c-a572-b8297ee268a2"
      },
      {
        "reference": "Endpoint/97af7980-5c53-54ad-9edd-31ca88cf8ba4"
      }
    ],
    "identifier": [
      {
        "system": "http://hl7.org/fhir/sid/us-npi",
        "value": "1760825962"
      }
    ],
    "address": [
      {
        "line": [
          "2190 LYNN RD",
          "SUITE 100"
        ],
        "city": "THOUSAND OAKS",
        "state": "CA",
        "postalCode": "91360-8019"
      },
      {
        "line": [
          "1950 E. Los Angeles Avenue"
        ],
        "city": "SIMI VALLEY",
        "state": "CA",
        "postalCode": "93065-3503"
      },
      {
        "line": [
          "2750 SYCAMORE DR"
        ],
        "city": "SIMI VALLEY",
        "state": "CA",
        "postalCode": "93065-1502"
      },
      {
        "line": [
          "2975 SYCAMORE DR"
        ],
        "city": "SIMI VALLEY",
        "state": "CA",
        "postalCode": "93065-1201"
      },
      {
        "line": [
          "401 ROLLING OAKS DR"
        ],
        "city": "THOUSAND OAKS",
        "state": "CA",
        "postalCode": "91360-1050"
      },
      {
        "line": [
          "1901 Solar Dr"
        ],
        "city": "OXNARD",
        "state": "CA",
        "postalCode": "93036-0630"
      },
      {
        "line": [
          "215 W JANSS RD"
        ],
        "city": "THOUSAND OAKS",
        "state": "CA",
        "postalCode": "91360-1847"
      },
      {
        "line": [
          "227 W. Janss Rd.",
          "Suite #125"
        ],
        "city": "THOUSAND OAKS",
        "state": "CA",
        "postalCode": "91360-1848"
      },
      {
        "line": [
          "2300 WANKEL WAY"
        ],
        "city": "OXNARD",
        "state": "CA",
        "postalCode": "93030-2665"
      },
      {
        "line": [
          "1901 Solar Dr",
          "#110"
        ],
        "city": "OXNARD",
        "state": "CA",
        "postalCode": "93036-2642"
      },
      {
        "line": [
          "1920 E Los Angeles Ave"
        ],
        "city": "SIMI VALLEY",
        "state": "CA",
        "postalCode": "93065-3503"
      }
    ],
    "extension": [
      {
        "url": "https://fhir.athena.io/StructureDefinition/ah-practice",
        "valueReference": {
          "reference": "Organization/a-1.Practice-7809"
        }
      },
      {
        "url": "https://fhir.athena.io/StructureDefinition/ah-brand",
        "valueReference": {
          "reference": "Organization/a-7809.Brand-1"
        }
      }
    ]
  },
  "fullUrl": "urn:uuid:b0c1360e-1640-5a9f-89e8-d632164bcddd"
}