{
  "resource": {
    "resourceType": "Organization",
    "id": "d0b22361-f670-51c0-8a79-1bfad3a0b015",
    "name": "Dominion Women's Health",
    "endpoint": [
      {
        "reference": "Endpoint/27a4e967-47aa-5a9c-a572-b8297ee268a2"
      },
      {
        "reference": "Endpoint/be0c364f-7312-565b-81a2-53241b5c1d7c"
      }
    ],
    "identifier": [
      {
        "system": "http://hl7.org/fhir/sid/us-npi",
        "value": "1932289592"
      }
    ],
    "address": [
      {
        "line": [
          "142 Smithfield Rd"
        ],
        "city": "SAINT STEPHENS CHURCH",
        "state": "VA",
        "postalCode": "23148-2129"
      },
      {
        "line": [
          "1401 Johnston Willis Drive"
        ],
        "city": "RICHMOND",
        "state": "VA",
        "postalCode": "23235-4017"
      },
      {
        "line": [
          "5801 Bremo Road"
        ],
        "city": "RICHMOND",
        "state": "VA",
        "postalCode": "23226-1907"
      },
      {
        "line": [
          "8260 Atlee Road"
        ],
        "city": "MECHANICSVILLE",
        "state": "VA",
        "postalCode": "23116-1844"
      },
      {
        "line": [
          "13710 St. Francis Boulevard"
        ],
        "city": "MIDLOTHIAN",
        "state": "VA",
        "postalCode": "23114-3267"
      },
      {
        "line": [
          "7611 Forest Ave",
          "Suite 400"
        ],
        "city": "HENRICO",
        "state": "VA",
        "postalCode": "23229-5205"
      },
      {
        "line": [
          "1051 Johnston Willis Dr. STE 100"
        ],
        "city": "RICHMOND",
        "state": "VA",
        "postalCode": "23235-4871"
      },
      {
        "line": [
          "1602 Skipwith Rd."
        ],
        "city": "HENRICO",
        "state": "VA",
        "postalCode": "23229-5205"
      },
      {
        "line": [
          "8239 Meadowbridge Rd, Ste A"
        ],
        "city": "MECHANICSVILLE",
        "state": "VA",
        "postalCode": "23116-2318"
      },
      {
        "line": [
          "13710 St. Francis Blvd"
        ],
        "city": "MIDLOTHIAN",
        "state": "VA",
        "postalCode": "23114-9501"
      }
    ],
    "extension": [
      {
        "url": "https://fhir.athena.io/StructureDefinition/ah-practice",
        "valueReference": {
          "reference": "Organization/a-1.Practice-31632"
        }
      },
      {
        "url": "https://fhir.athena.io/StructureDefinition/ah-brand",
        "valueReference": {
          "reference": "Organization/a-31632.Brand-1"
        }
      }
    ]
  },
  "fullUrl": "urn:uuid:d0b22361-f670-51c0-8a79-1bfad3a0b015"
}