{
  "resource": {
    "resourceType": "Organization",
    "id": "29048479-7260-5825-89a8-0918b4f8cf7a",
    "name": "AMERICAN HOUSE AL",
    "endpoint": [
      {
        "reference": "Endpoint/27a4e967-47aa-5a9c-a572-b8297ee268a2"
      },
      {
        "reference": "Endpoint/7e9235c0-6610-5463-a904-562ee13ae514"
      }
    ],
    "identifier": [
      {
        "system": "http://hl7.org/fhir/sid/us-npi",
        "value": "1497014476"
      }
    ],
    "address": [
      {
        "line": [
          "625 36th St SW"
        ],
        "city": "WYOMING",
        "state": "MI",
        "postalCode": "49509-4004"
      },
      {
        "line": [
          "1015 EAST PARIS AVE SE"
        ],
        "city": "GRAND RAPIDS",
        "state": "MI",
        "postalCode": "49546-3603"
      },
      {
        "line": [
          "5900 Byron Center Ave SW"
        ],
        "city": "WYOMING",
        "state": "MI",
        "postalCode": "49519-9606"
      },
      {
        "line": [
          "2100 Raybrook St SE, Suite 100               100"
        ],
        "city": "GRAND RAPIDS",
        "state": "MI",
        "postalCode": "49546-5783"
      },
      {
        "line": [
          "1919 BOSTON ST SE"
        ],
        "city": "GRAND RAPIDS",
        "state": "MI",
        "postalCode": "49506-4185"
      },
      {
        "line": [
          "1471 GRACE STREET SE"
        ],
        "city": "GRAND RAPIDS",
        "state": "MI",
        "postalCode": "49508-3605"
      },
      {
        "line": [
          "Medilodge of Wyoming SNF",
          "2786 56th St SW"
        ],
        "city": "GRANDVILLE",
        "state": "MI",
        "postalCode": "49418-8708"
      },
      {
        "line": [
          "8214 Pfeiffer Farms"
        ],
        "city": "BYRON CENTER",
        "state": "MI",
        "postalCode": "49315-8288"
      },
      {
        "line": [
          "834 OAKCREST LANE"
        ],
        "city": "JENISON",
        "state": "MI",
        "postalCode": "49428-8354"
      },
      {
        "line": [
          "235 Wealthy SE",
          "Ste 100"
        ],
        "city": "GRAND RAPIDS",
        "state": "MI",
        "postalCode": "49503-5247"
      },
      {
        "line": [
          "151 PORT SHELDON RD SW"
        ],
        "city": "GRANDVILLE",
        "state": "MI",
        "postalCode": "49418-2149"
      },
      {
        "line": [
          "2000 32nd St SE"
        ],
        "city": "GRAND RAPIDS",
        "state": "MI",
        "postalCode": "49508-7910"
      },
      {
        "line": [
          "235 WEALTHY ST SE STE100"
        ],
        "city": "GRAND RAPIDS",
        "state": "MI",
        "postalCode": "49503-5229"
      },
      {
        "line": [
          "5900 BYRON CENTER AVE SW"
        ],
        "city": "WYOMING",
        "state": "MI",
        "postalCode": "49519-9606"
      },
      {
        "line": [
          "1822 TOWNER AVE SW"
        ],
        "city": "GRAND RAPIDS",
        "state": "MI",
        "postalCode": "49507-2355"
      },
      {
        "line": [
          "3740 VISTA SPRINGS AVE NE"
        ],
        "city": "GRAND RAPIDS",
        "state": "MI",
        "postalCode": "49525-2463"
      },
      {
        "line": [
          "2320 E BELTLINE AVE SE"
        ],
        "city": "GRAND RAPIDS",
        "state": "MI",
        "postalCode": "49546-5906"
      },
      {
        "line": [
          "2420 COIT AVE NE"
        ],
        "city": "GRAND RAPIDS",
        "state": "MI",
        "postalCode": "49505-4001"
      },
      {
        "line": [
          "730 FOREST HILL AVE SE"
        ],
        "city": "GRAND RAPIDS",
        "state": "MI",
        "postalCode": "49546-2309"
      },
      {
        "line": [
          "Green Acres - Standale AL",
          "11276 1st Ave NW"
        ],
        "city": "GRAND RAPIDS",
        "state": "MI",
        "postalCode": "49534-3382"
      },
      {
        "line": [
          "111 Lakeside Dr NE"
        ],
        "city": "Grand Rapids",
        "state": "MI",
        "postalCode": "49506-3711"
      },
      {
        "line": [
          "2100 RAYBROOK ST SE"
        ],
        "city": "GRAND RAPIDS",
        "state": "MI",
        "postalCode": "49546-7759"
      },
      {
        "line": [
          "725 Baldwin St",
          "Jenison, MI"
        ],
        "city": "JENISON",
        "state": "MI",
        "postalCode": "49428-7945"
      },
      {
        "line": [
          "1725 PORT SHELDON STREET"
        ],
        "city": "JENISON",
        "state": "MI",
        "postalCode": "49428-9001"
      },
      {
        "line": [
          "690 W MAIN ST"
        ],
        "city": "MIDDLEVILLE",
        "state": "MI",
        "postalCode": "49333-8122"
      },
      {
        "line": [
          "6081 W RIVER DR NE"
        ],
        "city": "BELMONT",
        "state": "MI",
        "postalCode": "49306-9219"
      },
      {
        "line": [
          "3492 Lake Dr SE"
        ],
        "city": "GRAND RAPIDS",
        "state": "MI",
        "postalCode": "49546-4338"
      },
      {
        "line": [
          "2115 84th St SW A"
        ],
        "city": "BYRON CENTER",
        "state": "MI",
        "postalCode": "49315-9395"
      },
      {
        "line": [
          "2589 44TH ST SE"
        ],
        "city": "GRAND RAPIDS",
        "state": "MI",
        "postalCode": "49512-3877"
      },
      {
        "line": [
          "3555 COPPER RIVER AVE SW"
        ],
        "city": "GRANDVILLE",
        "state": "MI",
        "postalCode": "49418-9791"
      },
      {
        "line": [
          "2280 BYRON VIEW DR SW"
        ],
        "city": "BYRON CENTER",
        "state": "MI",
        "postalCode": "49315-7817"
      },
      {
        "line": [
          "1630 Mullins Ave NW"
        ],
        "city": "GRAND RAPIDS",
        "state": "MI",
        "postalCode": "49534-2435"
      },
      {
        "line": [
          "2885 10 MILE RD NE"
        ],
        "city": "ROCKFORD",
        "state": "MI",
        "postalCode": "49341-9100"
      },
      {
        "line": [
          "3511 LEONARD ST NW"
        ],
        "city": "GRAND RAPIDS",
        "state": "MI",
        "postalCode": "49534-3702"
      },
      {
        "line": [
          "2510 LAKE MICHIGAN DR NW"
        ],
        "city": "GRAND RAPIDS",
        "state": "MI",
        "postalCode": "49504-8042"
      },
      {
        "line": [
          "2500 Breton Woods Dr SE"
        ],
        "city": "GRAND RAPIDS",
        "state": "MI",
        "postalCode": "49512-9122"
      },
      {
        "line": [
          "4482 PORT SHELDON ST"
        ],
        "city": "HUDSONVILLE",
        "state": "MI",
        "postalCode": "49426-9325"
      },
      {
        "line": [
          "3600 East Fulton St SE"
        ],
        "city": "GRAND RAPIDS",
        "state": "MI",
        "postalCode": "49546-1322"
      },
      {
        "line": [
          "3939 44TH ST SW"
        ],
        "city": "GRANDVILLE",
        "state": "MI",
        "postalCode": "49418-2457"
      },
      {
        "line": [
          "1055 Forest Hills Ave SE"
        ],
        "city": "GRAND RAPIDS",
        "state": "MI",
        "postalCode": "49546-3626"
      },
      {
        "line": [
          "11007 RADCLIFF DR"
        ],
        "city": "ALLENDALE",
        "state": "MI",
        "postalCode": "49401-9521"
      },
      {
        "line": [
          "1175 68TH ST SE"
        ],
        "city": "GRAND RAPIDS",
        "state": "MI",
        "postalCode": "49508-7895"
      },
      {
        "line": [
          "3956 Whispering Way Dr SE"
        ],
        "city": "GRAND RAPIDS",
        "state": "MI",
        "postalCode": "49546-5804"
      },
      {
        "line": [
          "2900 THORNHILLS AVE SE"
        ],
        "city": "GRAND RAPIDS",
        "state": "MI",
        "postalCode": "49546-7119"
      },
      {
        "line": [
          "2100 RAYBROOK ST SE, SUITE 100"
        ],
        "city": "GRAND RAPIDS",
        "state": "MI",
        "postalCode": "49546-5783"
      },
      {
        "line": [
          "1845 Boston St SE"
        ],
        "city": "GRAND RAPIDS",
        "state": "MI",
        "postalCode": "49506-4400"
      },
      {
        "line": [
          "2000 Leonard St"
        ],
        "city": "GRAND RAPIDS",
        "state": "MI",
        "postalCode": "49505-5837"
      },
      {
        "line": [
          "1175 68th St SE"
        ],
        "city": "GRAND RAPIDS",
        "state": "MI",
        "postalCode": "49508-7895"
      },
      {
        "line": [
          "9031 N RODGERS CT SE"
        ],
        "city": "CALEDONIA",
        "state": "MI",
        "postalCode": "49316-8014"
      },
      {
        "line": [
          "2121 Raybrook SE"
        ],
        "city": "GRAND RAPIDS",
        "state": "MI",
        "postalCode": "49546-5793"
      },
      {
        "line": [
          "65 Ida Red Ave"
        ],
        "city": "SPARTA",
        "state": "MI",
        "postalCode": "49345-1735"
      },
      {
        "line": [
          "1424 UNION NE"
        ],
        "city": "GRAND RAPIDS",
        "state": "MI",
        "postalCode": "49505-5197"
      },
      {
        "line": [
          "1225 SPAULDING AVE SE"
        ],
        "city": "GRAND RAPIDS",
        "state": "MI",
        "postalCode": "49546-6304"
      },
      {
        "line": [
          "2115 84th Street SW"
        ],
        "city": "BYRON CENTER",
        "state": "MI",
        "postalCode": "49315-8322"
      },
      {
        "line": [
          "3041 Charlevoix Dr SE"
        ],
        "city": "GRAND RAPIDS",
        "state": "MI",
        "postalCode": "49546-7035"
      },
      {
        "line": [
          "3400 WILSON AVE SW"
        ],
        "city": "GRANDVILLE",
        "state": "MI",
        "postalCode": "49418-1854"
      },
      {
        "line": [
          "1050 4 Mile Rd NW"
        ],
        "city": "GRAND RAPIDS",
        "state": "MI",
        "postalCode": "49544-1505"
      },
      {
        "line": [
          "9481 PENTATECH DR"
        ],
        "city": "ZEELAND",
        "state": "MI",
        "postalCode": "49464-8000"
      },
      {
        "line": [
          "2106 Leonard St NE"
        ],
        "city": "GRAND RAPIDS",
        "state": "MI",
        "postalCode": "49505-5857"
      },
      {
        "line": [
          "11537 Fulton St SE"
        ],
        "city": "LOWELL",
        "state": "MI",
        "postalCode": "49331-9609"
      },
      {
        "line": [
          "1450 Leonard St NE"
        ],
        "city": "GRAND RAPIDS",
        "state": "MI",
        "postalCode": "49505-5515"
      },
      {
        "line": [
          "Medilodge of Grand Rapids",
          "2000 LEONARD ST NE"
        ],
        "city": "GRAND RAPIDS",
        "state": "MI",
        "postalCode": "49505-5837"
      },
      {
        "line": [
          "111 Lakeside Dr NE"
        ],
        "city": "GRAND RAPIDS",
        "state": "MI",
        "postalCode": "49506-3711"
      }
    ],
    "extension": [
      {
        "url": "https://fhir.athena.io/StructureDefinition/ah-practice",
        "valueReference": {
          "reference": "Organization/a-1.Practice-16329"
        }
      },
      {
        "url": "https://fhir.athena.io/StructureDefinition/ah-brand",
        "valueReference": {
          "reference": "Organization/a-16329.Brand-1"
        }
      }
    ]
  },
  "fullUrl": "urn:uuid:29048479-7260-5825-89a8-0918b4f8cf7a"
}