{
  "resource": {
    "resourceType": "Organization",
    "id": "d1e89f36-c7fa-5c6b-a6d3-3605ee69e6e6",
    "name": "DME IN LOUISVILLE ORTHOPAEDIC CLINIC",
    "endpoint": [
      {
        "reference": "Endpoint/27a4e967-47aa-5a9c-a572-b8297ee268a2"
      },
      {
        "reference": "Endpoint/623bd8bb-98de-54f0-8b07-15c5e82c49f1"
      }
    ],
    "identifier": [
      {
        "system": "http://hl7.org/fhir/sid/us-npi",
        "value": "1407965015"
      }
    ],
    "address": [
      {
        "line": [
          "2031 JEFFERSONVILLE COMMONS DR"
        ],
        "city": "JEFFERSONVILLE",
        "state": "IN",
        "postalCode": "47130-8996"
      },
      {
        "line": [
          "3920 DUTCHMANS LN"
        ],
        "city": "LOUISVILLE",
        "state": "KY",
        "postalCode": "40207-4702"
      },
      {
        "line": [
          "2800 BRECKENRIDGE LN"
        ],
        "city": "LOUISVILLE",
        "state": "KY",
        "postalCode": "40220-1498"
      },
      {
        "line": [
          "4130 DUTCHMANS LANE"
        ],
        "city": "LOUISVILLE",
        "state": "KY",
        "postalCode": "40207-4710"
      },
      {
        "line": [
          "220 ABRAHAM FLEXNER WAY"
        ],
        "city": "LOUISVILLE",
        "state": "KY",
        "postalCode": "40202-3826"
      },
      {
        "line": [
          "4130 DUTCHMANS LN STE 300"
        ],
        "city": "LOUISVILLE",
        "state": "KY",
        "postalCode": "40207-4710"
      },
      {
        "line": [
          "1425 STATE ST STE 100"
        ],
        "city": "NEW ALBANY",
        "state": "IN",
        "postalCode": "47150-4976"
      },
      {
        "line": [
          "825 UNIVERSITY WOODS DR STE 3"
        ],
        "city": "NEW ALBANY",
        "state": "IN",
        "postalCode": "47150-2427"
      },
      {
        "line": [
          "4130 DUTCHMANS LN STE 202 STE 202A"
        ],
        "city": "LOUISVILLE",
        "state": "KY",
        "postalCode": "40207-4709"
      },
      {
        "line": [
          "4960 Norton Healthcare Blvd"
        ],
        "city": "LOUISVILLE",
        "state": "KY",
        "postalCode": "40233-6370"
      },
      {
        "line": [
          "1425 STATE ST STE 200"
        ],
        "city": "NEW ALBANY",
        "state": "IN",
        "postalCode": "47150-4977"
      },
      {
        "line": [
          "4000 KRESGE WAY"
        ],
        "city": "LOUISVILLE",
        "state": "KY",
        "postalCode": "40207-4605"
      },
      {
        "line": [
          "3605 NORTHGATE CT STE 207"
        ],
        "city": "NEW ALBANY",
        "state": "IN",
        "postalCode": "47150-6422"
      }
    ],
    "extension": [
      {
        "url": "https://fhir.athena.io/StructureDefinition/ah-practice",
        "valueReference": {
          "reference": "Organization/a-1.Practice-25506"
        }
      },
      {
        "url": "https://fhir.athena.io/StructureDefinition/ah-brand",
        "valueReference": {
          "reference": "Organization/a-25506.Brand-1"
        }
      }
    ]
  },
  "fullUrl": "urn:uuid:d1e89f36-c7fa-5c6b-a6d3-3605ee69e6e6"
}