{
  "resource": {
    "resourceType": "Organization",
    "id": "af215caa-4eae-50dd-a258-1b4f3d09cd76",
    "name": "ST JOSEPH'S HEALTHCARE INC",
    "endpoint": [
      {
        "reference": "Endpoint/27a4e967-47aa-5a9c-a572-b8297ee268a2"
      },
      {
        "reference": "Endpoint/c3359be5-f4e0-571d-9d0c-30aade0a285b"
      }
    ],
    "identifier": [
      {
        "system": "http://hl7.org/fhir/sid/us-npi",
        "value": "1801274634"
      },
      {
        "system": "http://hl7.org/fhir/sid/us-npi",
        "value": "1669462420"
      },
      {
        "system": "http://hl7.org/fhir/sid/us-npi",
        "value": "1194944207"
      },
      {
        "system": "http://hl7.org/fhir/sid/us-npi",
        "value": "1497791297"
      },
      {
        "system": "http://hl7.org/fhir/sid/us-npi",
        "value": "1881929669"
      }
    ],
    "address": [
      {
        "line": [
          "600 River Ave",
          "SJRMC"
        ],
        "city": "LAKEWOOD",
        "state": "NJ",
        "postalCode": "08701-5237"
      },
      {
        "line": [
          "176 PALISADES AVE",
          "SJRMC"
        ],
        "city": "JERSEY CITY",
        "state": "NJ",
        "postalCode": "07306-1121"
      },
      {
        "line": [
          "350 Engle Street",
          "SJRMC"
        ],
        "city": "ENGLEWOOD",
        "state": "NJ",
        "postalCode": "07631-1808"
      },
      {
        "line": [
          "703 MAIN STREET",
          "SJRMC"
        ],
        "city": "PATERSON",
        "state": "NJ",
        "postalCode": "07503-2621"
      },
      {
        "line": [
          "94 Old Short Hills Road",
          "SJRMC"
        ],
        "city": "LIVINGSTON",
        "state": "NJ",
        "postalCode": "07039-5672"
      },
      {
        "line": [
          "901 W Main St",
          "SJRMC"
        ],
        "city": "FREEHOLD",
        "state": "NJ",
        "postalCode": "07728-2537"
      },
      {
        "line": [
          "246 Hamburg Turnpike",
          "SJWH"
        ],
        "city": "WAYNE",
        "state": "NJ",
        "postalCode": "07470-2156"
      },
      {
        "line": [
          "150 Bergen St",
          "SJRMC"
        ],
        "city": "NEWARK",
        "state": "NJ",
        "postalCode": "07103-2496"
      },
      {
        "line": [
          "355 Grand Street",
          "SJRMC"
        ],
        "city": "Jersey",
        "state": "NJ",
        "postalCode": "07302-4321"
      },
      {
        "line": [
          "99 Highway 37 W",
          "SJRMC"
        ],
        "city": "TOMS RIVER",
        "state": "NJ",
        "postalCode": "08755-6423"
      }
    ],
    "extension": [
      {
        "url": "https://fhir.athena.io/StructureDefinition/ah-practice",
        "valueReference": {
          "reference": "Organization/a-1.Practice-461"
        }
      },
      {
        "url": "https://fhir.athena.io/StructureDefinition/ah-brand",
        "valueReference": {
          "reference": "Organization/a-461.Brand-1"
        }
      }
    ]
  },
  "fullUrl": "urn:uuid:af215caa-4eae-50dd-a258-1b4f3d09cd76"
}