{
  "resource": {
    "resourceType": "Organization",
    "id": "1cb99115-b0f2-5770-8f76-061c2ec4419d",
    "name": "Front Range Podiatry",
    "endpoint": [
      {
        "reference": "Endpoint/27a4e967-47aa-5a9c-a572-b8297ee268a2"
      },
      {
        "reference": "Endpoint/2141f9c5-9b36-5761-8840-1cf6241b13b1"
      }
    ],
    "identifier": [
      {
        "system": "http://hl7.org/fhir/sid/us-npi",
        "value": "1598403990"
      }
    ],
    "address": [
      {
        "line": [
          "501 E HAMPDEN AVE"
        ],
        "city": "ENGLEWOOD",
        "state": "CO",
        "postalCode": "80113-2702"
      },
      {
        "line": [
          "1500 PARK CENTRAL DRIVE"
        ],
        "city": "HIGHLANDS RANCH",
        "state": "CO",
        "postalCode": "80129-6688"
      },
      {
        "line": [
          "799 E Hampden Ave",
          "Ste 200"
        ],
        "city": "ENGLEWOOD",
        "state": "CO",
        "postalCode": "80113-2758"
      },
      {
        "line": [
          "7730 S Broadway"
        ],
        "city": "LITTLETON",
        "state": "CO",
        "postalCode": "80122-2602"
      },
      {
        "line": [
          "11960 LIONESS WAY STE 120"
        ],
        "city": "PARKER",
        "state": "CO",
        "postalCode": "80134-5640"
      },
      {
        "line": [
          "8151 SOUTHPARK LANE",
          " UNIT 250"
        ],
        "city": "LITTLETON",
        "state": "CO",
        "postalCode": "80120-4520"
      },
      {
        "line": [
          "6767 S BROADWAY"
        ],
        "city": "LITTLETON",
        "state": "CO",
        "postalCode": "80122-8002"
      },
      {
        "line": [
          "3425 S CLARKSTON STREET"
        ],
        "city": "ENGLEWOOD",
        "state": "CO",
        "postalCode": "80113-2899"
      }
    ],
    "extension": [
      {
        "url": "https://fhir.athena.io/StructureDefinition/ah-practice",
        "valueReference": {
          "reference": "Organization/a-1.Practice-26419"
        }
      },
      {
        "url": "https://fhir.athena.io/StructureDefinition/ah-brand",
        "valueReference": {
          "reference": "Organization/a-26419.Brand-1"
        }
      }
    ]
  },
  "fullUrl": "urn:uuid:1cb99115-b0f2-5770-8f76-061c2ec4419d"
}