{
  "resource": {
    "resourceType": "Organization",
    "id": "5fcc5802-1238-5fb3-8f7d-9dc16d998db4",
    "name": "CLOSED 4/18/2021 (Transition to EPIC)",
    "endpoint": [
      {
        "reference": "Endpoint/27a4e967-47aa-5a9c-a572-b8297ee268a2"
      },
      {
        "reference": "Endpoint/61e604b1-89ec-5844-a524-9d1b29b8927e"
      }
    ],
    "identifier": [
      {
        "system": "http://hl7.org/fhir/sid/us-npi",
        "value": "1457382947"
      },
      {
        "system": "http://hl7.org/fhir/sid/us-npi",
        "value": "1801808571"
      }
    ],
    "address": [
      {
        "line": [
          "2606 Hospital Blvd., Suite D"
        ],
        "city": "CORPUS CHRISTI",
        "state": "TX",
        "postalCode": "78405-1804"
      },
      {
        "line": [
          "1038 Texas Yes Blvd."
        ],
        "city": "ROBSTOWN",
        "state": "TX",
        "postalCode": "78380-6142"
      },
      {
        "line": [
          "4617 Greenwood Dr."
        ],
        "city": "CORPUS CHRISTI",
        "state": "TX",
        "postalCode": "78416-1742"
      },
      {
        "line": [
          "1227 3rd Street"
        ],
        "city": "CORPUS CHRISTI",
        "state": "TX",
        "postalCode": "78404-2313"
      },
      {
        "line": [
          "2606 Hospital Blvd, Suite F"
        ],
        "city": "CORPUS CHRISTI",
        "state": "TX",
        "postalCode": "78405-1804"
      },
      {
        "line": [
          "2322 MORGAN AVENUE"
        ],
        "city": "CORPUS CHRISTI",
        "state": "TX",
        "postalCode": "78405-1947"
      },
      {
        "line": [
          "2606 Hospital Blvd. Ste E"
        ],
        "city": "CORPUS CHRISTI",
        "state": "TX",
        "postalCode": "78405-1804"
      },
      {
        "line": [
          "5802 SARATOGA BLVD STE 150"
        ],
        "city": "CORPUS CHRISTI",
        "state": "TX",
        "postalCode": "78414-4254"
      },
      {
        "line": [
          "613 Elizabeth St, Suite 502"
        ],
        "city": "CORPUS CHRISTI",
        "state": "TX",
        "postalCode": "78404-2223"
      },
      {
        "line": [
          "14725 Compass St"
        ],
        "city": "CORPUS CHRISTI",
        "state": "TX",
        "postalCode": "78418-6203"
      },
      {
        "line": [
          "1311 E. General Cavazos Blvd Suite 203"
        ],
        "city": "KINGSVILLE",
        "state": "TX",
        "postalCode": "78363-7123"
      },
      {
        "line": [
          "2606 Hospital Blvd, Suite B"
        ],
        "city": "CORPUS CHRISTI",
        "state": "TX",
        "postalCode": "78405-1804"
      },
      {
        "line": [
          "1415 SANTA FE"
        ],
        "city": "CORPUS CHRISTI",
        "state": "TX",
        "postalCode": "78404-2105"
      },
      {
        "line": [
          "2520 E MAIN ST, SUITE 206"
        ],
        "city": "ALICE",
        "state": "TX",
        "postalCode": "78332-4188"
      },
      {
        "line": [
          "14120 NORTHWEST BLVD"
        ],
        "city": "CORPUS CHRISTI",
        "state": "TX",
        "postalCode": "78410-5121"
      },
      {
        "line": [
          "1415 Santa Fe"
        ],
        "city": "CORPUS CHRISTI",
        "state": "TX",
        "postalCode": "78404-2105"
      },
      {
        "line": [
          "1311 E. General Cavazos Blvd Suite 204"
        ],
        "city": "KINGSVILLE",
        "state": "TX",
        "postalCode": "78363-7123"
      },
      {
        "line": [
          "2606 Hospital Blvd., Ste E"
        ],
        "city": "CORPUS CHRISTI",
        "state": "TX",
        "postalCode": "78405-1804"
      },
      {
        "line": [
          "311 BUDDY GANEM, SUITE A"
        ],
        "city": "PORTLAND",
        "state": "TX",
        "postalCode": "78374-3233"
      }
    ],
    "extension": [
      {
        "url": "https://fhir.athena.io/StructureDefinition/ah-practice",
        "valueReference": {
          "reference": "Organization/a-1.Practice-996"
        }
      },
      {
        "url": "https://fhir.athena.io/StructureDefinition/ah-brand",
        "valueReference": {
          "reference": "Organization/a-996.Brand-1"
        }
      }
    ]
  },
  "fullUrl": "urn:uuid:5fcc5802-1238-5fb3-8f7d-9dc16d998db4"
}