{
  "resource": {
    "resourceType": "Organization",
    "id": "de0a0562-2762-5167-9446-54d78793ad31",
    "name": "KIDNEY CARE SPECIALISTS, LLC.",
    "endpoint": [
      {
        "reference": "Endpoint/27a4e967-47aa-5a9c-a572-b8297ee268a2"
      },
      {
        "reference": "Endpoint/25826d3f-4293-5f05-86a5-a56cca4d1a4e"
      }
    ],
    "identifier": [
      {
        "system": "http://hl7.org/fhir/sid/us-npi",
        "value": "1144555939"
      }
    ],
    "address": [
      {
        "line": [
          "455 TURNER ROAD"
        ],
        "city": "DAYTON",
        "state": "OH",
        "postalCode": "45415-3630"
      },
      {
        "line": [
          "215 S. ALLLISON AVE"
        ],
        "city": "XENIA",
        "state": "OH",
        "postalCode": "45385-3694"
      },
      {
        "line": [
          "5721 BIGGER RD."
        ],
        "city": "KETTERING",
        "state": "OH",
        "postalCode": "45440-2752"
      },
      {
        "line": [
          "105 E. WASHINGTON JACKSON RD"
        ],
        "city": "EATON",
        "state": "OH",
        "postalCode": "45320-9789"
      },
      {
        "line": [
          "3070 PRESIDENTIAL DR."
        ],
        "city": "FAIRBORN",
        "state": "OH",
        "postalCode": "45324-6293"
      },
      {
        "line": [
          "290 ALEXANDERSVILLE RD"
        ],
        "city": "MIAMISBURG",
        "state": "OH",
        "postalCode": "45342-3611"
      },
      {
        "line": [
          "1675 ALEX DR."
        ],
        "city": "WILMINGTON",
        "state": "OH",
        "postalCode": "45177-2446"
      },
      {
        "line": [
          " 7769 Old Country Court"
        ],
        "city": "DAYTON",
        "state": "OH",
        "postalCode": "45424-2097"
      },
      {
        "line": [
          "1266 N. BROAD ST."
        ],
        "city": "FAIRBORN",
        "state": "OH",
        "postalCode": "45324-5549"
      },
      {
        "line": [
          "4750 N Main Street"
        ],
        "city": "DAYTON",
        "state": "OH",
        "postalCode": "45405-5021"
      },
      {
        "line": [
          "7769 Old Country Ct"
        ],
        "city": "huber heights",
        "state": "OH",
        "postalCode": "45424-2097"
      },
      {
        "line": [
          "8001 Dayton Springfield Rd"
        ],
        "city": "FAIRBORN",
        "state": "OH",
        "postalCode": "45324-1709"
      },
      {
        "line": [
          "3535 PENTAGON BLVD."
        ],
        "city": "BEAVERCREEK",
        "state": "OH",
        "postalCode": "45431-1705"
      },
      {
        "line": [
          "1431 Business Center Ct"
        ],
        "city": "DAYTON",
        "state": "OH",
        "postalCode": "45410-3300"
      },
      {
        "line": [
          "3535 SOUTHERN BLVD."
        ],
        "city": "KETTERING",
        "state": "OH",
        "postalCode": "45429-1221"
      },
      {
        "line": [
          "1362 E. STROOP RD."
        ],
        "city": "KETTERING",
        "state": "OH",
        "postalCode": "45429-4926"
      },
      {
        "line": [
          "215 S. ALLISON AVE."
        ],
        "city": "XENIA",
        "state": "OH",
        "postalCode": "45385-3694"
      }
    ],
    "extension": [
      {
        "url": "https://fhir.athena.io/StructureDefinition/ah-practice",
        "valueReference": {
          "reference": "Organization/a-1.Practice-4880"
        }
      },
      {
        "url": "https://fhir.athena.io/StructureDefinition/ah-brand",
        "valueReference": {
          "reference": "Organization/a-4880.Brand-1"
        }
      }
    ]
  },
  "fullUrl": "urn:uuid:de0a0562-2762-5167-9446-54d78793ad31"
}