{
  "resource": {
    "resourceType": "Organization",
    "id": "4884ae57-78ef-54c6-9614-13f1f55bd491",
    "name": "ENT Specialists",
    "endpoint": [
      {
        "reference": "Endpoint/27a4e967-47aa-5a9c-a572-b8297ee268a2"
      },
      {
        "reference": "Endpoint/5a0361aa-8fcc-55cc-be89-9a80987b1e2d"
      }
    ],
    "identifier": [
      {
        "system": "http://hl7.org/fhir/sid/us-npi",
        "value": "1184625733"
      },
      {
        "system": "http://hl7.org/fhir/sid/us-npi",
        "value": "1003865908"
      }
    ],
    "address": [
      {
        "line": [
          "9655 W Boynton Beach Blvd"
        ],
        "city": "BOYNTON BEACH",
        "state": "FL",
        "postalCode": "33472-4421"
      },
      {
        "line": [
          "800 Meadows Road"
        ],
        "city": "BOCA RATON",
        "state": "FL",
        "postalCode": "33486-2304"
      },
      {
        "line": [
          "5301 S Congress Ave"
        ],
        "city": "LAKE WORTH",
        "state": "FL",
        "postalCode": "33462-1149"
      },
      {
        "line": [
          "10101 Forest Hill Blvd"
        ],
        "city": "WELLINGTON",
        "state": "FL",
        "postalCode": "33414-6103"
      },
      {
        "line": [
          "5301 S Congress Ave"
        ],
        "city": "Atlantis",
        "state": "FL",
        "postalCode": "33462-1149"
      },
      {
        "line": [
          "1600 S Andrews Ave"
        ],
        "city": "FORT LAUDERDALE",
        "state": "FL",
        "postalCode": "33316-2510"
      },
      {
        "line": [
          "3501 Johnson St"
        ],
        "city": "HOLLYWOOD",
        "state": "FL",
        "postalCode": "33021-5421"
      },
      {
        "line": [
          "21644 STATE ROAD 7"
        ],
        "city": "BOCA RATON",
        "state": "FL",
        "postalCode": "33428-1842"
      },
      {
        "line": [
          "10301 Hagen Ranch Road",
          "Suite 520"
        ],
        "city": "BOYNTON BEACH",
        "state": "FL",
        "postalCode": "33437-3724"
      },
      {
        "line": [
          "10150 Hagen Ranch Rd",
          "Suite 100"
        ],
        "city": "BOYNTON BEACH",
        "state": "FL",
        "postalCode": "33437-3776"
      },
      {
        "line": [
          "10150 Hagen Ranch Rd",
          "Suite 204"
        ],
        "city": "BOYNTON BEACH",
        "state": "FL",
        "postalCode": "33437-3776"
      },
      {
        "line": [
          "901 45th St"
        ],
        "city": "WEST PALM BEACH",
        "state": "FL",
        "postalCode": "33407-2413"
      },
      {
        "line": [
          "13001 SOUTHERN BLVD"
        ],
        "city": "LOXAHATCHEE",
        "state": "FL",
        "postalCode": "33470-9203"
      },
      {
        "line": [
          "1005 JOE DEMAGGIO DRIVE"
        ],
        "city": "HOLLYWOOD",
        "state": "FL",
        "postalCode": "33021-5402"
      },
      {
        "line": [
          "100 SE 15 Avenue"
        ],
        "city": "FORT LAUDERDALE",
        "state": "FL",
        "postalCode": "33301-3985"
      },
      {
        "line": [
          "1005 N 35TH AVE"
        ],
        "city": "HOLLYWOOD",
        "state": "FL",
        "postalCode": "33021-5402"
      },
      {
        "line": [
          "12961 Palms W Dr"
        ],
        "city": "LOXAHATCHEE",
        "state": "FL",
        "postalCode": "33470-4989"
      },
      {
        "line": [
          "1210 S Old Dixie Hwy"
        ],
        "city": "JUPITER",
        "state": "FL",
        "postalCode": "33458-7205"
      },
      {
        "line": [
          "2815 South Seacrest Blvd"
        ],
        "city": "BOYNTON BEACH",
        "state": "FL",
        "postalCode": "33435-7969"
      },
      {
        "line": [
          "6650 W Indiantown Rd #110"
        ],
        "city": "JUPITER",
        "state": "FL",
        "postalCode": "33458-4629"
      },
      {
        "line": [
          "2801 STATE ROAD 7"
        ],
        "city": "POMPANO BEACH",
        "state": "FL",
        "postalCode": "33063-5727"
      },
      {
        "line": [
          "9970 S. Central Park Blvd."
        ],
        "city": "BOCA RATON",
        "state": "FL",
        "postalCode": "33428-1842"
      },
      {
        "line": [
          "2801 STATE ROAD 7"
        ],
        "city": "Margate",
        "state": "FL",
        "postalCode": "33063-5727"
      },
      {
        "line": [
          "8201 W BROWARD BLVD"
        ],
        "city": "FORT LAUDERDALE",
        "state": "FL",
        "postalCode": "33324-2701"
      },
      {
        "line": [
          "13001 Southern Blvd"
        ],
        "city": "LOXAHATCHEE",
        "state": "FL",
        "postalCode": "33470-9203"
      },
      {
        "line": [
          "21644 State Road 7"
        ],
        "city": "BOCA RATON",
        "state": "FL",
        "postalCode": "33428-1842"
      }
    ],
    "extension": [
      {
        "url": "https://fhir.athena.io/StructureDefinition/ah-practice",
        "valueReference": {
          "reference": "Organization/a-1.Practice-20937"
        }
      },
      {
        "url": "https://fhir.athena.io/StructureDefinition/ah-brand",
        "valueReference": {
          "reference": "Organization/a-20937.Brand-1"
        }
      }
    ]
  },
  "fullUrl": "urn:uuid:4884ae57-78ef-54c6-9614-13f1f55bd491"
}