{
  "resource": {
    "resourceType": "Organization",
    "id": "b828f2c8-884e-5840-b007-270392de1859",
    "name": "CT PVH Connecticut",
    "endpoint": [
      {
        "reference": "Endpoint/27a4e967-47aa-5a9c-a572-b8297ee268a2"
      },
      {
        "reference": "Endpoint/78e19c3d-125c-573b-b586-4cb6089c412d"
      }
    ],
    "identifier": [
      {
        "system": "http://hl7.org/fhir/sid/us-npi",
        "value": "1912928169"
      },
      {
        "system": "http://hl7.org/fhir/sid/us-npi",
        "value": "1023285251"
      },
      {
        "system": "http://hl7.org/fhir/sid/us-npi",
        "value": "1730817248"
      },
      {
        "system": "http://hl7.org/fhir/sid/us-npi",
        "value": "1649452558"
      },
      {
        "system": "http://hl7.org/fhir/sid/us-npi",
        "value": "1750783619"
      },
      {
        "system": "http://hl7.org/fhir/sid/us-npi",
        "value": "1609051044"
      },
      {
        "system": "http://hl7.org/fhir/sid/us-npi",
        "value": "1619525466"
      },
      {
        "system": "http://hl7.org/fhir/sid/us-npi",
        "value": "1629740071"
      },
      {
        "system": "http://hl7.org/fhir/sid/us-npi",
        "value": "1255622387"
      },
      {
        "system": "http://hl7.org/fhir/sid/us-npi",
        "value": "1194859058"
      },
      {
        "system": "http://hl7.org/fhir/sid/us-npi",
        "value": "1962223693"
      },
      {
        "system": "http://hl7.org/fhir/sid/us-npi",
        "value": "1376756908"
      },
      {
        "system": "http://hl7.org/fhir/sid/us-npi",
        "value": "1922838507"
      },
      {
        "system": "http://hl7.org/fhir/sid/us-npi",
        "value": "1700927720"
      },
      {
        "system": "http://hl7.org/fhir/sid/us-npi",
        "value": "1396268405"
      },
      {
        "system": "http://hl7.org/fhir/sid/us-npi",
        "value": "1053464487"
      },
      {
        "system": "http://hl7.org/fhir/sid/us-npi",
        "value": "1861176059"
      },
      {
        "system": "http://hl7.org/fhir/sid/us-npi",
        "value": "1427275635"
      },
      {
        "system": "http://hl7.org/fhir/sid/us-npi",
        "value": "1730932880"
      },
      {
        "system": "http://hl7.org/fhir/sid/us-npi",
        "value": "1982668240"
      },
      {
        "system": "http://hl7.org/fhir/sid/us-npi",
        "value": "1487544219"
      },
      {
        "system": "http://hl7.org/fhir/sid/us-npi",
        "value": "1750402038"
      },
      {
        "system": "http://hl7.org/fhir/sid/us-npi",
        "value": "1952133035"
      },
      {
        "system": "http://hl7.org/fhir/sid/us-npi",
        "value": "1710436308"
      }
    ],
    "address": [
      {
        "line": [
          "180 Regan Rd"
        ],
        "city": "VERNON ROCKVILLE",
        "state": "CT",
        "postalCode": "06066-2824"
      },
      {
        "line": [
          "114 Woodland St"
        ],
        "city": "HARTFORD",
        "state": "CT",
        "postalCode": "06105-1208"
      },
      {
        "line": [
          "1160 Elm St Ext"
        ],
        "city": "ROCKY HILL",
        "state": "CT",
        "postalCode": "06067-2305"
      },
      {
        "line": [
          "45 Elm St"
        ],
        "city": "ROCKY HILL",
        "state": "CT",
        "postalCode": "06067-2305"
      },
      {
        "line": [
          "950 N Glebe"
        ],
        "city": "ARLINGTON",
        "state": "VA",
        "postalCode": "22203-1824"
      },
      {
        "line": [
          "32 Strawberry Hill Ct",
          "Suite 3"
        ],
        "city": "STAMFORD",
        "state": "CT",
        "postalCode": "06902-2594"
      },
      {
        "line": [
          "565 Vernon St"
        ],
        "city": "MANCHESTER",
        "state": "CT",
        "postalCode": "06042-2409"
      },
      {
        "line": [
          "85 Stage Harbor Rd"
        ],
        "city": "MARLBOROUGH",
        "state": "CT",
        "postalCode": "06447-1113"
      },
      {
        "line": [
          "326 Washington Street Norwich"
        ],
        "city": "NORWICH",
        "state": "CT",
        "postalCode": "06360-2740"
      },
      {
        "line": [
          "745 Main St"
        ],
        "city": "EAST HARTFORD",
        "state": "CT",
        "postalCode": "06108-3115"
      },
      {
        "line": [
          "116 Washington Avenue",
          "3rd Floor"
        ],
        "city": "NORTH HAVEN",
        "state": "CT",
        "postalCode": "06473-1721"
      },
      {
        "line": [
          "Stoneridge Senior Living 186 Jerry Browne Road"
        ],
        "city": "MYSTIC",
        "state": "CT",
        "postalCode": "06355-4004"
      },
      {
        "line": [
          "95 Woodland St"
        ],
        "city": "HARTFORD",
        "state": "CT",
        "postalCode": "06105-1230"
      },
      {
        "line": [
          "71 Haynes Street"
        ],
        "city": "MANCHESTER",
        "state": "CT",
        "postalCode": "06040-4131"
      },
      {
        "line": [
          "1175 Hebron Ave"
        ],
        "city": "GLASTONBURY",
        "state": "CT",
        "postalCode": "06033-2478"
      },
      {
        "line": [
          "267 Grant Street"
        ],
        "city": "BRIDGEPORT",
        "state": "CT",
        "postalCode": "06610-2805"
      },
      {
        "line": [
          "140 Park Ave"
        ],
        "city": "BLOOMFIELD",
        "state": "CT",
        "postalCode": "06002-3207"
      },
      {
        "line": [
          "534 Town St"
        ],
        "city": "MOODUS",
        "state": "CT",
        "postalCode": "06469-1101"
      },
      {
        "line": [
          "Stoneridge Senior Living 186 Jerry Browne Road Mys"
        ],
        "city": "MYSTIC",
        "state": "CT",
        "postalCode": "06355-4004"
      },
      {
        "line": [
          "151 Hillside Ave"
        ],
        "city": "HARTFORD",
        "state": "CT",
        "postalCode": "06106-3527"
      },
      {
        "line": [
          "365 Montauk Ave"
        ],
        "city": "NEW LONDON",
        "state": "CT",
        "postalCode": "06320-4700"
      },
      {
        "line": [
          "2800 Main Street"
        ],
        "city": "BRIDGEPORT",
        "state": "CT",
        "postalCode": "06606-4201"
      },
      {
        "line": [
          "333 Bidwell St"
        ],
        "city": "MANCHESTER",
        "state": "CT",
        "postalCode": "06040-6469"
      },
      {
        "line": [
          "385 West Center St"
        ],
        "city": "MANCHESTER",
        "state": "CT",
        "postalCode": "06040-4738"
      },
      {
        "line": [
          "150 Ware Road Dayville"
        ],
        "city": "DAYVILLE",
        "state": "CT",
        "postalCode": "06241-1126"
      },
      {
        "line": [
          "1 Elizabeth Court"
        ],
        "city": "ROCKY HILL",
        "state": "CT",
        "postalCode": "06067-2305"
      },
      {
        "line": [
          "80 Seymour Street"
        ],
        "city": "HARTFORD",
        "state": "CT",
        "postalCode": "06102-8000"
      },
      {
        "line": [
          "225 Main St"
        ],
        "city": "NEWINGTON",
        "state": "CT",
        "postalCode": "06111-1400"
      },
      {
        "line": [
          "60 Cold Spring Rd"
        ],
        "city": "ROCKY HILL",
        "state": "CT",
        "postalCode": "06067-2305"
      }
    ],
    "extension": [
      {
        "url": "https://fhir.athena.io/StructureDefinition/ah-practice",
        "valueReference": {
          "reference": "Organization/a-1.Practice-27673"
        }
      },
      {
        "url": "https://fhir.athena.io/StructureDefinition/ah-brand",
        "valueReference": {
          "reference": "Organization/a-27673.Brand-1"
        }
      }
    ]
  },
  "fullUrl": "urn:uuid:b828f2c8-884e-5840-b007-270392de1859"
}