{
  "resource": {
    "resourceType": "Organization",
    "id": "b8f741bd-3b07-5d1d-b794-4e53832b3ccb",
    "name": "Comprehensive Kidney Care of South Florida",
    "endpoint": [
      {
        "reference": "Endpoint/27a4e967-47aa-5a9c-a572-b8297ee268a2"
      },
      {
        "reference": "Endpoint/cf11c3ec-82eb-5fcf-8216-a7fa525625dd"
      }
    ],
    "identifier": [
      {
        "system": "http://hl7.org/fhir/sid/us-npi",
        "value": "1316367998"
      }
    ],
    "address": [
      {
        "line": [
          "2700 HOLLYWOOD BLVD STE 101"
        ],
        "city": "HOLLYWOOD",
        "state": "FL",
        "postalCode": "33020-4808"
      },
      {
        "line": [
          "7755 NW 48th ST STE 120"
        ],
        "city": "Doral",
        "state": "FL",
        "postalCode": "33166-5401"
      },
      {
        "line": [
          "5550 West Flagler Street"
        ],
        "city": "MIAMI",
        "state": "FL",
        "postalCode": "33134-1066"
      },
      {
        "line": [
          "2501 Dykes Rd, Suite 200"
        ],
        "city": "HOLLYWOOD",
        "state": "FL",
        "postalCode": "33027-4223"
      },
      {
        "line": [
          "1680 NE 164th St"
        ],
        "city": "MIAMI",
        "state": "FL",
        "postalCode": "33162-4017"
      },
      {
        "line": [
          "850 Riverside Drive"
        ],
        "city": "POMPANO BEACH",
        "state": "FL",
        "postalCode": "33071-7010"
      },
      {
        "line": [
          "7059 NW 88th Ave"
        ],
        "city": "FORT LAUDERDALE",
        "state": "FL",
        "postalCode": "33321-2554"
      },
      {
        "line": [
          "7140 W McNab Road"
        ],
        "city": "TAMARAC",
        "state": "FL",
        "postalCode": "33321-5306"
      },
      {
        "line": [
          "4060 SHERIDAN ST STE B"
        ],
        "city": "HOLLYWOOD",
        "state": "FL",
        "postalCode": "33021-3559"
      }
    ],
    "extension": [
      {
        "url": "https://fhir.athena.io/StructureDefinition/ah-practice",
        "valueReference": {
          "reference": "Organization/a-1.Practice-14360"
        }
      },
      {
        "url": "https://fhir.athena.io/StructureDefinition/ah-brand",
        "valueReference": {
          "reference": "Organization/a-14360.Brand-14"
        }
      }
    ]
  },
  "fullUrl": "urn:uuid:b8f741bd-3b07-5d1d-b794-4e53832b3ccb"
}