{
  "resource": {
    "resourceType": "Organization",
    "id": "89f5849a-f4a5-5f34-a1c7-b806472e701e",
    "name": "Atlantic Corp",
    "endpoint": [
      {
        "reference": "Endpoint/27a4e967-47aa-5a9c-a572-b8297ee268a2"
      },
      {
        "reference": "Endpoint/35b6fd9f-056a-5a54-bdbf-c41e7d6eaab5"
      }
    ],
    "identifier": [
      {
        "system": "http://hl7.org/fhir/sid/us-npi",
        "value": "1043769722"
      }
    ],
    "address": [
      {
        "line": [
          "340 Bynum Road"
        ],
        "city": "FOREST HILL",
        "state": "MD",
        "postalCode": "21050-3038"
      },
      {
        "line": [
          "3444 Baker Rd NW",
          "Suite 200"
        ],
        "city": "ACWORTH",
        "state": "GA",
        "postalCode": "30101-3703"
      },
      {
        "line": [
          "165 Weathers St"
        ],
        "city": "YOUNGSVILLE",
        "state": "NC",
        "postalCode": "27596-7845"
      },
      {
        "line": [
          "2204 Industrial South Rd"
        ],
        "city": "DALTON",
        "state": "GA",
        "postalCode": "30721-4991"
      },
      {
        "line": [
          "500 International Way"
        ],
        "city": "STURGIS",
        "state": "MI",
        "postalCode": "49091-2188"
      },
      {
        "line": [
          "4229 Beechwood Dr"
        ],
        "city": "GREENSBORO",
        "state": "NC",
        "postalCode": "27410-8108"
      },
      {
        "line": [
          "12201 Steele Creek Rd"
        ],
        "city": "CHARLOTTE",
        "state": "NC",
        "postalCode": "28273-3736"
      },
      {
        "line": [
          "3900 Spring Garden St"
        ],
        "city": "GREENSBORO",
        "state": "NC",
        "postalCode": "27407-1606"
      },
      {
        "line": [
          "2835 SE Tate Blvd"
        ],
        "city": "HICKORY",
        "state": "NC",
        "postalCode": "28602-1451"
      },
      {
        "line": [
          "3890 La Reunion Parkway"
        ],
        "city": "DALLAS",
        "state": "TX",
        "postalCode": "75212-6007"
      },
      {
        "line": [
          "1202 TERRITORIAL RD"
        ],
        "city": "BENTON HARBOR",
        "state": "MI",
        "postalCode": "49022-2942"
      },
      {
        "line": [
          "5101 Coosaw Creek Blvd"
        ],
        "city": "NORTH CHARLESTON",
        "state": "SC",
        "postalCode": "29420-7447"
      },
      {
        "line": [
          "744 Frontage Road"
        ],
        "city": "GREENVILLE",
        "state": "SC",
        "postalCode": "29611-7952"
      },
      {
        "line": [
          "101 Spaniel Lane"
        ],
        "city": "SUMMERVILLE",
        "state": "SC",
        "postalCode": "29483-7447"
      },
      {
        "line": [
          "806 N 23rd Street"
        ],
        "city": "WILMINGTON",
        "state": "NC",
        "postalCode": "28405-1802"
      }
    ],
    "extension": [
      {
        "url": "https://fhir.athena.io/StructureDefinition/ah-practice",
        "valueReference": {
          "reference": "Organization/a-1.Practice-14940"
        }
      },
      {
        "url": "https://fhir.athena.io/StructureDefinition/ah-brand",
        "valueReference": {
          "reference": "Organization/a-14940.Brand-2"
        }
      }
    ]
  },
  "fullUrl": "urn:uuid:89f5849a-f4a5-5f34-a1c7-b806472e701e"
}