{
  "resource": {
    "resourceType": "Organization",
    "id": "8db251d0-239f-5378-b2da-958dcddcce66",
    "name": "Faculty Physicians",
    "endpoint": [
      {
        "reference": "Endpoint/27a4e967-47aa-5a9c-a572-b8297ee268a2"
      },
      {
        "reference": "Endpoint/ac4b4a02-c659-5e5f-b80d-f53e457fb151"
      }
    ],
    "identifier": [
      {
        "system": "http://hl7.org/fhir/sid/us-npi",
        "value": "1205595360"
      }
    ],
    "address": [
      {
        "line": [
          "163 BEECH ST"
        ],
        "city": "HARROGATE",
        "state": "TN",
        "postalCode": "37752-8251"
      },
      {
        "line": [
          "129 HILLCREAT DRIVE"
        ],
        "city": "BYRDSTOWN",
        "state": "TN",
        "postalCode": "38549-2326"
      },
      {
        "line": [
          "725 CRUM STREET"
        ],
        "city": "GREENEVILLE",
        "state": "TN",
        "postalCode": "37743-6118"
      },
      {
        "line": [
          "201 E 10TH STREET"
        ],
        "city": "SOUTH PITTSBURG",
        "state": "TN",
        "postalCode": "37380-1497"
      },
      {
        "line": [
          "804 SHANNONDALE WAY"
        ],
        "city": "MARYVILLE",
        "state": "TN",
        "postalCode": "37803-5970"
      },
      {
        "line": [
          "6801 MIDDLEBROOK PIKE"
        ],
        "city": "KNOXVILLE",
        "state": "TN",
        "postalCode": "37909-1152"
      },
      {
        "line": [
          "110 HOSPITAL DR"
        ],
        "city": "JEFFERSON CITY",
        "state": "TN",
        "postalCode": "37760-5281"
      },
      {
        "line": [
          "5321 BEVERLY PARK CIRCLE"
        ],
        "city": "KNOXVILLE",
        "state": "TN",
        "postalCode": "37918-9253"
      },
      {
        "line": [
          "1026 MCFARLAND ST"
        ],
        "city": "MORRISTOWN",
        "state": "TN",
        "postalCode": "37814-3443"
      },
      {
        "line": [
          "5580 ROANE STATE HIGHWAY"
        ],
        "city": "ROCKWOOD",
        "state": "TN",
        "postalCode": "37854-4332"
      },
      {
        "line": [
          "914 INDUSTRIAL PARK ROAD"
        ],
        "city": "DANDRIDGE",
        "state": "TN",
        "postalCode": "37725-4700"
      },
      {
        "line": [
          "3209 BRISTOL HIGHWAY"
        ],
        "city": "JOHNSON CITY",
        "state": "TN",
        "postalCode": "37601-1515"
      },
      {
        "line": [
          "1758 HILLWOOD DRIVE"
        ],
        "city": "KNOXVILLE",
        "state": "TN",
        "postalCode": "37920-2600"
      },
      {
        "line": [
          "2035 E STONEBROOK PL"
        ],
        "city": "KINGSPORT",
        "state": "TN",
        "postalCode": "37660-4000"
      },
      {
        "line": [
          "501 W  ECONOMY ROAD"
        ],
        "city": "MORRISTOWN",
        "state": "TN",
        "postalCode": "37814-3222"
      },
      {
        "line": [
          "801 VANOSDALE ROAD"
        ],
        "city": "KNOXVILLE",
        "state": "TN",
        "postalCode": "37909-2497"
      },
      {
        "line": [
          "120 HOSPITAL DR STE 220"
        ],
        "city": "JEFFERSON CITY",
        "state": "TN",
        "postalCode": "37760-5286"
      },
      {
        "line": [
          "1641 HIGHWAY 19E BYP"
        ],
        "city": "ELIZABETHTON",
        "state": "TN",
        "postalCode": "37643-4646"
      },
      {
        "line": [
          "902 BUCHANAN ROAD"
        ],
        "city": "NEW TAZEWELL",
        "state": "TN",
        "postalCode": "37825-7410"
      },
      {
        "line": [
          "801 E INSKIP DR"
        ],
        "city": "KNOXVILLE",
        "state": "TN",
        "postalCode": "37912-3734"
      },
      {
        "line": [
          "2002 JACKSBORO PIKE"
        ],
        "city": "LA FOLLETTE",
        "state": "TN",
        "postalCode": "37766-2910"
      },
      {
        "line": [
          "140 TECHNOLOGY LANE"
        ],
        "city": "JOHNSON CITY",
        "state": "TN",
        "postalCode": "37604-2004"
      },
      {
        "line": [
          "220 LONGMIRE ROAD"
        ],
        "city": "CLINTON",
        "state": "TN",
        "postalCode": "37716-7338"
      },
      {
        "line": [
          "7565 DANNAHER DR"
        ],
        "city": "POWELL",
        "state": "TN",
        "postalCode": "37849-4029"
      },
      {
        "line": [
          "580 E VETERANS DR"
        ],
        "city": "COOKEVILLE",
        "state": "TN",
        "postalCode": "38501-4038"
      },
      {
        "line": [
          "1633 HILLVIEW DR"
        ],
        "city": "ELIZABETHTON",
        "state": "TN",
        "postalCode": "37643-4115"
      },
      {
        "line": [
          "1502 MCDONALD ROAD"
        ],
        "city": "CHATTANOOGA",
        "state": "TN",
        "postalCode": "37412-4220"
      },
      {
        "line": [
          "209 IRISH CEMETRY ROAD"
        ],
        "city": "TAZEWELL",
        "state": "TN",
        "postalCode": "37879-3634"
      },
      {
        "line": [
          "106 HOLT CT"
        ],
        "city": "GREENEVILLE",
        "state": "TN",
        "postalCode": "37743-6917"
      },
      {
        "line": [
          "3300 N BROADWAY"
        ],
        "city": "KNOXVILLE",
        "state": "TN",
        "postalCode": "37917-2733"
      },
      {
        "line": [
          "7424 MIDDLEBROOK PIKE"
        ],
        "city": "KNOXVILLE",
        "state": "TN",
        "postalCode": "37909-3109"
      },
      {
        "line": [
          "215 RICHARDSON WAY"
        ],
        "city": "MAYNARDVILLE",
        "state": "TN",
        "postalCode": "37807-3803"
      },
      {
        "line": [
          "10820 Parkside Drive"
        ],
        "city": "KNOXVILLE",
        "state": "TN",
        "postalCode": "37934-1956"
      },
      {
        "line": [
          "240 HOSPITAL LN"
        ],
        "city": "JELLICO",
        "state": "TN",
        "postalCode": "37762-4401"
      },
      {
        "line": [
          "300 BRIARCLIFF AVE,"
        ],
        "city": "OAK RIDGE",
        "state": "TN",
        "postalCode": "37830-8731"
      },
      {
        "line": [
          "5837 LYONS VIEW PIKE"
        ],
        "city": "KNOXVILLE",
        "state": "TN",
        "postalCode": "37919-6474"
      },
      {
        "line": [
          "11863 KINGSTON PIKE"
        ],
        "city": "KNOXVILLE",
        "state": "TN",
        "postalCode": "37934-3833"
      },
      {
        "line": [
          "1210 TENNOVA MEDICAL WAY"
        ],
        "city": "KNOXVILLE",
        "state": "TN",
        "postalCode": "37909-3120"
      },
      {
        "line": [
          "336 W OLD ANDREW JOHNSON HIGHWAY"
        ],
        "city": "JEFFERSON CITY",
        "state": "TN",
        "postalCode": "37760-5212"
      },
      {
        "line": [
          "1415 OLD WEISGARBER RD SUITE 350"
        ],
        "city": "KNOXVILLE",
        "state": "TN",
        "postalCode": "37909-1381"
      },
      {
        "line": [
          "318 BILBREY STREET"
        ],
        "city": "LIVINGSTON",
        "state": "TN",
        "postalCode": "38570-1706"
      },
      {
        "line": [
          "791 OLD GRAY STATION ROAD"
        ],
        "city": "JOHNSON CITY",
        "state": "TN",
        "postalCode": "37615-3717"
      },
      {
        "line": [
          "5911 SNOW HILL ROAD"
        ],
        "city": "OOLTEWAH",
        "state": "TN",
        "postalCode": "37363-9129"
      },
      {
        "line": [
          "208 N DUNCAN ST"
        ],
        "city": "JAMESTOWN",
        "state": "TN",
        "postalCode": "38556-3101"
      },
      {
        "line": [
          "109 TN-70"
        ],
        "city": "ROGERSVILLE",
        "state": "TN",
        "postalCode": "37857-3400"
      },
      {
        "line": [
          "970 WRAY ST"
        ],
        "city": "KNOXVILLE",
        "state": "TN",
        "postalCode": "37917-7144"
      },
      {
        "line": [
          "2109 E LAKEVIEW DR"
        ],
        "city": "JOHNSON CITY",
        "state": "TN",
        "postalCode": "37601-1890"
      },
      {
        "line": [
          "18805 ALBERTA ST"
        ],
        "city": "ONEIDA",
        "state": "TN",
        "postalCode": "37841-2100"
      },
      {
        "line": [
          "2131 WALTERS DRIVE"
        ],
        "city": "MORRISTOWN",
        "state": "TN",
        "postalCode": "37814-6903"
      }
    ],
    "extension": [
      {
        "url": "https://fhir.athena.io/StructureDefinition/ah-practice",
        "valueReference": {
          "reference": "Organization/a-1.Practice-25546"
        }
      },
      {
        "url": "https://fhir.athena.io/StructureDefinition/ah-brand",
        "valueReference": {
          "reference": "Organization/a-25546.Brand-1"
        }
      }
    ]
  },
  "fullUrl": "urn:uuid:8db251d0-239f-5378-b2da-958dcddcce66"
}