{
  "resource": {
    "resourceType": "Organization",
    "id": "69b773fa-f0e6-52ed-9cc9-53214d0d5a6c",
    "name": "TCC Chautauqua Physical and Occupational Therapy",
    "endpoint": [
      {
        "reference": "Endpoint/27a4e967-47aa-5a9c-a572-b8297ee268a2"
      },
      {
        "reference": "Endpoint/e038786d-e4e4-515c-8553-afcd6f9a52fe"
      }
    ],
    "identifier": [
      {
        "system": "http://hl7.org/fhir/sid/us-npi",
        "value": "1760747521"
      },
      {
        "system": "http://hl7.org/fhir/sid/us-npi",
        "value": "1326817693"
      },
      {
        "system": "http://hl7.org/fhir/sid/us-npi",
        "value": "1639888282"
      }
    ],
    "address": [
      {
        "line": [
          "51 E 3rd Street"
        ],
        "city": "DUNKIRK",
        "state": "NY",
        "postalCode": "14048-2239"
      },
      {
        "line": [
          "Mayville Professional Bldg",
          "99 E Chautauqua Avenue"
        ],
        "city": "MAYVILLE",
        "state": "NY",
        "postalCode": "14757-1038"
      },
      {
        "line": [
          "75 East 3rd Street"
        ],
        "city": "DUNKIRK",
        "state": "NY",
        "postalCode": "14048-2137"
      },
      {
        "line": [
          "75 East 3rd Street"
        ],
        "city": "DUNKIRK",
        "state": "NY",
        "postalCode": "14048-2136"
      },
      {
        "line": [
          "107 INSTITUTE ST"
        ],
        "city": "JAMESTOWN",
        "state": "NY",
        "postalCode": "14701-6628"
      },
      {
        "line": [
          "319 Central Avenue"
        ],
        "city": "DUNKIRK",
        "state": "NY",
        "postalCode": "14048-2114"
      },
      {
        "line": [
          "1134 Central Avenue"
        ],
        "city": "DUNKIRK",
        "state": "NY",
        "postalCode": "14048-3423"
      },
      {
        "line": [
          "75 East Third Street",
          "Dunkirk"
        ],
        "city": "DUNKIRK",
        "state": "NY",
        "postalCode": "14048-2136"
      },
      {
        "line": [
          "1118 Charles Street"
        ],
        "city": "ELMIRA",
        "state": "NY",
        "postalCode": "14904-0111"
      },
      {
        "line": [
          "Mobile Unit 107 Institute St"
        ],
        "city": "JAMESTOWN",
        "state": "NY",
        "postalCode": "14701-6628"
      },
      {
        "line": [
          "1005 Walnut Street"
        ],
        "city": "ELMIRA",
        "state": "NY",
        "postalCode": "14901-1007"
      },
      {
        "line": [
          "1118 Charles Street"
        ],
        "city": "ELMIRA",
        "state": "NY",
        "postalCode": "14904-1234"
      },
      {
        "line": [
          "107 Institute Street"
        ],
        "city": "JAMESTOWN",
        "state": "NY",
        "postalCode": "14701-6628"
      },
      {
        "line": [
          "10988 Bennett State Road"
        ],
        "city": "FORESTVILLE",
        "state": "NY",
        "postalCode": "14062-1234"
      },
      {
        "line": [
          "15 S Main Street",
          "ste 220"
        ],
        "city": "JAMESTOWN",
        "state": "NY",
        "postalCode": "14701-6629"
      },
      {
        "line": [
          "75 East 3rd Street"
        ],
        "city": "DUNKIRK",
        "state": "NY",
        "postalCode": "14048-1234"
      }
    ],
    "extension": [
      {
        "url": "https://fhir.athena.io/StructureDefinition/ah-practice",
        "valueReference": {
          "reference": "Organization/a-1.Practice-22211"
        }
      },
      {
        "url": "https://fhir.athena.io/StructureDefinition/ah-brand",
        "valueReference": {
          "reference": "Organization/a-22211.Brand-1"
        }
      }
    ]
  },
  "fullUrl": "urn:uuid:69b773fa-f0e6-52ed-9cc9-53214d0d5a6c"
}