{
  "resource": {
    "resourceType": "Organization",
    "id": "5d4b99ce-17b8-5cac-8586-69bb93a57b1d",
    "name": "Alliance Health Medical Group Deaconess",
    "endpoint": [
      {
        "reference": "Endpoint/27a4e967-47aa-5a9c-a572-b8297ee268a2"
      },
      {
        "reference": "Endpoint/bf9debcd-4b84-5c05-a224-9da88c33f9fb"
      }
    ],
    "identifier": [
      {
        "system": "http://hl7.org/fhir/sid/us-npi",
        "value": "1750518601"
      },
      {
        "system": "http://hl7.org/fhir/sid/us-npi",
        "value": "1427017862"
      }
    ],
    "address": [
      {
        "line": [
          "5501 N PORTLAND AVE"
        ],
        "city": "OKLAHOMA CITY",
        "state": "OK",
        "postalCode": "73112-2074"
      },
      {
        "line": [
          "12401 Trail Oaks Drive"
        ],
        "city": "OKLAHOMA CITY",
        "state": "OK",
        "postalCode": "73120-1701"
      },
      {
        "line": [
          "1000 N LEE AVE"
        ],
        "city": "OKLAHOMA CITY",
        "state": "OK",
        "postalCode": "73102-1036"
      },
      {
        "line": [
          "4500 N LINCOLN BLVD"
        ],
        "city": "OKLAHOMA CITY",
        "state": "OK",
        "postalCode": "73105-3402"
      },
      {
        "line": [
          "4300 W MEMORIAL RD"
        ],
        "city": "OKLAHOMA CITY",
        "state": "OK",
        "postalCode": "73120-8304"
      },
      {
        "line": [
          "505 E WILSHIRE BLVD"
        ],
        "city": "OKLAHOMA CITY",
        "state": "OK",
        "postalCode": "73105-1011"
      },
      {
        "line": [
          "34 SW 89th Street"
        ],
        "city": "OKLAHOMA CITY",
        "state": "OK",
        "postalCode": "73139-8510"
      },
      {
        "line": [
          "906 NORTH BLVD"
        ],
        "city": "EDMOND",
        "state": "OK",
        "postalCode": "73034-3655"
      },
      {
        "line": [
          "14901 N PENNSYLVANIA AVE"
        ],
        "city": "OKLAHOMA CITY",
        "state": "OK",
        "postalCode": "73134-6069"
      },
      {
        "line": [
          "3300 NW EXPRESSWAY"
        ],
        "city": "OKLAHOMA CITY",
        "state": "OK",
        "postalCode": "73112-4418"
      },
      {
        "line": [
          "2333 Tuscany Blvd"
        ],
        "city": "OKLAHOMA CITY",
        "state": "OK",
        "postalCode": "73120-3702"
      },
      {
        "line": [
          "2801 Shortgrass Road"
        ],
        "city": "BETHANY",
        "state": "OK",
        "postalCode": "73008-3198"
      },
      {
        "line": [
          "2730 N MUSTANG RD"
        ],
        "city": "YUKON",
        "state": "OK",
        "postalCode": "73099-4584"
      },
      {
        "line": [
          "13200 South May Avenue"
        ],
        "city": "OKLAHOMA CITY",
        "state": "OK",
        "postalCode": "73170-4541"
      },
      {
        "line": [
          "7535 West Hefner Road"
        ],
        "city": "OKLAHOMA CITY",
        "state": "OK",
        "postalCode": "73162-4462"
      },
      {
        "line": [
          "11 PALM AVE"
        ],
        "city": "YUKON",
        "state": "OK",
        "postalCode": "73099-5645"
      },
      {
        "line": [
          "16400 N MAY AVE"
        ],
        "city": "EDMOND",
        "state": "OK",
        "postalCode": "73013-8971"
      },
      {
        "line": [
          "1421 NW 150TH ST"
        ],
        "city": "EDMOND",
        "state": "OK",
        "postalCode": "73013-1305"
      },
      {
        "line": [
          "14901 N PENNSYLVANIA"
        ],
        "city": "OKLAHOMA CITY",
        "state": "OK",
        "postalCode": "73134-6069"
      },
      {
        "line": [
          "5501 N Portland Ave"
        ],
        "city": "OKLAHOMA CITY",
        "state": "OK",
        "postalCode": "73112-2074"
      },
      {
        "line": [
          "5701 N Portland Avenue, Ste 310"
        ],
        "city": "OKLAHOMA CITY",
        "state": "OK",
        "postalCode": "73112-1670"
      },
      {
        "line": [
          "3105 SOUTH MERIDIAN AVE"
        ],
        "city": "OKLAHOMA CITY",
        "state": "OK",
        "postalCode": "73119-1022"
      },
      {
        "line": [
          "16400 N May Avenue"
        ],
        "city": "EDMOND",
        "state": "OK",
        "postalCode": "73013-8971"
      },
      {
        "line": [
          "100 SE 59TH ST"
        ],
        "city": "OKLAHOMA CITY",
        "state": "OK",
        "postalCode": "73129-3616"
      },
      {
        "line": [
          "5401 N  PORTLAND",
          "STE 410"
        ],
        "city": "OKLAHOMA CITY",
        "state": "OK",
        "postalCode": "73112-2131"
      },
      {
        "line": [
          "2520 SOUTH RANKIN"
        ],
        "city": "EDMOND",
        "state": "OK",
        "postalCode": "73013-5213"
      },
      {
        "line": [
          "505 E Wilshire Blvd"
        ],
        "city": "OKLAHOMA CITY",
        "state": "OK",
        "postalCode": "73105-1011"
      },
      {
        "line": [
          "4801 Integris Parkway"
        ],
        "city": "EDMOND",
        "state": "OK",
        "postalCode": "73034-8864"
      },
      {
        "line": [
          "5501 N Portland Avenue"
        ],
        "city": "OKLAHOMA CITY",
        "state": "OK",
        "postalCode": "73112-2074"
      },
      {
        "line": [
          "7512 N BROADWAY EXT, STE 308A"
        ],
        "city": "OKLAHOMA CITY",
        "state": "OK",
        "postalCode": "73116-9055"
      },
      {
        "line": [
          "7600 NORTHWEST 23RD ST"
        ],
        "city": "BETHANY",
        "state": "OK",
        "postalCode": "73008-4944"
      },
      {
        "line": [
          "3300 NW EXPRESSWAY ST"
        ],
        "city": "OKLAHOMA CITY",
        "state": "OK",
        "postalCode": "73112-4481"
      },
      {
        "line": [
          "7221 WEST HEFNER ROAD"
        ],
        "city": "OKLAHOMA CITY",
        "state": "OK",
        "postalCode": "73162-4505"
      },
      {
        "line": [
          "5701 West Britton Road"
        ],
        "city": "OKLAHOMA CITY",
        "state": "OK",
        "postalCode": "73132-2402"
      },
      {
        "line": [
          "1404 NW 122nd Street"
        ],
        "city": "OKLAHOMA CITY",
        "state": "OK",
        "postalCode": "73114-8000"
      },
      {
        "line": [
          "9700 Mashburn Blvd"
        ],
        "city": "OKLAHOMA CITY",
        "state": "OK",
        "postalCode": "73162-5509"
      },
      {
        "line": [
          "5301 North Brookline"
        ],
        "city": "OKLAHOMA CITY",
        "state": "OK",
        "postalCode": "73112-3516"
      },
      {
        "line": [
          "3107 Tinker Diagonal"
        ],
        "city": "Del City",
        "state": "OK",
        "postalCode": "73115-1016"
      },
      {
        "line": [
          "3720 E 2ND ST"
        ],
        "city": "EDMOND",
        "state": "OK",
        "postalCode": "73034-7303"
      },
      {
        "line": [
          "116 West Danforth Road"
        ],
        "city": "EDMOND",
        "state": "OK",
        "postalCode": "73003-5280"
      },
      {
        "line": [
          "1404 NW 122ST"
        ],
        "city": "OKLAHOMA CITY",
        "state": "OK",
        "postalCode": "73114-8000"
      },
      {
        "line": [
          "1201 HEALTHCENTER PKWY"
        ],
        "city": "YUKON",
        "state": "OK",
        "postalCode": "73099-6381"
      },
      {
        "line": [
          "2416 N Ann Arbor"
        ],
        "city": "OKLAHOMA CITY",
        "state": "OK",
        "postalCode": "73127-1811"
      },
      {
        "line": [
          "3330 N.W 56TH ST SUITE 500"
        ],
        "city": "OKLAHOMA CITY",
        "state": "OK",
        "postalCode": "73112-4470"
      },
      {
        "line": [
          "4300 W Memorial Road"
        ],
        "city": "OKLAHOMA CITY",
        "state": "OK",
        "postalCode": "73120-8304"
      },
      {
        "line": [
          "2232 SW 104th Street"
        ],
        "city": "OKLAHOMA CITY",
        "state": "OK",
        "postalCode": "73159-7500"
      },
      {
        "line": [
          "3300 NW EXPRESSWAY, 3RD FLOOR"
        ],
        "city": "OKLAHOMA CITY",
        "state": "OK",
        "postalCode": "73112-4418"
      },
      {
        "line": [
          "7707 W BRITTON RD"
        ],
        "city": "OKLAHOMA CITY",
        "state": "OK",
        "postalCode": "73132-1512"
      },
      {
        "line": [
          "9700 MASHBURN BLVD"
        ],
        "city": "OKLAHOMA CITY",
        "state": "OK",
        "postalCode": "73162-5509"
      },
      {
        "line": [
          "5501 North Portland Avenue"
        ],
        "city": "OKLAHOMA CITY",
        "state": "OK",
        "postalCode": "73112-2074"
      },
      {
        "line": [
          "5401 N  PORTLAND STE 390"
        ],
        "city": "OKLAHOMA CITY",
        "state": "OK",
        "postalCode": "73112-2082"
      },
      {
        "line": [
          "7707 W BRITTON ROAD"
        ],
        "city": "OKLAHOMA CITY",
        "state": "OK",
        "postalCode": "73132-1512"
      },
      {
        "line": [
          "1404 N 122nd Street"
        ],
        "city": "OKLAHOMA CITY",
        "state": "OK",
        "postalCode": "73114-8000"
      },
      {
        "line": [
          "500 S 9TH"
        ],
        "city": "KINGFISHER",
        "state": "OK",
        "postalCode": "73750-3528"
      },
      {
        "line": [
          "15401 North Pennsylvania Avenue"
        ],
        "city": "EDMOND",
        "state": "OK",
        "postalCode": "73013-1514"
      },
      {
        "line": [
          "9400 ST ANN'S DR"
        ],
        "city": "OKLAHOMA CITY",
        "state": "OK",
        "postalCode": "73162-6400"
      },
      {
        "line": [
          "424 S MUSTANG RD, STE A"
        ],
        "city": "YUKON",
        "state": "OK",
        "postalCode": "73099-7315"
      },
      {
        "line": [
          "3435 NW 56, STE 711"
        ],
        "city": "OKLAHOMA CITY",
        "state": "OK",
        "postalCode": "73112-4414"
      },
      {
        "line": [
          "436 SOUTH MUSTANG ROAD"
        ],
        "city": "YUKON",
        "state": "OK",
        "postalCode": "73099-6754"
      },
      {
        "line": [
          "12525 N Pennsylvania Ave."
        ],
        "city": "OKLAHOMA CITY",
        "state": "OK",
        "postalCode": "73120-9443"
      },
      {
        "line": [
          "4805 E Highway 37"
        ],
        "city": "TUTTLE",
        "state": "OK",
        "postalCode": "73089-8791"
      },
      {
        "line": [
          "11320 N COUNCIL ROAD"
        ],
        "city": "OKLAHOMA CITY",
        "state": "OK",
        "postalCode": "73162-2517"
      },
      {
        "line": [
          "10101 S PENNSYLVANIS AVE, STE B"
        ],
        "city": "OKLAHOMA CITY",
        "state": "OK",
        "postalCode": "73159-6929"
      },
      {
        "line": [
          "3300 NW Expressway"
        ],
        "city": "OKLAHOMA CITY",
        "state": "OK",
        "postalCode": "73112-4418"
      },
      {
        "line": [
          "5701 W BRITTON ROAD"
        ],
        "city": "OKLAHOMA CITY",
        "state": "OK",
        "postalCode": "73132-2402"
      },
      {
        "line": [
          "6501 N MCARTHUR BLVD"
        ],
        "city": "OKLAHOMA CITY",
        "state": "OK",
        "postalCode": "73132-6505"
      },
      {
        "line": [
          "2200 NE 140th"
        ],
        "city": "Edmond",
        "state": "OK",
        "postalCode": "73013-5784"
      },
      {
        "line": [
          "3500 NW 56TH ST, #201"
        ],
        "city": "OKLAHOMA CITY",
        "state": "OK",
        "postalCode": "73112-4517"
      },
      {
        "line": [
          "8300 North May"
        ],
        "city": "OKLAHOMA CITY",
        "state": "OK",
        "postalCode": "73120-4500"
      },
      {
        "line": [
          "3433 NW 56TH ST",
          "SUITE 300"
        ],
        "city": "OKLAHOMA CITY",
        "state": "OK",
        "postalCode": "73112-4455"
      },
      {
        "line": [
          "7707 W Britton Road"
        ],
        "city": "OKLAHOMA CITY",
        "state": "OK",
        "postalCode": "73132-1512"
      },
      {
        "line": [
          "114 NW 6TH ST, #104"
        ],
        "city": "OKLAHOMA CITY",
        "state": "OK",
        "postalCode": "73102-6089"
      },
      {
        "line": [
          "5501 N PORTLAND"
        ],
        "city": "OKLAHOMA CITY",
        "state": "OK",
        "postalCode": "73112-2074"
      },
      {
        "line": [
          "5401 N PORTLAND STE 390"
        ],
        "city": "OKLAHOMA CITY",
        "state": "OK",
        "postalCode": "73112-2082"
      },
      {
        "line": [
          "6500 N Portland Avenue"
        ],
        "city": "OKLAHOMA CITY",
        "state": "OK",
        "postalCode": "73116-2035"
      },
      {
        "line": [
          "906 North Boulevard"
        ],
        "city": "EDMOND",
        "state": "OK",
        "postalCode": "73034-3655"
      },
      {
        "line": [
          "2801 SHORTGRASS RD"
        ],
        "city": "EDMOND",
        "state": "OK",
        "postalCode": "73003-3198"
      },
      {
        "line": [
          "2520 South Rankin"
        ],
        "city": "EDMOND",
        "state": "OK",
        "postalCode": "73013-5213"
      },
      {
        "line": [
          "12401 Dorset Drive"
        ],
        "city": "OKLAHOMA CITY",
        "state": "OK",
        "postalCode": "73120-9190"
      },
      {
        "line": [
          "2301 W I-44 SERVICE RD, STE 101"
        ],
        "city": "OKLAHOMA CITY",
        "state": "OK",
        "postalCode": "73112-8766"
      },
      {
        "line": [
          "3500 NW 56TH ST, # 201"
        ],
        "city": "OKLAHOMA CITY",
        "state": "OK",
        "postalCode": "73112-4517"
      },
      {
        "line": [
          "11320 North Council Road"
        ],
        "city": "OKLAHOMA CITY",
        "state": "OK",
        "postalCode": "73162-2517"
      },
      {
        "line": [
          "11101 Hefner Pointe, Ste 105"
        ],
        "city": "OKLAHOMA CITY",
        "state": "OK",
        "postalCode": "73120-5054"
      },
      {
        "line": [
          "6500 N PORTLAND AVE"
        ],
        "city": "OKLAHOMA CITY",
        "state": "OK",
        "postalCode": "73116-2035"
      },
      {
        "line": [
          "3524 NW 56TH ST"
        ],
        "city": "OKLAHOMA CITY",
        "state": "OK",
        "postalCode": "73112-4518"
      },
      {
        "line": [
          "5600 N MAY AVE, STE 145"
        ],
        "city": "OKLAHOMA CITY",
        "state": "OK",
        "postalCode": "73112-3967"
      },
      {
        "line": [
          "2333 Tuscany Blvd"
        ],
        "city": "OKLAHOMA CITY",
        "state": "OK",
        "postalCode": "73120-3703"
      },
      {
        "line": [
          "1700 N BROADWAY ST, STE C"
        ],
        "city": "OKLAHOMA CITY",
        "state": "OK",
        "postalCode": "73160-4645"
      },
      {
        "line": [
          "1404 N.W. 122 St"
        ],
        "city": "OKLAHOMA CITY",
        "state": "OK",
        "postalCode": "73114-8000"
      },
      {
        "line": [
          "1001 S Bryant Avenue"
        ],
        "city": "EDMOND",
        "state": "OK",
        "postalCode": "73034-5745"
      },
      {
        "line": [
          "6501 N MacArthur Blvd"
        ],
        "city": "OKLAHOMA CITY",
        "state": "OK",
        "postalCode": "73132-6505"
      },
      {
        "line": [
          "13500 BRADON PLACE"
        ],
        "city": "OKLAHOMA CITY",
        "state": "OK",
        "postalCode": "73142-4312"
      },
      {
        "line": [
          "12401 Trail Oak Dr."
        ],
        "city": "OKLAHOMA CITY",
        "state": "OK",
        "postalCode": "73120-1701"
      },
      {
        "line": [
          "15401 N Pennsylvania Avenue"
        ],
        "city": "EDMOND",
        "state": "OK",
        "postalCode": "73013-1514"
      },
      {
        "line": [
          "1200 S. W. 104TH SUITE D"
        ],
        "city": "OKLAHOMA CITY",
        "state": "OK",
        "postalCode": "73139-3018"
      },
      {
        "line": [
          "508 WEST VANDAMENT, STE 115"
        ],
        "city": "YUKON",
        "state": "OK",
        "postalCode": "73099-4665"
      },
      {
        "line": [
          "8200 NATIONAL AVE"
        ],
        "city": "OKLAHOMA CITY",
        "state": "OK",
        "postalCode": "73110-8518"
      },
      {
        "line": [
          "8300 North May Ave"
        ],
        "city": "OKLAHOMA CITY",
        "state": "OK",
        "postalCode": "73120-4500"
      },
      {
        "line": [
          "2333 Manchester Drive"
        ],
        "city": "OKLAHOMA CITY",
        "state": "OK",
        "postalCode": "73120-3778"
      },
      {
        "line": [
          "9221 Harmony Drive"
        ],
        "city": "Midwest City",
        "state": "OK",
        "postalCode": "73130-6255"
      },
      {
        "line": [
          "209 NW 48TH AVE"
        ],
        "city": "NORMAN",
        "state": "OK",
        "postalCode": "73072-4443"
      },
      {
        "line": [
          "1200 SW 104TH ST, STE D"
        ],
        "city": "OKLAHOMA CITY",
        "state": "OK",
        "postalCode": "73139-3018"
      },
      {
        "line": [
          "2300 West Noble Avenue"
        ],
        "city": "GUTHRIE",
        "state": "OK",
        "postalCode": "73044-5504"
      },
      {
        "line": [
          "917 S 4TH ST"
        ],
        "city": "CHICKASHA",
        "state": "OK",
        "postalCode": "73018-4655"
      },
      {
        "line": [
          "4001 N CLASSEN BLVD, #201"
        ],
        "city": "OKLAHOMA CITY",
        "state": "OK",
        "postalCode": "73118-2648"
      },
      {
        "line": [
          "1404 N.W. 122ST"
        ],
        "city": "OKLAHOMA CITY",
        "state": "OK",
        "postalCode": "73114-8000"
      },
      {
        "line": [
          "3330 NW 56th Street, Ste. 500"
        ],
        "city": "OKLAHOMA CITY",
        "state": "OK",
        "postalCode": "73112-4470"
      },
      {
        "line": [
          "8121 National Avenue, Suite 108"
        ],
        "city": "OKLAHOMA CITY",
        "state": "OK",
        "postalCode": "73110-7530"
      },
      {
        "line": [
          "301 W WADE ST"
        ],
        "city": "EL RENO",
        "state": "OK",
        "postalCode": "73036-3642"
      },
      {
        "line": [
          "5501 North Portland Ave."
        ],
        "city": "OKLAHOMA CITY",
        "state": "OK",
        "postalCode": "73112-2074"
      },
      {
        "line": [
          "328 S 29TH ST"
        ],
        "city": "CHICKASHA",
        "state": "OK",
        "postalCode": "73018-2501"
      },
      {
        "line": [
          "1900 NW EXPRESS WAY STE 320"
        ],
        "city": "OKLAHOMA CITY",
        "state": "OK",
        "postalCode": "73118-1803"
      },
      {
        "line": [
          "2416 n ann arbor"
        ],
        "city": "OKLAHOMA CITY",
        "state": "OK",
        "postalCode": "73127-1811"
      },
      {
        "line": [
          "1500 N Santa Fe"
        ],
        "city": "EDMOND",
        "state": "OK",
        "postalCode": "73003-3639"
      },
      {
        "line": [
          "12928 North May Ave"
        ],
        "city": "Oklahoma City",
        "state": "OK",
        "postalCode": "73120-0817"
      }
    ],
    "extension": [
      {
        "url": "https://fhir.athena.io/StructureDefinition/ah-practice",
        "valueReference": {
          "reference": "Organization/a-1.Practice-1889"
        }
      },
      {
        "url": "https://fhir.athena.io/StructureDefinition/ah-brand",
        "valueReference": {
          "reference": "Organization/a-1889.Brand-1"
        }
      }
    ]
  },
  "fullUrl": "urn:uuid:5d4b99ce-17b8-5cac-8586-69bb93a57b1d"
}