{
  "resource": {
    "resourceType": "Organization",
    "id": "ac9c4b7b-909d-544d-9889-b0d97e341497",
    "name": "Flagstaff Bone and Joint",
    "endpoint": [
      {
        "reference": "Endpoint/27a4e967-47aa-5a9c-a572-b8297ee268a2"
      },
      {
        "reference": "Endpoint/3159792a-c9e8-5a4a-885b-d75af1f4c591"
      }
    ],
    "identifier": [
      {
        "system": "http://hl7.org/fhir/sid/us-npi",
        "value": "1205865169"
      }
    ],
    "address": [
      {
        "line": [
          "750 N 40th Street"
        ],
        "city": "PHOENIX",
        "state": "AZ",
        "postalCode": "85008-6486"
      },
      {
        "line": [
          "1020 N San Francisco",
          "Suite 100"
        ],
        "city": "FLAGSTAFF",
        "state": "AZ",
        "postalCode": "86001-3281"
      },
      {
        "line": [
          "1200 N Beaver St"
        ],
        "city": "FLAGSTAFF",
        "state": "AZ",
        "postalCode": "86001-3118"
      },
      {
        "line": [
          "750 N 40TH ST"
        ],
        "city": "PHOENIX",
        "state": "AZ",
        "postalCode": "85008-6486"
      },
      {
        "line": [
          "1485 North Turquoise Dr"
        ],
        "city": "FLAGSTAFF",
        "state": "AZ",
        "postalCode": "86001-1398"
      },
      {
        "line": [
          "501 N Switzer Canyon Drive"
        ],
        "city": "FLAGSTAFF",
        "state": "AZ",
        "postalCode": "86001-4845"
      },
      {
        "line": [
          "525 N. Switzer Canyon Dr."
        ],
        "city": "FLAGSTAFF",
        "state": "AZ",
        "postalCode": "86001-4845"
      },
      {
        "line": [
          "77 W Forest Ave",
          "Suite #301"
        ],
        "city": "FLAGSTAFF",
        "state": "AZ",
        "postalCode": "86001-1483"
      },
      {
        "line": [
          "750 North Forty Street"
        ],
        "city": "PHOENIX",
        "state": "AZ",
        "postalCode": "85008-6486"
      },
      {
        "line": [
          "501 N SWITZER CANYON DR"
        ],
        "city": "FLAGSTAFF",
        "state": "AZ",
        "postalCode": "86001-4845"
      },
      {
        "line": [
          "525 North Switzer Canyon Dr"
        ],
        "city": "FLAGSTAFF",
        "state": "AZ",
        "postalCode": "86001-4845"
      }
    ],
    "extension": [
      {
        "url": "https://fhir.athena.io/StructureDefinition/ah-practice",
        "valueReference": {
          "reference": "Organization/a-1.Practice-15940"
        }
      },
      {
        "url": "https://fhir.athena.io/StructureDefinition/ah-brand",
        "valueReference": {
          "reference": "Organization/a-15940.Brand-2"
        }
      }
    ]
  },
  "fullUrl": "urn:uuid:ac9c4b7b-909d-544d-9889-b0d97e341497"
}