{
  "resource": {
    "resourceType": "Organization",
    "id": "6618092a-7dec-54c9-87c1-3b92a0e1a9e0",
    "name": "COLUMBUS URGENT CARE",
    "endpoint": [
      {
        "reference": "Endpoint/27a4e967-47aa-5a9c-a572-b8297ee268a2"
      },
      {
        "reference": "Endpoint/bb02bcce-0fe9-531c-b202-90372977cb3a"
      }
    ],
    "identifier": [
      {
        "system": "http://hl7.org/fhir/sid/us-npi",
        "value": "1174704522"
      }
    ],
    "address": [
      {
        "line": [
          "2300 VAUXHALL RD"
        ],
        "city": "UNION",
        "state": "NJ",
        "postalCode": "07083-5038"
      },
      {
        "line": [
          "1 CLARA MAASS DRIVE"
        ],
        "city": "BELLEVILLE",
        "state": "NJ",
        "postalCode": "07109-3550"
      },
      {
        "line": [
          "350 BLOOMFIELD AVE",
          "STE 4"
        ],
        "city": "BLOOMFIELD",
        "state": "NJ",
        "postalCode": "07003-4852"
      },
      {
        "line": [
          "495 N 13TH ST"
        ],
        "city": "NEWARK",
        "state": "NJ",
        "postalCode": "07107-1317"
      },
      {
        "line": [
          "497 MOUNT PROSPECT AVE"
        ],
        "city": "NEWARK",
        "state": "NJ",
        "postalCode": "07104-2903"
      },
      {
        "line": [
          "94 OLD SHORT HILLS RD"
        ],
        "city": "LIVINGSTON",
        "state": "NJ",
        "postalCode": "07039-5672"
      },
      {
        "line": [
          "536 RIDGE RD"
        ],
        "city": "CEDAR GROVE",
        "state": "NJ",
        "postalCode": "07009-1611"
      },
      {
        "line": [
          "1 CLARA MAASS DR"
        ],
        "city": "BELLEVILLE",
        "state": "NJ",
        "postalCode": "07109-3550"
      },
      {
        "line": [
          "5 BROOK END DR"
        ],
        "city": "WEST ORANGE",
        "state": "NJ",
        "postalCode": "07052-1303"
      },
      {
        "line": [
          "2385 SPRINGFIELD AVE"
        ],
        "city": "VAUXHALL",
        "state": "NJ",
        "postalCode": "07088-1046"
      },
      {
        "line": [
          "1 BAY AVE"
        ],
        "city": "MONTCLAIR",
        "state": "NJ",
        "postalCode": "07042-4837"
      }
    ],
    "extension": [
      {
        "url": "https://fhir.athena.io/StructureDefinition/ah-practice",
        "valueReference": {
          "reference": "Organization/a-1.Practice-27611"
        }
      },
      {
        "url": "https://fhir.athena.io/StructureDefinition/ah-brand",
        "valueReference": {
          "reference": "Organization/a-27611.Brand-1"
        }
      }
    ]
  },
  "fullUrl": "urn:uuid:6618092a-7dec-54c9-87c1-3b92a0e1a9e0"
}