{
  "resource": {
    "resourceType": "Organization",
    "id": "281f381d-fb6a-529a-86eb-1dabbdc04ec4",
    "name": "INCLUDED HEALTH",
    "endpoint": [
      {
        "reference": "Endpoint/27a4e967-47aa-5a9c-a572-b8297ee268a2"
      },
      {
        "reference": "Endpoint/75d1c299-9759-50f9-a806-c435d2b54e22"
      }
    ],
    "identifier": [
      {
        "system": "http://hl7.org/fhir/sid/us-npi",
        "value": "1174931448"
      }
    ],
    "address": [
      {
        "line": [
          "3410 BELLE CHASE WAY STE 600"
        ],
        "city": "LANSING",
        "state": "MI",
        "postalCode": "48911-4274"
      },
      {
        "line": [
          "1 California St STE 2300"
        ],
        "city": "SAN FRANCISCO",
        "state": "CA",
        "postalCode": "94111-5424"
      },
      {
        "line": [
          "1003 BISHOP ST STE 1600"
        ],
        "city": "HONOLULU",
        "state": "HI",
        "postalCode": "96813-6452"
      },
      {
        "line": [
          "8585 OLD DAIRY RD STE 208"
        ],
        "city": "JUNEAU",
        "state": "AK",
        "postalCode": "99801-8094"
      },
      {
        "line": [
          "1160 DUBLIN RD STE 400"
        ],
        "city": "COLUMBUS",
        "state": "OH",
        "postalCode": "43215-1052"
      },
      {
        "line": [
          "222 JEFFERSON BLVD STE 200"
        ],
        "city": "WARWICK",
        "state": "RI",
        "postalCode": "02888-3855"
      },
      {
        "line": [
          "10 FERRY ST STE 313"
        ],
        "city": "CONCORD",
        "state": "NH",
        "postalCode": "03301-5004"
      },
      {
        "line": [
          "508 MEETING ST"
        ],
        "city": "WEST COLUMBIA",
        "state": "SC",
        "postalCode": "29169-7535"
      },
      {
        "line": [
          "418 N 2ND ST"
        ],
        "city": "BISMARCK",
        "state": "ND",
        "postalCode": "58501-3826"
      },
      {
        "line": [
          "110 E BROADWAY ST"
        ],
        "city": "HOBBS",
        "state": "NM",
        "postalCode": "88240-8424"
      },
      {
        "line": [
          "100 SHOCKOE SLIP FL 2"
        ],
        "city": "RICHMOND",
        "state": "VA",
        "postalCode": "23219-4100"
      },
      {
        "line": [
          "505 5TH AVE STE 729"
        ],
        "city": "DES MOINES",
        "state": "IA",
        "postalCode": "50309-2318"
      },
      {
        "line": [
          "84 STATE ST"
        ],
        "city": "BOSTON",
        "state": "MA",
        "postalCode": "02109-2202"
      },
      {
        "line": [
          "2908 POSTON AVE"
        ],
        "city": "NASHVILLE",
        "state": "TN",
        "postalCode": "37203-1309"
      },
      {
        "line": [
          "100 CHARLES EWING BLVD",
          "Princeton South Corporate Ct"
        ],
        "city": "TRENTON",
        "state": "NJ",
        "postalCode": "08628-3454"
      },
      {
        "line": [
          "2595 INTERSTATE DR STE 103"
        ],
        "city": "HARRISBURG",
        "state": "PA",
        "postalCode": "17110-9378"
      },
      {
        "line": [
          "1305 12TH AVE RD"
        ],
        "city": "NAMPA",
        "state": "ID",
        "postalCode": "83686-6003"
      },
      {
        "line": [
          "2626 GLENWOOD AVE STE 550"
        ],
        "city": "RALEIGH",
        "state": "NC",
        "postalCode": "27608-1370"
      },
      {
        "line": [
          "7 SAINT PAUL ST STE 820"
        ],
        "city": "BALTIMORE",
        "state": "MD",
        "postalCode": "21202-1681"
      },
      {
        "line": [
          "26 W SIXTH AVE",
          "PO BOX 1691"
        ],
        "city": "HELENA",
        "state": "MT",
        "postalCode": "59624-1691"
      },
      {
        "line": [
          "1 CALIFORNIA ST"
        ],
        "city": "SAN FRANCISCO",
        "state": "CA",
        "postalCode": "94111-5401"
      },
      {
        "line": [
          "1100 SW WANAMAKER RD STE 103"
        ],
        "city": "TOPEKA",
        "state": "KS",
        "postalCode": "66604-3805"
      },
      {
        "line": [
          "300 Spring Building 300 S Spring St",
          "STE 900"
        ],
        "city": "LITTLE ROCK",
        "state": "AR",
        "postalCode": "72201-2444"
      },
      {
        "line": [
          "MC-CSC1, 300 DESCHUTES WAY SW STE 208"
        ],
        "city": "TUMWATER",
        "state": "WA",
        "postalCode": "98501-7719"
      },
      {
        "line": [
          "109 EXECUTIVE DR STE 3"
        ],
        "city": "MADISON",
        "state": "MS",
        "postalCode": "39110-8497"
      },
      {
        "line": [
          "Doctor on Demand Professionals",
          "641 S LAWRENCE ST"
        ],
        "city": "MONTGOMERY",
        "state": "AL",
        "postalCode": "36104-5809"
      },
      {
        "line": [
          "450 LAUREL ST FL 8"
        ],
        "city": "BATON ROUGE",
        "state": "LA",
        "postalCode": "70801-1834"
      },
      {
        "line": [
          "421 W MAIN ST"
        ],
        "city": "FRANKFORT",
        "state": "KY",
        "postalCode": "40601-1815"
      },
      {
        "line": [
          "8825 N 23RD AVE STE 100"
        ],
        "city": "PHOENIX",
        "state": "AZ",
        "postalCode": "85021-4148"
      },
      {
        "line": [
          "1821 LOGAN AVE"
        ],
        "city": "CHEYENNE",
        "state": "WY",
        "postalCode": "82001-5007"
      },
      {
        "line": [
          "801 ADLAI STEVENSON DR"
        ],
        "city": "SPRINGFIELD",
        "state": "IL",
        "postalCode": "62703-4261"
      },
      {
        "line": [
          "503 S PIERRE ST"
        ],
        "city": "PIERRE",
        "state": "SD",
        "postalCode": "57501-4522"
      },
      {
        "line": [
          "1090 VERMONT AVE NW"
        ],
        "city": "WASHINGTON",
        "state": "DC",
        "postalCode": "20005-4905"
      },
      {
        "line": [
          "15 W SOUTH TEMPLE STE 600"
        ],
        "city": "SALT LAKE CITY",
        "state": "UT",
        "postalCode": "84101-1536"
      },
      {
        "line": [
          "221 BOLIVAR ST"
        ],
        "city": "JEFFERSON CITY",
        "state": "MO",
        "postalCode": "65101-1572"
      },
      {
        "line": [
          "233 S 13TH ST STE 1900"
        ],
        "city": "LINCOLN",
        "state": "NE",
        "postalCode": "68508-2000"
      },
      {
        "line": [
          "1127 BROADWAY ST NE STE 310"
        ],
        "city": "SALEM",
        "state": "OR",
        "postalCode": "97301-1143"
      },
      {
        "line": [
          "2 SUN CT STE 400"
        ],
        "city": "PEACHTREE CORNERS",
        "state": "GA",
        "postalCode": "30092-2865"
      },
      {
        "line": [
          "251 LITTLE FALLS DR"
        ],
        "city": "WILMINGTON",
        "state": "DE",
        "postalCode": "19808-1674"
      },
      {
        "line": [
          "GOODWIN SQUARE 225 ASYLUM ST FL 20"
        ],
        "city": "HARTFORD",
        "state": "CT",
        "postalCode": "06103-1532"
      },
      {
        "line": [
          "1900 W LITTLETON BLVD"
        ],
        "city": "LITTLETON",
        "state": "CO",
        "postalCode": "80120-2023"
      },
      {
        "line": [
          "33 E MAIN ST STE 610"
        ],
        "city": "MADISON",
        "state": "WI",
        "postalCode": "53703-4655"
      },
      {
        "line": [
          "100 N MAIN ST STE 2"
        ],
        "city": "BARRE",
        "state": "VT",
        "postalCode": "05641-4150"
      },
      {
        "line": [
          "209 WASHINGTON ST W"
        ],
        "city": "CHARLESTON",
        "state": "WV",
        "postalCode": "25302-2348"
      },
      {
        "line": [
          "135 N PENNSYLVANIA ST STE 1610"
        ],
        "city": "INDIANAPOLIS",
        "state": "IN",
        "postalCode": "46204-2448"
      },
      {
        "line": [
          "2345 RICE ST STE 230"
        ],
        "city": "SAINT PAUL",
        "state": "MN",
        "postalCode": "55113-3769"
      },
      {
        "line": [
          "80 STATE ST"
        ],
        "city": "ALBANY",
        "state": "NY",
        "postalCode": "12207-2541"
      },
      {
        "line": [
          "211 E 7TH ST STE 620"
        ],
        "city": "AUSTIN",
        "state": "TX",
        "postalCode": "78701-3218"
      },
      {
        "line": [
          "10300 GREENBRIAR PL"
        ],
        "city": "OKLAHOMA CITY",
        "state": "OK",
        "postalCode": "73159-7653"
      },
      {
        "line": [
          "45 MEMORIAL CIR"
        ],
        "city": "AUGUSTA",
        "state": "ME",
        "postalCode": "04330-6400"
      },
      {
        "line": [
          "112 N CURRY ST"
        ],
        "city": "CARSON CITY",
        "state": "NV",
        "postalCode": "89703-4934"
      },
      {
        "line": [
          "1201 HAYS ST"
        ],
        "city": "TALLAHASSEE",
        "state": "FL",
        "postalCode": "32301-2699"
      }
    ],
    "extension": [
      {
        "url": "https://fhir.athena.io/StructureDefinition/ah-practice",
        "valueReference": {
          "reference": "Organization/a-1.Practice-30520"
        }
      },
      {
        "url": "https://fhir.athena.io/StructureDefinition/ah-brand",
        "valueReference": {
          "reference": "Organization/a-30520.Brand-1"
        }
      }
    ]
  },
  "fullUrl": "urn:uuid:281f381d-fb6a-529a-86eb-1dabbdc04ec4"
}