{
  "resource": {
    "resourceType": "Organization",
    "id": "309c3bb5-17e7-5372-9771-24413bdbccae",
    "name": "HONOR HEALTH-OSBORN (OP)",
    "endpoint": [
      {
        "reference": "Endpoint/27a4e967-47aa-5a9c-a572-b8297ee268a2"
      },
      {
        "reference": "Endpoint/86e54beb-7b70-5bfd-bcad-d5d5ba4ef424"
      }
    ],
    "identifier": [
      {
        "system": "http://hl7.org/fhir/sid/us-npi",
        "value": "1538139530"
      }
    ],
    "address": [
      {
        "line": [
          "2445 N HAYDEN RD"
        ],
        "city": "SCOTTSDALE",
        "state": "AZ",
        "postalCode": "85257-2303"
      },
      {
        "line": [
          "17490 N 93rd ST"
        ],
        "city": "SCOTTSDALE",
        "state": "AZ",
        "postalCode": "85255-9679"
      },
      {
        "line": [
          "13850 N FRANK LLOYD WRIGHT BLVD"
        ],
        "city": "SCOTTSDALE",
        "state": "AZ",
        "postalCode": "85260-3202"
      },
      {
        "line": [
          "7400 EAST OSBORN ROAD"
        ],
        "city": "SCOTTSDALE",
        "state": "AZ",
        "postalCode": "85251-6432"
      },
      {
        "line": [
          "21432 N 75th AVE"
        ],
        "city": "GLENDALE",
        "state": "AZ",
        "postalCode": "85308-5967"
      },
      {
        "line": [
          "2445 North Hayden Road"
        ],
        "city": "SCOTTSDALE",
        "state": "AZ",
        "postalCode": "85257-2303"
      },
      {
        "line": [
          "9003 EAST SHEA BOULEVARD"
        ],
        "city": "SCOTTSDALE",
        "state": "AZ",
        "postalCode": "85260-6709"
      },
      {
        "line": [
          "7400 E. OSBORN RD"
        ],
        "city": "SCOTTSDALE",
        "state": "AZ",
        "postalCode": "85251-6432"
      }
    ],
    "extension": [
      {
        "url": "https://fhir.athena.io/StructureDefinition/ah-practice",
        "valueReference": {
          "reference": "Organization/a-1.Practice-12510"
        }
      },
      {
        "url": "https://fhir.athena.io/StructureDefinition/ah-brand",
        "valueReference": {
          "reference": "Organization/a-12510.Brand-1"
        }
      }
    ]
  },
  "fullUrl": "urn:uuid:309c3bb5-17e7-5372-9771-24413bdbccae"
}