{
  "resource": {
    "resourceType": "Organization",
    "id": "4868eec5-c0de-5562-ab68-aa72d3c04e37",
    "name": "YMCA of Greater Kansas City",
    "endpoint": [
      {
        "reference": "Endpoint/27a4e967-47aa-5a9c-a572-b8297ee268a2"
      },
      {
        "reference": "Endpoint/abb5f7d5-468e-5806-be46-fb2282afef02"
      }
    ],
    "identifier": [
      {
        "system": "http://hl7.org/fhir/sid/us-npi",
        "value": "1245785229"
      }
    ],
    "address": [
      {
        "line": [
          "321 Commercial St"
        ],
        "city": "ATCHISON",
        "state": "KS",
        "postalCode": "66002-2518"
      },
      {
        "line": [
          "1101 NE 47th St"
        ],
        "city": "KANSAS CITY",
        "state": "MO",
        "postalCode": "64116-1970"
      },
      {
        "line": [
          "3800 E 51st St"
        ],
        "city": "KANSAS CITY",
        "state": "MO",
        "postalCode": "64130-3084"
      },
      {
        "line": [
          "2301 Holmes St"
        ],
        "city": "KANSAS CITY",
        "state": "MO",
        "postalCode": "64108-2640"
      },
      {
        "line": [
          "414 E 12 St"
        ],
        "city": "KANSAS CITY",
        "state": "MO",
        "postalCode": "64106-2702"
      },
      {
        "line": [
          "3100 Broadway St Ste 1020"
        ],
        "city": "KANSAS CITY",
        "state": "MO",
        "postalCode": "64111-2413"
      },
      {
        "line": [
          "777 Hollywood Casino Blvd"
        ],
        "city": "KANSAS CITY",
        "state": "KS",
        "postalCode": "66111-8102"
      },
      {
        "line": [
          "11300 Holmes Rd"
        ],
        "city": "KANSAS CITY",
        "state": "MO",
        "postalCode": "64131-3693"
      },
      {
        "line": [
          "8875 CLARK AVE"
        ],
        "city": "KANSAS CITY",
        "state": "MO",
        "postalCode": "64152-3727"
      },
      {
        "line": [
          "3800 E Linwood Blvd"
        ],
        "city": "KANSAS CITY",
        "state": "MO",
        "postalCode": "64128-2101"
      },
      {
        "line": [
          "4700 Town Center Dr"
        ],
        "city": "LEAWOOD",
        "state": "KS",
        "postalCode": "66211-2020"
      },
      {
        "line": [
          "4200 W 79th St"
        ],
        "city": "PRAIRIE VILLAGE",
        "state": "KS",
        "postalCode": "66208-4201"
      },
      {
        "line": [
          "3101 RUNNING HORSE RD"
        ],
        "city": "PLATTE CITY",
        "state": "MO",
        "postalCode": "64079-7705"
      },
      {
        "line": [
          "9100 W 74th Street"
        ],
        "city": "OVERLAND PARK",
        "state": "KS",
        "postalCode": "66204-4004"
      },
      {
        "line": [
          "13811 Johnson Dr"
        ],
        "city": "SHAWNEE",
        "state": "KS",
        "postalCode": "66216-3802"
      },
      {
        "line": [
          "7000 Troost Ave"
        ],
        "city": "KANSAS CITY",
        "state": "MO",
        "postalCode": "64131-1511"
      },
      {
        "line": [
          "822 QuikTrip Way"
        ],
        "city": "BELTON",
        "state": "MO",
        "postalCode": "64012-4658"
      },
      {
        "line": [
          "1051 Washington St"
        ],
        "city": "KANSAS CITY",
        "state": "MO",
        "postalCode": "64105-2239"
      },
      {
        "line": [
          "8205 W 108th Terrace #100"
        ],
        "city": "OVERLAND PARK",
        "state": "KS",
        "postalCode": "66210-1648"
      },
      {
        "line": [
          "2251 S 138th Street"
        ],
        "city": "BONNER SPRINGS",
        "state": "KS",
        "postalCode": "66012-0434"
      },
      {
        "line": [
          "1000 Carondelet Dr"
        ],
        "city": "KANSAS CITY",
        "state": "MO",
        "postalCode": "64114-4673"
      },
      {
        "line": [
          "2400 Troost Ave"
        ],
        "city": "KANSAS CITY",
        "state": "MO",
        "postalCode": "64108-2666"
      },
      {
        "line": [
          "777 Argosy PKWY"
        ],
        "city": "RIVERSIDE",
        "state": "MO",
        "postalCode": "64150-1512"
      },
      {
        "line": [
          "21201 W 152nd St"
        ],
        "city": "OLATHE",
        "state": "KS",
        "postalCode": "66061-5308"
      },
      {
        "line": [
          "735 Walker Ave"
        ],
        "city": "KANSAS CITY",
        "state": "KS",
        "postalCode": "66101-2045"
      },
      {
        "line": [
          "8601 Parallel Pkwy"
        ],
        "city": "KANSAS CITY",
        "state": "KS",
        "postalCode": "66112-1631"
      },
      {
        "line": [
          "200 E Loula St"
        ],
        "city": "OLATHE",
        "state": "KS",
        "postalCode": "66061-3437"
      },
      {
        "line": [
          "900 N 8th St"
        ],
        "city": "KANSAS CITY",
        "state": "KS",
        "postalCode": "66101-2707"
      },
      {
        "line": [
          "5501 NW 62nd Terrace",
          "Suite 100"
        ],
        "city": "KANSAS CITY",
        "state": "MO",
        "postalCode": "64151-2412"
      },
      {
        "line": [
          "11600 College Blvd #100"
        ],
        "city": "OVERLAND PARK",
        "state": "KS",
        "postalCode": "66210-2786"
      },
      {
        "line": [
          "21400 W 153RD ST"
        ],
        "city": "OLATHE",
        "state": "KS",
        "postalCode": "66061-5449"
      },
      {
        "line": [
          "1999 Iron Street"
        ],
        "city": "KANSAS CITY",
        "state": "MO",
        "postalCode": "64116-3621"
      },
      {
        "line": [
          "1300 Adams Dairy Parkway"
        ],
        "city": "BLUE SPRINGS",
        "state": "MO",
        "postalCode": "64014-3451"
      },
      {
        "line": [
          "1000 Walnut St"
        ],
        "city": "KANSAS CITY",
        "state": "MO",
        "postalCode": "64106-2145"
      }
    ],
    "extension": [
      {
        "url": "https://fhir.athena.io/StructureDefinition/ah-practice",
        "valueReference": {
          "reference": "Organization/a-1.Practice-14268"
        }
      },
      {
        "url": "https://fhir.athena.io/StructureDefinition/ah-brand",
        "valueReference": {
          "reference": "Organization/a-14268.Brand-1"
        }
      }
    ]
  },
  "fullUrl": "urn:uuid:4868eec5-c0de-5562-ab68-aa72d3c04e37"
}