{
  "resource": {
    "resourceType": "Organization",
    "id": "b758af63-4e94-5338-b00a-e618f2d3fe98",
    "name": "Rocky Mountain Kidney Care",
    "endpoint": [
      {
        "reference": "Endpoint/27a4e967-47aa-5a9c-a572-b8297ee268a2"
      },
      {
        "reference": "Endpoint/36435764-0ddc-5f0c-acc7-64327c7a00ec"
      }
    ],
    "identifier": [
      {
        "system": "http://hl7.org/fhir/sid/us-npi",
        "value": "1861082117"
      },
      {
        "system": "http://hl7.org/fhir/sid/us-npi",
        "value": "1487126124"
      }
    ],
    "address": [
      {
        "line": [
          "4600 Hale Pkwy",
          "Suite 120"
        ],
        "city": "DENVER",
        "state": "CO",
        "postalCode": "80220-4020"
      },
      {
        "line": [
          "1411 S Potomac Street"
        ],
        "city": "AURORA",
        "state": "CO",
        "postalCode": "80012-4536"
      },
      {
        "line": [
          "7606 E 36th Ave",
          "Bldg 701"
        ],
        "city": "DENVER",
        "state": "CO",
        "postalCode": "80238-2476"
      },
      {
        "line": [
          "1057 S Wadsworth Blvd",
          "Suite 100"
        ],
        "city": "DENVER",
        "state": "CO",
        "postalCode": "80226-4361"
      },
      {
        "line": [
          "750 W Hampden Ave",
          "Suite 110"
        ],
        "city": "ENGLEWOOD",
        "state": "CO",
        "postalCode": "80110-2165"
      },
      {
        "line": [
          "9777 South Yosemite Street",
          "Suite 110"
        ],
        "city": "LONE TREE",
        "state": "CO",
        "postalCode": "80124-3191"
      },
      {
        "line": [
          "9777 Pyramid Ct",
          "Suite 140"
        ],
        "city": "ENGLEWOOD",
        "state": "CO",
        "postalCode": "80112-6017"
      },
      {
        "line": [
          "8601 W Cross Drive",
          "Unit C-2"
        ],
        "city": "LITTLETON",
        "state": "CO",
        "postalCode": "80123-0702"
      },
      {
        "line": [
          "4348 Woodlands Blvd",
          "Suite 131"
        ],
        "city": "CASTLE ROCK",
        "state": "CO",
        "postalCode": "80104-2814"
      },
      {
        "line": [
          "50 Buck Creek Road",
          "Buck Creek Medical Plaza"
        ],
        "city": "AVON",
        "state": "CO",
        "postalCode": "81620-5428"
      },
      {
        "line": [
          "755 S Colorado Blvd"
        ],
        "city": "DENVER",
        "state": "CO",
        "postalCode": "80246-8005"
      },
      {
        "line": [
          "4352 Trail Boss Drive"
        ],
        "city": "CASTLE ROCK",
        "state": "CO",
        "postalCode": "80104-2814"
      },
      {
        "line": [
          "730 SUMMIT BLVD",
          "SUITE 101"
        ],
        "city": "FRISCO",
        "state": "CO",
        "postalCode": "80443-4250"
      },
      {
        "line": [
          "1444 South Potomac st",
          "SUITE 215"
        ],
        "city": "AURORA",
        "state": "CO",
        "postalCode": "80012-4508"
      },
      {
        "line": [
          "7465 E 1st Ave",
          "Suite A"
        ],
        "city": "DENVER",
        "state": "CO",
        "postalCode": "80230-6877"
      },
      {
        "line": [
          "10371 S Parkglenn Way",
          "Suite 180"
        ],
        "city": "PARKER",
        "state": "CO",
        "postalCode": "80138-3871"
      },
      {
        "line": [
          "18320 Cottonwood Dr",
          "Suite C"
        ],
        "city": "PARKER",
        "state": "CO",
        "postalCode": "80138-8822"
      },
      {
        "line": [
          "509 N Sable Blvd"
        ],
        "city": "AURORA",
        "state": "CO",
        "postalCode": "80011-0801"
      },
      {
        "line": [
          "209 W COUNTY LINE RD"
        ],
        "city": "LITTLETON",
        "state": "CO",
        "postalCode": "80129-1901"
      },
      {
        "line": [
          "1750 Pierce Street",
          "Suite C"
        ],
        "city": "DENVER",
        "state": "CO",
        "postalCode": "80214-1434"
      }
    ],
    "extension": [
      {
        "url": "https://fhir.athena.io/StructureDefinition/ah-practice",
        "valueReference": {
          "reference": "Organization/a-1.Practice-19427"
        }
      },
      {
        "url": "https://fhir.athena.io/StructureDefinition/ah-brand",
        "valueReference": {
          "reference": "Organization/a-19427.Brand-1"
        }
      }
    ]
  },
  "fullUrl": "urn:uuid:b758af63-4e94-5338-b00a-e618f2d3fe98"
}