{
  "resource": {
    "resourceType": "Organization",
    "id": "b81d2508-1567-5377-bbbd-e3e4fe69a0e6",
    "name": "CopilotIQ",
    "endpoint": [
      {
        "reference": "Endpoint/27a4e967-47aa-5a9c-a572-b8297ee268a2"
      },
      {
        "reference": "Endpoint/a01bb1d5-3926-5151-a7ab-e7cd8ef44354"
      }
    ],
    "identifier": [
      {
        "system": "http://hl7.org/fhir/sid/us-npi",
        "value": "1316527203"
      }
    ],
    "address": [
      {
        "line": [
          "600 EAGLEVIEW BLVD STE 300"
        ],
        "city": "EXTON",
        "state": "PA",
        "postalCode": "19341-1224"
      },
      {
        "line": [
          "6271 SAINT AUGUSTINE RD"
        ],
        "city": "JACKSONVILLE",
        "state": "FL",
        "postalCode": "32218-2523"
      },
      {
        "line": [
          "100 E CAMPUS VIEW BLVD STE 250"
        ],
        "city": "COLUMBUS",
        "state": "OH",
        "postalCode": "43235-4682"
      },
      {
        "line": [
          "40 BURTON HILLS BLVD"
        ],
        "city": "NASHVILLE",
        "state": "TN",
        "postalCode": "37215-6199"
      },
      {
        "line": [
          "919 E MAIN ST",
          "Suite 1000"
        ],
        "city": "RICHMOND",
        "state": "VA",
        "postalCode": "23219-4625"
      },
      {
        "line": [
          "3343 PEACHTREE RD NE"
        ],
        "city": "ATLANTA",
        "state": "GA",
        "postalCode": "30326-1085"
      },
      {
        "line": [
          "3815 RIVER CROSSING PKWY STE 100"
        ],
        "city": "INDIANAPOLIS",
        "state": "IN",
        "postalCode": "46240-7766"
      },
      {
        "line": [
          "919 E MAIN ST STE 1000"
        ],
        "city": "RICHMOND",
        "state": "VA",
        "postalCode": "23219-4623"
      },
      {
        "line": [
          "600 1ST AVE STE 102"
        ],
        "city": "SEATTLE",
        "state": "WA",
        "postalCode": "98104-2287"
      },
      {
        "line": [
          "6271 SAINT AUGUSTINE RD"
        ],
        "city": "JACKSONVILLE",
        "state": "FL",
        "postalCode": "32217-2523"
      },
      {
        "line": [
          "1910 PACIFIC AVE STE 2000"
        ],
        "city": "DALLAS",
        "state": "TX",
        "postalCode": "75201-4540"
      },
      {
        "line": [
          "421 FAYETTEVILLE ST STE 1100"
        ],
        "city": "RALEIGH",
        "state": "NC",
        "postalCode": "27601-3000"
      },
      {
        "line": [
          "600 12TH AVE S",
          "SUITE 1000"
        ],
        "city": "NASHVILLE",
        "state": "TN",
        "postalCode": "37203-6656"
      },
      {
        "line": [
          "600 12TH AVE S APT 100"
        ],
        "city": "NASHVILLE",
        "state": "TN",
        "postalCode": "37203-6615"
      },
      {
        "line": [
          "40 Burton Hills Blvd Suite 200"
        ],
        "city": "NASHVILLE",
        "state": "TN",
        "postalCode": "37215-5902"
      },
      {
        "line": [
          "1430 GADSDEN HWY"
        ],
        "city": "BIRMINGHAM",
        "state": "AL",
        "postalCode": "35235-3126"
      },
      {
        "line": [
          "1501 BELLE ISLE AVE STE 110"
        ],
        "city": "MOUNT PLEASANT",
        "state": "SC",
        "postalCode": "29464-8379"
      },
      {
        "line": [
          "6844 BARDSTOWN RD"
        ],
        "city": "LOUISVILLE",
        "state": "KY",
        "postalCode": "40291-3050"
      },
      {
        "line": [
          "40 BURTON HILLS BLVD STE 200"
        ],
        "city": "NASHVILLE",
        "state": "TN",
        "postalCode": "37215-5902"
      }
    ],
    "extension": [
      {
        "url": "https://fhir.athena.io/StructureDefinition/ah-practice",
        "valueReference": {
          "reference": "Organization/a-1.Practice-22351"
        }
      },
      {
        "url": "https://fhir.athena.io/StructureDefinition/ah-brand",
        "valueReference": {
          "reference": "Organization/a-22351.Brand-1"
        }
      }
    ]
  },
  "fullUrl": "urn:uuid:b81d2508-1567-5377-bbbd-e3e4fe69a0e6"
}