{
  "resource": {
    "resourceType": "Organization",
    "id": "ae318324-8f4e-5e86-a07d-4e302e4a57d5",
    "name": "BAPTIST HEALTH IMAGING",
    "endpoint": [
      {
        "reference": "Endpoint/27a4e967-47aa-5a9c-a572-b8297ee268a2"
      },
      {
        "reference": "Endpoint/b859ac39-142d-5acd-9a07-5427d8a5742e"
      }
    ],
    "identifier": [
      {
        "system": "http://hl7.org/fhir/sid/us-npi",
        "value": "1871512160"
      },
      {
        "system": "http://hl7.org/fhir/sid/us-npi",
        "value": "1578085296"
      }
    ],
    "address": [
      {
        "line": [
          "153 DOWELL ROAD"
        ],
        "city": "RUSSELL SPRINGS",
        "state": "KY",
        "postalCode": "42642-4579"
      },
      {
        "line": [
          "5601 SOUTH 3RD ST"
        ],
        "city": "LOUISVILLE",
        "state": "KY",
        "postalCode": "40214-2615"
      },
      {
        "line": [
          "1301 N Race Street"
        ],
        "city": "GLASGOW",
        "state": "KY",
        "postalCode": "42141-3454"
      },
      {
        "line": [
          "807 Northgate Boulevard"
        ],
        "city": "NEW ALBANY",
        "state": "IN",
        "postalCode": "47150-6419"
      },
      {
        "line": [
          "8885 STATE ROAD 237"
        ],
        "city": "TELL CITY",
        "state": "IN",
        "postalCode": "47586-8567"
      },
      {
        "line": [
          "104 HARDIN LN",
          "STE B"
        ],
        "city": "SOMERSET",
        "state": "KY",
        "postalCode": "42503-3800"
      },
      {
        "line": [
          "2409 RING RD",
          "APT 114"
        ],
        "city": "ELIZABETHTOWN",
        "state": "KY",
        "postalCode": "42701-5935"
      },
      {
        "line": [
          "1210 W 5TH ST"
        ],
        "city": "LONDON",
        "state": "KY",
        "postalCode": "40741-2112"
      },
      {
        "line": [
          "1850 Bluegrass Ave Ste 2"
        ],
        "city": "LOUISVILLE",
        "state": "KY",
        "postalCode": "40215-1161"
      },
      {
        "line": [
          "4305 NEW SHEPHERDSVILLE RD"
        ],
        "city": "BARDSTOWN",
        "state": "KY",
        "postalCode": "40004-9019"
      },
      {
        "line": [
          "313 Federal Drive"
        ],
        "city": "CORYDON",
        "state": "IN",
        "postalCode": "47112-3070"
      },
      {
        "line": [
          "1004 GLENVIEW DR"
        ],
        "city": "GLASGOW",
        "state": "KY",
        "postalCode": "42141-3424"
      },
      {
        "line": [
          "200 ABRAHAM FLEXNER WAY"
        ],
        "city": "LOUISVILLE",
        "state": "KY",
        "postalCode": "40202-2878"
      },
      {
        "line": [
          "1313 ST ANTHONY PL"
        ],
        "city": "LOUISVILLE",
        "state": "KY",
        "postalCode": "40204-1740"
      },
      {
        "line": [
          "2401 TERRA CROSSING BLVD"
        ],
        "city": "LOUISVILLE",
        "state": "KY",
        "postalCode": "40245-5371"
      },
      {
        "line": [
          "4960 NORTON HEALTHCARE BLVD"
        ],
        "city": "LOUISVILLE",
        "state": "KY",
        "postalCode": "40241-2831"
      },
      {
        "line": [
          "1903 W HEBRON LN"
        ],
        "city": "SHEPHERDSVILLE",
        "state": "KY",
        "postalCode": "40165-7425"
      },
      {
        "line": [
          "1065 OLD EKRON RD"
        ],
        "city": "BRANDENBURG",
        "state": "KY",
        "postalCode": "40108-1735"
      },
      {
        "line": [
          "6400 Dutchmans Pkwy",
          "Suite 205"
        ],
        "city": "LOUISVILLE",
        "state": "KY",
        "postalCode": "40205-3343"
      }
    ],
    "extension": [
      {
        "url": "https://fhir.athena.io/StructureDefinition/ah-practice",
        "valueReference": {
          "reference": "Organization/a-1.Practice-3402"
        }
      },
      {
        "url": "https://fhir.athena.io/StructureDefinition/ah-brand",
        "valueReference": {
          "reference": "Organization/a-3402.Brand-1"
        }
      }
    ]
  },
  "fullUrl": "urn:uuid:ae318324-8f4e-5e86-a07d-4e302e4a57d5"
}