{
  "resource": {
    "resourceType": "Organization",
    "id": "9b49b269-f167-5d1d-971c-79a9e26505a3",
    "name": "CPE",
    "endpoint": [
      {
        "reference": "Endpoint/27a4e967-47aa-5a9c-a572-b8297ee268a2"
      },
      {
        "reference": "Endpoint/d2bb8490-1ea8-5f9c-8bec-ed7f892528e9"
      }
    ],
    "identifier": [
      {
        "system": "http://hl7.org/fhir/sid/us-npi",
        "value": "1316363757"
      },
      {
        "system": "http://hl7.org/fhir/sid/us-npi",
        "value": "1477047546"
      }
    ],
    "address": [
      {
        "line": [
          "12590 Whitehall Dr"
        ],
        "city": "FORT MYERS",
        "state": "FL",
        "postalCode": "33907-4680"
      },
      {
        "line": [
          "9401 CORKSCREW PALMS CIR",
          "STE 300"
        ],
        "city": "ESTERO",
        "state": "FL",
        "postalCode": "33928-6275"
      },
      {
        "line": [
          "8451 SHADE AVE",
          "STE 107"
        ],
        "city": "SARASOTA",
        "state": "FL",
        "postalCode": "34243-2878"
      },
      {
        "line": [
          "107 Dr. Martin Luther King Jr. Avenue",
          "STE 2"
        ],
        "city": "INVERNESS",
        "state": "FL",
        "postalCode": "34450-4300"
      },
      {
        "line": [
          "516 INNOVATION DR",
          "STE 305"
        ],
        "city": "CHESAPEAKE",
        "state": "VA",
        "postalCode": "23320-3866"
      },
      {
        "line": [
          "5325 STATE ROAD 64 E",
          "Suite B"
        ],
        "city": "BRADENTON",
        "state": "FL",
        "postalCode": "34208-5534"
      },
      {
        "line": [
          "6360 TECHSTER BLVD."
        ],
        "city": "FORT MYERS",
        "state": "FL",
        "postalCode": "33966-4805"
      },
      {
        "line": [
          "3636 UNIVERSITY BLVD S",
          "STE B2"
        ],
        "city": "JACKSONVILLE",
        "state": "FL",
        "postalCode": "32216-4223"
      },
      {
        "line": [
          "2586 COUNTY ROAD 731"
        ],
        "city": "LABELLE",
        "state": "FL",
        "postalCode": "33935-7764"
      },
      {
        "line": [
          "11940 Fairway Lakes Dr",
          "#4"
        ],
        "city": "FORT MYERS",
        "state": "FL",
        "postalCode": "33913-8385"
      },
      {
        "line": [
          "6101 Pine Ridge Road"
        ],
        "city": "NAPLES",
        "state": "FL",
        "postalCode": "34119-3900"
      },
      {
        "line": [
          "2625 Executive Park Drive",
          "Ste 5"
        ],
        "city": "WESTON",
        "state": "FL",
        "postalCode": "33331-3634"
      },
      {
        "line": [
          "8839 Bryan Dairy Rd",
          "Suite 310"
        ],
        "city": "Largo",
        "state": "FL",
        "postalCode": "33777-1207"
      },
      {
        "line": [
          "2959 Alafaya Trail",
          "STE 121"
        ],
        "city": "OVIEDO",
        "state": "FL",
        "postalCode": "32765-9482"
      },
      {
        "line": [
          "12989 SOUTHERN BLVD",
          "STE 102"
        ],
        "city": "LOXAHATCHEE",
        "state": "FL",
        "postalCode": "33470-9205"
      },
      {
        "line": [
          "516 INNOVATION DR",
          "Ste 305"
        ],
        "city": "CHESAPEAKE",
        "state": "VA",
        "postalCode": "23320-3866"
      },
      {
        "line": [
          "4310 Metro Parkway",
          "Suite 205"
        ],
        "city": "FORT MYERS",
        "state": "FL",
        "postalCode": "33916-9416"
      },
      {
        "line": [
          "3545 LAKE ALFRED RD"
        ],
        "city": "WINTER HAVEN",
        "state": "FL",
        "postalCode": "33881-1447"
      },
      {
        "line": [
          "133 BRIDGE STREET"
        ],
        "city": "LABELLE",
        "state": "FL",
        "postalCode": "33935-5088"
      },
      {
        "line": [
          "13880 SHELL POINT PLZ STE 200"
        ],
        "city": "FORT MYERS",
        "state": "FL",
        "postalCode": "33908-3504"
      },
      {
        "line": [
          "9350 Camelot Drive"
        ],
        "city": "FORT MYERS",
        "state": "FL",
        "postalCode": "33919-7980"
      },
      {
        "line": [
          "14000 S. Military Trail",
          "Suite 208"
        ],
        "city": "DELRAY BEACH",
        "state": "FL",
        "postalCode": "33484-2654"
      },
      {
        "line": [
          "4310 Metro Pkwy",
          "Suite 205"
        ],
        "city": "FORT MYERS",
        "state": "FL",
        "postalCode": "33916-9462"
      },
      {
        "line": [
          "4310 Metro Pkwy",
          "Suite #205"
        ],
        "city": "FORT MYERS",
        "state": "FL",
        "postalCode": "33916-9462"
      },
      {
        "line": [
          "4310 METRO PKWY"
        ],
        "city": "FORT MYERS",
        "state": "FL",
        "postalCode": "33916-9462"
      },
      {
        "line": [
          "1542 Kingsley Avenue",
          "Suite 136"
        ],
        "city": "ORANGE PARK",
        "state": "FL",
        "postalCode": "32073-4547"
      },
      {
        "line": [
          "9241 Park Royal Dr"
        ],
        "city": "FORT MYERS",
        "state": "FL",
        "postalCode": "33908-9204"
      },
      {
        "line": [
          "12015 WHITMARSH LN"
        ],
        "city": "TAMPA",
        "state": "FL",
        "postalCode": "33626-1737"
      },
      {
        "line": [
          "11349 Cortez Blvd"
        ],
        "city": "BROOKSVILLE",
        "state": "FL",
        "postalCode": "34613-5404"
      },
      {
        "line": [
          "7173 CYPRESS DR"
        ],
        "city": "FORT MYERS",
        "state": "FL",
        "postalCode": "33907-2938"
      },
      {
        "line": [
          "1111 SE FEDERAL HWY",
          "STE 334"
        ],
        "city": "STUART",
        "state": "FL",
        "postalCode": "34994-3839"
      },
      {
        "line": [
          "2625 Executive Park Drive",
          "STE 5"
        ],
        "city": "WESTON",
        "state": "FL",
        "postalCode": "33331-3634"
      },
      {
        "line": [
          "1251 BUSINESS WAY"
        ],
        "city": "LEHIGH ACRES",
        "state": "FL",
        "postalCode": "33936-6046"
      },
      {
        "line": [
          "200 SECOND STREET"
        ],
        "city": "MOORE HAVEN",
        "state": "FL",
        "postalCode": "33471-2146"
      },
      {
        "line": [
          "10500 CYPRESS COVE DR"
        ],
        "city": "FORT MYERS",
        "state": "FL",
        "postalCode": "33908-6692"
      },
      {
        "line": [
          "3157 N ALAFAYA TRL"
        ],
        "city": "ORLANDO",
        "state": "FL",
        "postalCode": "32826-2940"
      },
      {
        "line": [
          "7916 Evolutions Way",
          "Ste 102"
        ],
        "city": "Trinity",
        "state": "FL",
        "postalCode": "34655-4708"
      },
      {
        "line": [
          "101 S. BRIDGE STREET"
        ],
        "city": "LABELLE",
        "state": "FL",
        "postalCode": "33935-4686"
      },
      {
        "line": [
          "1532 KINGSLEY AVE STE 112"
        ],
        "city": "ORANGE PARK",
        "state": "FL",
        "postalCode": "32073-4536"
      },
      {
        "line": [
          "11371 CORTEZ BLVD STE 210"
        ],
        "city": "BROOKSVILLE",
        "state": "FL",
        "postalCode": "34613-5403"
      },
      {
        "line": [
          "700 TERRIER PRIDE DRIVE S.W."
        ],
        "city": "MOORE HAVEN",
        "state": "FL",
        "postalCode": "33471-2129"
      },
      {
        "line": [
          "225 East Lemon St,",
          "Ste 105"
        ],
        "city": "LAKELAND",
        "state": "FL",
        "postalCode": "33801-4627"
      },
      {
        "line": [
          "12590 WHITEHALL DR"
        ],
        "city": "FORT MYERS",
        "state": "FL",
        "postalCode": "33907-4680"
      },
      {
        "line": [
          "4310 Metro Pkwy",
          "STE 205"
        ],
        "city": "FORT MYERS",
        "state": "FL",
        "postalCode": "33916-9416"
      },
      {
        "line": [
          "2600 S FLORIDA AVE"
        ],
        "city": "LAKELAND",
        "state": "FL",
        "postalCode": "33803-3809"
      },
      {
        "line": [
          "100 E Sybella Ave",
          "Ste 150"
        ],
        "city": "MAITLAND",
        "state": "FL",
        "postalCode": "32751-4773"
      },
      {
        "line": [
          "5731 Bee Ridge Rd"
        ],
        "city": "SARASOTA",
        "state": "FL",
        "postalCode": "34233-5056"
      },
      {
        "line": [
          "1131 NW 64th Ter",
          "Suite A"
        ],
        "city": "GAINESVILLE",
        "state": "FL",
        "postalCode": "32605-4228"
      },
      {
        "line": [
          "16578 N DALE MABRY HWY"
        ],
        "city": "TAMPA",
        "state": "FL",
        "postalCode": "33618-1325"
      },
      {
        "line": [
          "4300 MARSH LANDING BLVD",
          "Suite 101"
        ],
        "city": "JACKSONVILLE BEACH",
        "state": "FL",
        "postalCode": "32250-1416"
      },
      {
        "line": [
          "450 SOUTH MAINE STREET",
          "SUITE 1"
        ],
        "city": "LABELLE",
        "state": "FL",
        "postalCode": "33935-4629"
      },
      {
        "line": [
          "540 THE RIALTO"
        ],
        "city": "VENICE",
        "state": "FL",
        "postalCode": "34285-2900"
      },
      {
        "line": [
          "1777 TAMIAMI TRL STE 201"
        ],
        "city": "PORT CHARLOTTE",
        "state": "FL",
        "postalCode": "33948-1064"
      },
      {
        "line": [
          "285 Clyde Morris Blvd",
          "STE 300"
        ],
        "city": "ORMOND BEACH",
        "state": "FL",
        "postalCode": "32174-8144"
      },
      {
        "line": [
          "12780 KENWOOD LN"
        ],
        "city": "FORT MYERS",
        "state": "FL",
        "postalCode": "33907-5605"
      },
      {
        "line": [
          "1965 CAPITAL CIR NE STE 102"
        ],
        "city": "TALLAHASSEE",
        "state": "FL",
        "postalCode": "32308-8402"
      },
      {
        "line": [
          "2252 KILLEARN CENTER BLVD",
          "STE 300"
        ],
        "city": "TALLAHASSEE",
        "state": "FL",
        "postalCode": "32309-3573"
      },
      {
        "line": [
          "6714 WINKLER RD # R"
        ],
        "city": "FORT MYERS",
        "state": "FL",
        "postalCode": "33919-7204"
      },
      {
        "line": [
          "9401 CORKSCREW PALMS CIR # 310",
          "STE 300"
        ],
        "city": "ESTERO",
        "state": "FL",
        "postalCode": "33928-6275"
      },
      {
        "line": [
          "1737 N Clyde Morris Blvd",
          "Ste 300"
        ],
        "city": "ORMOND BEACH",
        "state": "FL",
        "postalCode": "32174-5533"
      },
      {
        "line": [
          "2910 MAGUIRE RD STE 2002"
        ],
        "city": "OCOEE",
        "state": "FL",
        "postalCode": "34761-4742"
      },
      {
        "line": [
          "12590 Whitehall DR"
        ],
        "city": "FORT MYERS",
        "state": "FL",
        "postalCode": "33907-4680"
      },
      {
        "line": [
          "7623 LITTLE RD",
          "#300B"
        ],
        "city": "NEW PORT RICHEY",
        "state": "FL",
        "postalCode": "34654-5570"
      },
      {
        "line": [
          "1100 SOUTH OLYMPIA AVENUE"
        ],
        "city": "CLEWISTON",
        "state": "FL",
        "postalCode": "33440-4400"
      },
      {
        "line": [
          "2830 WINKLER AVENUE",
          "SUITE 207"
        ],
        "city": "FORT MYERS",
        "state": "FL",
        "postalCode": "33916-9301"
      },
      {
        "line": [
          "13101 Telecom Drive",
          "Ste 120"
        ],
        "city": "TAMPA",
        "state": "FL",
        "postalCode": "33637-0937"
      },
      {
        "line": [
          "1115 E GONZALEZ ST"
        ],
        "city": "PENSACOLA",
        "state": "FL",
        "postalCode": "32503-6050"
      },
      {
        "line": [
          "7751 Baymeadows Rd E",
          "Ste H"
        ],
        "city": "JACKSONVILLE",
        "state": "FL",
        "postalCode": "32256-5836"
      },
      {
        "line": [
          "1500 COLONIAL BLVD STE 233"
        ],
        "city": "FORT MYERS",
        "state": "FL",
        "postalCode": "33907-1042"
      },
      {
        "line": [
          "5825 ARGERIAN DR",
          "STE 101"
        ],
        "city": "WESLEY CHAPEL",
        "state": "FL",
        "postalCode": "33545-4140"
      },
      {
        "line": [
          "26455 S TAMIAMI TRL"
        ],
        "city": "BONITA SPRINGS",
        "state": "FL",
        "postalCode": "34134-7815"
      }
    ],
    "extension": [
      {
        "url": "https://fhir.athena.io/StructureDefinition/ah-practice",
        "valueReference": {
          "reference": "Organization/a-1.Practice-13142"
        }
      },
      {
        "url": "https://fhir.athena.io/StructureDefinition/ah-brand",
        "valueReference": {
          "reference": "Organization/a-13142.Brand-1"
        }
      }
    ]
  },
  "fullUrl": "urn:uuid:9b49b269-f167-5d1d-971c-79a9e26505a3"
}