{
  "resource": {
    "resourceType": "Organization",
    "id": "ece8f84e-a60d-5722-bac4-543e587d49dd",
    "name": "Relievus",
    "endpoint": [
      {
        "reference": "Endpoint/27a4e967-47aa-5a9c-a572-b8297ee268a2"
      },
      {
        "reference": "Endpoint/db20a66d-b7fd-5f8d-bcb5-cbf7f33b0936"
      }
    ],
    "identifier": [
      {
        "system": "http://hl7.org/fhir/sid/us-npi",
        "value": "1730359084"
      }
    ],
    "address": [
      {
        "line": [
          "310 EGG HARBOR RD"
        ],
        "city": "SEWELL",
        "state": "NJ",
        "postalCode": "08080-1854"
      },
      {
        "line": [
          "2 8TH ST"
        ],
        "city": "HAMMONTON",
        "state": "NJ",
        "postalCode": "08037-3347"
      },
      {
        "line": [
          "9815 ROOSEVELT BLVD STE J"
        ],
        "city": "PHILADELPHIA",
        "state": "PA",
        "postalCode": "19114-1035"
      },
      {
        "line": [
          "415 W LANDIS AVE STE 102"
        ],
        "city": "VINELAND",
        "state": "NJ",
        "postalCode": "08360-8135"
      },
      {
        "line": [
          "1820 Corlies Avenue",
          "Suite 10A"
        ],
        "city": "NEPTUNE",
        "state": "NJ",
        "postalCode": "07753-4989"
      },
      {
        "line": [
          "27 S COOKS BRIDGE RD STE 2-11"
        ],
        "city": "JACKSON",
        "state": "NJ",
        "postalCode": "08527-2463"
      },
      {
        "line": [
          "429 WHITE HORSE PIKE"
        ],
        "city": "ATCO",
        "state": "NJ",
        "postalCode": "08004-2227"
      },
      {
        "line": [
          "1929 FRUITVILLE PIKE"
        ],
        "city": "LANCASTER",
        "state": "PA",
        "postalCode": "17601-3915"
      },
      {
        "line": [
          "2760 CENTURY BLVD STE 2"
        ],
        "city": "WYOMISSING",
        "state": "PA",
        "postalCode": "19610-3359"
      },
      {
        "line": [
          "227 MADISON AVE"
        ],
        "city": "LUMBERTON",
        "state": "NJ",
        "postalCode": "08048-2901"
      },
      {
        "line": [
          "3100 HINGSTON AVE STE 104"
        ],
        "city": "EGG HARBOR TOWNSHIP",
        "state": "NJ",
        "postalCode": "08234-4409"
      },
      {
        "line": [
          "4307 WESTFIELD AVE"
        ],
        "city": "PENNSAUKEN",
        "state": "NJ",
        "postalCode": "08110-3023"
      },
      {
        "line": [
          "40 BEY LEA ROAD",
          "Suite C203"
        ],
        "city": "TOMS RIVER",
        "state": "NJ",
        "postalCode": "08753-2974"
      },
      {
        "line": [
          "215 SUNSET RD STE 201"
        ],
        "city": "WILLINGBORO",
        "state": "NJ",
        "postalCode": "08046-1108"
      },
      {
        "line": [
          "2186 STATE ROUTE 27 STE 2D"
        ],
        "city": "NORTH BRUNSWICK",
        "state": "NJ",
        "postalCode": "08902-1137"
      },
      {
        "line": [
          "700 E TOWNSHIP LINE RD"
        ],
        "city": "HAVERTOWN",
        "state": "PA",
        "postalCode": "19083-5733"
      },
      {
        "line": [
          "3001 BRIDGEBORO RD"
        ],
        "city": "DELRAN",
        "state": "NJ",
        "postalCode": "08075-9700"
      },
      {
        "line": [
          "750 MANTUA PIKE"
        ],
        "city": "WOODBURY HEIGHTS",
        "state": "NJ",
        "postalCode": "08097-1142"
      },
      {
        "line": [
          "400 CRESSON BLVD STE 110"
        ],
        "city": "PHOENIXVILLE",
        "state": "PA",
        "postalCode": "19460-6144"
      },
      {
        "line": [
          "3535 QUAKERBRIDGE RD STE 200"
        ],
        "city": "Hamilton",
        "state": "NJ",
        "postalCode": "08619-1200"
      },
      {
        "line": [
          "1400 MARLTON PIKE E"
        ],
        "city": "CHERRY HILL",
        "state": "NJ",
        "postalCode": "08034-2240"
      }
    ],
    "extension": [
      {
        "url": "https://fhir.athena.io/StructureDefinition/ah-practice",
        "valueReference": {
          "reference": "Organization/a-1.Practice-11679"
        }
      },
      {
        "url": "https://fhir.athena.io/StructureDefinition/ah-brand",
        "valueReference": {
          "reference": "Organization/a-11679.Brand-5"
        }
      }
    ]
  },
  "fullUrl": "urn:uuid:ece8f84e-a60d-5722-bac4-543e587d49dd"
}