{
  "resource": {
    "resourceType": "Organization",
    "id": "6100150d-a264-5e85-b636-92d0b900e773",
    "name": "Esperanza - Telemedicine/Virtual",
    "endpoint": [
      {
        "reference": "Endpoint/27a4e967-47aa-5a9c-a572-b8297ee268a2"
      },
      {
        "reference": "Endpoint/355c9191-b635-5258-987e-643fe21da1d1"
      }
    ],
    "identifier": [
      {
        "system": "http://hl7.org/fhir/sid/us-npi",
        "value": "1871349308"
      },
      {
        "system": "http://hl7.org/fhir/sid/us-npi",
        "value": "1578348736"
      },
      {
        "system": "http://hl7.org/fhir/sid/us-npi",
        "value": "1477812030"
      },
      {
        "system": "http://hl7.org/fhir/sid/us-npi",
        "value": "1467208900"
      },
      {
        "system": "http://hl7.org/fhir/sid/us-npi",
        "value": "1407458946"
      },
      {
        "system": "http://hl7.org/fhir/sid/us-npi",
        "value": "1659127199"
      },
      {
        "system": "http://hl7.org/fhir/sid/us-npi",
        "value": "1487124707"
      },
      {
        "system": "http://hl7.org/fhir/sid/us-npi",
        "value": "1669812582"
      },
      {
        "system": "http://hl7.org/fhir/sid/us-npi",
        "value": "1629759527"
      },
      {
        "system": "http://hl7.org/fhir/sid/us-npi",
        "value": "1124187125"
      },
      {
        "system": "http://hl7.org/fhir/sid/us-npi",
        "value": "1265114623"
      }
    ],
    "address": [
      {
        "line": [
          "310 S HALSTED ST"
        ],
        "city": "CHICAGO",
        "state": "IL",
        "postalCode": "60661-5406"
      },
      {
        "line": [
          "2724 W CERMAK RD"
        ],
        "city": "CHICAGO",
        "state": "IL",
        "postalCode": "60608-3510"
      },
      {
        "line": [
          "1500 S. Fairfield Ave."
        ],
        "city": "CHICAGO",
        "state": "IL",
        "postalCode": "60608-1782"
      },
      {
        "line": [
          "2875 W 19th St"
        ],
        "city": "CHICAGO",
        "state": "IL",
        "postalCode": "60623-3501"
      },
      {
        "line": [
          "4720 S California ave"
        ],
        "city": "CHICAGO",
        "state": "IL",
        "postalCode": "60632-2016"
      },
      {
        "line": [
          "2001 S California Ave",
          "Ste 100"
        ],
        "city": "CHICAGO",
        "state": "IL",
        "postalCode": "60608-2486"
      },
      {
        "line": [
          "1653 W Congress Pkwy"
        ],
        "city": "CHICAGO",
        "state": "IL",
        "postalCode": "60612-3833"
      },
      {
        "line": [
          "4900 S LAKE SHORE DR"
        ],
        "city": "CHICAGO",
        "state": "IL",
        "postalCode": "60615-3277"
      },
      {
        "line": [
          "6550 S. Richmond"
        ],
        "city": "CHICAGO",
        "state": "IL",
        "postalCode": "60629-2821"
      },
      {
        "line": [
          "320 S PLYMOUTH CT"
        ],
        "city": "CHICAGO",
        "state": "IL",
        "postalCode": "60604-3802"
      },
      {
        "line": [
          "2850 W 24TH BLVD"
        ],
        "city": "CHICAGO",
        "state": "IL",
        "postalCode": "60623-3508"
      },
      {
        "line": [
          "2400 S MARSHALL BLVD"
        ],
        "city": "CHICAGO",
        "state": "IL",
        "postalCode": "60623-4146"
      },
      {
        "line": [
          "2819 W 21st Pl"
        ],
        "city": "CHICAGO",
        "state": "IL",
        "postalCode": "60623-3503"
      }
    ],
    "extension": [
      {
        "url": "https://fhir.athena.io/StructureDefinition/ah-practice",
        "valueReference": {
          "reference": "Organization/a-1.Practice-11903"
        }
      },
      {
        "url": "https://fhir.athena.io/StructureDefinition/ah-brand",
        "valueReference": {
          "reference": "Organization/a-11903.Brand-1"
        }
      }
    ]
  },
  "fullUrl": "urn:uuid:6100150d-a264-5e85-b636-92d0b900e773"
}