{
  "resource": {
    "resourceType": "Organization",
    "id": "76dbbec1-e52b-5217-923c-db145febd2e3",
    "name": "MASKIL INTERNAL MEDICINE",
    "endpoint": [
      {
        "reference": "Endpoint/27a4e967-47aa-5a9c-a572-b8297ee268a2"
      },
      {
        "reference": "Endpoint/70d45ae0-6f7a-54c7-947d-25c11373a25a"
      }
    ],
    "identifier": [
      {
        "system": "http://hl7.org/fhir/sid/us-npi",
        "value": "1194810846"
      }
    ],
    "address": [
      {
        "line": [
          "123 s pearl st"
        ],
        "city": "BERLIN",
        "state": "WI",
        "postalCode": "54923-2059"
      },
      {
        "line": [
          "n2641 17th lane"
        ],
        "city": "WAUTOMA",
        "state": "WI",
        "postalCode": "54982-5236"
      },
      {
        "line": [
          "401 preston lane"
        ],
        "city": "REDGRANITE",
        "state": "WI",
        "postalCode": "54970-9998"
      },
      {
        "line": [
          "1100 E BANNERMAN AVE"
        ],
        "city": "REDGRANITE",
        "state": "WI",
        "postalCode": "54970-9320"
      },
      {
        "line": [
          "540 w prairie st"
        ],
        "city": "WAUTOMA",
        "state": "WI",
        "postalCode": "54982-9998"
      },
      {
        "line": [
          "284 mounds st"
        ],
        "city": "BERLIN",
        "state": "WI",
        "postalCode": "54923-1939"
      },
      {
        "line": [
          "609 broadway st"
        ],
        "city": "BERLIN",
        "state": "WI",
        "postalCode": "54923-1357"
      },
      {
        "line": [
          "1100 E. Bannerman"
        ],
        "city": "REDGRANITE",
        "state": "WI",
        "postalCode": "54970-9320"
      }
    ],
    "extension": [
      {
        "url": "https://fhir.athena.io/StructureDefinition/ah-practice",
        "valueReference": {
          "reference": "Organization/a-1.Practice-14988"
        }
      },
      {
        "url": "https://fhir.athena.io/StructureDefinition/ah-brand",
        "valueReference": {
          "reference": "Organization/a-14988.Brand-1"
        }
      }
    ]
  },
  "fullUrl": "urn:uuid:76dbbec1-e52b-5217-923c-db145febd2e3"
}