{
  "resource": {
    "resourceType": "Organization",
    "id": "c954bb6b-6232-5087-8514-78ad552dd7a9",
    "name": "Same as department name",
    "endpoint": [
      {
        "reference": "Endpoint/27a4e967-47aa-5a9c-a572-b8297ee268a2"
      },
      {
        "reference": "Endpoint/6cff4a3b-7923-5084-ae0f-fee19252b888"
      }
    ],
    "identifier": [
      {
        "system": "http://hl7.org/fhir/sid/us-npi",
        "value": "1538686498"
      }
    ],
    "address": [
      {
        "line": [
          "202 N Park Avenue",
          "Suite 500"
        ],
        "city": "APOPKA",
        "state": "FL",
        "postalCode": "32703-4148"
      },
      {
        "line": [
          "701 Lake Port Blvd"
        ],
        "city": "LEESBURG",
        "state": "FL",
        "postalCode": "34748-7674"
      },
      {
        "line": [
          "955 Stonewood Lane"
        ],
        "city": "MAITLAND",
        "state": "FL",
        "postalCode": "32751-3238"
      },
      {
        "line": [
          "2560 Shady Lane"
        ],
        "city": "ORANGE CITY",
        "state": "FL",
        "postalCode": "32763-9118"
      },
      {
        "line": [
          "920 Versailles Cir"
        ],
        "city": "MAITLAND",
        "state": "FL",
        "postalCode": "32751-4567"
      },
      {
        "line": [
          "125 N. Spring Lake Dr"
        ],
        "city": "ALTAMONTE SPRINGS",
        "state": "FL",
        "postalCode": "32714-3407"
      },
      {
        "line": [
          "906 Spring Valley road"
        ],
        "city": "ALTAMONTE SPRINGS",
        "state": "FL",
        "postalCode": "32714-6517"
      },
      {
        "line": [
          "601 E Altamonte Ave"
        ],
        "city": "ALTAMONTE SPRINGS",
        "state": "FL",
        "postalCode": "32701-4802"
      },
      {
        "line": [
          "101 Clyde Morris Blvd"
        ],
        "city": "ORMOND BEACH",
        "state": "FL",
        "postalCode": "32174-8230"
      },
      {
        "line": [
          "2100 Ocoee Apopka Road"
        ],
        "city": "APOPKA",
        "state": "FL",
        "postalCode": "32703-9210"
      },
      {
        "line": [
          "901 Veterans Memorial Pkwy"
        ],
        "city": "ORANGE CITY",
        "state": "FL",
        "postalCode": "32763-6200"
      },
      {
        "line": [
          "200 North Lakemont Ave"
        ],
        "city": "WINTER PARK",
        "state": "FL",
        "postalCode": "32792-3273"
      },
      {
        "line": [
          "13798 Cygnus Drive"
        ],
        "city": "ORLANDO",
        "state": "FL",
        "postalCode": "32828-9375"
      },
      {
        "line": [
          "1381 Citrus Tower Blvd",
          "Suite 103"
        ],
        "city": "CLERMONT",
        "state": "FL",
        "postalCode": "34711-1957"
      },
      {
        "line": [
          "3650 South Hwy 27"
        ],
        "city": "CLERMONT",
        "state": "FL",
        "postalCode": "34711-6736"
      },
      {
        "line": [
          "5501 East Michigan Street,"
        ],
        "city": "ORLANDO",
        "state": "FL",
        "postalCode": "32822-2779"
      },
      {
        "line": [
          "710 N Sun Drive"
        ],
        "city": "LAKE MARY",
        "state": "FL",
        "postalCode": "32746-2507"
      },
      {
        "line": [
          "2701 Howell Branch Rd"
        ],
        "city": "WINTER PARK",
        "state": "FL",
        "postalCode": "32792-6261"
      },
      {
        "line": [
          "1350 S. Hickory St."
        ],
        "city": "MELBOURNE",
        "state": "FL",
        "postalCode": "32901-3224"
      },
      {
        "line": [
          "1516 Mont Calm St"
        ],
        "city": "ORLANDO",
        "state": "FL",
        "postalCode": "32806-7223"
      },
      {
        "line": [
          "8000 Red Bug Lake Road"
        ],
        "city": "OVIEDO",
        "state": "FL",
        "postalCode": "32765-9265"
      },
      {
        "line": [
          "15000 US HIGHWAY 441"
        ],
        "city": "EUSTIS",
        "state": "FL",
        "postalCode": "32726-6589"
      },
      {
        "line": [
          "101 E. Florida Ave"
        ],
        "city": "MELBOURNE",
        "state": "FL",
        "postalCode": "32901-8301"
      },
      {
        "line": [
          "14514 Storys Ford Rd"
        ],
        "city": "ORLANDO",
        "state": "FL",
        "postalCode": "32832-6400"
      },
      {
        "line": [
          "2511 N John Young Pkwy"
        ],
        "city": "KISSIMMEE",
        "state": "FL",
        "postalCode": "34741-1653"
      },
      {
        "line": [
          "1501 Granada Blvd"
        ],
        "city": "KISSIMMEE",
        "state": "FL",
        "postalCode": "34746-3619"
      },
      {
        "line": [
          "151 E Minnehaha Ave"
        ],
        "city": "CLERMONT",
        "state": "FL",
        "postalCode": "34711-3424"
      },
      {
        "line": [
          "2014 South Orange Avenue",
          "Suite 100"
        ],
        "city": "ORLANDO",
        "state": "FL",
        "postalCode": "32806-3069"
      },
      {
        "line": [
          "1001 Alabaster Way"
        ],
        "city": "DELTONA",
        "state": "FL",
        "postalCode": "32725-4324"
      },
      {
        "line": [
          "1111 Lakemont Ave"
        ],
        "city": "WINTER PARK",
        "state": "FL",
        "postalCode": "32792-5496"
      },
      {
        "line": [
          "1801 Monastery Rd"
        ],
        "city": "ORANGE CITY",
        "state": "FL",
        "postalCode": "32763-6320"
      },
      {
        "line": [
          "160 Islander Ct"
        ],
        "city": "LONGWOOD",
        "state": "FL",
        "postalCode": "32750-4925"
      },
      {
        "line": [
          "7221 Udine Ave"
        ],
        "city": "ORLANDO",
        "state": "FL",
        "postalCode": "32819-8446"
      },
      {
        "line": [
          "875 Cynthianna Cir"
        ],
        "city": "ALTAMONTE SPRINGS",
        "state": "FL",
        "postalCode": "32701-6858"
      },
      {
        "line": [
          "365 Garden Edge Point"
        ],
        "city": "CASSELBERRY",
        "state": "FL",
        "postalCode": "32730-2819"
      },
      {
        "line": [
          "2216 Miscindy Place"
        ],
        "city": "ORLANDO",
        "state": "FL",
        "postalCode": "32806-6408"
      },
      {
        "line": [
          "1055 Saxon Blvd"
        ],
        "city": "ORANGE CITY",
        "state": "FL",
        "postalCode": "32763-8468"
      },
      {
        "line": [
          "2000 Fowler Grove Blvd"
        ],
        "city": "WINTER GARDEN",
        "state": "FL",
        "postalCode": "34787-5050"
      },
      {
        "line": [
          "26732 Bloomfield Ave"
        ],
        "city": "YALAHA",
        "state": "FL",
        "postalCode": "34797-3415"
      },
      {
        "line": [
          "13798 Cygnus Dr"
        ],
        "city": "ORLANDO",
        "state": "FL",
        "postalCode": "32828-9375"
      },
      {
        "line": [
          "4031 Quenita Dr"
        ],
        "city": "WINTER PARK",
        "state": "FL",
        "postalCode": "32792-8941"
      },
      {
        "line": [
          "1307 South International Pkwy",
          "Suite 1061"
        ],
        "city": "LAKE MARY",
        "state": "FL",
        "postalCode": "32746-1412"
      },
      {
        "line": [
          "1405 S. Orange Ave"
        ],
        "city": "ORLANDO",
        "state": "FL",
        "postalCode": "32806-2147"
      },
      {
        "line": [
          "1414 Kuhl Ave"
        ],
        "city": "ORLANDO",
        "state": "FL",
        "postalCode": "32806-2008"
      },
      {
        "line": [
          "450 N McDonald Ave"
        ],
        "city": "DELAND",
        "state": "FL",
        "postalCode": "32724-3634"
      },
      {
        "line": [
          "515 Tivoli Court"
        ],
        "city": "ALTAMONTE SPRINGS",
        "state": "FL",
        "postalCode": "32701-6826"
      },
      {
        "line": [
          "699 N Dixie Hwy"
        ],
        "city": "NEW SMYRNA BEACH",
        "state": "FL",
        "postalCode": "32168-6415"
      },
      {
        "line": [
          "202 N Park Avenue"
        ],
        "city": "APOPKA",
        "state": "FL",
        "postalCode": "32703-4148"
      },
      {
        "line": [
          "4805 East Lake Dr"
        ],
        "city": "WINTER SPRINGS",
        "state": "FL",
        "postalCode": "32708-4606"
      },
      {
        "line": [
          "5579 S. Orange Ave"
        ],
        "city": "ORLANDO",
        "state": "FL",
        "postalCode": "32809-3493"
      },
      {
        "line": [
          "369 Fairgreen Pl"
        ],
        "city": "CASSELBERRY",
        "state": "FL",
        "postalCode": "32707-5205"
      },
      {
        "line": [
          "4034 Eagle Feather Dr"
        ],
        "city": "ORLANDO",
        "state": "FL",
        "postalCode": "32829-8433"
      },
      {
        "line": [
          "1047 Princess Gate Blvd"
        ],
        "city": "WINTER PARK",
        "state": "FL",
        "postalCode": "32792-6128"
      },
      {
        "line": [
          "70 Town Court"
        ],
        "city": "PALM COAST",
        "state": "FL",
        "postalCode": "32164-2540"
      },
      {
        "line": [
          "851 Dunlawton Ave",
          "Suite 202"
        ],
        "city": "PORT ORANGE",
        "state": "FL",
        "postalCode": "32127-4233"
      },
      {
        "line": [
          "451 South Amelia Ave"
        ],
        "city": "DELAND",
        "state": "FL",
        "postalCode": "32724-5917"
      },
      {
        "line": [
          "1370 Celebration Blvd"
        ],
        "city": "KISSIMMEE",
        "state": "FL",
        "postalCode": "34747-5546"
      },
      {
        "line": [
          "955 Tuskawilla Rd"
        ],
        "city": "WINTER SPRINGS",
        "state": "FL",
        "postalCode": "32708-4401"
      },
      {
        "line": [
          "3119 Florene Dr"
        ],
        "city": "ORLANDO",
        "state": "FL",
        "postalCode": "32806-6419"
      },
      {
        "line": [
          "1261 Blackwood Avenue"
        ],
        "city": "OCOEE",
        "state": "FL",
        "postalCode": "34761-4521"
      },
      {
        "line": [
          "3040 Blane Circle"
        ],
        "city": "DELTONA",
        "state": "FL",
        "postalCode": "32738-5328"
      },
      {
        "line": [
          "301 E. Rollins St."
        ],
        "city": "ORLANDO",
        "state": "FL",
        "postalCode": "32804-5520"
      },
      {
        "line": [
          "2650 Derbyshire Rd"
        ],
        "city": "MAITLAND",
        "state": "FL",
        "postalCode": "32751-3666"
      },
      {
        "line": [
          "901 N Hiawassee Rd"
        ],
        "city": "ORLANDO",
        "state": "FL",
        "postalCode": "32818-6708"
      },
      {
        "line": [
          "1601 S. Apollo Boulevard"
        ],
        "city": "MELBOURNE",
        "state": "FL",
        "postalCode": "32901-4484"
      },
      {
        "line": [
          "22 West Underwood St."
        ],
        "city": "ORLANDO",
        "state": "FL",
        "postalCode": "32806-1110"
      },
      {
        "line": [
          "819 East Oak Street"
        ],
        "city": "KISSIMMEE",
        "state": "FL",
        "postalCode": "34744-5842"
      },
      {
        "line": [
          "1411 El Paso Ave"
        ],
        "city": "ORLANDO",
        "state": "FL",
        "postalCode": "32806-2584"
      },
      {
        "line": [
          "2111 Glenwood Drive",
          "Suite 104"
        ],
        "city": "WINTER PARK",
        "state": "FL",
        "postalCode": "32792-3328"
      },
      {
        "line": [
          "70 W Lucerne Cir"
        ],
        "city": "ORLANDO",
        "state": "FL",
        "postalCode": "32801-3762"
      },
      {
        "line": [
          "600 N Econlockhatchee Trail"
        ],
        "city": "ORLANDO",
        "state": "FL",
        "postalCode": "32825-6402"
      },
      {
        "line": [
          "2250 S Semoran Blvd"
        ],
        "city": "ORLANDO",
        "state": "FL",
        "postalCode": "32822-2704"
      },
      {
        "line": [
          "250 N Alafaya Trail",
          "Suite 115"
        ],
        "city": "ORLANDO",
        "state": "FL",
        "postalCode": "32828-4336"
      },
      {
        "line": [
          "4055 Lake Forest Dr"
        ],
        "city": "MOUNT DORA",
        "state": "FL",
        "postalCode": "32757-5211"
      },
      {
        "line": [
          "499 E. Central Parkway",
          "Suite 120"
        ],
        "city": "ALTAMONTE SPRINGS",
        "state": "FL",
        "postalCode": "32701-3449"
      },
      {
        "line": [
          "7727 Lake Underhill"
        ],
        "city": "ORLANDO",
        "state": "FL",
        "postalCode": "32822-8224"
      },
      {
        "line": [
          "8745 N Wickham Rd"
        ],
        "city": "MELBOURNE",
        "state": "FL",
        "postalCode": "32940-5997"
      },
      {
        "line": [
          "15000 US Highway 441c"
        ],
        "city": "EUSTIS",
        "state": "FL",
        "postalCode": "32726-6589"
      },
      {
        "line": [
          "210 W 4th St."
        ],
        "city": "CLERMONT",
        "state": "FL",
        "postalCode": "34711-6736"
      },
      {
        "line": [
          "5501 East Michigan St."
        ],
        "city": "ORLANDO",
        "state": "FL",
        "postalCode": "32822-2779"
      },
      {
        "line": [
          "201 Rosefield Ave"
        ],
        "city": "LEESBURG",
        "state": "FL",
        "postalCode": "34748-5014"
      },
      {
        "line": [
          "6000 Turkey Lake Road",
          "Suite 108"
        ],
        "city": "ORLANDO",
        "state": "FL",
        "postalCode": "32819-4200"
      },
      {
        "line": [
          "3619 Rothbury Dr"
        ],
        "city": "ORLANDO",
        "state": "FL",
        "postalCode": "32812-2211"
      },
      {
        "line": [
          "1410 Hand Ave"
        ],
        "city": "ORMOND BEACH",
        "state": "FL",
        "postalCode": "32174-6956"
      },
      {
        "line": [
          "7727 Lake Underhill Rd"
        ],
        "city": "ORLANDO",
        "state": "FL",
        "postalCode": "32822-8224"
      },
      {
        "line": [
          "618 East Central Blvd"
        ],
        "city": "ORLANDO",
        "state": "FL",
        "postalCode": "32801-2948"
      },
      {
        "line": [
          "339 Cypress Parkway",
          "Suite 240"
        ],
        "city": "KISSIMMEE",
        "state": "FL",
        "postalCode": "34759-3315"
      },
      {
        "line": [
          "325 S Segrave St"
        ],
        "city": "DAYTONA BEACH",
        "state": "FL",
        "postalCode": "32114-4815"
      },
      {
        "line": [
          "801 Aredenleigh Dr"
        ],
        "city": "ORLANDO",
        "state": "FL",
        "postalCode": "32828-8655"
      },
      {
        "line": [
          "215 Annie St"
        ],
        "city": "ORLANDO",
        "state": "FL",
        "postalCode": "32806-1207"
      },
      {
        "line": [
          "2992 DAY ROAD"
        ],
        "city": "DELTONA",
        "state": "FL",
        "postalCode": "32738-3456"
      },
      {
        "line": [
          "404 Spring Valley Road"
        ],
        "city": "ALTAMONTE SPRINGS",
        "state": "FL",
        "postalCode": "32714-5845"
      },
      {
        "line": [
          "200 N Lakemont Ave"
        ],
        "city": "WINTER PARK",
        "state": "FL",
        "postalCode": "32792-3273"
      },
      {
        "line": [
          "920 Versailles Cir"
        ],
        "city": "APOPKA",
        "state": "FL",
        "postalCode": "32712-2921"
      },
      {
        "line": [
          "3151 Granada Blvd"
        ],
        "city": "KISSIMMEE",
        "state": "FL",
        "postalCode": "34746-3699"
      },
      {
        "line": [
          "8341 Lake Crowell Cir"
        ],
        "city": "ORLANDO",
        "state": "FL",
        "postalCode": "32836-5931"
      },
      {
        "line": [
          "1410 Hand Ave"
        ],
        "city": "ORMOND BEACH",
        "state": "FL",
        "postalCode": "32174-8193"
      },
      {
        "line": [
          "1525 Budinger Ave."
        ],
        "city": "SAINT CLOUD",
        "state": "FL",
        "postalCode": "34769-4140"
      },
      {
        "line": [
          "1481 Glastonberry Rd"
        ],
        "city": "MAITLAND",
        "state": "FL",
        "postalCode": "32751-3569"
      },
      {
        "line": [
          "405 Kimberly  Court"
        ],
        "city": "SANFORD",
        "state": "FL",
        "postalCode": "32771-6006"
      },
      {
        "line": [
          "10417 Moss Park Road"
        ],
        "city": "ORLANDO",
        "state": "FL",
        "postalCode": "32832-5812"
      },
      {
        "line": [
          "15000 US Highway 441"
        ],
        "city": "EUSTIS",
        "state": "FL",
        "postalCode": "32726-6589"
      }
    ],
    "extension": [
      {
        "url": "https://fhir.athena.io/StructureDefinition/ah-practice",
        "valueReference": {
          "reference": "Organization/a-1.Practice-4399"
        }
      },
      {
        "url": "https://fhir.athena.io/StructureDefinition/ah-brand",
        "valueReference": {
          "reference": "Organization/a-4399.Brand-14"
        }
      }
    ]
  },
  "fullUrl": "urn:uuid:c954bb6b-6232-5087-8514-78ad552dd7a9"
}