{
  "resource": {
    "resourceType": "Organization",
    "id": "3528fcc1-5bc7-5ccc-b9f8-18cae0a97614",
    "name": "GNOCHC Avondale",
    "endpoint": [
      {
        "reference": "Endpoint/27a4e967-47aa-5a9c-a572-b8297ee268a2"
      },
      {
        "reference": "Endpoint/489c0d24-eacd-5588-aa8a-1a1ed4bfde45"
      }
    ],
    "identifier": [
      {
        "system": "http://hl7.org/fhir/sid/us-npi",
        "value": "1205470432"
      },
      {
        "system": "http://hl7.org/fhir/sid/us-npi",
        "value": "1467792713"
      },
      {
        "system": "http://hl7.org/fhir/sid/us-npi",
        "value": "1962997569"
      },
      {
        "system": "http://hl7.org/fhir/sid/us-npi",
        "value": "1295314318"
      },
      {
        "system": "http://hl7.org/fhir/sid/us-npi",
        "value": "1558419275"
      },
      {
        "system": "http://hl7.org/fhir/sid/us-npi",
        "value": "1649406497"
      },
      {
        "system": "http://hl7.org/fhir/sid/us-npi",
        "value": "1265883904"
      },
      {
        "system": "http://hl7.org/fhir/sid/us-npi",
        "value": "1811123664"
      }
    ],
    "address": [
      {
        "line": [
          "3932 US Hwy 90"
        ],
        "city": "WESTWEGO",
        "state": "LA",
        "postalCode": "70094-2648"
      },
      {
        "line": [
          "3092 US Hwy 90"
        ],
        "city": "WESTWEGO",
        "state": "LA",
        "postalCode": "70094-2648"
      },
      {
        "line": [
          "2500 BELLE CHASSE HWY"
        ],
        "city": "GRETNA",
        "state": "LA",
        "postalCode": "70056-7127"
      },
      {
        "line": [
          "3932 U.S Highway 90"
        ],
        "city": "WESTWEGO",
        "state": "LA",
        "postalCode": "70094-2648"
      },
      {
        "line": [
          "7001 Lapalco Blvd"
        ],
        "city": "MARRERO",
        "state": "LA",
        "postalCode": "70072-4503"
      },
      {
        "line": [
          "7201 Lapalco Blvd"
        ],
        "city": "MARRERO",
        "state": "LA",
        "postalCode": "70072-4598"
      },
      {
        "line": [
          "200 HENRY CLAY AVE"
        ],
        "city": "NEW ORLEANS",
        "state": "LA",
        "postalCode": "70118-5720"
      },
      {
        "line": [
          "7001 Lapalco Blvd"
        ],
        "city": "MARRERO",
        "state": "LA",
        "postalCode": "70072-4329"
      },
      {
        "line": [
          "2552 Williams Blvd"
        ],
        "city": "KENNER",
        "state": "LA",
        "postalCode": "70062-5538"
      },
      {
        "line": [
          "5140 Church St"
        ],
        "city": "LAFITTE",
        "state": "LA",
        "postalCode": "70067-5256"
      },
      {
        "line": [
          "2000 CANAL ST"
        ],
        "city": "NEW ORLEANS",
        "state": "LA",
        "postalCode": "70112-3018"
      },
      {
        "line": [
          "1101 MEDICAL CENTER BLVD"
        ],
        "city": "MARRERO",
        "state": "LA",
        "postalCode": "70072-3151"
      },
      {
        "line": [
          "2552 WILLIAMS BLVD."
        ],
        "city": "KENNER",
        "state": "LA",
        "postalCode": "70062-5538"
      }
    ],
    "extension": [
      {
        "url": "https://fhir.athena.io/StructureDefinition/ah-practice",
        "valueReference": {
          "reference": "Organization/a-1.Practice-12324"
        }
      },
      {
        "url": "https://fhir.athena.io/StructureDefinition/ah-brand",
        "valueReference": {
          "reference": "Organization/a-12324.Brand-1"
        }
      }
    ]
  },
  "fullUrl": "urn:uuid:3528fcc1-5bc7-5ccc-b9f8-18cae0a97614"
}