{
  "resource": {
    "resourceType": "Organization",
    "id": "a867997a-a9ea-5a57-ac4c-89f0b95a0c0c",
    "name": "Santa Rosa Phys Mgmnt LLC",
    "endpoint": [
      {
        "reference": "Endpoint/27a4e967-47aa-5a9c-a572-b8297ee268a2"
      },
      {
        "reference": "Endpoint/d3ed0684-c687-51c1-93e2-1e40b8af920e"
      }
    ],
    "identifier": [
      {
        "system": "http://hl7.org/fhir/sid/us-npi",
        "value": "1982384988"
      },
      {
        "system": "http://hl7.org/fhir/sid/us-npi",
        "value": "1730969502"
      },
      {
        "system": "http://hl7.org/fhir/sid/us-npi",
        "value": "1447365366"
      }
    ],
    "address": [
      {
        "line": [
          "9934 ROSE TRL"
        ],
        "city": "ELLICOTT CITY",
        "state": "MD",
        "postalCode": "21042-1686"
      },
      {
        "line": [
          "2700 VALPARAISO ST UNIT 2151"
        ],
        "city": "VALPARAISO",
        "state": "IN",
        "postalCode": "46384-3674"
      },
      {
        "line": [
          "12105 AUTUMN SUNRISE DR"
        ],
        "city": "JACKSONVILLE",
        "state": "FL",
        "postalCode": "32246-9357"
      },
      {
        "line": [
          "3754 HIGHWAY 90 STE 310"
        ],
        "city": "Pace",
        "state": "FL",
        "postalCode": "32570-1013"
      },
      {
        "line": [
          "637 FLYCATCHER LN"
        ],
        "city": "BLYTHEWOOD",
        "state": "SC",
        "postalCode": "29016-8041"
      },
      {
        "line": [
          "5360 Glover Lane"
        ],
        "city": "MILTON",
        "state": "FL",
        "postalCode": "32570-4189"
      },
      {
        "line": [
          "5992 BERRYHILL RD SUITE 203"
        ],
        "city": "MILTON",
        "state": "FL",
        "postalCode": "32570-1014"
      },
      {
        "line": [
          "3851 LUNA CT"
        ],
        "city": "ALTADENA",
        "state": "CA",
        "postalCode": "91001-3865"
      },
      {
        "line": [
          "1248 S HARBOR CITY BLVD"
        ],
        "city": "MELBOURNE",
        "state": "FL",
        "postalCode": "32901-3242"
      },
      {
        "line": [
          "7456 Navarre Parkway"
        ],
        "city": "NAVARRE",
        "state": "FL",
        "postalCode": "32566-8192"
      },
      {
        "line": [
          "6615 BEACHVIEW DR"
        ],
        "city": "RANCHO PALOS VERDES",
        "state": "CA",
        "postalCode": "90275-6923"
      },
      {
        "line": [
          "6072 DOCTOR'S PARK ROAD"
        ],
        "city": "MILTON",
        "state": "FL",
        "postalCode": "32570-5072"
      },
      {
        "line": [
          "2500 HARBOR BLVD"
        ],
        "city": "PORT CHARLOTTE",
        "state": "FL",
        "postalCode": "33952-5000"
      },
      {
        "line": [
          "6072 Doctors Park"
        ],
        "city": "MILTON",
        "state": "FL",
        "postalCode": "32570-5072"
      },
      {
        "line": [
          "4225 Woodbine RD",
          "SUITE F"
        ],
        "city": "MILTON",
        "state": "FL",
        "postalCode": "32571-8791"
      },
      {
        "line": [
          "528 TERHUNE ST"
        ],
        "city": "TEANECK",
        "state": "NJ",
        "postalCode": "07666-1644"
      },
      {
        "line": [
          "5978 BERRYHILL RD"
        ],
        "city": "MILTON",
        "state": "FL",
        "postalCode": "32570-4009"
      },
      {
        "line": [
          "4001 Cane Ridge Parkway"
        ],
        "city": "ANTIOCH",
        "state": "TN",
        "postalCode": "37013-2971"
      },
      {
        "line": [
          "5992 Berryhill Rd Ste 205"
        ],
        "city": "MILTON",
        "state": "FL",
        "postalCode": "32570-5270"
      },
      {
        "line": [
          "46 N CREEK RD"
        ],
        "city": "NORTHPORT",
        "state": "NY",
        "postalCode": "11768-1033"
      },
      {
        "line": [
          "5992 BERRYHILL RD",
          "205"
        ],
        "city": "MILTON",
        "state": "FL",
        "postalCode": "32570-1014"
      },
      {
        "line": [
          "6072 Doctors Park Road"
        ],
        "city": "MILTON",
        "state": "FL",
        "postalCode": "32570-5072"
      },
      {
        "line": [
          "7456 NAVARRE PKWY"
        ],
        "city": "NAVARRE",
        "state": "FL",
        "postalCode": "32566-4111"
      },
      {
        "line": [
          "4225 Woodbine Rd Suite A"
        ],
        "city": "MILTON",
        "state": "FL",
        "postalCode": "32571-8791"
      },
      {
        "line": [
          "4225 Woodbine RD",
          "SUITE A"
        ],
        "city": "MILTON",
        "state": "FL",
        "postalCode": "32571-8790"
      },
      {
        "line": [
          "5992 Berryhill Road Suite 301"
        ],
        "city": "MILTON",
        "state": "FL",
        "postalCode": "32570-5062"
      },
      {
        "line": [
          "6002 BERRYHILL RD"
        ],
        "city": "MILTON",
        "state": "FL",
        "postalCode": "32570-5062"
      },
      {
        "line": [
          "5151 N 9th Avenue"
        ],
        "city": "PENSACOLA",
        "state": "FL",
        "postalCode": "32504-8721"
      },
      {
        "line": [
          "5595 WOODBINE RD"
        ],
        "city": "MILTON",
        "state": "FL",
        "postalCode": "32571-8768"
      },
      {
        "line": [
          "5804 Dogwood Drive"
        ],
        "city": "MILTON",
        "state": "FL",
        "postalCode": "32570-3576"
      },
      {
        "line": [
          "4225 WOODBINE RD STE F"
        ],
        "city": "PACE",
        "state": "FL",
        "postalCode": "32571-8791"
      },
      {
        "line": [
          "5992 Berryhill Road STE 201"
        ],
        "city": "MILTON",
        "state": "FL",
        "postalCode": "32570-1014"
      },
      {
        "line": [
          "127C E Redstone Ave"
        ],
        "city": "CRESTVIEW",
        "state": "FL",
        "postalCode": "32539-5356"
      },
      {
        "line": [
          "6002 Berryhill Rd"
        ],
        "city": "MILTON",
        "state": "FL",
        "postalCode": "32570-5062"
      },
      {
        "line": [
          "3754 HIGHWAY 90 STE 310"
        ],
        "city": "MILTON",
        "state": "FL",
        "postalCode": "32570-1013"
      },
      {
        "line": [
          "5992 BERRYHILL RD",
          "SUITE 202"
        ],
        "city": "MILTON",
        "state": "FL",
        "postalCode": "32570-4009"
      },
      {
        "line": [
          "4264 AVALON BLVD"
        ],
        "city": "MILTON",
        "state": "FL",
        "postalCode": "32583-2808"
      }
    ],
    "extension": [
      {
        "url": "https://fhir.athena.io/StructureDefinition/ah-practice",
        "valueReference": {
          "reference": "Organization/a-1.Practice-4692"
        }
      },
      {
        "url": "https://fhir.athena.io/StructureDefinition/ah-brand",
        "valueReference": {
          "reference": "Organization/a-4692.Brand-27"
        }
      }
    ]
  },
  "fullUrl": "urn:uuid:a867997a-a9ea-5a57-ac4c-89f0b95a0c0c"
}