{
  "resource": {
    "resourceType": "Organization",
    "id": "9499a955-0129-589a-bec1-f4167aedae72",
    "name": "LAKE MEAD HEALTH & REHAB CENTER",
    "endpoint": [
      {
        "reference": "Endpoint/27a4e967-47aa-5a9c-a572-b8297ee268a2"
      },
      {
        "reference": "Endpoint/8756b300-37d5-505e-b5ea-a9a025c8f463"
      }
    ],
    "identifier": [
      {
        "system": "http://hl7.org/fhir/sid/us-npi",
        "value": "1205466265"
      },
      {
        "system": "http://hl7.org/fhir/sid/us-npi",
        "value": "1992556914"
      },
      {
        "system": "http://hl7.org/fhir/sid/us-npi",
        "value": "1568226579"
      },
      {
        "system": "http://hl7.org/fhir/sid/us-npi",
        "value": "1114371580"
      },
      {
        "system": "http://hl7.org/fhir/sid/us-npi",
        "value": "1093220006"
      },
      {
        "system": "http://hl7.org/fhir/sid/us-npi",
        "value": "1902949548"
      },
      {
        "system": "http://hl7.org/fhir/sid/us-npi",
        "value": "1376686915"
      },
      {
        "system": "http://hl7.org/fhir/sid/us-npi",
        "value": "1700129491"
      },
      {
        "system": "http://hl7.org/fhir/sid/us-npi",
        "value": "1376686949"
      },
      {
        "system": "http://hl7.org/fhir/sid/us-npi",
        "value": "1548765258"
      },
      {
        "system": "http://hl7.org/fhir/sid/us-npi",
        "value": "1932560729"
      },
      {
        "system": "http://hl7.org/fhir/sid/us-npi",
        "value": "1780062489"
      },
      {
        "system": "http://hl7.org/fhir/sid/us-npi",
        "value": "1164286092"
      },
      {
        "system": "http://hl7.org/fhir/sid/us-npi",
        "value": "1992525620"
      }
    ],
    "address": [
      {
        "line": [
          "44 GOETHALS DR"
        ],
        "city": "RICHLAND",
        "state": "WA",
        "postalCode": "99352-4619"
      },
      {
        "line": [
          "820 3RD AVE"
        ],
        "city": "LAUREL",
        "state": "MT",
        "postalCode": "59044-2023"
      },
      {
        "line": [
          "815 S 200 W"
        ],
        "city": "BRIGHAM CITY",
        "state": "UT",
        "postalCode": "84302-3333"
      },
      {
        "line": [
          "775 N 200 E"
        ],
        "city": "BRIGHAM CITY",
        "state": "UT",
        "postalCode": "84302-1303"
      },
      {
        "line": [
          "710 3RD ST"
        ],
        "city": "WINDSOR",
        "state": "CO",
        "postalCode": "80550-5484"
      },
      {
        "line": [
          "2200 N IRONWOOD PL"
        ],
        "city": "COEUR D ALENE",
        "state": "ID",
        "postalCode": "83814-2610"
      },
      {
        "line": [
          "2323 JENSEN ST"
        ],
        "city": "ENUMCLAW",
        "state": "WA",
        "postalCode": "98022-3605"
      },
      {
        "line": [
          "1637 29TH AVENUE PL"
        ],
        "city": "GREELEY",
        "state": "CO",
        "postalCode": "80634-6822"
      },
      {
        "line": [
          "2485 E Magicview Drive"
        ],
        "city": "MERIDIAN",
        "state": "ID",
        "postalCode": "83642-6243"
      },
      {
        "line": [
          "500 W AQUA AVE"
        ],
        "city": "COEUR D ALENE",
        "state": "ID",
        "postalCode": "83815-7764"
      },
      {
        "line": [
          "523 North Main Street"
        ],
        "city": "BOUNTIFUL",
        "state": "UT",
        "postalCode": "84010-8036"
      },
      {
        "line": [
          "850 27TH AVE"
        ],
        "city": "GREELEY",
        "state": "CO",
        "postalCode": "80634-5807"
      },
      {
        "line": [
          "160 N 200 E"
        ],
        "city": "IVINS",
        "state": "UT",
        "postalCode": "84738-6100"
      },
      {
        "line": [
          "414 S UNIVERSITY RD"
        ],
        "city": "SPOKANE",
        "state": "WA",
        "postalCode": "99206-5555"
      },
      {
        "line": [
          "2800 PALO PKWY"
        ],
        "city": "BOULDER",
        "state": "CO",
        "postalCode": "80301-1540"
      },
      {
        "line": [
          "820 NW 95TH ST"
        ],
        "city": "SEATTLE",
        "state": "WA",
        "postalCode": "98117-2207"
      },
      {
        "line": [
          "1201 E 4500 S"
        ],
        "city": "SALT LAKE CITY",
        "state": "UT",
        "postalCode": "84117-4124"
      },
      {
        "line": [
          "501 THORNTON PKWY"
        ],
        "city": "DENVER",
        "state": "CO",
        "postalCode": "80229-2101"
      },
      {
        "line": [
          "601 N 10TH ST"
        ],
        "city": "HAMILTON",
        "state": "MT",
        "postalCode": "59840-2060"
      },
      {
        "line": [
          "2898 US HIGHWAY 50 E"
        ],
        "city": "CARSON CITY",
        "state": "NV",
        "postalCode": "89701-2811"
      },
      {
        "line": [
          "150 N La Canada Dr"
        ],
        "city": "GREEN VALLEY",
        "state": "AZ",
        "postalCode": "85614-3129"
      },
      {
        "line": [
          "3131 S FEDERAL BLVD"
        ],
        "city": "DENVER",
        "state": "CO",
        "postalCode": "80236-2713"
      },
      {
        "line": [
          "1301 N Highlands Parkway"
        ],
        "city": "TACOMA",
        "state": "WA",
        "postalCode": "98406-2116"
      },
      {
        "line": [
          "420 SE MYRA RD"
        ],
        "city": "COLLEGE PLACE",
        "state": "WA",
        "postalCode": "99324-1796"
      },
      {
        "line": [
          "3121 SQUALICUM PKWY"
        ],
        "city": "BELLINGHAM",
        "state": "WA",
        "postalCode": "98225-1937"
      },
      {
        "line": [
          "924 W Kiowa St"
        ],
        "city": "COLORADO SPRINGS",
        "state": "CO",
        "postalCode": "80905-1424"
      },
      {
        "line": [
          "1001 MOUNTAIN ST"
        ],
        "city": "CARSON CITY",
        "state": "NV",
        "postalCode": "89703-3848"
      },
      {
        "line": [
          "1599 Ingalls St"
        ],
        "city": "DENVER",
        "state": "CO",
        "postalCode": "80214-1505"
      },
      {
        "line": [
          "13620 N 55th Ave"
        ],
        "city": "GLENDALE",
        "state": "AZ",
        "postalCode": "85304-1371"
      },
      {
        "line": [
          "1425 BELMONT DR"
        ],
        "city": "LONGMONT",
        "state": "CO",
        "postalCode": "80503-2358"
      },
      {
        "line": [
          "1000 E STUART ST"
        ],
        "city": "FORT COLLINS",
        "state": "CO",
        "postalCode": "80525-1555"
      },
      {
        "line": [
          "456 C ST"
        ],
        "city": "BLAINE",
        "state": "WA",
        "postalCode": "98230-4238"
      },
      {
        "line": [
          "2410 19TH ST SE"
        ],
        "city": "RIO RANCHO",
        "state": "NM",
        "postalCode": "87124-4857"
      },
      {
        "line": [
          "5000 E ARAPAHOE RD"
        ],
        "city": "LITTLETON",
        "state": "CO",
        "postalCode": "80122-2302"
      },
      {
        "line": [
          "2965 WIGWAM PKWY"
        ],
        "city": "HENDERSON",
        "state": "NV",
        "postalCode": "89074-2870"
      },
      {
        "line": [
          "2102 S 96TH ST"
        ],
        "city": "TACOMA",
        "state": "WA",
        "postalCode": "98444-1753"
      },
      {
        "line": [
          "9494 E BECKER LN"
        ],
        "city": "SCOTTSDALE",
        "state": "AZ",
        "postalCode": "85260-6720"
      },
      {
        "line": [
          "1100 N 400 E"
        ],
        "city": "NEPHI",
        "state": "UT",
        "postalCode": "84648-2202"
      },
      {
        "line": [
          "2105 12TH AVE RD"
        ],
        "city": "NAMPA",
        "state": "ID",
        "postalCode": "83686-6312"
      },
      {
        "line": [
          "4524 INTELCO LOOP SE"
        ],
        "city": "LACEY",
        "state": "WA",
        "postalCode": "98503-5941"
      },
      {
        "line": [
          "1012 W JORDAN RIVER BLVD"
        ],
        "city": "MIDVALE",
        "state": "UT",
        "postalCode": "84047-4865"
      },
      {
        "line": [
          "433 E 2700 S"
        ],
        "city": "SALT LAKE CITY",
        "state": "UT",
        "postalCode": "84115-3325"
      },
      {
        "line": [
          "916 PACIFIC AVE"
        ],
        "city": "EVERETT",
        "state": "WA",
        "postalCode": "98201-4147"
      },
      {
        "line": [
          "163 E 1000 N"
        ],
        "city": "RICHFIELD",
        "state": "UT",
        "postalCode": "84701-1880"
      },
      {
        "line": [
          "12791 W ALAMEDA PKWY"
        ],
        "city": "DENVER",
        "state": "CO",
        "postalCode": "80228-2838"
      },
      {
        "line": [
          "1685 EATON ST"
        ],
        "city": "DENVER",
        "state": "CO",
        "postalCode": "80214-1628"
      },
      {
        "line": [
          "1610 N Renaissance Blvd NE"
        ],
        "city": "ALBUQUERQUE",
        "state": "NM",
        "postalCode": "87107-7047"
      },
      {
        "line": [
          "4310 E Grant Rd"
        ],
        "city": "TUCSON",
        "state": "AZ",
        "postalCode": "85712-2607"
      },
      {
        "line": [
          "13747 S REDWOOD RD"
        ],
        "city": "RIVERTON",
        "state": "UT",
        "postalCode": "84065-5710"
      },
      {
        "line": [
          "2717 DEXTER AVE N"
        ],
        "city": "SEATTLE",
        "state": "WA",
        "postalCode": "98109-1914"
      },
      {
        "line": [
          "1301 E BROADWAY ST"
        ],
        "city": "MISSOULA",
        "state": "MT",
        "postalCode": "59802-4905"
      },
      {
        "line": [
          "9 14th Ave W"
        ],
        "city": "POLSON",
        "state": "MT",
        "postalCode": "59860-5321"
      },
      {
        "line": [
          "707 3RD ST SE"
        ],
        "city": "CUT BANK",
        "state": "MT",
        "postalCode": "59427-3500"
      },
      {
        "line": [
          "1960 S FORDHAM ST"
        ],
        "city": "LONGMONT",
        "state": "CO",
        "postalCode": "80503-7777"
      },
      {
        "line": [
          "10101 NE 120TH ST"
        ],
        "city": "KIRKLAND",
        "state": "WA",
        "postalCode": "98034-6622"
      },
      {
        "line": [
          "3220 ROSEDALE ST STE 200"
        ],
        "city": "GIG HARBOR",
        "state": "WA",
        "postalCode": "98335-1837"
      },
      {
        "line": [
          "2501 E 104TH AVE"
        ],
        "city": "DENVER",
        "state": "CO",
        "postalCode": "80233-4401"
      },
      {
        "line": [
          "1150 W FAIRVIEW ST"
        ],
        "city": "COLFAX",
        "state": "WA",
        "postalCode": "99111-9580"
      },
      {
        "line": [
          "7150 POPLAR ST"
        ],
        "city": "COMMERCE CITY",
        "state": "CO",
        "postalCode": "80022-2261"
      },
      {
        "line": [
          "9175 W OQUENDO RD"
        ],
        "city": "LAS VEGAS",
        "state": "NV",
        "postalCode": "89148-1234"
      },
      {
        "line": [
          "3600 E HARTSON AVE"
        ],
        "city": "SPOKANE",
        "state": "WA",
        "postalCode": "99202-5102"
      },
      {
        "line": [
          "3105 W ARKANSAS AVE"
        ],
        "city": "DENVER",
        "state": "CO",
        "postalCode": "80219-4004"
      },
      {
        "line": [
          "8825 S 7TH ST"
        ],
        "city": "PHOENIX",
        "state": "AZ",
        "postalCode": "85042-7626"
      },
      {
        "line": [
          "16640 N 38th st"
        ],
        "city": "PHOENIX",
        "state": "AZ",
        "postalCode": "85032-2103"
      },
      {
        "line": [
          "1500 3RD AVE"
        ],
        "city": "LONGVIEW",
        "state": "WA",
        "postalCode": "98632-3229"
      },
      {
        "line": [
          "1032 E 100 S"
        ],
        "city": "SAINT GEORGE",
        "state": "UT",
        "postalCode": "84770-3005"
      },
      {
        "line": [
          "2701 CALIFORNIA ST"
        ],
        "city": "PUEBLO",
        "state": "CO",
        "postalCode": "81004-3869"
      },
      {
        "line": [
          "1934 E RIVERSIDE DR"
        ],
        "city": "SAINT GEORGE",
        "state": "UT",
        "postalCode": "84790-8034"
      },
      {
        "line": [
          "1071 RENEE AVE"
        ],
        "city": "POCATELLO",
        "state": "ID",
        "postalCode": "83201-2508"
      },
      {
        "line": [
          "4285 HIGHLAND DR"
        ],
        "city": "SALT LAKE CITY",
        "state": "UT",
        "postalCode": "84124-2603"
      },
      {
        "line": [
          "2911 JUNCTION ST"
        ],
        "city": "DURANGO",
        "state": "CO",
        "postalCode": "81301-4134"
      },
      {
        "line": [
          "16455 E AVENUE OF THE FOUNTAINS"
        ],
        "city": "FOUNTAIN HILLS",
        "state": "AZ",
        "postalCode": "85268-8307"
      },
      {
        "line": [
          "3155 AVENUE C"
        ],
        "city": "BILLINGS",
        "state": "MT",
        "postalCode": "59102-8109"
      },
      {
        "line": [
          "523 N MAIN ST"
        ],
        "city": "BOUNTIFUL",
        "state": "UT",
        "postalCode": "84010-6036"
      },
      {
        "line": [
          "6246 S REDWOOD RD"
        ],
        "city": "SALT LAKE CITY",
        "state": "UT",
        "postalCode": "84123-6600"
      },
      {
        "line": [
          "3350 W AMERICANA TERRACE"
        ],
        "city": "BOISE",
        "state": "ID",
        "postalCode": "83706-2521"
      },
      {
        "line": [
          "2520 S REDWOOD RD"
        ],
        "city": "WEST VALLEY CITY",
        "state": "UT",
        "postalCode": "84119-2215"
      },
      {
        "line": [
          "855 FRANKLIN AVE"
        ],
        "city": "BERTHOUD",
        "state": "CO",
        "postalCode": "80513-1158"
      },
      {
        "line": [
          "1508 W 7TH AVE"
        ],
        "city": "KENNEWICK",
        "state": "WA",
        "postalCode": "99336-5260"
      },
      {
        "line": [
          "1795 MONTEREY RD"
        ],
        "city": "COLORADO SPRINGS",
        "state": "CO",
        "postalCode": "80910-1823"
      },
      {
        "line": [
          "2365 PATRIOT HTS"
        ],
        "city": "COLORADO SPRINGS",
        "state": "CO",
        "postalCode": "80904-5135"
      },
      {
        "line": [
          "1667 SAINT PAUL ST"
        ],
        "city": "DENVER",
        "state": "CO",
        "postalCode": "80206-1614"
      },
      {
        "line": [
          "6270 W 38TH AVE"
        ],
        "city": "WHEAT RIDGE",
        "state": "CO",
        "postalCode": "80033-5056"
      },
      {
        "line": [
          "2 STATE ROUTE 305"
        ],
        "city": "BATTLE MOUNTAIN",
        "state": "NV",
        "postalCode": "89820-4300"
      },
      {
        "line": [
          "961 KUENZLI ST"
        ],
        "city": "RENO",
        "state": "NV",
        "postalCode": "89502-1160"
      },
      {
        "line": [
          "151 E 3RD ST"
        ],
        "city": "PALISADE",
        "state": "CO",
        "postalCode": "81526-5006"
      },
      {
        "line": [
          "210 W LACROSSE AVE"
        ],
        "city": "COEUR D ALENE",
        "state": "ID",
        "postalCode": "83814-2403"
      },
      {
        "line": [
          "1625 CARR ST"
        ],
        "city": "DENVER",
        "state": "CO",
        "postalCode": "80214-5926"
      },
      {
        "line": [
          "418 E 1ST ST"
        ],
        "city": "ABERDEEN",
        "state": "WA",
        "postalCode": "98520-4116"
      },
      {
        "line": [
          "2750 NORTH DIGITAL DRIVE"
        ],
        "city": "LEHI",
        "state": "UT",
        "postalCode": "84043-6651"
      },
      {
        "line": [
          "50 E 9000 S"
        ],
        "city": "SANDY",
        "state": "UT",
        "postalCode": "84070-2201"
      },
      {
        "line": [
          "350 S 400 E"
        ],
        "city": "BOUNTIFUL",
        "state": "UT",
        "postalCode": "84010-4932"
      },
      {
        "line": [
          "1031 SW 130TH ST"
        ],
        "city": "SEATTLE",
        "state": "WA",
        "postalCode": "98146-3132"
      },
      {
        "line": [
          "13757 S Redwood Road"
        ],
        "city": "RIVERTON",
        "state": "UT",
        "postalCode": "84065-5712"
      },
      {
        "line": [
          "455 S 900 E"
        ],
        "city": "SALT LAKE CITY",
        "state": "UT",
        "postalCode": "84102-2933"
      },
      {
        "line": [
          "924 W KIOWA ST"
        ],
        "city": "COLORADO SPRINGS",
        "state": "CO",
        "postalCode": "80905-1424"
      },
      {
        "line": [
          "PO BOX 819"
        ],
        "city": "SOAP LAKE",
        "state": "WA",
        "postalCode": "98851-0819"
      },
      {
        "line": [
          "1301 N Highlands Parkway"
        ],
        "city": "TACOMA",
        "state": "WA",
        "postalCode": "98406-6100"
      },
      {
        "line": [
          "1420 S 3RD AVE"
        ],
        "city": "STERLING",
        "state": "CO",
        "postalCode": "80751-4650"
      },
      {
        "line": [
          "1475 N GRANITE REEF RD"
        ],
        "city": "SCOTTSDALE",
        "state": "AZ",
        "postalCode": "85257-3919"
      },
      {
        "line": [
          "1100 North 400 East"
        ],
        "city": "NEPHI",
        "state": "UT",
        "postalCode": "84648-2202"
      },
      {
        "line": [
          "2611 N WARREN AVE"
        ],
        "city": "TUCSON",
        "state": "AZ",
        "postalCode": "85719-3160"
      },
      {
        "line": [
          "12975 Sheridan Blvd"
        ],
        "city": "Broomfield",
        "state": "CO",
        "postalCode": "80020-1477"
      },
      {
        "line": [
          "1001 N 500 W"
        ],
        "city": "PROVO",
        "state": "UT",
        "postalCode": "84604-3305"
      },
      {
        "line": [
          "115 INGALLS ST"
        ],
        "city": "Lakewood",
        "state": "CO",
        "postalCode": "80226-1815"
      },
      {
        "line": [
          "7501 E THOMPSON PEAK PKWY"
        ],
        "city": "SCOTTSDALE",
        "state": "AZ",
        "postalCode": "85255-4525"
      },
      {
        "line": [
          "320 N 8th St"
        ],
        "city": "HOLLY",
        "state": "CO",
        "postalCode": "81047-0636"
      },
      {
        "line": [
          "9398 Crown Crest Blvd"
        ],
        "city": "PARKER",
        "state": "CO",
        "postalCode": "80138-8573"
      },
      {
        "line": [
          "3835 HARLAN ST"
        ],
        "city": "WHEAT RIDGE",
        "state": "CO",
        "postalCode": "80033-5111"
      },
      {
        "line": [
          "2719 N UNION BLVD"
        ],
        "city": "COLORADO SPRINGS",
        "state": "CO",
        "postalCode": "80909-1145"
      },
      {
        "line": [
          "3520 S HIGHLAND DR"
        ],
        "city": "SALT LAKE CITY",
        "state": "UT",
        "postalCode": "84106-3211"
      },
      {
        "line": [
          "808 N CURTIS RD"
        ],
        "city": "BOISE",
        "state": "ID",
        "postalCode": "83706-1306"
      },
      {
        "line": [
          "1151 S TORREY PINES DR"
        ],
        "city": "LAS VEGAS",
        "state": "NV",
        "postalCode": "89146-9051"
      },
      {
        "line": [
          "1365 W 29TH ST"
        ],
        "city": "LOVELAND",
        "state": "CO",
        "postalCode": "80538-2561"
      },
      {
        "line": [
          "360 CANYON RIDGE DR"
        ],
        "city": "WRAY",
        "state": "CO",
        "postalCode": "80758-8947"
      },
      {
        "line": [
          "1205 E 4725 S"
        ],
        "city": "SALT LAKE CITY",
        "state": "UT",
        "postalCode": "84117-4917"
      },
      {
        "line": [
          "6060 E ILIFF AVE"
        ],
        "city": "DENVER",
        "state": "CO",
        "postalCode": "80222-5721"
      },
      {
        "line": [
          "1440 COFFMAN ST"
        ],
        "city": "LONGMONT",
        "state": "CO",
        "postalCode": "80501-2726"
      },
      {
        "line": [
          "1530 JAMES ST"
        ],
        "city": "BELLINGHAM",
        "state": "WA",
        "postalCode": "98225-4945"
      },
      {
        "line": [
          "6021 N LIDGERWOOD ST"
        ],
        "city": "SPOKANE",
        "state": "WA",
        "postalCode": "99208-1125"
      },
      {
        "line": [
          "917 7TH AVE"
        ],
        "city": "LONGVIEW",
        "state": "WA",
        "postalCode": "98632-2601"
      },
      {
        "line": [
          "2651 SOUTH AVE W"
        ],
        "city": "MISSOULA",
        "state": "MT",
        "postalCode": "59804-6405"
      },
      {
        "line": [
          "401 MALLEY DR"
        ],
        "city": "DENVER",
        "state": "CO",
        "postalCode": "80233-2024"
      },
      {
        "line": [
          "714 N BUTTE AVE"
        ],
        "city": "EMMETT",
        "state": "ID",
        "postalCode": "83617-2725"
      },
      {
        "line": [
          "2855 W HORIZON RIDGE PKWY"
        ],
        "city": "HENDERSON",
        "state": "NV",
        "postalCode": "89052-4394"
      },
      {
        "line": [
          "2004 N 22ND AVE"
        ],
        "city": "PASCO",
        "state": "WA",
        "postalCode": "99301-3313"
      },
      {
        "line": [
          "2425 TELLER AVE"
        ],
        "city": "GRAND JUNCTION",
        "state": "CO",
        "postalCode": "81501-5141"
      },
      {
        "line": [
          "1116 E LAURIDSEN BLVD"
        ],
        "city": "PORT ANGELES",
        "state": "WA",
        "postalCode": "98362-6640"
      },
      {
        "line": [
          "100 DELMAR GARDENS DR"
        ],
        "city": "HENDERSON",
        "state": "NV",
        "postalCode": "89074-3216"
      },
      {
        "line": [
          "329 EXEMPLA CIR"
        ],
        "city": "LAFAYETTE",
        "state": "CO",
        "postalCode": "80026-3482"
      },
      {
        "line": [
          "400 E 33RD ST"
        ],
        "city": "VANCOUVER",
        "state": "WA",
        "postalCode": "98663-2238"
      },
      {
        "line": [
          "2250 N CRAYCROFT RD"
        ],
        "city": "TUCSON",
        "state": "AZ",
        "postalCode": "85712-2802"
      },
      {
        "line": [
          "3665 BRINKER AVE"
        ],
        "city": "OGDEN",
        "state": "UT",
        "postalCode": "84403-2017"
      },
      {
        "line": [
          "16300 E Keith McMahan Dr"
        ],
        "city": "FOUNTAIN HILLS",
        "state": "AZ",
        "postalCode": "85268-8307"
      },
      {
        "line": [
          "2726 ALDERWOOD AVE"
        ],
        "city": "BELLINGHAM",
        "state": "WA",
        "postalCode": "98225-1223"
      },
      {
        "line": [
          "402 SUMMIT AVE"
        ],
        "city": "LEWISTOWN",
        "state": "MT",
        "postalCode": "59457-3247"
      },
      {
        "line": [
          "3426 S MARION ST"
        ],
        "city": "ENGLEWOOD",
        "state": "CO",
        "postalCode": "80113-2920"
      },
      {
        "line": [
          "3309 45TH STREET CT"
        ],
        "city": "GIG HARBOR",
        "state": "WA",
        "postalCode": "98335-8222"
      },
      {
        "line": [
          "5123 JUAN TABO BLVD NE"
        ],
        "city": "ALBUQUERQUE",
        "state": "NM",
        "postalCode": "87111-2672"
      },
      {
        "line": [
          "527 MEMORIAL DRIVE"
        ],
        "city": "POCATELLO",
        "state": "ID",
        "postalCode": "83201-4063"
      },
      {
        "line": [
          "1703 CALIFORNIA AVE SW"
        ],
        "city": "SEATTLE",
        "state": "WA",
        "postalCode": "98116-1902"
      },
      {
        "line": [
          "1100 North 400 East Nephi"
        ],
        "city": "NEPHI",
        "state": "UT",
        "postalCode": "84648-2202"
      },
      {
        "line": [
          "1800 STROH PL"
        ],
        "city": "LONGMONT",
        "state": "CO",
        "postalCode": "80501-3214"
      },
      {
        "line": [
          "745 E 18TH AVE"
        ],
        "city": "DENVER",
        "state": "CO",
        "postalCode": "80203-1414"
      },
      {
        "line": [
          "4035 S 500 E"
        ],
        "city": "SALT LAKE CITY",
        "state": "UT",
        "postalCode": "84107-1866"
      },
      {
        "line": [
          "5925 47TH AVE NE"
        ],
        "city": "MARYSVILLE",
        "state": "WA",
        "postalCode": "98270-5152"
      },
      {
        "line": [
          "25 Alpine Dr."
        ],
        "city": "PLEASANT GROVE",
        "state": "UT",
        "postalCode": "84062-3511"
      },
      {
        "line": [
          "4660 E ASBURY CIR"
        ],
        "city": "DENVER",
        "state": "CO",
        "postalCode": "80222-4723"
      },
      {
        "line": [
          "3636 S PEARL ST"
        ],
        "city": "ENGLEWOOD",
        "state": "CO",
        "postalCode": "80113-3806"
      },
      {
        "line": [
          "3855 S 700 E"
        ],
        "city": "SALT LAKE CITY",
        "state": "UT",
        "postalCode": "84106-1157"
      },
      {
        "line": [
          "2201 N DOWNING ST"
        ],
        "city": "DENVER",
        "state": "CO",
        "postalCode": "80205-5234"
      },
      {
        "line": [
          "4685 Baseline Road"
        ],
        "city": "BOULDER",
        "state": "CO",
        "postalCode": "80303-2601"
      },
      {
        "line": [
          "2120 E DIVISION ST"
        ],
        "city": "MOUNT VERNON",
        "state": "WA",
        "postalCode": "98274-4639"
      },
      {
        "line": [
          "1050 E MOUNTAIN VIEW AVE"
        ],
        "city": "ELLENSBURG",
        "state": "WA",
        "postalCode": "98926-3930"
      },
      {
        "line": [
          "2730 E 3300 S"
        ],
        "city": "SALT LAKE CITY",
        "state": "UT",
        "postalCode": "84109-2819"
      },
      {
        "line": [
          "800 10TH ST"
        ],
        "city": "SNOHOMISH",
        "state": "WA",
        "postalCode": "98290-2131"
      },
      {
        "line": [
          "33910 E COLUMBIA AVE"
        ],
        "city": "SCAPPOOSE",
        "state": "OR",
        "postalCode": "97056-3309"
      },
      {
        "line": [
          "1205 E 4725 S"
        ],
        "city": "SALT LAKE CITY",
        "state": "UT",
        "postalCode": "84117-4817"
      },
      {
        "line": [
          "2025 E EGBERT ST"
        ],
        "city": "BRIGHTON",
        "state": "CO",
        "postalCode": "80601-2517"
      },
      {
        "line": [
          "2611 S DEARBORN ST"
        ],
        "city": "SEATTLE",
        "state": "WA",
        "postalCode": "98144-3013"
      },
      {
        "line": [
          "153 JOHNS CT"
        ],
        "city": "SHELTON",
        "state": "WA",
        "postalCode": "98584-8225"
      },
      {
        "line": [
          "821 DUFFIELD CT"
        ],
        "city": "LOVELAND",
        "state": "CO",
        "postalCode": "80537-5228"
      },
      {
        "line": [
          "2012 W. Southern Ave."
        ],
        "city": "APACHE JUNCTION",
        "state": "AZ",
        "postalCode": "85120-7710"
      },
      {
        "line": [
          "524 E 800 N"
        ],
        "city": "OGDEN",
        "state": "UT",
        "postalCode": "84404-3600"
      },
      {
        "line": [
          "3665 Brinker Ave"
        ],
        "city": "OGDEN",
        "state": "UT",
        "postalCode": "84403-2017"
      },
      {
        "line": [
          "710 N 39TH AVE"
        ],
        "city": "YAKIMA",
        "state": "WA",
        "postalCode": "98902-6342"
      },
      {
        "line": [
          "909 E RESERVE ST"
        ],
        "city": "BOISE",
        "state": "ID",
        "postalCode": "83712-6508"
      },
      {
        "line": [
          "460 W 2600 S"
        ],
        "city": "BOUNTIFUL",
        "state": "UT",
        "postalCode": "84010-7716"
      },
      {
        "line": [
          "404 North Horton Street"
        ],
        "city": "NAMPA",
        "state": "ID",
        "postalCode": "83651-6541"
      },
      {
        "line": [
          "1649 East 72nd Street"
        ],
        "city": "TACOMA",
        "state": "WA",
        "postalCode": "98404-5402"
      },
      {
        "line": [
          "5301 E WARM SPRINGS AVE"
        ],
        "city": "BOISE",
        "state": "ID",
        "postalCode": "83716-6201"
      },
      {
        "line": [
          "527 MEMORIAL DR"
        ],
        "city": "POCATELLO",
        "state": "ID",
        "postalCode": "83201-4063"
      },
      {
        "line": [
          "2120 N 10TH ST"
        ],
        "city": "CANON CITY",
        "state": "CO",
        "postalCode": "81212-2211"
      },
      {
        "line": [
          "210 CLEVELAND BLVD"
        ],
        "city": "CALDWELL",
        "state": "ID",
        "postalCode": "83605-3622"
      },
      {
        "line": [
          "534 Boyer Ave"
        ],
        "city": "WALLA WALLA",
        "state": "WA",
        "postalCode": "99362-2047"
      },
      {
        "line": [
          "418 FLOYDE ST"
        ],
        "city": "MCCALL",
        "state": "ID",
        "postalCode": "83638-4508"
      },
      {
        "line": [
          "6220 South Alaska Street"
        ],
        "city": "TACOMA",
        "state": "WA",
        "postalCode": "98408-1005"
      },
      {
        "line": [
          "1043 RIDGE ST"
        ],
        "city": "MONTROSE",
        "state": "CO",
        "postalCode": "81401-4423"
      },
      {
        "line": [
          "7950 W MISSISSIPPI AVE"
        ],
        "city": "DENVER",
        "state": "CO",
        "postalCode": "80226-4326"
      },
      {
        "line": [
          "800 N Medcalf Ln"
        ],
        "city": "MONTESANO",
        "state": "WA",
        "postalCode": "98563-1318"
      },
      {
        "line": [
          "920 12th Ave SE"
        ],
        "city": "PUYALLUP",
        "state": "WA",
        "postalCode": "98372-4920"
      },
      {
        "line": [
          "8507 NE 8TH WAY"
        ],
        "city": "VANCOUVER",
        "state": "WA",
        "postalCode": "98664-1980"
      },
      {
        "line": [
          "490 MIRASOL DR"
        ],
        "city": "LOVELAND",
        "state": "CO",
        "postalCode": "80537-2339"
      },
      {
        "line": [
          "4755 S 48TH ST"
        ],
        "city": "TACOMA",
        "state": "WA",
        "postalCode": "98409-1919"
      },
      {
        "line": [
          "501 W IDAHO BLVD"
        ],
        "city": "EMMETT",
        "state": "ID",
        "postalCode": "83617-9694"
      },
      {
        "line": [
          "206 S 10TH AVE"
        ],
        "city": "YAKIMA",
        "state": "WA",
        "postalCode": "98902-3321"
      },
      {
        "line": [
          "802 W 3RD AVE"
        ],
        "city": "TOPPENISH",
        "state": "WA",
        "postalCode": "98948-1668"
      },
      {
        "line": [
          "400 29th Street NE"
        ],
        "city": "PUYALLUP",
        "state": "WA",
        "postalCode": "98372-6774"
      },
      {
        "line": [
          "1000 S LEMAY AVE"
        ],
        "city": "FORT COLLINS",
        "state": "CO",
        "postalCode": "80524-3914"
      },
      {
        "line": [
          "911 21ST ST"
        ],
        "city": "ANACORTES",
        "state": "WA",
        "postalCode": "98221-2513"
      },
      {
        "line": [
          "1710 Plaza Way"
        ],
        "city": "WALLA WALLA",
        "state": "WA",
        "postalCode": "99362-4362"
      },
      {
        "line": [
          "7991 W 71ST AVE"
        ],
        "city": "ARVADA",
        "state": "CO",
        "postalCode": "80004-1828"
      },
      {
        "line": [
          "9827 N NEVADA ST"
        ],
        "city": "SPOKANE",
        "state": "WA",
        "postalCode": "99218-3407"
      },
      {
        "line": [
          "735 S LOCUST ST"
        ],
        "city": "DENVER",
        "state": "CO",
        "postalCode": "80224-1447"
      },
      {
        "line": [
          "1351 W PINE AVE"
        ],
        "city": "MERIDIAN",
        "state": "ID",
        "postalCode": "83642-2010"
      },
      {
        "line": [
          "5323 S MURRAY BLVD"
        ],
        "city": "SALT LAKE CITY",
        "state": "UT",
        "postalCode": "84123-6973"
      },
      {
        "line": [
          "104 LOIS LN"
        ],
        "city": "COLORADO SPRINGS",
        "state": "CO",
        "postalCode": "80904-1320"
      },
      {
        "line": [
          "1650 N SANTA ROSA AVE"
        ],
        "city": "TUCSON",
        "state": "AZ",
        "postalCode": "85712-4039"
      },
      {
        "line": [
          "2620 N 68TH ST"
        ],
        "city": "SCOTTSDALE",
        "state": "AZ",
        "postalCode": "85257-1202"
      },
      {
        "line": [
          "660 S MARTIN LUTHER KING BLVD"
        ],
        "city": "LAS VEGAS",
        "state": "NV",
        "postalCode": "89106-4413"
      },
      {
        "line": [
          "600 FIRST AVENUE NORTH"
        ],
        "city": "HOT SPRINGS",
        "state": "MT",
        "postalCode": "59845-0689"
      },
      {
        "line": [
          "1100 E NELSON RD"
        ],
        "city": "MOSES LAKE",
        "state": "WA",
        "postalCode": "98837-2360"
      },
      {
        "line": [
          "5822 S LOWELL WAY"
        ],
        "city": "LITTLETON",
        "state": "CO",
        "postalCode": "80123-2849"
      },
      {
        "line": [
          "151 E Center St"
        ],
        "city": "SPANISH FORK",
        "state": "UT",
        "postalCode": "84660-2161"
      },
      {
        "line": [
          "4007 TIETON DRIVE"
        ],
        "city": "YAKIMA",
        "state": "WA",
        "postalCode": "98908-3345"
      },
      {
        "line": [
          "1000 E ELEP AVE"
        ],
        "city": "COLVILLE",
        "state": "WA",
        "postalCode": "99114-5014"
      },
      {
        "line": [
          "502 N KIMBALL PL"
        ],
        "city": "BOISE",
        "state": "ID",
        "postalCode": "83704-0608"
      },
      {
        "line": [
          "6025 N ASSEMBLY ST"
        ],
        "city": "SPOKANE",
        "state": "WA",
        "postalCode": "99205-7674"
      },
      {
        "line": [
          "22410 BENSON RD SE"
        ],
        "city": "KENT",
        "state": "WA",
        "postalCode": "98031-9509"
      },
      {
        "line": [
          "1432 DEPEW ST"
        ],
        "city": "DENVER",
        "state": "CO",
        "postalCode": "80214-2237"
      },
      {
        "line": [
          "1420 S 3rd Ave"
        ],
        "city": "STERLING",
        "state": "CO",
        "postalCode": "80751-4650"
      },
      {
        "line": [
          "864 Dougherty St"
        ],
        "city": "PRESCOTT",
        "state": "AZ",
        "postalCode": "86305-1841"
      },
      {
        "line": [
          "1180 E LAKE MEAD PKWY"
        ],
        "city": "HENDERSON",
        "state": "NV",
        "postalCode": "89015-5561"
      },
      {
        "line": [
          "511 10TH AVE SE"
        ],
        "city": "PUYALLUP",
        "state": "WA",
        "postalCode": "98372-3875"
      },
      {
        "line": [
          "6246 S Redwood Road"
        ],
        "city": "SALT LAKE CITY",
        "state": "UT",
        "postalCode": "84123-6600"
      },
      {
        "line": [
          "3575 S WASHINGTON ST"
        ],
        "city": "ENGLEWOOD",
        "state": "CO",
        "postalCode": "80113-3807"
      },
      {
        "line": [
          "3094 S STATE ST"
        ],
        "city": "SALT LAKE CITY",
        "state": "UT",
        "postalCode": "84115-3834"
      },
      {
        "line": [
          "1821 GROVE ST"
        ],
        "city": "MARYSVILLE",
        "state": "WA",
        "postalCode": "98270-4329"
      },
      {
        "line": [
          "1297 S PERRY ST"
        ],
        "city": "CASTLE ROCK",
        "state": "CO",
        "postalCode": "80104-1977"
      },
      {
        "line": [
          "3401 S LAFAYETTE ST"
        ],
        "city": "ENGLEWOOD",
        "state": "CO",
        "postalCode": "80113-2926"
      },
      {
        "line": [
          "4600 S HIGHLAND DR"
        ],
        "city": "SALT LAKE CITY",
        "state": "UT",
        "postalCode": "84117-5108"
      },
      {
        "line": [
          "2920 FENTON ST"
        ],
        "city": "Wheat Ridge",
        "state": "CO",
        "postalCode": "80214-8116"
      },
      {
        "line": [
          "1786 GREAT BASIN BLVD"
        ],
        "city": "ELY",
        "state": "NV",
        "postalCode": "89301-3138"
      },
      {
        "line": [
          "1655 YARROW ST"
        ],
        "city": "DENVER",
        "state": "CO",
        "postalCode": "80214-6030"
      },
      {
        "line": [
          "1000 S Lemay Ave"
        ],
        "city": "FORT COLLINS",
        "state": "CO",
        "postalCode": "80524-3914"
      },
      {
        "line": [
          "1 Darlene Drive"
        ],
        "city": "LA JUNTA",
        "state": "CO",
        "postalCode": "81050-3268"
      },
      {
        "line": [
          "350 E 300 N"
        ],
        "city": "American Fork",
        "state": "UT",
        "postalCode": "84033-1717"
      },
      {
        "line": [
          "876 W 700 S"
        ],
        "city": "SALT LAKE CITY",
        "state": "UT",
        "postalCode": "84104-1404"
      },
      {
        "line": [
          "1116 E Lauridsen Blvd"
        ],
        "city": "PORT ANGELES",
        "state": "WA",
        "postalCode": "98362-6640"
      },
      {
        "line": [
          "2472 S 300 E"
        ],
        "city": "SALT LAKE CITY",
        "state": "UT",
        "postalCode": "84115-2895"
      },
      {
        "line": [
          "410 WENDELL AVE"
        ],
        "city": "LEWISTOWN",
        "state": "MT",
        "postalCode": "59457-2261"
      },
      {
        "line": [
          "1200 UNIVERSITY ST"
        ],
        "city": "SEATTLE",
        "state": "WA",
        "postalCode": "98101-2896"
      },
      {
        "line": [
          "3701 188TH ST SW"
        ],
        "city": "LYNNWOOD",
        "state": "WA",
        "postalCode": "98037-7626"
      },
      {
        "line": [
          "500 Geneva St"
        ],
        "city": "AURORA",
        "state": "CO",
        "postalCode": "80010-4305"
      },
      {
        "line": [
          "2311 E BRIDGE ST"
        ],
        "city": "BRIGHTON",
        "state": "CO",
        "postalCode": "80601-2547"
      },
      {
        "line": [
          "5020 E GLENN ST"
        ],
        "city": "TUCSON",
        "state": "AZ",
        "postalCode": "85712-1214"
      },
      {
        "line": [
          "5301 W 1ST AVE"
        ],
        "city": "DENVER",
        "state": "CO",
        "postalCode": "80226-2434"
      },
      {
        "line": [
          "10435 SE CORA ST"
        ],
        "city": "PORTLAND",
        "state": "OR",
        "postalCode": "97266-2331"
      },
      {
        "line": [
          "151 E CENTER ST"
        ],
        "city": "SPANISH FORK",
        "state": "UT",
        "postalCode": "84660-2161"
      },
      {
        "line": [
          "4800 TABOR ST"
        ],
        "city": "WHEAT RIDGE",
        "state": "CO",
        "postalCode": "80033-2112"
      },
      {
        "line": [
          "3220 ROSEDALE ST"
        ],
        "city": "GIG HARBOR",
        "state": "WA",
        "postalCode": "98335-1837"
      },
      {
        "line": [
          "1040 MEDICAL DR"
        ],
        "city": "BRIGHAM CITY",
        "state": "UT",
        "postalCode": "84302-5599"
      },
      {
        "line": [
          "2121 MESA DR"
        ],
        "city": "BOULDER",
        "state": "CO",
        "postalCode": "80304-3621"
      },
      {
        "line": [
          "7550 ASSISI HTS"
        ],
        "city": "COLORADO SPRINGS",
        "state": "CO",
        "postalCode": "80919-3853"
      },
      {
        "line": [
          "6000 West Denton St"
        ],
        "city": "BOISE",
        "state": "ID",
        "postalCode": "83704-9310"
      },
      {
        "line": [
          "1033 West Quinn Road"
        ],
        "city": "POCATELLO",
        "state": "ID",
        "postalCode": "83202-2425"
      },
      {
        "line": [
          "13525 E 23RD AVE"
        ],
        "city": "AURORA",
        "state": "CO",
        "postalCode": "80045-7450"
      },
      {
        "line": [
          "14800 E BELLEVIEW DR"
        ],
        "city": "AURORA",
        "state": "CO",
        "postalCode": "80015-2258"
      },
      {
        "line": [
          "1020 PATTON STREET"
        ],
        "city": "FORT COLLINS",
        "state": "CO",
        "postalCode": "80524-4018"
      },
      {
        "line": [
          "6060 E Iliff Ave, Denver"
        ],
        "city": "DENVER",
        "state": "CO",
        "postalCode": "80222-5721"
      },
      {
        "line": [
          "2656 E Magic View Drive"
        ],
        "city": "MERIDIAN",
        "state": "ID",
        "postalCode": "83642-6243"
      },
      {
        "line": [
          "10501 Lagrima De Oro Road Northeast"
        ],
        "city": "ALBUQUERQUE",
        "state": "NM",
        "postalCode": "87111-3737"
      },
      {
        "line": [
          "9398 CROWN CREST BLVD"
        ],
        "city": "PARKER",
        "state": "CO",
        "postalCode": "80138-8573"
      },
      {
        "line": [
          "600 S 27th St"
        ],
        "city": "BILLINGS",
        "state": "MT",
        "postalCode": "59101-4508"
      },
      {
        "line": [
          "2400 SAMISH WAY"
        ],
        "city": "BELLINGHAM",
        "state": "WA",
        "postalCode": "98229-3346"
      },
      {
        "line": [
          "1340 E Fillmore St"
        ],
        "city": "COLORADO SPRINGS",
        "state": "CO",
        "postalCode": "80907-6433"
      },
      {
        "line": [
          "171 Heritage Way"
        ],
        "city": "KALISPELL",
        "state": "MT",
        "postalCode": "59901-3145"
      },
      {
        "line": [
          "1950 BARING BLVD"
        ],
        "city": "SPARKS",
        "state": "NV",
        "postalCode": "89434-6735"
      },
      {
        "line": [
          "4601 E ASBURY CIR"
        ],
        "city": "DENVER",
        "state": "CO",
        "postalCode": "80222-4722"
      },
      {
        "line": [
          "6100 S RURAL RD"
        ],
        "city": "TEMPE",
        "state": "AZ",
        "postalCode": "85283-2904"
      },
      {
        "line": [
          "920 ANDERSON DR"
        ],
        "city": "ABERDEEN",
        "state": "WA",
        "postalCode": "98520-1007"
      },
      {
        "line": [
          "108 W OWYHEE AVE"
        ],
        "city": "HOMEDALE",
        "state": "ID",
        "postalCode": "83628-3206"
      },
      {
        "line": [
          "1500 W MINERAL AVE"
        ],
        "city": "LITTLETON",
        "state": "CO",
        "postalCode": "80120-5608"
      },
      {
        "line": [
          "1045 S 308TH ST"
        ],
        "city": "FEDERAL WAY",
        "state": "WA",
        "postalCode": "98003-4706"
      },
      {
        "line": [
          "2656 E MAGIC VIEW DR"
        ],
        "city": "MERIDIAN",
        "state": "ID",
        "postalCode": "83642-6243"
      },
      {
        "line": [
          "1500 Ave G"
        ],
        "city": "ELY",
        "state": "NV",
        "postalCode": "89301-2539"
      },
      {
        "line": [
          "16000 NE Christensen Dr",
          "Suite 200"
        ],
        "city": "SEATTLE",
        "state": "WA",
        "postalCode": "98188-2925"
      },
      {
        "line": [
          "163 E 1000 N"
        ],
        "city": "RICHFIELD",
        "state": "UT",
        "postalCode": "84701-1850"
      },
      {
        "line": [
          "510 N PARKWAY AVE"
        ],
        "city": "BATTLE GROUND",
        "state": "WA",
        "postalCode": "98604-8297"
      },
      {
        "line": [
          "500 GENEVA ST"
        ],
        "city": "AURORA",
        "state": "CO",
        "postalCode": "80010-4305"
      },
      {
        "line": [
          "4686 E ASBURY CIR"
        ],
        "city": "DENVER",
        "state": "CO",
        "postalCode": "80222-4723"
      },
      {
        "line": [
          "2200 Edison St"
        ],
        "city": "BRUSH",
        "state": "CO",
        "postalCode": "80723-1609"
      },
      {
        "line": [
          "1462 STATE ROUTE 20"
        ],
        "city": "SEDRO WOOLLEY",
        "state": "WA",
        "postalCode": "98284-4322"
      },
      {
        "line": [
          "10501 LAGRIMA DE ORO RD NE"
        ],
        "city": "ALBUQUERQUE",
        "state": "NM",
        "postalCode": "87111-3737"
      },
      {
        "line": [
          "4065 E Bell Rd"
        ],
        "city": "PHOENIX",
        "state": "AZ",
        "postalCode": "85032-2208"
      },
      {
        "line": [
          "14699 E HAMPDEN AVE"
        ],
        "city": "AURORA",
        "state": "CO",
        "postalCode": "80014-3903"
      },
      {
        "line": [
          "2438 E FOUNTAIN BLVD"
        ],
        "city": "COLORADO SPRINGS",
        "state": "CO",
        "postalCode": "80910-3227"
      },
      {
        "line": [
          "350 E 300 N"
        ],
        "city": "AMERICAN FORK",
        "state": "UT",
        "postalCode": "84003-1717"
      },
      {
        "line": [
          "860 Dougherty St"
        ],
        "city": "PRESCOTT",
        "state": "AZ",
        "postalCode": "86305-1841"
      },
      {
        "line": [
          "108 E OWYHEE AVE"
        ],
        "city": "HOMEDALE",
        "state": "ID",
        "postalCode": "83628-3227"
      },
      {
        "line": [
          "3185 W ARKANSAS AVE"
        ],
        "city": "DENVER",
        "state": "CO",
        "postalCode": "80219-4004"
      },
      {
        "line": [
          "534 BOYER AVE"
        ],
        "city": "WALLA WALLA",
        "state": "WA",
        "postalCode": "99362-2047"
      },
      {
        "line": [
          "5601 S ORCHARD ST"
        ],
        "city": "TACOMA",
        "state": "WA",
        "postalCode": "98409-1371"
      },
      {
        "line": [
          "1105 27TH ST"
        ],
        "city": "ANACORTES",
        "state": "WA",
        "postalCode": "98221-2710"
      },
      {
        "line": [
          "3520 S HIGHLAND DR"
        ],
        "city": "Millcreek",
        "state": "UT",
        "postalCode": "84106-3211"
      },
      {
        "line": [
          "502 29th Street SE"
        ],
        "city": "AUBURN",
        "state": "WA",
        "postalCode": "98002-7532"
      },
      {
        "line": [
          "575 E 1400 S"
        ],
        "city": "OREM",
        "state": "UT",
        "postalCode": "84097-7707"
      },
      {
        "line": [
          "350 E 2200 N"
        ],
        "city": "LOGAN",
        "state": "UT",
        "postalCode": "84341-1865"
      },
      {
        "line": [
          "7900 CONSTITUTION AVE NE"
        ],
        "city": "ALBUQUERQUE",
        "state": "NM",
        "postalCode": "87110-7513"
      },
      {
        "line": [
          "645 SIERRA ROSE DR STE 205"
        ],
        "city": "RENO",
        "state": "NV",
        "postalCode": "89511-4026"
      },
      {
        "line": [
          "290 S MONACO PKWY"
        ],
        "city": "DENVER",
        "state": "CO",
        "postalCode": "80224-1105"
      },
      {
        "line": [
          "4285 S HIGHLAND DR"
        ],
        "city": "SALT LAKE CITY",
        "state": "UT",
        "postalCode": "84124-2603"
      },
      {
        "line": [
          "1919 112TH ST SW"
        ],
        "city": "EVERETT",
        "state": "WA",
        "postalCode": "98204-3784"
      },
      {
        "line": [
          "2814 S INDIANA AVE"
        ],
        "city": "CALDWELL",
        "state": "ID",
        "postalCode": "83605-5925"
      },
      {
        "line": [
          "510 S 14TH ST"
        ],
        "city": "LIVINGSTON",
        "state": "MT",
        "postalCode": "59047-3731"
      },
      {
        "line": [
          "1205 EAST 4725 SOUTH"
        ],
        "city": "SALT LAKE CITY",
        "state": "UT",
        "postalCode": "84117-4917"
      },
      {
        "line": [
          "555 16TH AVE"
        ],
        "city": "SEATTLE",
        "state": "WA",
        "postalCode": "98122-5618"
      },
      {
        "line": [
          "1301 N Highlands Pkwy"
        ],
        "city": "TACOMA",
        "state": "WA",
        "postalCode": "98406-2116"
      },
      {
        "line": [
          "32300 1ST AVE S"
        ],
        "city": "FEDERAL WAY",
        "state": "WA",
        "postalCode": "98003-5762"
      },
      {
        "line": [
          "7500 SEWARD PARK AVE S"
        ],
        "city": "SEATTLE",
        "state": "WA",
        "postalCode": "98118-4247"
      },
      {
        "line": [
          "1700 18TH AVE"
        ],
        "city": "GREELEY",
        "state": "CO",
        "postalCode": "80631-5134"
      },
      {
        "line": [
          "855 S. Highway 50 Business Loop"
        ],
        "city": "OLATHE",
        "state": "CO",
        "postalCode": "81425-1536"
      },
      {
        "line": [
          "2821 S Walden"
        ],
        "city": "SEATTLE",
        "state": "WA",
        "postalCode": "98144-6830"
      },
      {
        "line": [
          "835 TENDERFOOT HILL RD"
        ],
        "city": "COLORADO SPRINGS",
        "state": "CO",
        "postalCode": "80906-3903"
      },
      {
        "line": [
          "6150 E. Grant Road"
        ],
        "city": "TUCSON",
        "state": "AZ",
        "postalCode": "85712-5801"
      },
      {
        "line": [
          "835 MADISON AVE N"
        ],
        "city": "BAINBRIDGE ISLAND",
        "state": "WA",
        "postalCode": "98110-1700"
      },
      {
        "line": [
          "178 S 1200 E"
        ],
        "city": "SAINT GEORGE",
        "state": "UT",
        "postalCode": "84790-5508"
      },
      {
        "line": [
          "3350 W 7800 S"
        ],
        "city": "WEST JORDAN",
        "state": "UT",
        "postalCode": "84088-4506"
      },
      {
        "line": [
          "895 S MONACO PKWY"
        ],
        "city": "DENVER",
        "state": "CO",
        "postalCode": "80224-1501"
      },
      {
        "line": [
          "2235 LAKE HEIGHTS DR"
        ],
        "city": "EVERETT",
        "state": "WA",
        "postalCode": "98208-6030"
      },
      {
        "line": [
          "7481 KNOX PL"
        ],
        "city": "WESTMINSTER",
        "state": "CO",
        "postalCode": "80030-4818"
      },
      {
        "line": [
          "1330 SIDNEY AVE"
        ],
        "city": "STERLING",
        "state": "CO",
        "postalCode": "80751-2241"
      },
      {
        "line": [
          "12640 SE BUSH ST"
        ],
        "city": "PORTLAND",
        "state": "OR",
        "postalCode": "97236-3423"
      },
      {
        "line": [
          "4680 CORDATA PKWY"
        ],
        "city": "BELLINGHAM",
        "state": "WA",
        "postalCode": "98226-8038"
      },
      {
        "line": [
          "400 E 5350 S"
        ],
        "city": "OGDEN",
        "state": "UT",
        "postalCode": "84405-6931"
      },
      {
        "line": [
          "5555 S ELATI ST"
        ],
        "city": "LITTLETON",
        "state": "CO",
        "postalCode": "80120-1624"
      },
      {
        "line": [
          "1432 DEPEW ST"
        ],
        "city": "Lakewood",
        "state": "CO",
        "postalCode": "80214-2237"
      },
      {
        "line": [
          "1415 Yellowstone River Rd"
        ],
        "city": "BILLINGS",
        "state": "MT",
        "postalCode": "59105-1834"
      },
      {
        "line": [
          "150 N LA CANADA DR"
        ],
        "city": "GREEN VALLEY",
        "state": "AZ",
        "postalCode": "85614-3129"
      },
      {
        "line": [
          "491 S 338TH ST"
        ],
        "city": "FEDERAL WAY",
        "state": "WA",
        "postalCode": "98003-6290"
      },
      {
        "line": [
          "8100 PALOMAS AVE NE"
        ],
        "city": "ALBUQUERQUE",
        "state": "NM",
        "postalCode": "87109-5264"
      },
      {
        "line": [
          "6000 E Iliff Ave"
        ],
        "city": "DENVER",
        "state": "CO",
        "postalCode": "80222-5721"
      },
      {
        "line": [
          "5121 E BROADWAY RD"
        ],
        "city": "MESA",
        "state": "AZ",
        "postalCode": "85206-1308"
      },
      {
        "line": [
          "1340 E FILLMORE ST"
        ],
        "city": "COLORADO SPRINGS",
        "state": "CO",
        "postalCode": "80907-6433"
      },
      {
        "line": [
          "656 DILLON WAY"
        ],
        "city": "AURORA",
        "state": "CO",
        "postalCode": "80011-6803"
      },
      {
        "line": [
          "7045 STUART ST"
        ],
        "city": "WESTMINSTER",
        "state": "CO",
        "postalCode": "80030-5820"
      },
      {
        "line": [
          "2400 East Cache La Poudre"
        ],
        "city": "COLORADO SPRINGS",
        "state": "CO",
        "postalCode": "80909-4813"
      },
      {
        "line": [
          "1019 3RD AVE S"
        ],
        "city": "PAYETTE",
        "state": "ID",
        "postalCode": "83661-2832"
      },
      {
        "line": [
          "2725 E. 17TH STREET"
        ],
        "city": "IDAHO FALLS",
        "state": "ID",
        "postalCode": "83406-6601"
      },
      {
        "line": [
          "3625 PARKMOOR VILLAGE DR"
        ],
        "city": "COLORADO SPRINGS",
        "state": "CO",
        "postalCode": "80917-5205"
      },
      {
        "line": [
          "5230 E 66TH WAY"
        ],
        "city": "COMMERCE CITY",
        "state": "CO",
        "postalCode": "80022-2442"
      },
      {
        "line": [
          "2040 N Wilmot Rd"
        ],
        "city": "TUCSON",
        "state": "AZ",
        "postalCode": "85712-3039"
      },
      {
        "line": [
          "12205 GUNSTOCK DR"
        ],
        "city": "COLORADO SPRINGS",
        "state": "CO",
        "postalCode": "80921-3624"
      },
      {
        "line": [
          "5351 MONTESSOURI ST"
        ],
        "city": "LAS VEGAS",
        "state": "NV",
        "postalCode": "89113-1126"
      },
      {
        "line": [
          "1535 PARK AVE"
        ],
        "city": "DENVER",
        "state": "CO",
        "postalCode": "80218-1657"
      },
      {
        "line": [
          "3018 Rattlesnake Dr"
        ],
        "city": "MISSOULA",
        "state": "MT",
        "postalCode": "59802-6101"
      },
      {
        "line": [
          "2438 E Fountain Blvd"
        ],
        "city": "COLORADO SPRINGS",
        "state": "CO",
        "postalCode": "80910-3227"
      },
      {
        "line": [
          "3450 N BUFFALO DR"
        ],
        "city": "LAS VEGAS",
        "state": "NV",
        "postalCode": "89129-7424"
      },
      {
        "line": [
          "2200 N Ironwood Pl"
        ],
        "city": "Coeur D Alene",
        "state": "ID",
        "postalCode": "83814-2610"
      },
      {
        "line": [
          "12080 BELLAIRE WAY"
        ],
        "city": "THORNTON",
        "state": "CO",
        "postalCode": "80241-3600"
      },
      {
        "line": [
          "916 PACIFIC AVE FL 4"
        ],
        "city": "EVERETT",
        "state": "WA",
        "postalCode": "98201-4147"
      },
      {
        "line": [
          "255 W BROWN RD"
        ],
        "city": "MESA",
        "state": "AZ",
        "postalCode": "85201-3404"
      },
      {
        "line": [
          "8008 S JESSE OWENS PKWY"
        ],
        "city": "PHOENIX",
        "state": "AZ",
        "postalCode": "85042-6516"
      },
      {
        "line": [
          "1660 ALLISON ST"
        ],
        "city": "Lakewood",
        "state": "CO",
        "postalCode": "80214-6023"
      },
      {
        "line": [
          "817 E PLUM ST"
        ],
        "city": "MOSES LAKE",
        "state": "WA",
        "postalCode": "98837-1870"
      },
      {
        "line": [
          "3540 NE 110TH ST"
        ],
        "city": "SEATTLE",
        "state": "WA",
        "postalCode": "98125-5761"
      },
      {
        "line": [
          "10201 E 3RD AVE"
        ],
        "city": "AURORA",
        "state": "CO",
        "postalCode": "80010-4301"
      },
      {
        "line": [
          "1107 HAZELTINE BLVD # 36"
        ],
        "city": "CHASKA",
        "state": "MN",
        "postalCode": "55318-1009"
      },
      {
        "line": [
          "816 S INTEROCEAN AVE"
        ],
        "city": "HOLYOKE",
        "state": "CO",
        "postalCode": "80734-2120"
      },
      {
        "line": [
          "2200 EDISON ST"
        ],
        "city": "BRUSH",
        "state": "CO",
        "postalCode": "80723-1699"
      }
    ],
    "extension": [
      {
        "url": "https://fhir.athena.io/StructureDefinition/ah-practice",
        "valueReference": {
          "reference": "Organization/a-1.Practice-24259"
        }
      },
      {
        "url": "https://fhir.athena.io/StructureDefinition/ah-brand",
        "valueReference": {
          "reference": "Organization/a-24259.Brand-1"
        }
      }
    ]
  },
  "fullUrl": "urn:uuid:9499a955-0129-589a-bec1-f4167aedae72"
}