{
  "resource": {
    "resourceType": "Organization",
    "id": "6cdb901d-9bae-5fc2-bd59-a33678f89371",
    "name": "Arnold House at Blue Skies of Texas East",
    "endpoint": [
      {
        "reference": "Endpoint/27a4e967-47aa-5a9c-a572-b8297ee268a2"
      },
      {
        "reference": "Endpoint/4f833486-f347-5670-8cfb-df66ab670e23"
      }
    ],
    "identifier": [
      {
        "system": "http://hl7.org/fhir/sid/us-npi",
        "value": "1902393812"
      }
    ],
    "address": [
      {
        "line": [
          "6211 SOUTH NEW BRAUNSFELS"
        ],
        "city": "SAN ANTONIO",
        "state": "TX",
        "postalCode": "78223-3175"
      },
      {
        "line": [
          "1050 GRAND BLVD"
        ],
        "city": "BOERNE",
        "state": "TX",
        "postalCode": "78006-8328"
      },
      {
        "line": [
          "5902 VENADO TRL"
        ],
        "city": "SAN ANTONIO",
        "state": "TX",
        "postalCode": "78240-3364"
      },
      {
        "line": [
          "4917 RAVENSWOOD DRIVE"
        ],
        "city": "SAN ANTONIO",
        "state": "TX",
        "postalCode": "78227-4320"
      },
      {
        "line": [
          "9738 WESTOVER HILLS BLVD"
        ],
        "city": "SAN ANTONIO",
        "state": "TX",
        "postalCode": "78251-4583"
      },
      {
        "line": [
          "9922 STATE HIGHWAY 151"
        ],
        "city": "SAN ANTONIO",
        "state": "TX",
        "postalCode": "78251-4554"
      },
      {
        "line": [
          "5100 JOHN D. RYAN BLVD"
        ],
        "city": "SAN ANTONIO",
        "state": "TX",
        "postalCode": "78245-5327"
      },
      {
        "line": [
          "511 KNIGHTS CROSS"
        ],
        "city": "SAN ANTONIO",
        "state": "TX",
        "postalCode": "78258-3339"
      },
      {
        "line": [
          "4949 RAVENSWOOD DR"
        ],
        "city": "SAN ANTONIO",
        "state": "TX",
        "postalCode": "78227-4320"
      }
    ],
    "extension": [
      {
        "url": "https://fhir.athena.io/StructureDefinition/ah-practice",
        "valueReference": {
          "reference": "Organization/a-1.Practice-18284"
        }
      },
      {
        "url": "https://fhir.athena.io/StructureDefinition/ah-brand",
        "valueReference": {
          "reference": "Organization/a-18284.Brand-1"
        }
      }
    ]
  },
  "fullUrl": "urn:uuid:6cdb901d-9bae-5fc2-bd59-a33678f89371"
}