{
  "resource": {
    "resourceType": "Organization",
    "id": "981e0791-7924-5250-a18f-3d384e56b102",
    "name": "ADVANCED NEUROLOGY",
    "endpoint": [
      {
        "reference": "Endpoint/27a4e967-47aa-5a9c-a572-b8297ee268a2"
      },
      {
        "reference": "Endpoint/a3c7f4bc-b34b-5b1b-aead-75a66d4042ae"
      }
    ],
    "identifier": [
      {
        "system": "http://hl7.org/fhir/sid/us-npi",
        "value": "1821597485"
      }
    ],
    "address": [
      {
        "line": [
          "650 Dickinson Road",
          "STE Z"
        ],
        "city": "CHESTERTON",
        "state": "IN",
        "postalCode": "46304-3387"
      },
      {
        "line": [
          "3630 WILLOWCREEK RD"
        ],
        "city": "PORTAGE",
        "state": "IN",
        "postalCode": "46368-5075"
      },
      {
        "line": [
          "1551 South Sturdy Road",
          "1551 SOUTH STURDY RD"
        ],
        "city": "VALPARAISO",
        "state": "IN",
        "postalCode": "46383-7883"
      },
      {
        "line": [
          "3630 Willowcreek Road",
          "STE 9"
        ],
        "city": "PORTAGE",
        "state": "IN",
        "postalCode": "46368-5075"
      },
      {
        "line": [
          "85 E US HIGHWAY 6"
        ],
        "city": "VALPARAISO",
        "state": "IN",
        "postalCode": "46383-8947"
      },
      {
        "line": [
          "3630 WILLOWCREEK RD FL 3"
        ],
        "city": "PORTAGE",
        "state": "IN",
        "postalCode": "46368-5075"
      },
      {
        "line": [
          "1551 South Sturdy Road"
        ],
        "city": "VALPARAISO",
        "state": "IN",
        "postalCode": "46383-7883"
      },
      {
        "line": [
          "1320 S WISCONSIN ST"
        ],
        "city": "HOBART",
        "state": "IN",
        "postalCode": "46342-5502"
      }
    ],
    "extension": [
      {
        "url": "https://fhir.athena.io/StructureDefinition/ah-practice",
        "valueReference": {
          "reference": "Organization/a-1.Practice-23494"
        }
      },
      {
        "url": "https://fhir.athena.io/StructureDefinition/ah-brand",
        "valueReference": {
          "reference": "Organization/a-23494.Brand-1"
        }
      }
    ]
  },
  "fullUrl": "urn:uuid:981e0791-7924-5250-a18f-3d384e56b102"
}