{
  "resource": {
    "resourceType": "Organization",
    "id": "c75d0d91-706c-5e97-b024-09f041c8cb24",
    "name": "Citrus Medical Associates",
    "endpoint": [
      {
        "reference": "Endpoint/27a4e967-47aa-5a9c-a572-b8297ee268a2"
      },
      {
        "reference": "Endpoint/61f5a19a-c014-5f18-accb-59ad92d02cda"
      }
    ],
    "identifier": [
      {
        "system": "http://hl7.org/fhir/sid/us-npi",
        "value": "1154344125"
      }
    ],
    "address": [
      {
        "line": [
          "136 NE 12 Ave"
        ],
        "city": "CRYSTAL RIVER",
        "state": "FL",
        "postalCode": "34429-4553"
      },
      {
        "line": [
          "611 Turner Camp Rd"
        ],
        "city": "INVERNESS",
        "state": "FL",
        "postalCode": "34453-1462"
      },
      {
        "line": [
          "701 Medical Ct. E."
        ],
        "city": "INVERNESS",
        "state": "FL",
        "postalCode": "34452-4616"
      },
      {
        "line": [
          "1745 Forest Drive"
        ],
        "city": "INVERNESS",
        "state": "FL",
        "postalCode": "34453-3832"
      },
      {
        "line": [
          "124 W Norvell Bryant Hwy"
        ],
        "city": "HERNANDO",
        "state": "FL",
        "postalCode": "34442-5105"
      },
      {
        "line": [
          "518 Ella Drive"
        ],
        "city": "INVERNESS",
        "state": "FL",
        "postalCode": "34450-3415"
      },
      {
        "line": [
          "2333 N Brentwood Circle"
        ],
        "city": "LECANTO",
        "state": "FL",
        "postalCode": "34461-8536"
      },
      {
        "line": [
          "700 Medical Ct E"
        ],
        "city": "INVERNESS",
        "state": "FL",
        "postalCode": "34452-4698"
      },
      {
        "line": [
          "5701 S Pleasant Grove Rd"
        ],
        "city": "INVERNESS",
        "state": "FL",
        "postalCode": "34452-8385"
      },
      {
        "line": [
          "4865 W Gulf to Lake Hwy"
        ],
        "city": "LECANTO",
        "state": "FL",
        "postalCode": "34461-8168"
      },
      {
        "line": [
          "2341 W Norvell Bryant Hwy"
        ],
        "city": "LECANTO",
        "state": "FL",
        "postalCode": "34461-9348"
      },
      {
        "line": [
          "279 N Lecanto Hwy"
        ],
        "city": "LECANTO",
        "state": "FL",
        "postalCode": "34461-9195"
      },
      {
        "line": [
          "502 W Highland Blvd"
        ],
        "city": "INVERNESS",
        "state": "FL",
        "postalCode": "34452-4720"
      },
      {
        "line": [
          "pt home"
        ],
        "city": "INVERNESS",
        "state": "FL",
        "postalCode": "34450-3415"
      },
      {
        "line": [
          "2730 W Marc Knighton Ct"
        ],
        "city": "LECANTO",
        "state": "FL",
        "postalCode": "34461-8334"
      },
      {
        "line": [
          "3325 W Jerwayne Ln"
        ],
        "city": "LECANTO",
        "state": "FL",
        "postalCode": "34461-8397"
      },
      {
        "line": [
          "304 S Citrus Ave"
        ],
        "city": "INVERNESS",
        "state": "FL",
        "postalCode": "34452-4706"
      },
      {
        "line": [
          "216 S Seminole Ave"
        ],
        "city": "INVERNESS",
        "state": "FL",
        "postalCode": "34452-4738"
      }
    ],
    "extension": [
      {
        "url": "https://fhir.athena.io/StructureDefinition/ah-practice",
        "valueReference": {
          "reference": "Organization/a-1.Practice-19044"
        }
      },
      {
        "url": "https://fhir.athena.io/StructureDefinition/ah-brand",
        "valueReference": {
          "reference": "Organization/a-19044.Brand-2"
        }
      }
    ]
  },
  "fullUrl": "urn:uuid:c75d0d91-706c-5e97-b024-09f041c8cb24"
}