{
  "resource": {
    "resourceType": "Organization",
    "id": "09f64b44-77f8-542b-b4a1-4e097779f21c",
    "name": "CARE-A-VAN",
    "endpoint": [
      {
        "reference": "Endpoint/27a4e967-47aa-5a9c-a572-b8297ee268a2"
      },
      {
        "reference": "Endpoint/d63788e6-7727-55aa-b406-4cae4ac0bb7a"
      }
    ],
    "identifier": [
      {
        "system": "http://hl7.org/fhir/sid/us-npi",
        "value": "1003130394"
      },
      {
        "system": "http://hl7.org/fhir/sid/us-npi",
        "value": "1265715932"
      },
      {
        "system": "http://hl7.org/fhir/sid/us-npi",
        "value": "1578841367"
      },
      {
        "system": "http://hl7.org/fhir/sid/us-npi",
        "value": "1568612265"
      },
      {
        "system": "http://hl7.org/fhir/sid/us-npi",
        "value": "1962719666"
      },
      {
        "system": "http://hl7.org/fhir/sid/us-npi",
        "value": "1205142791"
      },
      {
        "system": "http://hl7.org/fhir/sid/us-npi",
        "value": "1356625073"
      },
      {
        "system": "http://hl7.org/fhir/sid/us-npi",
        "value": "1689047979"
      }
    ],
    "address": [
      {
        "line": [
          "400 BANK STREET"
        ],
        "city": "SUFFOLK",
        "state": "VA",
        "postalCode": "23434-4526"
      },
      {
        "line": [
          "14425 OLD COURTHOUSE WAY"
        ],
        "city": "NEWPORT NEWS",
        "state": "VA",
        "postalCode": "23608-3711"
      },
      {
        "line": [
          "2 BERNARDINE DRIVE"
        ],
        "city": "NEWPORT NEWS",
        "state": "VA",
        "postalCode": "23602-4404"
      },
      {
        "line": [
          "3000 JEFFERSON AVE"
        ],
        "city": "NEWPORT NEWS",
        "state": "VA",
        "postalCode": "23607-3402"
      },
      {
        "line": [
          "901 THOMAS CIRCLE"
        ],
        "city": "PORTSMOUTH",
        "state": "VA",
        "postalCode": "23704-4171"
      },
      {
        "line": [
          "746 ADAMS DRIVE"
        ],
        "city": "NEWPORT NEWS",
        "state": "VA",
        "postalCode": "23601-2626"
      },
      {
        "line": [
          "361 BEECHMONT DRIVE"
        ],
        "city": "NEWPORT NEWS",
        "state": "VA",
        "postalCode": "23608-2759"
      },
      {
        "line": [
          "3628 CAMPBELL RD"
        ],
        "city": "NEWPORT NEWS",
        "state": "VA",
        "postalCode": "23608-2759"
      },
      {
        "line": [
          "150 KINGSLEY LANE"
        ],
        "city": "NORFOLK",
        "state": "VA",
        "postalCode": "23505-4602"
      },
      {
        "line": [
          "1057 KENNEDY STREET"
        ],
        "city": "NORFOLK",
        "state": "VA",
        "postalCode": "23513-1807"
      },
      {
        "line": [
          "205 GUST LANE"
        ],
        "city": "PORTSMOUTH",
        "state": "VA",
        "postalCode": "23701-4232"
      },
      {
        "line": [
          "144 HARPERSVILLE ROAD"
        ],
        "city": "NEWPORT NEWS",
        "state": "VA",
        "postalCode": "23601-2324"
      },
      {
        "line": [
          "9609 9TH BAY STREET"
        ],
        "city": "NORFOLK",
        "state": "VA",
        "postalCode": "23518-1211"
      },
      {
        "line": [
          "512 BUCKROE AVE"
        ],
        "city": "HAMPTON",
        "state": "VA",
        "postalCode": "23664-1324"
      },
      {
        "line": [
          "5910 WEST NORFOLK ROAD"
        ],
        "city": "PORTSMOUTH",
        "state": "VA",
        "postalCode": "23703-3327"
      },
      {
        "line": [
          "410 NORTH BROAD STREET"
        ],
        "city": "SUFFOLK",
        "state": "VA",
        "postalCode": "23434-4902"
      },
      {
        "line": [
          "5100 EAST VA BEACH BLVD"
        ],
        "city": "NORFOLK",
        "state": "VA",
        "postalCode": "23502-3413"
      },
      {
        "line": [
          "2587 CAMPOSTELLA ROAD"
        ],
        "city": "CHESAPEAKE",
        "state": "VA",
        "postalCode": "23324-3930"
      }
    ],
    "extension": [
      {
        "url": "https://fhir.athena.io/StructureDefinition/ah-practice",
        "valueReference": {
          "reference": "Organization/a-1.Practice-707"
        }
      },
      {
        "url": "https://fhir.athena.io/StructureDefinition/ah-brand",
        "valueReference": {
          "reference": "Organization/a-707.Brand-1"
        }
      }
    ]
  },
  "fullUrl": "urn:uuid:09f64b44-77f8-542b-b4a1-4e097779f21c"
}