{
  "resource": {
    "resourceType": "Organization",
    "id": "7cb479df-60a2-5f5f-b93d-b6daf5968ccd",
    "name": "Bentley Care Center",
    "endpoint": [
      {
        "reference": "Endpoint/27a4e967-47aa-5a9c-a572-b8297ee268a2"
      },
      {
        "reference": "Endpoint/98a5bd91-1249-5a9b-855b-7e3c96810a03"
      }
    ],
    "identifier": [
      {
        "system": "http://hl7.org/fhir/sid/us-npi",
        "value": "1124599824"
      }
    ],
    "address": [
      {
        "line": [
          "101 Cypress Way E"
        ],
        "city": "NAPLES",
        "state": "FL",
        "postalCode": "34110-1445"
      },
      {
        "line": [
          "2525 E FIRST ST"
        ],
        "city": "FORT MYERS",
        "state": "FL",
        "postalCode": "33901-2465"
      },
      {
        "line": [
          "27221 Bay Landing Dr"
        ],
        "city": "BONITA SPRINGS",
        "state": "FL",
        "postalCode": "34135-4355"
      },
      {
        "line": [
          "15450 TAMIAMI TRL N"
        ],
        "city": "NAPLES",
        "state": "FL",
        "postalCode": "34110-6217"
      },
      {
        "line": [
          "1170 San Marco Rd"
        ],
        "city": "MARCO ISLAND",
        "state": "FL",
        "postalCode": "34145-5017"
      },
      {
        "line": [
          "2338 IMMOKALEE RD PMB 186"
        ],
        "city": "NAPLES",
        "state": "FL",
        "postalCode": "34110-1445"
      },
      {
        "line": [
          "2674 Winkler Ave"
        ],
        "city": "FORT MYERS",
        "state": "FL",
        "postalCode": "33901-9361"
      },
      {
        "line": [
          "8460 MURANO DEL LAGO DR"
        ],
        "city": "Estero",
        "state": "FL",
        "postalCode": "34135-8863"
      },
      {
        "line": [
          "6125 RATTLESNAKE HAMMOCK RD"
        ],
        "city": "NAPLES",
        "state": "FL",
        "postalCode": "34113-2912"
      },
      {
        "line": [
          "2626 Goodlette Frank Rd"
        ],
        "city": "NAPLES",
        "state": "FL",
        "postalCode": "34103-4526"
      },
      {
        "line": [
          "2900 12TH ST N"
        ],
        "city": "NAPLES",
        "state": "FL",
        "postalCode": "34103-4528"
      },
      {
        "line": [
          "6940 Outreach Way"
        ],
        "city": "NORTH PORT",
        "state": "FL",
        "postalCode": "34287-3405"
      },
      {
        "line": [
          "1550 LEE BLVD"
        ],
        "city": "LEHIGH ACRES",
        "state": "FL",
        "postalCode": "33936-4835"
      },
      {
        "line": [
          "11400 LONGFELLOW LN"
        ],
        "city": "BONITA SPRINGS",
        "state": "FL",
        "postalCode": "34135-5963"
      },
      {
        "line": [
          "2338 IMMOKALEE RD # 186"
        ],
        "city": "NAPLES",
        "state": "FL",
        "postalCode": "34110-1445"
      },
      {
        "line": [
          "14001 METRO PKWY"
        ],
        "city": "FORT MYERS",
        "state": "FL",
        "postalCode": "33912-4543"
      },
      {
        "line": [
          "7901 Radio Rd"
        ],
        "city": "NAPLES",
        "state": "FL",
        "postalCode": "34104-6749"
      },
      {
        "line": [
          "7801 AIRPORT PULLING RD N"
        ],
        "city": "NAPLES",
        "state": "FL",
        "postalCode": "34109-1717"
      },
      {
        "line": [
          "1600 Matthew Dr"
        ],
        "city": "FORT MYERS",
        "state": "FL",
        "postalCode": "33907-1700"
      },
      {
        "line": [
          "1321 NE 24TH AVE"
        ],
        "city": "CAPE CORAL",
        "state": "FL",
        "postalCode": "33909-2861"
      },
      {
        "line": [
          "13755 GOLF CLUB PKWY"
        ],
        "city": "FORT MYERS",
        "state": "FL",
        "postalCode": "33919-5146"
      },
      {
        "line": [
          "18301 TRIFECTA LN"
        ],
        "city": "FORT MYERS",
        "state": "FL",
        "postalCode": "33967-3032"
      },
      {
        "line": [
          "8417 SIERRA MEADOWS BLVD"
        ],
        "city": "NAPLES",
        "state": "FL",
        "postalCode": "34113-7369"
      },
      {
        "line": [
          "9731 Commerce Center Court"
        ],
        "city": "FORT MYERS",
        "state": "FL",
        "postalCode": "33908-9999"
      },
      {
        "line": [
          "4920 VICEROY CT"
        ],
        "city": "CAPE CORAL",
        "state": "FL",
        "postalCode": "33904-9048"
      },
      {
        "line": [
          "770 GOODLETTE-FRANK RD N"
        ],
        "city": "NAPLES",
        "state": "FL",
        "postalCode": "34102-5607"
      },
      {
        "line": [
          "8300 COLLIER BLVD"
        ],
        "city": "NAPLES",
        "state": "FL",
        "postalCode": "34114-3549"
      },
      {
        "line": [
          "5175 Tamiami Trl E"
        ],
        "city": "NAPLES",
        "state": "FL",
        "postalCode": "34113-4100"
      },
      {
        "line": [
          "3053 Airport Pulling Road N"
        ],
        "city": "NAPLES",
        "state": "FL",
        "postalCode": "34105-3076"
      },
      {
        "line": [
          "1000 Airport Pulling Rd S"
        ],
        "city": "NAPLES",
        "state": "FL",
        "postalCode": "34104-4365"
      },
      {
        "line": [
          "450 SHREVE ST"
        ],
        "city": "PUNTA GORDA",
        "state": "FL",
        "postalCode": "33950-3325"
      },
      {
        "line": [
          "1155 ENCORE WAY"
        ],
        "city": "NAPLES",
        "state": "FL",
        "postalCode": "34110-9172"
      },
      {
        "line": [
          "6101 PINE RIDGE RD"
        ],
        "city": "NAPLES",
        "state": "FL",
        "postalCode": "34119-3900"
      },
      {
        "line": [
          "1240 PINEBROOK RD"
        ],
        "city": "VENICE",
        "state": "FL",
        "postalCode": "34285-6421"
      },
      {
        "line": [
          "15800 BEACH WALK BLVD"
        ],
        "city": "FORT MYERS",
        "state": "FL",
        "postalCode": "33908-3388"
      },
      {
        "line": [
          "15950 McGregor Blvd"
        ],
        "city": "FORT MYERS",
        "state": "FL",
        "postalCode": "33908-2551"
      },
      {
        "line": [
          "1260 CREEKSIDE BLVD E"
        ],
        "city": "NAPLES",
        "state": "FL",
        "postalCode": "34109-0579"
      },
      {
        "line": [
          "1710 SW HEALTH PKWY"
        ],
        "city": "NAPLES",
        "state": "FL",
        "postalCode": "34109-0442"
      },
      {
        "line": [
          "15150 TAMIAMI TRL N"
        ],
        "city": "NAPLES",
        "state": "FL",
        "postalCode": "34110-2227"
      },
      {
        "line": [
          "3490 THRIVE DR"
        ],
        "city": "NAPLES",
        "state": "FL",
        "postalCode": "34105-5082"
      }
    ],
    "extension": [
      {
        "url": "https://fhir.athena.io/StructureDefinition/ah-practice",
        "valueReference": {
          "reference": "Organization/a-1.Practice-14267"
        }
      },
      {
        "url": "https://fhir.athena.io/StructureDefinition/ah-brand",
        "valueReference": {
          "reference": "Organization/a-14267.Brand-2"
        }
      }
    ]
  },
  "fullUrl": "urn:uuid:7cb479df-60a2-5f5f-b93d-b6daf5968ccd"
}