{
  "resource": {
    "resourceType": "Organization",
    "id": "0779b718-d780-5cc5-ae41-efa465ee532a",
    "name": "Kelly Walker DPM",
    "endpoint": [
      {
        "reference": "Endpoint/27a4e967-47aa-5a9c-a572-b8297ee268a2"
      },
      {
        "reference": "Endpoint/6d7b10bf-0607-588c-9319-2a6932dd47a0"
      }
    ],
    "identifier": [
      {
        "system": "http://hl7.org/fhir/sid/us-npi",
        "value": "1700109477"
      }
    ],
    "address": [
      {
        "line": [
          "900 US Hwy 51 Byp N"
        ],
        "city": "DYERSBURG",
        "state": "TN",
        "postalCode": "38025-2855"
      },
      {
        "line": [
          "326 ASBURY AVE"
        ],
        "city": "RIPLEY",
        "state": "TN",
        "postalCode": "38063-5577"
      },
      {
        "line": [
          "705 Lake Rd."
        ],
        "city": "DYERSBURG",
        "state": "TN",
        "postalCode": "38024-2918"
      },
      {
        "line": [
          "1950 US HWY 51 BYPASS N, STE C"
        ],
        "city": "DYERSBURG",
        "state": "TN",
        "postalCode": "38024-1897"
      },
      {
        "line": [
          "350 E TICKLE ST"
        ],
        "city": "DYERSBURG",
        "state": "TN",
        "postalCode": "38024-3118"
      },
      {
        "line": [
          "1950 US HWY 51 BYP N",
          "Ste C"
        ],
        "city": "DYERSBURG",
        "state": "TN",
        "postalCode": "38024-1896"
      },
      {
        "line": [
          "1900 parr ave"
        ],
        "city": "DYERSBURG",
        "state": "TN",
        "postalCode": "38024-2009"
      },
      {
        "line": [
          "207 Stonebridge Blvd."
        ],
        "city": "JACKSON",
        "state": "TN",
        "postalCode": "38305-2040"
      },
      {
        "line": [
          "1950 hwy 51 bypass N",
          "Suite C"
        ],
        "city": "DYERSBURG",
        "state": "TN",
        "postalCode": "38024-1897"
      }
    ],
    "extension": [
      {
        "url": "https://fhir.athena.io/StructureDefinition/ah-practice",
        "valueReference": {
          "reference": "Organization/a-1.Practice-14532"
        }
      },
      {
        "url": "https://fhir.athena.io/StructureDefinition/ah-brand",
        "valueReference": {
          "reference": "Organization/a-14532.Brand-1"
        }
      }
    ]
  },
  "fullUrl": "urn:uuid:0779b718-d780-5cc5-ae41-efa465ee532a"
}