{
  "resource": {
    "resourceType": "Organization",
    "id": "b259cbe4-7631-5df1-9d14-8e18e5641f19",
    "name": "RELIEF PAIN AND WELLNESS",
    "endpoint": [
      {
        "reference": "Endpoint/27a4e967-47aa-5a9c-a572-b8297ee268a2"
      },
      {
        "reference": "Endpoint/adb5b460-ebff-5e2d-9c1b-935e989bf15d"
      }
    ],
    "identifier": [
      {
        "system": "http://hl7.org/fhir/sid/us-npi",
        "value": "1245680255"
      }
    ],
    "address": [
      {
        "line": [
          "26710 I-45 North",
          "Suite B-100"
        ],
        "city": "SPRING",
        "state": "TX",
        "postalCode": "77386-1019"
      },
      {
        "line": [
          "26710 I-45 NORTH",
          "SUITE C-200"
        ],
        "city": "SPRING",
        "state": "TX",
        "postalCode": "77386-1019"
      },
      {
        "line": [
          "8901 FM 1960 BYPASS ROAD WEST",
          "SUITE 202"
        ],
        "city": "HUMBLE",
        "state": "TX",
        "postalCode": "77338-4018"
      },
      {
        "line": [
          "17400 Red Oak Dr"
        ],
        "city": "HOUSTON",
        "state": "TX",
        "postalCode": "77090-1246"
      },
      {
        "line": [
          "3101 College Park Dr"
        ],
        "city": "CONROE",
        "state": "TX",
        "postalCode": "77384-4099"
      },
      {
        "line": [
          "25440 Interstate 45 north"
        ],
        "city": "SPRING",
        "state": "TX",
        "postalCode": "77386-1343"
      },
      {
        "line": [
          "2202 La Branch St"
        ],
        "city": "HOUSTON",
        "state": "TX",
        "postalCode": "77002-8934"
      },
      {
        "line": [
          "5514 ATASCOCITA RD",
          "SUITE 290"
        ],
        "city": "HUMBLE",
        "state": "TX",
        "postalCode": "77346-2968"
      }
    ],
    "extension": [
      {
        "url": "https://fhir.athena.io/StructureDefinition/ah-practice",
        "valueReference": {
          "reference": "Organization/a-1.Practice-14047"
        }
      },
      {
        "url": "https://fhir.athena.io/StructureDefinition/ah-brand",
        "valueReference": {
          "reference": "Organization/a-14047.Brand-1"
        }
      }
    ]
  },
  "fullUrl": "urn:uuid:b259cbe4-7631-5df1-9d14-8e18e5641f19"
}