{
  "resource": {
    "resourceType": "Organization",
    "id": "5e110a84-6e68-5f2b-8db3-abcbab495713",
    "name": "MinuteClinic",
    "endpoint": [
      {
        "reference": "Endpoint/27a4e967-47aa-5a9c-a572-b8297ee268a2"
      },
      {
        "reference": "Endpoint/510691ac-acdc-5809-8041-d3622283a9a6"
      }
    ],
    "identifier": [
      {
        "system": "http://hl7.org/fhir/sid/us-npi",
        "value": "1699748608"
      }
    ],
    "address": [
      {
        "line": [
          "121 Monticello Road"
        ],
        "city": "WEAVERVILLE",
        "state": "NC",
        "postalCode": "28787-8931"
      },
      {
        "line": [
          "9841 NORTHLAKE CENTRE PKWY"
        ],
        "city": "CHARLOTTE",
        "state": "NC",
        "postalCode": "28216-8930"
      },
      {
        "line": [
          "1125 KILDAIRE FARM RD"
        ],
        "city": "CARY",
        "state": "NC",
        "postalCode": "27511-4566"
      },
      {
        "line": [
          "2021 WALNUT ST"
        ],
        "city": "CARY",
        "state": "NC",
        "postalCode": "27518-9205"
      },
      {
        "line": [
          "1132 East Cutlar Crossing"
        ],
        "city": "LELAND",
        "state": "NC",
        "postalCode": "28451-6426"
      },
      {
        "line": [
          "8210 RENAISSANCE PKWY"
        ],
        "city": "DURHAM",
        "state": "NC",
        "postalCode": "27713-6688"
      },
      {
        "line": [
          "7496 Rockfish Road"
        ],
        "city": "FAYETTEVILLE",
        "state": "NC",
        "postalCode": "28306-2831"
      },
      {
        "line": [
          "6901 Market Street"
        ],
        "city": "WILMINGTON",
        "state": "NC",
        "postalCode": "28411-9727"
      },
      {
        "line": [
          "7129 O'KELLY CHAPEL RD"
        ],
        "city": "CARY",
        "state": "NC",
        "postalCode": "27519-6849"
      },
      {
        "line": [
          "12830 WALKER BRANCH RD"
        ],
        "city": "CHARLOTTE",
        "state": "NC",
        "postalCode": "28273-8850"
      },
      {
        "line": [
          "6150 BAYFIELD PKWY"
        ],
        "city": "CONCORD",
        "state": "NC",
        "postalCode": "28027-7486"
      },
      {
        "line": [
          "1201 BEAVER CREEK COMMONS DR"
        ],
        "city": "APEX",
        "state": "NC",
        "postalCode": "27502-3922"
      },
      {
        "line": [
          "10700 WORLD TRADE BLVD"
        ],
        "city": "RALEIGH",
        "state": "NC",
        "postalCode": "27617-4220"
      },
      {
        "line": [
          "14636 US Hwy 17 N"
        ],
        "city": "HAMPSTEAD",
        "state": "NC",
        "postalCode": "28443-3504"
      },
      {
        "line": [
          "522 Owen Drive"
        ],
        "city": "FAYETTEVILLE",
        "state": "NC",
        "postalCode": "28304-3432"
      },
      {
        "line": [
          "7900 OLD WAKE FOREST RD"
        ],
        "city": "RALEIGH",
        "state": "NC",
        "postalCode": "27616-3319"
      },
      {
        "line": [
          "901 Dow Road"
        ],
        "city": "CAROLINA BEACH",
        "state": "NC",
        "postalCode": "28428-4514"
      },
      {
        "line": [
          "4300 Hwy 49 S"
        ],
        "city": "HARRISBURG",
        "state": "NC",
        "postalCode": "28075-7527"
      },
      {
        "line": [
          "4900 KOGER BLVD, SUITE 300"
        ],
        "city": "GREENSBORO",
        "state": "NC",
        "postalCode": "27407-2710"
      },
      {
        "line": [
          "9915 Park Cedar Drive"
        ],
        "city": "CHARLOTTE",
        "state": "NC",
        "postalCode": "28210-8905"
      },
      {
        "line": [
          "9628 REA ROAD"
        ],
        "city": "CHARLOTTE",
        "state": "NC",
        "postalCode": "28277-6697"
      },
      {
        "line": [
          "4191 THE CIRCLE AT NORTH HILLS ST"
        ],
        "city": "RALEIGH",
        "state": "NC",
        "postalCode": "27609-5712"
      },
      {
        "line": [
          "7409 Webbs road"
        ],
        "city": "DENVER",
        "state": "NC",
        "postalCode": "28037-7422"
      },
      {
        "line": [
          "4037 DURHAM CHAPEL HILL BLVD"
        ],
        "city": "DURHAM",
        "state": "NC",
        "postalCode": "27707-2516"
      },
      {
        "line": [
          "4600 Oleander Drive"
        ],
        "city": "WILMINGTON",
        "state": "NC",
        "postalCode": "28403-5149"
      }
    ],
    "extension": [
      {
        "url": "https://fhir.athena.io/StructureDefinition/ah-practice",
        "valueReference": {
          "reference": "Organization/a-1.Practice-1656"
        }
      },
      {
        "url": "https://fhir.athena.io/StructureDefinition/ah-brand",
        "valueReference": {
          "reference": "Organization/a-1656.Brand-1"
        }
      }
    ]
  },
  "fullUrl": "urn:uuid:5e110a84-6e68-5f2b-8db3-abcbab495713"
}