{
  "resource": {
    "resourceType": "Organization",
    "id": "726cb04f-d355-5860-9e7d-8825a342a9d3",
    "name": "Allaire Rehab and Nursing",
    "endpoint": [
      {
        "reference": "Endpoint/27a4e967-47aa-5a9c-a572-b8297ee268a2"
      },
      {
        "reference": "Endpoint/16701a27-e432-5873-aa9f-c3c6bc4c8a25"
      }
    ],
    "identifier": [
      {
        "system": "http://hl7.org/fhir/sid/us-npi",
        "value": "1770997140"
      }
    ],
    "address": [
      {
        "line": [
          "1040 route 36",
          "APT. 14"
        ],
        "city": "ATLANTIC HIGHLANDS",
        "state": "NJ",
        "postalCode": "07716-2506"
      },
      {
        "line": [
          "425 jack martin blve"
        ],
        "city": "BRICK",
        "state": "NJ",
        "postalCode": "08724-7732"
      },
      {
        "line": [
          "3325 NJ-35"
        ],
        "city": "HAZLET",
        "state": "NJ",
        "postalCode": "07730-1552"
      },
      {
        "line": [
          "1 bethany rd"
        ],
        "city": "HAZLET",
        "state": "NJ",
        "postalCode": "07730-1663"
      },
      {
        "line": [
          "38 Freneau Avenue"
        ],
        "city": "MATAWAN",
        "state": "NJ",
        "postalCode": "07747-9999"
      },
      {
        "line": [
          "715 n beers st"
        ],
        "city": "HOLMDEL",
        "state": "NJ",
        "postalCode": "07733-1503"
      },
      {
        "line": [
          "1 BETHANY RD BLDG 2 SUITE 25"
        ],
        "city": "HAZLET",
        "state": "NJ",
        "postalCode": "07730-1660"
      },
      {
        "line": [
          "3325 US HWY 35"
        ],
        "city": "HAZLET",
        "state": "NJ",
        "postalCode": "07730-1552"
      },
      {
        "line": [
          "1 BETHANY ROAD",
          "BUILDING 2 DUITE 25"
        ],
        "city": "HAZLET",
        "state": "NJ",
        "postalCode": "07730-1660"
      },
      {
        "line": [
          "115 DUTCH LANE RD"
        ],
        "city": "FREEHOLD",
        "state": "NJ",
        "postalCode": "07728-5500"
      },
      {
        "line": [
          "38 Freneau Ave."
        ],
        "city": "MATAWAN",
        "state": "NJ",
        "postalCode": "07747-3323"
      },
      {
        "line": [
          "1 Riverview Plaza"
        ],
        "city": "RED BANK",
        "state": "NJ",
        "postalCode": "07701-1864"
      }
    ],
    "extension": [
      {
        "url": "https://fhir.athena.io/StructureDefinition/ah-practice",
        "valueReference": {
          "reference": "Organization/a-1.Practice-11734"
        }
      },
      {
        "url": "https://fhir.athena.io/StructureDefinition/ah-brand",
        "valueReference": {
          "reference": "Organization/a-11734.Brand-1"
        }
      }
    ]
  },
  "fullUrl": "urn:uuid:726cb04f-d355-5860-9e7d-8825a342a9d3"
}