{
  "resource": {
    "resourceType": "Organization",
    "id": "dd33ba3f-6898-5b3f-ad23-f426df4068dd",
    "name": "Pathways Clinical Partners",
    "endpoint": [
      {
        "reference": "Endpoint/27a4e967-47aa-5a9c-a572-b8297ee268a2"
      },
      {
        "reference": "Endpoint/dcc6a55b-a0eb-5fd2-bd8b-2f3ad4202652"
      }
    ],
    "identifier": [
      {
        "system": "http://hl7.org/fhir/sid/us-npi",
        "value": "1477124790"
      }
    ],
    "address": [
      {
        "line": [
          "1000 WATERMAN WAY"
        ],
        "city": "TAVARES",
        "state": "FL",
        "postalCode": "32778-5266"
      },
      {
        "line": [
          "701 LAKE PORT BLVD"
        ],
        "city": "LEESBURG",
        "state": "FL",
        "postalCode": "34748-7674"
      },
      {
        "line": [
          "600 East Dixie Ave"
        ],
        "city": "LEESBURG",
        "state": "FL",
        "postalCode": "34748-5730"
      },
      {
        "line": [
          "1451 El Camino Real"
        ],
        "city": "LADY LAKE",
        "state": "FL",
        "postalCode": "32159-0041"
      },
      {
        "line": [
          "715 East Dixie Avenue"
        ],
        "city": "LEESBURG",
        "state": "FL",
        "postalCode": "34748-5730"
      },
      {
        "line": [
          "700 North Palmetto Street"
        ],
        "city": "LEESBURG",
        "state": "FL",
        "postalCode": "34748-5730"
      },
      {
        "line": [
          "1031 W MAGNOLIA ST"
        ],
        "city": "LEESBURG",
        "state": "FL",
        "postalCode": "34748-5129"
      },
      {
        "line": [
          "1000 Waterman Way"
        ],
        "city": "TAVARES",
        "state": "FL",
        "postalCode": "32778-0001"
      },
      {
        "line": [
          "1550 El Camino Real"
        ],
        "city": "LADY LAKE",
        "state": "FL",
        "postalCode": "32159-1002"
      }
    ],
    "extension": [
      {
        "url": "https://fhir.athena.io/StructureDefinition/ah-practice",
        "valueReference": {
          "reference": "Organization/a-1.Practice-17462"
        }
      },
      {
        "url": "https://fhir.athena.io/StructureDefinition/ah-brand",
        "valueReference": {
          "reference": "Organization/a-17462.Brand-2"
        }
      }
    ]
  },
  "fullUrl": "urn:uuid:dd33ba3f-6898-5b3f-ad23-f426df4068dd"
}