{
  "resource": {
    "resourceType": "Organization",
    "id": "c6e08c2a-7e71-5437-b803-1c2008992daf",
    "name": "CC Cardiology Carthage\t\t\t",
    "endpoint": [
      {
        "reference": "Endpoint/27a4e967-47aa-5a9c-a572-b8297ee268a2"
      },
      {
        "reference": "Endpoint/87715cf8-a129-5773-b93c-a94f003ff297"
      }
    ],
    "identifier": [
      {
        "system": "http://hl7.org/fhir/sid/us-npi",
        "value": "1184163883"
      },
      {
        "system": "http://hl7.org/fhir/sid/us-npi",
        "value": "1215476908"
      },
      {
        "system": "http://hl7.org/fhir/sid/us-npi",
        "value": "1205375953"
      },
      {
        "system": "http://hl7.org/fhir/sid/us-npi",
        "value": "1417495516"
      },
      {
        "system": "http://hl7.org/fhir/sid/us-npi",
        "value": "1861930968"
      },
      {
        "system": "http://hl7.org/fhir/sid/us-npi",
        "value": "1700600814"
      },
      {
        "system": "http://hl7.org/fhir/sid/us-npi",
        "value": "1316485410"
      },
      {
        "system": "http://hl7.org/fhir/sid/us-npi",
        "value": "1508305293"
      },
      {
        "system": "http://hl7.org/fhir/sid/us-npi",
        "value": "1659810455"
      },
      {
        "system": "http://hl7.org/fhir/sid/us-npi",
        "value": "1962940064"
      }
    ],
    "address": [
      {
        "line": [
          "1140 CARTHAGE ST STE B"
        ],
        "city": "SANFORD",
        "state": "NC",
        "postalCode": "27330-4161"
      },
      {
        "line": [
          "1135 CARTHAGE ST"
        ],
        "city": "SANFORD",
        "state": "NC",
        "postalCode": "27330-4162"
      },
      {
        "line": [
          "1139 CARTHAGE ST",
          "STE 110B"
        ],
        "city": "SANFORD",
        "state": "NC",
        "postalCode": "27330-4105"
      },
      {
        "line": [
          "1139 CARTHAGE ST",
          "STE 110-A"
        ],
        "city": "SANFORD",
        "state": "NC",
        "postalCode": "27330-4144"
      },
      {
        "line": [
          "2412 Wilkins Drive"
        ],
        "city": "SANFORD",
        "state": "NC",
        "postalCode": "27330-7268"
      },
      {
        "line": [
          "1135 CARTHAGE STREET"
        ],
        "city": "SANFORD",
        "state": "NC",
        "postalCode": "27330-0212"
      },
      {
        "line": [
          "101 CHURCH ST"
        ],
        "city": "BROADWAY",
        "state": "NC",
        "postalCode": "27505-9394"
      },
      {
        "line": [
          "1125 CARTHAGE ST"
        ],
        "city": "SANFORD",
        "state": "NC",
        "postalCode": "27330-4162"
      },
      {
        "line": [
          "1140 CARTHAGE ST A"
        ],
        "city": "SANFORD",
        "state": "NC",
        "postalCode": "27330-4161"
      },
      {
        "line": [
          "1139 CARTHAGE ST STE 105"
        ],
        "city": "SANFORD",
        "state": "NC",
        "postalCode": "27330-4144"
      },
      {
        "line": [
          "4546 Hwy 87 S"
        ],
        "city": "SANFORD",
        "state": "NC",
        "postalCode": "27330-0212"
      },
      {
        "line": [
          "709 WICKER ST"
        ],
        "city": "SANFORD",
        "state": "NC",
        "postalCode": "27330-4167"
      }
    ],
    "extension": [
      {
        "url": "https://fhir.athena.io/StructureDefinition/ah-practice",
        "valueReference": {
          "reference": "Organization/a-1.Practice-15593"
        }
      },
      {
        "url": "https://fhir.athena.io/StructureDefinition/ah-brand",
        "valueReference": {
          "reference": "Organization/a-15593.Brand-16"
        }
      }
    ]
  },
  "fullUrl": "urn:uuid:c6e08c2a-7e71-5437-b803-1c2008992daf"
}