{
  "resource": {
    "resourceType": "Organization",
    "id": "b0eeb08e-73d6-546a-afdb-2523031f2a0d",
    "name": "Baptist Medical Center",
    "endpoint": [
      {
        "reference": "Endpoint/27a4e967-47aa-5a9c-a572-b8297ee268a2"
      },
      {
        "reference": "Endpoint/c8308202-e882-5b19-960e-35471a6c2733"
      }
    ],
    "identifier": [
      {
        "system": "http://hl7.org/fhir/sid/us-npi",
        "value": "1710578471"
      },
      {
        "system": "http://hl7.org/fhir/sid/us-npi",
        "value": "1841438504"
      },
      {
        "system": "http://hl7.org/fhir/sid/us-npi",
        "value": "1659358968"
      },
      {
        "system": "http://hl7.org/fhir/sid/us-npi",
        "value": "1003886789"
      }
    ],
    "address": [
      {
        "line": [
          "403 Treeline Park"
        ],
        "city": "SAN ANTONIO",
        "state": "TX",
        "postalCode": "78209-5743"
      },
      {
        "line": [
          "2040 BABCOCK RD STE 407"
        ],
        "city": "SAN ANTONIO",
        "state": "TX",
        "postalCode": "78229-4428"
      },
      {
        "line": [
          "423 TREELINE PARK STE 202"
        ],
        "city": "SAN ANTONIO",
        "state": "TX",
        "postalCode": "78209-2078"
      },
      {
        "line": [
          "7930 FLOYD CURL DR"
        ],
        "city": "SAN ANTONIO",
        "state": "TX",
        "postalCode": "78229-3925"
      },
      {
        "line": [
          "6019 BUENA VISTA ST"
        ],
        "city": "SAN ANTONIO",
        "state": "TX",
        "postalCode": "78237-1700"
      },
      {
        "line": [
          "1650 Lockhill Selma Rd."
        ],
        "city": "SAN ANTONIO",
        "state": "TX",
        "postalCode": "78213-1929"
      },
      {
        "line": [
          "2040 BABCOCK RD SUITE 407"
        ],
        "city": "SAN ANTONIO",
        "state": "TX",
        "postalCode": "78229-4428"
      },
      {
        "line": [
          "111 DALLAS ST"
        ],
        "city": "SAN ANTONIO",
        "state": "TX",
        "postalCode": "78202-1201"
      },
      {
        "line": [
          "5962 DANNY KAYE DR BLDG 1"
        ],
        "city": "SAN ANTONIO",
        "state": "TX",
        "postalCode": "78240-5221"
      },
      {
        "line": [
          "11212 State Hwy 151"
        ],
        "city": "SAN ANTONIO",
        "state": "TX",
        "postalCode": "78251-0002"
      },
      {
        "line": [
          "403 TREELINE PARK"
        ],
        "city": "SAN ANTONIO",
        "state": "TX",
        "postalCode": "78209-2042"
      },
      {
        "line": [
          "111 Dallas St"
        ],
        "city": "SAN ANTONIO",
        "state": "TX",
        "postalCode": "78205-1201"
      },
      {
        "line": [
          "2827 BABCOCK RD"
        ],
        "city": "SAN ANTONIO",
        "state": "TX",
        "postalCode": "78229-4813"
      },
      {
        "line": [
          "1139 E SONTERRA BLVD"
        ],
        "city": "SAN ANTONIO",
        "state": "TX",
        "postalCode": "78258-4347"
      }
    ],
    "extension": [
      {
        "url": "https://fhir.athena.io/StructureDefinition/ah-practice",
        "valueReference": {
          "reference": "Organization/a-1.Practice-14529"
        }
      },
      {
        "url": "https://fhir.athena.io/StructureDefinition/ah-brand",
        "valueReference": {
          "reference": "Organization/a-14529.Brand-1"
        }
      }
    ]
  },
  "fullUrl": "urn:uuid:b0eeb08e-73d6-546a-afdb-2523031f2a0d"
}