{
  "resource": {
    "resourceType": "Organization",
    "id": "bbb0d881-9128-53cd-9721-1c92a295c530",
    "name": "Good Samaritan Hospital",
    "endpoint": [
      {
        "reference": "Endpoint/27a4e967-47aa-5a9c-a572-b8297ee268a2"
      },
      {
        "reference": "Endpoint/6eab41c8-b85c-5f5b-bcea-e737f7b7c44b"
      }
    ],
    "identifier": [
      {
        "system": "http://hl7.org/fhir/sid/us-npi",
        "value": "1538253331"
      }
    ],
    "address": [
      {
        "line": [
          "511 10th Ave SE"
        ],
        "city": "Puyallup",
        "state": "WA",
        "postalCode": "98372-3875"
      },
      {
        "line": [
          "10004 204th Ave E",
          "Suite 3400"
        ],
        "city": "BONNEY LAKE",
        "state": "WA",
        "postalCode": "98391-6536"
      },
      {
        "line": [
          "11216 Sunrise Blvd E",
          "Suite 3-106"
        ],
        "city": "PUYALLUP",
        "state": "WA",
        "postalCode": "98374-8844"
      },
      {
        "line": [
          "3908 10th St SE"
        ],
        "city": "PUYALLUP",
        "state": "WA",
        "postalCode": "98374-2188"
      },
      {
        "line": [
          "407 14th Ave SE"
        ],
        "city": "Puyallup",
        "state": "WA",
        "postalCode": "98372-3770"
      },
      {
        "line": [
          "2323 Jensen St"
        ],
        "city": "Enumclaw",
        "state": "WA",
        "postalCode": "98022-3605"
      },
      {
        "line": [
          "10004 204th Ave E",
          " Suite 3400"
        ],
        "city": "Bonney Lake",
        "state": "WA",
        "postalCode": "98391-6536"
      },
      {
        "line": [
          "3909 10th St SE"
        ],
        "city": "Puyallup",
        "state": "WA",
        "postalCode": "98374-2188"
      },
      {
        "line": [
          "909 S Meridian"
        ],
        "city": "PUYALLUP",
        "state": "WA",
        "postalCode": "98371-6908"
      },
      {
        "line": [
          "920 12th Ave SE"
        ],
        "city": "Edgewood",
        "state": "WA",
        "postalCode": "98372-4920"
      },
      {
        "line": [
          "400 29th NE"
        ],
        "city": "Edgewood",
        "state": "WA",
        "postalCode": "98372-6774"
      }
    ],
    "extension": [
      {
        "url": "https://fhir.athena.io/StructureDefinition/ah-practice",
        "valueReference": {
          "reference": "Organization/a-1.Practice-5665"
        }
      },
      {
        "url": "https://fhir.athena.io/StructureDefinition/ah-brand",
        "valueReference": {
          "reference": "Organization/a-5665.Brand-1"
        }
      }
    ]
  },
  "fullUrl": "urn:uuid:bbb0d881-9128-53cd-9721-1c92a295c530"
}