{
  "resource": {
    "resourceType": "Organization",
    "id": "d4d9a554-b450-5899-baf4-555c83caa72d",
    "name": "ARLINGTON GARDENS CARE CENTER",
    "endpoint": [
      {
        "reference": "Endpoint/27a4e967-47aa-5a9c-a572-b8297ee268a2"
      },
      {
        "reference": "Endpoint/e64d3fce-b594-5976-a960-4c90d998342a"
      }
    ],
    "identifier": [
      {
        "system": "http://hl7.org/fhir/sid/us-npi",
        "value": "1093099046"
      }
    ],
    "address": [
      {
        "line": [
          "10 Terracina Boulevard"
        ],
        "city": "REDLANDS",
        "state": "CA",
        "postalCode": "92373-4874"
      },
      {
        "line": [
          "1412 N. LUGO STREET"
        ],
        "city": "SAN BERNARDINO",
        "state": "CA",
        "postalCode": "92404-5231"
      },
      {
        "line": [
          "13508 Baxter Court"
        ],
        "city": "MORENO VALLEY",
        "state": "CA",
        "postalCode": "92555-6027"
      },
      {
        "line": [
          "33951 Colorado Street"
        ],
        "city": "YUCAIPA",
        "state": "CA",
        "postalCode": "92399-2329"
      },
      {
        "line": [
          "35253 AVENUE H"
        ],
        "city": "YUCAIPA",
        "state": "CA",
        "postalCode": "92399-5396"
      },
      {
        "line": [
          "1350 Reche Canyon Road"
        ],
        "city": "COLTON",
        "state": "CA",
        "postalCode": "92324-9744"
      },
      {
        "line": [
          "2018 Del Rosa Ave"
        ],
        "city": "SAN BERNARDINO",
        "state": "CA",
        "postalCode": "92404-5642"
      },
      {
        "line": [
          "1665 8th Street"
        ],
        "city": "BEAUMONT",
        "state": "CA",
        "postalCode": "92223-2512"
      },
      {
        "line": [
          "12145 Westerly Trail"
        ],
        "city": "MORENO VALLEY",
        "state": "CA",
        "postalCode": "92557-7525"
      },
      {
        "line": [
          "2496 1/2 N MACY ST"
        ],
        "city": "SAN BERNARDINO",
        "state": "CA",
        "postalCode": "92407-6597"
      },
      {
        "line": [
          "14315 Nason St"
        ],
        "city": "MORENO VALLEY",
        "state": "CA",
        "postalCode": "92553-5072"
      },
      {
        "line": [
          "281 N. Terrace Street"
        ],
        "city": "SAN BERNARDINO",
        "state": "CA",
        "postalCode": "92410-1429"
      },
      {
        "line": [
          "24795 Skyland Drive"
        ],
        "city": "MORENO VALLEY",
        "state": "CA",
        "postalCode": "92557-5139"
      },
      {
        "line": [
          "13542 2nd Street"
        ],
        "city": "YUCAIPA",
        "state": "CA",
        "postalCode": "92399-5396"
      },
      {
        "line": [
          "291 E. WALNUT AVE."
        ],
        "city": "RIALTO",
        "state": "CA",
        "postalCode": "92376-3531"
      },
      {
        "line": [
          "105 Terracina Boulevard"
        ],
        "city": "REDLANDS",
        "state": "CA",
        "postalCode": "92373-4845"
      },
      {
        "line": [
          "20449 Camino de Gloria"
        ],
        "city": "RIVERSIDE",
        "state": "CA",
        "postalCode": "92508-2401"
      },
      {
        "line": [
          "32195 Avenue E"
        ],
        "city": "YUCAIPA",
        "state": "CA",
        "postalCode": "92399-1731"
      },
      {
        "line": [
          "1642 West 27th Street"
        ],
        "city": "SAN BERNARDINO",
        "state": "CA",
        "postalCode": "92407-6705"
      },
      {
        "line": [
          "5593 Avenue Juan Bautista"
        ],
        "city": "RIVERSIDE",
        "state": "CA",
        "postalCode": "92509-5614"
      },
      {
        "line": [
          "1350 N Wabash Avenue"
        ],
        "city": "MENTONE",
        "state": "CA",
        "postalCode": "92359-1124"
      },
      {
        "line": [
          "1700 E Washington STreet"
        ],
        "city": "COLTON",
        "state": "CA",
        "postalCode": "92324-4619"
      },
      {
        "line": [
          "4032 WILSHIRE BLVD STE 600"
        ],
        "city": "LOS ANGELES",
        "state": "CA",
        "postalCode": "90010-3405"
      },
      {
        "line": [
          "8965 Magnolia Avenue"
        ],
        "city": "RIVERSIDE",
        "state": "CA",
        "postalCode": "92503-4432"
      },
      {
        "line": [
          "24481 Brodiaea Avenue"
        ],
        "city": "MORENO VALLEY",
        "state": "CA",
        "postalCode": "92553-3511"
      },
      {
        "line": [
          "17050 Arnold Drive"
        ],
        "city": "Riverside",
        "state": "CA",
        "postalCode": "92518-2806"
      },
      {
        "line": [
          "25615 STATE ST"
        ],
        "city": "LOMA LINDA",
        "state": "CA",
        "postalCode": "92354-2428"
      },
      {
        "line": [
          "307 S Arrowhead Avenue"
        ],
        "city": "SAN BERNARDINO",
        "state": "CA",
        "postalCode": "92408-1325"
      },
      {
        "line": [
          "14446 Chantry Drive"
        ],
        "city": "MORENO VALLEY",
        "state": "CA",
        "postalCode": "92553-4948"
      },
      {
        "line": [
          "1319 Brookside Avenue"
        ],
        "city": "REDLANDS",
        "state": "CA",
        "postalCode": "92373-4421"
      },
      {
        "line": [
          "25585 Van Leuven Street"
        ],
        "city": "LOMA LINDA",
        "state": "CA",
        "postalCode": "92354-2440"
      },
      {
        "line": [
          "12581 Shady Bend Drive"
        ],
        "city": "MORENO VALLEY",
        "state": "CA",
        "postalCode": "92553-5906"
      },
      {
        "line": [
          "3688 NYE AVENUE"
        ],
        "city": "RIVERSIDE",
        "state": "CA",
        "postalCode": "92505-1818"
      },
      {
        "line": [
          "1441 S. Riverside Avenue"
        ],
        "city": "RIALTO",
        "state": "CA",
        "postalCode": "92376-7703"
      },
      {
        "line": [
          "461 Tennessee Street",
          "Suite C"
        ],
        "city": "REDLANDS",
        "state": "CA",
        "postalCode": "92373-7438"
      },
      {
        "line": [
          "227 W. 10th Street"
        ],
        "city": "SAN BERNARDINO",
        "state": "CA",
        "postalCode": "92410-5508"
      },
      {
        "line": [
          "13434 Reindeer Street"
        ],
        "city": "MORENO VALLEY",
        "state": "CA",
        "postalCode": "92553-3291"
      },
      {
        "line": [
          "4577 Lakewood Drive"
        ],
        "city": "SAN BERNARDINO",
        "state": "CA",
        "postalCode": "92407-3336"
      },
      {
        "line": [
          "7312 Teak"
        ],
        "city": "RANCHO CUCAMONGA",
        "state": "CA",
        "postalCode": "91730-1539"
      },
      {
        "line": [
          "2015 Magnolia Avenue"
        ],
        "city": "SAN BERNARDINO",
        "state": "CA",
        "postalCode": "92411-1532"
      },
      {
        "line": [
          "461 TENNESSEE STREET, Suite C"
        ],
        "city": "REDLANDS",
        "state": "CA",
        "postalCode": "92373-8152"
      },
      {
        "line": [
          "17754 Upland Avenue"
        ],
        "city": "FONTANA",
        "state": "CA",
        "postalCode": "92335-3755"
      },
      {
        "line": [
          "3003 Muir Mountain Way"
        ],
        "city": "SAN BERNARDINO",
        "state": "CA",
        "postalCode": "92407-5187"
      },
      {
        "line": [
          "1155 N Glenwood Avenue"
        ],
        "city": "RIALTO",
        "state": "CA",
        "postalCode": "92376-3990"
      },
      {
        "line": [
          "2985 North G Street"
        ],
        "city": "SAN BERNARDINO",
        "state": "CA",
        "postalCode": "92405-2726"
      },
      {
        "line": [
          "34 Emory Terrace"
        ],
        "city": "BEAUMONT",
        "state": "CA",
        "postalCode": "92223-3116"
      },
      {
        "line": [
          "3938 COGSWELL RD"
        ],
        "city": "EL MONTE",
        "state": "CA",
        "postalCode": "91732-2404"
      },
      {
        "line": [
          "9008 Maple Avenue"
        ],
        "city": "FONTANA",
        "state": "CA",
        "postalCode": "92335-6038"
      },
      {
        "line": [
          "939 E Banyan Street"
        ],
        "city": "Ontario",
        "state": "CA",
        "postalCode": "91761-6105"
      },
      {
        "line": [
          "1295 Agate Street"
        ],
        "city": "MENTONE",
        "state": "CA",
        "postalCode": "92359-1303"
      },
      {
        "line": [
          "7256 Linares Street"
        ],
        "city": "RIVERSIDE",
        "state": "CA",
        "postalCode": "92509-6900"
      },
      {
        "line": [
          "25383 Cole Street"
        ],
        "city": "LOMA LINDA",
        "state": "CA",
        "postalCode": "92354-3103"
      },
      {
        "line": [
          "2278 Nice AVenue"
        ],
        "city": "MENTONE",
        "state": "CA",
        "postalCode": "92359-0001"
      },
      {
        "line": [
          "749 W. Winchester Drive"
        ],
        "city": "RIALTO",
        "state": "CA",
        "postalCode": "92376-3278"
      },
      {
        "line": [
          "11511 Poplar Street"
        ],
        "city": "LOMA LINDA",
        "state": "CA",
        "postalCode": "92354-3546"
      },
      {
        "line": [
          "12867 Foxdale Drive"
        ],
        "city": "MORENO VALLEY",
        "state": "CA",
        "postalCode": "92553-5674"
      },
      {
        "line": [
          "9333 La Mesa Dr"
        ],
        "city": "RANCHO CUCAMONGA",
        "state": "CA",
        "postalCode": "91701-5805"
      },
      {
        "line": [
          "26600 Ironwood Avenue"
        ],
        "city": "MORENO VALLEY",
        "state": "CA",
        "postalCode": "92555-1716"
      },
      {
        "line": [
          "23571 Rhea Drive"
        ],
        "city": "MORENO VALLEY",
        "state": "CA",
        "postalCode": "92557-6208"
      },
      {
        "line": [
          "620 Ryan Street"
        ],
        "city": "REDLANDS",
        "state": "CA",
        "postalCode": "92374-4165"
      },
      {
        "line": [
          "1589 North Waterman Avenue"
        ],
        "city": "SAN BERNARDINO",
        "state": "CA",
        "postalCode": "92404-5106"
      },
      {
        "line": [
          "27900 Brodiaea Ave"
        ],
        "city": "MORENO VALLEY",
        "state": "CA",
        "postalCode": "92555-5700"
      },
      {
        "line": [
          "22325 Barton Road"
        ],
        "city": "GRAND TERRACE",
        "state": "CA",
        "postalCode": "92313-5006"
      },
      {
        "line": [
          "1376 Jasper Avenue"
        ],
        "city": "MENTONE",
        "state": "CA",
        "postalCode": "92359-1131"
      },
      {
        "line": [
          "3494 Rainbow Lane"
        ],
        "city": "HIGHLAND",
        "state": "CA",
        "postalCode": "92346-2548"
      },
      {
        "line": [
          "800 E 5th Street"
        ],
        "city": "ONTARIO",
        "state": "CA",
        "postalCode": "91764-2499"
      },
      {
        "line": [
          "12728 Gorham Street"
        ],
        "city": "MORENO VALLEY",
        "state": "CA",
        "postalCode": "92553-5676"
      },
      {
        "line": [
          "3476 W Wilson Street"
        ],
        "city": "BANNING",
        "state": "CA",
        "postalCode": "92220-3420"
      },
      {
        "line": [
          "1850 N Waterman Ave."
        ],
        "city": "SAN BERNARDINO",
        "state": "CA",
        "postalCode": "92404-4831"
      },
      {
        "line": [
          "57333 JOSHUA LN"
        ],
        "city": "YUCCA VALLEY",
        "state": "CA",
        "postalCode": "92284-4124"
      },
      {
        "line": [
          "8536 California Avenue"
        ],
        "city": "Riverside",
        "state": "CA",
        "postalCode": "92504-2854"
      },
      {
        "line": [
          "1400 E Circle city Drive"
        ],
        "city": "CORONA",
        "state": "CA",
        "postalCode": "92879-1642"
      },
      {
        "line": [
          "25617 ARGONAUT"
        ],
        "city": "MORENO VALLEY",
        "state": "CA",
        "postalCode": "92553-4969"
      },
      {
        "line": [
          "9212 Garden Street"
        ],
        "city": "ALTA LOMA",
        "state": "CA",
        "postalCode": "91701-4824"
      },
      {
        "line": [
          "9327 JOSHUA ROAD"
        ],
        "city": "Oak Hill",
        "state": "CA",
        "postalCode": "92344-0890"
      },
      {
        "line": [
          "22840 VAN BUREN"
        ],
        "city": "GRAND TERRACE",
        "state": "CA",
        "postalCode": "92313-5747"
      },
      {
        "line": [
          "2830 Antares Drive"
        ],
        "city": "RIVERSIDE",
        "state": "CA",
        "postalCode": "92503-0001"
      },
      {
        "line": [
          "11970 4th St"
        ],
        "city": "YUCAIPA",
        "state": "CA",
        "postalCode": "92399-2720"
      },
      {
        "line": [
          "3921 Manchester"
        ],
        "city": "RIVERSIDE",
        "state": "CA",
        "postalCode": "92503-4025"
      },
      {
        "line": [
          "25383 COLE ST"
        ],
        "city": "LOMA LINDA",
        "state": "CA",
        "postalCode": "92354-3103"
      },
      {
        "line": [
          "1438 Pacific Street"
        ],
        "city": "REDLANDS",
        "state": "CA",
        "postalCode": "92373-6936"
      },
      {
        "line": [
          "53 NEWBURN COURT"
        ],
        "city": "BEAUMONT",
        "state": "CA",
        "postalCode": "92223-3131"
      },
      {
        "line": [
          "1172 E 26th Street"
        ],
        "city": "SAN BERNARDINO",
        "state": "CA",
        "postalCode": "92404-4133"
      },
      {
        "line": [
          "28807 Base Line"
        ],
        "city": "HIGHLAND",
        "state": "CA",
        "postalCode": "92346-5019"
      },
      {
        "line": [
          "5881 El Palomino Drive"
        ],
        "city": "RIVERSIDE",
        "state": "CA",
        "postalCode": "92509-7006"
      },
      {
        "line": [
          "24487 Delphinium Avenue"
        ],
        "city": "MORENO VALLEY",
        "state": "CA",
        "postalCode": "92553-3508"
      },
      {
        "line": [
          "13217 Running Deer Road"
        ],
        "city": "MORENO VALLEY",
        "state": "CA",
        "postalCode": "92553-3258"
      },
      {
        "line": [
          "2020 W. Mesa Court"
        ],
        "city": "SAN BERNARDINO",
        "state": "CA",
        "postalCode": "92407-6538"
      },
      {
        "line": [
          "1441 N Michigan Avenue"
        ],
        "city": "BEAUMONT",
        "state": "CA",
        "postalCode": "92223-1728"
      },
      {
        "line": [
          "414 Tennessee Street",
          "Suite XX"
        ],
        "city": "REDLANDS",
        "state": "CA",
        "postalCode": "92373-8163"
      },
      {
        "line": [
          "26527 Clydesdale Lane"
        ],
        "city": "MORENO VALLEY",
        "state": "CA",
        "postalCode": "92555-3334"
      },
      {
        "line": [
          "776 NORTH 19TH STREET"
        ],
        "city": "BANNING",
        "state": "CA",
        "postalCode": "92220-4110"
      },
      {
        "line": [
          "28516 Wisteria Lane"
        ],
        "city": "HIGHLAND",
        "state": "CA",
        "postalCode": "92346-5365"
      },
      {
        "line": [
          "11555 RICHMONT RD"
        ],
        "city": "LOMA LINDA",
        "state": "CA",
        "postalCode": "92354-3524"
      },
      {
        "line": [
          "23896 Gamma Street"
        ],
        "city": "MORENO VALLEY",
        "state": "CA",
        "postalCode": "92553-5639"
      },
      {
        "line": [
          "4609 ARLINGTON AVE"
        ],
        "city": "RIVERSIDE",
        "state": "CA",
        "postalCode": "92504-2705"
      },
      {
        "line": [
          "1950 S MOUNTAIN AVE"
        ],
        "city": "ONTARIO",
        "state": "CA",
        "postalCode": "91762-6723"
      },
      {
        "line": [
          "25393 Cole Street,"
        ],
        "city": "LOMA LINDA",
        "state": "CA",
        "postalCode": "92354-3103"
      },
      {
        "line": [
          "25271 Barton Road"
        ],
        "city": "LOMA LINDA",
        "state": "CA",
        "postalCode": "92354-3013"
      },
      {
        "line": [
          "845 W LA CADENA DR"
        ],
        "city": "RIVERSIDE",
        "state": "CA",
        "postalCode": "92501-1340"
      }
    ],
    "extension": [
      {
        "url": "https://fhir.athena.io/StructureDefinition/ah-practice",
        "valueReference": {
          "reference": "Organization/a-1.Practice-3574"
        }
      },
      {
        "url": "https://fhir.athena.io/StructureDefinition/ah-brand",
        "valueReference": {
          "reference": "Organization/a-3574.Brand-1"
        }
      }
    ]
  },
  "fullUrl": "urn:uuid:d4d9a554-b450-5899-baf4-555c83caa72d"
}