{
  "resource": {
    "resourceType": "Organization",
    "id": "8c610a84-9db2-5144-9d0d-95c520054b35",
    "name": "Acacia Park Nursing & Rehab Center",
    "endpoint": [
      {
        "reference": "Endpoint/27a4e967-47aa-5a9c-a572-b8297ee268a2"
      },
      {
        "reference": "Endpoint/46e62ae7-41b2-51c9-95a0-fd48387bd20f"
      }
    ],
    "identifier": [
      {
        "system": "http://hl7.org/fhir/sid/us-npi",
        "value": "1558797118"
      },
      {
        "system": "http://hl7.org/fhir/sid/us-npi",
        "value": "1417297847"
      },
      {
        "system": "http://hl7.org/fhir/sid/us-npi",
        "value": "1538420104"
      },
      {
        "system": "http://hl7.org/fhir/sid/us-npi",
        "value": "1912264862"
      }
    ],
    "address": [
      {
        "line": [
          "681 South Parker St",
          "Suite 150"
        ],
        "city": "ORANGE",
        "state": "CA",
        "postalCode": "92868-4761"
      },
      {
        "line": [
          "1154 N. Euclid Street"
        ],
        "city": "ANAHEIM",
        "state": "CA",
        "postalCode": "92801-1955"
      },
      {
        "line": [
          "101 E Valencia Mesa Dr"
        ],
        "city": "FULLERTON",
        "state": "CA",
        "postalCode": "92835-3809"
      },
      {
        "line": [
          "1111 W La Palma Ave"
        ],
        "city": "ANAHEIM",
        "state": "CA",
        "postalCode": "92801-2804"
      },
      {
        "line": [
          "400 W. Mineral King Ave"
        ],
        "city": "VISALIA",
        "state": "CA",
        "postalCode": "93291-6237"
      },
      {
        "line": [
          "17772 Beach Blvd"
        ],
        "city": "HUNTINGTON BEACH",
        "state": "CA",
        "postalCode": "92647-6819"
      },
      {
        "line": [
          "1700 Mount Vernon Ave"
        ],
        "city": "BAKERSFIELD",
        "state": "CA",
        "postalCode": "93306-4018"
      },
      {
        "line": [
          "16671 Yorba Linda Blvd",
          "Ste 100"
        ],
        "city": "YORBA LINDA",
        "state": "CA",
        "postalCode": "92886-2025"
      },
      {
        "line": [
          "11160 Warner Ave",
          "Ste 117"
        ],
        "city": "FOUNTAIN VALLEY",
        "state": "CA",
        "postalCode": "92708-4010"
      },
      {
        "line": [
          "11190 Warner Ave Ste 212"
        ],
        "city": "FOUNTAIN VALLEY",
        "state": "CA",
        "postalCode": "92708-4045"
      },
      {
        "line": [
          "9920 Talbert Ave"
        ],
        "city": "FOUNTAIN VALLEY",
        "state": "CA",
        "postalCode": "92708-5153"
      },
      {
        "line": [
          "17772 BEACH BLVD"
        ],
        "city": "HUNTINGTON BEACH",
        "state": "CA",
        "postalCode": "92647-6819"
      },
      {
        "line": [
          "3771 Katella Ave",
          "STE 100"
        ],
        "city": "LOS ALAMITOS",
        "state": "CA",
        "postalCode": "90720-3111"
      },
      {
        "line": [
          "3700 E. South Street"
        ],
        "city": "LAKEWOOD",
        "state": "CA",
        "postalCode": "90712-1419"
      },
      {
        "line": [
          "1275 N ROSE DRIVE",
          "SUITE 118"
        ],
        "city": "PLACENTIA",
        "state": "CA",
        "postalCode": "92870-3800"
      },
      {
        "line": [
          "2601 E Chapman Ave"
        ],
        "city": "ORANGE",
        "state": "CA",
        "postalCode": "92869-3206"
      },
      {
        "line": [
          "3033 W Orange Avenue"
        ],
        "city": "ANAHEIM",
        "state": "CA",
        "postalCode": "92804-3156"
      },
      {
        "line": [
          "1510 San Pablo St"
        ],
        "city": "LOS ANGELES",
        "state": "CA",
        "postalCode": "90033-5320"
      },
      {
        "line": [
          "2240 N. Harbor STE #100"
        ],
        "city": "FULLERTON",
        "state": "CA",
        "postalCode": "92835-8300"
      },
      {
        "line": [
          "21250 Hawthorne Blvd Suite 435"
        ],
        "city": "TORRANCE",
        "state": "CA",
        "postalCode": "90503-5504"
      },
      {
        "line": [
          "7677 Center Ave Suite 104"
        ],
        "city": "HUNTINGTON BEACH",
        "state": "CA",
        "postalCode": "92647-3030"
      },
      {
        "line": [
          "1025 S Anaheim Blvd"
        ],
        "city": "ANAHEIM",
        "state": "CA",
        "postalCode": "92805-5806"
      },
      {
        "line": [
          "14662 Newport Ave"
        ],
        "city": "TUSTIN",
        "state": "CA",
        "postalCode": "92780-6064"
      },
      {
        "line": [
          "1772 Beach Blvd"
        ],
        "city": "HUNTINGTON BEACH",
        "state": "CA",
        "postalCode": "92647-6819"
      },
      {
        "line": [
          "3833 Worsham AVE Ste 200"
        ],
        "city": "LONG BEACH",
        "state": "CA",
        "postalCode": "90808-1745"
      },
      {
        "line": [
          "14662 Newport Beach"
        ],
        "city": "TUSTIN",
        "state": "CA",
        "postalCode": "92780-6064"
      }
    ],
    "extension": [
      {
        "url": "https://fhir.athena.io/StructureDefinition/ah-practice",
        "valueReference": {
          "reference": "Organization/a-1.Practice-14035"
        }
      },
      {
        "url": "https://fhir.athena.io/StructureDefinition/ah-brand",
        "valueReference": {
          "reference": "Organization/a-14035.Brand-3"
        }
      }
    ]
  },
  "fullUrl": "urn:uuid:8c610a84-9db2-5144-9d0d-95c520054b35"
}