{
  "resource": {
    "resourceType": "Organization",
    "id": "e7daaeec-300c-565e-bd35-31b899ca186b",
    "name": "Transtreme LLC",
    "endpoint": [
      {
        "reference": "Endpoint/27a4e967-47aa-5a9c-a572-b8297ee268a2"
      },
      {
        "reference": "Endpoint/8d6c5a7c-1b8b-54ac-a0d3-7da3eaeed789"
      }
    ],
    "identifier": [
      {
        "system": "http://hl7.org/fhir/sid/us-npi",
        "value": "1003290453"
      }
    ],
    "address": [
      {
        "line": [
          "878 109TH AVE N"
        ],
        "city": "NAPLES",
        "state": "FL",
        "postalCode": "34108-1814"
      },
      {
        "line": [
          "4345 HARRISON BLVD STE 101"
        ],
        "city": "OGDEN",
        "state": "UT",
        "postalCode": "84403-3103"
      },
      {
        "line": [
          "9501 STATE AVE STE 1"
        ],
        "city": "KANSAS CITY",
        "state": "KS",
        "postalCode": "66111-1871"
      },
      {
        "line": [
          "1213 HERMANN DR STE 700"
        ],
        "city": "HOUSTON",
        "state": "TX",
        "postalCode": "77004-7013"
      },
      {
        "line": [
          "245 POPLAR ST"
        ],
        "city": "BLACKFOOT",
        "state": "ID",
        "postalCode": "83221-4907"
      },
      {
        "line": [
          "1000 W CANNON ST"
        ],
        "city": "FORT WORTH",
        "state": "TX",
        "postalCode": "76104-3029"
      },
      {
        "line": [
          "1300 NW BRIARCLIFF PKWY STE 150"
        ],
        "city": "RIVERSIDE",
        "state": "MO",
        "postalCode": "64150-7103"
      },
      {
        "line": [
          "4345 HARRISON BLVD # 101"
        ],
        "city": "OGDEN",
        "state": "UT",
        "postalCode": "84403-3103"
      },
      {
        "line": [
          "7981 GLADIOLUS DR"
        ],
        "city": "FORT MYERS",
        "state": "FL",
        "postalCode": "33908-4154"
      },
      {
        "line": [
          "3001 N 23RD ST STE 6"
        ],
        "city": "MCALLEN",
        "state": "TX",
        "postalCode": "78501-6179"
      },
      {
        "line": [
          "7840 W 165TH ST STE 280"
        ],
        "city": "OVERLAND PARK",
        "state": "KS",
        "postalCode": "66223-3022"
      },
      {
        "line": [
          "2521 GLENN HENDREN DR STE 202"
        ],
        "city": "LIBERTY",
        "state": "MO",
        "postalCode": "64068-3388"
      },
      {
        "line": [
          "560 BLOSSOM ST STE C"
        ],
        "city": "WEBSTER",
        "state": "TX",
        "postalCode": "77598-4237"
      },
      {
        "line": [
          "480 N 100 E STE 110"
        ],
        "city": "LOGAN",
        "state": "UT",
        "postalCode": "84321-6674"
      },
      {
        "line": [
          "1595 S MAIN ST"
        ],
        "city": "BOERNE",
        "state": "TX",
        "postalCode": "78006-3328"
      },
      {
        "line": [
          "2381 E SUNNYSIDE RD"
        ],
        "city": "IDAHO FALLS",
        "state": "ID",
        "postalCode": "83404-7521"
      },
      {
        "line": [
          "990 MEDICAL DR STE G4"
        ],
        "city": "BRIGHAM CITY",
        "state": "UT",
        "postalCode": "84302-3077"
      },
      {
        "line": [
          "215 N SAN SABA STE 201"
        ],
        "city": "SAN ANTONIO",
        "state": "TX",
        "postalCode": "78207-3120"
      },
      {
        "line": [
          "2115 STUART AVE"
        ],
        "city": "ALAMOSA",
        "state": "CO",
        "postalCode": "81101-2269"
      },
      {
        "line": [
          "1200 CRAWFORD AVE STE E"
        ],
        "city": "GRANBURY",
        "state": "TX",
        "postalCode": "76048-4562"
      },
      {
        "line": [
          "100 NE MISSOURI RD STE 204"
        ],
        "city": "LEES SUMMIT",
        "state": "MO",
        "postalCode": "64086-4716"
      },
      {
        "line": [
          "24 S 1100 E STE 310"
        ],
        "city": "SALT LAKE CITY",
        "state": "UT",
        "postalCode": "84102-4507"
      },
      {
        "line": [
          "1501 HILAND AVE STE M"
        ],
        "city": "BURLEY",
        "state": "ID",
        "postalCode": "83318-2688"
      },
      {
        "line": [
          "205 22ND ST"
        ],
        "city": "HONDO",
        "state": "TX",
        "postalCode": "78861-2520"
      },
      {
        "line": [
          "1999 FOREST RIDGE DR"
        ],
        "city": "BEDFORD",
        "state": "TX",
        "postalCode": "76021-5724"
      },
      {
        "line": [
          "1222 N BISHOP AVE STE 500"
        ],
        "city": "DALLAS",
        "state": "TX",
        "postalCode": "75208-4178"
      },
      {
        "line": [
          "8901 W 74TH ST STE 328"
        ],
        "city": "OVERLAND PARK",
        "state": "KS",
        "postalCode": "66204-2203"
      },
      {
        "line": [
          "150 PINE FOREST DR STE 101"
        ],
        "city": "CONROE",
        "state": "TX",
        "postalCode": "77384-5302"
      },
      {
        "line": [
          "4320 WORNALL RD STE 208"
        ],
        "city": "KANSAS CITY",
        "state": "MO",
        "postalCode": "64111-5964"
      },
      {
        "line": [
          "12970 TOEPPERWEIN RD"
        ],
        "city": "SAN ANTONIO",
        "state": "TX",
        "postalCode": "78233-4767"
      },
      {
        "line": [
          "1628 CRABB RIVER RD"
        ],
        "city": "RICHMOND",
        "state": "TX",
        "postalCode": "77469-5890"
      },
      {
        "line": [
          "3571 W WHEATLAND RD STE 101"
        ],
        "city": "DALLAS",
        "state": "TX",
        "postalCode": "75237-3461"
      },
      {
        "line": [
          "350 N HAVEN DR"
        ],
        "city": "TWIN FALLS",
        "state": "ID",
        "postalCode": "83301-5788"
      },
      {
        "line": [
          "4302 S SUGAR RD STE 106"
        ],
        "city": "EDINBURG",
        "state": "TX",
        "postalCode": "78539-9140"
      },
      {
        "line": [
          "2460 N INTERSTATE HIGHWAY 35 E STE 210"
        ],
        "city": "WAXAHACHIE",
        "state": "TX",
        "postalCode": "75165-5270"
      },
      {
        "line": [
          "402 YOUENS DR"
        ],
        "city": "WEIMAR",
        "state": "TX",
        "postalCode": "78962-3680"
      },
      {
        "line": [
          "11111 NALL AVE STE 114"
        ],
        "city": "LEAWOOD",
        "state": "KS",
        "postalCode": "66211-1625"
      },
      {
        "line": [
          "8200 MATLOCK RD STE 160"
        ],
        "city": "ARLINGTON",
        "state": "TX",
        "postalCode": "76002-4806"
      },
      {
        "line": [
          "6550 FANNIN ST STE 2137"
        ],
        "city": "HOUSTON",
        "state": "TX",
        "postalCode": "77030-2722"
      },
      {
        "line": [
          "555 FRENCH RD"
        ],
        "city": "NEW HARTFORD",
        "state": "NY",
        "postalCode": "13413-1051"
      },
      {
        "line": [
          "7777 FOREST LN STE C865"
        ],
        "city": "DALLAS",
        "state": "TX",
        "postalCode": "75230-6884"
      },
      {
        "line": [
          "19910 INTERSTATE 35 S STE 102"
        ],
        "city": "LYTLE",
        "state": "TX",
        "postalCode": "78052-3547"
      },
      {
        "line": [
          "9777 S YOSEMITE ST STE 110"
        ],
        "city": "LONE TREE",
        "state": "CO",
        "postalCode": "80124-3115"
      },
      {
        "line": [
          "1005 W RALPH HALL PKWY STE 235"
        ],
        "city": "ROCKWALL",
        "state": "TX",
        "postalCode": "75032-6661"
      },
      {
        "line": [
          "6508 N BARTLETT AVE STE D"
        ],
        "city": "LAREDO",
        "state": "TX",
        "postalCode": "78041-6446"
      },
      {
        "line": [
          "4511 ZEBE AVE"
        ],
        "city": "POCATELLO",
        "state": "ID",
        "postalCode": "83202-4707"
      },
      {
        "line": [
          "914 S UTAH AVE STE A"
        ],
        "city": "WESLACO",
        "state": "TX",
        "postalCode": "78596-4270"
      },
      {
        "line": [
          "3584 W 9000 S STE 305"
        ],
        "city": "WEST JORDAN",
        "state": "UT",
        "postalCode": "84088-4775"
      },
      {
        "line": [
          "1914 LELARAY ST"
        ],
        "city": "COLORADO SPRINGS",
        "state": "CO",
        "postalCode": "80909-2800"
      },
      {
        "line": [
          "900 PLAZA DR STE 5"
        ],
        "city": "MISSION",
        "state": "TX",
        "postalCode": "78572-6049"
      },
      {
        "line": [
          "137 PALO ALTO RD"
        ],
        "city": "SAN ANTONIO",
        "state": "TX",
        "postalCode": "78211-3736"
      },
      {
        "line": [
          "1295 E 151ST ST STE 7"
        ],
        "city": "OLATHE",
        "state": "KS",
        "postalCode": "66062-3429"
      },
      {
        "line": [
          "1320 W OAKLAWN RD STE G"
        ],
        "city": "PLEASANTON",
        "state": "TX",
        "postalCode": "78064-4316"
      },
      {
        "line": [
          "1306 SWEET HOME RD"
        ],
        "city": "BUFFALO",
        "state": "NY",
        "postalCode": "14228-2792"
      },
      {
        "line": [
          "712 1ST TER"
        ],
        "city": "LANSING",
        "state": "KS",
        "postalCode": "66043-1735"
      },
      {
        "line": [
          "10710 MCPHERSON RD STE 203"
        ],
        "city": "LAREDO",
        "state": "TX",
        "postalCode": "78045-6363"
      },
      {
        "line": [
          "215 N SAN SABA STE 301"
        ],
        "city": "SAN ANTONIO",
        "state": "TX",
        "postalCode": "78207-3164"
      },
      {
        "line": [
          "2011 E HOUSTON ST STE 101A"
        ],
        "city": "SAN ANTONIO",
        "state": "TX",
        "postalCode": "78202-2916"
      },
      {
        "line": [
          "4708 DEXTER DR STE 400"
        ],
        "city": "PLANO",
        "state": "TX",
        "postalCode": "75093-5288"
      },
      {
        "line": [
          "1300 S BRYAN RD STE 106"
        ],
        "city": "MISSION",
        "state": "TX",
        "postalCode": "78572-6688"
      },
      {
        "line": [
          "6740 W 121ST ST STE 150"
        ],
        "city": "LEAWOOD",
        "state": "KS",
        "postalCode": "66209-2002"
      },
      {
        "line": [
          "8115 DATAPOINT DR STE 200"
        ],
        "city": "SAN ANTONIO",
        "state": "TX",
        "postalCode": "78229-3745"
      },
      {
        "line": [
          "2710 HARNEY ST STE 200"
        ],
        "city": "LARAMIE",
        "state": "WY",
        "postalCode": "82072-2899"
      },
      {
        "line": [
          "6 EUCLID AVE STE 1 BLDG 2"
        ],
        "city": "CORTLAND",
        "state": "NY",
        "postalCode": "13045-1257"
      },
      {
        "line": [
          "109 SHULT DR STE 200"
        ],
        "city": "COLUMBUS",
        "state": "TX",
        "postalCode": "78934-3015"
      },
      {
        "line": [
          "12011 STATE HIGHWAY 151 STE 202"
        ],
        "city": "SAN ANTONIO",
        "state": "TX",
        "postalCode": "78251-1233"
      },
      {
        "line": [
          "393 E 2ND N"
        ],
        "city": "REXBURG",
        "state": "ID",
        "postalCode": "83440-1605"
      },
      {
        "line": [
          "3307 BOB ROGERS DR STE B"
        ],
        "city": "EAGLE PASS",
        "state": "TX",
        "postalCode": "78852-6979"
      },
      {
        "line": [
          "200 S RIVERSHIRE DR STE 300"
        ],
        "city": "CONROE",
        "state": "TX",
        "postalCode": "77304-3485"
      },
      {
        "line": [
          "2698 N GALLOWAY AVE STE 104"
        ],
        "city": "MESQUITE",
        "state": "TX",
        "postalCode": "75150-6386"
      },
      {
        "line": [
          "22999 HIGHWAY 59 N STE 232"
        ],
        "city": "KINGWOOD",
        "state": "TX",
        "postalCode": "77339-4440"
      },
      {
        "line": [
          "12121 RICHMOND AVE STE 120"
        ],
        "city": "HOUSTON",
        "state": "TX",
        "postalCode": "77082-2420"
      },
      {
        "line": [
          "2790 CLAY EDWARDS DR STE 410"
        ],
        "city": "KANSAS CITY",
        "state": "MO",
        "postalCode": "64116-3274"
      },
      {
        "line": [
          "850 EAGLERIDGE BLVD STE 100"
        ],
        "city": "PUEBLO",
        "state": "CO",
        "postalCode": "81008-2148"
      },
      {
        "line": [
          "9550 BONITA BEACH RD SE STE 108"
        ],
        "city": "BONITA SPRINGS",
        "state": "FL",
        "postalCode": "34135-4771"
      },
      {
        "line": [
          "12811 BEAMER RD"
        ],
        "city": "HOUSTON",
        "state": "TX",
        "postalCode": "77089-6140"
      },
      {
        "line": [
          "633 E FERNHURST DR STE 704"
        ],
        "city": "KATY",
        "state": "TX",
        "postalCode": "77450-1587"
      },
      {
        "line": [
          "2302 S 77 SUNSHINE STRIP STE 102"
        ],
        "city": "HARLINGEN",
        "state": "TX",
        "postalCode": "78550-8371"
      },
      {
        "line": [
          "7300 ELDORADO PKWY STE 160"
        ],
        "city": "MCKINNEY",
        "state": "TX",
        "postalCode": "75070-7894"
      },
      {
        "line": [
          "724 CYPRESS CREEK PKWY STE 210"
        ],
        "city": "HOUSTON",
        "state": "TX",
        "postalCode": "77090-3402"
      },
      {
        "line": [
          "1444 S POTOMAC ST STE 215"
        ],
        "city": "AURORA",
        "state": "CO",
        "postalCode": "80012-4533"
      }
    ],
    "extension": [
      {
        "url": "https://fhir.athena.io/StructureDefinition/ah-practice",
        "valueReference": {
          "reference": "Organization/a-1.Practice-26729"
        }
      },
      {
        "url": "https://fhir.athena.io/StructureDefinition/ah-brand",
        "valueReference": {
          "reference": "Organization/a-26729.Brand-1"
        }
      }
    ]
  },
  "fullUrl": "urn:uuid:e7daaeec-300c-565e-bd35-31b899ca186b"
}