{
  "resource": {
    "resourceType": "Organization",
    "id": "58c9224b-58d8-577f-8348-7bc5189dcb9b",
    "name": "Mount Carmel Diabetes Prevention Program",
    "endpoint": [
      {
        "reference": "Endpoint/27a4e967-47aa-5a9c-a572-b8297ee268a2"
      },
      {
        "reference": "Endpoint/3c5d93b4-0410-5d8f-ab0c-f5b50749feda"
      }
    ],
    "identifier": [
      {
        "system": "http://hl7.org/fhir/sid/us-npi",
        "value": "1548211311"
      },
      {
        "system": "http://hl7.org/fhir/sid/us-npi",
        "value": "1073615456"
      },
      {
        "system": "http://hl7.org/fhir/sid/us-npi",
        "value": "1457617235"
      }
    ],
    "address": [
      {
        "line": [
          "6024 Hoover Road Suite A"
        ],
        "city": "GROVE CITY",
        "state": "OH",
        "postalCode": "43123-8131"
      },
      {
        "line": [
          "1029 South Broad Street"
        ],
        "city": "LANCASTER",
        "state": "OH",
        "postalCode": "43130-4628"
      },
      {
        "line": [
          "6150 E. Broad Street"
        ],
        "city": "COLUMBUS",
        "state": "OH",
        "postalCode": "43213-1574"
      },
      {
        "line": [
          "4445 E. Broad Street"
        ],
        "city": "COLUMBUS",
        "state": "OH",
        "postalCode": "43213-1327"
      },
      {
        "line": [
          "7911 Diley Road"
        ],
        "city": "CANAL WINCHESTER",
        "state": "OH",
        "postalCode": "43110-9653"
      },
      {
        "line": [
          "895 Old Diley Road"
        ],
        "city": "PICKERINGTON",
        "state": "OH",
        "postalCode": "43147-2009"
      },
      {
        "line": [
          "777 W. State Street"
        ],
        "city": "COLUMBUS",
        "state": "OH",
        "postalCode": "43222-1508"
      },
      {
        "line": [
          "120 North Pickaway Street"
        ],
        "city": "CIRCLEVILLE",
        "state": "OH",
        "postalCode": "43113-1730"
      },
      {
        "line": [
          "409 Industry Drive"
        ],
        "city": "COLUMBUS",
        "state": "OH",
        "postalCode": "43204-6234"
      },
      {
        "line": [
          "25428 State Route 104"
        ],
        "city": "CIRCLEVILLE",
        "state": "OH",
        "postalCode": "43113-9667"
      },
      {
        "line": [
          "7100 Graphics Way"
        ],
        "city": "LEWIS CENTER",
        "state": "OH",
        "postalCode": "43035-1122"
      },
      {
        "line": [
          "4965 Southern Point Blvd"
        ],
        "city": "ORIENT",
        "state": "OH",
        "postalCode": "43146-9248"
      },
      {
        "line": [
          "7333 Smiths Mill Road"
        ],
        "city": "NEW ALBANY",
        "state": "OH",
        "postalCode": "43054-9291"
      }
    ],
    "extension": [
      {
        "url": "https://fhir.athena.io/StructureDefinition/ah-practice",
        "valueReference": {
          "reference": "Organization/a-1.Practice-11128"
        }
      },
      {
        "url": "https://fhir.athena.io/StructureDefinition/ah-brand",
        "valueReference": {
          "reference": "Organization/a-11128.Brand-1"
        }
      }
    ]
  },
  "fullUrl": "urn:uuid:58c9224b-58d8-577f-8348-7bc5189dcb9b"
}