{
  "resource": {
    "resourceType": "Organization",
    "id": "2d194d8c-b6cb-5aeb-b55f-b7643c5d244a",
    "name": "Shawn L. Price, M.D.",
    "endpoint": [
      {
        "reference": "Endpoint/27a4e967-47aa-5a9c-a572-b8297ee268a2"
      },
      {
        "reference": "Endpoint/50e838ca-fcd5-5422-81de-8afc7471a1af"
      }
    ],
    "identifier": [
      {
        "system": "http://hl7.org/fhir/sid/us-npi",
        "value": "1326682733"
      }
    ],
    "address": [
      {
        "line": [
          "4960 NORTON HEALTHCARE BLVD"
        ],
        "city": "LOUISVILLE",
        "state": "KY",
        "postalCode": "40241-2831"
      },
      {
        "line": [
          "4001 DUTCHMANS LANE"
        ],
        "city": "LOUISVILLE",
        "state": "KY",
        "postalCode": "40207-4714"
      },
      {
        "line": [
          "1 AUDUBON PLAZA DRIVE"
        ],
        "city": "LOUISVILLE",
        "state": "KY",
        "postalCode": "40217-1318"
      },
      {
        "line": [
          "400 KRESGE WAY"
        ],
        "city": "LOUISVILLE",
        "state": "KY",
        "postalCode": "40207-4605"
      },
      {
        "line": [
          "2031 JEFFERSONVILLE COMMONS DR"
        ],
        "city": "JEFFERSONVILLE",
        "state": "IN",
        "postalCode": "47130-8996"
      },
      {
        "line": [
          "9407 WESTPORT RD SUITE 110"
        ],
        "city": "LOUISVILLE",
        "state": "KY",
        "postalCode": "40241-2315"
      },
      {
        "line": [
          "4910 CHAMBERLAIN LN"
        ],
        "city": "LOUISVILLE",
        "state": "KY",
        "postalCode": "40241-1110"
      },
      {
        "line": [
          "9407 Westport Road",
          "Suite 110"
        ],
        "city": "LOUISVILLE",
        "state": "KY",
        "postalCode": "40241-2315"
      },
      {
        "line": [
          "1850 STATE STREET"
        ],
        "city": "NEW ALBANY",
        "state": "KY",
        "postalCode": "47150-4990"
      },
      {
        "line": [
          "2511 TERRA CROSSING BLVD"
        ],
        "city": "LOUISVILLE",
        "state": "KY",
        "postalCode": "40245-5375"
      },
      {
        "line": [
          "900 HOSPITAL DR"
        ],
        "city": "MADISONVILLE",
        "state": "KY",
        "postalCode": "42431-1644"
      }
    ],
    "extension": [
      {
        "url": "https://fhir.athena.io/StructureDefinition/ah-practice",
        "valueReference": {
          "reference": "Organization/a-1.Practice-24363"
        }
      },
      {
        "url": "https://fhir.athena.io/StructureDefinition/ah-brand",
        "valueReference": {
          "reference": "Organization/a-24363.Brand-1"
        }
      }
    ]
  },
  "fullUrl": "urn:uuid:2d194d8c-b6cb-5aeb-b55f-b7643c5d244a"
}