{
  "resource": {
    "resourceType": "Organization",
    "id": "594e1632-a37e-525d-b9e8-c3a00cd58597",
    "name": "United Medical Doctors",
    "endpoint": [
      {
        "reference": "Endpoint/27a4e967-47aa-5a9c-a572-b8297ee268a2"
      },
      {
        "reference": "Endpoint/d5d26e5a-8c4c-5f9d-9d1b-c3dc0f32e7d1"
      }
    ],
    "identifier": [
      {
        "system": "http://hl7.org/fhir/sid/us-npi",
        "value": "1770559981"
      }
    ],
    "address": [
      {
        "line": [
          "28078 BAXTER RD",
          "530"
        ],
        "city": "MURRIETA",
        "state": "CA",
        "postalCode": "92563-1405"
      },
      {
        "line": [
          "24953 Paseo de Valencia"
        ],
        "city": "LAGUNA HILLS",
        "state": "CA",
        "postalCode": "92653-4341"
      },
      {
        "line": [
          "40663 Murrieta Hot Springs Rd",
          "Suite C1"
        ],
        "city": "MURRIETA",
        "state": "CA",
        "postalCode": "92562-9022"
      },
      {
        "line": [
          "521 E. ELDER ST",
          "104"
        ],
        "city": "FALLBROOK",
        "state": "CA",
        "postalCode": "92028-3082"
      },
      {
        "line": [
          "477 N El Camino Real",
          "SUITE A308"
        ],
        "city": "ENCINITAS",
        "state": "CA",
        "postalCode": "92024-2478"
      },
      {
        "line": [
          "12442 Limonite Ave Suite 209"
        ],
        "city": "MIRA LOMA",
        "state": "CA",
        "postalCode": "91752-2467"
      },
      {
        "line": [
          "31571 CANYON ESTATES DR",
          "SUITE 131"
        ],
        "city": "LAKE ELSINORE",
        "state": "CA",
        "postalCode": "92532-0425"
      },
      {
        "line": [
          "31469 Rancho Pueblo Rd",
          "Suite 101"
        ],
        "city": "TEMECULA",
        "state": "CA",
        "postalCode": "92592-4834"
      },
      {
        "line": [
          "800 Magnolia Ave # 113"
        ],
        "city": "CORONA",
        "state": "CA",
        "postalCode": "92879-8000"
      },
      {
        "line": [
          "477 N El Camino Real",
          "Suite A308"
        ],
        "city": "ENCINITAS",
        "state": "CA",
        "postalCode": "92024-1328"
      },
      {
        "line": [
          "18350 Roscoe Blvd",
          "Suite 702"
        ],
        "city": "NORTHRIDGE",
        "state": "CA",
        "postalCode": "91325-4109"
      },
      {
        "line": [
          "28078 Baxter Road",
          "Suite 530"
        ],
        "city": "MURRIETA",
        "state": "CA",
        "postalCode": "92563-1402"
      },
      {
        "line": [
          "15775 LAGUNA CANYON RD",
          "SUITE 240"
        ],
        "city": "IRVINE",
        "state": "CA",
        "postalCode": "92618-3145"
      },
      {
        "line": [
          "400 NEWPORT CENTER DR",
          "SUITE 609"
        ],
        "city": "NEWPORT BEACH",
        "state": "CA",
        "postalCode": "92660-7695"
      },
      {
        "line": [
          "29826 HAUN RD",
          "SUITE 308"
        ],
        "city": "MENIFEE",
        "state": "CA",
        "postalCode": "92586-6547"
      },
      {
        "line": [
          "31469 RANCHO PUEBLO RD"
        ],
        "city": "TEMECULA",
        "state": "CA",
        "postalCode": "92592-4832"
      },
      {
        "line": [
          "40663 MURRIETA HOT SPRINSG RD C1"
        ],
        "city": "MURRIETA",
        "state": "CA",
        "postalCode": "92562-9015"
      },
      {
        "line": [
          "519 Encinitas Blvd Suite 106"
        ],
        "city": "ENCINITAS",
        "state": "CA",
        "postalCode": "92024-5191"
      },
      {
        "line": [
          "31150 Temecula Parkway",
          "Ste 103"
        ],
        "city": "TEMECULA",
        "state": "CA",
        "postalCode": "92592-2916"
      },
      {
        "line": [
          "28078 Baxter Rd, Suite 530"
        ],
        "city": "MURRIETA",
        "state": "CA",
        "postalCode": "92563-1405"
      },
      {
        "line": [
          "520 SUPERIOR AVE",
          "SUITE 295"
        ],
        "city": "NEWPORT BEACH",
        "state": "CA",
        "postalCode": "92663-3667"
      },
      {
        "line": [
          "79180 Corporate Center Dr",
          "Suite 103"
        ],
        "city": "LA QUINTA",
        "state": "CA",
        "postalCode": "92253-7918"
      },
      {
        "line": [
          "4150 Regents Park Row",
          "Suite 345"
        ],
        "city": "LA JOLLA",
        "state": "CA",
        "postalCode": "92037-9124"
      },
      {
        "line": [
          "17822 BEACH BLVD",
          "SUITE 437"
        ],
        "city": "HUNTINGTON BEACH",
        "state": "CA",
        "postalCode": "92647-7181"
      },
      {
        "line": [
          "1140 West La Veta Ave  Suite 555"
        ],
        "city": "ORANGE",
        "state": "CA",
        "postalCode": "92868-4214"
      },
      {
        "line": [
          "40663 MURRIETA HOT SPRINGS RD",
          "C1"
        ],
        "city": "MURRIETA",
        "state": "CA",
        "postalCode": "92562-9015"
      },
      {
        "line": [
          "31170 Temecula Parkway",
          "Suite 102"
        ],
        "city": "TEMECULA",
        "state": "CA",
        "postalCode": "92592-3117"
      },
      {
        "line": [
          "31170 Temecula Parkway Suite 100"
        ],
        "city": "TEMECULA",
        "state": "CA",
        "postalCode": "92592-2915"
      },
      {
        "line": [
          "4150 Regents Park Row",
          "Suite 345"
        ],
        "city": "LA JOLLA",
        "state": "CA",
        "postalCode": "92037-1339"
      },
      {
        "line": [
          "35900 Bob Hope Dr.",
          "Suite 275"
        ],
        "city": "RANCHO MIRAGE",
        "state": "CA",
        "postalCode": "92270-1766"
      },
      {
        "line": [
          "3851 Katella Ave.  Suite 205"
        ],
        "city": "LOS ALAMITOS",
        "state": "CA",
        "postalCode": "90720-3309"
      },
      {
        "line": [
          "44605 Avenida de Missiones",
          "Suite 201"
        ],
        "city": "TEMECULA",
        "state": "CA",
        "postalCode": "92592-5895"
      },
      {
        "line": [
          "19582 Beach Blvd Suite 218"
        ],
        "city": "HUNTINGTON BEACH",
        "state": "CA",
        "postalCode": "92648-5924"
      },
      {
        "line": [
          "16405 Sand Canyon Ave",
          "Suite 250"
        ],
        "city": "IRVINE",
        "state": "CA",
        "postalCode": "92618-3787"
      },
      {
        "line": [
          "477 N. El Camino Real",
          "Suite A308"
        ],
        "city": "ENCINITAS",
        "state": "CA",
        "postalCode": "92024-1328"
      }
    ],
    "extension": [
      {
        "url": "https://fhir.athena.io/StructureDefinition/ah-practice",
        "valueReference": {
          "reference": "Organization/a-1.Practice-9170"
        }
      },
      {
        "url": "https://fhir.athena.io/StructureDefinition/ah-brand",
        "valueReference": {
          "reference": "Organization/a-9170.Brand-1"
        }
      }
    ]
  },
  "fullUrl": "urn:uuid:594e1632-a37e-525d-b9e8-c3a00cd58597"
}