{
  "resource": {
    "resourceType": "Organization",
    "id": "48310400-9054-5933-9a47-aa843face403",
    "name": "Los Angeles County Nephrology (GNS)",
    "endpoint": [
      {
        "reference": "Endpoint/27a4e967-47aa-5a9c-a572-b8297ee268a2"
      },
      {
        "reference": "Endpoint/ffb7e4c8-8caa-5d1c-a718-4f4d79559f11"
      }
    ],
    "identifier": [
      {
        "system": "http://hl7.org/fhir/sid/us-npi",
        "value": "1083649651"
      }
    ],
    "address": [
      {
        "line": [
          "1701 Santa Anita Ave"
        ],
        "city": "SOUTH EL MONTE",
        "state": "CA",
        "postalCode": "91733-3411"
      },
      {
        "line": [
          "3112 W. Beverly Blvd"
        ],
        "city": "MONTEBELLO",
        "state": "CA",
        "postalCode": "90640-2217"
      },
      {
        "line": [
          "13063 Rosecrans Ave",
          "BLDG 1"
        ],
        "city": "SANTA FE SPRINGS",
        "state": "CA",
        "postalCode": "90670-4930"
      },
      {
        "line": [
          "11204 E. Rush St"
        ],
        "city": "EL MONTE",
        "state": "CA",
        "postalCode": "91733-3551"
      },
      {
        "line": [
          "4081 E. Olympic Blvd"
        ],
        "city": "LOS ANGELES",
        "state": "CA",
        "postalCode": "90023-3330"
      },
      {
        "line": [
          "809 S. Atlantic Blvd.",
          "Ste 103"
        ],
        "city": "MONTEREY PARK",
        "state": "CA",
        "postalCode": "91754-4757"
      },
      {
        "line": [
          "1938 Tyler Ave.",
          "Suite J-168 S"
        ],
        "city": "SOUTH EL MONTE",
        "state": "CA",
        "postalCode": "91733-3610"
      },
      {
        "line": [
          "5942 Rugby Ave"
        ],
        "city": "HUNTINGTON PARK",
        "state": "CA",
        "postalCode": "90255-2803"
      },
      {
        "line": [
          "5714 East Olympic  Blvd"
        ],
        "city": "LOS ANGELES",
        "state": "CA",
        "postalCode": "90022-5115"
      },
      {
        "line": [
          "10012 Norwalk Blvd",
          "Suite 190"
        ],
        "city": "SANTA FE SPRINGS",
        "state": "CA",
        "postalCode": "90670-3345"
      },
      {
        "line": [
          "1700 E. Cesar Chavez",
          "Suite L, 100"
        ],
        "city": "LOS ANGELES",
        "state": "CA",
        "postalCode": "90033-2424"
      },
      {
        "line": [
          "433 N. 4th St",
          "Ste 102"
        ],
        "city": "MONTEBELLO",
        "state": "CA",
        "postalCode": "90640-4313"
      },
      {
        "line": [
          "1936 E. 1st St"
        ],
        "city": "LOS ANGELES",
        "state": "CA",
        "postalCode": "90033-3413"
      },
      {
        "line": [
          "5220 East Telford St"
        ],
        "city": "LOS ANGELES",
        "state": "CA",
        "postalCode": "90022-1722"
      },
      {
        "line": [
          "900 S. Atlantic Blvd"
        ],
        "city": "MONTEREY PARK",
        "state": "CA",
        "postalCode": "91754-4716"
      },
      {
        "line": [
          "3404 W Beverly Blvd"
        ],
        "city": "MONTEBELLO",
        "state": "CA",
        "postalCode": "90640-1538"
      },
      {
        "line": [
          "3114 W Beverly Blvd."
        ],
        "city": "MONTEBELLO",
        "state": "CA",
        "postalCode": "90640-2217"
      },
      {
        "line": [
          "1721 W. Whittier Blvd."
        ],
        "city": "MONTEBELLO",
        "state": "CA",
        "postalCode": "90640-4004"
      },
      {
        "line": [
          "4060 Whittier Blvd"
        ],
        "city": "LOS ANGELES",
        "state": "CA",
        "postalCode": "90023-2526"
      }
    ],
    "extension": [
      {
        "url": "https://fhir.athena.io/StructureDefinition/ah-practice",
        "valueReference": {
          "reference": "Organization/a-1.Practice-16656"
        }
      },
      {
        "url": "https://fhir.athena.io/StructureDefinition/ah-brand",
        "valueReference": {
          "reference": "Organization/a-16656.Brand-1"
        }
      }
    ]
  },
  "fullUrl": "urn:uuid:48310400-9054-5933-9a47-aa843face403"
}