{
  "resource": {
    "resourceType": "Organization",
    "id": "30cad5df-09d8-5166-8a98-d2395007b362",
    "name": "Acadian Physician Specialties",
    "endpoint": [
      {
        "reference": "Endpoint/27a4e967-47aa-5a9c-a572-b8297ee268a2"
      },
      {
        "reference": "Endpoint/adc685b8-8af7-5042-be25-e9031dfc82b8"
      }
    ],
    "identifier": [
      {
        "system": "http://hl7.org/fhir/sid/us-npi",
        "value": "1043936164"
      },
      {
        "system": "http://hl7.org/fhir/sid/us-npi",
        "value": "1871144469"
      },
      {
        "system": "http://hl7.org/fhir/sid/us-npi",
        "value": "1003467440"
      },
      {
        "system": "http://hl7.org/fhir/sid/us-npi",
        "value": "1225689821"
      },
      {
        "system": "http://hl7.org/fhir/sid/us-npi",
        "value": "1225840721"
      }
    ],
    "address": [
      {
        "line": [
          "3859 HIGHWAY 190"
        ],
        "city": "EUNICE",
        "state": "LA",
        "postalCode": "70535-7900"
      },
      {
        "line": [
          "3521 Hwy 190"
        ],
        "city": "EUNICE",
        "state": "LA",
        "postalCode": "70535-5135"
      },
      {
        "line": [
          "3521 HWY 190 SUITE T"
        ],
        "city": "EUNICE",
        "state": "LA",
        "postalCode": "70535-5823"
      },
      {
        "line": [
          "906 CHERRY ST"
        ],
        "city": "MAMOU",
        "state": "LA",
        "postalCode": "70554-2215"
      },
      {
        "line": [
          "954 E PRUDHOMME ST"
        ],
        "city": "OPELOUSAS",
        "state": "LA",
        "postalCode": "70570-8239"
      },
      {
        "line": [
          "1401 W Magnolia Ave"
        ],
        "city": "EUNICE",
        "state": "LA",
        "postalCode": "70535-5129"
      },
      {
        "line": [
          "3521 HIGHWAY 190 STE T"
        ],
        "city": "EUNICE",
        "state": "LA",
        "postalCode": "70535-5135"
      },
      {
        "line": [
          "901 Cherry St"
        ],
        "city": "MAMOU",
        "state": "LA",
        "postalCode": "70554-2215"
      },
      {
        "line": [
          "3521 HIGHWAY 190"
        ],
        "city": "EUNICE",
        "state": "LA",
        "postalCode": "70535-5135"
      }
    ],
    "extension": [
      {
        "url": "https://fhir.athena.io/StructureDefinition/ah-practice",
        "valueReference": {
          "reference": "Organization/a-1.Practice-27785"
        }
      },
      {
        "url": "https://fhir.athena.io/StructureDefinition/ah-brand",
        "valueReference": {
          "reference": "Organization/a-27785.Brand-1"
        }
      }
    ]
  },
  "fullUrl": "urn:uuid:30cad5df-09d8-5166-8a98-d2395007b362"
}