{
  "resource": {
    "resourceType": "Organization",
    "id": "240f48a8-f0d2-5922-b272-df29aad79a7a",
    "name": "Better Life Spine and Pain Center",
    "endpoint": [
      {
        "reference": "Endpoint/27a4e967-47aa-5a9c-a572-b8297ee268a2"
      },
      {
        "reference": "Endpoint/14990ba2-6ba8-549c-b291-32d09985d4f2"
      }
    ],
    "identifier": [
      {
        "system": "http://hl7.org/fhir/sid/us-npi",
        "value": "1043834823"
      }
    ],
    "address": [
      {
        "line": [
          "21214 NORTHWEST FWY"
        ],
        "city": "CYPRESS",
        "state": "TX",
        "postalCode": "77429-2105"
      },
      {
        "line": [
          "20635 KUYKENDAHL RD"
        ],
        "city": "SPRING",
        "state": "TX",
        "postalCode": "77379-3533"
      },
      {
        "line": [
          "1917 ASHLAND ST"
        ],
        "city": "HOUSTON",
        "state": "TX",
        "postalCode": "77008-3907"
      },
      {
        "line": [
          "12518 Cutten Rd"
        ],
        "city": "HOUSTON",
        "state": "TX",
        "postalCode": "77066-1804"
      },
      {
        "line": [
          "8731 KATY FWY STE 400"
        ],
        "city": "HOUSTON",
        "state": "TX",
        "postalCode": "77024-1735"
      },
      {
        "line": [
          "12518 CUTTEN RD"
        ],
        "city": "HOUSTON",
        "state": "TX",
        "postalCode": "77066-1804"
      },
      {
        "line": [
          "18220 STATE HIGHWAY 249"
        ],
        "city": "HOUSTON",
        "state": "TX",
        "postalCode": "77070-4347"
      },
      {
        "line": [
          "16750 RED OAK DR"
        ],
        "city": "HOUSTON",
        "state": "TX",
        "postalCode": "77090-2543"
      },
      {
        "line": [
          "1900 NORTH LOOP W STE 550"
        ],
        "city": "HOUSTON",
        "state": "TX",
        "postalCode": "77018-8119"
      },
      {
        "line": [
          "12518 Cutten Road"
        ],
        "city": "HOUSTON",
        "state": "TX",
        "postalCode": "77066-1804"
      },
      {
        "line": [
          "17080 Red Oak Dr"
        ],
        "city": "HOUSTON",
        "state": "TX",
        "postalCode": "77090-2602"
      },
      {
        "line": [
          "27800 NW FREEWAY"
        ],
        "city": "CYPRESS",
        "state": "TX",
        "postalCode": "77433-5302"
      },
      {
        "line": [
          "18220 TX-249"
        ],
        "city": "HOUSTON",
        "state": "TX",
        "postalCode": "77070-4347"
      },
      {
        "line": [
          "3301 SPRING STUEBNER RD"
        ],
        "city": "SPRING",
        "state": "TX",
        "postalCode": "77389-5194"
      },
      {
        "line": [
          "1635 NORTH LOOP W"
        ],
        "city": "HOUSTON",
        "state": "TX",
        "postalCode": "77008-1532"
      }
    ],
    "extension": [
      {
        "url": "https://fhir.athena.io/StructureDefinition/ah-practice",
        "valueReference": {
          "reference": "Organization/a-1.Practice-21797"
        }
      },
      {
        "url": "https://fhir.athena.io/StructureDefinition/ah-brand",
        "valueReference": {
          "reference": "Organization/a-21797.Brand-1"
        }
      }
    ]
  },
  "fullUrl": "urn:uuid:240f48a8-f0d2-5922-b272-df29aad79a7a"
}