{
  "resource": {
    "resourceType": "Organization",
    "id": "86e5afd9-b92f-5c6c-bcce-4e827e7ae76c",
    "name": "Bentley Care Center",
    "endpoint": [
      {
        "reference": "Endpoint/27a4e967-47aa-5a9c-a572-b8297ee268a2"
      },
      {
        "reference": "Endpoint/293de12c-86eb-558b-a214-82d93f7b3f26"
      }
    ],
    "identifier": [
      {
        "system": "http://hl7.org/fhir/sid/us-npi",
        "value": "1225766793"
      }
    ],
    "address": [
      {
        "line": [
          "1170 San Marco Rd"
        ],
        "city": "MARCO ISLAND",
        "state": "FL",
        "postalCode": "34145-5017"
      },
      {
        "line": [
          "8901 Tamiami Trl E"
        ],
        "city": "NAPLES",
        "state": "FL",
        "postalCode": "34113-3307"
      },
      {
        "line": [
          "2781 SIENA LAKES CIRCLE"
        ],
        "city": "NAPLES",
        "state": "FL",
        "postalCode": "34109-9070"
      },
      {
        "line": [
          "13755 GOLF CLUB PKWY"
        ],
        "city": "FORT MYERS",
        "state": "FL",
        "postalCode": "33919-5146"
      },
      {
        "line": [
          "3490 THRIVE DR"
        ],
        "city": "NAPLES",
        "state": "FL",
        "postalCode": "34105-5082"
      },
      {
        "line": [
          "777 Ninth St N"
        ],
        "city": "NAPLES",
        "state": "FL",
        "postalCode": "34102-8135"
      },
      {
        "line": [
          "1414 69th Ave W"
        ],
        "city": "BRADENTON",
        "state": "FL",
        "postalCode": "34207-5850"
      },
      {
        "line": [
          "100 Glenview Place"
        ],
        "city": "NAPLES",
        "state": "FL",
        "postalCode": "34108-9999"
      },
      {
        "line": [
          "7801 AIRPORT PULLING RD N"
        ],
        "city": "NAPLES",
        "state": "FL",
        "postalCode": "34109-1717"
      },
      {
        "line": [
          "15800 BEACH WALK BLVD"
        ],
        "city": "FORT MYERS",
        "state": "FL",
        "postalCode": "33908-3388"
      },
      {
        "line": [
          "1600 Matthew Dr"
        ],
        "city": "FORT MYERS",
        "state": "FL",
        "postalCode": "33907-1700"
      },
      {
        "line": [
          "2338 Immokalee Road",
          "Suite 186"
        ],
        "city": "NAPLES",
        "state": "FL",
        "postalCode": "34110-1455"
      },
      {
        "line": [
          "900 Imperial Golf Course Blvd"
        ],
        "city": "NAPLES",
        "state": "FL",
        "postalCode": "34110-9999"
      },
      {
        "line": [
          "1000 Airport Pulling Road South"
        ],
        "city": "NAPLES",
        "state": "FL",
        "postalCode": "34104-4365"
      },
      {
        "line": [
          "8300 Collier Boulevard"
        ],
        "city": "NAPLES",
        "state": "FL",
        "postalCode": "34114-3549"
      },
      {
        "line": [
          "13881 Eagle River Drive"
        ],
        "city": "FORT MYERS",
        "state": "FL",
        "postalCode": "33912-1866"
      },
      {
        "line": [
          "15950 McGregor Blvd"
        ],
        "city": "FORT MYERS",
        "state": "FL",
        "postalCode": "33908-2551"
      },
      {
        "line": [
          "36 BARKLEY CIR"
        ],
        "city": "FORT MYERS",
        "state": "FL",
        "postalCode": "33907-4520"
      },
      {
        "line": [
          "850 Retreat Drive"
        ],
        "city": "NAPLES",
        "state": "FL",
        "postalCode": "34110-9999"
      },
      {
        "line": [
          "15150 TAMIAMI TRL N"
        ],
        "city": "NAPLES",
        "state": "FL",
        "postalCode": "34110-2227"
      },
      {
        "line": [
          "6150 Edgelake Dr"
        ],
        "city": "SARASOTA",
        "state": "FL",
        "postalCode": "34240-8803"
      },
      {
        "line": [
          "6869 Davis Blvd"
        ],
        "city": "NAPLES",
        "state": "FL",
        "postalCode": "34101-9999"
      },
      {
        "line": [
          "8417 SIERRA MEADOWS BLVD"
        ],
        "city": "NAPLES",
        "state": "FL",
        "postalCode": "34113-7369"
      },
      {
        "line": [
          "1285 Creekside Boulevard East"
        ],
        "city": "NAPLES",
        "state": "FL",
        "postalCode": "34109-0577"
      },
      {
        "line": [
          "9731 Commerce Center Court"
        ],
        "city": "FORT MYERS",
        "state": "FL",
        "postalCode": "33908-9999"
      },
      {
        "line": [
          "10949 Parnu St"
        ],
        "city": "NAPLES",
        "state": "FL",
        "postalCode": "34109-9999"
      },
      {
        "line": [
          "1710 SW HEALTH PKWY"
        ],
        "city": "NAPLES",
        "state": "FL",
        "postalCode": "34109-0442"
      },
      {
        "line": [
          "770 GOODLETTE-FRANK RD N"
        ],
        "city": "NAPLES",
        "state": "FL",
        "postalCode": "34102-5607"
      },
      {
        "line": [
          "1550 LEE BLVD"
        ],
        "city": "LEHIGH ACRES",
        "state": "FL",
        "postalCode": "33936-4835"
      },
      {
        "line": [
          "18301 TRIFECTA LN"
        ],
        "city": "FORT MYERS",
        "state": "FL",
        "postalCode": "33967-3032"
      },
      {
        "line": [
          "6855 Davis Blvd"
        ],
        "city": "NAPLES",
        "state": "FL",
        "postalCode": "34104-5320"
      },
      {
        "line": [
          "7901 Radio Rd"
        ],
        "city": "NAPLES",
        "state": "FL",
        "postalCode": "34104-6749"
      },
      {
        "line": [
          "1321 NE 24TH AVE"
        ],
        "city": "CAPE CORAL",
        "state": "FL",
        "postalCode": "33909-2861"
      },
      {
        "line": [
          "2525 E FIRST ST"
        ],
        "city": "FORT MYERS",
        "state": "FL",
        "postalCode": "33901-2465"
      },
      {
        "line": [
          "875 Retreat Drive"
        ],
        "city": "NAPLES",
        "state": "FL",
        "postalCode": "34110-9999"
      },
      {
        "line": [
          "450 SHREVE ST"
        ],
        "city": "PUNTA GORDA",
        "state": "FL",
        "postalCode": "33950-3325"
      },
      {
        "line": [
          "6125 RATTLESNAKE HAMMOCK RD"
        ],
        "city": "NAPLES",
        "state": "FL",
        "postalCode": "34113-2912"
      },
      {
        "line": [
          "8480 Rattlesnake Hammock Rd"
        ],
        "city": "NAPLES",
        "state": "FL",
        "postalCode": "34114-2503"
      },
      {
        "line": [
          "2900 12TH ST N"
        ],
        "city": "NAPLES",
        "state": "FL",
        "postalCode": "34103-4528"
      },
      {
        "line": [
          "14001 METRO PKWY"
        ],
        "city": "FORT MYERS",
        "state": "FL",
        "postalCode": "33912-4543"
      },
      {
        "line": [
          "15450 TAMIAMI TRL N"
        ],
        "city": "NAPLES",
        "state": "FL",
        "postalCode": "34110-6217"
      },
      {
        "line": [
          "3050 CHAMPION RING RD"
        ],
        "city": "FORT MYERS",
        "state": "FL",
        "postalCode": "33905-5599"
      },
      {
        "line": [
          "2338 IMMOKALEE RD PMB 186"
        ],
        "city": "NAPLES",
        "state": "FL",
        "postalCode": "34110-1445"
      },
      {
        "line": [
          "2338 IMMOKALEE RD # 186"
        ],
        "city": "NAPLES",
        "state": "FL",
        "postalCode": "34110-1445"
      },
      {
        "line": [
          "6825 DAVIS BLVD"
        ],
        "city": "NAPLES",
        "state": "FL",
        "postalCode": "34104-5322"
      },
      {
        "line": [
          "8460 MURANO DEL LAGO DR"
        ],
        "city": "BONITA SPRINGS",
        "state": "FL",
        "postalCode": "34135-8863"
      },
      {
        "line": [
          "1260 CREEKSIDE BLVD E"
        ],
        "city": "NAPLES",
        "state": "FL",
        "postalCode": "34109-0579"
      },
      {
        "line": [
          "2626 Goodlette Frank Rd"
        ],
        "city": "NAPLES",
        "state": "FL",
        "postalCode": "34103-4526"
      },
      {
        "line": [
          "1500 LEE BLVD FL 3"
        ],
        "city": "LEHIGH ACRES",
        "state": "FL",
        "postalCode": "33936-4835"
      },
      {
        "line": [
          "6101 Pine Ridge Road"
        ],
        "city": "NAPLES",
        "state": "FL",
        "postalCode": "34119-3900"
      },
      {
        "line": [
          "14305 COLLIER BLVD"
        ],
        "city": "NAPLES",
        "state": "FL",
        "postalCode": "34119-9589"
      },
      {
        "line": [
          "1285 Creekside Boulevard"
        ],
        "city": "NAPLES",
        "state": "FL",
        "postalCode": "34109-0577"
      },
      {
        "line": [
          "2639 Curry Ln"
        ],
        "city": "NOKOMIS",
        "state": "FL",
        "postalCode": "34275-4903"
      },
      {
        "line": [
          "2674 Winkler Ave"
        ],
        "city": "FORT MYERS",
        "state": "FL",
        "postalCode": "33901-9361"
      },
      {
        "line": [
          "6150 MEDICAL PARK LOOP"
        ],
        "city": "FORT MYERS",
        "state": "FL",
        "postalCode": "33912-4537"
      },
      {
        "line": [
          "1320 OAKFIELD DR"
        ],
        "city": "BRANDON",
        "state": "FL",
        "postalCode": "33511-4860"
      },
      {
        "line": [
          "1730 NE Pine Island Rd"
        ],
        "city": "CAPE CORAL",
        "state": "FL",
        "postalCode": "33909-1734"
      },
      {
        "line": [
          "3601 LAKEWOOD BLVD"
        ],
        "city": "NAPLES",
        "state": "FL",
        "postalCode": "34112-6145"
      },
      {
        "line": [
          "130 Moorings Park Drive"
        ],
        "city": "NAPLES",
        "state": "FL",
        "postalCode": "34105-9999"
      },
      {
        "line": [
          "5175 Tamiami Trl E"
        ],
        "city": "NAPLES",
        "state": "FL",
        "postalCode": "34113-4100"
      },
      {
        "line": [
          "6870 ALISTER WAY"
        ],
        "city": "FORT MYERS",
        "state": "FL",
        "postalCode": "33912-4535"
      },
      {
        "line": [
          "4920 VICEROY CT"
        ],
        "city": "CAPE CORAL",
        "state": "FL",
        "postalCode": "33904-9048"
      },
      {
        "line": [
          "9015 Bellaire Bay Drive"
        ],
        "city": "NAPLES",
        "state": "FL",
        "postalCode": "34120-9999"
      },
      {
        "line": [
          "6135 RATTLESNAKE HAMMOCK RD"
        ],
        "city": "NAPLES",
        "state": "FL",
        "postalCode": "34113-2912"
      },
      {
        "line": [
          "800 W Azeele Street"
        ],
        "city": "TAMPA",
        "state": "FL",
        "postalCode": "33606-2210"
      },
      {
        "line": [
          "27221 Bay Landing Dr"
        ],
        "city": "BONITA SPRINGS",
        "state": "FL",
        "postalCode": "34135-4355"
      },
      {
        "line": [
          "11190 Health Park Boulevard"
        ],
        "city": "NAPLES",
        "state": "FL",
        "postalCode": "34109-5729"
      },
      {
        "line": [
          "11400 LONGFELLOW LN"
        ],
        "city": "BONITA SPRINGS",
        "state": "FL",
        "postalCode": "34135-5963"
      },
      {
        "line": [
          "10949 Parnu Street"
        ],
        "city": "NAPLES",
        "state": "FL",
        "postalCode": "34109-1405"
      },
      {
        "line": [
          "875 RETREAT DR"
        ],
        "city": "NAPLES",
        "state": "FL",
        "postalCode": "34110-7927"
      },
      {
        "line": [
          "6940 Outreach Way"
        ],
        "city": "NORTH PORT",
        "state": "FL",
        "postalCode": "34287-3405"
      },
      {
        "line": [
          "1155 ENCORE WAY"
        ],
        "city": "NAPLES",
        "state": "FL",
        "postalCode": "34110-9172"
      },
      {
        "line": [
          "3053 Airport Pulling Road N"
        ],
        "city": "NAPLES",
        "state": "FL",
        "postalCode": "34105-3076"
      },
      {
        "line": [
          "3850 Williams Rd"
        ],
        "city": "ESTERO",
        "state": "FL",
        "postalCode": "33928-9999"
      }
    ],
    "extension": [
      {
        "url": "https://fhir.athena.io/StructureDefinition/ah-practice",
        "valueReference": {
          "reference": "Organization/a-1.Practice-14267"
        }
      },
      {
        "url": "https://fhir.athena.io/StructureDefinition/ah-brand",
        "valueReference": {
          "reference": "Organization/a-14267.Brand-6"
        }
      }
    ]
  },
  "fullUrl": "urn:uuid:86e5afd9-b92f-5c6c-bcce-4e827e7ae76c"
}