{
  "resource": {
    "resourceType": "Organization",
    "id": "12d087dc-3581-5e62-82c1-5cabcb83cf8c",
    "name": "AMG Bay West",
    "endpoint": [
      {
        "reference": "Endpoint/27a4e967-47aa-5a9c-a572-b8297ee268a2"
      },
      {
        "reference": "Endpoint/cda151c2-c5d8-547b-83ee-ac06e5cbc324"
      }
    ],
    "identifier": [
      {
        "system": "http://hl7.org/fhir/sid/us-npi",
        "value": "1265719033"
      }
    ],
    "address": [
      {
        "line": [
          "601 12th St",
          "16th Fl"
        ],
        "city": "OAKLAND",
        "state": "CA",
        "postalCode": "94607-3613"
      },
      {
        "line": [
          "3524 Breakwater Ave",
          "Unit C"
        ],
        "city": "HAYWARD",
        "state": "CA",
        "postalCode": "94545-3622"
      },
      {
        "line": [
          "1580 VALENCIA ST STE 201"
        ],
        "city": "SAN FRANCISCO",
        "state": "CA",
        "postalCode": "94110-4420"
      },
      {
        "line": [
          "26236 Industrial Blvd."
        ],
        "city": "HAYWARD",
        "state": "CA",
        "postalCode": "94545-5041"
      },
      {
        "line": [
          "1440 Southgate Ave",
          "Suite 5"
        ],
        "city": "DALY CITY",
        "state": "CA",
        "postalCode": "94015-2246"
      },
      {
        "line": [
          "1301 MARINA VILLAGE PKWY"
        ],
        "city": "ALAMEDA",
        "state": "CA",
        "postalCode": "94501-1082"
      },
      {
        "line": [
          "1580 Valencia St",
          "Suite 201"
        ],
        "city": "SAN FRANCISCO",
        "state": "CA",
        "postalCode": "94110-4420"
      },
      {
        "line": [
          "1320 Willow Pass Rd. Suite 555"
        ],
        "city": "CONCORD",
        "state": "CA",
        "postalCode": "94520-7990"
      },
      {
        "line": [
          "1800 Sutter St.",
          "Suite 420A"
        ],
        "city": "CONCORD",
        "state": "CA",
        "postalCode": "94520-2563"
      },
      {
        "line": [
          "24301 Southland Dr",
          "Suite 411"
        ],
        "city": "HAYWARD",
        "state": "CA",
        "postalCode": "94545-1551"
      },
      {
        "line": [
          "533 Airport Blvd",
          "Suite 315"
        ],
        "city": "BURLINGAME",
        "state": "CA",
        "postalCode": "94010-2013"
      },
      {
        "line": [
          "333 Hegenberger Rd",
          "Suite 710"
        ],
        "city": "OAKLAND",
        "state": "CA",
        "postalCode": "94621-1463"
      },
      {
        "line": [
          "85 Morgaga Way"
        ],
        "city": "ORINDA",
        "state": "CA",
        "postalCode": "94563-3012"
      },
      {
        "line": [
          "212 9th St. Suite 205"
        ],
        "city": "OAKLAND",
        "state": "CA",
        "postalCode": "94607-4478"
      },
      {
        "line": [
          "6717 Mission St",
          "Suite D2"
        ],
        "city": "DALY CITY",
        "state": "CA",
        "postalCode": "94014-2069"
      },
      {
        "line": [
          "585 N. Mary Ave"
        ],
        "city": "SUNNYVALE",
        "state": "CA",
        "postalCode": "94085-2905"
      },
      {
        "line": [
          "868 Brannan St",
          "Suite 307"
        ],
        "city": "SAN FRANCISCO",
        "state": "CA",
        "postalCode": "94103-4928"
      },
      {
        "line": [
          "2133 Las Positas Ct",
          "Suite I & J"
        ],
        "city": "LIVERMORE",
        "state": "CA",
        "postalCode": "94551-8870"
      },
      {
        "line": [
          "455 Hickey Blvd",
          "Suite 415"
        ],
        "city": "DALY CITY",
        "state": "CA",
        "postalCode": "94015-9998"
      },
      {
        "line": [
          "3340 WALNUT AVE",
          "STE 111"
        ],
        "city": "FREMONT",
        "state": "CA",
        "postalCode": "94538-2215"
      },
      {
        "line": [
          "400 Oyster Point Blvd",
          "Suite 201"
        ],
        "city": "SOUTH SAN FRANCISCO",
        "state": "CA",
        "postalCode": "94080-1918"
      },
      {
        "line": [
          "4133 Mohr Ave, Suite A&B"
        ],
        "city": "PLEASANTON",
        "state": "CA",
        "postalCode": "94566-4750"
      },
      {
        "line": [
          "1025 Atlantic",
          "Suite 100B"
        ],
        "city": "ALAMEDA",
        "state": "CA",
        "postalCode": "94501-1187"
      },
      {
        "line": [
          "4133 Mohr Ave",
          "Suite B"
        ],
        "city": "PLEASANTON",
        "state": "CA",
        "postalCode": "94566-4750"
      },
      {
        "line": [
          "3170 Crow Canyon",
          "Suite 270"
        ],
        "city": "SAN RAMON",
        "state": "CA",
        "postalCode": "94583-1157"
      },
      {
        "line": [
          "1601 old Bayshore Hwy",
          "Suite 258"
        ],
        "city": "BURLINGAME",
        "state": "CA",
        "postalCode": "94010-1514"
      },
      {
        "line": [
          "2340 Clay Street,2nd Flr. Suite 2A"
        ],
        "city": "SAN FRANCISCO",
        "state": "CA",
        "postalCode": "94115-1932"
      },
      {
        "line": [
          "112 La Casa Via",
          "Suite 160"
        ],
        "city": "WALNUT CREEK",
        "state": "CA",
        "postalCode": "94598-3094"
      },
      {
        "line": [
          "6729 N. Willow # 103"
        ],
        "city": "FRESNO",
        "state": "CA",
        "postalCode": "93710-5952"
      },
      {
        "line": [
          "859 Corporate  Way"
        ],
        "city": "FREMONT",
        "state": "CA",
        "postalCode": "94539-9998"
      },
      {
        "line": [
          "1633 OLD BAYSHORE HWY",
          "STE 216"
        ],
        "city": "BURLINGAME",
        "state": "CA",
        "postalCode": "94010-1534"
      },
      {
        "line": [
          "7677 Oakport St",
          "Suite 930"
        ],
        "city": "OAKLAND",
        "state": "CA",
        "postalCode": "94621-1463"
      },
      {
        "line": [
          "333 Gellert Blvd",
          "Suite 227"
        ],
        "city": "DALY CITY",
        "state": "CA",
        "postalCode": "94015-2621"
      },
      {
        "line": [
          "1528 S.EL CAMINO REAL #108"
        ],
        "city": "SAN MATEO",
        "state": "CA",
        "postalCode": "94402-3067"
      },
      {
        "line": [
          "851 Burlway Rd",
          "Suite 502"
        ],
        "city": "BURLINGAME",
        "state": "CA",
        "postalCode": "94010-1714"
      },
      {
        "line": [
          "1700 S Amphlett Blvd",
          "Suite 300"
        ],
        "city": "SAN MATEO",
        "state": "CA",
        "postalCode": "94402-2726"
      },
      {
        "line": [
          "100 Rowland Way Ste 210"
        ],
        "city": "NOVATO",
        "state": "CA",
        "postalCode": "94945-5041"
      }
    ],
    "extension": [
      {
        "url": "https://fhir.athena.io/StructureDefinition/ah-practice",
        "valueReference": {
          "reference": "Organization/a-1.Practice-24668"
        }
      },
      {
        "url": "https://fhir.athena.io/StructureDefinition/ah-brand",
        "valueReference": {
          "reference": "Organization/a-24668.Brand-1"
        }
      }
    ]
  },
  "fullUrl": "urn:uuid:12d087dc-3581-5e62-82c1-5cabcb83cf8c"
}