{
  "resource": {
    "resourceType": "Organization",
    "id": "a288a8a0-883a-554f-b8f9-1de416e64570",
    "name": "Bakersfield Heart Hospital",
    "endpoint": [
      {
        "reference": "Endpoint/27a4e967-47aa-5a9c-a572-b8297ee268a2"
      },
      {
        "reference": "Endpoint/1890aaae-cdff-540f-8c27-7f89bd0f07cc"
      }
    ],
    "identifier": [
      {
        "system": "http://hl7.org/fhir/sid/us-npi",
        "value": "1326419417"
      }
    ],
    "address": [
      {
        "line": [
          "22635 Alessandro Blvd",
          "Suite D"
        ],
        "city": "MORENO VALLEY",
        "state": "CA",
        "postalCode": "92553-8550"
      },
      {
        "line": [
          "710 S CENTRAL AVE STE 240"
        ],
        "city": "GLENDALE",
        "state": "CA",
        "postalCode": "91204-4645"
      },
      {
        "line": [
          "30200 Agoura Rd"
        ],
        "city": "AGOURA HILLS",
        "state": "CA",
        "postalCode": "91301-5434"
      },
      {
        "line": [
          "710 South Central Ave",
          "240"
        ],
        "city": "GLENDALE",
        "state": "CA",
        "postalCode": "91204-4609"
      },
      {
        "line": [
          "710 s central ave ate 240"
        ],
        "city": "GLENDALE",
        "state": "CA",
        "postalCode": "91204-4609"
      },
      {
        "line": [
          "30200 Agoura Road",
          "Suite 160"
        ],
        "city": "AGOURA HILLS",
        "state": "CA",
        "postalCode": "91301-5434"
      },
      {
        "line": [
          "710 South Central Ave"
        ],
        "city": "GLENDALE",
        "state": "CA",
        "postalCode": "91204-4609"
      },
      {
        "line": [
          "8929 Willshire BLvd., 415"
        ],
        "city": "BEVERLY HILLS",
        "state": "CA",
        "postalCode": "90211-1938"
      },
      {
        "line": [
          "2557 Pacific Cost High Way"
        ],
        "city": "TORRANCE",
        "state": "CA",
        "postalCode": "90505-7035"
      },
      {
        "line": [
          "4910 Van Nuys Blvd., 308"
        ],
        "city": "SHERMAN OAKS",
        "state": "CA",
        "postalCode": "91403-1715"
      },
      {
        "line": [
          "30200 AGOURA RD"
        ],
        "city": "AGOURA HILLS",
        "state": "CA",
        "postalCode": "91301-5434"
      },
      {
        "line": [
          "3001 Sillect Ave"
        ],
        "city": "BAKERSFIELD",
        "state": "CA",
        "postalCode": "93308-6337"
      },
      {
        "line": [
          "2701 CHESTER AVE SUITE 102"
        ],
        "city": "BAKERSFIELD",
        "state": "CA",
        "postalCode": "93301-2016"
      }
    ],
    "extension": [
      {
        "url": "https://fhir.athena.io/StructureDefinition/ah-practice",
        "valueReference": {
          "reference": "Organization/a-1.Practice-12545"
        }
      },
      {
        "url": "https://fhir.athena.io/StructureDefinition/ah-brand",
        "valueReference": {
          "reference": "Organization/a-12545.Brand-1"
        }
      }
    ]
  },
  "fullUrl": "urn:uuid:a288a8a0-883a-554f-b8f9-1de416e64570"
}