{
  "resource": {
    "resourceType": "Organization",
    "id": "6a31c709-2a9e-583b-ab6e-a33d7082e4d1",
    "name": "KANSAS KIDS HEART CENTER, PA",
    "endpoint": [
      {
        "reference": "Endpoint/27a4e967-47aa-5a9c-a572-b8297ee268a2"
      },
      {
        "reference": "Endpoint/2c7b793f-ba1b-5589-bf97-fa7ec7dfffb5"
      }
    ],
    "identifier": [
      {
        "system": "http://hl7.org/fhir/sid/us-npi",
        "value": "1730402645"
      }
    ],
    "address": [
      {
        "line": [
          "7015 E Central Ave Suite 2"
        ],
        "city": "WICHITA",
        "state": "KS",
        "postalCode": "67206-1943"
      },
      {
        "line": [
          "3515 BROADWAY"
        ],
        "city": "GREAT BEND",
        "state": "KS",
        "postalCode": "67530-3633"
      },
      {
        "line": [
          "1902 S US HWY 59",
          "BLDG E, STE 200, 2nd Floor"
        ],
        "city": "PARSONS",
        "state": "KS",
        "postalCode": "67357-4948"
      },
      {
        "line": [
          "2132 N Kansas Ave"
        ],
        "city": "LIBERAL",
        "state": "KS",
        "postalCode": "67901-2098"
      },
      {
        "line": [
          "7015 E CENTRAL AVE STE 2"
        ],
        "city": "WICHITA",
        "state": "KS",
        "postalCode": "67206-1946"
      },
      {
        "line": [
          "250 WEST 9TH STREET"
        ],
        "city": "HOISINGTON",
        "state": "KS",
        "postalCode": "67544-1706"
      },
      {
        "line": [
          "7015 E. Central avenue"
        ],
        "city": "WICHITA",
        "state": "KS",
        "postalCode": "67206-1943"
      },
      {
        "line": [
          "7015 E. Central Avenue"
        ],
        "city": "WICHITA",
        "state": "KS",
        "postalCode": "67206-1943"
      },
      {
        "line": [
          "1124 West 21st"
        ],
        "city": "ANDOVER",
        "state": "KS",
        "postalCode": "67002-5500"
      },
      {
        "line": [
          "7015 E CENTRAL",
          "SUITE 2"
        ],
        "city": "WICHITA",
        "state": "KS",
        "postalCode": "67206-1946"
      }
    ],
    "extension": [
      {
        "url": "https://fhir.athena.io/StructureDefinition/ah-practice",
        "valueReference": {
          "reference": "Organization/a-1.Practice-9132"
        }
      },
      {
        "url": "https://fhir.athena.io/StructureDefinition/ah-brand",
        "valueReference": {
          "reference": "Organization/a-9132.Brand-1"
        }
      }
    ]
  },
  "fullUrl": "urn:uuid:6a31c709-2a9e-583b-ab6e-a33d7082e4d1"
}