{
  "resource": {
    "resourceType": "Organization",
    "id": "7382be9f-d4a8-5c10-a91b-6a78971b48d5",
    "name": "Cleveland County YMCA",
    "endpoint": [
      {
        "reference": "Endpoint/27a4e967-47aa-5a9c-a572-b8297ee268a2"
      },
      {
        "reference": "Endpoint/844957f9-c577-598d-9d54-4ace7258b252"
      }
    ],
    "identifier": [
      {
        "system": "http://hl7.org/fhir/sid/us-npi",
        "value": "1780131508"
      }
    ],
    "address": [
      {
        "line": [
          "1480 S DEKALB ST"
        ],
        "city": "SHELBY",
        "state": "NC",
        "postalCode": "28152-8648"
      },
      {
        "line": [
          "400 W MARION ST"
        ],
        "city": "SHELBY",
        "state": "NC",
        "postalCode": "28150-5338"
      },
      {
        "line": [
          "1907 STONY POINT RD"
        ],
        "city": "SHELBY",
        "state": "NC",
        "postalCode": "28150-9602"
      },
      {
        "line": [
          "436 SCHOOL HOUSE RD"
        ],
        "city": "CASAR",
        "state": "NC",
        "postalCode": "28020-7749"
      },
      {
        "line": [
          "1000 PHIFER RD"
        ],
        "city": "KINGS MOUNTAIN",
        "state": "NC",
        "postalCode": "28086-3750"
      },
      {
        "line": [
          "526 DAVIS RD"
        ],
        "city": "SHELBY",
        "state": "NC",
        "postalCode": "28152-0720"
      },
      {
        "line": [
          "800 OLD BOILING SPRINGS RD"
        ],
        "city": "SHELBY",
        "state": "NC",
        "postalCode": "28152-0519"
      },
      {
        "line": [
          "1440 UNION CHURCH RD"
        ],
        "city": "SHELBY",
        "state": "NC",
        "postalCode": "28150-9009"
      },
      {
        "line": [
          "206 CAROLINA AVE"
        ],
        "city": "GROVER",
        "state": "NC",
        "postalCode": "28073-9551"
      },
      {
        "line": [
          "211 CLEVELAND AVE"
        ],
        "city": "KINGS MOUNTAIN",
        "state": "NC",
        "postalCode": "28086-3105"
      },
      {
        "line": [
          "411 CHERRYVILLE RD"
        ],
        "city": "SHELBY",
        "state": "NC",
        "postalCode": "28150-3651"
      },
      {
        "line": [
          "1800 E MARION ST"
        ],
        "city": "SHELBY",
        "state": "NC",
        "postalCode": "28152-6217"
      },
      {
        "line": [
          "500 W MOUNTAIN ST"
        ],
        "city": "KINGS MOUNTAIN",
        "state": "NC",
        "postalCode": "28086-3320"
      },
      {
        "line": [
          "900 RAMSEUR ST"
        ],
        "city": "KINGS MOUNTAIN",
        "state": "NC",
        "postalCode": "28086-2052"
      },
      {
        "line": [
          "220 S POST RD"
        ],
        "city": "SHELBY",
        "state": "NC",
        "postalCode": "28152-6227"
      },
      {
        "line": [
          "227 KINGS MOUNTAIN BLVD"
        ],
        "city": "KINGS MOUNTAIN",
        "state": "NC",
        "postalCode": "28086-9121"
      },
      {
        "line": [
          "1322 PATRICK AVE"
        ],
        "city": "SHELBY",
        "state": "NC",
        "postalCode": "28152-0539"
      },
      {
        "line": [
          "315 BEAVER DAM CHURCH RD"
        ],
        "city": "SHELBY",
        "state": "NC",
        "postalCode": "28152-9075"
      },
      {
        "line": [
          "PO BOX 39",
          "112 Gary St."
        ],
        "city": "FALLSTON",
        "state": "NC",
        "postalCode": "28042-0039"
      },
      {
        "line": [
          "1522 PATRICK AVE"
        ],
        "city": "SHELBY",
        "state": "NC",
        "postalCode": "28152-0666"
      },
      {
        "line": [
          "1166 WYKE RD"
        ],
        "city": "SHELBY",
        "state": "NC",
        "postalCode": "28150-4259"
      },
      {
        "line": [
          "309 JAMES LOVE SCHOOL RD"
        ],
        "city": "SHELBY",
        "state": "NC",
        "postalCode": "28152-7176"
      },
      {
        "line": [
          "500 PHIFER RD"
        ],
        "city": "KINGS MOUNTAIN",
        "state": "NC",
        "postalCode": "28086-3723"
      },
      {
        "line": [
          "230 E DIXON BLVD"
        ],
        "city": "SHELBY",
        "state": "NC",
        "postalCode": "28152-6766"
      },
      {
        "line": [
          "259 E CHURCH ST"
        ],
        "city": "BOSTIC",
        "state": "NC",
        "postalCode": "28018-5739"
      },
      {
        "line": [
          "215 SHADY GROVE RD"
        ],
        "city": "LAWNDALE",
        "state": "NC",
        "postalCode": "28090-8254"
      },
      {
        "line": [
          "409 W SUMTER ST"
        ],
        "city": "SHELBY",
        "state": "NC",
        "postalCode": "28150-4326"
      },
      {
        "line": [
          "600 CLEVELAND AVE"
        ],
        "city": "KINGS MOUNTAIN",
        "state": "NC",
        "postalCode": "28086-2508"
      },
      {
        "line": [
          "1701 CHARLES RD"
        ],
        "city": "SHELBY",
        "state": "NC",
        "postalCode": "28152-7056"
      },
      {
        "line": [
          "616 MCBRAYER HOMESTEAD RD"
        ],
        "city": "SHELBY",
        "state": "NC",
        "postalCode": "28152-9531"
      },
      {
        "line": [
          "307 E STAGECOACH TRL"
        ],
        "city": "LAWNDALE",
        "state": "NC",
        "postalCode": "28090-9715"
      },
      {
        "line": [
          "115 BETHWARE DR"
        ],
        "city": "KINGS MOUNTAIN",
        "state": "NC",
        "postalCode": "28086-9112"
      }
    ],
    "extension": [
      {
        "url": "https://fhir.athena.io/StructureDefinition/ah-practice",
        "valueReference": {
          "reference": "Organization/a-1.Practice-30264"
        }
      },
      {
        "url": "https://fhir.athena.io/StructureDefinition/ah-brand",
        "valueReference": {
          "reference": "Organization/a-30264.Brand-1"
        }
      }
    ]
  },
  "fullUrl": "urn:uuid:7382be9f-d4a8-5c10-a91b-6a78971b48d5"
}