{
  "resource": {
    "resourceType": "Organization",
    "id": "d58a03c9-1a22-59e1-b737-a9e6477a4077",
    "name": "WESTMED MEDICAL GROUP",
    "endpoint": [
      {
        "reference": "Endpoint/27a4e967-47aa-5a9c-a572-b8297ee268a2"
      },
      {
        "reference": "Endpoint/0e522861-4010-5ea6-bd0b-40eb00438423"
      }
    ],
    "identifier": [
      {
        "system": "http://hl7.org/fhir/sid/us-npi",
        "value": "1881653822"
      }
    ],
    "address": [
      {
        "line": [
          "106 Noroton Avenue"
        ],
        "city": "Darien",
        "state": "CT",
        "postalCode": "06820-5237"
      },
      {
        "line": [
          "5 Perryridge Road"
        ],
        "city": "Greenwich",
        "state": "CT",
        "postalCode": "06830-4608"
      },
      {
        "line": [
          "128 Ashford Avenue"
        ],
        "city": "Dobbs Ferry",
        "state": "NY",
        "postalCode": "10522-1924"
      },
      {
        "line": [
          "15 Maple Ave"
        ],
        "city": "Warwick",
        "state": "NY",
        "postalCode": "10990-1028"
      },
      {
        "line": [
          "31 Stevens Street"
        ],
        "city": "Norwalk",
        "state": "CT",
        "postalCode": "06850-3805"
      },
      {
        "line": [
          "1468 Madison Avenue"
        ],
        "city": "New York",
        "state": "NY",
        "postalCode": "10029-6508"
      },
      {
        "line": [
          "30 Shelburne Road"
        ],
        "city": "Stamford",
        "state": "CT",
        "postalCode": "06902-3602"
      },
      {
        "line": [
          "845 Palmer Avenue"
        ],
        "city": "Mamaroneck",
        "state": "NY",
        "postalCode": "10543-2406"
      },
      {
        "line": [
          "127 South Broadway"
        ],
        "city": "Yonkers",
        "state": "NY",
        "postalCode": "10701-4006"
      },
      {
        "line": [
          "305 North Street"
        ],
        "city": "White Plains",
        "state": "NY",
        "postalCode": "10605-2208"
      },
      {
        "line": [
          "34 Maple Street"
        ],
        "city": "Norwalk",
        "state": "CT",
        "postalCode": "06850-3815"
      },
      {
        "line": [
          "400 Main Street"
        ],
        "city": "Mount Kisco",
        "state": "NY",
        "postalCode": "10549-3417"
      },
      {
        "line": [
          "234 Tarrytown Road"
        ],
        "city": "Elmsford",
        "state": "NY",
        "postalCode": "10523-3423"
      },
      {
        "line": [
          "255 Lafayette Ave"
        ],
        "city": "Suffern",
        "state": "NY",
        "postalCode": "10901-4812"
      },
      {
        "line": [
          "899 Park Avenue"
        ],
        "city": "New York",
        "state": "NY",
        "postalCode": "10075-0304"
      },
      {
        "line": [
          "575 Yonkers Avenue"
        ],
        "city": "Yonkers",
        "state": "NY",
        "postalCode": "10704-2601"
      },
      {
        "line": [
          "1 Burr Road"
        ],
        "city": "Westport",
        "state": "CT",
        "postalCode": "06880-4220"
      },
      {
        "line": [
          "208 Valley Road"
        ],
        "city": "New Canaan",
        "state": "CT",
        "postalCode": "06840-3812"
      },
      {
        "line": [
          "967 South Broadway"
        ],
        "city": "Yonkers",
        "state": "NY",
        "postalCode": "10701-1301"
      },
      {
        "line": [
          "210 E 64th Street"
        ],
        "city": "New York",
        "state": "NY",
        "postalCode": "10065-7471"
      },
      {
        "line": [
          "787 King Street"
        ],
        "city": "Rye Brook",
        "state": "NY",
        "postalCode": "10573-1225"
      },
      {
        "line": [
          "62 East 88th Street"
        ],
        "city": "NEW YORK",
        "state": "NY",
        "postalCode": "10128-1151"
      },
      {
        "line": [
          "440 Mamaroneck Avenue"
        ],
        "city": "Harrison",
        "state": "NY",
        "postalCode": "10528-2418"
      },
      {
        "line": [
          "30 Commerce Rd"
        ],
        "city": "Stamford",
        "state": "CT",
        "postalCode": "06902-4550"
      },
      {
        "line": [
          "200 Hamilton Avenue"
        ],
        "city": "White Plains",
        "state": "NY",
        "postalCode": "10601-1876"
      },
      {
        "line": [
          "55 Palmer Avenue"
        ],
        "city": "Bronxville",
        "state": "NY",
        "postalCode": "10708-3403"
      },
      {
        "line": [
          "5 Odell Plasa STE 131"
        ],
        "city": "Yonkers",
        "state": "NY",
        "postalCode": "10701-1406"
      },
      {
        "line": [
          "Davis Avenue at E.Post Road"
        ],
        "city": "White Plains",
        "state": "NY",
        "postalCode": "10601-4615"
      },
      {
        "line": [
          "Davis Avenue At E. Post Road"
        ],
        "city": "White Plains",
        "state": "NY",
        "postalCode": "10601-4615"
      },
      {
        "line": [
          "Davis Ave at Post Road"
        ],
        "city": "White Plains",
        "state": "NY",
        "postalCode": "10601-4615"
      },
      {
        "line": [
          "112 Main Street"
        ],
        "city": "Norwalk",
        "state": "CT",
        "postalCode": "06851-4617"
      },
      {
        "line": [
          "257 Lafayette Avenue",
          "Suite 340"
        ],
        "city": "SUFFERN",
        "state": "NY",
        "postalCode": "10901-4830"
      },
      {
        "line": [
          "234 Tarrytown Rd"
        ],
        "city": "Elmsford",
        "state": "NY",
        "postalCode": "10523-3423"
      },
      {
        "line": [
          "76 West Rocks Road"
        ],
        "city": "Norwalk",
        "state": "CT",
        "postalCode": "06851-2207"
      }
    ],
    "extension": [
      {
        "url": "https://fhir.athena.io/StructureDefinition/ah-practice",
        "valueReference": {
          "reference": "Organization/a-1.Practice-21260"
        }
      },
      {
        "url": "https://fhir.athena.io/StructureDefinition/ah-brand",
        "valueReference": {
          "reference": "Organization/a-21260.Brand-1"
        }
      }
    ]
  },
  "fullUrl": "urn:uuid:d58a03c9-1a22-59e1-b737-a9e6477a4077"
}