{
  "resource": {
    "resourceType": "Organization",
    "id": "8472ad49-f106-52a4-82de-fea55ca48307",
    "name": "Kresge Eye Institute - Wayne Health",
    "endpoint": [
      {
        "reference": "Endpoint/27a4e967-47aa-5a9c-a572-b8297ee268a2"
      },
      {
        "reference": "Endpoint/81c39fcd-0acf-5711-b36a-7ff31c58b0a8"
      }
    ],
    "identifier": [
      {
        "system": "http://hl7.org/fhir/sid/us-npi",
        "value": "1447299797"
      }
    ],
    "address": [
      {
        "line": [
          "44405 WOODWARD AVE"
        ],
        "city": "PONTIAC",
        "state": "MI",
        "postalCode": "48341-5023"
      },
      {
        "line": [
          "11800 E. 12 Mile Road"
        ],
        "city": "WARREN",
        "state": "MI",
        "postalCode": "48093-3472"
      },
      {
        "line": [
          "4201 ST ANTOINE ST"
        ],
        "city": "DETROIT",
        "state": "MI",
        "postalCode": "48201-2153"
      },
      {
        "line": [
          "400 Mack Avenue",
          "2nd floor"
        ],
        "city": "DETROIT",
        "state": "MI",
        "postalCode": "48201-2136"
      },
      {
        "line": [
          "1 WILLIAM CARLS DR"
        ],
        "city": "COMMERCE TOWNSHIP",
        "state": "MI",
        "postalCode": "48382-2201"
      },
      {
        "line": [
          "22101 Moross Rd"
        ],
        "city": "GROSSE POINTE",
        "state": "MI",
        "postalCode": "48236-2148"
      },
      {
        "line": [
          "1560 E MAPLE RD",
          "STE 200"
        ],
        "city": "TROY",
        "state": "MI",
        "postalCode": "48083-1189"
      },
      {
        "line": [
          "3990 JOHN R ST"
        ],
        "city": "DETROIT",
        "state": "MI",
        "postalCode": "48201-2018"
      },
      {
        "line": [
          "3990 JOHN R ST",
          "8 BRUSH CENTER"
        ],
        "city": "DETROIT",
        "state": "MI",
        "postalCode": "48201-2018"
      },
      {
        "line": [
          "6700 W Outer Drive"
        ],
        "city": "DETROIT",
        "state": "MI",
        "postalCode": "48235-2724"
      },
      {
        "line": [
          "400 Mack Avenue",
          "2 EAST"
        ],
        "city": "DETROIT",
        "state": "MI",
        "postalCode": "48201-2136"
      },
      {
        "line": [
          "3601 W 13 MILE RD"
        ],
        "city": "ROYAL OAK",
        "state": "MI",
        "postalCode": "48073-6712"
      },
      {
        "line": [
          "44555 Woodward Ave",
          "Ste 308"
        ],
        "city": "PONTIAC",
        "state": "MI",
        "postalCode": "48341-5031"
      },
      {
        "line": [
          "26400 W 12 MILE RD",
          "STE 145"
        ],
        "city": "SOUTHFIELD",
        "state": "MI",
        "postalCode": "48034-1771"
      },
      {
        "line": [
          "261 MACK AVE"
        ],
        "city": "DETROIT",
        "state": "MI",
        "postalCode": "48201-2417"
      },
      {
        "line": [
          "1200 Medical Center Parkway",
          "Suite 1200"
        ],
        "city": "MAUMEE",
        "state": "OH",
        "postalCode": "43537-1921"
      },
      {
        "line": [
          "36475 5 MILE RD"
        ],
        "city": "LIVONIA",
        "state": "MI",
        "postalCode": "48154-1971"
      },
      {
        "line": [
          "3901 BEAUBIEN ST"
        ],
        "city": "DETROIT",
        "state": "MI",
        "postalCode": "48201-2119"
      },
      {
        "line": [
          "6071 W OUTER DR"
        ],
        "city": "DETROIT",
        "state": "MI",
        "postalCode": "48235-2624"
      },
      {
        "line": [
          "5301 McAuley Dr"
        ],
        "city": "YPSILANTI",
        "state": "MI",
        "postalCode": "48197-1051"
      },
      {
        "line": [
          "7700 2nd Avenue"
        ],
        "city": "DETROIT",
        "state": "MI",
        "postalCode": "48202-2411"
      },
      {
        "line": [
          "50 North Perry St."
        ],
        "city": "PONTIAC",
        "state": "MI",
        "postalCode": "48342-2217"
      },
      {
        "line": [
          "29201 Telegraph Rd, Ste 324"
        ],
        "city": "SOUTHFIELD",
        "state": "MI",
        "postalCode": "48034-7646"
      },
      {
        "line": [
          "1771 W. Big Beaver Rd"
        ],
        "city": "TROY",
        "state": "MI",
        "postalCode": "48084-3510"
      },
      {
        "line": [
          "5250 AUTO CLUB DR STE 290A"
        ],
        "city": "DEARBORN",
        "state": "MI",
        "postalCode": "48126-2619"
      },
      {
        "line": [
          "26400 W 12 MILE RD",
          "STE 111"
        ],
        "city": "SOUTHFIELD",
        "state": "MI",
        "postalCode": "48034-1771"
      },
      {
        "line": [
          "26400 W 12 MILE RD STE 60"
        ],
        "city": "SOUTHFIELD",
        "state": "MI",
        "postalCode": "48034-1774"
      },
      {
        "line": [
          "Detroit Mack Health Center",
          "400 Mack Ave"
        ],
        "city": "DETROIT",
        "state": "MI",
        "postalCode": "48201-2136"
      },
      {
        "line": [
          "3990 JOHN R ST 4240",
          "4 Webber South, Suite 4240"
        ],
        "city": "DETROIT",
        "state": "MI",
        "postalCode": "48201-2018"
      },
      {
        "line": [
          "27351 Dequindre RD"
        ],
        "city": "MADISON HEIGHTS",
        "state": "MI",
        "postalCode": "48071-3487"
      },
      {
        "line": [
          "31995 NORTHWESTERN HWY"
        ],
        "city": "FARMINGTON",
        "state": "MI",
        "postalCode": "48334-1625"
      },
      {
        "line": [
          "400 MACK AVE STE 2"
        ],
        "city": "DETROIT",
        "state": "MI",
        "postalCode": "48201-2136"
      },
      {
        "line": [
          "10000 TELEGRAPH RD"
        ],
        "city": "TAYLOR",
        "state": "MI",
        "postalCode": "48180-3330"
      },
      {
        "line": [
          "16836 NEWBURGH RD"
        ],
        "city": "LIVONIA",
        "state": "MI",
        "postalCode": "48154-1600"
      },
      {
        "line": [
          "1101 W. University Dr."
        ],
        "city": "ROCHESTER",
        "state": "MI",
        "postalCode": "48307-1863"
      },
      {
        "line": [
          "400 MACK AVE",
          "Suite 2 E"
        ],
        "city": "DETROIT",
        "state": "MI",
        "postalCode": "48201-2136"
      },
      {
        "line": [
          "8400 N. Hix Road"
        ],
        "city": "WESTLAND",
        "state": "MI",
        "postalCode": "48185-1083"
      },
      {
        "line": [
          "350 W. Big Beaver"
        ],
        "city": "TROY",
        "state": "MI",
        "postalCode": "48084-5246"
      },
      {
        "line": [
          "47601 Grand River Road"
        ],
        "city": "NOVI",
        "state": "MI",
        "postalCode": "48374-1233"
      },
      {
        "line": [
          "44650 Delco Blvd"
        ],
        "city": "STERLING HEIGHTS",
        "state": "MI",
        "postalCode": "48313-1063"
      },
      {
        "line": [
          "400 MACK AVE # 1WEST STE 2"
        ],
        "city": "DETROIT",
        "state": "MI",
        "postalCode": "48201-2136"
      },
      {
        "line": [
          "22401 Foster Winter Drive"
        ],
        "city": "SOUTHFIELD",
        "state": "MI",
        "postalCode": "48075-3724"
      },
      {
        "line": [
          "468 Cadieux Rd."
        ],
        "city": "GROSSE POINTE",
        "state": "MI",
        "postalCode": "48230-1507"
      },
      {
        "line": [
          "1221 PINE GROVE AVENUE"
        ],
        "city": "PORT HURON",
        "state": "MI",
        "postalCode": "48060-3511"
      },
      {
        "line": [
          "4717 ST ANTOINE ST"
        ],
        "city": "DETROIT",
        "state": "MI",
        "postalCode": "48201-1423"
      },
      {
        "line": [
          "4201 St Antoine Street"
        ],
        "city": "DETROIT",
        "state": "MI",
        "postalCode": "48201-2153"
      },
      {
        "line": [
          "400 MACK AVE"
        ],
        "city": "DETROIT",
        "state": "MI",
        "postalCode": "48201-2136"
      },
      {
        "line": [
          "15055 PLAZA SOUTH DR"
        ],
        "city": "TAYLOR",
        "state": "MI",
        "postalCode": "48180-5202"
      },
      {
        "line": [
          "15356 Trenton Rd."
        ],
        "city": "LANSING",
        "state": "MI",
        "postalCode": "48915-2027"
      },
      {
        "line": [
          "468 CADIEUX RD"
        ],
        "city": "GROSSE POINTE",
        "state": "MI",
        "postalCode": "48230-1507"
      },
      {
        "line": [
          "400 Mack Ave"
        ],
        "city": "DETROIT",
        "state": "MI",
        "postalCode": "48201-2136"
      },
      {
        "line": [
          "18101 OAKWOOD BLVD"
        ],
        "city": "DEARBORN",
        "state": "MI",
        "postalCode": "48124-4089"
      },
      {
        "line": [
          "33080 Utica Rd"
        ],
        "city": "FRASER",
        "state": "MI",
        "postalCode": "48026-2038"
      },
      {
        "line": [
          "4201 ST ANTOINE ST",
          "STE 6B"
        ],
        "city": "DETROIT",
        "state": "MI",
        "postalCode": "48201-2153"
      },
      {
        "line": [
          "18100 OAKWOOD BLVD",
          "STE 100"
        ],
        "city": "DEARBORN",
        "state": "MI",
        "postalCode": "48124-4085"
      },
      {
        "line": [
          "5680 Bow Pointe Drive"
        ],
        "city": "CLARKSTON",
        "state": "MI",
        "postalCode": "48346-5407"
      },
      {
        "line": [
          "400 MACK AVE",
          "2nd floor"
        ],
        "city": "DETROIT",
        "state": "MI",
        "postalCode": "48201-2136"
      },
      {
        "line": [
          "1000 Harrington Avenue"
        ],
        "city": "MOUNT CLEMENS",
        "state": "MI",
        "postalCode": "48043-2920"
      },
      {
        "line": [
          "31000 Joy Rd."
        ],
        "city": "LIVONIA",
        "state": "MI",
        "postalCode": "48150-3425"
      },
      {
        "line": [
          "33300 5 Mile Rd, Ste 106"
        ],
        "city": "LIVONIA",
        "state": "MI",
        "postalCode": "48150-3074"
      },
      {
        "line": [
          "4100 JOHN R ST"
        ],
        "city": "DETROIT",
        "state": "MI",
        "postalCode": "48201-2013"
      },
      {
        "line": [
          "4201 ST ANTOINE ST",
          "STE 5A"
        ],
        "city": "DETROIT",
        "state": "MI",
        "postalCode": "48201-2153"
      },
      {
        "line": [
          "4100 BEECHER RD STE A"
        ],
        "city": "FLINT",
        "state": "MI",
        "postalCode": "48532-3661"
      },
      {
        "line": [
          "20400 Livernois Ave"
        ],
        "city": "DETROIT",
        "state": "MI",
        "postalCode": "48221-1348"
      },
      {
        "line": [
          "5250 AUTO CLUB DR STE 170"
        ],
        "city": "DEARBORN",
        "state": "MI",
        "postalCode": "48126-2619"
      },
      {
        "line": [
          "44201 Dequindre Rd"
        ],
        "city": "TROY",
        "state": "MI",
        "postalCode": "48085-1198"
      },
      {
        "line": [
          "29201 Telegraph Road",
          "Suite 315"
        ],
        "city": "SOUTHFIELD",
        "state": "MI",
        "postalCode": "48034-7646"
      },
      {
        "line": [
          "1560 E Maple Rd"
        ],
        "city": "TROY",
        "state": "MI",
        "postalCode": "48083-1135"
      },
      {
        "line": [
          "4717 ST ANTOINE ST",
          "300R"
        ],
        "city": "DETROIT",
        "state": "MI",
        "postalCode": "48201-1423"
      },
      {
        "line": [
          "468 Cadieux Road"
        ],
        "city": "GROSSE POINTE",
        "state": "MI",
        "postalCode": "48230-1507"
      },
      {
        "line": [
          "18100 OAKWOOD BLVD",
          "STE 300"
        ],
        "city": "DEARBORN",
        "state": "MI",
        "postalCode": "48124-4085"
      },
      {
        "line": [
          "220 W WASHINGTON ST"
        ],
        "city": "MARQUETTE",
        "state": "MI",
        "postalCode": "49855-4359"
      },
      {
        "line": [
          "2353 S Linden Rd",
          "STE C"
        ],
        "city": "FLINT",
        "state": "MI",
        "postalCode": "48532-5440"
      },
      {
        "line": [
          "1101 W University Dr."
        ],
        "city": "ROCHESTER",
        "state": "MI",
        "postalCode": "48307-1863"
      },
      {
        "line": [
          "4201 ST ANTOINE ST",
          "STE 4C"
        ],
        "city": "DETROIT",
        "state": "MI",
        "postalCode": "48201-2153"
      },
      {
        "line": [
          "4160 John R.",
          "Suite 615"
        ],
        "city": "DETROIT",
        "state": "MI",
        "postalCode": "48201-2022"
      },
      {
        "line": [
          "6701 W OTTER DR"
        ],
        "city": "DETROIT",
        "state": "MI",
        "postalCode": "48235-2624"
      },
      {
        "line": [
          "11800 E. 12 MILE ROAD"
        ],
        "city": "WARREN",
        "state": "MI",
        "postalCode": "48093-3472"
      },
      {
        "line": [
          "5200 Oakman Blvd"
        ],
        "city": "DEARBORN",
        "state": "MI",
        "postalCode": "48126-3318"
      },
      {
        "line": [
          "1560 E MAPLE RD",
          "STE 200"
        ],
        "city": "TROY",
        "state": "MI",
        "postalCode": "48083-1135"
      },
      {
        "line": [
          "620 Byron Rd"
        ],
        "city": "HOWELL",
        "state": "MI",
        "postalCode": "48843-1002"
      },
      {
        "line": [
          "44405 Woodward Avenue"
        ],
        "city": "PONTIAC",
        "state": "MI",
        "postalCode": "48341-5023"
      },
      {
        "line": [
          "14555 Levan Rd",
          "309"
        ],
        "city": "LIVONIA",
        "state": "MI",
        "postalCode": "48154-5083"
      },
      {
        "line": [
          "110 E. 2nd Street"
        ],
        "city": "ROYAL OAK",
        "state": "MI",
        "postalCode": "48067-2694"
      },
      {
        "line": [
          "33500 6 MILE RD"
        ],
        "city": "LIVONIA",
        "state": "MI",
        "postalCode": "48152-3156"
      },
      {
        "line": [
          "3901 CHRYSLER DR",
          "STE 4A"
        ],
        "city": "DETROIT",
        "state": "MI",
        "postalCode": "48201-2167"
      },
      {
        "line": [
          "3901 WALTER P CHRYSLER SERVICE DR",
          "STE 3B"
        ],
        "city": "DETROIT",
        "state": "MI",
        "postalCode": "48201-2167"
      },
      {
        "line": [
          "2799 W GRAND BLVD"
        ],
        "city": "DETROIT",
        "state": "MI",
        "postalCode": "48202-2608"
      },
      {
        "line": [
          "18181 OAKWOOD BLVD"
        ],
        "city": "DEARBORN",
        "state": "MI",
        "postalCode": "48124-5032"
      },
      {
        "line": [
          "11800E. 12 MILE ROAD"
        ],
        "city": "WARREN",
        "state": "MI",
        "postalCode": "48093-3472"
      },
      {
        "line": [
          "22401 Foster Winter Dr"
        ],
        "city": "SOUTHFIELD",
        "state": "MI",
        "postalCode": "48075-3724"
      },
      {
        "line": [
          "50 E CANFIELD ST",
          "STE 101-T"
        ],
        "city": "DETROIT",
        "state": "MI",
        "postalCode": "48201-1804"
      },
      {
        "line": [
          "8900 Newburgh Rd"
        ],
        "city": "LIVONIA",
        "state": "MI",
        "postalCode": "48150-3425"
      },
      {
        "line": [
          "401 S BALLENGER HWY"
        ],
        "city": "FLINT",
        "state": "MI",
        "postalCode": "48532-3638"
      },
      {
        "line": [
          "23901 Lahser Road"
        ],
        "city": "SOUTHFIELD",
        "state": "MI",
        "postalCode": "48033-6035"
      },
      {
        "line": [
          "4160 JOHN R",
          "STE 615"
        ],
        "city": "DETROIT",
        "state": "MI",
        "postalCode": "48201-2153"
      },
      {
        "line": [
          "18100 Oakwood Blvd",
          "Ste 300"
        ],
        "city": "DEARBORN",
        "state": "MI",
        "postalCode": "48124-4085"
      },
      {
        "line": [
          "30550 UTICA RD"
        ],
        "city": "ROSEVILLE",
        "state": "MI",
        "postalCode": "48066-1528"
      },
      {
        "line": [
          "20601 ROTUNDA DR"
        ],
        "city": "DEARBORN",
        "state": "MI",
        "postalCode": "48124-3954"
      },
      {
        "line": [
          "3901 CHRYSLER DR",
          "STE 1A"
        ],
        "city": "DETROIT",
        "state": "MI",
        "postalCode": "48201-2167"
      },
      {
        "line": [
          "1000 HARRINGTON BLVD"
        ],
        "city": "MOUNT CLEMENS",
        "state": "MI",
        "postalCode": "48043-2920"
      },
      {
        "line": [
          "14041 Stark Road"
        ],
        "city": "LIVONIA",
        "state": "MI",
        "postalCode": "48154-5409"
      },
      {
        "line": [
          "26110 HARPER AVE"
        ],
        "city": "SAINT CLAIR SHORES",
        "state": "MI",
        "postalCode": "48081-3774"
      },
      {
        "line": [
          "28747 Woodward Ave."
        ],
        "city": "BERKLEY",
        "state": "MI",
        "postalCode": "48072-0929"
      },
      {
        "line": [
          "4201 ST ANTOINE ST",
          "Suite 6A/6B"
        ],
        "city": "DETROIT",
        "state": "MI",
        "postalCode": "48201-2153"
      }
    ],
    "extension": [
      {
        "url": "https://fhir.athena.io/StructureDefinition/ah-practice",
        "valueReference": {
          "reference": "Organization/a-1.Practice-19711"
        }
      },
      {
        "url": "https://fhir.athena.io/StructureDefinition/ah-brand",
        "valueReference": {
          "reference": "Organization/a-19711.Brand-1"
        }
      }
    ]
  },
  "fullUrl": "urn:uuid:8472ad49-f106-52a4-82de-fea55ca48307"
}