{
  "resource": {
    "resourceType": "Organization",
    "id": "57f4cee1-791e-5f63-aace-170cbd3a4014",
    "name": "Andrea Manhart, Neurologist",
    "endpoint": [
      {
        "reference": "Endpoint/27a4e967-47aa-5a9c-a572-b8297ee268a2"
      },
      {
        "reference": "Endpoint/e39071e5-cd4f-50bf-8358-e91de2b0d160"
      }
    ],
    "identifier": [
      {
        "system": "http://hl7.org/fhir/sid/us-npi",
        "value": "1811215742"
      },
      {
        "system": "http://hl7.org/fhir/sid/us-npi",
        "value": "1295862944"
      }
    ],
    "address": [
      {
        "line": [
          "630 W MAIN ST STE 300"
        ],
        "city": "WILMINGTON",
        "state": "OH",
        "postalCode": "45177-2172"
      },
      {
        "line": [
          "630 W MAIN ST STE 309"
        ],
        "city": "WILMINGTON",
        "state": "OH",
        "postalCode": "45177-2173"
      },
      {
        "line": [
          "630 W MAIN ST",
          "STE 102"
        ],
        "city": "WILMINGTON",
        "state": "OH",
        "postalCode": "45177-2181"
      },
      {
        "line": [
          "781 W Locust St"
        ],
        "city": "WILMINGTON",
        "state": "OH",
        "postalCode": "45177-2116"
      },
      {
        "line": [
          "610 W. Main St"
        ],
        "city": "WILMINGTON",
        "state": "OH",
        "postalCode": "45177-2171"
      },
      {
        "line": [
          "849 Cherry St."
        ],
        "city": "BLANCHESTER",
        "state": "OH",
        "postalCode": "45107-1315"
      },
      {
        "line": [
          "596 W MAIN ST"
        ],
        "city": "WILMINGTON",
        "state": "OH",
        "postalCode": "45177-2123"
      },
      {
        "line": [
          "310 Washington Sq",
          "Ste B"
        ],
        "city": "WASHINGTON COURT HOUSE",
        "state": "OH",
        "postalCode": "43160-1751"
      },
      {
        "line": [
          "630 W Main St",
          "Suite 304"
        ],
        "city": "WILMINGTON",
        "state": "OH",
        "postalCode": "45177-2171"
      },
      {
        "line": [
          "2241 Rombach Ave"
        ],
        "city": "WILMINGTON",
        "state": "OH",
        "postalCode": "45177-1995"
      },
      {
        "line": [
          "630 W Main St",
          "Suite 207"
        ],
        "city": "WILMINGTON",
        "state": "OH",
        "postalCode": "45177-2101"
      },
      {
        "line": [
          "310 Washington Square",
          "Suite A"
        ],
        "city": "WASHINGTON COURT HOUSE",
        "state": "OH",
        "postalCode": "43160-3701"
      },
      {
        "line": [
          "630 W. Main St",
          "Suite 101"
        ],
        "city": "WILMINGTON",
        "state": "OH",
        "postalCode": "45177-2171"
      },
      {
        "line": [
          "12459 ST RT 22 & 3"
        ],
        "city": "SABINA",
        "state": "OH",
        "postalCode": "45169-9083"
      }
    ],
    "extension": [
      {
        "url": "https://fhir.athena.io/StructureDefinition/ah-practice",
        "valueReference": {
          "reference": "Organization/a-1.Practice-6237"
        }
      },
      {
        "url": "https://fhir.athena.io/StructureDefinition/ah-brand",
        "valueReference": {
          "reference": "Organization/a-6237.Brand-2"
        }
      }
    ]
  },
  "fullUrl": "urn:uuid:57f4cee1-791e-5f63-aace-170cbd3a4014"
}