{
  "resource": {
    "resourceType": "Organization",
    "id": "c8fb4d6b-3cda-5740-ac67-76cfa60b2ab3",
    "name": "Gaston Medical Partners",
    "endpoint": [
      {
        "reference": "Endpoint/27a4e967-47aa-5a9c-a572-b8297ee268a2"
      },
      {
        "reference": "Endpoint/3976e7bb-eefc-59ad-8e4d-ea2fa236fffb"
      }
    ],
    "identifier": [
      {
        "system": "http://hl7.org/fhir/sid/us-npi",
        "value": "1992204549"
      }
    ],
    "address": [
      {
        "line": [
          "130 Lake Concord Road Suite D"
        ],
        "city": "CONCORD",
        "state": "NC",
        "postalCode": "28025-1906"
      },
      {
        "line": [
          "275 Beatty Drive"
        ],
        "city": "BELMONT",
        "state": "NC",
        "postalCode": "28012-2715"
      },
      {
        "line": [
          "1415 Vantage Park Drive",
          "Suite 700"
        ],
        "city": "CHARLOTTE",
        "state": "NC",
        "postalCode": "28203-4073"
      },
      {
        "line": [
          "1601 Abbey Place"
        ],
        "city": "CHARLOTTE",
        "state": "NC",
        "postalCode": "28209-3835"
      },
      {
        "line": [
          "2001 Vail Ave"
        ],
        "city": "CHARLOTTE",
        "state": "NC",
        "postalCode": "28207-1219"
      },
      {
        "line": [
          "10628 Park Rd"
        ],
        "city": "CHARLOTTE",
        "state": "NC",
        "postalCode": "28210-8407"
      },
      {
        "line": [
          "1800 E 4TH ST"
        ],
        "city": "CHARLOTTE",
        "state": "NC",
        "postalCode": "28204-3210"
      },
      {
        "line": [
          "5970 Fairview Rd"
        ],
        "city": "CHARLOTTE",
        "state": "NC",
        "postalCode": "28210-3102"
      },
      {
        "line": [
          "2825 RANDOLPH RD"
        ],
        "city": "CHARLOTTE",
        "state": "NC",
        "postalCode": "28211-1018"
      },
      {
        "line": [
          "330 BILLINGSLEY RD STE 100"
        ],
        "city": "CHARLOTTE",
        "state": "NC",
        "postalCode": "28211-3096"
      },
      {
        "line": [
          "PHONE VISIT ONLY"
        ],
        "city": "CHARLOTTE",
        "state": "NC",
        "postalCode": "28211-3477"
      },
      {
        "line": [
          "10030 GILEAD RD"
        ],
        "city": "HUNTERSVILLE",
        "state": "NC",
        "postalCode": "28078-7545"
      },
      {
        "line": [
          "6060 PIEDMONT ROW DR S FL 6"
        ],
        "city": "CHARLOTTE",
        "state": "NC",
        "postalCode": "28287-3884"
      },
      {
        "line": [
          "600 HOSPITAL DR"
        ],
        "city": "MONROE",
        "state": "NC",
        "postalCode": "28112-6000"
      },
      {
        "line": [
          "1500 MATTHEWS TOWNSHIP PKWY"
        ],
        "city": "MATTHEWS",
        "state": "NC",
        "postalCode": "28105-4656"
      },
      {
        "line": [
          "10036-B Cedar Drive"
        ],
        "city": "CHARLOTTE",
        "state": "NC",
        "postalCode": "28210-8915"
      },
      {
        "line": [
          "5960 Fairview Rd",
          "Suite 500"
        ],
        "city": "CHARLOTTE",
        "state": "NC",
        "postalCode": "28210-3102"
      },
      {
        "line": [
          "10650 Park Rd"
        ],
        "city": "CHARLOTTE",
        "state": "NC",
        "postalCode": "28210-8407"
      },
      {
        "line": [
          "1585 Forney Creek Parkway Suite 2300"
        ],
        "city": "DENVER",
        "state": "NC",
        "postalCode": "28037-9514"
      },
      {
        "line": [
          "106 Alexander Bank Drive, Suite 101"
        ],
        "city": "MOORESVILLE",
        "state": "NC",
        "postalCode": "28117-9623"
      },
      {
        "line": [
          "600 Hospital Drive"
        ],
        "city": "MONROE",
        "state": "NC",
        "postalCode": "28110-6000"
      },
      {
        "line": [
          "10905 Providence Road West"
        ],
        "city": "CHARLOTTE",
        "state": "NC",
        "postalCode": "28277-1543"
      },
      {
        "line": [
          "15110 John J. Delaney Dr.",
          "Suite 120"
        ],
        "city": "CHARLOTTE",
        "state": "NC",
        "postalCode": "28277-2741"
      },
      {
        "line": [
          "1000 Blythe Blvd"
        ],
        "city": "CHARLOTTE",
        "state": "NC",
        "postalCode": "28203-5812"
      },
      {
        "line": [
          "200 Hawthorne Lane"
        ],
        "city": "CHARLOTTE",
        "state": "NC",
        "postalCode": "28204-2515"
      },
      {
        "line": [
          "1901 RANDOLPH RD # 2"
        ],
        "city": "CHARLOTTE",
        "state": "NC",
        "postalCode": "28207-1101"
      },
      {
        "line": [
          "1225 Harding Place Ste 5200"
        ],
        "city": "CHARLOTTE",
        "state": "NC",
        "postalCode": "28204-2826"
      },
      {
        "line": [
          "2001 Vail Avenue"
        ],
        "city": "CHARLOTTE",
        "state": "NC",
        "postalCode": "28207-1219"
      },
      {
        "line": [
          "16455 Statesville Rd. Suite 114"
        ],
        "city": "HUNTERSVILLE",
        "state": "NC",
        "postalCode": "28078-7190"
      },
      {
        "line": [
          "14215 BALLANTYNE CORPORATE PL STE 210",
          "Suite 210"
        ],
        "city": "CHARLOTTE",
        "state": "NC",
        "postalCode": "28277-3873"
      },
      {
        "line": [
          "16817 Marvin Road"
        ],
        "city": "CHARLOTTE",
        "state": "NC",
        "postalCode": "28277-2196"
      },
      {
        "line": [
          "1918 RANDOLPH RD STE 740"
        ],
        "city": "CHARLOTTE",
        "state": "NC",
        "postalCode": "28207-1167"
      },
      {
        "line": [
          "Mallard Crossing Medical Park",
          "10320 Mallard Creek Road Suite 220"
        ],
        "city": "CHARLOTTE",
        "state": "NC",
        "postalCode": "28262-5200"
      },
      {
        "line": [
          "10520 Park Suite 105"
        ],
        "city": "CHARLOTTE",
        "state": "NC",
        "postalCode": "28210-8405"
      }
    ],
    "extension": [
      {
        "url": "https://fhir.athena.io/StructureDefinition/ah-practice",
        "valueReference": {
          "reference": "Organization/a-1.Practice-17847"
        }
      },
      {
        "url": "https://fhir.athena.io/StructureDefinition/ah-brand",
        "valueReference": {
          "reference": "Organization/a-17847.Brand-1"
        }
      }
    ]
  },
  "fullUrl": "urn:uuid:c8fb4d6b-3cda-5740-ac67-76cfa60b2ab3"
}