{
  "resource": {
    "resourceType": "Organization",
    "id": "7023ba08-b3b0-590f-8a17-c1e0da1a2661",
    "name": "Pocatello Women's Health Clinic",
    "endpoint": [
      {
        "reference": "Endpoint/27a4e967-47aa-5a9c-a572-b8297ee268a2"
      },
      {
        "reference": "Endpoint/2818de7b-537e-5335-a2b7-9afe95d26644"
      }
    ],
    "identifier": [
      {
        "system": "http://hl7.org/fhir/sid/us-npi",
        "value": "1659887511"
      },
      {
        "system": "http://hl7.org/fhir/sid/us-npi",
        "value": "1477501930"
      }
    ],
    "address": [
      {
        "line": [
          "285 VISTA DRIVE"
        ],
        "city": "POCATELLO",
        "state": "ID",
        "postalCode": "83201-4987"
      },
      {
        "line": [
          "777 HOSPITAL WAY, STE 300"
        ],
        "city": "POCATELLO",
        "state": "ID",
        "postalCode": "83201-5176"
      },
      {
        "line": [
          "98 POPLAR STREET"
        ],
        "city": "BLACKFOOT",
        "state": "ID",
        "postalCode": "83221-1758"
      },
      {
        "line": [
          "98 Poplar street"
        ],
        "city": "BLACKFOOT",
        "state": "ID",
        "postalCode": "83221-1758"
      },
      {
        "line": [
          "98 Poplar Street"
        ],
        "city": "BLACKFOOT",
        "state": "ID",
        "postalCode": "83221-1758"
      },
      {
        "line": [
          "777 HOSPITAL WAY"
        ],
        "city": "POCATELLO",
        "state": "ID",
        "postalCode": "83201-2797"
      },
      {
        "line": [
          "777 HOSPITAL WAY STE 300"
        ],
        "city": "POCATELLO",
        "state": "ID",
        "postalCode": "83201-5176"
      },
      {
        "line": [
          "777 HOSPITAL WAY"
        ],
        "city": "POCATELLO",
        "state": "ID",
        "postalCode": "83201-5157"
      }
    ],
    "extension": [
      {
        "url": "https://fhir.athena.io/StructureDefinition/ah-practice",
        "valueReference": {
          "reference": "Organization/a-1.Practice-14680"
        }
      },
      {
        "url": "https://fhir.athena.io/StructureDefinition/ah-brand",
        "valueReference": {
          "reference": "Organization/a-14680.Brand-1"
        }
      }
    ]
  },
  "fullUrl": "urn:uuid:7023ba08-b3b0-590f-8a17-c1e0da1a2661"
}