{
  "resource": {
    "resourceType": "Organization",
    "id": "01b09a3f-d090-5981-97bb-da2bcc9c02f4",
    "name": "Dr. Robert Laurente",
    "endpoint": [
      {
        "reference": "Endpoint/27a4e967-47aa-5a9c-a572-b8297ee268a2"
      },
      {
        "reference": "Endpoint/ec38e761-239b-53d8-9988-b5065d4833c0"
      }
    ],
    "identifier": [
      {
        "system": "http://hl7.org/fhir/sid/us-npi",
        "value": "1942782958"
      }
    ],
    "address": [
      {
        "line": [
          "1660 WHITEHORSE-HAMILTON SQUARE ROAD"
        ],
        "city": "TRENTON",
        "state": "NJ",
        "postalCode": "08690-3506"
      },
      {
        "line": [
          "1501 HIGHWAY 33"
        ],
        "city": "TRENTON",
        "state": "NJ",
        "postalCode": "08690-1705"
      },
      {
        "line": [
          "1 HAMILTON HEALTH PL"
        ],
        "city": "TRENTON",
        "state": "NJ",
        "postalCode": "08690-3542"
      },
      {
        "line": [
          "7 CARNEGIE PLZ"
        ],
        "city": "CHERRY HILL",
        "state": "NJ",
        "postalCode": "08003-1020"
      },
      {
        "line": [
          "354 UNION AVE"
        ],
        "city": "ELIZABETH",
        "state": "NJ",
        "postalCode": "07208-3218"
      },
      {
        "line": [
          "1059 EDINBURG RD, HAMILTON SQUARE"
        ],
        "city": "TRENTON",
        "state": "NJ",
        "postalCode": "08690-1229"
      },
      {
        "line": [
          "3 HAMILTON HEALTH PL"
        ],
        "city": "TRENTON",
        "state": "NJ",
        "postalCode": "08690-3542"
      },
      {
        "line": [
          "7 DUNMORE AVE"
        ],
        "city": "TRENTON",
        "state": "NJ",
        "postalCode": "08618-1937"
      },
      {
        "line": [
          "972 SHOPES BOULEVARD"
        ],
        "city": "NORTH BRUNSWICK",
        "state": "NJ",
        "postalCode": "08902-2776"
      },
      {
        "line": [
          "2240 WHITEHORSE MERCERVILLE RD"
        ],
        "city": "TRENTON",
        "state": "NJ",
        "postalCode": "08619-2640"
      },
      {
        "line": [
          "2300 HAMILTON AVE"
        ],
        "city": "TRENTON",
        "state": "NJ",
        "postalCode": "08619-3007"
      },
      {
        "line": [
          "171 JERSEY ST STE 201"
        ],
        "city": "TRENTON",
        "state": "NJ",
        "postalCode": "08611-2425"
      },
      {
        "line": [
          "208 BUNN DRIVE"
        ],
        "city": "PRINCETON",
        "state": "NJ",
        "postalCode": "08540-2851"
      },
      {
        "line": [
          "204 CREEK CROSSING BLVD"
        ],
        "city": "HAINESPORT",
        "state": "NJ",
        "postalCode": "08036-2766"
      },
      {
        "line": [
          "176 RIVERSIDE AVE"
        ],
        "city": "RED BANK",
        "state": "NJ",
        "postalCode": "07701-1063"
      },
      {
        "line": [
          "1601 WHITEHORSE-MERCERVILLE RD",
          "STE 4"
        ],
        "city": "HAMILTON SQUARE",
        "state": "NJ",
        "postalCode": "08619-3836"
      },
      {
        "line": [
          "2240 Whitehorse Mercerville RD"
        ],
        "city": "TRENTON",
        "state": "NJ",
        "postalCode": "08619-2640"
      },
      {
        "line": [
          "1059 EDINBURG RD"
        ],
        "city": "TRENTON",
        "state": "NJ",
        "postalCode": "08690-1229"
      }
    ],
    "extension": [
      {
        "url": "https://fhir.athena.io/StructureDefinition/ah-practice",
        "valueReference": {
          "reference": "Organization/a-1.Practice-18478"
        }
      },
      {
        "url": "https://fhir.athena.io/StructureDefinition/ah-brand",
        "valueReference": {
          "reference": "Organization/a-18478.Brand-1"
        }
      }
    ]
  },
  "fullUrl": "urn:uuid:01b09a3f-d090-5981-97bb-da2bcc9c02f4"
}