{
  "resource": {
    "resourceType": "Organization",
    "id": "057b63e1-d412-543b-aebe-d48e93139891",
    "name": "YMCA of Pierce and Kitsap Counties",
    "endpoint": [
      {
        "reference": "Endpoint/27a4e967-47aa-5a9c-a572-b8297ee268a2"
      },
      {
        "reference": "Endpoint/abb5f7d5-468e-5806-be46-fb2282afef02"
      }
    ],
    "identifier": [
      {
        "system": "http://hl7.org/fhir/sid/us-npi",
        "value": "1659822047"
      }
    ],
    "address": [
      {
        "line": [
          "16101 64th Street East"
        ],
        "city": "SUMNER",
        "state": "WA",
        "postalCode": "98390-3069"
      },
      {
        "line": [
          "2261 Homer R Jones Drive"
        ],
        "city": "BREMERTON",
        "state": "WA",
        "postalCode": "98310-4537"
      },
      {
        "line": [
          "315 M.L.K. Jr Way"
        ],
        "city": "TACOMA",
        "state": "WA",
        "postalCode": "98405-1234"
      },
      {
        "line": [
          "10550 Harbor Hill Dr"
        ],
        "city": "GIG HARBOR",
        "state": "WA",
        "postalCode": "98332-8944"
      },
      {
        "line": [
          "9715 Lakewood Dr SW"
        ],
        "city": "LAKEWOOD",
        "state": "WA",
        "postalCode": "98499-3980"
      },
      {
        "line": [
          "1144 Market St"
        ],
        "city": "TACOMA",
        "state": "WA",
        "postalCode": "98402-3506"
      },
      {
        "line": [
          "1709 South \"G\" Street"
        ],
        "city": "TACOMA",
        "state": "WA",
        "postalCode": "98405-5104"
      },
      {
        "line": [
          "1710 Market Street"
        ],
        "city": "TACOMA",
        "state": "WA",
        "postalCode": "98402-3213"
      },
      {
        "line": [
          "302 43rd Ave SE"
        ],
        "city": "PUYALLUP",
        "state": "WA",
        "postalCode": "98374-5754"
      },
      {
        "line": [
          "2601 Cheny Ave.",
          "Suite 15"
        ],
        "city": "BREMERTON",
        "state": "WA",
        "postalCode": "98310-1234"
      },
      {
        "line": [
          "401 15th Ave SE"
        ],
        "city": "PUYALLUP",
        "state": "WA",
        "postalCode": "98372-3715"
      },
      {
        "line": [
          "32014 Little Boston Road NE"
        ],
        "city": "KINGSTON",
        "state": "WA",
        "postalCode": "98346-9734"
      },
      {
        "line": [
          "550 Russell Road"
        ],
        "city": "BREMERTON",
        "state": "WA",
        "postalCode": "98312-3449"
      },
      {
        "line": [
          "1516 S 11th  Street"
        ],
        "city": "TACOMA",
        "state": "WA",
        "postalCode": "98405-3332"
      },
      {
        "line": [
          "4717 S 19th St Ste 201"
        ],
        "city": "TACOMA",
        "state": "WA",
        "postalCode": "98405-1167"
      },
      {
        "line": [
          "1002 S Pearl St"
        ],
        "city": "TACOMA",
        "state": "WA",
        "postalCode": "98465-2122"
      },
      {
        "line": [
          "3909 NW Randall Way"
        ],
        "city": "SILVERDALE",
        "state": "WA",
        "postalCode": "98383-7802"
      },
      {
        "line": [
          "10217 125th St Ct E"
        ],
        "city": "PUYALLUP",
        "state": "WA",
        "postalCode": "98374-2761"
      }
    ],
    "extension": [
      {
        "url": "https://fhir.athena.io/StructureDefinition/ah-practice",
        "valueReference": {
          "reference": "Organization/a-1.Practice-14268"
        }
      },
      {
        "url": "https://fhir.athena.io/StructureDefinition/ah-brand",
        "valueReference": {
          "reference": "Organization/a-14268.Brand-1"
        }
      }
    ]
  },
  "fullUrl": "urn:uuid:057b63e1-d412-543b-aebe-d48e93139891"
}