{
  "resource": {
    "resourceType": "Organization",
    "id": "9bd00a02-1cfb-5efc-a271-c5493d9ccf24",
    "name": "Administration",
    "endpoint": [
      {
        "reference": "Endpoint/27a4e967-47aa-5a9c-a572-b8297ee268a2"
      },
      {
        "reference": "Endpoint/95a30faa-ac60-5758-b65f-b459d5d46b6c"
      }
    ],
    "identifier": [
      {
        "system": "http://hl7.org/fhir/sid/us-npi",
        "value": "1336804939"
      },
      {
        "system": "http://hl7.org/fhir/sid/us-npi",
        "value": "1689382400"
      },
      {
        "system": "http://hl7.org/fhir/sid/us-npi",
        "value": "1962168104"
      },
      {
        "system": "http://hl7.org/fhir/sid/us-npi",
        "value": "1366168049"
      },
      {
        "system": "http://hl7.org/fhir/sid/us-npi",
        "value": "1427269521"
      },
      {
        "system": "http://hl7.org/fhir/sid/us-npi",
        "value": "1629599535"
      },
      {
        "system": "http://hl7.org/fhir/sid/us-npi",
        "value": "1285297754"
      },
      {
        "system": "http://hl7.org/fhir/sid/us-npi",
        "value": "1962610600"
      },
      {
        "system": "http://hl7.org/fhir/sid/us-npi",
        "value": "1285464172"
      },
      {
        "system": "http://hl7.org/fhir/sid/us-npi",
        "value": "1558170902"
      },
      {
        "system": "http://hl7.org/fhir/sid/us-npi",
        "value": "1518854744"
      },
      {
        "system": "http://hl7.org/fhir/sid/us-npi",
        "value": "1558632570"
      },
      {
        "system": "http://hl7.org/fhir/sid/us-npi",
        "value": "1982079620"
      },
      {
        "system": "http://hl7.org/fhir/sid/us-npi",
        "value": "1033917620"
      },
      {
        "system": "http://hl7.org/fhir/sid/us-npi",
        "value": "1184332900"
      },
      {
        "system": "http://hl7.org/fhir/sid/us-npi",
        "value": "1548918600"
      },
      {
        "system": "http://hl7.org/fhir/sid/us-npi",
        "value": "1629621651"
      },
      {
        "system": "http://hl7.org/fhir/sid/us-npi",
        "value": "1851509590"
      },
      {
        "system": "http://hl7.org/fhir/sid/us-npi",
        "value": "1164188397"
      },
      {
        "system": "http://hl7.org/fhir/sid/us-npi",
        "value": "1972301570"
      },
      {
        "system": "http://hl7.org/fhir/sid/us-npi",
        "value": "1528478211"
      },
      {
        "system": "http://hl7.org/fhir/sid/us-npi",
        "value": "1710196670"
      },
      {
        "system": "http://hl7.org/fhir/sid/us-npi",
        "value": "1780220822"
      },
      {
        "system": "http://hl7.org/fhir/sid/us-npi",
        "value": "1215416839"
      },
      {
        "system": "http://hl7.org/fhir/sid/us-npi",
        "value": "1124239231"
      },
      {
        "system": "http://hl7.org/fhir/sid/us-npi",
        "value": "1457724924"
      },
      {
        "system": "http://hl7.org/fhir/sid/us-npi",
        "value": "1457974206"
      },
      {
        "system": "http://hl7.org/fhir/sid/us-npi",
        "value": "1497150593"
      },
      {
        "system": "http://hl7.org/fhir/sid/us-npi",
        "value": "1649481623"
      },
      {
        "system": "http://hl7.org/fhir/sid/us-npi",
        "value": "1477979722"
      },
      {
        "system": "http://hl7.org/fhir/sid/us-npi",
        "value": "1992322119"
      },
      {
        "system": "http://hl7.org/fhir/sid/us-npi",
        "value": "1821593971"
      },
      {
        "system": "http://hl7.org/fhir/sid/us-npi",
        "value": "1437902566"
      },
      {
        "system": "http://hl7.org/fhir/sid/us-npi",
        "value": "1952937559"
      },
      {
        "system": "http://hl7.org/fhir/sid/us-npi",
        "value": "1023799806"
      },
      {
        "system": "http://hl7.org/fhir/sid/us-npi",
        "value": "1629640461"
      },
      {
        "system": "http://hl7.org/fhir/sid/us-npi",
        "value": "1679198279"
      },
      {
        "system": "http://hl7.org/fhir/sid/us-npi",
        "value": "1669680567"
      },
      {
        "system": "http://hl7.org/fhir/sid/us-npi",
        "value": "1215662309"
      },
      {
        "system": "http://hl7.org/fhir/sid/us-npi",
        "value": "1891319562"
      },
      {
        "system": "http://hl7.org/fhir/sid/us-npi",
        "value": "1700634797"
      }
    ],
    "address": [
      {
        "line": [
          "122 E Cesar Chavez Blvd"
        ],
        "city": "FRESNO",
        "state": "CA",
        "postalCode": "93706-3642"
      },
      {
        "line": [
          "3652 W. Shields"
        ],
        "city": "FRESNO",
        "state": "CA",
        "postalCode": "93722-6702"
      },
      {
        "line": [
          "4340 E Jensen Ave"
        ],
        "city": "FRESNO",
        "state": "CA",
        "postalCode": "93725-2105"
      },
      {
        "line": [
          "445 11th Street"
        ],
        "city": "Orange Cove",
        "state": "CA",
        "postalCode": "93646-2211"
      },
      {
        "line": [
          "250 E Hanford Armona Road"
        ],
        "city": "LEMOORE",
        "state": "CA",
        "postalCode": "93245-2350"
      },
      {
        "line": [
          "17008 13th Street"
        ],
        "city": "HURON",
        "state": "CA",
        "postalCode": "93234-9997"
      },
      {
        "line": [
          "1545 Mall Dr"
        ],
        "city": "Hanford",
        "state": "CA",
        "postalCode": "93230-5792"
      },
      {
        "line": [
          "2610 Tuolumne Street"
        ],
        "city": "FRESNO",
        "state": "CA",
        "postalCode": "93721-1227"
      },
      {
        "line": [
          "476 E Washington"
        ],
        "city": "EARLIMART",
        "state": "CA",
        "postalCode": "93219-9694"
      },
      {
        "line": [
          "1570 7th Street"
        ],
        "city": "SANGER",
        "state": "CA",
        "postalCode": "93657-2447"
      },
      {
        "line": [
          "255 N HERWALDT DR"
        ],
        "city": "FRESNO",
        "state": "CA",
        "postalCode": "93701-2186"
      },
      {
        "line": [
          "290 N Wayte Lane",
          "Suite 1400"
        ],
        "city": "FRESNO",
        "state": "CA",
        "postalCode": "93701-2124"
      },
      {
        "line": [
          "5539 E KINGS CANYON RD"
        ],
        "city": "FRESNO",
        "state": "CA",
        "postalCode": "93727-4527"
      },
      {
        "line": [
          "313 W Shaw Ave"
        ],
        "city": "CLOVIS",
        "state": "CA",
        "postalCode": "93612-3685"
      },
      {
        "line": [
          "290 N Wayte Lane",
          "Suite 1300"
        ],
        "city": "FRESNO",
        "state": "CA",
        "postalCode": "93701-2124"
      },
      {
        "line": [
          "1201 Rose Ave"
        ],
        "city": "SELMA",
        "state": "CA",
        "postalCode": "93662-3227"
      },
      {
        "line": [
          "14271 W Whitesbridge Ave"
        ],
        "city": "Kerman",
        "state": "CA",
        "postalCode": "93630-9253"
      },
      {
        "line": [
          "2210 E ILLINOIS AVE STE 501"
        ],
        "city": "FRESNO",
        "state": "CA",
        "postalCode": "93701-2125"
      },
      {
        "line": [
          "300 Westgate Way"
        ],
        "city": "DINUBA",
        "state": "CA",
        "postalCode": "93618-9693"
      },
      {
        "line": [
          "130 S 6TH ST"
        ],
        "city": "FOWLER",
        "state": "CA",
        "postalCode": "93625-2438"
      },
      {
        "line": [
          "290 N Wayte Lane",
          "Suite 1200"
        ],
        "city": "FRESNO",
        "state": "CA",
        "postalCode": "93701-2124"
      },
      {
        "line": [
          "4615 N First St"
        ],
        "city": "FRESNO",
        "state": "CA",
        "postalCode": "93726-0904"
      },
      {
        "line": [
          "611 CECIL AVE"
        ],
        "city": "DELANO",
        "state": "CA",
        "postalCode": "93215-2023"
      },
      {
        "line": [
          "290 N Wayte Lane",
          "Suite 1800"
        ],
        "city": "FRESNO",
        "state": "CA",
        "postalCode": "93701-2124"
      },
      {
        "line": [
          "429 E Manning Ave"
        ],
        "city": "PARLIER",
        "state": "CA",
        "postalCode": "93648-2666"
      },
      {
        "line": [
          "290 N Wayte Lane",
          "Suite 2400"
        ],
        "city": "FRESNO",
        "state": "CA",
        "postalCode": "93701-2124"
      },
      {
        "line": [
          "645 S Minnewawa Ave"
        ],
        "city": "FRESNO",
        "state": "CA",
        "postalCode": "93727-4141"
      },
      {
        "line": [
          "611 Cecil Ave"
        ],
        "city": "DELANO",
        "state": "CA",
        "postalCode": "93215-2023"
      },
      {
        "line": [
          "2705 S. Highland Ave"
        ],
        "city": "SELMA",
        "state": "CA",
        "postalCode": "93662-0001"
      },
      {
        "line": [
          "3875 W Beechwood Ave"
        ],
        "city": "FRESNO",
        "state": "CA",
        "postalCode": "93722-0795"
      },
      {
        "line": [
          "290 N Wayte Lane",
          "Suite 2300"
        ],
        "city": "FRESNO",
        "state": "CA",
        "postalCode": "93701-2424"
      },
      {
        "line": [
          "1110 N Blackstone Ave"
        ],
        "city": "FRESNO",
        "state": "CA",
        "postalCode": "93701-1016"
      },
      {
        "line": [
          "119 Barboza Street"
        ],
        "city": "MENDOTA",
        "state": "CA",
        "postalCode": "93640-1901"
      },
      {
        "line": [
          "290 N Wayte Lane",
          "Suite 2100 - 2200"
        ],
        "city": "FRESNO",
        "state": "CA",
        "postalCode": "93701-2124"
      },
      {
        "line": [
          "1000 Chittenden Ave"
        ],
        "city": "CORCORAN",
        "state": "CA",
        "postalCode": "93212-2407"
      },
      {
        "line": [
          "2848 W Ashlan"
        ],
        "city": "FRESNO",
        "state": "CA",
        "postalCode": "93705-1757"
      },
      {
        "line": [
          "1782 E Bullard Ave",
          "Suite #102"
        ],
        "city": "FRESNO",
        "state": "CA",
        "postalCode": "93710-5861"
      },
      {
        "line": [
          "6810 N. Milburn Ave."
        ],
        "city": "FRESNO",
        "state": "CA",
        "postalCode": "93722-0795"
      },
      {
        "line": [
          "1122 S Street"
        ],
        "city": "FRESNO",
        "state": "CA",
        "postalCode": "93721-1227"
      },
      {
        "line": [
          "1790 E Manning Ave"
        ],
        "city": "REEDLEY",
        "state": "CA",
        "postalCode": "93654-2346"
      },
      {
        "line": [
          "5090 E CHURCH AVE"
        ],
        "city": "FRESNO",
        "state": "CA",
        "postalCode": "93725-1230"
      },
      {
        "line": [
          "2630 Tuolumne Street"
        ],
        "city": "FRESNO",
        "state": "CA",
        "postalCode": "93721-1227"
      },
      {
        "line": [
          "517 S Madera Ave"
        ],
        "city": "KERMAN",
        "state": "CA",
        "postalCode": "93630-1523"
      },
      {
        "line": [
          "2502 Jensen Ave."
        ],
        "city": "SANGER",
        "state": "CA",
        "postalCode": "93657-2447"
      },
      {
        "line": [
          "1780 E Bullard Ave"
        ],
        "city": "FRESNO",
        "state": "CA",
        "postalCode": "93710-5861"
      },
      {
        "line": [
          "121 Barboza Street"
        ],
        "city": "MENDOTA",
        "state": "CA",
        "postalCode": "93640-1901"
      },
      {
        "line": [
          "106 E Main Street"
        ],
        "city": "FOWLER",
        "state": "CA",
        "postalCode": "93625-2433"
      },
      {
        "line": [
          "601 3rd Street"
        ],
        "city": "PARLIER",
        "state": "CA",
        "postalCode": "93648-2028"
      },
      {
        "line": [
          "2497 East Herndon Avenue",
          "Suite 103"
        ],
        "city": "CLOVIS",
        "state": "CA",
        "postalCode": "93611-8977"
      },
      {
        "line": [
          "4038 S Mooney Blvd"
        ],
        "city": "VISALIA",
        "state": "CA",
        "postalCode": "93277-7358"
      },
      {
        "line": [
          "1251 DRAPER ST"
        ],
        "city": "KINGSBURG",
        "state": "CA",
        "postalCode": "93631-1934"
      }
    ],
    "extension": [
      {
        "url": "https://fhir.athena.io/StructureDefinition/ah-practice",
        "valueReference": {
          "reference": "Organization/a-1.Practice-17661"
        }
      },
      {
        "url": "https://fhir.athena.io/StructureDefinition/ah-brand",
        "valueReference": {
          "reference": "Organization/a-17661.Brand-1"
        }
      }
    ]
  },
  "fullUrl": "urn:uuid:9bd00a02-1cfb-5efc-a271-c5493d9ccf24"
}