{
  "resource": {
    "resourceType": "Organization",
    "id": "83011144-da43-5a27-a3de-198926b3822c",
    "name": "BOOKER T. WASHINGTON",
    "endpoint": [
      {
        "reference": "Endpoint/27a4e967-47aa-5a9c-a572-b8297ee268a2"
      },
      {
        "reference": "Endpoint/2848eb7c-272c-5e74-9b86-0c0d3c5ab8b5"
      }
    ],
    "identifier": [
      {
        "system": "http://hl7.org/fhir/sid/us-npi",
        "value": "1053595769"
      }
    ],
    "address": [
      {
        "line": [
          "1155 sterling hwy"
        ],
        "city": "FARMERVILLE",
        "state": "LA",
        "postalCode": "71241-3811"
      },
      {
        "line": [
          "8001 youree dr"
        ],
        "city": "SHREVEPORT",
        "state": "LA",
        "postalCode": "71115-2302"
      },
      {
        "line": [
          "8001 Youree Drive"
        ],
        "city": "SHREVEPORT",
        "state": "LA",
        "postalCode": "71115-2324"
      },
      {
        "line": [
          "660factory outlet dr"
        ],
        "city": "ARCADIA",
        "state": "LA",
        "postalCode": "71001-3036"
      },
      {
        "line": [
          "2401 N SERVICE RD"
        ],
        "city": "RUSTON",
        "state": "LA",
        "postalCode": "71270-2342"
      },
      {
        "line": [
          "2400 Hospital Dr"
        ],
        "city": "BOSSIER CITY",
        "state": "LA",
        "postalCode": "71111-2385"
      },
      {
        "line": [
          "321 kilgore dr"
        ],
        "city": "HENDERSON",
        "state": "TX",
        "postalCode": "75652-5215"
      },
      {
        "line": [
          "215 1ST ST. NE"
        ],
        "city": "SPRINGHILL",
        "state": "LA",
        "postalCode": "71075-3217"
      },
      {
        "line": [
          "1736 IRVING PLACE"
        ],
        "city": "SHREVEPORT",
        "state": "LA",
        "postalCode": "71101-4606"
      },
      {
        "line": [
          "813 n main street"
        ],
        "city": "FARMERVILLE",
        "state": "LA",
        "postalCode": "71241-2217"
      },
      {
        "line": [
          "2401 North Service Rd. East"
        ],
        "city": "RUSTON",
        "state": "LA",
        "postalCode": "71270-2342"
      },
      {
        "line": [
          "1800 Irving Place"
        ],
        "city": "SHREVEPORT",
        "state": "LA",
        "postalCode": "71101-4608"
      },
      {
        "line": [
          "2501 KENNETH STREET"
        ],
        "city": "RINGGOLD",
        "state": "LA",
        "postalCode": "71068-2585"
      },
      {
        "line": [
          "1103w mcneese st",
          "1103 w mcneese st"
        ],
        "city": "LAKE CHARLES",
        "state": "LA",
        "postalCode": "70605-5431"
      },
      {
        "line": [
          "255 middle creck rd"
        ],
        "city": "MANY",
        "state": "LA",
        "postalCode": "71449-3308"
      },
      {
        "line": [
          "1110 ringgold ave",
          "1110 ringgold ave"
        ],
        "city": "COUSHATTA",
        "state": "LA",
        "postalCode": "71019-9073"
      },
      {
        "line": [
          "2400 hospital dr"
        ],
        "city": "BOSSIER CITY",
        "state": "LA",
        "postalCode": "71111-2385"
      },
      {
        "line": [
          "162 HWY 32-2A"
        ],
        "city": "ASHDOWN",
        "state": "AR",
        "postalCode": "71822-8689"
      },
      {
        "line": [
          "215 1ST ST NE"
        ],
        "city": "SPRINGHILL",
        "state": "LA",
        "postalCode": "71075-3217"
      },
      {
        "line": [
          "9225 normadie dr"
        ],
        "city": "SHREVEPORT",
        "state": "LA",
        "postalCode": "71118-3249"
      },
      {
        "line": [
          "4680 old brownlee road"
        ],
        "city": "BOSSIER CITY",
        "state": "LA",
        "postalCode": "71111-6504"
      },
      {
        "line": [
          "400 meadowview dr",
          "400 meadowview dr"
        ],
        "city": "MINDEN",
        "state": "LA",
        "postalCode": "71055-3522"
      },
      {
        "line": [
          "965 fisher rd"
        ],
        "city": "MANY",
        "state": "LA",
        "postalCode": "71449-3819"
      },
      {
        "line": [
          "2551 Greenwood Rd",
          "Suite 220"
        ],
        "city": "SHREVEPORT",
        "state": "LA",
        "postalCode": "71103-3981"
      },
      {
        "line": [
          "7605 LINE AVE"
        ],
        "city": "SHREVEPORT",
        "state": "LA",
        "postalCode": "71106-5162"
      },
      {
        "line": [
          "5100 jackson st ext"
        ],
        "city": "ALEXANDRIA",
        "state": "LA",
        "postalCode": "71303-2317"
      },
      {
        "line": [
          "2575 AIRLINE DR"
        ],
        "city": "BOSSIER CITY",
        "state": "LA",
        "postalCode": "71111-5812"
      }
    ],
    "extension": [
      {
        "url": "https://fhir.athena.io/StructureDefinition/ah-practice",
        "valueReference": {
          "reference": "Organization/a-1.Practice-3361"
        }
      },
      {
        "url": "https://fhir.athena.io/StructureDefinition/ah-brand",
        "valueReference": {
          "reference": "Organization/a-3361.Brand-1"
        }
      }
    ]
  },
  "fullUrl": "urn:uuid:83011144-da43-5a27-a3de-198926b3822c"
}