{
  "resource": {
    "resourceType": "Organization",
    "id": "8970ca75-0f69-5a3c-b615-19b299aae6fa",
    "name": "Northwest Nephrology Clinic, PC",
    "endpoint": [
      {
        "reference": "Endpoint/27a4e967-47aa-5a9c-a572-b8297ee268a2"
      },
      {
        "reference": "Endpoint/eff869d7-b3c6-5ae6-bf11-bc532185327c"
      }
    ],
    "identifier": [
      {
        "system": "http://hl7.org/fhir/sid/us-npi",
        "value": "1215052261"
      }
    ],
    "address": [
      {
        "line": [
          "1987 CANDLER RD STE C"
        ],
        "city": "DECATUR",
        "state": "GA",
        "postalCode": "30032-4212"
      },
      {
        "line": [
          "1350 MONTREAL RD STE 200"
        ],
        "city": "TUCKER",
        "state": "GA",
        "postalCode": "30084-8144"
      },
      {
        "line": [
          "2801 DEKALB MEDICAL PKWY"
        ],
        "city": "LITHONIA",
        "state": "GA",
        "postalCode": "30058-4996"
      },
      {
        "line": [
          "7301 Stonecrest Concourse",
          "Ste 101"
        ],
        "city": "LITHONIA",
        "state": "GA",
        "postalCode": "30038-6902"
      },
      {
        "line": [
          "1987 Candler Rd",
          "Ste C"
        ],
        "city": "DECATUR",
        "state": "GA",
        "postalCode": "30032-4212"
      },
      {
        "line": [
          "3645 Bakers Ferry Rd SW"
        ],
        "city": "ATLANTA",
        "state": "GA",
        "postalCode": "30331-3712"
      },
      {
        "line": [
          "5360 SNAPFINGER WOODS DR",
          "STE 102"
        ],
        "city": "DECATUR",
        "state": "GA",
        "postalCode": "30035-4046"
      },
      {
        "line": [
          "5255 SNAPFINGER PARK DR STE 110"
        ],
        "city": "DECATUR",
        "state": "GA",
        "postalCode": "30035-4066"
      },
      {
        "line": [
          "2701 N DECATUR RD"
        ],
        "city": "DECATUR",
        "state": "GA",
        "postalCode": "30033-5918"
      },
      {
        "line": [
          "121 Linden Ave NE"
        ],
        "city": "ATLANTA",
        "state": "GA",
        "postalCode": "30308-2432"
      },
      {
        "line": [
          "3620 MARTIN LUTHER KING JR DR SW"
        ],
        "city": "ATLANTA",
        "state": "GA",
        "postalCode": "30331-3711"
      },
      {
        "line": [
          "5255 SNAPFINGER PARK DR"
        ],
        "city": "DECATUR",
        "state": "GA",
        "postalCode": "30035-4084"
      },
      {
        "line": [
          "2485 PARK CENTRAL BLVD"
        ],
        "city": "DECATUR",
        "state": "GA",
        "postalCode": "30035-3903"
      },
      {
        "line": [
          "2711 IRVIN WAY",
          "STE 205"
        ],
        "city": "DECATUR",
        "state": "GA",
        "postalCode": "30030-1724"
      },
      {
        "line": [
          "5255 SNAPFINGER PARK DR",
          "STE 115"
        ],
        "city": "DECATUR",
        "state": "GA",
        "postalCode": "30035-4066"
      },
      {
        "line": [
          "1757 CANDLER RD"
        ],
        "city": "DECATUR",
        "state": "GA",
        "postalCode": "30032-3276"
      },
      {
        "line": [
          "5255 SNAPFINGER PARK DR",
          "SUITE 110"
        ],
        "city": "DECATUR",
        "state": "GA",
        "postalCode": "30035-4084"
      },
      {
        "line": [
          "450 N CANDLER ST"
        ],
        "city": "DECATUR",
        "state": "GA",
        "postalCode": "30030-2626"
      }
    ],
    "extension": [
      {
        "url": "https://fhir.athena.io/StructureDefinition/ah-practice",
        "valueReference": {
          "reference": "Organization/a-1.Practice-16594"
        }
      },
      {
        "url": "https://fhir.athena.io/StructureDefinition/ah-brand",
        "valueReference": {
          "reference": "Organization/a-16594.Brand-3"
        }
      }
    ]
  },
  "fullUrl": "urn:uuid:8970ca75-0f69-5a3c-b615-19b299aae6fa"
}