{
  "resource": {
    "resourceType": "Organization",
    "id": "22bc4db1-a0ed-5484-a5f9-8bfb067f7fb4",
    "name": "Mount Carmel Physicians",
    "endpoint": [
      {
        "reference": "Endpoint/27a4e967-47aa-5a9c-a572-b8297ee268a2"
      },
      {
        "reference": "Endpoint/3c5d93b4-0410-5d8f-ab0c-f5b50749feda"
      }
    ],
    "identifier": [
      {
        "system": "http://hl7.org/fhir/sid/us-npi",
        "value": "1457617235"
      },
      {
        "system": "http://hl7.org/fhir/sid/us-npi",
        "value": "1548211311"
      },
      {
        "system": "http://hl7.org/fhir/sid/us-npi",
        "value": "1073615456"
      }
    ],
    "address": [
      {
        "line": [
          "1300 Hill Road N"
        ],
        "city": "PICKERINGTON",
        "state": "OH",
        "postalCode": "43147-8986"
      },
      {
        "line": [
          "1001 Parkview Blvd"
        ],
        "city": "COLUMBUS",
        "state": "OH",
        "postalCode": "43219-2270"
      },
      {
        "line": [
          "5380 East Broad Street"
        ],
        "city": "COLUMBUS",
        "state": "OH",
        "postalCode": "43213-1474"
      },
      {
        "line": [
          "1151 College Ave"
        ],
        "city": "COLUMBUS",
        "state": "OH",
        "postalCode": "43209-2827"
      },
      {
        "line": [
          "4660 Trueman Blvd"
        ],
        "city": "COLUMBUS",
        "state": "OH",
        "postalCode": "43206-2438"
      },
      {
        "line": [
          "140 Old County Line Rd"
        ],
        "city": "WESTERVILLE",
        "state": "OH",
        "postalCode": "43081-1002"
      },
      {
        "line": [
          "6001 East Broad Street"
        ],
        "city": "COLUMBUS",
        "state": "OH",
        "postalCode": "43213-5120"
      },
      {
        "line": [
          "4805 Langley Ave"
        ],
        "city": "COLUMBUS",
        "state": "OH",
        "postalCode": "43213-6125"
      },
      {
        "line": [
          "597 Executive Campus Drive"
        ],
        "city": "WESTERVILLE",
        "state": "OH",
        "postalCode": "43082-8870"
      },
      {
        "line": [
          "2233 N Bank Drive"
        ],
        "city": "COLUMBUS",
        "state": "OH",
        "postalCode": "43220-5422"
      },
      {
        "line": [
          "1169 Bryden Road"
        ],
        "city": "COLUMBUS",
        "state": "OH",
        "postalCode": "43205-1928"
      },
      {
        "line": [
          "6150 East Broad St"
        ],
        "city": "COLUMBUS",
        "state": "OH",
        "postalCode": "43213-1574"
      },
      {
        "line": [
          "5500 Karl Road"
        ],
        "city": "COLUMBUS",
        "state": "OH",
        "postalCode": "43229-3663"
      },
      {
        "line": [
          "500 S Cleveland Ave"
        ],
        "city": "WESTERVILLE",
        "state": "OH",
        "postalCode": "43081-8971"
      },
      {
        "line": [
          "36 Lehman Dr"
        ],
        "city": "CANAL WINCHESTER",
        "state": "OH",
        "postalCode": "43110-1006"
      },
      {
        "line": [
          "5300 NORTH MEADOW DRIVE"
        ],
        "city": "GROVE CITY",
        "state": "OH",
        "postalCode": "43123-2546"
      },
      {
        "line": [
          "4880 Tuttle Road"
        ],
        "city": "DUBLIN",
        "state": "OH",
        "postalCode": "43017-7520"
      },
      {
        "line": [
          "793 West State Street"
        ],
        "city": "COLUMBUS",
        "state": "OH",
        "postalCode": "43222-1551"
      },
      {
        "line": [
          "5691 Thompson Road"
        ],
        "city": "COLUMBUS",
        "state": "OH",
        "postalCode": "43230-1345"
      },
      {
        "line": [
          "10270 Blacklick Eastern Road"
        ],
        "city": "PICKERINGTON",
        "state": "OH",
        "postalCode": "43147-9225"
      },
      {
        "line": [
          "100 Delaware Crossing W"
        ],
        "city": "DELAWARE",
        "state": "OH",
        "postalCode": "43015-7853"
      },
      {
        "line": [
          "5151 N Hamilton rd"
        ],
        "city": "COLUMBUS",
        "state": "OH",
        "postalCode": "43230-1313"
      },
      {
        "line": [
          "1700 Heinzerling Drive"
        ],
        "city": "COLUMBUS",
        "state": "OH",
        "postalCode": "43223-3671"
      },
      {
        "line": [
          "10270 Blacklick Eastern Road NW"
        ],
        "city": "PICKERINGTON",
        "state": "OH",
        "postalCode": "43147-9225"
      },
      {
        "line": [
          "144 East Broad Street"
        ],
        "city": "PATASKALA",
        "state": "OH",
        "postalCode": "43062-7536"
      },
      {
        "line": [
          "3399 Mill Run Road"
        ],
        "city": "HILLIARD",
        "state": "OH",
        "postalCode": "43026-9078"
      },
      {
        "line": [
          "2770 Clime Rd"
        ],
        "city": "COLUMBUS",
        "state": "OH",
        "postalCode": "43223-3626"
      },
      {
        "line": [
          "6830 North High Street"
        ],
        "city": "COLUMBUS",
        "state": "OH",
        "postalCode": "43085-2510"
      },
      {
        "line": [
          "5700 Karl Road"
        ],
        "city": "COLUMBUS",
        "state": "OH",
        "postalCode": "43229-3602"
      },
      {
        "line": [
          "6725 Thrush Dr"
        ],
        "city": "CANAL WINCHESTER",
        "state": "OH",
        "postalCode": "43110-7894"
      },
      {
        "line": [
          "3929 Hoover Rd"
        ],
        "city": "GROVE CITY",
        "state": "OH",
        "postalCode": "43123-2853"
      },
      {
        "line": [
          "215 Huber Villiage Blvd"
        ],
        "city": "WESTERVILLE",
        "state": "OH",
        "postalCode": "43081-3306"
      },
      {
        "line": [
          "1149  College Ave"
        ],
        "city": "COLUMBUS",
        "state": "OH",
        "postalCode": "43209-2847"
      },
      {
        "line": [
          "2225 Taylor Park Dr"
        ],
        "city": "REYNOLDSBURG",
        "state": "OH",
        "postalCode": "43068-8039"
      },
      {
        "line": [
          "793 W State St"
        ],
        "city": "COLUMBUS",
        "state": "OH",
        "postalCode": "43222-1551"
      },
      {
        "line": [
          "4303 Trueman Blvd"
        ],
        "city": "HILLIARD",
        "state": "OH",
        "postalCode": "43026-2631"
      }
    ],
    "extension": [
      {
        "url": "https://fhir.athena.io/StructureDefinition/ah-practice",
        "valueReference": {
          "reference": "Organization/a-1.Practice-11128"
        }
      },
      {
        "url": "https://fhir.athena.io/StructureDefinition/ah-brand",
        "valueReference": {
          "reference": "Organization/a-11128.Brand-1"
        }
      }
    ]
  },
  "fullUrl": "urn:uuid:22bc4db1-a0ed-5484-a5f9-8bfb067f7fb4"
}