{
  "resource": {
    "resourceType": "Organization",
    "id": "c2f3affa-1eb8-5d8f-8143-34b961ac9863",
    "name": "ACENSION ST THOMAS HIGHLANDS",
    "endpoint": [
      {
        "reference": "Endpoint/27a4e967-47aa-5a9c-a572-b8297ee268a2"
      },
      {
        "reference": "Endpoint/be983c0d-423d-5008-a433-7a8e245ef8f6"
      }
    ],
    "identifier": [
      {
        "system": "http://hl7.org/fhir/sid/us-npi",
        "value": "1003835141"
      },
      {
        "system": "http://hl7.org/fhir/sid/us-npi",
        "value": "1881387330"
      }
    ],
    "address": [
      {
        "line": [
          "6760 GOODMAN RD STE 110"
        ],
        "city": "OLIVE BRANCH",
        "state": "MS",
        "postalCode": "38654-9893"
      },
      {
        "line": [
          "1211 UNION AVE",
          "STE 500"
        ],
        "city": "MEMPHIS",
        "state": "TN",
        "postalCode": "38104-6656"
      },
      {
        "line": [
          "1400 South Germantown Road"
        ],
        "city": "GERMANTOWN",
        "state": "TN",
        "postalCode": "38139-2205"
      },
      {
        "line": [
          "1458 WEST POPLAR AVE",
          "SUITE 100"
        ],
        "city": "COLLIERVILLE",
        "state": "TN",
        "postalCode": "38017-0630"
      },
      {
        "line": [
          "105 S WILLOW AVE"
        ],
        "city": "COOKEVILLE",
        "state": "TN",
        "postalCode": "38501-4667"
      },
      {
        "line": [
          "11851 WILL HARRIS DR"
        ],
        "city": "ARLINGTON",
        "state": "TN",
        "postalCode": "38002-1039"
      },
      {
        "line": [
          "585 S MENDENHALL RD"
        ],
        "city": "MEMPHIS",
        "state": "TN",
        "postalCode": "38117-4215"
      },
      {
        "line": [
          "8709 US HIGHWAY 51 N"
        ],
        "city": "MILLINGTON",
        "state": "TN",
        "postalCode": "38053-1512"
      },
      {
        "line": [
          "1500 WEST POPLAR AVE"
        ],
        "city": "COLLIERVILLE",
        "state": "TN",
        "postalCode": "38017-0601"
      },
      {
        "line": [
          "7887 WOLF RIVER BOULEVARD"
        ],
        "city": "GERMANTOWN",
        "state": "TN",
        "postalCode": "38138-1718"
      },
      {
        "line": [
          "1559 SPARTA ST, STE 301"
        ],
        "city": "MCMINNVILLE",
        "state": "TN",
        "postalCode": "37110-1316"
      },
      {
        "line": [
          "2608 S LAMAR BLVD",
          "STE 102"
        ],
        "city": "OXFORD",
        "state": "MS",
        "postalCode": "38655-5243"
      },
      {
        "line": [
          "7545 AIRWAYS BLVD"
        ],
        "city": "SOUTHAVEN",
        "state": "MS",
        "postalCode": "38671-5806"
      },
      {
        "line": [
          "1900 WEST POPLAR AVE"
        ],
        "city": "COLLIERVILLE",
        "state": "TN",
        "postalCode": "38017-0630"
      },
      {
        "line": [
          "7887 WOLF RIVER BLVD"
        ],
        "city": "GERMANTOWN",
        "state": "TN",
        "postalCode": "38138-1718"
      },
      {
        "line": [
          "1211 UNION AVE",
          "SUITE 500"
        ],
        "city": "MEMPHIS",
        "state": "TN",
        "postalCode": "38104-6638"
      },
      {
        "line": [
          "1211 UNION AVE",
          "SUITE 195"
        ],
        "city": "MEMPHIS",
        "state": "TN",
        "postalCode": "38104-6638"
      },
      {
        "line": [
          "1400 SOUTH GERMANTOWN ROAD"
        ],
        "city": "GERMANTOWN",
        "state": "TN",
        "postalCode": "38138-2205"
      },
      {
        "line": [
          "105 S WILLOW"
        ],
        "city": "COOKEVILLE",
        "state": "TN",
        "postalCode": "38501-4667"
      },
      {
        "line": [
          "8000 CENTERVIEW PARKWAY",
          "SUITE 500"
        ],
        "city": "CORDOVA",
        "state": "TN",
        "postalCode": "38018-4227"
      },
      {
        "line": [
          "1211 UNION AVE"
        ],
        "city": "MEMPHIS",
        "state": "TN",
        "postalCode": "38104-6638"
      },
      {
        "line": [
          "2608 S LAMAR #102"
        ],
        "city": "OXFORD",
        "state": "MS",
        "postalCode": "38655-5243"
      },
      {
        "line": [
          "1400 S GERMANTOWN RD"
        ],
        "city": "GERMANTOWN",
        "state": "TN",
        "postalCode": "38138-2205"
      },
      {
        "line": [
          "423 SEWELL DR"
        ],
        "city": "SPARTA",
        "state": "TN",
        "postalCode": "38583-1223"
      },
      {
        "line": [
          "7691 POPLAR AVE"
        ],
        "city": "GERMANTOWN",
        "state": "TN",
        "postalCode": "38138-3904"
      },
      {
        "line": [
          "877 JEFFERSON"
        ],
        "city": "MEMPHIS",
        "state": "TN",
        "postalCode": "38103-2807"
      },
      {
        "line": [
          "335 W SPRING ST"
        ],
        "city": "COOKEVILLE",
        "state": "TN",
        "postalCode": "38501-3125"
      },
      {
        "line": [
          "1458 WEST POPLAR AVE"
        ],
        "city": "COLLIERVILLE",
        "state": "TN",
        "postalCode": "38017-0630"
      },
      {
        "line": [
          "1500 W ELK AVE STE 102"
        ],
        "city": "ELIZABETHTON",
        "state": "TN",
        "postalCode": "37643-2655"
      },
      {
        "line": [
          "6760 GOODMAN ROAD STE 110"
        ],
        "city": "OLIVE BRANCH",
        "state": "MS",
        "postalCode": "38654-7056"
      },
      {
        "line": [
          "35 TAYLOR AVE"
        ],
        "city": "CROSSVILLE",
        "state": "TN",
        "postalCode": "38555-4526"
      },
      {
        "line": [
          "1400 S GERMANTOWN ROAD"
        ],
        "city": "GERMANTOWN",
        "state": "TN",
        "postalCode": "38138-2205"
      },
      {
        "line": [
          "16000 JOHNSTON MEMORIAL DR STE 100"
        ],
        "city": "ABINGDON",
        "state": "VA",
        "postalCode": "24211-7664"
      },
      {
        "line": [
          "7887 WOLF RIVER BLVD"
        ],
        "city": "GERMANTOWN",
        "state": "TN",
        "postalCode": "38138-1717"
      },
      {
        "line": [
          "2608 S LAMAR, #102"
        ],
        "city": "OXFORD",
        "state": "MS",
        "postalCode": "38655-5243"
      },
      {
        "line": [],
        "city": "GERMANTOWN",
        "state": "TN",
        "postalCode": "38138-2205"
      },
      {
        "line": [
          "1265 UNION AVE"
        ],
        "city": "MEMPHIS",
        "state": "TN",
        "postalCode": "38104-3415"
      },
      {
        "line": [
          "1900 W POPLAR AVE"
        ],
        "city": "COLLIERVILLE",
        "state": "TN",
        "postalCode": "38017-0605"
      },
      {
        "line": [
          "3 PROFESSIONAL PARK DR",
          "STE 21"
        ],
        "city": "JOHNSON CITY",
        "state": "TN",
        "postalCode": "37604-6529"
      },
      {
        "line": [
          "1211 UNION AVE",
          "STE 195"
        ],
        "city": "MEMPHIS",
        "state": "TN",
        "postalCode": "38104-6603"
      }
    ],
    "extension": [
      {
        "url": "https://fhir.athena.io/StructureDefinition/ah-practice",
        "valueReference": {
          "reference": "Organization/a-1.Practice-1366"
        }
      },
      {
        "url": "https://fhir.athena.io/StructureDefinition/ah-brand",
        "valueReference": {
          "reference": "Organization/a-1366.Brand-1"
        }
      }
    ]
  },
  "fullUrl": "urn:uuid:c2f3affa-1eb8-5d8f-8143-34b961ac9863"
}