{
  "resource": {
    "resourceType": "Organization",
    "id": "3ba43e1f-f4ee-5392-aafb-9d070b998e2e",
    "name": "ALTHEA WOODLAND NURSING HOME",
    "endpoint": [
      {
        "reference": "Endpoint/27a4e967-47aa-5a9c-a572-b8297ee268a2"
      },
      {
        "reference": "Endpoint/36077354-fc1e-57ef-87f6-36c5c6feff50"
      }
    ],
    "identifier": [
      {
        "system": "http://hl7.org/fhir/sid/us-npi",
        "value": "1730275322"
      }
    ],
    "address": [
      {
        "line": [
          "410 Torrington Place"
        ],
        "city": "SILVER SPRING",
        "state": "MD",
        "postalCode": "20901-4733"
      },
      {
        "line": [
          "19114 N. Frederick Ave."
        ],
        "city": "GAITHERSBURG",
        "state": "MD",
        "postalCode": "20879-3307"
      },
      {
        "line": [
          "16700 BATCHELORS FOREST ROAD"
        ],
        "city": "OLNEY",
        "state": "MD",
        "postalCode": "20832-2703"
      },
      {
        "line": [
          "13823 LOREE LANE"
        ],
        "city": "ROCKVILLE",
        "state": "MD",
        "postalCode": "20853-2931"
      },
      {
        "line": [
          "4110 Healthfield Road"
        ],
        "city": "ROCKVILLE",
        "state": "MD",
        "postalCode": "20853-2036"
      },
      {
        "line": [
          "6000 GRANBY RD"
        ],
        "city": "DERWOOD",
        "state": "MD",
        "postalCode": "20855-1473"
      },
      {
        "line": [
          "6703 97TH AVENUE"
        ],
        "city": "LANHAM",
        "state": "MD",
        "postalCode": "20706-2617"
      },
      {
        "line": [
          "13309 PARTRIDGE DRIVE"
        ],
        "city": "SILVER SPRING",
        "state": "MD",
        "postalCode": "20904-1327"
      },
      {
        "line": [
          "1006 LOXFORD TERRACE"
        ],
        "city": "SILVER SPRING",
        "state": "MD",
        "postalCode": "20904-1127"
      },
      {
        "line": [],
        "city": "SILVER SPRING",
        "state": "MD",
        "postalCode": "20904-3535"
      },
      {
        "line": [
          "4414 Renn Street"
        ],
        "city": "ROCKVILLE",
        "state": "MD",
        "postalCode": "20853-2745"
      },
      {
        "line": [
          "1210 Downs Drive"
        ],
        "city": "SILVER SPRING",
        "state": "MD",
        "postalCode": "20904-2034"
      },
      {
        "line": [
          "1000 DALEVIEW DRIVE"
        ],
        "city": "SILVER SPRING",
        "state": "MD",
        "postalCode": "20901-3658"
      },
      {
        "line": [
          "15101 Servian Lane"
        ],
        "city": "BURTONSVILLE",
        "state": "MD",
        "postalCode": "20866-1169"
      },
      {
        "line": [
          "14017 Blazer Lane"
        ],
        "city": "SILVER SPRING",
        "state": "MD",
        "postalCode": "20906-2321"
      },
      {
        "line": [
          "1143 NETHERLANDS CT"
        ],
        "city": "SILVER SPRING",
        "state": "MD",
        "postalCode": "20905-6039"
      },
      {
        "line": [
          "1812 BRIGGS RD"
        ],
        "city": "SILVER SPRING",
        "state": "MD",
        "postalCode": "20906-3309"
      },
      {
        "line": [
          "3032 SHANANDALE DR"
        ],
        "city": "SILVER SPRING",
        "state": "MD",
        "postalCode": "20904-1823"
      },
      {
        "line": [
          "3016 Aquarius Avenue"
        ],
        "city": "SILVER SPRING",
        "state": "MD",
        "postalCode": "20906-1815"
      },
      {
        "line": [
          "2012 Cradock Street"
        ],
        "city": "SILVER SPRING",
        "state": "MD",
        "postalCode": "20905-4206"
      },
      {
        "line": [
          "14202 Oakvale Drive"
        ],
        "city": "ROCKVILLE",
        "state": "MD",
        "postalCode": "20853-2027"
      },
      {
        "line": [
          "2601 Briggs Chaney Road",
          "2601 Briggs Chaney Road"
        ],
        "city": "SILVER SPRING",
        "state": "MD",
        "postalCode": "20905-2258"
      },
      {
        "line": [
          "13100 NEW HAMPSHIRE AVENUE"
        ],
        "city": "SILVER SPRING",
        "state": "MD",
        "postalCode": "20904-3358"
      },
      {
        "line": [],
        "city": "SILVER SPRING",
        "state": "MD",
        "postalCode": "20904-3358"
      }
    ],
    "extension": [
      {
        "url": "https://fhir.athena.io/StructureDefinition/ah-practice",
        "valueReference": {
          "reference": "Organization/a-1.Practice-3844"
        }
      },
      {
        "url": "https://fhir.athena.io/StructureDefinition/ah-brand",
        "valueReference": {
          "reference": "Organization/a-3844.Brand-1"
        }
      }
    ]
  },
  "fullUrl": "urn:uuid:3ba43e1f-f4ee-5392-aafb-9d070b998e2e"
}