{
  "resource": {
    "resourceType": "Organization",
    "id": "67c98a72-afe7-5bd9-9615-ccf8efd1830a",
    "name": "ALLCARE FOOT & ANKLE CENTER LLC",
    "endpoint": [
      {
        "reference": "Endpoint/27a4e967-47aa-5a9c-a572-b8297ee268a2"
      },
      {
        "reference": "Endpoint/0ea64597-6aa2-5e2d-8d98-7c87605a39be"
      }
    ],
    "identifier": [
      {
        "system": "http://hl7.org/fhir/sid/us-npi",
        "value": "1528480647"
      }
    ],
    "address": [
      {
        "line": [
          "5111 CONNECTICUT AVENUE NW"
        ],
        "city": "WASHINGTON",
        "state": "DC",
        "postalCode": "20008-2004"
      },
      {
        "line": [
          "14906 Jefferson Davis Highway"
        ],
        "city": "WOODBRIDGE",
        "state": "VA",
        "postalCode": "22191-4016"
      },
      {
        "line": [
          "5255 LOUGHBORO RD NW"
        ],
        "city": "WASHINGTON",
        "state": "DC",
        "postalCode": "20016-2633"
      },
      {
        "line": [
          "6700 Columbia Pike"
        ],
        "city": "ANNANDALE",
        "state": "VA",
        "postalCode": "22003-3450"
      },
      {
        "line": [
          "330 NORTH WASHINGTON STREET"
        ],
        "city": "FALLS CHURCH",
        "state": "VA",
        "postalCode": "22046-3431"
      },
      {
        "line": [
          "74 Mizpah Rd"
        ],
        "city": "LOCUST HILL",
        "state": "VA",
        "postalCode": "23092-9808"
      },
      {
        "line": [
          "132 Lancaster Drive"
        ],
        "city": "IRVINGTON",
        "state": "VA",
        "postalCode": "22480-9740"
      },
      {
        "line": [
          "allcare foot and ankle",
          "313  park ave"
        ],
        "city": "FALLS CHURCH",
        "state": "VA",
        "postalCode": "22046-3327"
      },
      {
        "line": [
          "4901 CONNECTICUT AVE. NW"
        ],
        "city": "WASHINGTON",
        "state": "DC",
        "postalCode": "20008-2022"
      },
      {
        "line": [
          "5420 connecticut ave"
        ],
        "city": "WASHINGTON",
        "state": "DC",
        "postalCode": "20015-2832"
      },
      {
        "line": [
          "700 West Broad Street"
        ],
        "city": "FALLS CHURCH",
        "state": "VA",
        "postalCode": "22046-3219"
      },
      {
        "line": [
          "2100 powhatan st"
        ],
        "city": "FALLS CHURCH",
        "state": "VA",
        "postalCode": "22043-1940"
      },
      {
        "line": [
          "3050 MILITARY ROAD NW"
        ],
        "city": "WASHINGTON",
        "state": "DC",
        "postalCode": "20015-1344"
      },
      {
        "line": [
          "313 PARK AVENUE  SUITE 308"
        ],
        "city": "FALLS CHURCH",
        "state": "VA",
        "postalCode": "22046-3303"
      }
    ],
    "extension": [
      {
        "url": "https://fhir.athena.io/StructureDefinition/ah-practice",
        "valueReference": {
          "reference": "Organization/a-1.Practice-8297"
        }
      },
      {
        "url": "https://fhir.athena.io/StructureDefinition/ah-brand",
        "valueReference": {
          "reference": "Organization/a-8297.Brand-3"
        }
      }
    ]
  },
  "fullUrl": "urn:uuid:67c98a72-afe7-5bd9-9615-ccf8efd1830a"
}