{
  "resource": {
    "resourceType": "Organization",
    "id": "54e52dec-dbda-5704-bb1a-d3972df7aa30",
    "name": "United Physicians, Inc",
    "endpoint": [
      {
        "reference": "Endpoint/27a4e967-47aa-5a9c-a572-b8297ee268a2"
      },
      {
        "reference": "Endpoint/fc212b46-49c9-5fb4-857f-f90bf751bda6"
      }
    ],
    "identifier": [
      {
        "system": "http://hl7.org/fhir/sid/us-npi",
        "value": "1285022152"
      }
    ],
    "address": [
      {
        "line": [
          "49221 Van Dyke"
        ],
        "city": "UTICA",
        "state": "MI",
        "postalCode": "48317-1336"
      },
      {
        "line": [
          "555 W 14 Mile",
          "ste 100"
        ],
        "city": "CLAWSON",
        "state": "MI",
        "postalCode": "48017-3100"
      },
      {
        "line": [
          "29829 Telegraph Rd"
        ],
        "city": "SOUTHFIELD",
        "state": "MI",
        "postalCode": "48034-1330"
      },
      {
        "line": [
          "30335 W 13 Mile Rd",
          "Ste 100"
        ],
        "city": "FARMINGTON HILLS",
        "state": "MI",
        "postalCode": "48334-2262"
      },
      {
        "line": [
          "38865 Dequinder"
        ],
        "city": "TROY",
        "state": "MI",
        "postalCode": "48083-6812"
      },
      {
        "line": [
          "1455 S Lapeer Rd"
        ],
        "city": "LAKE ORION",
        "state": "MI",
        "postalCode": "48360-1467"
      },
      {
        "line": [
          "43097 Woodward Ave",
          "#201"
        ],
        "city": "BLOOMFIELD HILLS",
        "state": "MI",
        "postalCode": "48302-1111"
      },
      {
        "line": [
          "4045 W 13 Mile Rd"
        ],
        "city": "ROYAL OAK",
        "state": "MI",
        "postalCode": "48073-1111"
      },
      {
        "line": [
          "29201 Telegraph Rd",
          "Ste 404"
        ],
        "city": "SOUTHFIELD",
        "state": "MI",
        "postalCode": "48034-7647"
      },
      {
        "line": [
          "27177 Lahser Rd",
          "Suite 2015"
        ],
        "city": "SOUTHFIELD",
        "state": "MI",
        "postalCode": "48034-4714"
      }
    ],
    "extension": [
      {
        "url": "https://fhir.athena.io/StructureDefinition/ah-practice",
        "valueReference": {
          "reference": "Organization/a-1.Practice-10474"
        }
      },
      {
        "url": "https://fhir.athena.io/StructureDefinition/ah-brand",
        "valueReference": {
          "reference": "Organization/a-10474.Brand-1"
        }
      }
    ]
  },
  "fullUrl": "urn:uuid:54e52dec-dbda-5704-bb1a-d3972df7aa30"
}