{
  "resource": {
    "resourceType": "Organization",
    "id": "6883112b-c214-5b26-bb5e-82e88e6631fe",
    "name": "Artisan Foot and Ankle Podiatric Specialists INC.",
    "endpoint": [
      {
        "reference": "Endpoint/27a4e967-47aa-5a9c-a572-b8297ee268a2"
      },
      {
        "reference": "Endpoint/072d760f-d8c3-50bd-ac43-3f4802c8d732"
      }
    ],
    "identifier": [
      {
        "system": "http://hl7.org/fhir/sid/us-npi",
        "value": "1235452335"
      }
    ],
    "address": [
      {
        "line": [
          "24452 Health Center Drive"
        ],
        "city": "LAGUNA HILLS",
        "state": "CA",
        "postalCode": "92653-3604"
      },
      {
        "line": [
          "665 Camino De Los Mares Suite 201"
        ],
        "city": "SAN CLEMENTE",
        "state": "CA",
        "postalCode": "92673-2859"
      },
      {
        "line": [
          "1010 West La Veta Avenue",
          "Suite 320"
        ],
        "city": "ORANGE",
        "state": "CA",
        "postalCode": "92868-4300"
      },
      {
        "line": [
          "366 San Miguel Suite 210"
        ],
        "city": "NEWPORT BEACH",
        "state": "CA",
        "postalCode": "92660-7810"
      },
      {
        "line": [
          "655 Camino De Los Mares Ste 120"
        ],
        "city": "SAN CLEMENTE",
        "state": "CA",
        "postalCode": "92673-2859"
      },
      {
        "line": [
          "26691 Plaza Estival",
          "Suite 201"
        ],
        "city": "MISSION VIEJO",
        "state": "CA",
        "postalCode": "92691-6329"
      },
      {
        "line": [
          "10683 Magnolica Avenue, Suite B"
        ],
        "city": "RIVERSIDE",
        "state": "CA",
        "postalCode": "92505-1893"
      },
      {
        "line": [
          "319 East Palm Drive Suite B"
        ],
        "city": "PLACENTIA",
        "state": "CA",
        "postalCode": "92870-3238"
      },
      {
        "line": [
          "15 Mareblu STE 240"
        ],
        "city": "ALISO VIEJO",
        "state": "CA",
        "postalCode": "92656-3047"
      }
    ],
    "extension": [
      {
        "url": "https://fhir.athena.io/StructureDefinition/ah-practice",
        "valueReference": {
          "reference": "Organization/a-1.Practice-20181"
        }
      },
      {
        "url": "https://fhir.athena.io/StructureDefinition/ah-brand",
        "valueReference": {
          "reference": "Organization/a-20181.Brand-6"
        }
      }
    ]
  },
  "fullUrl": "urn:uuid:6883112b-c214-5b26-bb5e-82e88e6631fe"
}