{
  "resource": {
    "resourceType": "Organization",
    "id": "98697f98-9921-52a7-9f5e-59066df365ca",
    "name": "Frederick Internal Medicine and Endocrinology Services",
    "endpoint": [
      {
        "reference": "Endpoint/27a4e967-47aa-5a9c-a572-b8297ee268a2"
      },
      {
        "reference": "Endpoint/5fe7dd8a-a115-5a5e-8a47-96aa922b3aae"
      }
    ],
    "identifier": [
      {
        "system": "http://hl7.org/fhir/sid/us-npi",
        "value": "1760590111"
      }
    ],
    "address": [
      {
        "line": [
          "67 THOMAS JOHNSON DR STE 4"
        ],
        "city": "FREDERICK",
        "state": "MD",
        "postalCode": "21702-4862"
      },
      {
        "line": [
          "5800 GENESIS LANE"
        ],
        "city": "FREDERICK",
        "state": "MD",
        "postalCode": "21703-5166"
      },
      {
        "line": [
          "400 W Seventh Street"
        ],
        "city": "FREDERICK",
        "state": "MD",
        "postalCode": "21701-4506"
      },
      {
        "line": [
          "65 THOMAS JOHNSON DR STE C"
        ],
        "city": "FREDERICK",
        "state": "MD",
        "postalCode": "21702-4371"
      },
      {
        "line": [
          "56 WEST FREDERICK ST"
        ],
        "city": "WALKERSVILLE",
        "state": "MD",
        "postalCode": "21793-8254"
      },
      {
        "line": [
          "7407 WLLOW RD"
        ],
        "city": "FREDERICK",
        "state": "MD",
        "postalCode": "21702-2500"
      },
      {
        "line": [
          "1900 ROSEMONT AVENUE"
        ],
        "city": "FREDERICK",
        "state": "MD",
        "postalCode": "21704-8249"
      },
      {
        "line": [
          "3200 BAKER CIR"
        ],
        "city": "ADAMSTOWN",
        "state": "MD",
        "postalCode": "21710-9653"
      },
      {
        "line": [
          "2100 WHITTER DRIVE"
        ],
        "city": "FREDERICK",
        "state": "MD",
        "postalCode": "21702-3150"
      }
    ],
    "extension": [
      {
        "url": "https://fhir.athena.io/StructureDefinition/ah-practice",
        "valueReference": {
          "reference": "Organization/a-1.Practice-24290"
        }
      },
      {
        "url": "https://fhir.athena.io/StructureDefinition/ah-brand",
        "valueReference": {
          "reference": "Organization/a-24290.Brand-1"
        }
      }
    ]
  },
  "fullUrl": "urn:uuid:98697f98-9921-52a7-9f5e-59066df365ca"
}