{
  "resource": {
    "resourceType": "Organization",
    "id": "b24842b6-ad7b-58ef-8e70-5acf2b40c5d1",
    "name": "Bristol Regional Medical Center",
    "endpoint": [
      {
        "reference": "Endpoint/27a4e967-47aa-5a9c-a572-b8297ee268a2"
      },
      {
        "reference": "Endpoint/c2b0529b-fa04-5633-8ae2-3622250e17e5"
      }
    ],
    "identifier": [
      {
        "system": "http://hl7.org/fhir/sid/us-npi",
        "value": "1336175462"
      },
      {
        "system": "http://hl7.org/fhir/sid/us-npi",
        "value": "1326067315"
      },
      {
        "system": "http://hl7.org/fhir/sid/us-npi",
        "value": "1821196148"
      },
      {
        "system": "http://hl7.org/fhir/sid/us-npi",
        "value": "1831495613"
      },
      {
        "system": "http://hl7.org/fhir/sid/us-npi",
        "value": "1366981805"
      },
      {
        "system": "http://hl7.org/fhir/sid/us-npi",
        "value": "1598703043"
      },
      {
        "system": "http://hl7.org/fhir/sid/us-npi",
        "value": "1528128063"
      },
      {
        "system": "http://hl7.org/fhir/sid/us-npi",
        "value": "1669940078"
      },
      {
        "system": "http://hl7.org/fhir/sid/us-npi",
        "value": "1639108822"
      }
    ],
    "address": [
      {
        "line": [
          "260 Midway Medical Park",
          "Ste 100"
        ],
        "city": "BRISTOL",
        "state": "TN",
        "postalCode": "37620-1602"
      },
      {
        "line": [
          "301 VILLAGE CIR"
        ],
        "city": "BRISTOL",
        "state": "VA",
        "postalCode": "24201-8302"
      },
      {
        "line": [
          "16000 JOHNSTON MEMORIAL DR"
        ],
        "city": "ABINGDON",
        "state": "VA",
        "postalCode": "24211-7664"
      },
      {
        "line": [
          "4221 Fort Henry Drive",
          "Suite 1"
        ],
        "city": "KINGSPORT",
        "state": "TN",
        "postalCode": "37663-2256"
      },
      {
        "line": [
          "444 Clinchfield St.",
          "Ste.  303"
        ],
        "city": "KINGSPORT",
        "state": "TN",
        "postalCode": "37660-3864"
      },
      {
        "line": [
          "3 PROFESSIONAL PARK DR STE 21"
        ],
        "city": "JOHNSON CITY",
        "state": "TN",
        "postalCode": "37604-6529"
      },
      {
        "line": [
          "16000 JOHNSTON MEMORIAL DR STE 100"
        ],
        "city": "ABINGDON",
        "state": "VA",
        "postalCode": "24211-7664"
      },
      {
        "line": [
          "1500 W ELK AVE STE 11A"
        ],
        "city": "ELIZABETHTON",
        "state": "TN",
        "postalCode": "37643-2654"
      },
      {
        "line": [
          "1500 W ELK AVE",
          "102"
        ],
        "city": "ELIZABETHTON",
        "state": "TN",
        "postalCode": "37643-2896"
      },
      {
        "line": [
          "16000 JOHNSTON MEMORIAL DR",
          "Suite 100"
        ],
        "city": "ABINGDON",
        "state": "VA",
        "postalCode": "24211-7664"
      },
      {
        "line": [],
        "city": "BRISTOL",
        "state": "TN",
        "postalCode": "37620-7497"
      },
      {
        "line": [],
        "city": "NORTON",
        "state": "VA",
        "postalCode": "24273-0001"
      },
      {
        "line": [
          "1 MEDICAL PARK BLVD"
        ],
        "city": "BRISTOL",
        "state": "TN",
        "postalCode": "37620-7430"
      },
      {
        "line": [
          "3 Professional Park Drive",
          "Ste 21"
        ],
        "city": "JOHNSON CITY",
        "state": "TN",
        "postalCode": "37604-6529"
      },
      {
        "line": [
          "350 BLOUNTVILLE HWY"
        ],
        "city": "BRISTOL",
        "state": "TN",
        "postalCode": "37620-0213"
      },
      {
        "line": [
          "130 W RAVINE RD"
        ],
        "city": "KINGSPORT",
        "state": "TN",
        "postalCode": "37660-3837"
      },
      {
        "line": [
          "350 Blountville Hwy"
        ],
        "city": "BRISTOL",
        "state": "TN",
        "postalCode": "37620-1676"
      },
      {
        "line": [
          "16000 JOHNSTON MEMORIAL DR",
          "SUITE 100"
        ],
        "city": "ABINGDON",
        "state": "VA",
        "postalCode": "24211-7664"
      },
      {
        "line": [
          "1 Medical Park Blvd"
        ],
        "city": "BRISTOL",
        "state": "TN",
        "postalCode": "37620-7430"
      },
      {
        "line": [
          "1 Medcial Park Blvd",
          "Suite 300E"
        ],
        "city": "BRISTOL",
        "state": "TN",
        "postalCode": "37620-7430"
      }
    ],
    "extension": [
      {
        "url": "https://fhir.athena.io/StructureDefinition/ah-practice",
        "valueReference": {
          "reference": "Organization/a-1.Practice-1054"
        }
      },
      {
        "url": "https://fhir.athena.io/StructureDefinition/ah-brand",
        "valueReference": {
          "reference": "Organization/a-1054.Brand-1"
        }
      }
    ]
  },
  "fullUrl": "urn:uuid:b24842b6-ad7b-58ef-8e70-5acf2b40c5d1"
}