{
  "resource": {
    "resourceType": "Organization",
    "id": "3eb310a1-f142-554c-8b47-3673542fa9c5",
    "name": "Catherine's Health Center",
    "endpoint": [
      {
        "reference": "Endpoint/27a4e967-47aa-5a9c-a572-b8297ee268a2"
      },
      {
        "reference": "Endpoint/129a6754-9769-5d98-96ae-a51bc2ccb891"
      }
    ],
    "identifier": [
      {
        "system": "http://hl7.org/fhir/sid/us-npi",
        "value": "1881463958"
      },
      {
        "system": "http://hl7.org/fhir/sid/us-npi",
        "value": "1669074415"
      },
      {
        "system": "http://hl7.org/fhir/sid/us-npi",
        "value": "1811427826"
      },
      {
        "system": "http://hl7.org/fhir/sid/us-npi",
        "value": "1619740305"
      },
      {
        "system": "http://hl7.org/fhir/sid/us-npi",
        "value": "1740098169"
      },
      {
        "system": "http://hl7.org/fhir/sid/us-npi",
        "value": "1861223521"
      },
      {
        "system": "http://hl7.org/fhir/sid/us-npi",
        "value": "1205522760"
      },
      {
        "system": "http://hl7.org/fhir/sid/us-npi",
        "value": "1134872005"
      },
      {
        "system": "http://hl7.org/fhir/sid/us-npi",
        "value": "1417726597"
      },
      {
        "system": "http://hl7.org/fhir/sid/us-npi",
        "value": "1992437826"
      }
    ],
    "address": [
      {
        "line": [
          "1440 Davis Ave NW Room 100"
        ],
        "city": "GRAND RAPIDS",
        "state": "MI",
        "postalCode": "49504-3112"
      },
      {
        "line": [
          "781 36 St SE"
        ],
        "city": "GRAND RAPIDS",
        "state": "MI",
        "postalCode": "49509-3587"
      },
      {
        "line": [
          "129 JEFFERSON AVE SE",
          "RM 1"
        ],
        "city": "GRAND RAPIDS",
        "state": "MI",
        "postalCode": "49503-4324"
      },
      {
        "line": [
          "280 60th St SE",
          "Suite 200"
        ],
        "city": "GRAND RAPIDS",
        "state": "MI",
        "postalCode": "49548-8504"
      },
      {
        "line": [
          "100 60th St SE",
          "Rm E3 Ste A"
        ],
        "city": "GRAND RAPIDS",
        "state": "MI",
        "postalCode": "49548-6804"
      },
      {
        "line": [
          "1920 Godfrey Ave SW"
        ],
        "city": "WYOMING",
        "state": "MI",
        "postalCode": "49509-1415"
      },
      {
        "line": [
          "28 60TH ST SE"
        ],
        "city": "GRAND RAPIDS",
        "state": "MI",
        "postalCode": "49548-6802"
      },
      {
        "line": [
          "280 60th St. SE",
          "Suite 200"
        ],
        "city": "GRAND RAPIDS",
        "state": "MI",
        "postalCode": "49548-8504"
      },
      {
        "line": [
          "781 36TH ST SE STE B"
        ],
        "city": "GRAND RAPIDS",
        "state": "MI",
        "postalCode": "49548-2319"
      },
      {
        "line": [
          "1211 Lafayette Ave NE"
        ],
        "city": "GRAND RAPIDS",
        "state": "MI",
        "postalCode": "49505-5092"
      },
      {
        "line": [
          "800 SCRIBNER AVE NW"
        ],
        "city": "GRAND RAPIDS",
        "state": "MI",
        "postalCode": "49504-4424"
      },
      {
        "line": [
          "1211 LAFAYETTE AVE NE"
        ],
        "city": "GRAND RAPIDS",
        "state": "MI",
        "postalCode": "49505-5092"
      },
      {
        "line": [
          "225 COMMERCE AVE SW"
        ],
        "city": "GRAND RAPIDS",
        "state": "MI",
        "postalCode": "49503-4107"
      },
      {
        "line": [
          "320 STATE ST SE"
        ],
        "city": "GRAND RAPIDS",
        "state": "MI",
        "postalCode": "49503-4313"
      },
      {
        "line": [
          "950 36TH ST SW"
        ],
        "city": "WYOMING",
        "state": "MI",
        "postalCode": "49509-3587"
      },
      {
        "line": [
          "2674 44TH ST SE"
        ],
        "city": "GRAND RAPIDS",
        "state": "MI",
        "postalCode": "49512-3804"
      }
    ],
    "extension": [
      {
        "url": "https://fhir.athena.io/StructureDefinition/ah-practice",
        "valueReference": {
          "reference": "Organization/a-1.Practice-8492"
        }
      },
      {
        "url": "https://fhir.athena.io/StructureDefinition/ah-brand",
        "valueReference": {
          "reference": "Organization/a-8492.Brand-1"
        }
      }
    ]
  },
  "fullUrl": "urn:uuid:3eb310a1-f142-554c-8b47-3673542fa9c5"
}