{
  "resource": {
    "resourceType": "Organization",
    "id": "3767cfc5-e6d5-571d-a5ab-5465b2bc3786",
    "name": "El Paso Orthopedic and Spine Institute",
    "endpoint": [
      {
        "reference": "Endpoint/27a4e967-47aa-5a9c-a572-b8297ee268a2"
      },
      {
        "reference": "Endpoint/469a5725-0f45-54bb-8be0-8649c82d3dfe"
      }
    ],
    "identifier": [
      {
        "system": "http://hl7.org/fhir/sid/us-npi",
        "value": "1295484970"
      }
    ],
    "address": [
      {
        "line": [
          "1801 N OREGON ST"
        ],
        "city": "EL PASO",
        "state": "TX",
        "postalCode": "79902-3524"
      },
      {
        "line": [
          "4815 ALAMEDA AVE"
        ],
        "city": "EL PASO",
        "state": "TX",
        "postalCode": "79905-2705"
      },
      {
        "line": [
          "2001 N OREGON ST"
        ],
        "city": "EL PASO",
        "state": "TX",
        "postalCode": "79902-3320"
      },
      {
        "line": [
          "1416 GEORGE DIETER DR"
        ],
        "city": "EL PASO",
        "state": "TX",
        "postalCode": "79936-7601"
      },
      {
        "line": [
          " 1755 CURIE DR"
        ],
        "city": "EL PASO",
        "state": "TX",
        "postalCode": "79902-2919"
      },
      {
        "line": [
          "3280 JOE BATTLE BLVD"
        ],
        "city": "EL PASO",
        "state": "TX",
        "postalCode": "79938-2622"
      },
      {
        "line": [
          "2000 TRANSMOUNTAIN RD"
        ],
        "city": "EL PASO",
        "state": "TX",
        "postalCode": "79911-3601"
      },
      {
        "line": [
          "1125 Texas Avenue",
          "Suite B-01"
        ],
        "city": "EL PASO",
        "state": "TX",
        "postalCode": "79901-1509"
      },
      {
        "line": [
          "820 E REDD RD",
          "BLDG C"
        ],
        "city": "EL PASO",
        "state": "TX",
        "postalCode": "79912-7275"
      },
      {
        "line": [
          "10301 GATEWAY BLVD WEST"
        ],
        "city": "EL PASO",
        "state": "TX",
        "postalCode": "79925-7701"
      },
      {
        "line": [
          "1625 MEDICAL CENTER DR"
        ],
        "city": "EL PASO",
        "state": "TX",
        "postalCode": "79902-5005"
      },
      {
        "line": [
          "1755 CURIE DR"
        ],
        "city": "EL PASO",
        "state": "TX",
        "postalCode": "79902-2919"
      },
      {
        "line": [
          "1801 N Oregon st"
        ],
        "city": "EL PASO",
        "state": "TX",
        "postalCode": "79902-3524"
      },
      {
        "line": [
          "1125 TEXAS AVE UNIT 502"
        ],
        "city": "EL PASO",
        "state": "TX",
        "postalCode": "79901-1509"
      },
      {
        "line": [
          "1125 Texas Avenue, Suite B-01"
        ],
        "city": "EL PASO",
        "state": "TX",
        "postalCode": "79901-1509"
      },
      {
        "line": [
          "1125 TEXAS AVE STE B01"
        ],
        "city": "EL PASO",
        "state": "TX",
        "postalCode": "79901-1754"
      }
    ],
    "extension": [
      {
        "url": "https://fhir.athena.io/StructureDefinition/ah-practice",
        "valueReference": {
          "reference": "Organization/a-1.Practice-26252"
        }
      },
      {
        "url": "https://fhir.athena.io/StructureDefinition/ah-brand",
        "valueReference": {
          "reference": "Organization/a-26252.Brand-1"
        }
      }
    ]
  },
  "fullUrl": "urn:uuid:3767cfc5-e6d5-571d-a5ab-5465b2bc3786"
}