{
  "resource": {
    "resourceType": "Organization",
    "id": "148af78d-5ed6-5246-baad-3ec596eb53b7",
    "name": "A Loving Care - Durand Ave Group Home",
    "endpoint": [
      {
        "reference": "Endpoint/27a4e967-47aa-5a9c-a572-b8297ee268a2"
      },
      {
        "reference": "Endpoint/949ff13d-e6e9-5104-abab-03a37f57a0d0"
      }
    ],
    "identifier": [
      {
        "system": "http://hl7.org/fhir/sid/us-npi",
        "value": "1427049279"
      }
    ],
    "address": [
      {
        "line": [
          "7400 W GREENFIELD AVE"
        ],
        "city": "WEST ALLIS",
        "state": "WI",
        "postalCode": "53214-5706"
      },
      {
        "line": [
          "6795 S 51ST ST"
        ],
        "city": "FRANKLIN",
        "state": "WI",
        "postalCode": "53132-9402"
      },
      {
        "line": [
          "1001 S PINE ST"
        ],
        "city": "BURLINGTON",
        "state": "WI",
        "postalCode": "53105-2327"
      },
      {
        "line": [
          "1840 N PROSPECT AVENUE"
        ],
        "city": "MILWAUKEE",
        "state": "WI",
        "postalCode": "53202-1975"
      },
      {
        "line": [
          "17560 W NORTH AVENUE"
        ],
        "city": "BROOKFIELD",
        "state": "WI",
        "postalCode": "53045-4361"
      },
      {
        "line": [
          "4865 S 95TH ST"
        ],
        "city": "MILWAUKEE",
        "state": "WI",
        "postalCode": "53228-3306"
      },
      {
        "line": [
          "4100 S HOWELL AVENUE"
        ],
        "city": "MILWAUKEE",
        "state": "WI",
        "postalCode": "53207-4100"
      },
      {
        "line": [
          "470 SCARLET HAWTHORNE CT"
        ],
        "city": "BROOKFIELD",
        "state": "WI",
        "postalCode": "53045-3522"
      },
      {
        "line": [
          "10520 W ROBINWOOD LN"
        ],
        "city": "FRANKLIN",
        "state": "WI",
        "postalCode": "53132-2229"
      },
      {
        "line": [
          "8035 S CECILY DR"
        ],
        "city": "OAK CREEK",
        "state": "WI",
        "postalCode": "53154-3097"
      },
      {
        "line": [
          "5635 ERIE STREET"
        ],
        "city": "RACINE",
        "state": "WI",
        "postalCode": "53402-1934"
      },
      {
        "line": [
          "9501 W LOOMIS ROAD"
        ],
        "city": "FRANKLIN",
        "state": "WI",
        "postalCode": "53132-9611"
      },
      {
        "line": [
          "100 W RIVER WOODS PKWY"
        ],
        "city": "MILWAUKEE",
        "state": "WI",
        "postalCode": "53212-1002"
      },
      {
        "line": [
          "W182S8320 PIONEER DRIVE"
        ],
        "city": "MUSKEGO",
        "state": "WI",
        "postalCode": "53150-8185"
      },
      {
        "line": [
          "3673 S 60TH ST"
        ],
        "city": "MILWAUKEE",
        "state": "WI",
        "postalCode": "53220-1303"
      },
      {
        "line": [
          "1415 SUPERIOR STREET"
        ],
        "city": "RACINE",
        "state": "WI",
        "postalCode": "53402-5045"
      },
      {
        "line": [
          "3050 S WAUKESHA RD"
        ],
        "city": "WEST ALLIS",
        "state": "WI",
        "postalCode": "53227-2818"
      },
      {
        "line": [
          "1515 HWY 175"
        ],
        "city": "HUBERTUS",
        "state": "WI",
        "postalCode": "53033-9644"
      },
      {
        "line": [
          "5883 RIVERSIDE DR"
        ],
        "city": "GREENDALE",
        "state": "WI",
        "postalCode": "53129-2817"
      },
      {
        "line": [
          "3920 N GREEN BAY ROAD"
        ],
        "city": "RACINE",
        "state": "WI",
        "postalCode": "53404-1416"
      },
      {
        "line": [
          "1125 S 118TH ST"
        ],
        "city": "MILWAUKEE",
        "state": "WI",
        "postalCode": "53214-2130"
      },
      {
        "line": [
          "3171 S 100TH ST"
        ],
        "city": "GREENFIELD",
        "state": "WI",
        "postalCode": "53227-4230"
      },
      {
        "line": [
          "2577 S 118TH ST"
        ],
        "city": "WEST ALLIS",
        "state": "WI",
        "postalCode": "53227-1809"
      },
      {
        "line": [
          "7060 N 124TH ST"
        ],
        "city": "MILWAUKEE",
        "state": "WI",
        "postalCode": "53224-4206"
      },
      {
        "line": [
          "1840 N PROSPECT AVE"
        ],
        "city": "MILWAUKEE",
        "state": "WI",
        "postalCode": "53202-1975"
      },
      {
        "line": [
          "1435 DOUGLAS AVENUE"
        ],
        "city": "RACINE",
        "state": "WI",
        "postalCode": "53404-2717"
      },
      {
        "line": [
          "7001 W TRIPOLI AVE"
        ],
        "city": "MILWAUKEE",
        "state": "WI",
        "postalCode": "53220-1846"
      },
      {
        "line": [
          "10320 S HUMMINGBIRD LN"
        ],
        "city": "OAK CREEK",
        "state": "WI",
        "postalCode": "53154-6332"
      },
      {
        "line": [
          "9525 W BURLEIGH ST"
        ],
        "city": "MILWAUKEE",
        "state": "WI",
        "postalCode": "53222-3563"
      },
      {
        "line": [
          "4340 S 116TH ST"
        ],
        "city": "MILWAUKEE",
        "state": "WI",
        "postalCode": "53228-2573"
      },
      {
        "line": [
          "11800 W EDGERTON AVE"
        ],
        "city": "GREENFIELD",
        "state": "WI",
        "postalCode": "53228-3034"
      },
      {
        "line": [
          "6644 N 58TH ST"
        ],
        "city": "MILWAUKEE",
        "state": "WI",
        "postalCode": "53223-5934"
      },
      {
        "line": [
          "8781 W TRAVIS CT"
        ],
        "city": "FRANKLIN",
        "state": "WI",
        "postalCode": "53132-8554"
      },
      {
        "line": [
          "5128 W MIDLAND DR"
        ],
        "city": "GREENFIELD",
        "state": "WI",
        "postalCode": "53220-1537"
      },
      {
        "line": [
          "5415 ADAM ROAD"
        ],
        "city": "KENOSHA",
        "state": "WI",
        "postalCode": "53144-4300"
      },
      {
        "line": [
          "8454 RAVENSWOOD CIR"
        ],
        "city": "WAUWATOSA",
        "state": "WI",
        "postalCode": "53226-4654"
      },
      {
        "line": [
          "1820 WESTMOOR TER"
        ],
        "city": "ELM GROVE",
        "state": "WI",
        "postalCode": "53122-1061"
      },
      {
        "line": [
          "10626 W BECHER ST"
        ],
        "city": "WEST ALLIS",
        "state": "WI",
        "postalCode": "53227-1238"
      },
      {
        "line": [
          "1217 S 118TH ST"
        ],
        "city": "MILWAUKEE",
        "state": "WI",
        "postalCode": "53214-2132"
      },
      {
        "line": [
          "1326 W WILLOW DR"
        ],
        "city": "OAK CREEK",
        "state": "WI",
        "postalCode": "53154-2336"
      },
      {
        "line": [
          "8541 S CHICAGO ROAD"
        ],
        "city": "OAK CREEK",
        "state": "WI",
        "postalCode": "53154-8039"
      },
      {
        "line": [
          "1319 S 117TH STREET"
        ],
        "city": "MILWAUKEE",
        "state": "WI",
        "postalCode": "53214-2128"
      },
      {
        "line": [
          "VACATION"
        ],
        "city": "MILWAUKEE",
        "state": "WI",
        "postalCode": "53207-4100"
      },
      {
        "line": [
          "3749 S 80TH STREET"
        ],
        "city": "MILWAUKEE",
        "state": "WI",
        "postalCode": "53220-1625"
      },
      {
        "line": [
          "6439 DURAND AVE"
        ],
        "city": "RACINE",
        "state": "WI",
        "postalCode": "53406-4934"
      },
      {
        "line": [
          "3933 S PRAIRIE HILL LANE"
        ],
        "city": "GREENFIELD",
        "state": "WI",
        "postalCode": "53228-2371"
      },
      {
        "line": [
          "3405 W SYCAMORE ST"
        ],
        "city": "FRANKLIN",
        "state": "WI",
        "postalCode": "53132-8370"
      },
      {
        "line": [
          "4013 S 119TH ST"
        ],
        "city": "GREENFIELD",
        "state": "WI",
        "postalCode": "53228-1815"
      },
      {
        "line": [
          "2416 S 60TH ST"
        ],
        "city": "MILWAUKEE",
        "state": "WI",
        "postalCode": "53219-2130"
      },
      {
        "line": [
          "1419 SUPERIOR ST"
        ],
        "city": "RACINE",
        "state": "WI",
        "postalCode": "53402-5045"
      },
      {
        "line": [
          "3750 E HAMMOND AVE"
        ],
        "city": "CUDAHY",
        "state": "WI",
        "postalCode": "53110-1942"
      },
      {
        "line": [
          "9201 WEST DREXEL AVENUE"
        ],
        "city": "FRANKLIN",
        "state": "WI",
        "postalCode": "53132-9638"
      },
      {
        "line": [
          "7917 N RIVER VIEW COURT"
        ],
        "city": "MILWAUKEE",
        "state": "WI",
        "postalCode": "53224-3346"
      },
      {
        "line": [
          "6109 BRAUN ROAD"
        ],
        "city": "MOUNT PLEASANT",
        "state": "WI",
        "postalCode": "53403-9409"
      },
      {
        "line": [
          "7925 N RIVER VIEW COURT"
        ],
        "city": "MILWAUKEE",
        "state": "WI",
        "postalCode": "53224-3346"
      },
      {
        "line": [
          "3333 S 90TH ST"
        ],
        "city": "MILWAUKEE",
        "state": "WI",
        "postalCode": "53227-4403"
      },
      {
        "line": [
          "10521 W GREENFIELD AVE"
        ],
        "city": "MILWAUKEE",
        "state": "WI",
        "postalCode": "53214-2421"
      },
      {
        "line": [
          "7070 N 124TH ST"
        ],
        "city": "MILWAUKEE",
        "state": "WI",
        "postalCode": "53224-4206"
      },
      {
        "line": [
          "5200 WASHINGTON AVE"
        ],
        "city": "RACINE",
        "state": "WI",
        "postalCode": "53406-4238"
      },
      {
        "line": [
          "5321 DOUGLAS AVENUE"
        ],
        "city": "RACINE",
        "state": "WI",
        "postalCode": "53402-4000"
      },
      {
        "line": [
          "5910 S 118TH ST"
        ],
        "city": "HALES CORNERS",
        "state": "WI",
        "postalCode": "53130-2412"
      },
      {
        "line": [],
        "city": "MILWAUKEE",
        "state": "WI",
        "postalCode": "53207-4410"
      },
      {
        "line": [
          "3193 S 77TH ST"
        ],
        "city": "MILWAUKEE",
        "state": "WI",
        "postalCode": "53219-3708"
      },
      {
        "line": [
          "2524 W RAMSEY AVENUE"
        ],
        "city": "MILWAUKEE",
        "state": "WI",
        "postalCode": "53221-4910"
      },
      {
        "line": [
          "2371 S 96TH STREET"
        ],
        "city": "WEST ALLIS",
        "state": "WI",
        "postalCode": "53227-2201"
      },
      {
        "line": [
          "2633 S 68TH ST"
        ],
        "city": "MILWAUKEE",
        "state": "WI",
        "postalCode": "53219-2617"
      },
      {
        "line": [
          "4100 SOUTH HOWELL"
        ],
        "city": "MILWAUKEE",
        "state": "WI",
        "postalCode": "53207-4100"
      },
      {
        "line": [
          "1665 S 64TH ST"
        ],
        "city": "MILWAUKEE",
        "state": "WI",
        "postalCode": "53214-4904"
      },
      {
        "line": [
          "3995 S 92ND STREET"
        ],
        "city": "GREENFIELD",
        "state": "WI",
        "postalCode": "53228-2100"
      },
      {
        "line": [
          "3035 W KIMBERLY AVE"
        ],
        "city": "MILWAUKEE",
        "state": "WI",
        "postalCode": "53221-5659"
      },
      {
        "line": [
          "9621 WEST LAYTON AVENUE"
        ],
        "city": "GREENFIELD",
        "state": "WI",
        "postalCode": "53228-3339"
      },
      {
        "line": [
          "7906 N GRANVILLE ROAD"
        ],
        "city": "MILWAUKEE",
        "state": "WI",
        "postalCode": "53224-3320"
      },
      {
        "line": [
          "5415 ADAMS RD"
        ],
        "city": "KENOSHA",
        "state": "WI",
        "postalCode": "53144-4300"
      },
      {
        "line": [
          "2719 MARYLAND AVENUE"
        ],
        "city": "RACINE",
        "state": "WI",
        "postalCode": "53403-3743"
      }
    ],
    "extension": [
      {
        "url": "https://fhir.athena.io/StructureDefinition/ah-practice",
        "valueReference": {
          "reference": "Organization/a-1.Practice-6854"
        }
      },
      {
        "url": "https://fhir.athena.io/StructureDefinition/ah-brand",
        "valueReference": {
          "reference": "Organization/a-6854.Brand-1"
        }
      }
    ]
  },
  "fullUrl": "urn:uuid:148af78d-5ed6-5246-baad-3ec596eb53b7"
}