{
  "resource": {
    "resourceType": "Organization",
    "id": "f9deac8f-b344-54d7-84e9-8cb2a63ded7c",
    "name": "MAO",
    "endpoint": [
      {
        "reference": "Endpoint/27a4e967-47aa-5a9c-a572-b8297ee268a2"
      },
      {
        "reference": "Endpoint/985ad014-bc67-5f95-b7be-e7f3f3926ef4"
      }
    ],
    "identifier": [
      {
        "system": "http://hl7.org/fhir/sid/us-npi",
        "value": "1659516029"
      }
    ],
    "address": [
      {
        "line": [
          "2610 N WOODLAWN BLVD"
        ],
        "city": "WICHITA",
        "state": "KS",
        "postalCode": "67220-2729"
      },
      {
        "line": [
          "4940 W 137TH ST"
        ],
        "city": "OVERLAND PARK",
        "state": "KS",
        "postalCode": "66224-5940"
      },
      {
        "line": [
          "1124 W 21ST ST"
        ],
        "city": "ANDOVER",
        "state": "KS",
        "postalCode": "67002-5500"
      },
      {
        "line": [
          "2770 N WEBB RD"
        ],
        "city": "WICHITA",
        "state": "KS",
        "postalCode": "67226-8112"
      },
      {
        "line": [
          "3251 N ROCK RD"
        ],
        "city": "DERBY",
        "state": "KS",
        "postalCode": "67037-3850"
      },
      {
        "line": [
          "3333 N WEBB RD"
        ],
        "city": "WICHITA",
        "state": "KS",
        "postalCode": "67226-8123"
      },
      {
        "line": [
          "8714 W 13TH ST N"
        ],
        "city": "WICHITA",
        "state": "KS",
        "postalCode": "67212-6221"
      },
      {
        "line": [
          "600 MEDICAL CENTER DR"
        ],
        "city": "NEWTON",
        "state": "KS",
        "postalCode": "67114-8780"
      },
      {
        "line": [
          "3600 E HARRY ST"
        ],
        "city": "WICHITA",
        "state": "KS",
        "postalCode": "67218-3713"
      },
      {
        "line": [
          "929 N SAINT FRANCIS AVE"
        ],
        "city": "WICHITA",
        "state": "KS",
        "postalCode": "67214-3821"
      },
      {
        "line": [
          "550 N HILLSIDE ST"
        ],
        "city": "WICHITA",
        "state": "KS",
        "postalCode": "67214-4910"
      },
      {
        "line": [
          "9220 E 29th St N Ste 209"
        ],
        "city": "WICHITA",
        "state": "KS",
        "postalCode": "67226-3007"
      },
      {
        "line": [
          "720 W CENTRAL AVE"
        ],
        "city": "EL DORADO",
        "state": "KS",
        "postalCode": "67042-2112"
      },
      {
        "line": [
          "14800 W SAINT TERESA ST"
        ],
        "city": "WICHITA",
        "state": "KS",
        "postalCode": "67235-9602"
      },
      {
        "line": [
          "1857 N WEBB RD"
        ],
        "city": "WICHITA",
        "state": "KS",
        "postalCode": "67206-3413"
      },
      {
        "line": [
          "12634 OLIVE BLVD"
        ],
        "city": "SAINT LOUIS",
        "state": "MO",
        "postalCode": "63141-6337"
      },
      {
        "line": [
          "1125 W. 21st. St"
        ],
        "city": "ANDOVER",
        "state": "KS",
        "postalCode": "67002-5500"
      },
      {
        "line": [
          "2818 N GREENWICH RD"
        ],
        "city": "WICHITA",
        "state": "KS",
        "postalCode": "67226-8210"
      },
      {
        "line": [
          "1923 N WEBB RD"
        ],
        "city": "WICHITA",
        "state": "KS",
        "postalCode": "67206-3405"
      },
      {
        "line": [
          "1125 W 21st St"
        ],
        "city": "ANDOVER",
        "state": "KS",
        "postalCode": "67002-5500"
      },
      {
        "line": [
          "1124 W 21ST ST STE 102"
        ],
        "city": "ANDOVER",
        "state": "KS",
        "postalCode": "67002-5500"
      }
    ],
    "extension": [
      {
        "url": "https://fhir.athena.io/StructureDefinition/ah-practice",
        "valueReference": {
          "reference": "Organization/a-1.Practice-26355"
        }
      },
      {
        "url": "https://fhir.athena.io/StructureDefinition/ah-brand",
        "valueReference": {
          "reference": "Organization/a-26355.Brand-1"
        }
      }
    ]
  },
  "fullUrl": "urn:uuid:f9deac8f-b344-54d7-84e9-8cb2a63ded7c"
}