{
  "resource": {
    "resourceType": "Organization",
    "id": "c74ad3a6-0542-5691-bfc7-8d93afe2814c",
    "name": "Essentia Health Mid Dakota",
    "endpoint": [
      {
        "reference": "Endpoint/27a4e967-47aa-5a9c-a572-b8297ee268a2"
      },
      {
        "reference": "Endpoint/eb1db4f6-d159-508d-947c-4b5fdacd3057"
      }
    ],
    "identifier": [
      {
        "system": "http://hl7.org/fhir/sid/us-npi",
        "value": "1053039032"
      },
      {
        "system": "http://hl7.org/fhir/sid/us-npi",
        "value": "1770201766"
      },
      {
        "system": "http://hl7.org/fhir/sid/us-npi",
        "value": "1578281291"
      },
      {
        "system": "http://hl7.org/fhir/sid/us-npi",
        "value": "1447978358"
      },
      {
        "system": "http://hl7.org/fhir/sid/us-npi",
        "value": "1275587826"
      }
    ],
    "address": [
      {
        "line": [
          "1021 N 21 St"
        ],
        "city": "BISMARCK",
        "state": "ND",
        "postalCode": "58501-3109"
      },
      {
        "line": [
          "401 N 9th St"
        ],
        "city": "BISMARCK",
        "state": "ND",
        "postalCode": "58501-4530"
      },
      {
        "line": [
          "900 E Broadway Ave."
        ],
        "city": "BISMARCK",
        "state": "ND",
        "postalCode": "58501-4507"
      },
      {
        "line": [
          "3400 Nebraska Drive"
        ],
        "city": "BISMARCK",
        "state": "ND",
        "postalCode": "58503-1649"
      },
      {
        "line": [
          "727 Kirkwood Mall"
        ],
        "city": "BISMARCK",
        "state": "ND",
        "postalCode": "58504-5753"
      },
      {
        "line": [
          "301 Lorainn Dr"
        ],
        "city": "BISMARCK",
        "state": "ND",
        "postalCode": "58503-0311"
      },
      {
        "line": [
          "201 14 St NW"
        ],
        "city": "MANDAN",
        "state": "ND",
        "postalCode": "58554-2063"
      },
      {
        "line": [
          "1000 W Century Ave"
        ],
        "city": "BISMARCK",
        "state": "ND",
        "postalCode": "58503-0913"
      },
      {
        "line": [
          "1011 Boundary St NW"
        ],
        "city": "MANDAN",
        "state": "ND",
        "postalCode": "58554-1608"
      },
      {
        "line": [
          "1401 10th Ave W"
        ],
        "city": "MOBRIDGE",
        "state": "SD",
        "postalCode": "57601-1106"
      },
      {
        "line": [
          "4916 N WASHINGTON ST"
        ],
        "city": "BISMARCK",
        "state": "ND",
        "postalCode": "58503-0559"
      },
      {
        "line": [
          "2500 Valleyview Ave"
        ],
        "city": "BISMARCK",
        "state": "ND",
        "postalCode": "58501-3090"
      },
      {
        "line": [
          "3330 Nebraska Drive"
        ],
        "city": "BISMARCK",
        "state": "ND",
        "postalCode": "58503-1663"
      },
      {
        "line": [
          "2425 Hillview Ave"
        ],
        "city": "BISMARCK",
        "state": "ND",
        "postalCode": "58501-3056"
      },
      {
        "line": [
          "310 N 9th St"
        ],
        "city": "BISMARCK",
        "state": "ND",
        "postalCode": "58501-4515"
      },
      {
        "line": [
          "1312 Hwy 49 N"
        ],
        "city": "BEULAH",
        "state": "ND",
        "postalCode": "58523-6038"
      },
      {
        "line": [
          "4580 Coleman St"
        ],
        "city": "BISMARCK",
        "state": "ND",
        "postalCode": "58503-0347"
      }
    ],
    "extension": [
      {
        "url": "https://fhir.athena.io/StructureDefinition/ah-practice",
        "valueReference": {
          "reference": "Organization/a-1.Practice-5836"
        }
      },
      {
        "url": "https://fhir.athena.io/StructureDefinition/ah-brand",
        "valueReference": {
          "reference": "Organization/a-5836.Brand-3"
        }
      }
    ]
  },
  "fullUrl": "urn:uuid:c74ad3a6-0542-5691-bfc7-8d93afe2814c"
}