{
  "resource": {
    "resourceType": "Organization",
    "id": "f91c9b39-0876-5b96-ad96-7e9e58b1454d",
    "name": "Greater Providence YMCA",
    "endpoint": [
      {
        "reference": "Endpoint/27a4e967-47aa-5a9c-a572-b8297ee268a2"
      },
      {
        "reference": "Endpoint/abb5f7d5-468e-5806-be46-fb2282afef02"
      }
    ],
    "identifier": [
      {
        "system": "http://hl7.org/fhir/sid/us-npi",
        "value": "1770030959"
      }
    ],
    "address": [
      {
        "line": [
          "472 Taunton Ave"
        ],
        "city": "SEEKONK",
        "state": "MA",
        "postalCode": "02771-3126"
      },
      {
        "line": [
          "792 Valley Rd"
        ],
        "city": "MIDDLETOWN",
        "state": "RI",
        "postalCode": "02842-7011"
      },
      {
        "line": [
          "165 Broad Rock Rd"
        ],
        "city": "PEACE DALE",
        "state": "RI",
        "postalCode": "02883-0393"
      },
      {
        "line": [
          "640 Broad Street"
        ],
        "city": "PROVIDENCE",
        "state": "RI",
        "postalCode": "02907-1463"
      },
      {
        "line": [
          "438 Hope St"
        ],
        "city": "PROVIDENCE",
        "state": "RI",
        "postalCode": "02906-1696"
      },
      {
        "line": [
          "44 Beach Street"
        ],
        "city": "NORTH KINGSTOWN",
        "state": "RI",
        "postalCode": "02852-5745"
      },
      {
        "line": [
          "1 River St."
        ],
        "city": "WAKEFIELD",
        "state": "RI",
        "postalCode": "02879-3214"
      },
      {
        "line": [
          "619 Camp Fuller Rd"
        ],
        "city": "WAKEFIELD",
        "state": "RI",
        "postalCode": "02879-4517"
      },
      {
        "line": [
          "186 Providence St."
        ],
        "city": "WEST WARWICK",
        "state": "RI",
        "postalCode": "02893-2508"
      },
      {
        "line": [
          "600 New London Ave."
        ],
        "city": "CRANSTON",
        "state": "RI",
        "postalCode": "02910-3024"
      },
      {
        "line": [
          "7540 Post Rd"
        ],
        "city": "NORTH KINGSTOWN",
        "state": "RI",
        "postalCode": "02852-3901"
      },
      {
        "line": [
          "250 Circuit Dr."
        ],
        "city": "NORTH KINGSTOWN",
        "state": "RI",
        "postalCode": "02852-7441"
      },
      {
        "line": [
          "45 Upper College Rd"
        ],
        "city": "KINGSTON",
        "state": "RI",
        "postalCode": "02881-2003"
      },
      {
        "line": [
          "371 Pine Street"
        ],
        "city": "PROVIDENCE",
        "state": "RI",
        "postalCode": "02903-4220"
      },
      {
        "line": [
          "1160 Cranston St."
        ],
        "city": "CRANSTON",
        "state": "RI",
        "postalCode": "02920-7335"
      },
      {
        "line": [
          "1225 Park Ave"
        ],
        "city": "CRANSTON",
        "state": "RI",
        "postalCode": "02910-3017"
      },
      {
        "line": [
          "70 West St"
        ],
        "city": "BARRINGTON",
        "state": "RI",
        "postalCode": "02806-3508"
      },
      {
        "line": [
          "One Capitol Hill"
        ],
        "city": "PROVIDENCE",
        "state": "RI",
        "postalCode": "02908-5816"
      },
      {
        "line": [
          "446 Main St."
        ],
        "city": "WARREN",
        "state": "RI",
        "postalCode": "02885-4370"
      },
      {
        "line": [
          "900 Centerville rd"
        ],
        "city": "WARWICK",
        "state": "RI",
        "postalCode": "02886-4372"
      }
    ],
    "extension": [
      {
        "url": "https://fhir.athena.io/StructureDefinition/ah-practice",
        "valueReference": {
          "reference": "Organization/a-1.Practice-14268"
        }
      },
      {
        "url": "https://fhir.athena.io/StructureDefinition/ah-brand",
        "valueReference": {
          "reference": "Organization/a-14268.Brand-1"
        }
      }
    ]
  },
  "fullUrl": "urn:uuid:f91c9b39-0876-5b96-ad96-7e9e58b1454d"
}