{
  "resource": {
    "resourceType": "Organization",
    "id": "ade881c9-1392-556c-b9b2-f9ea7b0b082f",
    "name": "Mountain Spring Podiatry",
    "endpoint": [
      {
        "reference": "Endpoint/27a4e967-47aa-5a9c-a572-b8297ee268a2"
      },
      {
        "reference": "Endpoint/07f96d0b-cae5-5954-a911-840a8eb85b57"
      }
    ],
    "identifier": [
      {
        "system": "http://hl7.org/fhir/sid/us-npi",
        "value": "1639770621"
      }
    ],
    "address": [
      {
        "line": [
          "9000 FRANKLIN SQUARE DR"
        ],
        "city": "ROSEDALE",
        "state": "MD",
        "postalCode": "21237-3901"
      },
      {
        "line": [
          "6512 WOODLAKE VILLAGE CIR"
        ],
        "city": "MIDLOTHIAN",
        "state": "VA",
        "postalCode": "23112-2200"
      },
      {
        "line": [
          "844 BATTLEFIELD BLVD N"
        ],
        "city": "CHESAPEAKE",
        "state": "VA",
        "postalCode": "23320-4802"
      },
      {
        "line": [
          "8100 Sandpiper Circle",
          "Suite 104"
        ],
        "city": "NOTTINGHAM",
        "state": "MD",
        "postalCode": "21236-4991"
      },
      {
        "line": [
          "541 SUNSET LN STE 201"
        ],
        "city": "CULPEPER",
        "state": "VA",
        "postalCode": "22701-3979"
      },
      {
        "line": [
          "601 OLD WAGNER RD"
        ],
        "city": "PETERSBURG",
        "state": "VA",
        "postalCode": "23805-9313"
      },
      {
        "line": [
          "9161 LIBERIA AVE",
          "STE 400A"
        ],
        "city": "MANASSAS",
        "state": "VA",
        "postalCode": "20110-1727"
      },
      {
        "line": [
          "2002 Orange Rd",
          "Suite 105"
        ],
        "city": "CULPEPER",
        "state": "VA",
        "postalCode": "22701-0072"
      },
      {
        "line": [
          "209 THOMAS ST"
        ],
        "city": "BEL AIR",
        "state": "MD",
        "postalCode": "21014-3649"
      },
      {
        "line": [
          "15100 WASHINGTON ST",
          "Suite 203"
        ],
        "city": "HAYMARKET",
        "state": "VA",
        "postalCode": "20169-4918"
      },
      {
        "line": [
          "44336 Premier PLZ",
          "Ste 130"
        ],
        "city": "ASHBURN",
        "state": "VA",
        "postalCode": "20147-7128"
      },
      {
        "line": [
          "500 UPPER CHESAPEAKE DR"
        ],
        "city": "BEL AIR",
        "state": "MD",
        "postalCode": "21014-4324"
      },
      {
        "line": [
          "2012 S TOLLGATE RD STE 100-102"
        ],
        "city": "BEL AIR",
        "state": "MD",
        "postalCode": "21015-5900"
      },
      {
        "line": [
          "215 SOUTHRIDGE PKWY"
        ],
        "city": "CULPEPER",
        "state": "VA",
        "postalCode": "22701-3762"
      },
      {
        "line": [
          "499 MEADOWBROOK SHOPPING CTR"
        ],
        "city": "CULPEPER",
        "state": "VA",
        "postalCode": "22701-3980"
      },
      {
        "line": [
          "15261 JUBILEE RD"
        ],
        "city": "CULPEPER",
        "state": "VA",
        "postalCode": "22701-4501"
      },
      {
        "line": [
          "5589 GREENWICH RD STE 101",
          "STE 101"
        ],
        "city": "VIRGINIA BEACH",
        "state": "VA",
        "postalCode": "23462-6565"
      },
      {
        "line": [
          "8700 SUDLEY RD"
        ],
        "city": "MANASSAS",
        "state": "VA",
        "postalCode": "20110-4418"
      },
      {
        "line": [
          "21394 MOUNT STERLING TER"
        ],
        "city": "STERLING",
        "state": "VA",
        "postalCode": "20164-9357"
      },
      {
        "line": [
          "900 CATON AVE"
        ],
        "city": "BALTIMORE",
        "state": "MD",
        "postalCode": "21229-5201"
      }
    ],
    "extension": [
      {
        "url": "https://fhir.athena.io/StructureDefinition/ah-practice",
        "valueReference": {
          "reference": "Organization/a-1.Practice-23046"
        }
      },
      {
        "url": "https://fhir.athena.io/StructureDefinition/ah-brand",
        "valueReference": {
          "reference": "Organization/a-23046.Brand-1"
        }
      }
    ]
  },
  "fullUrl": "urn:uuid:ade881c9-1392-556c-b9b2-f9ea7b0b082f"
}