{
  "resource": {
    "resourceType": "Organization",
    "id": "363c1bde-a65e-5422-bc72-747eceee83a7",
    "name": "Upperline Health Orange County",
    "endpoint": [
      {
        "reference": "Endpoint/27a4e967-47aa-5a9c-a572-b8297ee268a2"
      },
      {
        "reference": "Endpoint/b1f27fd8-71ee-56b9-a0bd-40becf15a37e"
      }
    ],
    "identifier": [
      {
        "system": "http://hl7.org/fhir/sid/us-npi",
        "value": "1225663826"
      }
    ],
    "address": [
      {
        "line": [
          "10921 CHERRY ST STE 100"
        ],
        "city": "LOS ALAMITOS",
        "state": "CA",
        "postalCode": "90720-2473"
      },
      {
        "line": [
          "1100 W STEWART DR"
        ],
        "city": "ORANGE",
        "state": "CA",
        "postalCode": "92868-3849"
      },
      {
        "line": [
          "3751 KATELLA AVE"
        ],
        "city": "LOS ALAMITOS",
        "state": "CA",
        "postalCode": "90720-3113"
      },
      {
        "line": [
          "3771 KATELLA AVE",
          "STE 108"
        ],
        "city": "LOS ALAMITOS",
        "state": "CA",
        "postalCode": "90720-3111"
      },
      {
        "line": [
          "9920 TALBERT AVE"
        ],
        "city": "FOUNTAIN VALLEY",
        "state": "CA",
        "postalCode": "92708-5153"
      },
      {
        "line": [
          "2701 S BRISTOL ST"
        ],
        "city": "SANTA ANA",
        "state": "CA",
        "postalCode": "92704-6201"
      },
      {
        "line": [
          "17100 EUCLID ST"
        ],
        "city": "FOUNTAIN VALLEY",
        "state": "CA",
        "postalCode": "92708-4004"
      },
      {
        "line": [
          "681 South Parker Street",
          "Suite 150"
        ],
        "city": "ORANGE",
        "state": "CA",
        "postalCode": "92868-4761"
      },
      {
        "line": [
          "604 S. Harbor Blvd"
        ],
        "city": "SANTA ANA",
        "state": "CA",
        "postalCode": "92704-1340"
      },
      {
        "line": [
          "1111 W LA PALMA AVE"
        ],
        "city": "ANAHEIM",
        "state": "CA",
        "postalCode": "92801-2804"
      },
      {
        "line": [
          "15825 LAGUNA CANYON RD STE 200"
        ],
        "city": "IRVINE",
        "state": "CA",
        "postalCode": "92618-2127"
      },
      {
        "line": [
          "1140 West La Veta Ave"
        ],
        "city": "ORANGE",
        "state": "CA",
        "postalCode": "92868-4226"
      }
    ],
    "extension": [
      {
        "url": "https://fhir.athena.io/StructureDefinition/ah-practice",
        "valueReference": {
          "reference": "Organization/a-1.Practice-4399"
        }
      },
      {
        "url": "https://fhir.athena.io/StructureDefinition/ah-brand",
        "valueReference": {
          "reference": "Organization/a-4399.Brand-23"
        }
      }
    ]
  },
  "fullUrl": "urn:uuid:363c1bde-a65e-5422-bc72-747eceee83a7"
}