{
  "resource": {
    "resourceType": "Organization",
    "id": "a1522940-4576-50d6-aede-ff3b07e320c7",
    "name": "Tampa Metropolitan Area YMCA",
    "endpoint": [
      {
        "reference": "Endpoint/27a4e967-47aa-5a9c-a572-b8297ee268a2"
      },
      {
        "reference": "Endpoint/abb5f7d5-468e-5806-be46-fb2282afef02"
      }
    ],
    "identifier": [
      {
        "system": "http://hl7.org/fhir/sid/us-npi",
        "value": "1710434121"
      }
    ],
    "address": [
      {
        "line": [
          "7910 N. 30th St."
        ],
        "city": "TAMPA",
        "state": "FL",
        "postalCode": "33610-1122"
      },
      {
        "line": [
          "38035 Meridian Ave"
        ],
        "city": "DADE CITY",
        "state": "FL",
        "postalCode": "33525-3813"
      },
      {
        "line": [
          "9650 Old Big Bend Rd."
        ],
        "city": "RIVERVIEW",
        "state": "FL",
        "postalCode": "33578-7506"
      },
      {
        "line": [
          "16221 Compton Dr"
        ],
        "city": "TAMPA",
        "state": "FL",
        "postalCode": "33647-1547"
      },
      {
        "line": [
          "4015 Ragg Rd."
        ],
        "city": "TAMPA",
        "state": "FL",
        "postalCode": "33624-1334"
      },
      {
        "line": [
          "110 E Palm Ave"
        ],
        "city": "TAMPA",
        "state": "FL",
        "postalCode": "33602-2214"
      },
      {
        "line": [
          "3414 Culbreath Rd"
        ],
        "city": "VALRICO",
        "state": "FL",
        "postalCode": "33596-7301"
      },
      {
        "line": [
          "110 E Oak Ave"
        ],
        "city": "TAMPA",
        "state": "FL",
        "postalCode": "33602-2210"
      },
      {
        "line": [
          "37301 Chapel Hill Loop"
        ],
        "city": "ZEPHYRHILLS",
        "state": "FL",
        "postalCode": "33542-1893"
      },
      {
        "line": [
          "8950 W Waters Ave"
        ],
        "city": "TAMPA",
        "state": "FL",
        "postalCode": "33615-5715"
      },
      {
        "line": [
          "110 E. Oak Avenue"
        ],
        "city": "TAMPA",
        "state": "FL",
        "postalCode": "33602-2210"
      },
      {
        "line": [
          "4029 Northdale Blvd"
        ],
        "city": "TAMPA",
        "state": "FL",
        "postalCode": "33624-1827"
      },
      {
        "line": [
          "9878 W. Linebaugh Ave."
        ],
        "city": "TAMPA",
        "state": "FL",
        "postalCode": "33626-1860"
      },
      {
        "line": [
          "110 east oak avenue"
        ],
        "city": "TAMPA",
        "state": "FL",
        "postalCode": "33602-2210"
      },
      {
        "line": [
          "4411 S Himes Ave"
        ],
        "city": "TAMPA",
        "state": "FL",
        "postalCode": "33611-2605"
      },
      {
        "line": [
          "1507 YMCA Place"
        ],
        "city": "PLANT CITY",
        "state": "FL",
        "postalCode": "33563-0981"
      },
      {
        "line": [
          "3097 S. Kingsway Rd"
        ],
        "city": "SEFFNER",
        "state": "FL",
        "postalCode": "33584-5731"
      },
      {
        "line": [
          "9840 Balm Riverview Rd"
        ],
        "city": "RIVERVIEW",
        "state": "FL",
        "postalCode": "33569-8101"
      }
    ],
    "extension": [
      {
        "url": "https://fhir.athena.io/StructureDefinition/ah-practice",
        "valueReference": {
          "reference": "Organization/a-1.Practice-14268"
        }
      },
      {
        "url": "https://fhir.athena.io/StructureDefinition/ah-brand",
        "valueReference": {
          "reference": "Organization/a-14268.Brand-1"
        }
      }
    ]
  },
  "fullUrl": "urn:uuid:a1522940-4576-50d6-aede-ff3b07e320c7"
}