{
  "resource": {
    "resourceType": "Organization",
    "id": "a303603e-5cf7-5cf7-8806-ea68f0f009c9",
    "name": "Total Foot Care and Wellness Clinic",
    "endpoint": [
      {
        "reference": "Endpoint/27a4e967-47aa-5a9c-a572-b8297ee268a2"
      },
      {
        "reference": "Endpoint/efe2cf7c-99db-5598-b96d-b836e1c74d68"
      }
    ],
    "identifier": [
      {
        "system": "http://hl7.org/fhir/sid/us-npi",
        "value": "1578938684"
      }
    ],
    "address": [
      {
        "line": [
          "9075 SAN JOSE BLVD"
        ],
        "city": "JACKSONVILLE",
        "state": "FL",
        "postalCode": "32257-5095"
      },
      {
        "line": [
          "6561 SAN JUAN AVE."
        ],
        "city": "JACKSONVILLE",
        "state": "FL",
        "postalCode": "32210-2857"
      },
      {
        "line": [
          "5125 PALM VALLEY RD"
        ],
        "city": "PONTE VEDRA BEACH",
        "state": "FL",
        "postalCode": "32082-3623"
      },
      {
        "line": [
          "1645 BARTLETT AVE"
        ],
        "city": "ORANGE PARK",
        "state": "FL",
        "postalCode": "32073-3616"
      },
      {
        "line": [
          "4600 Middleton Park Cir E"
        ],
        "city": "JACKSONVILLE",
        "state": "FL",
        "postalCode": "32224-5691"
      },
      {
        "line": [
          "7024 WILEY RD."
        ],
        "city": "JACKSONVILLE",
        "state": "FL",
        "postalCode": "32210-2736"
      },
      {
        "line": [
          "1045 OAK ST"
        ],
        "city": "JACKSONVILLE",
        "state": "FL",
        "postalCode": "32204-3922"
      },
      {
        "line": [
          "670 Hibernia Rd."
        ],
        "city": "FLEMING ISLAND",
        "state": "FL",
        "postalCode": "32003-4570"
      },
      {
        "line": [
          "4201 BELFORT RD"
        ],
        "city": "JACKSONVILLE",
        "state": "FL",
        "postalCode": "32216-1431"
      },
      {
        "line": [
          "1949 E West Pkwy"
        ],
        "city": "FLEMING ISLAND",
        "state": "FL",
        "postalCode": "32003-6403"
      },
      {
        "line": [
          "1315 2ND AVE N."
        ],
        "city": "JACKSONVILLE BEACH",
        "state": "FL",
        "postalCode": "32250-3694"
      },
      {
        "line": [
          "115 3RD ST S."
        ],
        "city": "JACKSONVILLE BEACH",
        "state": "FL",
        "postalCode": "32250-6800"
      },
      {
        "line": [
          "14199 Wm Davis Pkwy"
        ],
        "city": "JACKSONVILLE",
        "state": "FL",
        "postalCode": "32224-6640"
      },
      {
        "line": [
          "8356 JUSTIN RD S"
        ],
        "city": "JACKSONVILLE",
        "state": "FL",
        "postalCode": "32210-3432"
      },
      {
        "line": [
          "5939 ROOSEVELT BLVD"
        ],
        "city": "JACKSONVILLE",
        "state": "FL",
        "postalCode": "32244-2356"
      },
      {
        "line": [
          "8700 A C Skinner Pkwy"
        ],
        "city": "JACKSONVILLE",
        "state": "FL",
        "postalCode": "32256-0836"
      },
      {
        "line": [
          "405 SOLANA RD"
        ],
        "city": "PONTE VEDRA BEACH",
        "state": "FL",
        "postalCode": "32082-2516"
      },
      {
        "line": [
          "9664 HOOD RD S."
        ],
        "city": "JACKSONVILLE",
        "state": "FL",
        "postalCode": "32257-1141"
      },
      {
        "line": [
          "9150 Fort Caroline Rd"
        ],
        "city": "JACKSONVILLE",
        "state": "FL",
        "postalCode": "32225-4335"
      },
      {
        "line": [
          "8613 OLD KINGS RD S STE 301"
        ],
        "city": "JACKSONVILLE",
        "state": "FL",
        "postalCode": "32217-4845"
      },
      {
        "line": [
          "6895 BELFORT OAKS PL"
        ],
        "city": "JACKSONVILLE",
        "state": "FL",
        "postalCode": "32216-6242"
      },
      {
        "line": [
          "3760 DUPONT AVE"
        ],
        "city": "JACKSONVILLE",
        "state": "FL",
        "postalCode": "32217-2520"
      },
      {
        "line": [
          "10141 Old St Augustine Rd"
        ],
        "city": "JACKSONVILLE",
        "state": "FL",
        "postalCode": "32257-6501"
      },
      {
        "line": [
          "1215 DUNN AVE",
          "SUITE 3"
        ],
        "city": "JACKSONVILLE",
        "state": "FL",
        "postalCode": "32218-4897"
      },
      {
        "line": [
          "7723 JASPER AVE"
        ],
        "city": "JACKSONVILLE",
        "state": "FL",
        "postalCode": "32211-7719"
      },
      {
        "line": [
          "1611 Winners Cir"
        ],
        "city": "MIDDLEBURG",
        "state": "FL",
        "postalCode": "32068-3971"
      },
      {
        "line": [
          "10660 OLD ST AUGUSTINE RD"
        ],
        "city": "JACKSONVILLE",
        "state": "FL",
        "postalCode": "32257-1076"
      },
      {
        "line": [
          "6320 ARLINGTON RD"
        ],
        "city": "JACKSONVILLE",
        "state": "FL",
        "postalCode": "32211-5430"
      },
      {
        "line": [
          "3225 N MYRTLE AVE"
        ],
        "city": "JACKSONVILLE",
        "state": "FL",
        "postalCode": "32209-4231"
      },
      {
        "line": [
          "1400 LE BARON AVE"
        ],
        "city": "JACKSONVILLE",
        "state": "FL",
        "postalCode": "32207-8198"
      },
      {
        "line": [
          "4870 BELFORT RD"
        ],
        "city": "JACKSONVILLE",
        "state": "FL",
        "postalCode": "32256-6004"
      },
      {
        "line": [
          "2040 SOUTEL DRIVE"
        ],
        "city": "JACKSONVILLE",
        "state": "FL",
        "postalCode": "32208-2280"
      },
      {
        "line": [
          "8929 R G SKINNER PKWY"
        ],
        "city": "JACKSONVILLE",
        "state": "FL",
        "postalCode": "32256-9724"
      },
      {
        "line": [
          "6484 FORT CAROLINE RD"
        ],
        "city": "JACKSONVILLE",
        "state": "FL",
        "postalCode": "32277-2042"
      },
      {
        "line": [
          "12350 SAN JOSE BLVD"
        ],
        "city": "JACKSONVILLE",
        "state": "FL",
        "postalCode": "32223-2800"
      },
      {
        "line": [
          "6300 ARLINGTON EXPY"
        ],
        "city": "JACKSONVILLE",
        "state": "FL",
        "postalCode": "32211-7144"
      },
      {
        "line": [
          "9821 RIBAULT AVE"
        ],
        "city": "JACKSONVILLE",
        "state": "FL",
        "postalCode": "32208-1492"
      },
      {
        "line": [
          "2408 SOUTEL DR"
        ],
        "city": "JACKSONVILLE",
        "state": "FL",
        "postalCode": "32208-5512"
      },
      {
        "line": [
          "1600 SHETTER AVE"
        ],
        "city": "JACKSONVILLE BEACH",
        "state": "FL",
        "postalCode": "32250-2665"
      },
      {
        "line": [
          "5622 101st Street"
        ],
        "city": "JACKSONVILLE",
        "state": "FL",
        "postalCode": "32210-8024"
      },
      {
        "line": [
          "3455 SAN PABLO RD S"
        ],
        "city": "JACKSONVILLE",
        "state": "FL",
        "postalCode": "32224-3803"
      },
      {
        "line": [
          "905 ASSISI LN"
        ],
        "city": "ATLANTIC BEACH",
        "state": "FL",
        "postalCode": "32233-2972"
      },
      {
        "line": [
          "100 W 1ST ST."
        ],
        "city": "ATLANTIC BEACH",
        "state": "FL",
        "postalCode": "32233-2502"
      },
      {
        "line": [
          "4294 TANGLEWILDE DR S."
        ],
        "city": "JACKSONVILLE",
        "state": "FL",
        "postalCode": "32257-6439"
      },
      {
        "line": [
          "8700 A C SKINNER PKWY"
        ],
        "city": "JACKSONVILLE",
        "state": "FL",
        "postalCode": "32256-0836"
      },
      {
        "line": [
          "4867 SUSANNA WOODS CT"
        ],
        "city": "JACKSONVILLE",
        "state": "FL",
        "postalCode": "32257-5266"
      },
      {
        "line": [
          "4000 SAN PABLO PKWY"
        ],
        "city": "JACKSONVILLE",
        "state": "FL",
        "postalCode": "32224-6901"
      }
    ],
    "extension": [
      {
        "url": "https://fhir.athena.io/StructureDefinition/ah-practice",
        "valueReference": {
          "reference": "Organization/a-1.Practice-18092"
        }
      },
      {
        "url": "https://fhir.athena.io/StructureDefinition/ah-brand",
        "valueReference": {
          "reference": "Organization/a-18092.Brand-1"
        }
      }
    ]
  },
  "fullUrl": "urn:uuid:a303603e-5cf7-5cf7-8806-ea68f0f009c9"
}