{
  "resource": {
    "resourceType": "Organization",
    "id": "ea38e773-766c-518e-924f-5a0e71307b6d",
    "name": "ACCENT ASSISTED LIVING",
    "endpoint": [
      {
        "reference": "Endpoint/27a4e967-47aa-5a9c-a572-b8297ee268a2"
      },
      {
        "reference": "Endpoint/7eb7f70e-58fc-51ba-b6d7-7c0ddf707a8f"
      }
    ],
    "identifier": [
      {
        "system": "http://hl7.org/fhir/sid/us-npi",
        "value": "1346286721"
      }
    ],
    "address": [
      {
        "line": [
          "23661 CREMONA"
        ],
        "city": "LAGUNA HILLS",
        "state": "CA",
        "postalCode": "92653-1933"
      },
      {
        "line": [
          "25455 El Picador LN"
        ],
        "city": "MISSION VIEJO",
        "state": "CA",
        "postalCode": "92691-5430"
      },
      {
        "line": [
          "25531 ALTHEA"
        ],
        "city": "MISSION VIEJO",
        "state": "CA",
        "postalCode": "92691-3825"
      },
      {
        "line": [
          "13975 TELEGRAPH ROAD"
        ],
        "city": "WHITTIER",
        "state": "CA",
        "postalCode": "90604-2536"
      },
      {
        "line": [
          "811 WILDROSE DR"
        ],
        "city": "BREA",
        "state": "CA",
        "postalCode": "92821-6469"
      },
      {
        "line": [
          "20141 BUSHARD STREET"
        ],
        "city": "HUNTINGTON BEACH",
        "state": "CA",
        "postalCode": "92646-4818"
      },
      {
        "line": [
          "1030 W WARNER AVE"
        ],
        "city": "SANTA ANA",
        "state": "CA",
        "postalCode": "92707-3147"
      },
      {
        "line": [
          "22391 LOMBARDI",
          "YORK RETIREMENT HOME"
        ],
        "city": "LAGUNA HILLS",
        "state": "CA",
        "postalCode": "92653-1845"
      },
      {
        "line": [
          "3415 W BALL ROAD"
        ],
        "city": "ANAHEIM",
        "state": "CA",
        "postalCode": "92804-3708"
      },
      {
        "line": [
          "19191 HARVARD AVE"
        ],
        "city": "IRVINE",
        "state": "CA",
        "postalCode": "92612-4670"
      },
      {
        "line": [
          "3105 WEST ORANGE AVE"
        ],
        "city": "ANAHEIM",
        "state": "CA",
        "postalCode": "92804-3153"
      },
      {
        "line": [
          "24611 SPARTAN STREET"
        ],
        "city": "MISSION VIEJO",
        "state": "CA",
        "postalCode": "92691-4530"
      },
      {
        "line": [
          "24182 PASEO DEL CAMPO"
        ],
        "city": "LAGUNA NIGUEL",
        "state": "CA",
        "postalCode": "92677-2409"
      },
      {
        "line": [
          "1262 BRYAN AVENUE"
        ],
        "city": "TUSTIN",
        "state": "CA",
        "postalCode": "92780-4464"
      },
      {
        "line": [
          "27052 LOST COLT DR"
        ],
        "city": "LAGUNA HILLS",
        "state": "CA",
        "postalCode": "92653-5812"
      },
      {
        "line": [
          "23521 PASEO DE VALENCIA STE 311"
        ],
        "city": "LAGUNA HILLS",
        "state": "CA",
        "postalCode": "92653-3144"
      },
      {
        "line": [
          "25351 DIANA CIRCLE"
        ],
        "city": "MISSION VIEJO",
        "state": "CA",
        "postalCode": "92691-4514"
      },
      {
        "line": [
          "21521 MORESBY WAY"
        ],
        "city": "LAKE FOREST",
        "state": "CA",
        "postalCode": "92630-8204"
      },
      {
        "line": [
          "2 Brandywine"
        ],
        "city": "IRVINE",
        "state": "CA",
        "postalCode": "92620-2507"
      },
      {
        "line": [
          "22952 COUNCIL BLUFFS AVE"
        ],
        "city": "LAKE FOREST",
        "state": "CA",
        "postalCode": "92630-2925"
      },
      {
        "line": [
          "141 S KNOTT AVE"
        ],
        "city": "ANAHEIM",
        "state": "CA",
        "postalCode": "92804-1406"
      },
      {
        "line": [
          "12072 TRASK AVE"
        ],
        "city": "GARDEN GROVE",
        "state": "CA",
        "postalCode": "92843-3821"
      },
      {
        "line": [
          "2001 EAST GLENWOOD AVE"
        ],
        "city": "FULLERTON",
        "state": "CA",
        "postalCode": "92831-3003"
      },
      {
        "line": [
          "9542 SAILFISH DR"
        ],
        "city": "HUNTINGTON BEACH",
        "state": "CA",
        "postalCode": "92646-2818"
      },
      {
        "line": [
          "10688 LEHNARDT AVE"
        ],
        "city": "FOUNTAIN VALLEY",
        "state": "CA",
        "postalCode": "92708-1117"
      },
      {
        "line": [
          "3141 BRAY LN"
        ],
        "city": "COSTA MESA",
        "state": "CA",
        "postalCode": "92626-2659"
      },
      {
        "line": [
          "25312 ERICSON WAY"
        ],
        "city": "LAGUNA HILLS",
        "state": "CA",
        "postalCode": "92653-5054"
      },
      {
        "line": [
          "9925 LA ALAMEDA AVE"
        ],
        "city": "FOUNTAIN VALLEY",
        "state": "CA",
        "postalCode": "92708-3548"
      },
      {
        "line": [
          "24661 KIM CIRCLE"
        ],
        "city": "LAGUNA HILLS",
        "state": "CA",
        "postalCode": "92653-4314"
      },
      {
        "line": [
          "24052 HILLHURST"
        ],
        "city": "LAGUNA NIGUEL",
        "state": "CA",
        "postalCode": "92677-2241"
      },
      {
        "line": [
          "26751 CARRETAS DR"
        ],
        "city": "MISSION VIEJO",
        "state": "CA",
        "postalCode": "92691-5135"
      },
      {
        "line": [
          "9232 MARCHAND AVE"
        ],
        "city": "GARDEN GROVE",
        "state": "CA",
        "postalCode": "92841-2037"
      },
      {
        "line": [
          "23822 VIA NAVARRA"
        ],
        "city": "MISSION VIEJO",
        "state": "CA",
        "postalCode": "92691-3640"
      },
      {
        "line": [
          "25011 DE SALLE"
        ],
        "city": "LAGUNA HILLS",
        "state": "CA",
        "postalCode": "92653-5042"
      },
      {
        "line": [
          "300 FREEDOM LN"
        ],
        "city": "ALISO VIEJO",
        "state": "CA",
        "postalCode": "92656-5853"
      },
      {
        "line": [
          "18811 FLORIDA STREET"
        ],
        "city": "HUNTINGTON BEACH",
        "state": "CA",
        "postalCode": "92648-1920"
      },
      {
        "line": [
          "26542 EL MAR DRIVE"
        ],
        "city": "MISSION VIEJO",
        "state": "CA",
        "postalCode": "92691-6104"
      },
      {
        "line": [
          "12151 DALE ST"
        ],
        "city": "STANTON",
        "state": "CA",
        "postalCode": "90680-3800"
      },
      {
        "line": [
          "240 HOSPITAL CIR"
        ],
        "city": "WESTMINSTER",
        "state": "CA",
        "postalCode": "92683-3953"
      },
      {
        "line": [
          "6942 Dresden Circle"
        ],
        "city": "HUNTINGTON BEACH",
        "state": "CA",
        "postalCode": "92647-2728"
      },
      {
        "line": [
          "24571 KINGS RD"
        ],
        "city": "LAGUNA NIGUEL",
        "state": "CA",
        "postalCode": "92677-7453"
      },
      {
        "line": [
          "26232 AVENIDA CALIDAD"
        ],
        "city": "MISSION VIEJO",
        "state": "CA",
        "postalCode": "92691-3212"
      },
      {
        "line": [
          "26352 PAPAGAYO"
        ],
        "city": "MISSION VIEJO",
        "state": "CA",
        "postalCode": "92691-4126"
      },
      {
        "line": [
          "25451 ADRIANA"
        ],
        "city": "MISSION VIEJO",
        "state": "CA",
        "postalCode": "92691-3817"
      },
      {
        "line": [
          "27052 Lost Colt dr"
        ],
        "city": "LAGUNA HILLS",
        "state": "CA",
        "postalCode": "92653-5812"
      },
      {
        "line": [
          "26442 SANDY CREEK"
        ],
        "city": "LAKE FOREST",
        "state": "CA",
        "postalCode": "92630-5627"
      },
      {
        "line": [
          "24772 ARGUS DR"
        ],
        "city": "MISSION VIEJO",
        "state": "CA",
        "postalCode": "92691-4614"
      },
      {
        "line": [
          "9892 EFFINGHAM DR"
        ],
        "city": "HUNTINGTON BEACH",
        "state": "CA",
        "postalCode": "92646-7328"
      },
      {
        "line": [
          "1665 S BROOKHURST ST"
        ],
        "city": "ANAHEIM",
        "state": "CA",
        "postalCode": "92804-6063"
      },
      {
        "line": [
          "9442 NAUTILUS DRIVE",
          "HUNTINGTON ELDERLY CARE"
        ],
        "city": "HUNTINGTON BEACH",
        "state": "CA",
        "postalCode": "92646-4712"
      },
      {
        "line": [
          "25464 VIA ESTUDIO"
        ],
        "city": "LAGUNA NIGUEL",
        "state": "CA",
        "postalCode": "92677-1541"
      },
      {
        "line": [
          "25466 VIA ESTUDIO"
        ],
        "city": "LAGUNA NIGUEL",
        "state": "CA",
        "postalCode": "92677-1541"
      },
      {
        "line": [
          "28961 PASEO DE OCASO",
          "SEASONS AT LAGUNA 2"
        ],
        "city": "LAGUNA NIGUEL",
        "state": "CA",
        "postalCode": "92677-1568"
      },
      {
        "line": [
          "24301 BARK ST"
        ],
        "city": "LAKE FOREST",
        "state": "CA",
        "postalCode": "92630-5228"
      },
      {
        "line": [
          "2840 EAST QUINCY AVE"
        ],
        "city": "ORANGE",
        "state": "CA",
        "postalCode": "92867-6234"
      },
      {
        "line": [
          "501 S BEACH BLVD"
        ],
        "city": "ANAHEIM",
        "state": "CA",
        "postalCode": "92804-1810"
      },
      {
        "line": [
          "24582 VANESSA DRIVE"
        ],
        "city": "MISSION VIEJO",
        "state": "CA",
        "postalCode": "92691-4672"
      },
      {
        "line": [
          "8556 BARR LANE"
        ],
        "city": "GARDEN GROVE",
        "state": "CA",
        "postalCode": "92841-3212"
      },
      {
        "line": [
          "22678 GENOVA"
        ],
        "city": "LAGUNA HILLS",
        "state": "CA",
        "postalCode": "92653-1907"
      },
      {
        "line": [
          "12141 GILBERT ST"
        ],
        "city": "GARDEN GROVE",
        "state": "CA",
        "postalCode": "92841-3503"
      },
      {
        "line": [
          "32622 AZORES RD"
        ],
        "city": "DANA POINT",
        "state": "CA",
        "postalCode": "92629-3611"
      },
      {
        "line": [
          "425 RIVERSIDE AVE"
        ],
        "city": "NEWPORT BEACH",
        "state": "CA",
        "postalCode": "92663-4814"
      },
      {
        "line": [
          "1209 HEMLOCK WAY"
        ],
        "city": "SANTA ANA",
        "state": "CA",
        "postalCode": "92707-3609"
      },
      {
        "line": [
          "19892 POTOMAC LANE"
        ],
        "city": "HUNTINGTON BEACH",
        "state": "CA",
        "postalCode": "92646-3520"
      },
      {
        "line": [
          "1718 W 6TH STREET"
        ],
        "city": "SANTA ANA",
        "state": "CA",
        "postalCode": "92703-2998"
      },
      {
        "line": [
          "14952 BURNHAM CIRCLE"
        ],
        "city": "IRVINE",
        "state": "CA",
        "postalCode": "92604-2356"
      },
      {
        "line": [
          "24562 DARDANIA AVE"
        ],
        "city": "MISSION VIEJO",
        "state": "CA",
        "postalCode": "92691-4623"
      },
      {
        "line": [
          "26751 VIA GRANDE"
        ],
        "city": "MISSION VIEJO",
        "state": "CA",
        "postalCode": "92691-4925"
      },
      {
        "line": [
          "1912 MAPLE ST"
        ],
        "city": "SANTA ANA",
        "state": "CA",
        "postalCode": "92707-2812"
      },
      {
        "line": [
          "29501 VIA SAN SEBASTIAN"
        ],
        "city": "LAGUNA NIGUEL",
        "state": "CA",
        "postalCode": "92677-1872"
      },
      {
        "line": [
          "3101 JEFFERSON AVE"
        ],
        "city": "COSTA MESA",
        "state": "CA",
        "postalCode": "92626-2626"
      },
      {
        "line": [
          "11541 HIGHLAND LN"
        ],
        "city": "SANTA ANA",
        "state": "CA",
        "postalCode": "92705-3065"
      },
      {
        "line": [
          "26811 CARMENITA LN/DELIGHTFUL LIVING"
        ],
        "city": "MISSION VIEJO",
        "state": "CA",
        "postalCode": "92691-4310"
      },
      {
        "line": [
          "26545 AVENIDA DESA"
        ],
        "city": "MISSION VIEJO",
        "state": "CA",
        "postalCode": "92691-3303"
      },
      {
        "line": [
          "8132 STERLING DRIVE"
        ],
        "city": "HUNTINGTON BEACH",
        "state": "CA",
        "postalCode": "92646-1542"
      },
      {
        "line": [
          "23036 SONOITA"
        ],
        "city": "MISSION VIEJO",
        "state": "CA",
        "postalCode": "92691-2108"
      },
      {
        "line": [
          "17 YORKTOWN"
        ],
        "city": "IRVINE",
        "state": "CA",
        "postalCode": "92620-2677"
      },
      {
        "line": [
          "27783 CENTER DR",
          "ASST. LIVING DEPT"
        ],
        "city": "MISSION VIEJO",
        "state": "CA",
        "postalCode": "92692-3603"
      },
      {
        "line": [
          "24961 SOUTHPORT ST"
        ],
        "city": "LAGUNA HILLS",
        "state": "CA",
        "postalCode": "92653-4924"
      },
      {
        "line": [
          "18410 COLVILLE STREET"
        ],
        "city": "FOUNTAIN VALLEY",
        "state": "CA",
        "postalCode": "92708-5741"
      },
      {
        "line": [
          "29825 ANDREA WAY"
        ],
        "city": "LAGUNA NIGUEL",
        "state": "CA",
        "postalCode": "92677-1741"
      },
      {
        "line": [
          "9448 Kiwi Circle"
        ],
        "city": "FOUNTAIN VALLEY",
        "state": "CA",
        "postalCode": "92708-5748"
      },
      {
        "line": [
          "2927 BONANZA"
        ],
        "city": "SAN CLEMENTE",
        "state": "CA",
        "postalCode": "92673-3555"
      },
      {
        "line": [
          "26771 VIA VICTORIA"
        ],
        "city": "MISSION VIEJO",
        "state": "CA",
        "postalCode": "92691-3433"
      },
      {
        "line": [
          "8382 NEWMAN AVE"
        ],
        "city": "HUNTINGTON BEACH",
        "state": "CA",
        "postalCode": "92647-7038"
      },
      {
        "line": [
          "309 CALLE SANDIA"
        ],
        "city": "SAN CLEMENTE",
        "state": "CA",
        "postalCode": "92672-2129"
      },
      {
        "line": [
          "1929 N FAIRVIEW ST"
        ],
        "city": "SANTA ANA",
        "state": "CA",
        "postalCode": "92706-2205"
      },
      {
        "line": [
          "24666 SAN ANDRES LN"
        ],
        "city": "MISSION VIEJO",
        "state": "CA",
        "postalCode": "92691-4925"
      },
      {
        "line": [
          "24372 AUGUSTIN AVE"
        ],
        "city": "MISSION VIEJO",
        "state": "CA",
        "postalCode": "92691-4709"
      },
      {
        "line": [
          "30111 NIGUEL ROAD"
        ],
        "city": "LAGUNA NIGUEL",
        "state": "CA",
        "postalCode": "92677-2250"
      },
      {
        "line": [
          "141 S Knott Ave"
        ],
        "city": "ANAHEIM",
        "state": "CA",
        "postalCode": "92804-1406"
      },
      {
        "line": [
          "22182 ADAMO ST"
        ],
        "city": "LAGUNA HILLS",
        "state": "CA",
        "postalCode": "92653-1854"
      },
      {
        "line": [
          "17709 BEECH ST"
        ],
        "city": "FOUNTAIN VALLEY",
        "state": "CA",
        "postalCode": "92708-4509"
      },
      {
        "line": [
          "2210 E 1ST ST"
        ],
        "city": "SANTA ANA",
        "state": "CA",
        "postalCode": "92705-3802"
      },
      {
        "line": [
          "22182 ADAMO"
        ],
        "city": "LAGUNA HILLS",
        "state": "CA",
        "postalCode": "92653-1854"
      },
      {
        "line": [
          "1100 E. WHITTIER BLVD."
        ],
        "city": "LA HABRA",
        "state": "CA",
        "postalCode": "90631-3962"
      },
      {
        "line": [
          "16439 LONGWORTH AVE"
        ],
        "city": "NORWALK",
        "state": "CA",
        "postalCode": "90650-6933"
      },
      {
        "line": [
          "31451 AVENIDA LOS CERRITOS"
        ],
        "city": "SAN JUAN CAPISTRANO",
        "state": "CA",
        "postalCode": "92675-1708"
      },
      {
        "line": [
          "24572 ARTIMIA AVE"
        ],
        "city": "MISSION VIEJO",
        "state": "CA",
        "postalCode": "92691-4616"
      },
      {
        "line": [
          "1416 WEST BIRCHMONT DR"
        ],
        "city": "ANAHEIM",
        "state": "CA",
        "postalCode": "92801-5829"
      },
      {
        "line": [
          "31822 SAN JUAN CREEK RD"
        ],
        "city": "SAN JUAN CAPISTRANO",
        "state": "CA",
        "postalCode": "92675-8306"
      },
      {
        "line": [
          "15460 MARLBOROUGH CIRCLE"
        ],
        "city": "WESTMINSTER",
        "state": "CA",
        "postalCode": "92683-7028"
      },
      {
        "line": [
          "26741 PEPITA DR"
        ],
        "city": "MISSION VIEJO",
        "state": "CA",
        "postalCode": "92691-5442"
      },
      {
        "line": [
          "17332 LAURIE LN"
        ],
        "city": "TUSTIN",
        "state": "CA",
        "postalCode": "92780-1815"
      },
      {
        "line": [
          "18232 EAST SANTA CLARA AVENUE"
        ],
        "city": "SANTA ANA",
        "state": "CA",
        "postalCode": "92705-2040"
      },
      {
        "line": [
          "14752 HOLT AVE"
        ],
        "city": "TUSTIN",
        "state": "CA",
        "postalCode": "92780-2708"
      },
      {
        "line": [
          "24182 McCoy Rd"
        ],
        "city": "LAKE FOREST",
        "state": "CA",
        "postalCode": "92630-3834"
      },
      {
        "line": [
          "25612 ADRIANA ST"
        ],
        "city": "MISSION VIEJO",
        "state": "CA",
        "postalCode": "92691-3824"
      },
      {
        "line": [
          "24332 SPARTAN ST"
        ],
        "city": "MISSION VIEJO",
        "state": "CA",
        "postalCode": "92691-3921"
      }
    ],
    "extension": [
      {
        "url": "https://fhir.athena.io/StructureDefinition/ah-practice",
        "valueReference": {
          "reference": "Organization/a-1.Practice-8136"
        }
      },
      {
        "url": "https://fhir.athena.io/StructureDefinition/ah-brand",
        "valueReference": {
          "reference": "Organization/a-8136.Brand-1"
        }
      }
    ]
  },
  "fullUrl": "urn:uuid:ea38e773-766c-518e-924f-5a0e71307b6d"
}