{
  "resource": {
    "resourceType": "Organization",
    "id": "b08f0bcf-cedb-5e5b-9f7c-d5004ef986bb",
    "name": "Ramapo Pain Management",
    "endpoint": [
      {
        "reference": "Endpoint/27a4e967-47aa-5a9c-a572-b8297ee268a2"
      },
      {
        "reference": "Endpoint/731598ba-d790-56cd-91e5-c1d705ae5fe9"
      }
    ],
    "identifier": [
      {
        "system": "http://hl7.org/fhir/sid/us-npi",
        "value": "1982044194"
      }
    ],
    "address": [
      {
        "line": [
          "160 E. MAIN STREET"
        ],
        "city": "PORT JERVIS",
        "state": "NY",
        "postalCode": "12771-2253"
      },
      {
        "line": [
          "133 N. KINDERKAMACK ROAD"
        ],
        "city": "MONTVALE",
        "state": "NJ",
        "postalCode": "07645-1313"
      },
      {
        "line": [
          "75 CRYSTAL RUN RD",
          "BUILDING B, SUITE 225"
        ],
        "city": "MIDDLETOWN",
        "state": "NY",
        "postalCode": "10941-7012"
      },
      {
        "line": [
          "100 ROUTE 59 SUITE 111"
        ],
        "city": "SUFFERN",
        "state": "NY",
        "postalCode": "10901-4927"
      },
      {
        "line": [
          "1 BAY AVENUE"
        ],
        "city": "MONTCLAIR",
        "state": "NJ",
        "postalCode": "07042-4837"
      },
      {
        "line": [
          "707 E MAIN STREET"
        ],
        "city": "MIDDLETOWN",
        "state": "NY",
        "postalCode": "10940-2650"
      },
      {
        "line": [
          "255 LAFAYETTE AVENUE"
        ],
        "city": "SUFFERN",
        "state": "NY",
        "postalCode": "10901-4812"
      },
      {
        "line": [
          "100 ROUTE 59",
          "SUITE 111"
        ],
        "city": "SUFFERN",
        "state": "NY",
        "postalCode": "10901-5620"
      },
      {
        "line": [
          "168 RED SCHOOL HOUSE ROAD"
        ],
        "city": "CHESTNUT RIDGE",
        "state": "NY",
        "postalCode": "10977-7031"
      },
      {
        "line": [
          "18 GOLF LINKS ROAD"
        ],
        "city": "MIDDLETOWN",
        "state": "NY",
        "postalCode": "10940-2624"
      },
      {
        "line": [
          "707 E. MAIN STREET"
        ],
        "city": "MIDDLETOWN",
        "state": "NY",
        "postalCode": "10940-2650"
      },
      {
        "line": [
          "160 E. MAIN STREET"
        ],
        "city": "PORT JERVIS",
        "state": "NY",
        "postalCode": "12771-2245"
      }
    ],
    "extension": [
      {
        "url": "https://fhir.athena.io/StructureDefinition/ah-practice",
        "valueReference": {
          "reference": "Organization/a-1.Practice-18204"
        }
      },
      {
        "url": "https://fhir.athena.io/StructureDefinition/ah-brand",
        "valueReference": {
          "reference": "Organization/a-18204.Brand-1"
        }
      }
    ]
  },
  "fullUrl": "urn:uuid:b08f0bcf-cedb-5e5b-9f7c-d5004ef986bb"
}