{
  "resource": {
    "resourceType": "Organization",
    "id": "69f1ecd8-4b42-55d5-9a54-ac9b6079d710",
    "name": "JORGE A RIVERO MD INC",
    "endpoint": [
      {
        "reference": "Endpoint/27a4e967-47aa-5a9c-a572-b8297ee268a2"
      },
      {
        "reference": "Endpoint/8768b111-c8f0-5aae-974b-58eb10ddae3e"
      }
    ],
    "identifier": [
      {
        "system": "http://hl7.org/fhir/sid/us-npi",
        "value": "1194161703"
      }
    ],
    "address": [
      {
        "line": [
          "309 Calle Sandia"
        ],
        "city": "SAN CLEMENTE",
        "state": "CA",
        "postalCode": "92672-2129"
      },
      {
        "line": [
          "25262 Via de Anza"
        ],
        "city": "LAGUNA NIGUEL",
        "state": "CA",
        "postalCode": "92677-1928"
      },
      {
        "line": [
          "24861 Georgia Sue Drive"
        ],
        "city": "LAGUNA HILLS",
        "state": "CA",
        "postalCode": "92653-4324"
      },
      {
        "line": [
          "23422 El Toro Road"
        ],
        "city": "LAKE FOREST",
        "state": "CA",
        "postalCode": "92630-6979"
      },
      {
        "line": [
          "24611 Spartan"
        ],
        "city": "MISSION VIEJO",
        "state": "CA",
        "postalCode": "92691-4530"
      },
      {
        "line": [
          "25437 Via Estudio"
        ],
        "city": "LAGUNA NIGUEL",
        "state": "CA",
        "postalCode": "92677-1541"
      },
      {
        "line": [
          "29681 Preston Drive"
        ],
        "city": "LAGUNA NIGUEL",
        "state": "CA",
        "postalCode": "92677-1933"
      },
      {
        "line": [
          "23792 Marguerite PKWY"
        ],
        "city": "MISSION VIEJO",
        "state": "CA",
        "postalCode": "92692-1547"
      },
      {
        "line": [
          "3 Pursuit"
        ],
        "city": "ALISO VIEJO",
        "state": "CA",
        "postalCode": "92656-4213"
      },
      {
        "line": [
          "31741 Rancho Viejo Road"
        ],
        "city": "SAN JUAN CAPISTRANO",
        "state": "CA",
        "postalCode": "92675-6722"
      },
      {
        "line": [
          "24351 Regina"
        ],
        "city": "MISSION VIEJO",
        "state": "CA",
        "postalCode": "92691-4714"
      },
      {
        "line": [
          "24962 Calle Aragon"
        ],
        "city": "LAGUNA HILLS",
        "state": "CA",
        "postalCode": "92637-3883"
      },
      {
        "line": [
          "32170 Niguel Road"
        ],
        "city": "LAGUNA NIGUEL",
        "state": "CA",
        "postalCode": "92677-4264"
      },
      {
        "line": [
          "25492 Maximus"
        ],
        "city": "MISSION VIEJO",
        "state": "CA",
        "postalCode": "92691-4648"
      },
      {
        "line": [
          "25875 Via Venito"
        ],
        "city": "MISSION VIEJO",
        "state": "CA",
        "postalCode": "92691-1606"
      },
      {
        "line": [
          "19191 Harvard Ave"
        ],
        "city": "IRVINE",
        "state": "CA",
        "postalCode": "92612-4670"
      },
      {
        "line": [
          "26852 La Sierra"
        ],
        "city": "MISSION VIEJO",
        "state": "CA",
        "postalCode": "92691-6050"
      },
      {
        "line": [
          "21952 Buena Suerte"
        ],
        "city": "RANCHO SANTA MARGARITA",
        "state": "CA",
        "postalCode": "92688-3875"
      },
      {
        "line": [
          "25352 Diana Circle"
        ],
        "city": "MISSION VIEJO",
        "state": "CA",
        "postalCode": "92691-4648"
      },
      {
        "line": [
          "26922 Camino de Estrella"
        ],
        "city": "CAPISTRANO BEACH",
        "state": "CA",
        "postalCode": "92624-1603"
      },
      {
        "line": [
          "2827 Calle Guadalajara"
        ],
        "city": "SAN CLEMENTE",
        "state": "CA",
        "postalCode": "92673-3514"
      },
      {
        "line": [
          "26732 Via Linares"
        ],
        "city": "MISSION VIEJO",
        "state": "CA",
        "postalCode": "92691-2631"
      },
      {
        "line": [
          "24911 Adelanto Dr"
        ],
        "city": "LAGUNA NIGUEL",
        "state": "CA",
        "postalCode": "92677-1837"
      },
      {
        "line": [
          "25652 Old Trabuco Road"
        ],
        "city": "LAKE FOREST",
        "state": "CA",
        "postalCode": "92630-2776"
      },
      {
        "line": [
          "25351 Diana Circle"
        ],
        "city": "MISSION VIEJO",
        "state": "CA",
        "postalCode": "92691-4648"
      },
      {
        "line": [
          "24452 Health Center Drive"
        ],
        "city": "LAGUNA HILLS",
        "state": "CA",
        "postalCode": "92653-3604"
      },
      {
        "line": [
          "25411 Sea Bluffs Drive"
        ],
        "city": "DANA POINT",
        "state": "CA",
        "postalCode": "92629-2190"
      },
      {
        "line": [
          "23521 PASEO DE VALENCIA STE 108"
        ],
        "city": "LAGUNA HILLS",
        "state": "CA",
        "postalCode": "92653-3107"
      },
      {
        "line": [
          "24441 Calle Sonora"
        ],
        "city": "LAGUNA HILLS",
        "state": "CA",
        "postalCode": "92637-3883"
      },
      {
        "line": [
          "27783 Center Drive"
        ],
        "city": "MISSION VIEJO",
        "state": "CA",
        "postalCode": "92692-3603"
      },
      {
        "line": [
          "24052 Hillhurst Drive"
        ],
        "city": "LAGUNA NIGUEL",
        "state": "CA",
        "postalCode": "92677-2241"
      },
      {
        "line": [
          "26761 Carranza"
        ],
        "city": "MISSION VIEJO",
        "state": "CA",
        "postalCode": "92691-4945"
      },
      {
        "line": [
          "35410 Del Rey"
        ],
        "city": "CAPISTRANO BEACH",
        "state": "CA",
        "postalCode": "92624-1814"
      },
      {
        "line": [
          "24552 Paseo De Valencia"
        ],
        "city": "LAGUNA HILLS",
        "state": "CA",
        "postalCode": "92653-4236"
      },
      {
        "line": [
          "24571 Kings Road"
        ],
        "city": "LAGUNA NIGUEL",
        "state": "CA",
        "postalCode": "92677-7453"
      },
      {
        "line": [
          "24302 Bark Street"
        ],
        "city": "LAKE FOREST",
        "state": "CA",
        "postalCode": "92630-5227"
      }
    ],
    "extension": [
      {
        "url": "https://fhir.athena.io/StructureDefinition/ah-practice",
        "valueReference": {
          "reference": "Organization/a-1.Practice-11277"
        }
      },
      {
        "url": "https://fhir.athena.io/StructureDefinition/ah-brand",
        "valueReference": {
          "reference": "Organization/a-11277.Brand-1"
        }
      }
    ]
  },
  "fullUrl": "urn:uuid:69f1ecd8-4b42-55d5-9a54-ac9b6079d710"
}