{
  "resource": {
    "resourceType": "Organization",
    "id": "a31b72b7-65bc-5293-b502-0eaba97b6d4e",
    "name": "Kemell Health",
    "endpoint": [
      {
        "reference": "Endpoint/27a4e967-47aa-5a9c-a572-b8297ee268a2"
      },
      {
        "reference": "Endpoint/96a235c3-fbe5-564e-8b67-64eb3c2cd04f"
      }
    ],
    "identifier": [
      {
        "system": "http://hl7.org/fhir/sid/us-npi",
        "value": "1487274247"
      }
    ],
    "address": [
      {
        "line": [
          "2230 14TH ST S"
        ],
        "city": "WISCONSIN RAPIDS",
        "state": "WI",
        "postalCode": "54494-6408"
      },
      {
        "line": [
          "491 25TH ST N"
        ],
        "city": "WISCONSIN RAPIDS",
        "state": "WI",
        "postalCode": "54494-5533"
      },
      {
        "line": [
          "1707 N 12TH ST"
        ],
        "city": "QUINCY",
        "state": "IL",
        "postalCode": "62301-1355"
      },
      {
        "line": [
          "1800 BLUEBELL LN"
        ],
        "city": "STEVENS POINT",
        "state": "WI",
        "postalCode": "54482-8983"
      },
      {
        "line": [
          "2225 EAGLE SMT"
        ],
        "city": "STEVENS POINT",
        "state": "WI",
        "postalCode": "54482-8977"
      },
      {
        "line": [
          "663 MARATECH AVE"
        ],
        "city": "MARATHON",
        "state": "WI",
        "postalCode": "54448-9002"
      },
      {
        "line": [
          "10 E HAWTHORN PKWY"
        ],
        "city": "VERNON HILLS",
        "state": "IL",
        "postalCode": "60061-1462"
      },
      {
        "line": [
          "3450 BRIDLEWOOD DR"
        ],
        "city": "PLOVER",
        "state": "WI",
        "postalCode": "54467-3892"
      },
      {
        "line": [
          "747 N THROOP ST APT 4"
        ],
        "city": "CHICAGO",
        "state": "IL",
        "postalCode": "60642-5751"
      },
      {
        "line": [
          "2301 EAGLE SMT"
        ],
        "city": "STEVENS POINT",
        "state": "WI",
        "postalCode": "54482-8942"
      },
      {
        "line": [
          "1404 LILI LN"
        ],
        "city": "SCHOFIELD",
        "state": "WI",
        "postalCode": "54476-4941"
      },
      {
        "line": [
          "515 W IOLA ST"
        ],
        "city": "IOLA",
        "state": "WI",
        "postalCode": "54945-9647"
      },
      {
        "line": [
          "2201 EAGLE SMT"
        ],
        "city": "STEVENS POINT",
        "state": "WI",
        "postalCode": "54482-8977"
      },
      {
        "line": [
          "145 N MILWAUKEE AVE"
        ],
        "city": "VERNON HILLS",
        "state": "IL",
        "postalCode": "60061-4170"
      },
      {
        "line": [
          "505 W IOLA ST"
        ],
        "city": "IOLA",
        "state": "WI",
        "postalCode": "54945-9136"
      },
      {
        "line": [
          "1408 LILI LN"
        ],
        "city": "SCHOFIELD",
        "state": "WI",
        "postalCode": "54476-4941"
      },
      {
        "line": [
          "830 HIGH ST"
        ],
        "city": "WILD ROSE",
        "state": "WI",
        "postalCode": "54984-6829"
      },
      {
        "line": [
          "3380 BRIDLEWOOD DR"
        ],
        "city": "PLOVER",
        "state": "WI",
        "postalCode": "54467-3867"
      }
    ],
    "extension": [
      {
        "url": "https://fhir.athena.io/StructureDefinition/ah-practice",
        "valueReference": {
          "reference": "Organization/a-1.Practice-29249"
        }
      },
      {
        "url": "https://fhir.athena.io/StructureDefinition/ah-brand",
        "valueReference": {
          "reference": "Organization/a-29249.Brand-1"
        }
      }
    ]
  },
  "fullUrl": "urn:uuid:a31b72b7-65bc-5293-b502-0eaba97b6d4e"
}