{
  "resource": {
    "resourceType": "Organization",
    "id": "884f918e-3670-516f-a5b4-b29039eed9f5",
    "name": "AMERISTAFF NURSING SERVICES",
    "endpoint": [
      {
        "reference": "Endpoint/27a4e967-47aa-5a9c-a572-b8297ee268a2"
      },
      {
        "reference": "Endpoint/c153e89f-5773-51d4-83c4-29dc19323935"
      }
    ],
    "identifier": [
      {
        "system": "http://hl7.org/fhir/sid/us-npi",
        "value": "1932292166"
      },
      {
        "system": "urn:oid:2.16.840.1.113883.4.7",
        "value": "23D0676997"
      }
    ],
    "address": [
      {
        "line": [
          "2625 N. Adrian Hwy"
        ],
        "city": "ADRIAN",
        "state": "MI",
        "postalCode": "49221-1753"
      },
      {
        "line": [
          "1430 Cleaver Rd"
        ],
        "city": "CARO",
        "state": "MI",
        "postalCode": "48723-9165"
      },
      {
        "line": [
          "6827 Whitehall Rd."
        ],
        "city": "WHITEHALL",
        "state": "MI",
        "postalCode": "49461-9656"
      },
      {
        "line": [
          "5784 Highland Rd."
        ],
        "city": "Waterford",
        "state": "MI",
        "postalCode": "48327-1826"
      },
      {
        "line": [
          "29601 Amerihost Dr"
        ],
        "city": "DOWAGIAC",
        "state": "MI",
        "postalCode": "49047-8320"
      },
      {
        "line": [
          "677 Hazen"
        ],
        "city": "PAW PAW",
        "state": "MI",
        "postalCode": "49079-1010"
      },
      {
        "line": [
          "4124 Waldo Ave"
        ],
        "city": "MIDLAND",
        "state": "MI",
        "postalCode": "48642-6514"
      },
      {
        "line": [
          "2378 S. Lincoln Rd"
        ],
        "city": "MOUNT PLEASANT",
        "state": "MI",
        "postalCode": "48858-8048"
      },
      {
        "line": [
          "3932 Monitor Rd"
        ],
        "city": "BAY CITY",
        "state": "MI",
        "postalCode": "48706-9298"
      },
      {
        "line": [
          "101 Devonshire Dr"
        ],
        "city": "LAPEER",
        "state": "MI",
        "postalCode": "48446-2855"
      },
      {
        "line": [
          "150 Meadow Lane"
        ],
        "city": "BAD AXE",
        "state": "MI",
        "postalCode": "48413-9364"
      },
      {
        "line": [
          "445 N Lotz Rd"
        ],
        "city": "CANTON",
        "state": "MI",
        "postalCode": "48187-4424"
      },
      {
        "line": [
          "707 W Argyle Ave"
        ],
        "city": "SANDUSKY",
        "state": "MI",
        "postalCode": "48471-1081"
      },
      {
        "line": [
          "5701 Bow Pointe Dr Ste 100"
        ],
        "city": "Clarkston",
        "state": "MI",
        "postalCode": "48346-3199"
      },
      {
        "line": [
          "1310 W. Oliver St"
        ],
        "city": "OWOSSO",
        "state": "MI",
        "postalCode": "48867-2156"
      },
      {
        "line": [
          "4276 Kroger Dr"
        ],
        "city": "SWARTZ CREEK",
        "state": "MI",
        "postalCode": "48473-1625"
      },
      {
        "line": [
          "3145 West Mt. Hope Ave"
        ],
        "city": "LANSING",
        "state": "MI",
        "postalCode": "48911-1665"
      },
      {
        "line": [
          "502 N Sherman St"
        ],
        "city": "LUDINGTON",
        "state": "MI",
        "postalCode": "49431-1989"
      },
      {
        "line": [
          "1320 Pine Ave"
        ],
        "city": "ALMA",
        "state": "MI",
        "postalCode": "48801-1243"
      },
      {
        "line": [
          "1821 N East St"
        ],
        "city": "Hastings",
        "state": "MI",
        "postalCode": "49058-1367"
      },
      {
        "line": [
          "706 Kentucky Ave"
        ],
        "city": "SOUTH HAVEN",
        "state": "MI",
        "postalCode": "49090-9607"
      },
      {
        "line": [
          "620 Ely street"
        ],
        "city": "ALLEGAN",
        "state": "MI",
        "postalCode": "49010-1514"
      },
      {
        "line": [
          "1507 Glastonbury Dr"
        ],
        "city": "SAINT JOHNS",
        "state": "MI",
        "postalCode": "48879-8235"
      },
      {
        "line": [
          "9494 Paden Rd"
        ],
        "city": "LAKEVIEW",
        "state": "MI",
        "postalCode": "48850-9167"
      }
    ],
    "extension": [
      {
        "url": "https://fhir.athena.io/StructureDefinition/ah-practice",
        "valueReference": {
          "reference": "Organization/a-1.Practice-3928"
        }
      },
      {
        "url": "https://fhir.athena.io/StructureDefinition/ah-brand",
        "valueReference": {
          "reference": "Organization/a-3928.Brand-1"
        }
      }
    ]
  },
  "fullUrl": "urn:uuid:884f918e-3670-516f-a5b4-b29039eed9f5"
}