{
  "resource": {
    "resourceType": "Organization",
    "id": "01dcc29f-8240-53b9-b5fb-04e56e658b33",
    "name": "ARCH OF SPOKANE",
    "endpoint": [
      {
        "reference": "Endpoint/27a4e967-47aa-5a9c-a572-b8297ee268a2"
      },
      {
        "reference": "Endpoint/5f0e0e32-7239-5790-99a6-a93d81da62b3"
      }
    ],
    "identifier": [
      {
        "system": "http://hl7.org/fhir/sid/us-npi",
        "value": "1952942096"
      }
    ],
    "address": [
      {
        "line": [
          "12322 N RUBY"
        ],
        "city": "SPOKANE",
        "state": "WA",
        "postalCode": "99218-3606"
      },
      {
        "line": [
          "601 S PARK RD"
        ],
        "city": "SPOKANE",
        "state": "WA",
        "postalCode": "99212-0593"
      },
      {
        "line": [
          "2929 S WATERFORD DR"
        ],
        "city": "SPOKANE",
        "state": "WA",
        "postalCode": "99203-4400"
      },
      {
        "line": [
          "1110 E WESTVIEW CT"
        ],
        "city": "SPOKANE",
        "state": "WA",
        "postalCode": "99218-1326"
      },
      {
        "line": [
          "5925 S HAILEE LANE"
        ],
        "city": "SPOKANE",
        "state": "WA",
        "postalCode": "99223-7229"
      },
      {
        "line": [
          "5401 S REGAL ST"
        ],
        "city": "SPOKANE",
        "state": "WA",
        "postalCode": "99223-8174"
      },
      {
        "line": [
          "9116 E SPRAGUE AVE NO.464"
        ],
        "city": "SPOKANE",
        "state": "WA",
        "postalCode": "99206-3601"
      },
      {
        "line": [
          "7122 JENNIE LN"
        ],
        "city": "SPOKANE",
        "state": "WA",
        "postalCode": "99212-3085"
      },
      {
        "line": [
          "3117 E CHASER LN"
        ],
        "city": "SPOKANE",
        "state": "WA",
        "postalCode": "99223-7271"
      },
      {
        "line": [
          "5329 W. RIFLE CLUB COURT"
        ],
        "city": "SPOKANE",
        "state": "WA",
        "postalCode": "99208-9065"
      },
      {
        "line": [
          "4918 E 6TH AVE"
        ],
        "city": "SPOKANE",
        "state": "WA",
        "postalCode": "99212-0317"
      },
      {
        "line": [
          "1308 N. VERCLER"
        ],
        "city": "SPOKANE",
        "state": "WA",
        "postalCode": "99216-1042"
      },
      {
        "line": [
          "3708 E 57TH AVE"
        ],
        "city": "SPOKANE",
        "state": "WA",
        "postalCode": "99223-8001"
      },
      {
        "line": [
          "12009 E MISSION"
        ],
        "city": "SPOKANE",
        "state": "WA",
        "postalCode": "99206-4887"
      },
      {
        "line": [
          "9220 S WILLIAMS LN"
        ],
        "city": "SPOKANE",
        "state": "WA",
        "postalCode": "99224-7405"
      },
      {
        "line": [
          "3827 W INDIAN TRAIL RD"
        ],
        "city": "SPOKANE",
        "state": "WA",
        "postalCode": "99208-4737"
      }
    ],
    "extension": [
      {
        "url": "https://fhir.athena.io/StructureDefinition/ah-practice",
        "valueReference": {
          "reference": "Organization/a-1.Practice-20305"
        }
      },
      {
        "url": "https://fhir.athena.io/StructureDefinition/ah-brand",
        "valueReference": {
          "reference": "Organization/a-20305.Brand-1"
        }
      }
    ]
  },
  "fullUrl": "urn:uuid:01dcc29f-8240-53b9-b5fb-04e56e658b33"
}