{
  "resource": {
    "resourceType": "Organization",
    "id": "5adc4f2e-7f58-53f9-9072-0ec97fc693d8",
    "name": "Western Carolina Physician Practice",
    "endpoint": [
      {
        "reference": "Endpoint/27a4e967-47aa-5a9c-a572-b8297ee268a2"
      },
      {
        "reference": "Endpoint/048b27f9-832e-5c17-9835-e55a5a91e6cc"
      }
    ],
    "identifier": [
      {
        "system": "http://hl7.org/fhir/sid/us-npi",
        "value": "1609281641"
      },
      {
        "system": "http://hl7.org/fhir/sid/us-npi",
        "value": "1811158215"
      },
      {
        "system": "http://hl7.org/fhir/sid/us-npi",
        "value": "1609279330"
      },
      {
        "system": "http://hl7.org/fhir/sid/us-npi",
        "value": "1407962046"
      },
      {
        "system": "http://hl7.org/fhir/sid/us-npi",
        "value": "1689780249"
      }
    ],
    "address": [
      {
        "line": [
          "262 Leroy George Drive"
        ],
        "city": "CLYDE",
        "state": "NC",
        "postalCode": "28721-7430"
      },
      {
        "line": [
          "100 SILVER BLUFF DR"
        ],
        "city": "CANTON",
        "state": "NC",
        "postalCode": "28716-6350"
      },
      {
        "line": [
          "35 Facility Dr"
        ],
        "city": "CLYDE",
        "state": "NC",
        "postalCode": "28721-9438"
      },
      {
        "line": [
          "68 Hospital Rd"
        ],
        "city": "SYLVA",
        "state": "NC",
        "postalCode": "28779-2722"
      },
      {
        "line": [
          "123A Acton Circle"
        ],
        "city": "ASHEVILLE",
        "state": "NC",
        "postalCode": "28806-1043"
      },
      {
        "line": [
          "262 Leroy George Dr"
        ],
        "city": "CLYDE",
        "state": "NC",
        "postalCode": "28721-7430"
      },
      {
        "line": [
          "288 S. Ridgecrest Ave"
        ],
        "city": "RUTHERFORDTON",
        "state": "NC",
        "postalCode": "28139-2838"
      },
      {
        "line": [
          "186 Medical Park Loop Ste 503"
        ],
        "city": "SYLVA",
        "state": "NC",
        "postalCode": "28779-4110"
      },
      {
        "line": [
          "560 Leroy George Dr."
        ],
        "city": "CLYDE",
        "state": "NC",
        "postalCode": "28721-7430"
      },
      {
        "line": [
          "100 Silver Bluff Drive"
        ],
        "city": "CANTON",
        "state": "NC",
        "postalCode": "28716-6350"
      },
      {
        "line": [
          "68 Hospital Road"
        ],
        "city": "SYLVA",
        "state": "NC",
        "postalCode": "28779-2722"
      },
      {
        "line": [
          "262 LEROY GEORGE DR"
        ],
        "city": "CLYDE",
        "state": "NC",
        "postalCode": "28721-7430"
      },
      {
        "line": [
          "55 Holly Springs Park Drive"
        ],
        "city": "FRANKLIN",
        "state": "NC",
        "postalCode": "28734-0719"
      },
      {
        "line": [
          "262 leroy George Drive"
        ],
        "city": "CLYDE",
        "state": "NC",
        "postalCode": "28721-7430"
      },
      {
        "line": [
          "14 MEDICAL PARK LOOP"
        ],
        "city": "SYLVA",
        "state": "NC",
        "postalCode": "28779-5221"
      },
      {
        "line": [
          "1830 Lakeside Dr"
        ],
        "city": "FRANKLIN",
        "state": "NC",
        "postalCode": "28734-6778"
      },
      {
        "line": [
          "55 Buckeye Cove Rd"
        ],
        "city": "CANTON",
        "state": "NC",
        "postalCode": "28716-4511"
      },
      {
        "line": [
          "176 Walmart Plaza"
        ],
        "city": "SYLVA",
        "state": "NC",
        "postalCode": "28779-5808"
      },
      {
        "line": [
          "556 Hazelwood Avenue"
        ],
        "city": "WAYNESVILLE",
        "state": "NC",
        "postalCode": "28786-2067"
      },
      {
        "line": [
          "262 Leroy George Dr"
        ],
        "city": "CLYDE",
        "state": "NC",
        "postalCode": "28721-7400"
      },
      {
        "line": [
          "560 LEROY GEORGE DR"
        ],
        "city": "CLYDE",
        "state": "NC",
        "postalCode": "28721-7408"
      },
      {
        "line": [
          "98 DOCTORS DRIVE STE 310"
        ],
        "city": "SYLVA",
        "state": "NC",
        "postalCode": "28779-4503"
      },
      {
        "line": [
          "420 N. Center Street"
        ],
        "city": "HICKORY",
        "state": "NC",
        "postalCode": "28601-5046"
      },
      {
        "line": [
          "24 Falcon Crest Lane"
        ],
        "city": "CLYDE",
        "state": "NC",
        "postalCode": "28721-6620"
      },
      {
        "line": [
          "NA"
        ],
        "city": "BRYSON CITY",
        "state": "NC",
        "postalCode": "28713-4517"
      },
      {
        "line": [
          "470 Center Street, Suite 300"
        ],
        "city": "BRYSON CITY",
        "state": "NC",
        "postalCode": "28713-7752"
      },
      {
        "line": [
          "NA"
        ],
        "city": "WAYNESVILLE",
        "state": "NC",
        "postalCode": "28786-3437"
      },
      {
        "line": [
          "NA"
        ],
        "city": "FRANKLIN",
        "state": "NC",
        "postalCode": "28734-0719"
      },
      {
        "line": [
          "556 Hazelwood Ave"
        ],
        "city": "WAYNESVILLE",
        "state": "NC",
        "postalCode": "28786-2067"
      },
      {
        "line": [
          "55 BUCKEYE COVE RD",
          "STE 200A"
        ],
        "city": "CANTON",
        "state": "NC",
        "postalCode": "28716-4516"
      }
    ],
    "extension": [
      {
        "url": "https://fhir.athena.io/StructureDefinition/ah-practice",
        "valueReference": {
          "reference": "Organization/a-1.Practice-9865"
        }
      },
      {
        "url": "https://fhir.athena.io/StructureDefinition/ah-brand",
        "valueReference": {
          "reference": "Organization/a-9865.Brand-1"
        }
      }
    ]
  },
  "fullUrl": "urn:uuid:5adc4f2e-7f58-53f9-9072-0ec97fc693d8"
}