{
  "resource": {
    "resourceType": "Organization",
    "id": "00fb3c22-fe6e-59c7-a3cd-736452029f0c",
    "name": "Clay County Medical Investors LLC Life Care Center",
    "endpoint": [
      {
        "reference": "Endpoint/27a4e967-47aa-5a9c-a572-b8297ee268a2"
      },
      {
        "reference": "Endpoint/e66c628f-e611-5fe2-83b4-0f4ac9c07673"
      }
    ],
    "identifier": [
      {
        "system": "http://hl7.org/fhir/sid/us-npi",
        "value": "1487954723"
      },
      {
        "system": "http://hl7.org/fhir/sid/us-npi",
        "value": "1184171605"
      },
      {
        "system": "http://hl7.org/fhir/sid/us-npi",
        "value": "1285182659"
      }
    ],
    "address": [
      {
        "line": [
          "1895 Kingsley ave",
          "Suite 1005"
        ],
        "city": "ORANGE PARK",
        "state": "FL",
        "postalCode": "32073-4466"
      },
      {
        "line": [
          "2255 CENTERVILLE RD"
        ],
        "city": "TALLAHASSEE",
        "state": "FL",
        "postalCode": "32308-4315"
      },
      {
        "line": [
          "1280 Henley ROad"
        ],
        "city": "MIDDLEBURG",
        "state": "FL",
        "postalCode": "32068-7886"
      },
      {
        "line": [
          "4101 Southpoint Dr E"
        ],
        "city": "JACKSONVILLE",
        "state": "FL",
        "postalCode": "32216-0996"
      },
      {
        "line": [
          "2001 Kingsley Ave"
        ],
        "city": "ORANGE PARK",
        "state": "FL",
        "postalCode": "32073-9999"
      },
      {
        "line": [
          "1 Shircliff Way"
        ],
        "city": "JACKSONVILLE",
        "state": "FL",
        "postalCode": "32204-4748"
      },
      {
        "line": [
          "10660 Old St Augustine rd"
        ],
        "city": "JACKSONVILLE",
        "state": "FL",
        "postalCode": "32257-1076"
      },
      {
        "line": [
          "730 College St"
        ],
        "city": "JACKSONVILLE",
        "state": "FL",
        "postalCode": "32204-3313"
      },
      {
        "line": [
          "1604 MARGARET ST"
        ],
        "city": "JACKSONVILLE",
        "state": "FL",
        "postalCode": "32204-3824"
      },
      {
        "line": [
          "3305 HENDRICKS AVE"
        ],
        "city": "JACKSONVILLE",
        "state": "FL",
        "postalCode": "32207-5301"
      },
      {
        "line": [
          "9601 Southbrook Dr"
        ],
        "city": "JACKSONVILLE",
        "state": "FL",
        "postalCode": "32256-0601"
      },
      {
        "line": [
          "1504 Seabreeze Ave"
        ],
        "city": "JACKSONVILLE BEACH",
        "state": "FL",
        "postalCode": "32250-3365"
      },
      {
        "line": [
          "2000 PRINCIPAL LN"
        ],
        "city": "FORT WALTON BEACH",
        "state": "FL",
        "postalCode": "32547-6636"
      },
      {
        "line": [
          "3010 E 138th ave",
          "100"
        ],
        "city": "TAMPA",
        "state": "FL",
        "postalCode": "33613-3904"
      },
      {
        "line": [
          "2145 Kingsley Ave"
        ],
        "city": "ORANGE PARK",
        "state": "FL",
        "postalCode": "32073-5151"
      },
      {
        "line": [
          "1895 Kingsley Ave Suite #903"
        ],
        "city": "ORANGE PARK",
        "state": "FL",
        "postalCode": "32073-4466"
      },
      {
        "line": [
          "5355 DOLPHIN POINT BLVD"
        ],
        "city": "JACKSONVILLE",
        "state": "FL",
        "postalCode": "32211-3221"
      },
      {
        "line": [
          "1650 Fouraker Road"
        ],
        "city": "JACKSONVILLE",
        "state": "FL",
        "postalCode": "32221-6725"
      },
      {
        "line": [
          "1895 Kingsley Ave Suite 903"
        ],
        "city": "ORANGE PARK",
        "state": "FL",
        "postalCode": "32073-9999"
      },
      {
        "line": [
          "1350 13TH AVE S"
        ],
        "city": "JACKSONVILLE BEACH",
        "state": "FL",
        "postalCode": "32250-3203"
      },
      {
        "line": [
          "1895 Kingsley AVE",
          "Ste 1005"
        ],
        "city": "ORANGE PARK",
        "state": "FL",
        "postalCode": "32073-4466"
      },
      {
        "line": [
          "725 SKYMARKS DR STE 6A"
        ],
        "city": "JACKSONVILLE",
        "state": "FL",
        "postalCode": "32218-7299"
      },
      {
        "line": [
          "1280 Henley Road"
        ],
        "city": "MIDDLEBURG",
        "state": "FL",
        "postalCode": "32068-7886"
      },
      {
        "line": [
          "2029 PROFESSIONAL CENTER DR"
        ],
        "city": "ORANGE PARK",
        "state": "FL",
        "postalCode": "32073-4461"
      }
    ],
    "extension": [
      {
        "url": "https://fhir.athena.io/StructureDefinition/ah-practice",
        "valueReference": {
          "reference": "Organization/a-1.Practice-14736"
        }
      },
      {
        "url": "https://fhir.athena.io/StructureDefinition/ah-brand",
        "valueReference": {
          "reference": "Organization/a-14736.Brand-1"
        }
      }
    ]
  },
  "fullUrl": "urn:uuid:00fb3c22-fe6e-59c7-a3cd-736452029f0c"
}