{
  "resource": {
    "resourceType": "Organization",
    "id": "eb1661f2-1c00-5cbc-a408-306816899752",
    "name": "EAST GEORGIA PHYSICIAN MGMNT LLC",
    "endpoint": [
      {
        "reference": "Endpoint/27a4e967-47aa-5a9c-a572-b8297ee268a2"
      },
      {
        "reference": "Endpoint/6853ddd4-f031-5d6d-a266-a4fd08567774"
      }
    ],
    "identifier": [
      {
        "system": "http://hl7.org/fhir/sid/us-npi",
        "value": "1487983151"
      }
    ],
    "address": [
      {
        "line": [
          "200 N RIVER ST"
        ],
        "city": "CLAXTON",
        "state": "GA",
        "postalCode": "30417-1659"
      },
      {
        "line": [
          "658 Northside E",
          "SUITE A"
        ],
        "city": "STATESBORO",
        "state": "GA",
        "postalCode": "30458-4828"
      },
      {
        "line": [
          "114 HILL POND LN"
        ],
        "city": "STATESBORO",
        "state": "GA",
        "postalCode": "30458-0872"
      },
      {
        "line": [
          "1601 FAIR RD STE 600"
        ],
        "city": "STATESBORO",
        "state": "GA",
        "postalCode": "30458-0800"
      },
      {
        "line": [
          "1499 FAIR RD"
        ],
        "city": "STATESBORO",
        "state": "GA",
        "postalCode": "30458-1683"
      },
      {
        "line": [
          "1499 Fair RD"
        ],
        "city": "STATESBORO",
        "state": "GA",
        "postalCode": "30458-1683"
      },
      {
        "line": [
          "4001 Cane Ridge Parkway"
        ],
        "city": "ANTIOCH",
        "state": "TN",
        "postalCode": "37013-2971"
      },
      {
        "line": [
          "400 CEDAR ST"
        ],
        "city": "METTER",
        "state": "GA",
        "postalCode": "30439-3338"
      },
      {
        "line": [
          "1497 FAIR RD STE 102"
        ],
        "city": "STATESBORO",
        "state": "GA",
        "postalCode": "30458-0823"
      },
      {
        "line": [
          "1449 Brampton AVE"
        ],
        "city": "STATESBORO",
        "state": "GA",
        "postalCode": "30458-0854"
      },
      {
        "line": [
          "1497 FAIR RD Suite 102"
        ],
        "city": "STATESBORO",
        "state": "GA",
        "postalCode": "30458-0823"
      },
      {
        "line": [
          "4451 COUNTRY CLUB RD",
          "SUITE 3A"
        ],
        "city": "STATESBORO",
        "state": "GA",
        "postalCode": "30458-9238"
      },
      {
        "line": [
          "1011 Main Street"
        ],
        "city": "SPRING HILL",
        "state": "TN",
        "postalCode": "37174-4531"
      },
      {
        "line": [
          "1449 BRAMPTON AVE."
        ],
        "city": "STATESBORO",
        "state": "GA",
        "postalCode": "30458-0854"
      },
      {
        "line": [
          "1058 Bermuda Run Road"
        ],
        "city": "STATESBORO",
        "state": "GA",
        "postalCode": "30458-0858"
      },
      {
        "line": [
          "400 Cedar ST"
        ],
        "city": "METTER",
        "state": "GA",
        "postalCode": "30439-3338"
      },
      {
        "line": [
          "1449 Brampton AVE"
        ],
        "city": "STATESBORO",
        "state": "GA",
        "postalCode": "30458-0824"
      }
    ],
    "extension": [
      {
        "url": "https://fhir.athena.io/StructureDefinition/ah-practice",
        "valueReference": {
          "reference": "Organization/a-1.Practice-8824"
        }
      },
      {
        "url": "https://fhir.athena.io/StructureDefinition/ah-brand",
        "valueReference": {
          "reference": "Organization/a-8824.Brand-1"
        }
      }
    ]
  },
  "fullUrl": "urn:uuid:eb1661f2-1c00-5cbc-a408-306816899752"
}