{
  "resource": {
    "resourceType": "Organization",
    "id": "2dda7fba-9dee-59bc-a113-c31eae4c2df9",
    "name": "Vernick and Gopal",
    "endpoint": [
      {
        "reference": "Endpoint/27a4e967-47aa-5a9c-a572-b8297ee268a2"
      },
      {
        "reference": "Endpoint/20ed3126-982d-5ed8-8de4-a144c451e7bf"
      }
    ],
    "identifier": [
      {
        "system": "http://hl7.org/fhir/sid/us-npi",
        "value": "1427178052"
      }
    ],
    "address": [
      {
        "line": [
          "482 BEDFORD ST"
        ],
        "city": "LEXINGTON",
        "state": "MA",
        "postalCode": "02420-1402"
      },
      {
        "line": [
          "300 LONGWOOD"
        ],
        "city": "BOSTON",
        "state": "MA",
        "postalCode": "02215-5737"
      },
      {
        "line": [
          "330 Brookline Ave"
        ],
        "city": "BOSTON",
        "state": "MA",
        "postalCode": "02215-5400"
      },
      {
        "line": [
          "1244 BOYLSTON ST STE 303"
        ],
        "city": "CHESTNUT HILL",
        "state": "MA",
        "postalCode": "02467-2115"
      },
      {
        "line": [
          "243 CHARLEST ST"
        ],
        "city": "BOSTON",
        "state": "MA",
        "postalCode": "02114-3002"
      },
      {
        "line": [
          "330 BROOKLINE AVE"
        ],
        "city": "BOSTON",
        "state": "MA",
        "postalCode": "02215-5400"
      },
      {
        "line": [
          "75 FRANCIS ST"
        ],
        "city": "BOSTON",
        "state": "MA",
        "postalCode": "02115-6110"
      },
      {
        "line": [
          "736 CAMBRIDGE ST"
        ],
        "city": "BRIGHTON",
        "state": "MA",
        "postalCode": "02135-2907"
      }
    ],
    "extension": [
      {
        "url": "https://fhir.athena.io/StructureDefinition/ah-practice",
        "valueReference": {
          "reference": "Organization/a-1.Practice-21429"
        }
      },
      {
        "url": "https://fhir.athena.io/StructureDefinition/ah-brand",
        "valueReference": {
          "reference": "Organization/a-21429.Brand-1"
        }
      }
    ]
  },
  "fullUrl": "urn:uuid:2dda7fba-9dee-59bc-a113-c31eae4c2df9"
}