{
  "resource": {
    "resourceType": "Organization",
    "id": "754e17fc-beba-5ac0-a7e9-d57d84556c5d",
    "name": "Merit Health Medical Group",
    "endpoint": [
      {
        "reference": "Endpoint/27a4e967-47aa-5a9c-a572-b8297ee268a2"
      },
      {
        "reference": "Endpoint/b0e1b73d-b320-5fec-bfb1-c28c9954b8af"
      }
    ],
    "identifier": [
      {
        "system": "http://hl7.org/fhir/sid/us-npi",
        "value": "1154608883"
      }
    ],
    "address": [
      {
        "line": [
          "303 TEQUESTA DR"
        ],
        "city": "DESTIN",
        "state": "FL",
        "postalCode": "32541-5715"
      },
      {
        "line": [
          "8681 E SWEETWATER AVE"
        ],
        "city": "SCOTTSDALE",
        "state": "AZ",
        "postalCode": "85260-4111"
      },
      {
        "line": [
          "223 24th St"
        ],
        "city": "SANTA MONICA",
        "state": "CA",
        "postalCode": "90402-2515"
      },
      {
        "line": [
          "11650 HORIZON RD"
        ],
        "city": "PARKLAND",
        "state": "FL",
        "postalCode": "33076-2661"
      },
      {
        "line": [
          "224 E 24TH PL"
        ],
        "city": "TULSA",
        "state": "OK",
        "postalCode": "74114-2606"
      },
      {
        "line": [
          "191 EVEREST DR"
        ],
        "city": "IRWIN",
        "state": "PA",
        "postalCode": "15642-2713"
      },
      {
        "line": [
          "1225 NORTH  STATE STREET SUITE 2C"
        ],
        "city": "JACKSON",
        "state": "MS",
        "postalCode": "39202-2064"
      },
      {
        "line": [
          "74 FORSTER AVE"
        ],
        "city": "MOUNT VERNON",
        "state": "NY",
        "postalCode": "10552-3409"
      },
      {
        "line": [
          "13152 RIVERVIEW CV"
        ],
        "city": "DIBERVILLE",
        "state": "MS",
        "postalCode": "39540-8403"
      },
      {
        "line": [
          "5382 72ND PL"
        ],
        "city": "MASPETH",
        "state": "NY",
        "postalCode": "11378-1518"
      },
      {
        "line": [
          "338 S GREAT RD"
        ],
        "city": "LINCOLN",
        "state": "MA",
        "postalCode": "01773-4305"
      },
      {
        "line": [
          "11711 DOMAIN DR APT 1475"
        ],
        "city": "AUSTIN",
        "state": "TX",
        "postalCode": "78758-0043"
      },
      {
        "line": [
          "2969 ORCHARD PL"
        ],
        "city": "ORCHARD LAKE",
        "state": "MI",
        "postalCode": "48324-2362"
      },
      {
        "line": [
          "10801 BARBADOS ISLE DR"
        ],
        "city": "TAMPA",
        "state": "FL",
        "postalCode": "33647-2792"
      },
      {
        "line": [
          "212 STOREY AVE"
        ],
        "city": "SAINT MARYS",
        "state": "GA",
        "postalCode": "31558-4196"
      },
      {
        "line": [
          "574 RIPPLE LN"
        ],
        "city": "OWENS CROSS ROADS",
        "state": "AL",
        "postalCode": "35763-8408"
      },
      {
        "line": [
          "7 COLONEL WILKINS RD"
        ],
        "city": "AMHERST",
        "state": "NH",
        "postalCode": "03031-3060"
      },
      {
        "line": [
          "11253 S Apopka Vineland RD"
        ],
        "city": "ORLANDO",
        "state": "FL",
        "postalCode": "32836-6110"
      },
      {
        "line": [
          "1225 N STATE ST STE 2C"
        ],
        "city": "JACKSON",
        "state": "MS",
        "postalCode": "39202-2064"
      },
      {
        "line": [
          "17161 FRIML LN"
        ],
        "city": "HUNTINGTON BEACH",
        "state": "CA",
        "postalCode": "92649-4510"
      },
      {
        "line": [
          "10 GOLDFINCH CIR"
        ],
        "city": "PHOENIXVILLE",
        "state": "PA",
        "postalCode": "19460-1061"
      },
      {
        "line": [
          "525 BROOKMAN DR"
        ],
        "city": "BROOKHAVEN",
        "state": "MS",
        "postalCode": "39601-2326"
      },
      {
        "line": [
          "2412 LAKE DR SE"
        ],
        "city": "GRAND RAPIDS",
        "state": "MI",
        "postalCode": "49506-3162"
      },
      {
        "line": [
          "1401 GREENWAY CV"
        ],
        "city": "OXFORD",
        "state": "MS",
        "postalCode": "38655-9710"
      },
      {
        "line": [
          "4901 PINEHURST DR"
        ],
        "city": "FRISCO",
        "state": "TX",
        "postalCode": "75034-6843"
      },
      {
        "line": [
          "4540 MANHATTAN RD"
        ],
        "city": "JACKSON",
        "state": "MS",
        "postalCode": "39206-6022"
      },
      {
        "line": [
          "150 REYNOIR ST"
        ],
        "city": "BILOXI",
        "state": "MS",
        "postalCode": "39530-4130"
      },
      {
        "line": [
          "9521 MALLORY RD"
        ],
        "city": "NEW HARTFORD",
        "state": "NY",
        "postalCode": "13413-3819"
      },
      {
        "line": [
          "607 N 41ST ST"
        ],
        "city": "ALLENTOWN",
        "state": "PA",
        "postalCode": "18104-4560"
      },
      {
        "line": [
          "2806 MEADOWVIEW CT"
        ],
        "city": "TARPON SPRINGS",
        "state": "FL",
        "postalCode": "34688-7364"
      },
      {
        "line": [
          "927 COOPER RD"
        ],
        "city": "JACKSON",
        "state": "MS",
        "postalCode": "39212-4023"
      },
      {
        "line": [
          "1850 CHADWICK DR"
        ],
        "city": "JACKSON",
        "state": "MS",
        "postalCode": "39204-3404"
      },
      {
        "line": [
          "1225 NORTH STATE STREET SUITE 2C"
        ],
        "city": "JACKSON",
        "state": "MS",
        "postalCode": "39202-2064"
      },
      {
        "line": [
          "136 CLEARWATER LN"
        ],
        "city": "MOORESVILLE",
        "state": "NC",
        "postalCode": "28117-7529"
      },
      {
        "line": [
          "45-021 LIKEKE PL"
        ],
        "city": "KANEOHE",
        "state": "HI",
        "postalCode": "96744-2426"
      },
      {
        "line": [
          "3680 LAKELAND LN"
        ],
        "city": "JACKSON",
        "state": "MS",
        "postalCode": "39216-4707"
      },
      {
        "line": [
          "1116 FOREST AVE"
        ],
        "city": "JACKSON",
        "state": "MS",
        "postalCode": "39206-3216"
      },
      {
        "line": [
          "11515 S GRANITE AVE"
        ],
        "city": "TULSA",
        "state": "OK",
        "postalCode": "74137-7763"
      },
      {
        "line": [
          "11650 HORIZON RD"
        ],
        "city": "POMPANO BEACH",
        "state": "FL",
        "postalCode": "33076-2661"
      },
      {
        "line": [
          "26815 WEDGEWATER CREST LN"
        ],
        "city": "KATY",
        "state": "TX",
        "postalCode": "77494-3594"
      },
      {
        "line": [
          "1248 S HARBOR CITY BLVD"
        ],
        "city": "MELBOURNE",
        "state": "FL",
        "postalCode": "32901-3242"
      },
      {
        "line": [
          "1619 Wagon Drive"
        ],
        "city": "ALEXANDRIA",
        "state": "VA",
        "postalCode": "22303-2655"
      },
      {
        "line": [
          "1225 N STATE ST STE 2C"
        ],
        "city": "JACKSON",
        "state": "MS",
        "postalCode": "39202-2073"
      },
      {
        "line": [
          "1140 40TH ST"
        ],
        "city": "SACRAMENTO",
        "state": "CA",
        "postalCode": "95819-3615"
      },
      {
        "line": [
          "415 MARION AVE"
        ],
        "city": "MCCOMB",
        "state": "MS",
        "postalCode": "39648-2709"
      },
      {
        "line": [
          "11253 S APOPKA VINELAND RD"
        ],
        "city": "ORLANDO",
        "state": "FL",
        "postalCode": "32836-6110"
      },
      {
        "line": [
          "3434 CLUB ESTATES DR"
        ],
        "city": "CARMEL",
        "state": "IN",
        "postalCode": "46033-8118"
      },
      {
        "line": [
          "161 RIVER OAKS DR"
        ],
        "city": "CANTON",
        "state": "MS",
        "postalCode": "39046-5375"
      },
      {
        "line": [
          "4401 WHISPERING CREEK DR"
        ],
        "city": "SAND SPRINGS",
        "state": "OK",
        "postalCode": "74063-3173"
      },
      {
        "line": [
          "4787 CONCORDIA DR"
        ],
        "city": "BRYAN",
        "state": "TX",
        "postalCode": "77802-6108"
      },
      {
        "line": [
          "350 CROSSGATES BLVD"
        ],
        "city": "BRANDON",
        "state": "MS",
        "postalCode": "39042-2601"
      },
      {
        "line": [
          "1423 ESTUARY TRL"
        ],
        "city": "DELRAY BEACH",
        "state": "FL",
        "postalCode": "33483-5941"
      },
      {
        "line": [
          "521 E JONES ST"
        ],
        "city": "RALEIGH",
        "state": "NC",
        "postalCode": "27601-1137"
      },
      {
        "line": [
          "355 CROSSGATES BLVD"
        ],
        "city": "BRANDON",
        "state": "MS",
        "postalCode": "39042-2602"
      },
      {
        "line": [
          "435 NAKOMA DR"
        ],
        "city": "ROCKWALL",
        "state": "TX",
        "postalCode": "75087-0087"
      },
      {
        "line": [
          "9521 Mallory RD"
        ],
        "city": "NEW HARTFORD",
        "state": "NY",
        "postalCode": "13413-3819"
      },
      {
        "line": [
          "5001 HARDY ST"
        ],
        "city": "HATTIESBURG",
        "state": "MS",
        "postalCode": "39402-1308"
      },
      {
        "line": [
          "1010 QUAIL RUN"
        ],
        "city": "CAMDEN WYOMING",
        "state": "DE",
        "postalCode": "19934-9509"
      },
      {
        "line": [
          "10 TORREY PINES LN"
        ],
        "city": "NEWPORT BEACH",
        "state": "CA",
        "postalCode": "92660-5139"
      },
      {
        "line": [
          "102 WOODCHASE PARK"
        ],
        "city": "CLINTON",
        "state": "MS",
        "postalCode": "39056-4113"
      },
      {
        "line": [
          "503 SILVER CROSS DR"
        ],
        "city": "BROOKHAVEN",
        "state": "MS",
        "postalCode": "39601-2388"
      },
      {
        "line": [
          "223 24TH ST"
        ],
        "city": "SANTA MONICA",
        "state": "CA",
        "postalCode": "90402-2515"
      },
      {
        "line": [
          "521 E Jones St"
        ],
        "city": "RALEIGH",
        "state": "NC",
        "postalCode": "27601-1137"
      },
      {
        "line": [
          "1900 CHADWICK DR"
        ],
        "city": "JACKSON",
        "state": "MS",
        "postalCode": "39204-3406"
      }
    ],
    "extension": [
      {
        "url": "https://fhir.athena.io/StructureDefinition/ah-practice",
        "valueReference": {
          "reference": "Organization/a-1.Practice-4695"
        }
      },
      {
        "url": "https://fhir.athena.io/StructureDefinition/ah-brand",
        "valueReference": {
          "reference": "Organization/a-4695.Brand-9"
        }
      }
    ]
  },
  "fullUrl": "urn:uuid:754e17fc-beba-5ac0-a7e9-d57d84556c5d"
}