{
  "resource": {
    "resourceType": "Organization",
    "id": "ccee025d-8d54-5484-a076-6aa20bf40678",
    "name": "ELEOS Cognitive Center",
    "endpoint": [
      {
        "reference": "Endpoint/27a4e967-47aa-5a9c-a572-b8297ee268a2"
      },
      {
        "reference": "Endpoint/6d725911-db4a-5a4a-8080-438861a1b5a8"
      }
    ],
    "identifier": [
      {
        "system": "http://hl7.org/fhir/sid/us-npi",
        "value": "1437595873"
      },
      {
        "system": "http://hl7.org/fhir/sid/us-npi",
        "value": "1033204235"
      }
    ],
    "address": [
      {
        "line": [
          "651 N MAIN ST"
        ],
        "city": "POMONA",
        "state": "CA",
        "postalCode": "91768-3110"
      },
      {
        "line": [
          "11162 PALM TERRACE LN"
        ],
        "city": "RIVERSIDE",
        "state": "CA",
        "postalCode": "92505-2338"
      },
      {
        "line": [
          "24100 Monroe Ave"
        ],
        "city": "MURRIETA",
        "state": "CA",
        "postalCode": "92562-9507"
      },
      {
        "line": [
          "3766 NYE AVE"
        ],
        "city": "RIVERSIDE",
        "state": "CA",
        "postalCode": "92505-1867"
      },
      {
        "line": [
          "1875 BARTON RD"
        ],
        "city": "REDLANDS",
        "state": "CA",
        "postalCode": "92373-5308"
      },
      {
        "line": [
          "4000 HARRISON ST"
        ],
        "city": "RIVERSIDE",
        "state": "CA",
        "postalCode": "92503-3514"
      },
      {
        "line": [
          "21222 DAWES ST"
        ],
        "city": "PERRIS",
        "state": "CA",
        "postalCode": "92570-9069"
      },
      {
        "line": [
          "1311 E DATE ST"
        ],
        "city": "SAN BERNARDINO",
        "state": "CA",
        "postalCode": "92404-4233"
      },
      {
        "line": [
          "1471 S RIVERSIDE AVE"
        ],
        "city": "RIALTO",
        "state": "CA",
        "postalCode": "92376-7703"
      },
      {
        "line": [
          "2224 MEDICAL CENTER DR"
        ],
        "city": "PERRIS",
        "state": "CA",
        "postalCode": "92571-2638"
      },
      {
        "line": [
          "35253 AVENUE H"
        ],
        "city": "YUCAIPA",
        "state": "CA",
        "postalCode": "92399-5415"
      },
      {
        "line": [
          "800 S MAIN ST"
        ],
        "city": "CORONA",
        "state": "CA",
        "postalCode": "92882-3420"
      },
      {
        "line": [
          "1350 RECHE CANYON RD"
        ],
        "city": "COLTON",
        "state": "CA",
        "postalCode": "92324-9528"
      },
      {
        "line": [
          "6401 33RD ST"
        ],
        "city": "RIVERSIDE",
        "state": "CA",
        "postalCode": "92509-1404"
      },
      {
        "line": [
          "1400 CIRCLE CITY DRIVE"
        ],
        "city": "CORONA",
        "state": "CA",
        "postalCode": "92879-1642"
      },
      {
        "line": [
          "13542 2ND STREET"
        ],
        "city": "YUCAIPA",
        "state": "CA",
        "postalCode": "92399-5396"
      },
      {
        "line": [
          "4301 CAROLINE CT"
        ],
        "city": "RIVERSIDE",
        "state": "CA",
        "postalCode": "92506-2902"
      },
      {
        "line": [
          "23180 HEMLOCK AVE SUITE 201"
        ],
        "city": "MORENO VALLEY",
        "state": "CA",
        "postalCode": "92557-8001"
      },
      {
        "line": [
          "9025 COLORADO AVE"
        ],
        "city": "RIVERSIDE",
        "state": "CA",
        "postalCode": "92503-2157"
      },
      {
        "line": [
          "1335 N WATERMAN AVE"
        ],
        "city": "SAN BERNARDINO",
        "state": "CA",
        "postalCode": "92404-5312"
      },
      {
        "line": [
          "730 MAGNOLIA AVE"
        ],
        "city": "CORONA",
        "state": "CA",
        "postalCode": "92879-3117"
      },
      {
        "line": [
          "8781 LAKEVIEW AVE"
        ],
        "city": "RIVERSIDE",
        "state": "CA",
        "postalCode": "92509-5969"
      },
      {
        "line": [
          "1717 W STETSON AVE"
        ],
        "city": "HEMET",
        "state": "CA",
        "postalCode": "92545-6882"
      },
      {
        "line": [
          "4070 JURUPA AVE"
        ],
        "city": "RIVERSIDE",
        "state": "CA",
        "postalCode": "92506-2234"
      },
      {
        "line": [
          "23180 Hemlock Ave, Ste 201"
        ],
        "city": "MORENO VALLEY",
        "state": "CA",
        "postalCode": "92557-8001"
      },
      {
        "line": [
          "30907 Riverton Lane"
        ],
        "city": "TEMECULA",
        "state": "CA",
        "postalCode": "92591-7033"
      },
      {
        "line": [
          "9020 GARFIELD STREET"
        ],
        "city": "RIVERSIDE",
        "state": "CA",
        "postalCode": "92503-3903"
      },
      {
        "line": [
          "8965 MAGNOLIA AVE"
        ],
        "city": "RIVERSIDE",
        "state": "CA",
        "postalCode": "92503-4432"
      },
      {
        "line": [
          "4445 MAGNOLIA AVE"
        ],
        "city": "RIVERSIDE",
        "state": "CA",
        "postalCode": "92501-4135"
      },
      {
        "line": [
          "26940 EAST HOSPITAL ROAD"
        ],
        "city": "MORENO VALLEY",
        "state": "CA",
        "postalCode": "92555-3923"
      },
      {
        "line": [
          "3401 LEMON ST"
        ],
        "city": "RIVERSIDE",
        "state": "CA",
        "postalCode": "92501-2861"
      },
      {
        "line": [
          "3865 JACKSON ST"
        ],
        "city": "RIVERSIDE",
        "state": "CA",
        "postalCode": "92503-3919"
      },
      {
        "line": [
          "27926 ROCKWOOD AVE"
        ],
        "city": "MORENO VALLEY",
        "state": "CA",
        "postalCode": "92555-5729"
      },
      {
        "line": [
          "23180 HEMLOCK AVE STE 100"
        ],
        "city": "MORENO VALLEY",
        "state": "CA",
        "postalCode": "92557-8001"
      },
      {
        "line": [
          "2225 N PERRIS BLVD"
        ],
        "city": "PERRIS",
        "state": "CA",
        "postalCode": "92571-4513"
      },
      {
        "line": [
          "23180 Hemlock Ave, Suite 201"
        ],
        "city": "MORENO VALLEY",
        "state": "CA",
        "postalCode": "92557-8001"
      },
      {
        "line": [
          "2600 S MAIN ST"
        ],
        "city": "CORONA",
        "state": "CA",
        "postalCode": "92882-5941"
      },
      {
        "line": [
          "17040 ARNOLD DRIVE"
        ],
        "city": "MARCH AIR RESERVE BASE",
        "state": "CA",
        "postalCode": "92518-2855"
      },
      {
        "line": [
          "8171 MAGNOLIA AVE"
        ],
        "city": "RIVERSIDE",
        "state": "CA",
        "postalCode": "92504-3409"
      },
      {
        "line": [
          "1618 LAUREL AVE"
        ],
        "city": "REDLANDS",
        "state": "CA",
        "postalCode": "92373-4838"
      },
      {
        "line": [
          "1311 East Date St"
        ],
        "city": "SAN BERNARDINO",
        "state": "CA",
        "postalCode": "92404-4233"
      },
      {
        "line": [
          "1550 N PARK AVE"
        ],
        "city": "POMONA",
        "state": "CA",
        "postalCode": "91768-1834"
      },
      {
        "line": [
          "12842 GLENMERE DRIVE"
        ],
        "city": "MORENO VALLEY",
        "state": "CA",
        "postalCode": "92553-5985"
      },
      {
        "line": [
          "11970 4TH STREET"
        ],
        "city": "YUCAIPA",
        "state": "CA",
        "postalCode": "92399-5396"
      },
      {
        "line": [
          "2600 S Main St"
        ],
        "city": "CORONA",
        "state": "CA",
        "postalCode": "92882-5941"
      },
      {
        "line": [
          "250 W ARTESIA ST"
        ],
        "city": "POMONA",
        "state": "CA",
        "postalCode": "91768-1807"
      },
      {
        "line": [
          "23180 HEMLOCK AVE STE 201"
        ],
        "city": "MORENO VALLEY",
        "state": "CA",
        "postalCode": "92557-8001"
      },
      {
        "line": [
          "1501 E 16TH ST"
        ],
        "city": "NEWPORT BEACH",
        "state": "CA",
        "postalCode": "92663-5924"
      },
      {
        "line": [
          "35470 Whitewood Rd"
        ],
        "city": "MURRIETA",
        "state": "CA",
        "postalCode": "92563-2415"
      },
      {
        "line": [
          "25654 PAPILLON CT"
        ],
        "city": "MENIFEE",
        "state": "CA",
        "postalCode": "92585-8878"
      },
      {
        "line": [
          "8487 MAGNOLIA AVE"
        ],
        "city": "RIVERSIDE",
        "state": "CA",
        "postalCode": "92504-3222"
      },
      {
        "line": [
          "3232 EAST ARTESIA"
        ],
        "city": "LONG BEACH",
        "state": "CA",
        "postalCode": "90805-2811"
      },
      {
        "line": [
          "13942 DOMINCAN AVE"
        ],
        "city": "MORENO VALLEY",
        "state": "CA",
        "postalCode": "92555-2566"
      },
      {
        "line": [
          "12000 Mount Vernon Ave"
        ],
        "city": "GRAND TERRACE",
        "state": "CA",
        "postalCode": "92313-5174"
      },
      {
        "line": [
          "215 W PEARL ST"
        ],
        "city": "POMONA",
        "state": "CA",
        "postalCode": "91768-3114"
      },
      {
        "line": [
          "8133 MAGNOLIA AVE"
        ],
        "city": "RIVERSIDE",
        "state": "CA",
        "postalCode": "92504-3409"
      },
      {
        "line": [
          "27350 NICOLAS RD"
        ],
        "city": "TEMECULA",
        "state": "CA",
        "postalCode": "92591-7349"
      }
    ],
    "extension": [
      {
        "url": "https://fhir.athena.io/StructureDefinition/ah-practice",
        "valueReference": {
          "reference": "Organization/a-1.Practice-20715"
        }
      },
      {
        "url": "https://fhir.athena.io/StructureDefinition/ah-brand",
        "valueReference": {
          "reference": "Organization/a-20715.Brand-1"
        }
      }
    ]
  },
  "fullUrl": "urn:uuid:ccee025d-8d54-5484-a076-6aa20bf40678"
}