{
  "resource": {
    "resourceType": "Organization",
    "id": "58662c86-0f4f-553b-8e73-515112b8ad33",
    "name": "NewYork Presbyterian Medical Group/Westchester",
    "endpoint": [
      {
        "reference": "Endpoint/27a4e967-47aa-5a9c-a572-b8297ee268a2"
      },
      {
        "reference": "Endpoint/8d4398b3-4631-56f3-8b92-ee64e6d59c69"
      }
    ],
    "identifier": [
      {
        "system": "http://hl7.org/fhir/sid/us-npi",
        "value": "1023257441"
      }
    ],
    "address": [
      {
        "line": [
          "701 North Broadway"
        ],
        "city": "Tarrytown",
        "state": "NY",
        "postalCode": "10591-1020"
      },
      {
        "line": [
          "1280 Albany Post Road"
        ],
        "city": "Croton on Hudson",
        "state": "NY",
        "postalCode": "10520-1570"
      },
      {
        "line": [
          "55 Palmer Avenue"
        ],
        "city": "Bronxville",
        "state": "NY",
        "postalCode": "10708-3403"
      },
      {
        "line": [
          "17 Narrangansett Avenue"
        ],
        "city": "Ossining",
        "state": "NY",
        "postalCode": "10562-1111"
      },
      {
        "line": [
          "32 Cedar Lane"
        ],
        "city": "Ossining",
        "state": "NY",
        "postalCode": "10562-1111"
      },
      {
        "line": [
          "20 Wood Court"
        ],
        "city": "Tarrytown",
        "state": "NY",
        "postalCode": "10591-3108"
      },
      {
        "line": [
          "1010 Kendal Way"
        ],
        "city": "Sleepy Hollow",
        "state": "NY",
        "postalCode": "10591-1055"
      },
      {
        "line": [
          "67 Springvale Road"
        ],
        "city": "Croton On Hudson",
        "state": "NY",
        "postalCode": "10520-1343"
      },
      {
        "line": [
          "62 Springvale Road"
        ],
        "city": "Croton On Hudson",
        "state": "NY",
        "postalCode": "10520-1341"
      }
    ],
    "extension": [
      {
        "url": "https://fhir.athena.io/StructureDefinition/ah-practice",
        "valueReference": {
          "reference": "Organization/a-1.Practice-11917"
        }
      },
      {
        "url": "https://fhir.athena.io/StructureDefinition/ah-brand",
        "valueReference": {
          "reference": "Organization/a-11917.Brand-1"
        }
      }
    ]
  },
  "fullUrl": "urn:uuid:58662c86-0f4f-553b-8e73-515112b8ad33"
}