{
  "resource": {
    "resourceType": "Organization",
    "id": "51a39f8c-3078-510a-a396-630421f9f558",
    "name": "Bay Villa Health Care Center",
    "endpoint": [
      {
        "reference": "Endpoint/27a4e967-47aa-5a9c-a572-b8297ee268a2"
      },
      {
        "reference": "Endpoint/aeadf63b-b53b-5271-97cc-de58443b9a68"
      }
    ],
    "identifier": [
      {
        "system": "http://hl7.org/fhir/sid/us-npi",
        "value": "1265420053"
      }
    ],
    "address": [
      {
        "line": [
          "12777 Beechnut Street"
        ],
        "city": "HOUSTON",
        "state": "TX",
        "postalCode": "77072-3820"
      },
      {
        "line": [
          "3519 S BRAESWOOD BLVD"
        ],
        "city": "HOUSTON",
        "state": "TX",
        "postalCode": "77025-3758"
      },
      {
        "line": [
          "6450 Kings Parkway"
        ],
        "city": "HUMBLE",
        "state": "TX",
        "postalCode": "77346-4028"
      },
      {
        "line": [
          "1737 north loop west"
        ],
        "city": "HOUSTON",
        "state": "TX",
        "postalCode": "77008-1425"
      },
      {
        "line": [
          "2807 KINGS CROSSING DR"
        ],
        "city": "KINGWOOD",
        "state": "TX",
        "postalCode": "77345-5453"
      },
      {
        "line": [
          "118 W. Willowick Avenue"
        ],
        "city": "FRIENDSWOOD",
        "state": "TX",
        "postalCode": "77546-3900"
      },
      {
        "line": [
          "24001 Cinco Village Center Blvd"
        ],
        "city": "KATY",
        "state": "TX",
        "postalCode": "77494-8419"
      },
      {
        "line": [
          "2835 Shadowbriar Dr"
        ],
        "city": "HOUSTON",
        "state": "TX",
        "postalCode": "77077-3267"
      },
      {
        "line": [
          "1500 SUNSET DR"
        ],
        "city": "FRIENDSWOOD",
        "state": "TX",
        "postalCode": "77546-4724"
      },
      {
        "line": [
          "12310 DRAKE PRAIRIE LN"
        ],
        "city": "CYPRESS",
        "state": "TX",
        "postalCode": "77429-3888"
      },
      {
        "line": [
          "4004 Vista Road"
        ],
        "city": "PASADENA",
        "state": "TX",
        "postalCode": "77504-2163"
      },
      {
        "line": [
          "2000 EAST BLVD"
        ],
        "city": "DEER PARK",
        "state": "TX",
        "postalCode": "77536-2065"
      },
      {
        "line": [
          "15526 Empanada Drive"
        ],
        "city": "HOUSTON",
        "state": "TX",
        "postalCode": "77083-4033"
      },
      {
        "line": [
          "15015 hollydale st"
        ],
        "city": "HOUSTON",
        "state": "TX",
        "postalCode": "77062-2908"
      },
      {
        "line": [
          "12001 Shadow Creek Park"
        ],
        "city": "PEARLAND",
        "state": "TX",
        "postalCode": "77584-7296"
      },
      {
        "line": [
          "13031 wortham center dr"
        ],
        "city": "HOUSTON",
        "state": "TX",
        "postalCode": "77065-5662"
      },
      {
        "line": [
          "16820 West Rd"
        ],
        "city": "HOUSTON",
        "state": "TX",
        "postalCode": "77095-5577"
      },
      {
        "line": [
          "5450 atascocita rd"
        ],
        "city": "HUMBLE",
        "state": "TX",
        "postalCode": "77346-4223"
      },
      {
        "line": [
          "19815 mountain vista dr"
        ],
        "city": "CYPRESS",
        "state": "TX",
        "postalCode": "77433-7182"
      },
      {
        "line": [
          "4011 viewpoint ct"
        ],
        "city": "KATY",
        "state": "TX",
        "postalCode": "77449-2093"
      },
      {
        "line": [
          "1310 S Friendswood Dr"
        ],
        "city": "FRIENDSWOOD",
        "state": "TX",
        "postalCode": "77546-4968"
      },
      {
        "line": [
          "5020 SPACE CENTER BLVD"
        ],
        "city": "PASADENA",
        "state": "TX",
        "postalCode": "77505-3966"
      },
      {
        "line": [
          "5000 SPACE CENTER BLVD"
        ],
        "city": "PASADENA",
        "state": "TX",
        "postalCode": "77505-3966"
      },
      {
        "line": [
          "2121 SCARSDALE BLVD"
        ],
        "city": "PEARLAND",
        "state": "TX",
        "postalCode": "77581-5190"
      },
      {
        "line": [
          "17346 chestnut bluff dr"
        ],
        "city": "HOUSTON",
        "state": "TX",
        "postalCode": "77095-5062"
      },
      {
        "line": [
          "7511 ley rd"
        ],
        "city": "HOUSTON",
        "state": "TX",
        "postalCode": "77016-2435"
      },
      {
        "line": [
          "1221 7TH ST"
        ],
        "city": "SUGAR LAND",
        "state": "TX",
        "postalCode": "77478-2774"
      },
      {
        "line": [
          "19015 west rd"
        ],
        "city": "CYPRESS",
        "state": "TX",
        "postalCode": "77433-3942"
      },
      {
        "line": [
          "1407 STUDEWOOD ST"
        ],
        "city": "HOUSTON",
        "state": "TX",
        "postalCode": "77008-4588"
      },
      {
        "line": [
          "12142 7TH ST"
        ],
        "city": "HOUSTON",
        "state": "TX",
        "postalCode": "77072-5322"
      },
      {
        "line": [
          "17808 Lake Crest View Drive"
        ],
        "city": "CYPRESS",
        "state": "TX",
        "postalCode": "77433-4959"
      },
      {
        "line": [
          "99 Rigby Owen Rd"
        ],
        "city": "conroe",
        "state": "TX",
        "postalCode": "77304-1765"
      },
      {
        "line": [
          "13861 laramie trl"
        ],
        "city": "MONTGOMERY",
        "state": "TX",
        "postalCode": "77316-2014"
      },
      {
        "line": [
          "1800 13TH STREET"
        ],
        "city": "BAY CITY",
        "state": "TX",
        "postalCode": "77414-3920"
      },
      {
        "line": [
          "2310 ELDRIDGE PKWY"
        ],
        "city": "HOUSTON",
        "state": "TX",
        "postalCode": "77077-5254"
      },
      {
        "line": [
          "3519 s braeswood blvd"
        ],
        "city": "HOUSTON",
        "state": "TX",
        "postalCode": "77025-3758"
      },
      {
        "line": [
          "13702 wimbledon oaks dr"
        ],
        "city": "HOUSTON",
        "state": "TX",
        "postalCode": "77065-3748"
      },
      {
        "line": [
          "12102 STEEPLE WAY BLVD"
        ],
        "city": "HOUSTON",
        "state": "TX",
        "postalCode": "77065-4759"
      },
      {
        "line": [
          "3818 colorado bend dr"
        ],
        "city": "KATY",
        "state": "TX",
        "postalCode": "77494-6273"
      },
      {
        "line": [
          "21002 BRIDGEVIEW CIR"
        ],
        "city": "SPRING",
        "state": "TX",
        "postalCode": "77388-4357"
      },
      {
        "line": [
          "2907 BROADWAY BEND DR"
        ],
        "city": "PEARLAND",
        "state": "TX",
        "postalCode": "77584-2236"
      },
      {
        "line": [
          "16718 huffmeister"
        ],
        "city": "CYPRESS",
        "state": "TX",
        "postalCode": "77429-1663"
      },
      {
        "line": [
          "7214 Las brisas dr"
        ],
        "city": "HOUSTON",
        "state": "TX",
        "postalCode": "77084-4324"
      },
      {
        "line": [
          "1600 AUGUSTA DR"
        ],
        "city": "HOUSTON",
        "state": "TX",
        "postalCode": "77057-2368"
      },
      {
        "line": [
          "11500 fallbrook dr"
        ],
        "city": "HOUSTON",
        "state": "TX",
        "postalCode": "77065-4280"
      },
      {
        "line": [
          "10718 BRAES FOREST DR"
        ],
        "city": "HOUSTON",
        "state": "TX",
        "postalCode": "77071-1502"
      },
      {
        "line": [
          "3730 w orem dr"
        ],
        "city": "HOUSTON",
        "state": "TX",
        "postalCode": "77045-4426"
      },
      {
        "line": [
          "526 fifth st"
        ],
        "city": "SEALY",
        "state": "TX",
        "postalCode": "77474-2608"
      },
      {
        "line": [
          "19400 SPACE CENTER BLVD"
        ],
        "city": "HOUSTON",
        "state": "TX",
        "postalCode": "77058-3792"
      },
      {
        "line": [
          "4710 Lexington Boulevard"
        ],
        "city": "MISSOURI CITY",
        "state": "TX",
        "postalCode": "77459-2800"
      },
      {
        "line": [
          "4141 N. Braeswood"
        ],
        "city": "HOUSTON",
        "state": "TX",
        "postalCode": "77025-2900"
      },
      {
        "line": [
          "3000 N. Danville st"
        ],
        "city": "WILLIS",
        "state": "TX",
        "postalCode": "77378-3490"
      },
      {
        "line": [
          "424 TARPEY RD"
        ],
        "city": "TEXAS CITY",
        "state": "TX",
        "postalCode": "77591-3160"
      }
    ],
    "extension": [
      {
        "url": "https://fhir.athena.io/StructureDefinition/ah-practice",
        "valueReference": {
          "reference": "Organization/a-1.Practice-15281"
        }
      },
      {
        "url": "https://fhir.athena.io/StructureDefinition/ah-brand",
        "valueReference": {
          "reference": "Organization/a-15281.Brand-1"
        }
      }
    ]
  },
  "fullUrl": "urn:uuid:51a39f8c-3078-510a-a396-630421f9f558"
}