{
  "resource": {
    "resourceType": "Organization",
    "id": "808395e5-9eeb-502f-be87-ce5d567f3006",
    "name": "Wargo and Associates, LLC",
    "endpoint": [
      {
        "reference": "Endpoint/27a4e967-47aa-5a9c-a572-b8297ee268a2"
      },
      {
        "reference": "Endpoint/d1021b06-381d-5da8-ab0d-99286749ece5"
      }
    ],
    "identifier": [
      {
        "system": "http://hl7.org/fhir/sid/us-npi",
        "value": "1053899351"
      }
    ],
    "address": [
      {
        "line": [
          "745 MAIN STREET"
        ],
        "city": "EAST HARTFORD",
        "state": "CT",
        "postalCode": "06108-3115"
      },
      {
        "line": [
          "595 VALLEY STREET"
        ],
        "city": "WILLIMANTIC",
        "state": "CT",
        "postalCode": "06226-1901"
      },
      {
        "line": [
          "72 SALMON BROOK DRIVE"
        ],
        "city": "GLASTONBURY",
        "state": "CT",
        "postalCode": "06033-2131"
      },
      {
        "line": [
          "1 CANAL ROAD"
        ],
        "city": "SUFFIELD",
        "state": "CT",
        "postalCode": "06078-1921"
      },
      {
        "line": [
          "5 RICHARD BROWN DRIVE"
        ],
        "city": "UNCASVILLE",
        "state": "CT",
        "postalCode": "06382-1141"
      },
      {
        "line": [
          "35 JOLLY ROAD"
        ],
        "city": "BLOOMFIELD",
        "state": "CT",
        "postalCode": "06002-3071"
      },
      {
        "line": [
          "66 ACORN RD"
        ],
        "city": "MADISON",
        "state": "CT",
        "postalCode": "06443-3340"
      },
      {
        "line": [
          "385 MAIN STREET"
        ],
        "city": "CROMWELL",
        "state": "CT",
        "postalCode": "06416-2308"
      },
      {
        "line": [
          "140 PARK AVENUE"
        ],
        "city": "BLOOMFIELD",
        "state": "CT",
        "postalCode": "06002-3207"
      }
    ],
    "extension": [
      {
        "url": "https://fhir.athena.io/StructureDefinition/ah-practice",
        "valueReference": {
          "reference": "Organization/a-1.Practice-18648"
        }
      },
      {
        "url": "https://fhir.athena.io/StructureDefinition/ah-brand",
        "valueReference": {
          "reference": "Organization/a-18648.Brand-1"
        }
      }
    ]
  },
  "fullUrl": "urn:uuid:808395e5-9eeb-502f-be87-ce5d567f3006"
}