{
  "resource": {
    "resourceType": "Organization",
    "id": "815b054b-8f2c-527c-8922-0a46b07af19b",
    "name": "Ascension Saint Agnes Hospital",
    "endpoint": [
      {
        "reference": "Endpoint/27a4e967-47aa-5a9c-a572-b8297ee268a2"
      },
      {
        "reference": "Endpoint/0aef9a87-788a-50fc-8d18-dd4b99364c84"
      }
    ],
    "identifier": [
      {
        "system": "http://hl7.org/fhir/sid/us-npi",
        "value": "1144250176"
      },
      {
        "system": "http://hl7.org/fhir/sid/us-npi",
        "value": "1003079799"
      },
      {
        "system": "http://hl7.org/fhir/sid/us-npi",
        "value": "1780225326"
      },
      {
        "system": "http://hl7.org/fhir/sid/us-npi",
        "value": "1144409194"
      }
    ],
    "address": [
      {
        "line": [
          "900 Caton Avenue"
        ],
        "city": "Baltimore",
        "state": "MD",
        "postalCode": "21229-5201"
      },
      {
        "line": [
          "900 Caton Ave"
        ],
        "city": "BALTIMORE",
        "state": "MD",
        "postalCode": "21229-5201"
      },
      {
        "line": [
          "900 Caton Avenue",
          "5th Floor"
        ],
        "city": "Baltimore",
        "state": "MD",
        "postalCode": "21229-5201"
      },
      {
        "line": [
          "900 Caton Ave"
        ],
        "city": "Baltimore",
        "state": "MD",
        "postalCode": "21229-5201"
      },
      {
        "line": [
          "3407 Wilkens Ave Suite 300"
        ],
        "city": "BALTIMORE",
        "state": "MD",
        "postalCode": "21229-5222"
      },
      {
        "line": [
          "900 CATON AVE"
        ],
        "city": "BALTIMORE",
        "state": "MD",
        "postalCode": "21229-5201"
      },
      {
        "line": [
          "900 Caton Ave",
          "4th Floor"
        ],
        "city": "BALTIMORE",
        "state": "MD",
        "postalCode": "21229-5201"
      },
      {
        "line": [
          "5011 Arbutus Ave"
        ],
        "city": "BALTIMORE",
        "state": "MD",
        "postalCode": "21215-5723"
      },
      {
        "line": [
          "3701 Eldorado Ave"
        ],
        "city": "BALTIMORE",
        "state": "MD",
        "postalCode": "21207-7658"
      },
      {
        "line": [
          "4502 Park Heights Ave"
        ],
        "city": "Baltimore",
        "state": "MD",
        "postalCode": "21215-6330"
      },
      {
        "line": [
          "621 Wildwood Parkway"
        ],
        "city": "BALTIMORE",
        "state": "MD",
        "postalCode": "21229-1811"
      }
    ],
    "extension": [
      {
        "url": "https://fhir.athena.io/StructureDefinition/ah-practice",
        "valueReference": {
          "reference": "Organization/a-1.Practice-10777"
        }
      },
      {
        "url": "https://fhir.athena.io/StructureDefinition/ah-brand",
        "valueReference": {
          "reference": "Organization/a-10777.Brand-1"
        }
      }
    ]
  },
  "fullUrl": "urn:uuid:815b054b-8f2c-527c-8922-0a46b07af19b"
}