{
  "resource": {
    "resourceType": "Organization",
    "id": "c2246d99-4648-58bd-8a5f-f92d646ba52b",
    "name": "DAYTONA BEACH NEPHROLOGY",
    "endpoint": [
      {
        "reference": "Endpoint/27a4e967-47aa-5a9c-a572-b8297ee268a2"
      },
      {
        "reference": "Endpoint/a184c193-969d-5b96-be2a-2a7f6a69f866"
      }
    ],
    "identifier": [
      {
        "system": "http://hl7.org/fhir/sid/us-npi",
        "value": "1376193029"
      }
    ],
    "address": [
      {
        "line": [
          "201 N Clyde Morris"
        ],
        "city": "DAYTONA BEACH",
        "state": "FL",
        "postalCode": "32114-0003"
      },
      {
        "line": [
          "303 N CLYDE MORRIS BLVD"
        ],
        "city": "DAYTONA BEACH",
        "state": "FL",
        "postalCode": "32114-2709"
      },
      {
        "line": [
          "1041 DUNLAWTON AVE"
        ],
        "city": "PORT ORANGE",
        "state": "FL",
        "postalCode": "32127-7968"
      },
      {
        "line": [
          "401 Palmetto St"
        ],
        "city": "NEW SMYRNA BEACH",
        "state": "FL",
        "postalCode": "32168-7322"
      },
      {
        "line": [
          "1728 Dunlawton Ave",
          "Suite 4"
        ],
        "city": "PORT ORANGE",
        "state": "FL",
        "postalCode": "32127-2923"
      },
      {
        "line": [
          "301 Memorial Medical Parkway"
        ],
        "city": "DAYTONA BEACH",
        "state": "FL",
        "postalCode": "32117-5167"
      },
      {
        "line": [
          "4883 Palm Coast Parkway NW",
          "Suite 1605"
        ],
        "city": "PALM COAST",
        "state": "FL",
        "postalCode": "32137-3830"
      },
      {
        "line": [
          "544 HEALTH BLVD"
        ],
        "city": "DAYTONA BEACH",
        "state": "FL",
        "postalCode": "32114-1492"
      },
      {
        "line": [
          "1041 Dunlawton Ave"
        ],
        "city": "PORT ORANGE",
        "state": "FL",
        "postalCode": "32127-7968"
      },
      {
        "line": [
          "125 Florida Memorial Medical Parkway",
          "STE 2300"
        ],
        "city": "NEW SMYRNA BEACH",
        "state": "FL",
        "postalCode": "32168-9309"
      },
      {
        "line": [
          "301 memorial medical parkway ste"
        ],
        "city": "DAYTONA BEACH",
        "state": "FL",
        "postalCode": "32117-5167"
      }
    ],
    "extension": [
      {
        "url": "https://fhir.athena.io/StructureDefinition/ah-practice",
        "valueReference": {
          "reference": "Organization/a-1.Practice-20431"
        }
      },
      {
        "url": "https://fhir.athena.io/StructureDefinition/ah-brand",
        "valueReference": {
          "reference": "Organization/a-20431.Brand-1"
        }
      }
    ]
  },
  "fullUrl": "urn:uuid:c2246d99-4648-58bd-8a5f-f92d646ba52b"
}