{
  "resource": {
    "resourceType": "Organization",
    "id": "f97bcbd0-bbb6-570a-a0a2-c7c759663266",
    "name": "KIDS DOC ON WHEELS",
    "endpoint": [
      {
        "reference": "Endpoint/27a4e967-47aa-5a9c-a572-b8297ee268a2"
      },
      {
        "reference": "Endpoint/70ed1893-f4e0-5d5d-b3fb-9bc72cad8d65"
      }
    ],
    "identifier": [
      {
        "system": "http://hl7.org/fhir/sid/us-npi",
        "value": "1497277404"
      }
    ],
    "address": [
      {
        "line": [
          "4112 E. PONCE DE LEON AVE, SUITE 2"
        ],
        "city": "CLARKSTON",
        "state": "GA",
        "postalCode": "30021-8106"
      },
      {
        "line": [
          "4112-2 E. PONCE DE LEON"
        ],
        "city": "CLARKSTON",
        "state": "GA",
        "postalCode": "30021-8106"
      },
      {
        "line": [
          "4112 E. PONCE DE LEON AVENUE",
          "SUITE 2"
        ],
        "city": "CLARKSTON",
        "state": "GA",
        "postalCode": "30021-8106"
      },
      {
        "line": [
          "4112 E. PONCE DE LEON AVENUE, SUITE 2"
        ],
        "city": "CLARKSTON",
        "state": "GA",
        "postalCode": "30021-8106"
      },
      {
        "line": [
          "4112 E PONCE DE LEON AVENUE",
          "SUITE 2"
        ],
        "city": "CLARKSTON",
        "state": "GA",
        "postalCode": "30021-8106"
      },
      {
        "line": [
          "4112 E. Ponce de Leon Avenue",
          "Clarkston"
        ],
        "city": "CLARKSTON",
        "state": "GA",
        "postalCode": "30021-8106"
      },
      {
        "line": [
          "4112 -2 E. PONCE DE LEON AVENUE"
        ],
        "city": "CLARKSTON",
        "state": "GA",
        "postalCode": "30021-8106"
      },
      {
        "line": [
          "4112 EAST PONCE DE LEON AVE",
          "SUITE 2"
        ],
        "city": "CLARKSTON",
        "state": "GA",
        "postalCode": "30021-8106"
      },
      {
        "line": [
          "4112 E Ponce De Leon Ave",
          "Suite 2"
        ],
        "city": "CLARKSTON",
        "state": "GA",
        "postalCode": "30021-8106"
      },
      {
        "line": [
          "4112 E. PONCE DE LEON AVE",
          "SUITE 2"
        ],
        "city": "CLARKSTON",
        "state": "GA",
        "postalCode": "30021-8106"
      }
    ],
    "extension": [
      {
        "url": "https://fhir.athena.io/StructureDefinition/ah-practice",
        "valueReference": {
          "reference": "Organization/a-1.Practice-16542"
        }
      },
      {
        "url": "https://fhir.athena.io/StructureDefinition/ah-brand",
        "valueReference": {
          "reference": "Organization/a-16542.Brand-1"
        }
      }
    ]
  },
  "fullUrl": "urn:uuid:f97bcbd0-bbb6-570a-a0a2-c7c759663266"
}