{
  "resource": {
    "resourceType": "Organization",
    "id": "91e55498-702a-57b6-9acc-201d8ef4e072",
    "name": "ADAMS FOOT AND ANKLE",
    "endpoint": [
      {
        "reference": "Endpoint/27a4e967-47aa-5a9c-a572-b8297ee268a2"
      },
      {
        "reference": "Endpoint/09231aaf-3b20-54ca-87c6-c88c4a51b530"
      }
    ],
    "identifier": [
      {
        "system": "http://hl7.org/fhir/sid/us-npi",
        "value": "1235477555"
      }
    ],
    "address": [
      {
        "line": [
          "6101 PINE RIDGE RD"
        ],
        "city": "NAPLES",
        "state": "FL",
        "postalCode": "34119-3900"
      },
      {
        "line": [
          "6869 DAVIS BLVD"
        ],
        "city": "NAPLES",
        "state": "FL",
        "postalCode": "34104-5320"
      },
      {
        "line": [
          "6825 DAVIS BLVD"
        ],
        "city": "NAPLES",
        "state": "FL",
        "postalCode": "34104-4366"
      },
      {
        "line": [
          "1000 AIRPORT-PULLING ROAD SOUTH"
        ],
        "city": "NAPLES",
        "state": "FL",
        "postalCode": "34104-4366"
      },
      {
        "line": [
          "1879 VETERANS PARK DR STE 1101"
        ],
        "city": "NAPLES",
        "state": "FL",
        "postalCode": "34109-0492"
      },
      {
        "line": [
          "1155 ENCORE WAY"
        ],
        "city": "NAPLES",
        "state": "FL",
        "postalCode": "34110-7927"
      },
      {
        "line": [
          "3435 PINE RIDGE RD STE 102"
        ],
        "city": "NAPLES",
        "state": "FL",
        "postalCode": "34109-3828"
      },
      {
        "line": [
          "13020 LIVINGSTON ROAD"
        ],
        "city": "NAPLES",
        "state": "FL",
        "postalCode": "34105-5021"
      },
      {
        "line": [
          "2626 GOODLETTE-FRANK RD"
        ],
        "city": "NAPLES",
        "state": "FL",
        "postalCode": "34103-4526"
      },
      {
        "line": [
          "350 7TH STREET NORTH"
        ],
        "city": "NAPLES",
        "state": "FL",
        "postalCode": "34102-5730"
      },
      {
        "line": [
          "850 RETREAT DR"
        ],
        "city": "NAPLES",
        "state": "FL",
        "postalCode": "34110-7927"
      },
      {
        "line": [
          "11190 HEALTH PARK BLVD"
        ],
        "city": "NAPLES",
        "state": "FL",
        "postalCode": "34110-5729"
      },
      {
        "line": [
          "875 RETREAT DR"
        ],
        "city": "NAPLES",
        "state": "FL",
        "postalCode": "34110-7927"
      },
      {
        "line": [
          "1285 CREEKSIDE BLVD E"
        ],
        "city": "NAPLES",
        "state": "FL",
        "postalCode": "34109-0577"
      },
      {
        "line": [
          "1112 GOODLETTE-FRANK RD N",
          "STE 202"
        ],
        "city": "NAPLES",
        "state": "FL",
        "postalCode": "34102-5487"
      },
      {
        "line": [
          "8300 COLLIER BLVD"
        ],
        "city": "NAPLES",
        "state": "FL",
        "postalCode": "34114-3549"
      },
      {
        "line": [
          "8340 COLLIER BLVD"
        ],
        "city": "NAPLES",
        "state": "FL",
        "postalCode": "34114-3549"
      }
    ],
    "extension": [
      {
        "url": "https://fhir.athena.io/StructureDefinition/ah-practice",
        "valueReference": {
          "reference": "Organization/a-1.Practice-28097"
        }
      },
      {
        "url": "https://fhir.athena.io/StructureDefinition/ah-brand",
        "valueReference": {
          "reference": "Organization/a-28097.Brand-1"
        }
      }
    ]
  },
  "fullUrl": "urn:uuid:91e55498-702a-57b6-9acc-201d8ef4e072"
}