{
  "resource": {
    "resourceType": "Organization",
    "id": "320deaeb-cea3-5ca9-ab42-b8567b1c62cf",
    "name": "KureSmart Pain Management",
    "endpoint": [
      {
        "reference": "Endpoint/27a4e967-47aa-5a9c-a572-b8297ee268a2"
      },
      {
        "reference": "Endpoint/ab3e295d-0b97-516c-a1e8-4481b35d3b93"
      }
    ],
    "identifier": [
      {
        "system": "http://hl7.org/fhir/sid/us-npi",
        "value": "1649655887"
      },
      {
        "system": "http://hl7.org/fhir/sid/us-npi",
        "value": "1114344280"
      },
      {
        "system": "http://hl7.org/fhir/sid/us-npi",
        "value": "1578087334"
      },
      {
        "system": "http://hl7.org/fhir/sid/us-npi",
        "value": "1679136469"
      },
      {
        "system": "http://hl7.org/fhir/sid/us-npi",
        "value": "1316315740"
      },
      {
        "system": "http://hl7.org/fhir/sid/us-npi",
        "value": "1639554835"
      },
      {
        "system": "http://hl7.org/fhir/sid/us-npi",
        "value": "1154792232"
      },
      {
        "system": "http://hl7.org/fhir/sid/us-npi",
        "value": "1912607300"
      },
      {
        "system": "http://hl7.org/fhir/sid/us-npi",
        "value": "1790160992"
      },
      {
        "system": "http://hl7.org/fhir/sid/us-npi",
        "value": "1629592472"
      },
      {
        "system": "http://hl7.org/fhir/sid/us-npi",
        "value": "1861418220"
      },
      {
        "system": "http://hl7.org/fhir/sid/us-npi",
        "value": "1376928499"
      }
    ],
    "address": [
      {
        "line": [
          "1673 S State Street"
        ],
        "city": "DOVER",
        "state": "DE",
        "postalCode": "19901-5148"
      },
      {
        "line": [
          "4175 N Hanson Ct",
          "Suite 202"
        ],
        "city": "BOWIE",
        "state": "MD",
        "postalCode": "20716-3182"
      },
      {
        "line": [
          "4660 Wilkens Ave",
          "Suite 302"
        ],
        "city": "BALTIMORE",
        "state": "MD",
        "postalCode": "21229-4848"
      },
      {
        "line": [
          "8367 Cherry Lane"
        ],
        "city": "LAUREL",
        "state": "MD",
        "postalCode": "20707-4831"
      },
      {
        "line": [
          "826 Washington Rd",
          "Ste 131"
        ],
        "city": "WESTMINSTER",
        "state": "MD",
        "postalCode": "21157-5750"
      },
      {
        "line": [
          "6569 N Charles Street"
        ],
        "city": "TOWSON",
        "state": "MD",
        "postalCode": "21204-5806"
      },
      {
        "line": [
          "160 Sallitt Drive",
          "Suite 100"
        ],
        "city": "STEVENSVILLE",
        "state": "MD",
        "postalCode": "21666-2285"
      },
      {
        "line": [
          "10905 Fort Washington Rd",
          "Suite 405"
        ],
        "city": "FORT WASHINGTON",
        "state": "MD",
        "postalCode": "20744-5807"
      },
      {
        "line": [
          "7671 Quarterfield Rd",
          "Suite 301"
        ],
        "city": "GLEN BURNIE",
        "state": "MD",
        "postalCode": "21061-4525"
      },
      {
        "line": [
          "1576 Merritt Blvd",
          "Suite 18"
        ],
        "city": "DUNDALK",
        "state": "MD",
        "postalCode": "21222-2132"
      },
      {
        "line": [
          "7671 Quarterfield Rd.",
          "Suite 301"
        ],
        "city": "GLEN BURNIE",
        "state": "MD",
        "postalCode": "21061-4525"
      },
      {
        "line": [
          "2960 Technology Place",
          "Suite 103"
        ],
        "city": "WALDORF",
        "state": "MD",
        "postalCode": "20601-4968"
      },
      {
        "line": [
          "120 Sallitt Drive",
          "Suite D"
        ],
        "city": "STEVENSVILLE",
        "state": "MD",
        "postalCode": "21666-2154"
      },
      {
        "line": [
          "8100 Sandpiper Circle",
          "Suite 214"
        ],
        "city": "NOTTINGHAM",
        "state": "MD",
        "postalCode": "21236-4999"
      },
      {
        "line": [
          "810 Bestgate Rd",
          "Suite 220"
        ],
        "city": "ANNAPOLIS",
        "state": "MD",
        "postalCode": "21401-3033"
      },
      {
        "line": [
          "23000 Moakley Street",
          "Suite 206"
        ],
        "city": "LEONARDTOWN",
        "state": "MD",
        "postalCode": "20650-2917"
      },
      {
        "line": [
          "6602 Church Hill Rd",
          "Suite 550"
        ],
        "city": "CHESTERTOWN",
        "state": "MD",
        "postalCode": "21620-2323"
      },
      {
        "line": [
          "19851 Observation Dr",
          "Suite 360"
        ],
        "city": "GERMANTOWN",
        "state": "MD",
        "postalCode": "20876-4070"
      },
      {
        "line": [
          "598 Cynwood Dr #105"
        ],
        "city": "EASTON",
        "state": "MD",
        "postalCode": "21601-4302"
      },
      {
        "line": [
          "7920 McDonogh Rd.",
          "Suite 201"
        ],
        "city": "OWINGS MILLS",
        "state": "MD",
        "postalCode": "21117-5350"
      },
      {
        "line": [
          "826 Washington Rd",
          "Suite 210"
        ],
        "city": "WESTMINSTER",
        "state": "MD",
        "postalCode": "21157-5780"
      }
    ],
    "extension": [
      {
        "url": "https://fhir.athena.io/StructureDefinition/ah-practice",
        "valueReference": {
          "reference": "Organization/a-1.Practice-11679"
        }
      },
      {
        "url": "https://fhir.athena.io/StructureDefinition/ah-brand",
        "valueReference": {
          "reference": "Organization/a-11679.Brand-3"
        }
      }
    ]
  },
  "fullUrl": "urn:uuid:320deaeb-cea3-5ca9-ab42-b8567b1c62cf"
}