{
  "resource": {
    "resourceType": "Organization",
    "id": "47500ff1-9995-5dec-b1a1-ad06e4476a2a",
    "name": "1ST CHOICE URGENT CARE",
    "endpoint": [
      {
        "reference": "Endpoint/27a4e967-47aa-5a9c-a572-b8297ee268a2"
      },
      {
        "reference": "Endpoint/97c25825-cfc7-5359-97d8-ad1caa7356f1"
      }
    ],
    "identifier": [
      {
        "system": "http://hl7.org/fhir/sid/us-npi",
        "value": "1750769394"
      }
    ],
    "address": [
      {
        "line": [
          "7701 26 MILE RD"
        ],
        "city": "WASHINGTON",
        "state": "MI",
        "postalCode": "48094-2804"
      },
      {
        "line": [
          "44472 HAYES RD"
        ],
        "city": "CLINTON TOWNSHIP",
        "state": "MI",
        "postalCode": "48038-1090"
      },
      {
        "line": [
          "25515 HARPER AVE"
        ],
        "city": "SAINT CLAIR SHORES",
        "state": "MI",
        "postalCode": "48081-2209"
      },
      {
        "line": [
          "72 S WASHINGTON ST"
        ],
        "city": "OXFORD",
        "state": "MI",
        "postalCode": "48371-6421"
      },
      {
        "line": [
          "2952 S ROCHESTER RD"
        ],
        "city": "ROCHESTER",
        "state": "MI",
        "postalCode": "48307-4551"
      },
      {
        "line": [
          "4080 CROOKS RD"
        ],
        "city": "ROYAL OAK",
        "state": "MI",
        "postalCode": "48073-2428"
      },
      {
        "line": [
          "2446 ELIZABETH LAKE"
        ],
        "city": "WATERFORD",
        "state": "MI",
        "postalCode": "48328-3310"
      },
      {
        "line": [
          "18200 23 MILE RD"
        ],
        "city": "MACOMB",
        "state": "MI",
        "postalCode": "48044-1105"
      }
    ],
    "extension": [
      {
        "url": "https://fhir.athena.io/StructureDefinition/ah-practice",
        "valueReference": {
          "reference": "Organization/a-1.Practice-20203"
        }
      },
      {
        "url": "https://fhir.athena.io/StructureDefinition/ah-brand",
        "valueReference": {
          "reference": "Organization/a-20203.Brand-2"
        }
      }
    ]
  },
  "fullUrl": "urn:uuid:47500ff1-9995-5dec-b1a1-ad06e4476a2a"
}