{
  "resource": {
    "resourceType": "Organization",
    "id": "1b8e6b48-083f-57cb-bd4c-642d46db89c3",
    "name": "Patriot Housecall",
    "endpoint": [
      {
        "reference": "Endpoint/27a4e967-47aa-5a9c-a572-b8297ee268a2"
      },
      {
        "reference": "Endpoint/4d678cd8-735f-547f-8e7a-ef05245e2701"
      }
    ],
    "identifier": [
      {
        "system": "http://hl7.org/fhir/sid/us-npi",
        "value": "1245614536"
      }
    ],
    "address": [
      {
        "line": [
          "335 W. McKinley Way"
        ],
        "city": "YOUNGSTOWN",
        "state": "OH",
        "postalCode": "44514-1681"
      },
      {
        "line": [
          "1500 McKinley Ave"
        ],
        "city": "NILES",
        "state": "OH",
        "postalCode": "44446-3718"
      },
      {
        "line": [
          "2567 Niles Vienna Rd"
        ],
        "city": "NILES",
        "state": "OH",
        "postalCode": "44446-5401"
      },
      {
        "line": [
          "3259 Vestal RD"
        ],
        "city": "YOUNGSTOWN",
        "state": "OH",
        "postalCode": "44509-1062"
      },
      {
        "line": [
          "Two Windsor Place"
        ],
        "city": "WARREN",
        "state": "OH",
        "postalCode": "44483-1456"
      },
      {
        "line": [
          "3150 S Schenley Ave"
        ],
        "city": "YOUNGSTOWN",
        "state": "OH",
        "postalCode": "44511-2862"
      },
      {
        "line": [
          "730 YOUNGSTOWN WARREN RD"
        ],
        "city": "NILES",
        "state": "OH",
        "postalCode": "44446-3575"
      },
      {
        "line": [
          "986 TIBBETTS WICK RD"
        ],
        "city": "GIRARD",
        "state": "OH",
        "postalCode": "44420-1120"
      },
      {
        "line": [
          "2675 N Lipkey Rd"
        ],
        "city": "NORTH JACKSON",
        "state": "OH",
        "postalCode": "44451-9649"
      },
      {
        "line": [
          "301 W Western Reserve Rd"
        ],
        "city": "YOUNGSTOWN",
        "state": "OH",
        "postalCode": "44514-3527"
      },
      {
        "line": [
          "8785 Youngstown Kingsville Rd"
        ],
        "city": "FARMDALE",
        "state": "OH",
        "postalCode": "44417-9803"
      },
      {
        "line": [
          "2300 Canfield Rd"
        ],
        "city": "YOUNGSTOWN",
        "state": "OH",
        "postalCode": "44511-2980"
      },
      {
        "line": [
          "35585 State Route 30 West"
        ],
        "city": "LISBON",
        "state": "OH",
        "postalCode": "44432-9998"
      },
      {
        "line": [
          "1890 Grace Woods Drive"
        ],
        "city": "NILES",
        "state": "OH",
        "postalCode": "44446-3553"
      },
      {
        "line": [
          "8060 South Ave"
        ],
        "city": "YOUNGSTOWN",
        "state": "OH",
        "postalCode": "44512-6108"
      },
      {
        "line": [
          "2345 Lexington Ave"
        ],
        "city": "SALEM",
        "state": "OH",
        "postalCode": "44460-2420"
      },
      {
        "line": [
          "1525 E Western Reserve Rd"
        ],
        "city": "YOUNGSTOWN",
        "state": "OH",
        "postalCode": "44514-3254"
      },
      {
        "line": [
          "986 TIBBETTS WICK RD"
        ],
        "city": "GIRARD",
        "state": "OH",
        "postalCode": "44420-1138"
      },
      {
        "line": [
          "4100 North River Rd NE"
        ],
        "city": "WARREN",
        "state": "OH",
        "postalCode": "44484-1041"
      },
      {
        "line": [
          "986 TIBBETTS-WICK RD"
        ],
        "city": "GIRARD",
        "state": "OH",
        "postalCode": "44420-1120"
      },
      {
        "line": [
          "871 Elmwood Dr"
        ],
        "city": "HUBBARD",
        "state": "OH",
        "postalCode": "44425-9701"
      },
      {
        "line": [
          "18122 Claridon Troy Rd"
        ],
        "city": "HIRAM",
        "state": "OH",
        "postalCode": "44234-9698"
      },
      {
        "line": [
          "730 Youngstown Warren Rd"
        ],
        "city": "NILES",
        "state": "OH",
        "postalCode": "44446-3578"
      },
      {
        "line": [
          "596 Champion Ave West"
        ],
        "city": "WARREN",
        "state": "OH",
        "postalCode": "44483-5039"
      },
      {
        "line": [
          "One Windsor Place"
        ],
        "city": "WARREN",
        "state": "OH",
        "postalCode": "44483-1450"
      },
      {
        "line": [
          "1353 Churchill Hubbard Rd"
        ],
        "city": "YOUNGSTOWN",
        "state": "OH",
        "postalCode": "44505-1380"
      }
    ],
    "extension": [
      {
        "url": "https://fhir.athena.io/StructureDefinition/ah-practice",
        "valueReference": {
          "reference": "Organization/a-1.Practice-19413"
        }
      },
      {
        "url": "https://fhir.athena.io/StructureDefinition/ah-brand",
        "valueReference": {
          "reference": "Organization/a-19413.Brand-1"
        }
      }
    ]
  },
  "fullUrl": "urn:uuid:1b8e6b48-083f-57cb-bd4c-642d46db89c3"
}