{
  "resource": {
    "resourceType": "Organization",
    "id": "05a14d78-e42b-583a-bf01-1bec60985212",
    "name": "Ascension Medical Group",
    "endpoint": [
      {
        "reference": "Endpoint/27a4e967-47aa-5a9c-a572-b8297ee268a2"
      },
      {
        "reference": "Endpoint/41521a60-fb30-5b9e-9880-b151d56839a4"
      }
    ],
    "identifier": [
      {
        "system": "http://hl7.org/fhir/sid/us-npi",
        "value": "1023064482"
      },
      {
        "system": "http://hl7.org/fhir/sid/us-npi",
        "value": "1225071491"
      },
      {
        "system": "http://hl7.org/fhir/sid/us-npi",
        "value": "1811926132"
      },
      {
        "system": "http://hl7.org/fhir/sid/us-npi",
        "value": "1710928221"
      },
      {
        "system": "http://hl7.org/fhir/sid/us-npi",
        "value": "1215945456"
      },
      {
        "system": "http://hl7.org/fhir/sid/us-npi",
        "value": "1376582775"
      },
      {
        "system": "http://hl7.org/fhir/sid/us-npi",
        "value": "1184786329"
      },
      {
        "system": "http://hl7.org/fhir/sid/us-npi",
        "value": "1225075203"
      }
    ],
    "address": [
      {
        "line": [
          "7500 WEST NORTH AVE"
        ],
        "city": "MILWAUKEE",
        "state": "WI",
        "postalCode": "53213-1717"
      },
      {
        "line": [
          "6800 NORTH 76TH STREET"
        ],
        "city": "MILWAUKEE",
        "state": "WI",
        "postalCode": "53223-5002"
      },
      {
        "line": [
          "475 W River Woods Pkwy"
        ],
        "city": "GLENDALE",
        "state": "WI",
        "postalCode": "53212-1081"
      },
      {
        "line": [
          "PO BOX 16523"
        ],
        "city": "BELFAST",
        "state": "ME",
        "postalCode": "04915-4060"
      },
      {
        "line": [
          "2323 N LAKE DR"
        ],
        "city": "MILWAUKEE",
        "state": "WI",
        "postalCode": "53211-4508"
      },
      {
        "line": [
          "2301 N LAKE DR"
        ],
        "city": "MILWAUKEE",
        "state": "WI",
        "postalCode": "53211-4508"
      },
      {
        "line": [
          "13111 N PORT WASHINGTON RD"
        ],
        "city": "MEQUON",
        "state": "WI",
        "postalCode": "53097-2416"
      },
      {
        "line": [
          "2301 N LAKE DRIVE"
        ],
        "city": "MILWAUKEE",
        "state": "WI",
        "postalCode": "53211-4508"
      },
      {
        "line": [
          "2301 N Lake Dr."
        ],
        "city": "MILWAUKEE",
        "state": "WI",
        "postalCode": "53211-4508"
      },
      {
        "line": [
          "19475 W North Ave; Suite 303"
        ],
        "city": "BROOKFIELD",
        "state": "WI",
        "postalCode": "53045-4199"
      },
      {
        "line": [
          "3237 S 16TH STREET"
        ],
        "city": "MILWAUKEE",
        "state": "WI",
        "postalCode": "53215-4526"
      },
      {
        "line": [
          "2462 N PROSPECT"
        ],
        "city": "MILWAUKEE",
        "state": "WI",
        "postalCode": "53211-4451"
      },
      {
        "line": [
          "10101 S 27TH STREET"
        ],
        "city": "FRANKLIN",
        "state": "WI",
        "postalCode": "53132-7209"
      },
      {
        "line": [
          "4848 S 6TH ST"
        ],
        "city": "MILWAUKEE",
        "state": "WI",
        "postalCode": "53221-2462"
      },
      {
        "line": [
          "10803 N PORT WASHINGTON RD"
        ],
        "city": "MEQUON",
        "state": "WI",
        "postalCode": "53092-5085"
      },
      {
        "line": [
          "2323 N LAKE DRIVE"
        ],
        "city": "MILWAUKEE",
        "state": "WI",
        "postalCode": "53211-4508"
      },
      {
        "line": [
          "2505 E BRADFORD AVE"
        ],
        "city": "MILWAUKEE",
        "state": "WI",
        "postalCode": "53211-4262"
      },
      {
        "line": [
          "10995 N Market St"
        ],
        "city": "Mequon",
        "state": "WI",
        "postalCode": "53092-4952"
      },
      {
        "line": [
          "12600 N PORT WASHINGTON RD"
        ],
        "city": "MEQUON",
        "state": "WI",
        "postalCode": "53092-3469"
      },
      {
        "line": [
          "N109 W17525 VIRGINIA AVE"
        ],
        "city": "GERMANTOWN",
        "state": "WI",
        "postalCode": "53022-1111"
      },
      {
        "line": [
          "6729 W MEQUON ROAD"
        ],
        "city": "MEQUON",
        "state": "WI",
        "postalCode": "53092-1818"
      },
      {
        "line": [
          "10101 S 27TH ST"
        ],
        "city": "FRANKLIN",
        "state": "WI",
        "postalCode": "53132-7209"
      },
      {
        "line": [
          "3237 SOUTH 16TH ST"
        ],
        "city": "MILWAUKEE",
        "state": "WI",
        "postalCode": "53215-4526"
      },
      {
        "line": [
          "2425 N LAKE DR"
        ],
        "city": "MILWAUKEE",
        "state": "WI",
        "postalCode": "53211-4517"
      },
      {
        "line": [
          "1610 HOOVER STREET"
        ],
        "city": "NEW HOLSTEIN",
        "state": "WI",
        "postalCode": "53061-1636"
      },
      {
        "line": [
          "10995 N MARKET ST"
        ],
        "city": "MEQUON",
        "state": "WI",
        "postalCode": "53092-4952"
      },
      {
        "line": [
          "19333 W NORTH AVE"
        ],
        "city": "BROOKFIELD",
        "state": "WI",
        "postalCode": "53045-4132"
      },
      {
        "line": [
          "W76N677 Wauwatosa Rd"
        ],
        "city": "CEDARBURG",
        "state": "WI",
        "postalCode": "53012-1707"
      },
      {
        "line": [
          "W176 N9430 RIVERCREST DR"
        ],
        "city": "MENOMONEE FALLS",
        "state": "WI",
        "postalCode": "53051-1111"
      },
      {
        "line": [
          "W76 N677 WAUWATOSA ROAD"
        ],
        "city": "CEDARBURG",
        "state": "WI",
        "postalCode": "53012-1707"
      },
      {
        "line": [
          "1111 E CAPITAL DRIVE"
        ],
        "city": "SHOREWOOD",
        "state": "WI",
        "postalCode": "53211-1810"
      },
      {
        "line": [
          "101 WALNUT CIRCLE"
        ],
        "city": "GRAFTON",
        "state": "WI",
        "postalCode": "53024-2452"
      },
      {
        "line": [
          "13111 N Port Washington Rd"
        ],
        "city": "MEQUON",
        "state": "WI",
        "postalCode": "53097-2416"
      },
      {
        "line": [
          "7500 W NORTH AVE"
        ],
        "city": "MILWAUKEE",
        "state": "WI",
        "postalCode": "53213-1717"
      },
      {
        "line": [
          "475 W RIVER WOODS PKWY"
        ],
        "city": "GLENDALE",
        "state": "WI",
        "postalCode": "53212-1081"
      },
      {
        "line": [
          "3800 N 92ND ST"
        ],
        "city": "MILWAUKEE",
        "state": "WI",
        "postalCode": "53222-2504"
      },
      {
        "line": [
          "W72 N675 HARRISON AVE"
        ],
        "city": "CEDARBURG",
        "state": "WI",
        "postalCode": "53012-1725"
      },
      {
        "line": [
          "1231 EISNER AVE"
        ],
        "city": "SHEBOYGAN",
        "state": "WI",
        "postalCode": "53083-3060"
      },
      {
        "line": [
          "801 S 70th St"
        ],
        "city": "MILWAUKEE",
        "state": "WI",
        "postalCode": "53214-3147"
      },
      {
        "line": [
          "7325 N PORT WASHINGTON ROAD"
        ],
        "city": "GLENDALE",
        "state": "WI",
        "postalCode": "53217-3416"
      },
      {
        "line": [],
        "city": "MILWAUKEE",
        "state": "WI",
        "postalCode": "53212-1082"
      },
      {
        "line": [
          "800 WALL STREET"
        ],
        "city": "ELM GROVE",
        "state": "WI",
        "postalCode": "53122-2631"
      },
      {
        "line": [
          "8220 HARWOOD AVE"
        ],
        "city": "MILWAUKEE",
        "state": "WI",
        "postalCode": "53213-2562"
      },
      {
        "line": [
          "7800 N GREEN BAY ROAD"
        ],
        "city": "GLENDALE",
        "state": "WI",
        "postalCode": "53217-2047"
      },
      {
        "line": [
          "W76N677 WAUWATSA ROAD"
        ],
        "city": "CEDARBURG",
        "state": "WI",
        "postalCode": "53012-1707"
      },
      {
        "line": [
          "13125 N PORT WOASHINGTON RD"
        ],
        "city": "MEQUON",
        "state": "WI",
        "postalCode": "53097-2416"
      },
      {
        "line": [
          "2061 CHEYENNE CT"
        ],
        "city": "GRAFTON",
        "state": "WI",
        "postalCode": "53024-9368"
      },
      {
        "line": [
          "11400 W LAKE PARK DR"
        ],
        "city": "MILWAUKEE",
        "state": "WI",
        "postalCode": "53224-3035"
      },
      {
        "line": [
          "801 S 70th St"
        ],
        "city": "West Allis",
        "state": "WI",
        "postalCode": "53214-3147"
      },
      {
        "line": [
          "2301 N Lake Dr"
        ],
        "city": "Milwaukee",
        "state": "WI",
        "postalCode": "53211-4508"
      },
      {
        "line": [
          "5000 W Chambers St"
        ],
        "city": "Milwaukee",
        "state": "WI",
        "postalCode": "53210-1650"
      },
      {
        "line": [
          "12600 N PORT WASHINGTON ROAD"
        ],
        "city": "MEQUON",
        "state": "WI",
        "postalCode": "53092-3469"
      },
      {
        "line": [
          "W156N4881 PILGRIM ROAD"
        ],
        "city": "MENOMONEE FALLS",
        "state": "WI",
        "postalCode": "53051-6920"
      },
      {
        "line": [
          "7300 W DEAN RD"
        ],
        "city": "MILWAUKEE",
        "state": "WI",
        "postalCode": "53223-2637"
      },
      {
        "line": [
          "13111 N PORT WASHINGTON ROAD"
        ],
        "city": "MEQUON",
        "state": "WI",
        "postalCode": "53097-2416"
      },
      {
        "line": [
          "10101 W WISCONSIN AVE"
        ],
        "city": "WAUWATOSA",
        "state": "WI",
        "postalCode": "53226-4861"
      },
      {
        "line": [
          "11400 W LAKE PARK DRIVE"
        ],
        "city": "MILWAUKEE",
        "state": "WI",
        "postalCode": "53224-3035"
      },
      {
        "line": [
          "2003 APPLE TREE ROAD"
        ],
        "city": "HOWARDS GROVE",
        "state": "WI",
        "postalCode": "53083-1514"
      },
      {
        "line": [
          "3237 S 16TH ST"
        ],
        "city": "MILWAUKEE",
        "state": "WI",
        "postalCode": "53215-4526"
      },
      {
        "line": [
          "13125 N PORT WASHINGTON RD"
        ],
        "city": "MEQUON",
        "state": "WI",
        "postalCode": "53097-2416"
      },
      {
        "line": [
          "W76N677 WAUWATOSA RD"
        ],
        "city": "CEDARBURG",
        "state": "WI",
        "postalCode": "53012-1707"
      },
      {
        "line": [
          "1706 WASHINGTON ST"
        ],
        "city": "GRAFTON",
        "state": "WI",
        "postalCode": "53024-2101"
      },
      {
        "line": [
          "4425 N Port Washington Rd"
        ],
        "city": "Milwaukee",
        "state": "WI",
        "postalCode": "53212-1082"
      },
      {
        "line": [
          "2586 VALLEY ROAD"
        ],
        "city": "PLYMOUTH",
        "state": "WI",
        "postalCode": "53073-4964"
      },
      {
        "line": [
          "2115 E WOODSTOCK PLACE"
        ],
        "city": "MILWAUKEE",
        "state": "WI",
        "postalCode": "53202-1342"
      },
      {
        "line": [
          "6900 N PORT WASHINGTON RD"
        ],
        "city": "GLENDALE",
        "state": "WI",
        "postalCode": "53217-3921"
      },
      {
        "line": [
          "2429 BRADFORD TERRACE"
        ],
        "city": "MILWAUKEE",
        "state": "WI",
        "postalCode": "53211-4100"
      },
      {
        "line": [
          "530 N 103RD ST"
        ],
        "city": "MILWAUKEE",
        "state": "WI",
        "postalCode": "53226-4375"
      },
      {
        "line": [
          "375 W RIVERWOODS PKWY"
        ],
        "city": "GLENDALE",
        "state": "WI",
        "postalCode": "53121-1081"
      },
      {
        "line": [
          "2323 S 102ND ST"
        ],
        "city": "WEST ALLIS",
        "state": "WI",
        "postalCode": "53227-2103"
      },
      {
        "line": [
          "4221 KADLEC DR"
        ],
        "city": "SHEBOYGAN",
        "state": "WI",
        "postalCode": "53083-1777"
      },
      {
        "line": [
          "2350 N LAKE DRIVE"
        ],
        "city": "MILWAUKEE",
        "state": "WI",
        "postalCode": "53211-4508"
      },
      {
        "line": [
          "3505 Cty Rd Y"
        ],
        "city": "SHEBOYGAN",
        "state": "WI",
        "postalCode": "53083-4932"
      },
      {
        "line": [
          "N113W16358 Sylvan Circle"
        ],
        "city": "GERMANTOWN",
        "state": "WI",
        "postalCode": "53022-6004"
      },
      {
        "line": [
          "2301 N Lake Dr"
        ],
        "city": "MILWAUKEE",
        "state": "WI",
        "postalCode": "53211-4508"
      },
      {
        "line": [
          "9279 N PORT WASHINGTON RD"
        ],
        "city": "MILWAUKEE",
        "state": "WI",
        "postalCode": "53217-1254"
      },
      {
        "line": [
          "6263 N GREEN BAY RD"
        ],
        "city": "MILWAUKEE",
        "state": "WI",
        "postalCode": "53209-3823"
      },
      {
        "line": [
          "201 N MAYFAIR ROAD"
        ],
        "city": "MILWAUKEE",
        "state": "WI",
        "postalCode": "53226-4216"
      }
    ],
    "extension": [
      {
        "url": "https://fhir.athena.io/StructureDefinition/ah-practice",
        "valueReference": {
          "reference": "Organization/a-1.Practice-11299"
        }
      },
      {
        "url": "https://fhir.athena.io/StructureDefinition/ah-brand",
        "valueReference": {
          "reference": "Organization/a-11299.Brand-1"
        }
      }
    ]
  },
  "fullUrl": "urn:uuid:05a14d78-e42b-583a-bf01-1bec60985212"
}