{
  "resource": {
    "resourceType": "Organization",
    "id": "1f1542cf-0b87-54fb-866a-f799bb36bb23",
    "name": "ADVANCED ORTHOPEDICS",
    "endpoint": [
      {
        "reference": "Endpoint/27a4e967-47aa-5a9c-a572-b8297ee268a2"
      },
      {
        "reference": "Endpoint/5f26a6ac-b69f-521e-91d0-95ac594c3182"
      }
    ],
    "identifier": [
      {
        "system": "http://hl7.org/fhir/sid/us-npi",
        "value": "1609284025"
      },
      {
        "system": "http://hl7.org/fhir/sid/us-npi",
        "value": "1467598524"
      }
    ],
    "address": [
      {
        "line": [
          "240 Adriatica Pkway"
        ],
        "city": "MCKINNEY",
        "state": "TX",
        "postalCode": "75070-9999"
      },
      {
        "line": [
          "1705 OHIO DRIVE",
          "SUITE 200"
        ],
        "city": "PLANO",
        "state": "TX",
        "postalCode": "75093-5257"
      },
      {
        "line": [
          "Medical Office Building",
          "5680 Frisco Square Blvd Suite 2200"
        ],
        "city": "FRISCO",
        "state": "TX",
        "postalCode": "75034-3312"
      },
      {
        "line": [
          "7777 FOREST LN"
        ],
        "city": "DALLAS",
        "state": "TX",
        "postalCode": "75230-2571"
      },
      {
        "line": [
          "11990 North Central Expressway"
        ],
        "city": "DALLAS",
        "state": "TX",
        "postalCode": "75243-3714"
      },
      {
        "line": [
          "8000 Eldorado PKWY"
        ],
        "city": "PLANO",
        "state": "TX",
        "postalCode": "75075-4136"
      },
      {
        "line": [],
        "city": "PLANO",
        "state": "TX",
        "postalCode": "75093-5257"
      },
      {
        "line": [
          "6045 ALMA RD"
        ],
        "city": "MCKINNEY",
        "state": "TX",
        "postalCode": "75070-2188"
      },
      {
        "line": [
          "6045  ALMA ROAD",
          "STE 100"
        ],
        "city": "MCKINNEY",
        "state": "TX",
        "postalCode": "75070-2188"
      }
    ],
    "extension": [
      {
        "url": "https://fhir.athena.io/StructureDefinition/ah-practice",
        "valueReference": {
          "reference": "Organization/a-1.Practice-7058"
        }
      },
      {
        "url": "https://fhir.athena.io/StructureDefinition/ah-brand",
        "valueReference": {
          "reference": "Organization/a-7058.Brand-1"
        }
      }
    ]
  },
  "fullUrl": "urn:uuid:1f1542cf-0b87-54fb-866a-f799bb36bb23"
}