{
  "resource": {
    "resourceType": "Organization",
    "id": "998587e6-f77c-50ab-a197-d72986a7ef4b",
    "name": "MinuteClinic",
    "endpoint": [
      {
        "reference": "Endpoint/27a4e967-47aa-5a9c-a572-b8297ee268a2"
      },
      {
        "reference": "Endpoint/43f31f18-262e-54d7-b4aa-41f4080f11c5"
      }
    ],
    "identifier": [
      {
        "system": "http://hl7.org/fhir/sid/us-npi",
        "value": "1407227945"
      }
    ],
    "address": [
      {
        "line": [
          "15560 Pilot Knob Rd"
        ],
        "city": "SAINT PAUL",
        "state": "MN",
        "postalCode": "55124-7286"
      },
      {
        "line": [
          "11990 Business Park Blvd"
        ],
        "city": "CHAMPLIN",
        "state": "MN",
        "postalCode": "55316-2005"
      },
      {
        "line": [
          "4848 County Rd 101"
        ],
        "city": "MINNETONKA",
        "state": "MN",
        "postalCode": "55345-2635"
      },
      {
        "line": [
          "7000 York Ave S"
        ],
        "city": "MINNEAPOLIS",
        "state": "MN",
        "postalCode": "55435-4213"
      },
      {
        "line": [
          "2426 WEST BROADWAY AVE"
        ],
        "city": "MINNEAPOLIS",
        "state": "MN",
        "postalCode": "55411-1735"
      },
      {
        "line": [
          "1750 Robert St S"
        ],
        "city": "SAINT PAUL",
        "state": "MN",
        "postalCode": "55118-3919"
      },
      {
        "line": [
          "13201 Ridgedale Dr"
        ],
        "city": "HOPKINS",
        "state": "MN",
        "postalCode": "55305-1809"
      },
      {
        "line": [
          "111 Pioneer Trail"
        ],
        "city": "CHASKA",
        "state": "MN",
        "postalCode": "55318-1121"
      },
      {
        "line": [
          "7200 Valley Creek Plz"
        ],
        "city": "SAINT PAUL",
        "state": "MN",
        "postalCode": "55125-2265"
      },
      {
        "line": [
          "15300 Grove Circle N"
        ],
        "city": "OSSEO",
        "state": "MN",
        "postalCode": "55369-4469"
      },
      {
        "line": [
          "6445 Richfield Pkwy"
        ],
        "city": "MINNEAPOLIS",
        "state": "MN",
        "postalCode": "55423-6400"
      },
      {
        "line": [
          "7841 Amana Trail"
        ],
        "city": "INVER GROVE HEIGHTS",
        "state": "MN",
        "postalCode": "55077-2609"
      },
      {
        "line": [
          "2199 Hwy 36 E"
        ],
        "city": "SAINT PAUL",
        "state": "MN",
        "postalCode": "55109-2215"
      },
      {
        "line": [
          "1250 NORTHLAND DR, SUITE 100"
        ],
        "city": "SAINT PAUL",
        "state": "MN",
        "postalCode": "55120-1174"
      },
      {
        "line": [
          "8225 Flying Cloud Dr"
        ],
        "city": "EDEN PRAIRIE",
        "state": "MN",
        "postalCode": "55344-5315"
      },
      {
        "line": [
          "1300 University Ave W"
        ],
        "city": "SAINT PAUL",
        "state": "MN",
        "postalCode": "55104-4103"
      },
      {
        "line": [
          "875 E Main St"
        ],
        "city": "WACONIA",
        "state": "MN",
        "postalCode": "55387-1081"
      },
      {
        "line": [
          "8900 Hwy 7"
        ],
        "city": "MINNEAPOLIS",
        "state": "MN",
        "postalCode": "55426-3919"
      },
      {
        "line": [
          "755 53rd Ave NE"
        ],
        "city": "MINNEAPOLIS",
        "state": "MN",
        "postalCode": "55421-1240"
      },
      {
        "line": [
          "15800 87th St NE"
        ],
        "city": "ELK RIVER",
        "state": "MN",
        "postalCode": "55330-6546"
      },
      {
        "line": [
          "449 Commerce Dr"
        ],
        "city": "SAINT PAUL",
        "state": "MN",
        "postalCode": "55125-4872"
      },
      {
        "line": [
          "18275 Kenrick Ave"
        ],
        "city": "LAKEVILLE",
        "state": "MN",
        "postalCode": "55044-7306"
      },
      {
        "line": [
          "1515 County Road BW"
        ],
        "city": "ROSEVILLE",
        "state": "MN",
        "postalCode": "55113-6005"
      },
      {
        "line": [
          "1650 New Brighton Blvd"
        ],
        "city": "MINNEAPOLIS",
        "state": "MN",
        "postalCode": "55413-1643"
      },
      {
        "line": [
          "810 County Rd 42 W"
        ],
        "city": "BURNSVILLE",
        "state": "MN",
        "postalCode": "55337-4426"
      },
      {
        "line": [
          "3800 Lexington Ave N"
        ],
        "city": "SAINT PAUL",
        "state": "MN",
        "postalCode": "55126-2916"
      },
      {
        "line": [
          "1500 109th Ave NE"
        ],
        "city": "Blaine",
        "state": "MN",
        "postalCode": "55449-4670"
      }
    ],
    "extension": [
      {
        "url": "https://fhir.athena.io/StructureDefinition/ah-practice",
        "valueReference": {
          "reference": "Organization/a-1.Practice-12667"
        }
      },
      {
        "url": "https://fhir.athena.io/StructureDefinition/ah-brand",
        "valueReference": {
          "reference": "Organization/a-12667.Brand-1"
        }
      }
    ]
  },
  "fullUrl": "urn:uuid:998587e6-f77c-50ab-a197-d72986a7ef4b"
}