{
  "resource": {
    "resourceType": "Organization",
    "id": "07c67f1c-cb23-52b3-9c91-6d5c199cfbf0",
    "name": "ADVENT HEALTH - LAKE WALES ER",
    "endpoint": [
      {
        "reference": "Endpoint/27a4e967-47aa-5a9c-a572-b8297ee268a2"
      },
      {
        "reference": "Endpoint/5b9579ad-104d-5251-a27e-72a50a776b49"
      }
    ],
    "identifier": [
      {
        "system": "http://hl7.org/fhir/sid/us-npi",
        "value": "1811122880"
      }
    ],
    "address": [
      {
        "line": [
          "2237 LITHIA CENTER LANE"
        ],
        "city": "VALRICO",
        "state": "FL",
        "postalCode": "33596-5676"
      },
      {
        "line": [
          "713 E Marion Ave",
          "Suite 147"
        ],
        "city": "PUNTA GORDA",
        "state": "FL",
        "postalCode": "33950-3868"
      },
      {
        "line": [
          "260 BETH STACEY BLVD UNIT 130"
        ],
        "city": "LEHIGH ACRES",
        "state": "FL",
        "postalCode": "33936-6074"
      },
      {
        "line": [
          "17901 SUMMERLIN RD STE C"
        ],
        "city": "FORT MYERS",
        "state": "FL",
        "postalCode": "33908-5765"
      },
      {
        "line": [
          "1735 SW HEALTH PKWY",
          "STE 201"
        ],
        "city": "NAPLES",
        "state": "FL",
        "postalCode": "34109-0421"
      },
      {
        "line": [
          "4130 TAMIAMI TRAIL",
          "STE 2"
        ],
        "city": "PORT CHARLOTTE",
        "state": "FL",
        "postalCode": "33952-9207"
      },
      {
        "line": [
          "150 W. MCKENZIE STREET",
          "STE 115"
        ],
        "city": "PUNTA GORDA",
        "state": "FL",
        "postalCode": "33950-5500"
      },
      {
        "line": [
          "2689 ART MUSEUM DR"
        ],
        "city": "JACKSONVILLE",
        "state": "FL",
        "postalCode": "32207-4861"
      },
      {
        "line": [
          "410 S 11TH ST"
        ],
        "city": "LAKE WALES",
        "state": "FL",
        "postalCode": "33853-4203"
      }
    ],
    "extension": [
      {
        "url": "https://fhir.athena.io/StructureDefinition/ah-practice",
        "valueReference": {
          "reference": "Organization/a-1.Practice-4290"
        }
      },
      {
        "url": "https://fhir.athena.io/StructureDefinition/ah-brand",
        "valueReference": {
          "reference": "Organization/a-4290.Brand-1"
        }
      }
    ]
  },
  "fullUrl": "urn:uuid:07c67f1c-cb23-52b3-9c91-6d5c199cfbf0"
}