{
  "resource": {
    "resourceType": "Organization",
    "id": "a2729118-9ebf-56ac-8d25-aa2cd100ec6d",
    "name": "SaVida Health",
    "endpoint": [
      {
        "reference": "Endpoint/27a4e967-47aa-5a9c-a572-b8297ee268a2"
      },
      {
        "reference": "Endpoint/f5cd75ca-d302-5829-9dbb-fb71c56c80a4"
      }
    ],
    "identifier": [
      {
        "system": "http://hl7.org/fhir/sid/us-npi",
        "value": "1285388546"
      },
      {
        "system": "http://hl7.org/fhir/sid/us-npi",
        "value": "1316253875"
      },
      {
        "system": "http://hl7.org/fhir/sid/us-npi",
        "value": "1598225021"
      },
      {
        "system": "http://hl7.org/fhir/sid/us-npi",
        "value": "1396201000"
      },
      {
        "system": "http://hl7.org/fhir/sid/us-npi",
        "value": "1861118846"
      },
      {
        "system": "http://hl7.org/fhir/sid/us-npi",
        "value": "1548739170"
      },
      {
        "system": "http://hl7.org/fhir/sid/us-npi",
        "value": "1588226328"
      }
    ],
    "address": [
      {
        "line": [
          "368 River Street"
        ],
        "city": "SPRINGFIELD",
        "state": "VT",
        "postalCode": "05156-2242"
      },
      {
        "line": [
          "4923 Ogletown Stanton Road",
          "Suite 110"
        ],
        "city": "NEWARK",
        "state": "DE",
        "postalCode": "19713-2012"
      },
      {
        "line": [
          "31 Lower Main Street",
          "Suite 3"
        ],
        "city": "MORRISVILLE",
        "state": "VT",
        "postalCode": "05661-6100"
      },
      {
        "line": [
          "655 Main Street",
          "Suite 2"
        ],
        "city": "BENNINGTON",
        "state": "VT",
        "postalCode": "05201-2225"
      },
      {
        "line": [
          "50 Union St"
        ],
        "city": "WEST SPRINGFIELD",
        "state": "MA",
        "postalCode": "01089-3317"
      },
      {
        "line": [
          "462 Hegeman Ave"
        ],
        "city": "COLCHESTER",
        "state": "VT",
        "postalCode": "05446-3187"
      },
      {
        "line": [
          "214 Main St"
        ],
        "city": "VERGENNES",
        "state": "VT",
        "postalCode": "05491-1157"
      },
      {
        "line": [
          "79 Coventry St"
        ],
        "city": "NEWPORT",
        "state": "VT",
        "postalCode": "05855-2206"
      },
      {
        "line": [
          "77 Hospital Dr",
          "Suite 104"
        ],
        "city": "NORTH ADAMS",
        "state": "MA",
        "postalCode": "01247-2538"
      },
      {
        "line": [
          "489 Bernardston Rd"
        ],
        "city": "GREENFIELD",
        "state": "MA",
        "postalCode": "01301-1238"
      },
      {
        "line": [
          "409 Alfred St",
          "Units 4 & 5"
        ],
        "city": "BIDDEFORD",
        "state": "ME",
        "postalCode": "04005-3756"
      },
      {
        "line": [
          "17 Catherine Street"
        ],
        "city": "SAINT ALBANS",
        "state": "VT",
        "postalCode": "05478-2205"
      },
      {
        "line": [
          "147 Riverside Dr",
          "Suite 1"
        ],
        "city": "AUGUSTA",
        "state": "ME",
        "postalCode": "04330-4100"
      },
      {
        "line": [
          "41 Acme Rd",
          "Suite 3"
        ],
        "city": "BREWER",
        "state": "ME",
        "postalCode": "04412-1543"
      }
    ],
    "extension": [
      {
        "url": "https://fhir.athena.io/StructureDefinition/ah-practice",
        "valueReference": {
          "reference": "Organization/a-1.Practice-24804"
        }
      },
      {
        "url": "https://fhir.athena.io/StructureDefinition/ah-brand",
        "valueReference": {
          "reference": "Organization/a-24804.Brand-1"
        }
      }
    ]
  },
  "fullUrl": "urn:uuid:a2729118-9ebf-56ac-8d25-aa2cd100ec6d"
}