{
  "resource": {
    "resourceType": "Organization",
    "id": "3cc8468a-46f0-509a-9fa2-7dca646146e4",
    "name": "Pedro A Blandon MD PA",
    "endpoint": [
      {
        "reference": "Endpoint/27a4e967-47aa-5a9c-a572-b8297ee268a2"
      },
      {
        "reference": "Endpoint/7a142f58-bcc1-5514-91fc-0a2d4447b556"
      }
    ],
    "identifier": [
      {
        "system": "http://hl7.org/fhir/sid/us-npi",
        "value": "1275531469"
      }
    ],
    "address": [
      {
        "line": [
          "11989 PELLICANO DR"
        ],
        "city": "EL PASO",
        "state": "TX",
        "postalCode": "79936-6287"
      },
      {
        "line": [
          "1310 MURCHISON DR STE 200"
        ],
        "city": "EL PASO",
        "state": "TX",
        "postalCode": "79902-4821"
      },
      {
        "line": [
          "2204 JOE BATTLE BLVD"
        ],
        "city": "EL PASO",
        "state": "TX",
        "postalCode": "79938-4660"
      },
      {
        "line": [
          "10651 N LOOP DR"
        ],
        "city": "EL PASO",
        "state": "TX",
        "postalCode": "79927-4763"
      },
      {
        "line": [
          "7933 N MESA ST STE H"
        ],
        "city": "EL PASO",
        "state": "TX",
        "postalCode": "79932-1699"
      },
      {
        "line": [
          "5800 WOODROW BEAN TRANSMOUNTAIN"
        ],
        "city": "EL PASO",
        "state": "TX",
        "postalCode": "79924-5060"
      },
      {
        "line": [
          "12245 ROJAS DR"
        ],
        "city": "EL PASO",
        "state": "TX",
        "postalCode": "79936-7750"
      },
      {
        "line": [
          "1211 E CLIFF DR"
        ],
        "city": "EL PASO",
        "state": "TX",
        "postalCode": "79902-4734"
      },
      {
        "line": [
          "1430 NORTHWESTERN DR"
        ],
        "city": "EL PASO",
        "state": "TX",
        "postalCode": "79912-8043"
      },
      {
        "line": [
          "1225 E CLIFF DR STE 1A"
        ],
        "city": "EL PASO",
        "state": "TX",
        "postalCode": "79902-4700"
      },
      {
        "line": [
          "1250 EAST CLIFF",
          "3E"
        ],
        "city": "EL PASO",
        "state": "TX",
        "postalCode": "79902-2152"
      },
      {
        "line": [
          "10501 GATEWAY WEST STE 610"
        ],
        "city": "EL PASO",
        "state": "TX",
        "postalCode": "79925-7929"
      },
      {
        "line": [
          "2929 MONTANA AVE"
        ],
        "city": "EL PASO",
        "state": "TX",
        "postalCode": "79903-2409"
      },
      {
        "line": [
          "10697 N LOOP DR"
        ],
        "city": "EL PASO",
        "state": "TX",
        "postalCode": "79927-6400"
      },
      {
        "line": [
          "3359 FRED WILSON AVE"
        ],
        "city": "EL PASO",
        "state": "TX",
        "postalCode": "79904-6087"
      },
      {
        "line": [
          "3100 N STANTON ST"
        ],
        "city": "EL PASO",
        "state": "TX",
        "postalCode": "79902-2310"
      },
      {
        "line": [
          "10112 DYER STREET"
        ],
        "city": "EL PASO",
        "state": "TX",
        "postalCode": "79924-4246"
      },
      {
        "line": [
          "715 N AMERICAS AVE"
        ],
        "city": "EL PASO",
        "state": "TX",
        "postalCode": "79907-7004"
      },
      {
        "line": [
          "7200 GATEWAY BLVD E STE B"
        ],
        "city": "EL PASO",
        "state": "TX",
        "postalCode": "79915-1301"
      },
      {
        "line": [
          "5595 ALAMEDA",
          "STE B"
        ],
        "city": "EL PASO",
        "state": "TX",
        "postalCode": "79905-2915"
      },
      {
        "line": [
          "1382 LOMALAND DR , STE A"
        ],
        "city": "EL PASO",
        "state": "TX",
        "postalCode": "79935-5204"
      },
      {
        "line": [
          "12249 ROJAS DR"
        ],
        "city": "EL PASO",
        "state": "TX",
        "postalCode": "79936-7750"
      },
      {
        "line": [
          "10651 N. LOOP DR."
        ],
        "city": "EL PASO",
        "state": "TX",
        "postalCode": "79927-4763"
      },
      {
        "line": [
          "10501 GATEWAY WEST",
          "SUITE 610"
        ],
        "city": "EL PASO",
        "state": "TX",
        "postalCode": "79925-7919"
      },
      {
        "line": [
          "5612 DYER ST"
        ],
        "city": "EL PASO",
        "state": "TX",
        "postalCode": "79904-6242"
      },
      {
        "line": [
          "10767 GATEWAY BLVD W STE 600"
        ],
        "city": "EL PASO",
        "state": "TX",
        "postalCode": "79935-4918"
      }
    ],
    "extension": [
      {
        "url": "https://fhir.athena.io/StructureDefinition/ah-practice",
        "valueReference": {
          "reference": "Organization/a-1.Practice-29251"
        }
      },
      {
        "url": "https://fhir.athena.io/StructureDefinition/ah-brand",
        "valueReference": {
          "reference": "Organization/a-29251.Brand-1"
        }
      }
    ]
  },
  "fullUrl": "urn:uuid:3cc8468a-46f0-509a-9fa2-7dca646146e4"
}