{
  "resource": {
    "resourceType": "Organization",
    "id": "af5d944e-5c74-51d1-89eb-2817595cff0d",
    "name": "Kingston Medical Group",
    "endpoint": [
      {
        "reference": "Endpoint/27a4e967-47aa-5a9c-a572-b8297ee268a2"
      },
      {
        "reference": "Endpoint/3f975168-ce9a-5db3-b2ca-e16d77c3681f"
      }
    ],
    "identifier": [
      {
        "system": "http://hl7.org/fhir/sid/us-npi",
        "value": "1881634251"
      }
    ],
    "address": [
      {
        "line": [
          "2520 CHERRY AVE"
        ],
        "city": "BREMERTON",
        "state": "WA",
        "postalCode": "98310-4229"
      },
      {
        "line": [
          "10944PEONY PL NW"
        ],
        "city": "SILVERDALE",
        "state": "WA",
        "postalCode": "98383-7993"
      },
      {
        "line": [
          "1003 SHERIDAN RD"
        ],
        "city": "BREMERTON",
        "state": "WA",
        "postalCode": "98310-2731"
      },
      {
        "line": [
          "14615 FOREST GLEN RD"
        ],
        "city": "PORT ORCHARD",
        "state": "WA",
        "postalCode": "98367-9473"
      },
      {
        "line": [
          "8388 HICKORY ST NE"
        ],
        "city": "BREMERTON",
        "state": "WA",
        "postalCode": "98311-8795"
      },
      {
        "line": [
          "6511 rest pl ne"
        ],
        "city": "BREMERTON",
        "state": "WA",
        "postalCode": "98311-9663"
      },
      {
        "line": [
          "2707 CLARE AVE"
        ],
        "city": "BREMERTON",
        "state": "WA",
        "postalCode": "98310-3337"
      },
      {
        "line": [
          "Silverdale Memory Care",
          "11313 Clear Creek Rd NW"
        ],
        "city": "SILVERDALE",
        "state": "WA",
        "postalCode": "98383-9659"
      },
      {
        "line": [
          "2333 NW SCHOLD PL"
        ],
        "city": "SILVERDALE",
        "state": "WA",
        "postalCode": "98383-9504"
      },
      {
        "line": [
          "19360 VIKING AVE NW"
        ],
        "city": "POULSBO",
        "state": "WA",
        "postalCode": "98370-7205"
      },
      {
        "line": [
          "BROOKDALE MONTCLAIR POULSBO",
          "1250 NE LINCOLN RD"
        ],
        "city": "POULSBO",
        "state": "WA",
        "postalCode": "98370-8558"
      },
      {
        "line": [
          "2321 NW SCHOLD PL"
        ],
        "city": "SILVERDALE",
        "state": "WA",
        "postalCode": "98383-9504"
      },
      {
        "line": [
          "966 OYSTER BAY CRT"
        ],
        "city": "BREMERTON",
        "state": "WA",
        "postalCode": "98312-2472"
      },
      {
        "line": [
          "11353 CLEAR CREEK RD NW"
        ],
        "city": "SILVERDALE",
        "state": "WA",
        "postalCode": "98383-3028"
      },
      {
        "line": [
          "191 RUSSELL RD"
        ],
        "city": "BREMERTON",
        "state": "WA",
        "postalCode": "98312-3415"
      },
      {
        "line": [
          "5049 ANDERSON HILL RD"
        ],
        "city": "SILVERDALE",
        "state": "WA",
        "postalCode": "98383-9222"
      },
      {
        "line": [
          "3898WINDY RIDGE LN"
        ],
        "city": "SILVERDALE",
        "state": "WA",
        "postalCode": "98383-9455"
      },
      {
        "line": [
          "2637 SE CHASEWOOD CT"
        ],
        "city": "PORT ORCHARD",
        "state": "WA",
        "postalCode": "98366-5575"
      },
      {
        "line": [
          "12325 SKYMONT PL NW"
        ],
        "city": "SILVERDALE",
        "state": "WA",
        "postalCode": "98383-9457"
      },
      {
        "line": [
          "2601 CHERRY AVE STE 213"
        ],
        "city": "BREMERTON",
        "state": "WA",
        "postalCode": "98310-4208"
      },
      {
        "line": [
          "835 Madion ave N"
        ],
        "city": "BAINBRIDGE ISLAND",
        "state": "WA",
        "postalCode": "98110-1700"
      },
      {
        "line": [
          "8557 COVIN LOOP NE"
        ],
        "city": "BREMERTON",
        "state": "WA",
        "postalCode": "98310-8605"
      },
      {
        "line": [
          "2944 SE LUND AVE"
        ],
        "city": "PORT ORCHARD",
        "state": "WA",
        "postalCode": "98366-5503"
      },
      {
        "line": [
          "2055 POTTERY AVE"
        ],
        "city": "PORT ORCHARD",
        "state": "WA",
        "postalCode": "98366-2051"
      },
      {
        "line": [
          "2601 cherry ave 213"
        ],
        "city": "BREMERTON",
        "state": "WA",
        "postalCode": "98310-4208"
      },
      {
        "line": [
          "960 PERU AVE E"
        ],
        "city": "PORT ORCHARD",
        "state": "WA",
        "postalCode": "98366-8323"
      },
      {
        "line": [
          "2571 PERRY AVE"
        ],
        "city": "BREMERTON",
        "state": "WA",
        "postalCode": "98310-5281"
      },
      {
        "line": [
          "19160 Front St NE"
        ],
        "city": "POULSBO",
        "state": "WA",
        "postalCode": "98370-6298"
      },
      {
        "line": [
          "4821 RIDGEMOUNT DR NE"
        ],
        "city": "BREMERTON",
        "state": "WA",
        "postalCode": "98311-3041"
      },
      {
        "line": [
          "2686 SISKIN CIRCLE"
        ],
        "city": "PORT ORCHARD",
        "state": "WA",
        "postalCode": "98367-6201"
      },
      {
        "line": [
          "835 MADION AVE N"
        ],
        "city": "BAINBRIDGE ISLAND",
        "state": "WA",
        "postalCode": "98110-1700"
      },
      {
        "line": [
          "8874 Central Valley Rd NE"
        ],
        "city": "BREMERTON",
        "state": "WA",
        "postalCode": "98311-9105"
      },
      {
        "line": [
          "3510 9TH ST"
        ],
        "city": "BREMERTON",
        "state": "WA",
        "postalCode": "98312-3544"
      },
      {
        "line": [
          "1761 POTTERY AVE"
        ],
        "city": "PORT ORCHARD",
        "state": "WA",
        "postalCode": "98366-2051"
      },
      {
        "line": [
          "1907 Nipsic Ave"
        ],
        "city": "BREMERTON",
        "state": "WA",
        "postalCode": "98310-5033"
      },
      {
        "line": [
          "7419 SE SEDGWICK RD"
        ],
        "city": "PORT ORCHARD",
        "state": "WA",
        "postalCode": "98366-9705"
      },
      {
        "line": [
          "19160 FRONT ST NE"
        ],
        "city": "POULSBO",
        "state": "WA",
        "postalCode": "98370-6298"
      },
      {
        "line": [
          "1939 SE KARLI WAY"
        ],
        "city": "PORT ORCHARD",
        "state": "WA",
        "postalCode": "98367-9724"
      },
      {
        "line": [
          "140 S MARION AVE"
        ],
        "city": "BREMERTON",
        "state": "WA",
        "postalCode": "98312-3639"
      },
      {
        "line": [
          "2302 Madrona Drive SE"
        ],
        "city": "PORT ORCHARD",
        "state": "WA",
        "postalCode": "98366-2722"
      },
      {
        "line": [
          "8800 Madison ave N"
        ],
        "city": "BAINBRIDGE ISLAND",
        "state": "WA",
        "postalCode": "98110-2295"
      },
      {
        "line": [
          "10944 PEONY PL NW"
        ],
        "city": "SILVERDALE",
        "state": "WA",
        "postalCode": "98383-7993"
      },
      {
        "line": [
          "1800 NW MYHRE RD"
        ],
        "city": "SILVERDALE",
        "state": "WA",
        "postalCode": "98383-7663"
      },
      {
        "line": [
          "3231 PINE RD NE"
        ],
        "city": "BREMERTON",
        "state": "WA",
        "postalCode": "98310-2127"
      },
      {
        "line": [
          "2711 MCKINLEY PL SE"
        ],
        "city": "PORT ORCHARD",
        "state": "WA",
        "postalCode": "98366-2325"
      },
      {
        "line": [
          "186 WYATT WAY"
        ],
        "city": "BAINBRIDGE ISLAND",
        "state": "WA",
        "postalCode": "98110-1761"
      },
      {
        "line": [
          "140 S Marion Ave"
        ],
        "city": "BREMERTON",
        "state": "WA",
        "postalCode": "98312-3639"
      },
      {
        "line": [
          "4096 NE BREAKWATER CT"
        ],
        "city": "BREMERTON",
        "state": "WA",
        "postalCode": "98311-9391"
      },
      {
        "line": [
          "779 NW FIRGLADE DR"
        ],
        "city": "BREMERTON",
        "state": "WA",
        "postalCode": "98311-8919"
      },
      {
        "line": [
          "3210 RICKEY RD NE"
        ],
        "city": "BREMERTON",
        "state": "WA",
        "postalCode": "98310-6853"
      },
      {
        "line": [
          "4638 CHANTING CIR SW"
        ],
        "city": "PORT ORCHARD",
        "state": "WA",
        "postalCode": "98367-6225"
      },
      {
        "line": [
          "1948 MADRONA DR SE"
        ],
        "city": "PORT ORCHARD",
        "state": "WA",
        "postalCode": "98366-2735"
      },
      {
        "line": [
          "2701 CLARE AVE"
        ],
        "city": "BREMERTON",
        "state": "WA",
        "postalCode": "98310-3313"
      },
      {
        "line": [
          "3410 SE BEECH CREST CRT"
        ],
        "city": "PORT ORCHARD",
        "state": "WA",
        "postalCode": "98366-1116"
      },
      {
        "line": [
          "2601 Cherry Ave #213"
        ],
        "city": "BREMERTON",
        "state": "WA",
        "postalCode": "98310-4208"
      },
      {
        "line": [
          "300 S KITSAP BLVD"
        ],
        "city": "PORT ORCHARD",
        "state": "WA",
        "postalCode": "98366-3778"
      },
      {
        "line": [
          "1600 NW CRISTA SHORES LN"
        ],
        "city": "SILVERDALE",
        "state": "WA",
        "postalCode": "98383-9101"
      },
      {
        "line": [
          "155 w Lippert Dr"
        ],
        "city": "PORT ORCHARD",
        "state": "WA",
        "postalCode": "98366-2090"
      },
      {
        "line": [
          "3201 PINE RD"
        ],
        "city": "BREMERTON",
        "state": "WA",
        "postalCode": "98310-2168"
      },
      {
        "line": [
          "26114 ILLINOIS AVE"
        ],
        "city": "KINGSTON",
        "state": "WA",
        "postalCode": "98346-7674"
      },
      {
        "line": [
          "2742 NE ATHENS WAY"
        ],
        "city": "BREMERTON",
        "state": "WA",
        "postalCode": "98311-8408"
      },
      {
        "line": [
          "2031 POTTERY AVE"
        ],
        "city": "PORT ORCHARD",
        "state": "WA",
        "postalCode": "98366-2010"
      },
      {
        "line": [
          "1695 NE MARMOT CRT"
        ],
        "city": "SILVERDALE",
        "state": "WA",
        "postalCode": "98383-9514"
      },
      {
        "line": [
          "3500 9TH ST"
        ],
        "city": "BREMERTON",
        "state": "WA",
        "postalCode": "98312-3563"
      },
      {
        "line": [
          "559 CONIFER DR NE"
        ],
        "city": "BREMERTON",
        "state": "WA",
        "postalCode": "98311-9225"
      },
      {
        "line": [
          "180 E WHEEL WRIGHT ST"
        ],
        "city": "ALLYN",
        "state": "WA",
        "postalCode": "98524-8716"
      },
      {
        "line": [
          "1501 NW TOWER VIEW  CIRCLE"
        ],
        "city": "SILVERDALE",
        "state": "WA",
        "postalCode": "98383-8674"
      },
      {
        "line": [
          "10861 NE MANITOU PARK BLVD"
        ],
        "city": "BAINBRIDGE ISLAND",
        "state": "WA",
        "postalCode": "98110-1376"
      }
    ],
    "extension": [
      {
        "url": "https://fhir.athena.io/StructureDefinition/ah-practice",
        "valueReference": {
          "reference": "Organization/a-1.Practice-19203"
        }
      },
      {
        "url": "https://fhir.athena.io/StructureDefinition/ah-brand",
        "valueReference": {
          "reference": "Organization/a-19203.Brand-1"
        }
      }
    ]
  },
  "fullUrl": "urn:uuid:af5d944e-5c74-51d1-89eb-2817595cff0d"
}