{
  "resource": {
    "resourceType": "Organization",
    "id": "45e2d1cd-360f-5a9f-8f66-e170fec5fee5",
    "name": "DAY KIMBALL MEDICAL GROUP, INC",
    "endpoint": [
      {
        "reference": "Endpoint/27a4e967-47aa-5a9c-a572-b8297ee268a2"
      },
      {
        "reference": "Endpoint/5d86ce43-f3c6-5053-9f95-b6fc331a855b"
      }
    ],
    "identifier": [
      {
        "system": "http://hl7.org/fhir/sid/us-npi",
        "value": "1376813972"
      },
      {
        "system": "http://hl7.org/fhir/sid/us-npi",
        "value": "1891962221"
      },
      {
        "system": "urn:oid:2.16.840.1.113883.4.7",
        "value": "07D1103566"
      }
    ],
    "address": [
      {
        "line": [
          "72 CHURCH ST"
        ],
        "city": "PUTNAM",
        "state": "CT",
        "postalCode": "06260-1810"
      },
      {
        "line": [
          "320 POMFRET ST"
        ],
        "city": "PUTNAM",
        "state": "CT",
        "postalCode": "06260-1836"
      },
      {
        "line": [
          "320 POMFRET STREET"
        ],
        "city": "PUTNAM",
        "state": "CT",
        "postalCode": "06260-1836"
      },
      {
        "line": [
          "612 HARTFORD PIKE"
        ],
        "city": "DAYVILLE",
        "state": "CT",
        "postalCode": "06241-2106"
      },
      {
        "line": [
          "12 LATHROP RD"
        ],
        "city": "PLAINFIELD",
        "state": "CT",
        "postalCode": "06374-2061"
      },
      {
        "line": [
          "150 WARE ROAD"
        ],
        "city": "DAYVILLE",
        "state": "CT",
        "postalCode": "06241-1126"
      },
      {
        "line": [
          "72 CHURCH STREET"
        ],
        "city": "PUTNAM",
        "state": "CT",
        "postalCode": "06260-1810"
      },
      {
        "line": [
          "10 THURBER ROAD"
        ],
        "city": "PUTNAM",
        "state": "CT",
        "postalCode": "06260-2518"
      },
      {
        "line": [
          "44 CANTERBURY ROAD"
        ],
        "city": "BROOKLYN",
        "state": "CT",
        "postalCode": "06234-1903"
      },
      {
        "line": [
          "44 CANTERBURY ROAD"
        ],
        "city": "BROOKLYN",
        "state": "CT",
        "postalCode": "06234-0326"
      },
      {
        "line": [
          "612 HARTFORD PIKE"
        ],
        "city": "DAYVILLE",
        "state": "CT",
        "postalCode": "06241-2159"
      },
      {
        "line": [
          "44 CANTERBURY RD"
        ],
        "city": "BROOKLYN",
        "state": "CT",
        "postalCode": "06234-1903"
      },
      {
        "line": [
          "320 POMFRET ST"
        ],
        "city": "PUTNAM",
        "state": "CT",
        "postalCode": "06260-1859"
      }
    ],
    "extension": [
      {
        "url": "https://fhir.athena.io/StructureDefinition/ah-practice",
        "valueReference": {
          "reference": "Organization/a-1.Practice-1694"
        }
      },
      {
        "url": "https://fhir.athena.io/StructureDefinition/ah-brand",
        "valueReference": {
          "reference": "Organization/a-1694.Brand-19"
        }
      }
    ]
  },
  "fullUrl": "urn:uuid:45e2d1cd-360f-5a9f-8f66-e170fec5fee5"
}