{
  "resource": {
    "resourceType": "Organization",
    "id": "e8f0edc8-c197-546e-8bdf-a74741018050",
    "name": "SNE Women's Health Broadway OBGYN",
    "endpoint": [
      {
        "reference": "Endpoint/27a4e967-47aa-5a9c-a572-b8297ee268a2"
      },
      {
        "reference": "Endpoint/5fde96c1-fb4b-5bba-8872-5d61a686c9b0"
      }
    ],
    "identifier": [
      {
        "system": "http://hl7.org/fhir/sid/us-npi",
        "value": "1699058826"
      }
    ],
    "address": [
      {
        "line": [
          "695 Eddy St"
        ],
        "city": "PROVIDENCE",
        "state": "RI",
        "postalCode": "02903-4941"
      },
      {
        "line": [
          "101 Dudley Street"
        ],
        "city": "PROVIDENCE",
        "state": "RI",
        "postalCode": "02905-2401"
      },
      {
        "line": [
          "455 TOLL GATE RD"
        ],
        "city": "WARWICK",
        "state": "RI",
        "postalCode": "02886-2759"
      },
      {
        "line": [
          "695 EDDY STREET",
          "SUITE 21"
        ],
        "city": "PROVIDENCE",
        "state": "RI",
        "postalCode": "02903-4941"
      },
      {
        "line": [
          "593 Eddy Street"
        ],
        "city": "PROVIDENCE",
        "state": "RI",
        "postalCode": "02903-4923"
      },
      {
        "line": [
          "101 DUDLEY STREET"
        ],
        "city": "PROVIDENCE",
        "state": "RI",
        "postalCode": "02905-2401"
      },
      {
        "line": [
          "100 DUDLEY STREET"
        ],
        "city": "PROVIDENCE",
        "state": "RI",
        "postalCode": "02905-2401"
      },
      {
        "line": [
          "695 EDDY ST"
        ],
        "city": "PROVIDENCE",
        "state": "RI",
        "postalCode": "02903-4941"
      },
      {
        "line": [
          "2168 DIAMOND HILL ROAD"
        ],
        "city": "WOONSOCKET",
        "state": "RI",
        "postalCode": "02895-1772"
      },
      {
        "line": [
          "695 Eddy St"
        ],
        "city": "PROVIDENCE",
        "state": "RI",
        "postalCode": "02903-1648"
      },
      {
        "line": [
          "1050 MAIN STREET"
        ],
        "city": "EAST GREENWICH",
        "state": "RI",
        "postalCode": "02818-3161"
      },
      {
        "line": [
          "695 EDDY ST"
        ],
        "city": "PROVIDENCE",
        "state": "RI",
        "postalCode": "02903-1648"
      }
    ],
    "extension": [
      {
        "url": "https://fhir.athena.io/StructureDefinition/ah-practice",
        "valueReference": {
          "reference": "Organization/a-1.Practice-3516"
        }
      },
      {
        "url": "https://fhir.athena.io/StructureDefinition/ah-brand",
        "valueReference": {
          "reference": "Organization/a-3516.Brand-1"
        }
      }
    ]
  },
  "fullUrl": "urn:uuid:e8f0edc8-c197-546e-8bdf-a74741018050"
}