{
  "resource": {
    "resourceType": "Organization",
    "id": "a7a3816c-b9f8-54c8-907f-b4b0ae2503b7",
    "name": "UP Medical Group - Marquette",
    "endpoint": [
      {
        "reference": "Endpoint/27a4e967-47aa-5a9c-a572-b8297ee268a2"
      },
      {
        "reference": "Endpoint/c12c431c-a2c8-5f54-b6fe-e8fc0ca48d3c"
      }
    ],
    "identifier": [
      {
        "system": "http://hl7.org/fhir/sid/us-npi",
        "value": "1487902995"
      },
      {
        "system": "http://hl7.org/fhir/sid/us-npi",
        "value": "1073861431"
      },
      {
        "system": "http://hl7.org/fhir/sid/us-npi",
        "value": "1215287362"
      },
      {
        "system": "http://hl7.org/fhir/sid/us-npi",
        "value": "1730437245"
      },
      {
        "system": "http://hl7.org/fhir/sid/us-npi",
        "value": "1265780621"
      },
      {
        "system": "http://hl7.org/fhir/sid/us-npi",
        "value": "1568727048"
      }
    ],
    "address": [
      {
        "line": [
          "850 W BARAGA AVE"
        ],
        "city": "MARQUETTE",
        "state": "MI",
        "postalCode": "49855-4550"
      },
      {
        "line": [
          "N10561 GRANDVIEW LN"
        ],
        "city": "IRONWOOD",
        "state": "MI",
        "postalCode": "49938-9622"
      },
      {
        "line": [
          "1500 Sand Point Road"
        ],
        "city": "MUNISING",
        "state": "MI",
        "postalCode": "49862-1406"
      },
      {
        "line": [
          "1414 W FAIR AVE",
          "STE 344"
        ],
        "city": "MARQUETTE",
        "state": "MI",
        "postalCode": "49855-2675"
      },
      {
        "line": [
          "1414 W FAIR AVE, SUITE 24"
        ],
        "city": "MARQUETTE",
        "state": "MI",
        "postalCode": "49855-2675"
      },
      {
        "line": [
          "500 OSBORN BLVD"
        ],
        "city": "SAULT SAINTE MARIE",
        "state": "MI",
        "postalCode": "49783-1822"
      },
      {
        "line": [
          "1400 W ICE LAKE RD"
        ],
        "city": "IRON RIVER",
        "state": "MI",
        "postalCode": "49935-9526"
      },
      {
        "line": [
          "1414 W FAIR AVE",
          "Ste 211"
        ],
        "city": "MARQUETTE",
        "state": "MI",
        "postalCode": "49855-2675"
      },
      {
        "line": [
          "7870 W. US Hwy 2"
        ],
        "city": "MANISTIQUE",
        "state": "MI",
        "postalCode": "49854-8992"
      },
      {
        "line": [
          "101 PARRISH CHURCH LN"
        ],
        "city": "YORKTOWN",
        "state": "VA",
        "postalCode": "23693-3145"
      },
      {
        "line": [
          "500 Campus Dr"
        ],
        "city": "HANCOCK",
        "state": "MI",
        "postalCode": "49930-1452"
      },
      {
        "line": [
          "1414 W FAIR AVE, STE 230"
        ],
        "city": "MARQUETTE",
        "state": "MI",
        "postalCode": "49855-5409"
      },
      {
        "line": [
          "1414 W FAIR AVE",
          "STE 211"
        ],
        "city": "MARQUETTE",
        "state": "MI",
        "postalCode": "49855-2675"
      },
      {
        "line": [
          "44 EVERSON WAY"
        ],
        "city": "BALLSTON SPA",
        "state": "NY",
        "postalCode": "12020-2240"
      },
      {
        "line": [
          "1"
        ],
        "city": "MARQUETTE",
        "state": "MI",
        "postalCode": "49855-2675"
      },
      {
        "line": [
          "1414 W FAIR AVE",
          "STE 36"
        ],
        "city": "MARQUETTE",
        "state": "MI",
        "postalCode": "49855-2675"
      },
      {
        "line": [
          "1400 W WASHINGTON ST"
        ],
        "city": "MARQUETTE",
        "state": "MI",
        "postalCode": "49855-3116"
      },
      {
        "line": [
          "1721 S. Stephenson Ave."
        ],
        "city": "IRON MOUNTAIN",
        "state": "MI",
        "postalCode": "49801-3637"
      },
      {
        "line": [
          "901 Lakeshore Dr."
        ],
        "city": "ISHPEMING",
        "state": "MI",
        "postalCode": "49849-1367"
      },
      {
        "line": [
          "850 W BARAGA AVE, STE 10"
        ],
        "city": "MARQUETTE",
        "state": "MI",
        "postalCode": "49855-4550"
      },
      {
        "line": [
          "205 OSCEOLA ST"
        ],
        "city": "CALUMET",
        "state": "MI",
        "postalCode": "49913-2134"
      },
      {
        "line": [
          "901 Lakeshore Drive"
        ],
        "city": "ISHPEMING",
        "state": "MI",
        "postalCode": "49849-1367"
      },
      {
        "line": [
          "5089 US 41 SOUTH"
        ],
        "city": "MARQUETTE",
        "state": "MI",
        "postalCode": "49855-9001"
      },
      {
        "line": [
          "850 W. Baraga Ave."
        ],
        "city": "MARQUETTE",
        "state": "MI",
        "postalCode": "49855-2736"
      },
      {
        "line": [
          "405 US 41 EAST"
        ],
        "city": "NEGAUNEE",
        "state": "MI",
        "postalCode": "49866-1327"
      },
      {
        "line": [
          "850 W. BARAGA AVENUE",
          "SUITE 20"
        ],
        "city": "MARQUETTE",
        "state": "MI",
        "postalCode": "49855-4550"
      },
      {
        "line": [
          "3401 LUDINGTON ST"
        ],
        "city": "ESCANABA",
        "state": "MI",
        "postalCode": "49829-1300"
      },
      {
        "line": [
          "500 Campus Dr."
        ],
        "city": "HANCOCK",
        "state": "MI",
        "postalCode": "49930-1452"
      },
      {
        "line": [
          "500 Campus Drive"
        ],
        "city": "HANCOCK",
        "state": "MI",
        "postalCode": "49930-1452"
      },
      {
        "line": [
          "850 W BARAGA AVE, STE 31"
        ],
        "city": "MARQUETTE",
        "state": "MI",
        "postalCode": "49855-4550"
      },
      {
        "line": [
          "7870 US 2"
        ],
        "city": "MANISTIQUE",
        "state": "MI",
        "postalCode": "49854-8992"
      },
      {
        "line": [
          "1414 W FAIR AVE"
        ],
        "city": "CAMBRIDGE",
        "state": "MA",
        "postalCode": "02142-3223"
      },
      {
        "line": [
          "710 S. Lincoln Rd",
          "710 S. Lincoln Rd"
        ],
        "city": "ESCANABA",
        "state": "MI",
        "postalCode": "49829-1292"
      },
      {
        "line": [
          "510 Ashmun Street"
        ],
        "city": "SAULT SAINTE MARIE",
        "state": "MI",
        "postalCode": "49783-1964"
      },
      {
        "line": [
          "850 W BARAGA AVE STE 31"
        ],
        "city": "MARQUETTE",
        "state": "MI",
        "postalCode": "49855-4550"
      },
      {
        "line": [
          "1414 W FAIR AVE",
          "SUITE 250"
        ],
        "city": "MARQUETTE",
        "state": "MI",
        "postalCode": "49855-5406"
      },
      {
        "line": [
          "850 W BARAGA AVE, STE 11"
        ],
        "city": "MARQUETTE",
        "state": "MI",
        "postalCode": "49855-4550"
      },
      {
        "line": [
          "850 W BARAGA AVE, STE 12"
        ],
        "city": "MARQUETTE",
        "state": "MI",
        "postalCode": "49855-4550"
      },
      {
        "line": [
          "39 W SEPARATION CANYON TRL"
        ],
        "city": "FLAGSTAFF",
        "state": "AZ",
        "postalCode": "86005-8363"
      },
      {
        "line": [
          "580 W. COLLEGE AVE."
        ],
        "city": "MARQUETTE",
        "state": "MI",
        "postalCode": "49855-2736"
      },
      {
        "line": [
          "850 W BARAGA AVE, STE 32"
        ],
        "city": "MARQUETTE",
        "state": "MI",
        "postalCode": "49855-4550"
      },
      {
        "line": [
          "1414 W. Fair Ave., Suite 249"
        ],
        "city": "MARQUETTE",
        "state": "MI",
        "postalCode": "49855-5406"
      },
      {
        "line": [
          "710 S LINCOLN RD; STE 700"
        ],
        "city": "ESCANABA",
        "state": "MI",
        "postalCode": "49829-1292"
      },
      {
        "line": [
          "1820 SW ALEDO LN APT 2101"
        ],
        "city": "PORT SAINT LUCIE",
        "state": "FL",
        "postalCode": "34953-4124"
      },
      {
        "line": [
          "850 W BARAGA AVE",
          "SUITE 32"
        ],
        "city": "MARQUETTE",
        "state": "MI",
        "postalCode": "49855-4550"
      },
      {
        "line": [
          "8939 N 65TH ST"
        ],
        "city": "PARADISE VALLEY",
        "state": "AZ",
        "postalCode": "85253-1869"
      },
      {
        "line": [
          "1414 W FAIR AVE",
          "STE 249"
        ],
        "city": "MARQUETTE",
        "state": "MI",
        "postalCode": "49855-2675"
      },
      {
        "line": [
          "1415 2ND ST",
          "UNIT 407"
        ],
        "city": "SARASOTA",
        "state": "FL",
        "postalCode": "34236-5103"
      }
    ],
    "extension": [
      {
        "url": "https://fhir.athena.io/StructureDefinition/ah-practice",
        "valueReference": {
          "reference": "Organization/a-1.Practice-8233"
        }
      },
      {
        "url": "https://fhir.athena.io/StructureDefinition/ah-brand",
        "valueReference": {
          "reference": "Organization/a-8233.Brand-3"
        }
      }
    ]
  },
  "fullUrl": "urn:uuid:a7a3816c-b9f8-54c8-907f-b4b0ae2503b7"
}