{
  "resource": {
    "resourceType": "Organization",
    "id": "e8c00545-06b4-52b4-ba95-4bb813605a93",
    "name": "HealthyU Clinics",
    "endpoint": [
      {
        "reference": "Endpoint/27a4e967-47aa-5a9c-a572-b8297ee268a2"
      },
      {
        "reference": "Endpoint/ba7cfbf8-3111-50d6-bc7e-b68087296d39"
      }
    ],
    "identifier": [
      {
        "system": "http://hl7.org/fhir/sid/us-npi",
        "value": "1669149787"
      },
      {
        "system": "http://hl7.org/fhir/sid/us-npi",
        "value": "1942659917"
      },
      {
        "system": "http://hl7.org/fhir/sid/us-npi",
        "value": "1750129672"
      },
      {
        "system": "http://hl7.org/fhir/sid/us-npi",
        "value": "1760803233"
      },
      {
        "system": "http://hl7.org/fhir/sid/us-npi",
        "value": "1114139714"
      },
      {
        "system": "http://hl7.org/fhir/sid/us-npi",
        "value": "1811386147"
      }
    ],
    "address": [
      {
        "line": [
          "3929 E BELL RD"
        ],
        "city": "PHOENIX",
        "state": "AZ",
        "postalCode": "85032-2112"
      },
      {
        "line": [
          "2 Journey",
          "Suite 200 & 202"
        ],
        "city": "ALISO VIEJO",
        "state": "CA",
        "postalCode": "92656-3373"
      },
      {
        "line": [
          "13677 W MCDOWELL RD"
        ],
        "city": "GOODYEAR",
        "state": "AZ",
        "postalCode": "85395-2635"
      },
      {
        "line": [
          "2000 W BETHANY HOME RD"
        ],
        "city": "PHOENIX",
        "state": "AZ",
        "postalCode": "85015-2443"
      },
      {
        "line": [
          "840 E MCKELLIPS RD BLDG 2"
        ],
        "city": "MESA",
        "state": "AZ",
        "postalCode": "85203-9645"
      },
      {
        "line": [
          "3555 S VAL VISTA DR"
        ],
        "city": "GILBERT",
        "state": "AZ",
        "postalCode": "85297-7323"
      },
      {
        "line": [
          "12100 N DYSART RD"
        ],
        "city": "SURPRISE",
        "state": "AZ",
        "postalCode": "85379-3308"
      },
      {
        "line": [
          "1760 E PECOS RD STE 215"
        ],
        "city": "GILBERT",
        "state": "AZ",
        "postalCode": "85295-3202"
      },
      {
        "line": [
          "1262 E NORTH ST"
        ],
        "city": "MANTECA",
        "state": "CA",
        "postalCode": "95336-4962"
      },
      {
        "line": [
          "7910 W THOMAS RD SUITE 112"
        ],
        "city": "PHOENIX",
        "state": "AZ",
        "postalCode": "85033-4830"
      },
      {
        "line": [
          "5112 W OLIVE AVE"
        ],
        "city": "GLENDALE",
        "state": "AZ",
        "postalCode": "85302-4209"
      },
      {
        "line": [
          "500 S ANAHEIM HILLS RD",
          "STE 246"
        ],
        "city": "ANAHEIM",
        "state": "CA",
        "postalCode": "92807-4760"
      },
      {
        "line": [
          "18701 N 67TH AVE"
        ],
        "city": "GLENDALE",
        "state": "AZ",
        "postalCode": "85308-7100"
      },
      {
        "line": [
          "16841 N 31ST AVE STE 130"
        ],
        "city": "PHOENIX",
        "state": "AZ",
        "postalCode": "85053-3051"
      },
      {
        "line": [
          "7231 E PRINCESS BLVD STE 100"
        ],
        "city": "SCOTTSDALE",
        "state": "AZ",
        "postalCode": "85255-9673"
      },
      {
        "line": [
          "7300 N 99TH AVE"
        ],
        "city": "GLENDALE",
        "state": "AZ",
        "postalCode": "85307-3003"
      },
      {
        "line": [
          "9201 W THOMAS RD"
        ],
        "city": "PHOENIX",
        "state": "AZ",
        "postalCode": "85037-3332"
      },
      {
        "line": [
          "1041 E. Yorba Linda Blvd",
          "Suite 200A"
        ],
        "city": "PLACENTIA",
        "state": "CA",
        "postalCode": "92870-3728"
      },
      {
        "line": [
          "2901 N CENTRAL AVE STE 160"
        ],
        "city": "PHOENIX",
        "state": "AZ",
        "postalCode": "85012-2702"
      },
      {
        "line": [
          "6245 N 24TH ST"
        ],
        "city": "PHOENIX",
        "state": "AZ",
        "postalCode": "85016-2034"
      },
      {
        "line": [
          "3530 S VAL VISTA DR STE C101"
        ],
        "city": "GILBERT",
        "state": "AZ",
        "postalCode": "85297-7318"
      },
      {
        "line": [
          "3125 CONANT AVE"
        ],
        "city": "MODESTO",
        "state": "CA",
        "postalCode": "95350-6527"
      },
      {
        "line": [
          "3200 N DOBSON RD STE B-1"
        ],
        "city": "CHANDLER",
        "state": "AZ",
        "postalCode": "85224-9608"
      },
      {
        "line": [
          "1444 FLORIDA AVE # 100"
        ],
        "city": "MODESTO",
        "state": "CA",
        "postalCode": "95350-4400"
      },
      {
        "line": [
          "14502 W MEEKER BLVD"
        ],
        "city": "SUN CITY WEST",
        "state": "AZ",
        "postalCode": "85375-5282"
      },
      {
        "line": [
          "15255 N 40TH ST STE 105"
        ],
        "city": "PHOENIX",
        "state": "AZ",
        "postalCode": "85032-4636"
      },
      {
        "line": [
          "2353 E BASELINE RD"
        ],
        "city": "GILBERT",
        "state": "AZ",
        "postalCode": "85234-2342"
      },
      {
        "line": [
          "9301 W THOMAS RD"
        ],
        "city": "PHOENIX",
        "state": "AZ",
        "postalCode": "85037-3327"
      },
      {
        "line": [
          "2626 E UNIVERSITY DR STE 104"
        ],
        "city": "MESA",
        "state": "AZ",
        "postalCode": "85213-8479"
      },
      {
        "line": [
          "71780 San Jacinto Drive",
          "Bldg D"
        ],
        "city": "RANCHO MIRAGE",
        "state": "CA",
        "postalCode": "92270-5517"
      },
      {
        "line": [
          "13026 W RANCHO SANTA FE BLVD STE C100"
        ],
        "city": "AVONDALE",
        "state": "AZ",
        "postalCode": "85392-1710"
      },
      {
        "line": [
          "35800 Bob Hope Dr.",
          "#225"
        ],
        "city": "RANCHO MIRAGE",
        "state": "CA",
        "postalCode": "92270-1740"
      },
      {
        "line": [
          "20045 N 19TH AVE BLDG 12"
        ],
        "city": "PHOENIX",
        "state": "AZ",
        "postalCode": "85027-4270"
      },
      {
        "line": [
          "1955 W FRYE RD"
        ],
        "city": "CHANDLER",
        "state": "AZ",
        "postalCode": "85224-6282"
      },
      {
        "line": [
          "6245 N 24TH PKWY STE 112"
        ],
        "city": "PHOENIX",
        "state": "AZ",
        "postalCode": "85016-2029"
      }
    ],
    "extension": [
      {
        "url": "https://fhir.athena.io/StructureDefinition/ah-practice",
        "valueReference": {
          "reference": "Organization/a-1.Practice-24378"
        }
      },
      {
        "url": "https://fhir.athena.io/StructureDefinition/ah-brand",
        "valueReference": {
          "reference": "Organization/a-24378.Brand-3"
        }
      }
    ]
  },
  "fullUrl": "urn:uuid:e8c00545-06b4-52b4-ba95-4bb813605a93"
}