{
  "resource": {
    "resourceType": "Organization",
    "id": "0e62cdf8-6222-5597-ae2e-378a3c27665f",
    "name": "On-Site Care",
    "endpoint": [
      {
        "reference": "Endpoint/27a4e967-47aa-5a9c-a572-b8297ee268a2"
      },
      {
        "reference": "Endpoint/49262da3-c33e-5add-879c-a84722a7f47b"
      }
    ],
    "identifier": [
      {
        "system": "http://hl7.org/fhir/sid/us-npi",
        "value": "1619735222"
      }
    ],
    "address": [
      {
        "line": [
          "3610 SE HUNTINGTON CIR"
        ],
        "city": "LAWTON",
        "state": "OK",
        "postalCode": "73501-8445"
      },
      {
        "line": [
          "7501 W BRITTON RD"
        ],
        "city": "OKLAHOMA CITY",
        "state": "OK",
        "postalCode": "73132-1602"
      },
      {
        "line": [
          "2424 SPRINGER DR STE 304"
        ],
        "city": "NORMAN",
        "state": "OK",
        "postalCode": "73069-3966"
      },
      {
        "line": [
          "6302 SW LEE BLVD"
        ],
        "city": "LAWTON",
        "state": "OK",
        "postalCode": "73505-9103"
      },
      {
        "line": [
          "2500 SW 89TH ST"
        ],
        "city": "OKLAHOMA CITY",
        "state": "OK",
        "postalCode": "73159-6354"
      },
      {
        "line": [
          "7802 NW QUANNAH PARKER TRL"
        ],
        "city": "LAWTON",
        "state": "OK",
        "postalCode": "73505-1177"
      },
      {
        "line": [
          "12525 N PENNSYLVANIA AVE"
        ],
        "city": "OKLAHOMA CITY",
        "state": "OK",
        "postalCode": "73120-9443"
      },
      {
        "line": [
          "9900 S WESTERN AVE"
        ],
        "city": "OKLAHOMA CITY",
        "state": "OK",
        "postalCode": "73139-2952"
      },
      {
        "line": [
          "1515 KINGSRIDGE DR"
        ],
        "city": "OKLAHOMA CITY",
        "state": "OK",
        "postalCode": "73170-4475"
      },
      {
        "line": [
          "915 W PLATO RD"
        ],
        "city": "DUNCAN",
        "state": "OK",
        "postalCode": "73533-3387"
      },
      {
        "line": [
          "615 W BLUERIDGE DR"
        ],
        "city": "OKLAHOMA CITY",
        "state": "OK",
        "postalCode": "73110-1241"
      },
      {
        "line": [
          "1001 S BRYANT AVE"
        ],
        "city": "EDMOND",
        "state": "OK",
        "postalCode": "73034-5745"
      },
      {
        "line": [
          "7535 W HEFNER RD"
        ],
        "city": "OKLAHOMA CITY",
        "state": "OK",
        "postalCode": "73162-4462"
      },
      {
        "line": [
          "7707 W BRITTON RD"
        ],
        "city": "OKLAHOMA CITY",
        "state": "OK",
        "postalCode": "73132-1512"
      }
    ],
    "extension": [
      {
        "url": "https://fhir.athena.io/StructureDefinition/ah-practice",
        "valueReference": {
          "reference": "Organization/a-1.Practice-32622"
        }
      },
      {
        "url": "https://fhir.athena.io/StructureDefinition/ah-brand",
        "valueReference": {
          "reference": "Organization/a-32622.Brand-1"
        }
      }
    ]
  },
  "fullUrl": "urn:uuid:0e62cdf8-6222-5597-ae2e-378a3c27665f"
}