{
  "resource": {
    "resourceType": "Organization",
    "id": "e7416bb1-0329-5bce-bb99-fcc412a9afce",
    "name": "MAHN Barron Office",
    "endpoint": [
      {
        "reference": "Endpoint/27a4e967-47aa-5a9c-a572-b8297ee268a2"
      },
      {
        "reference": "Endpoint/ccd81a3b-1995-513e-a64b-2b196f806e8f"
      }
    ],
    "identifier": [
      {
        "system": "http://hl7.org/fhir/sid/us-npi",
        "value": "1992148183"
      }
    ],
    "address": [
      {
        "line": [
          "208 Lincoln Avenue"
        ],
        "city": "RIO",
        "state": "WI",
        "postalCode": "53960-0001"
      },
      {
        "line": [
          "1600 American Drive"
        ],
        "city": "PLOVER",
        "state": "WI",
        "postalCode": "54467-0001"
      },
      {
        "line": [
          "1221 US HIGHWAY 61"
        ],
        "city": "LANCASTER",
        "state": "WI",
        "postalCode": "53813-9404"
      },
      {
        "line": [
          "131 W 7TH ST"
        ],
        "city": "MONROE",
        "state": "WI",
        "postalCode": "53566-3716"
      },
      {
        "line": [
          "140 E Cook St",
          "#2205"
        ],
        "city": "PORTAGE",
        "state": "WI",
        "postalCode": "53901-2205"
      },
      {
        "line": [
          "223 Milwaukee St."
        ],
        "city": "KEWAUNEE",
        "state": "WI",
        "postalCode": "54216-0001"
      },
      {
        "line": [
          "609 N spring st."
        ],
        "city": "BEAVER DAM",
        "state": "WI",
        "postalCode": "53916-2040"
      },
      {
        "line": [
          "204 Main Street"
        ],
        "city": "WATERTOWN",
        "state": "WI",
        "postalCode": "53094-0001"
      },
      {
        "line": [
          "10717C Highway 230"
        ],
        "city": "ENCAMPMENT",
        "state": "WY",
        "postalCode": "82325-9264"
      },
      {
        "line": [
          "1006 Woodward Ave."
        ],
        "city": "BELOIT",
        "state": "WI",
        "postalCode": "53511-0001"
      },
      {
        "line": [
          "319 E. LA SALLE AVE.",
          "Suite C"
        ],
        "city": "BARRON",
        "state": "WI",
        "postalCode": "54812-1502"
      },
      {
        "line": [
          "10717c Highway 230"
        ],
        "city": "ENCAMPMENT",
        "state": "WY",
        "postalCode": "82325-9264"
      },
      {
        "line": [
          "1105 East Division Street"
        ],
        "city": "NEILLSVILLE",
        "state": "WI",
        "postalCode": "54456-0001"
      },
      {
        "line": [
          "1415 S Commercial St"
        ],
        "city": "NEENAH",
        "state": "WI",
        "postalCode": "54956-0001"
      },
      {
        "line": [
          "510 Redbird Cir"
        ],
        "city": "DE PERE",
        "state": "WI",
        "postalCode": "54115-0001"
      },
      {
        "line": [
          "121 Pendland"
        ],
        "city": "BAGGS",
        "state": "WY",
        "postalCode": "82321-0001"
      },
      {
        "line": [
          "511 Commerce Drive Suite 110"
        ],
        "city": "MADISON",
        "state": "WI",
        "postalCode": "53719-0001"
      },
      {
        "line": [
          "3900 ERIE ST"
        ],
        "city": "RACINE",
        "state": "WI",
        "postalCode": "53402-3544"
      },
      {
        "line": [
          "109 E Capitol Dr."
        ],
        "city": "HARTLAND",
        "state": "WI",
        "postalCode": "53029-2103"
      },
      {
        "line": [
          "34 South Brown Street"
        ],
        "city": "RHINELANDER",
        "state": "WI",
        "postalCode": "54501-0001"
      },
      {
        "line": [
          "1350 W College Ave Suite A"
        ],
        "city": "APPLETON",
        "state": "WI",
        "postalCode": "54914-0001"
      },
      {
        "line": [
          "117 North Main Street"
        ],
        "city": "PARDEEVILLE",
        "state": "WI",
        "postalCode": "53954-0001"
      },
      {
        "line": [
          "1828 Jackson St."
        ],
        "city": "OSHKOSH",
        "state": "WI",
        "postalCode": "54901-0001"
      },
      {
        "line": [
          "801 Jefferson St."
        ],
        "city": "ALGOMA",
        "state": "WI",
        "postalCode": "54201-0001"
      },
      {
        "line": [
          " 321 N Sawyer St."
        ],
        "city": "OSHKOSH",
        "state": "WI",
        "postalCode": "54902-0001"
      }
    ],
    "extension": [
      {
        "url": "https://fhir.athena.io/StructureDefinition/ah-practice",
        "valueReference": {
          "reference": "Organization/a-1.Practice-11204"
        }
      },
      {
        "url": "https://fhir.athena.io/StructureDefinition/ah-brand",
        "valueReference": {
          "reference": "Organization/a-11204.Brand-1"
        }
      }
    ]
  },
  "fullUrl": "urn:uuid:e7416bb1-0329-5bce-bb99-fcc412a9afce"
}