{
  "resource": {
    "resourceType": "Organization",
    "id": "56a59e83-2078-5575-b457-831bc4c87fca",
    "name": "SaVida Health",
    "endpoint": [
      {
        "reference": "Endpoint/27a4e967-47aa-5a9c-a572-b8297ee268a2"
      },
      {
        "reference": "Endpoint/b05018f6-d37c-54ab-bae7-e05a7bac1157"
      }
    ],
    "identifier": [
      {
        "system": "http://hl7.org/fhir/sid/us-npi",
        "value": "1124586938"
      },
      {
        "system": "http://hl7.org/fhir/sid/us-npi",
        "value": "1104386655"
      },
      {
        "system": "http://hl7.org/fhir/sid/us-npi",
        "value": "1861054744"
      },
      {
        "system": "http://hl7.org/fhir/sid/us-npi",
        "value": "1871801688"
      },
      {
        "system": "http://hl7.org/fhir/sid/us-npi",
        "value": "1295397032"
      }
    ],
    "address": [
      {
        "line": [
          "4421 Roosevelt Blvd",
          "Suite A"
        ],
        "city": "MIDDLETOWN",
        "state": "OH",
        "postalCode": "45044-9023"
      },
      {
        "line": [
          "725 North St"
        ],
        "city": "PITTSFIELD",
        "state": "MA",
        "postalCode": "01201-4109"
      },
      {
        "line": [
          "489 Bernardston Road"
        ],
        "city": "GREENFIELD",
        "state": "MA",
        "postalCode": "01301-1238"
      },
      {
        "line": [
          "409 Alfred St",
          "Units 4-5"
        ],
        "city": "BIDDEFORD",
        "state": "ME",
        "postalCode": "04005-3756"
      },
      {
        "line": [
          "41 Acme Road",
          "Suite 3"
        ],
        "city": "BREWER",
        "state": "ME",
        "postalCode": "04412-1543"
      },
      {
        "line": [
          "50 Union St"
        ],
        "city": "WEST SPRINGFIELD",
        "state": "MA",
        "postalCode": "01089-3317"
      },
      {
        "line": [
          "77 Hospital Drive, Suite 104"
        ],
        "city": "NORTH ADAMS",
        "state": "MA",
        "postalCode": "01247-2538"
      },
      {
        "line": [
          "4923 Ogletown Stanton Road",
          "Suite 110"
        ],
        "city": "NEWARK",
        "state": "DE",
        "postalCode": "19713-2012"
      },
      {
        "line": [
          "42 Summer Street, Suite 201"
        ],
        "city": "PITTSFIELD",
        "state": "MA",
        "postalCode": "01201-4697"
      },
      {
        "line": [
          "938 South Bradford Street"
        ],
        "city": "DOVER",
        "state": "DE",
        "postalCode": "19904-4139"
      },
      {
        "line": [
          "121 Lincoln Street, 1st Floor"
        ],
        "city": "WORCESTER",
        "state": "MA",
        "postalCode": "01605-2429"
      }
    ],
    "extension": [
      {
        "url": "https://fhir.athena.io/StructureDefinition/ah-practice",
        "valueReference": {
          "reference": "Organization/a-1.Practice-18057"
        }
      },
      {
        "url": "https://fhir.athena.io/StructureDefinition/ah-brand",
        "valueReference": {
          "reference": "Organization/a-18057.Brand-2"
        }
      }
    ]
  },
  "fullUrl": "urn:uuid:56a59e83-2078-5575-b457-831bc4c87fca"
}