{
  "resource": {
    "resourceType": "Organization",
    "id": "03fe0a18-7f87-5795-b610-1341153305b4",
    "name": "Bethesda Hospital East- Out PT",
    "endpoint": [
      {
        "reference": "Endpoint/27a4e967-47aa-5a9c-a572-b8297ee268a2"
      },
      {
        "reference": "Endpoint/6d526232-48e0-5def-8e4a-cf76c4dbbb5b"
      }
    ],
    "identifier": [
      {
        "system": "http://hl7.org/fhir/sid/us-npi",
        "value": "1831123520"
      }
    ],
    "address": [
      {
        "line": [
          "7700 N KENDALL DR",
          "STE 7712"
        ],
        "city": "MIAMI",
        "state": "FL",
        "postalCode": "33156-7564"
      },
      {
        "line": [
          "5360 Linton Blvd"
        ],
        "city": "DELRAY BEACH",
        "state": "FL",
        "postalCode": "33484-6514"
      },
      {
        "line": [
          "2815 S SEACREST BLVD"
        ],
        "city": "BOYNTON BEACH",
        "state": "FL",
        "postalCode": "33435-7969"
      },
      {
        "line": [
          "4300 Alton Road"
        ],
        "city": "MIAMI BEACH",
        "state": "FL",
        "postalCode": "33140-2800"
      },
      {
        "line": [
          "2845 AVENTURA BLVD STE 100"
        ],
        "city": "MIAMI",
        "state": "FL",
        "postalCode": "33180-3111"
      },
      {
        "line": [
          "12985 SW 130 Court Suite 110"
        ],
        "city": "MIAMI",
        "state": "FL",
        "postalCode": "33186-5344"
      },
      {
        "line": [
          "15600 NW 67TH AVE STE 305"
        ],
        "city": "Miami Lakes",
        "state": "FL",
        "postalCode": "33014-2176"
      },
      {
        "line": [
          "4308 ALTON RD STE 970"
        ],
        "city": "MIAMI BEACH",
        "state": "FL",
        "postalCode": "33140-4560"
      },
      {
        "line": [
          "21110 Biscayne Blvd STE 206"
        ],
        "city": "Aventura",
        "state": "FL",
        "postalCode": "33180-1269"
      }
    ],
    "extension": [
      {
        "url": "https://fhir.athena.io/StructureDefinition/ah-practice",
        "valueReference": {
          "reference": "Organization/a-1.Practice-1931"
        }
      },
      {
        "url": "https://fhir.athena.io/StructureDefinition/ah-brand",
        "valueReference": {
          "reference": "Organization/a-1931.Brand-2"
        }
      }
    ]
  },
  "fullUrl": "urn:uuid:03fe0a18-7f87-5795-b610-1341153305b4"
}