{
  "resource": {
    "resourceType": "Organization",
    "id": "06cfaa54-6fd4-5271-8e63-b64838183d35",
    "name": "Pediatric Rehabilitation Specialists",
    "endpoint": [
      {
        "reference": "Endpoint/27a4e967-47aa-5a9c-a572-b8297ee268a2"
      },
      {
        "reference": "Endpoint/9733161a-457b-5d2c-832c-408ffa290e84"
      }
    ],
    "identifier": [
      {
        "system": "http://hl7.org/fhir/sid/us-npi",
        "value": "1518534528"
      }
    ],
    "address": [
      {
        "line": [
          "201 LYONS AVE"
        ],
        "city": "NEWARK",
        "state": "NJ",
        "postalCode": "07112-2027"
      },
      {
        "line": [
          "1100 AIRPORT RD"
        ],
        "city": "LAKEWOOD",
        "state": "NJ",
        "postalCode": "08701-5915"
      },
      {
        "line": [
          "7 SANFORD AVENUE"
        ],
        "city": "BELLEVILLE",
        "state": "NJ",
        "postalCode": "07109-1221"
      },
      {
        "line": [
          "1481 MAIN AVENUE"
        ],
        "city": "CLIFTON",
        "state": "NJ",
        "postalCode": "07011-2127"
      },
      {
        "line": [
          "71-77 OKNER PARKWAY"
        ],
        "city": "LIVINGSTON",
        "state": "NJ",
        "postalCode": "07039-1629"
      },
      {
        "line": [
          "15 HALKO DRIVE"
        ],
        "city": "CEDAR KNOLLS",
        "state": "NJ",
        "postalCode": "07927-1306"
      },
      {
        "line": [
          "51 OLD ROAD"
        ],
        "city": "LIVINGSTON",
        "state": "NJ",
        "postalCode": "07039-2515"
      },
      {
        "line": [
          "761 SUMMIT AVE"
        ],
        "city": "JERSEY CITY",
        "state": "NJ",
        "postalCode": "07307-3831"
      },
      {
        "line": [
          "330 SOUTH AVENUE"
        ],
        "city": "FANWOOD",
        "state": "NJ",
        "postalCode": "07023-1325"
      },
      {
        "line": [
          "26 N CENTER ST"
        ],
        "city": "ORANGE",
        "state": "NJ",
        "postalCode": "07050-3763"
      },
      {
        "line": [
          "170 HILL HOLLOW ROAD"
        ],
        "city": "WATCHUNG",
        "state": "NJ",
        "postalCode": "07069-6442"
      },
      {
        "line": [
          "1701 KNEELEY BLVD."
        ],
        "city": "WANAMASSA",
        "state": "NJ",
        "postalCode": "07712-0000"
      }
    ],
    "extension": [
      {
        "url": "https://fhir.athena.io/StructureDefinition/ah-practice",
        "valueReference": {
          "reference": "Organization/a-1.Practice-24581"
        }
      },
      {
        "url": "https://fhir.athena.io/StructureDefinition/ah-brand",
        "valueReference": {
          "reference": "Organization/a-24581.Brand-1"
        }
      }
    ]
  },
  "fullUrl": "urn:uuid:06cfaa54-6fd4-5271-8e63-b64838183d35"
}