{
  "resource": {
    "resourceType": "Organization",
    "id": "0e7252f3-692c-55ee-8bbf-21b911d60a79",
    "name": "LEX KIDNEY CARE",
    "endpoint": [
      {
        "reference": "Endpoint/27a4e967-47aa-5a9c-a572-b8297ee268a2"
      },
      {
        "reference": "Endpoint/f0b89955-2968-54d4-a861-6f79d9203e7b"
      }
    ],
    "identifier": [
      {
        "system": "http://hl7.org/fhir/sid/us-npi",
        "value": "1285233031"
      }
    ],
    "address": [
      {
        "line": [
          "1610 LEESTOWN RD STE 180"
        ],
        "city": "LEXINGTON",
        "state": "KY",
        "postalCode": "40511-2142"
      },
      {
        "line": [
          "150 N. EAGLE CREEK DRIVE"
        ],
        "city": "LEXINGTON",
        "state": "KY",
        "postalCode": "40509-1805"
      },
      {
        "line": [
          "1101 WINCHESTER RD STE 100"
        ],
        "city": "LEXINGTON",
        "state": "KY",
        "postalCode": "40505-4028"
      },
      {
        "line": [
          "1 SAINT JOSEPH DRIVE"
        ],
        "city": "LEXINGTON",
        "state": "KY",
        "postalCode": "40504-3742"
      },
      {
        "line": [
          "185 PASADENA DR STE 110"
        ],
        "city": "LEXINGTON",
        "state": "KY",
        "postalCode": "40503-2971"
      },
      {
        "line": [
          "1745 ALYSHEBA WAY"
        ],
        "city": "LEXINGTON",
        "state": "KY",
        "postalCode": "40509-9013"
      },
      {
        "line": [
          "1740 NICHLOASVILLE ROAD"
        ],
        "city": "LEXINGTON",
        "state": "KY",
        "postalCode": "40503-1431"
      },
      {
        "line": [
          "2130 NICHOLASVILLE ROAD"
        ],
        "city": "LEXINGTON",
        "state": "KY",
        "postalCode": "40503-2520"
      },
      {
        "line": [
          "480 LEXINGTON ROAD, SUITE E"
        ],
        "city": "VERSAILLES",
        "state": "KY",
        "postalCode": "40383-1918"
      },
      {
        "line": [
          "171 NORTH EAGLE CREEK DRIVE, SUITE 110"
        ],
        "city": "LEXINGTON",
        "state": "KY",
        "postalCode": "40509-1801"
      }
    ],
    "extension": [
      {
        "url": "https://fhir.athena.io/StructureDefinition/ah-practice",
        "valueReference": {
          "reference": "Organization/a-1.Practice-22447"
        }
      },
      {
        "url": "https://fhir.athena.io/StructureDefinition/ah-brand",
        "valueReference": {
          "reference": "Organization/a-22447.Brand-1"
        }
      }
    ]
  },
  "fullUrl": "urn:uuid:0e7252f3-692c-55ee-8bbf-21b911d60a79"
}