{
  "resource": {
    "resourceType": "Organization",
    "id": "38c0aaf9-d9f7-5349-a706-bf9395735916",
    "name": "Upperline Health Indiana",
    "endpoint": [
      {
        "reference": "Endpoint/27a4e967-47aa-5a9c-a572-b8297ee268a2"
      },
      {
        "reference": "Endpoint/863e601b-d1de-5d20-aa18-69141e21113a"
      }
    ],
    "identifier": [
      {
        "system": "http://hl7.org/fhir/sid/us-npi",
        "value": "1942492814"
      }
    ],
    "address": [
      {
        "line": [
          "3503 S. Reed Road"
        ],
        "city": "KOKOMO",
        "state": "IN",
        "postalCode": "46902-3838"
      },
      {
        "line": [
          "800 W 9th St"
        ],
        "city": "JASPER",
        "state": "IN",
        "postalCode": "47546-2514"
      },
      {
        "line": [
          "473 E GREENVILLE AVE"
        ],
        "city": "WINCHESTER",
        "state": "IN",
        "postalCode": "47394-9436"
      },
      {
        "line": [
          "151 Pennsylvania Parkway"
        ],
        "city": "INDIANAPOLIS",
        "state": "IN",
        "postalCode": "46280-1379"
      },
      {
        "line": [
          "408 East Southway Blvd"
        ],
        "city": "KOKOMO",
        "state": "IN",
        "postalCode": "46902-3814"
      },
      {
        "line": [
          "7301 E 90th Street",
          "Suite 112"
        ],
        "city": "INDIANAPOLIS",
        "state": "IN",
        "postalCode": "46256-7206"
      },
      {
        "line": [
          "1000 S Main Street"
        ],
        "city": "TIPTON",
        "state": "IN",
        "postalCode": "46072-9753"
      },
      {
        "line": [
          "8936 Southpointe Dr. Suite C-1"
        ],
        "city": "INDIANAPOLIS",
        "state": "IN",
        "postalCode": "46227-7520"
      },
      {
        "line": [
          "200 High Park Ave"
        ],
        "city": "GOSHEN",
        "state": "IN",
        "postalCode": "46526-4810"
      },
      {
        "line": [
          "1907 W SYCAMORE ST"
        ],
        "city": "KOKOMO",
        "state": "IN",
        "postalCode": "46901-4197"
      },
      {
        "line": [
          "1900 SAINT CHARLES ST"
        ],
        "city": "JASPER",
        "state": "IN",
        "postalCode": "47546-9145"
      },
      {
        "line": [
          "1907 W Sycamore Street"
        ],
        "city": "KOKOMO",
        "state": "IN",
        "postalCode": "46901-5148"
      },
      {
        "line": [
          "11700 N. Meridian St."
        ],
        "city": "CARMEL",
        "state": "IN",
        "postalCode": "46032-4656"
      },
      {
        "line": [
          "1402 E COUNTY LINE RD"
        ],
        "city": "INDIANAPOLIS",
        "state": "IN",
        "postalCode": "46227-0963"
      },
      {
        "line": [
          "1125 W. Jefferson Street"
        ],
        "city": "FRANKLIN",
        "state": "IN",
        "postalCode": "46131-2140"
      },
      {
        "line": [
          "1701 N SENATE AVE"
        ],
        "city": "INDIANAPOLIS",
        "state": "IN",
        "postalCode": "46202-5306"
      },
      {
        "line": [
          "2001 W 86TH ST"
        ],
        "city": "INDIANAPOLIS",
        "state": "IN",
        "postalCode": "46260-1902"
      },
      {
        "line": [
          "2001 W. 86th St"
        ],
        "city": "INDIANAPOLIS",
        "state": "IN",
        "postalCode": "46260-1902"
      },
      {
        "line": [
          "1500 N RITTER AVE"
        ],
        "city": "INDIANAPOLIS",
        "state": "IN",
        "postalCode": "46219-3027"
      },
      {
        "line": [
          "18051 RIVER RD STE 201"
        ],
        "city": "NOBLESVILLE",
        "state": "IN",
        "postalCode": "46062-7092"
      },
      {
        "line": [
          "412 N Monroe St"
        ],
        "city": "WILLIAMSPORT",
        "state": "IN",
        "postalCode": "47993-1049"
      },
      {
        "line": [
          "1060 S Main Street",
          "Suite 5"
        ],
        "city": "TIPTON",
        "state": "IN",
        "postalCode": "46072-8327"
      },
      {
        "line": [
          "1300 S JACKSON ST"
        ],
        "city": "FRANKFORT",
        "state": "IN",
        "postalCode": "46041-3313"
      },
      {
        "line": [
          "5066 N 900 E"
        ],
        "city": "MONTGOMERY",
        "state": "IN",
        "postalCode": "47558-5790"
      },
      {
        "line": [
          "1331 South A St"
        ],
        "city": "ELWOOD",
        "state": "IN",
        "postalCode": "46036-1943"
      },
      {
        "line": [
          "395 Westfield Rd",
          "Ste B"
        ],
        "city": "NOBLESVILLE",
        "state": "IN",
        "postalCode": "46060-1496"
      },
      {
        "line": [
          "1701 N. Senate Avenue"
        ],
        "city": "INDIANAPOLIS",
        "state": "IN",
        "postalCode": "46202-5306"
      },
      {
        "line": [
          "11725 ILLINOIS ST STE LL050"
        ],
        "city": "CARMEL",
        "state": "IN",
        "postalCode": "46032-3015"
      },
      {
        "line": [
          "1300 South Jackson Street"
        ],
        "city": "FRANKFORT",
        "state": "IN",
        "postalCode": "46041-3313"
      },
      {
        "line": [
          "9670 E Washington St",
          "STE 120"
        ],
        "city": "INDIANAPOLIS",
        "state": "IN",
        "postalCode": "46229-3051"
      },
      {
        "line": [
          "13000 East 136th St"
        ],
        "city": "FISHERS",
        "state": "IN",
        "postalCode": "46037-9478"
      },
      {
        "line": [
          "411 PLAZA DR"
        ],
        "city": "COLUMBUS",
        "state": "IN",
        "postalCode": "47201-2916"
      },
      {
        "line": [
          "6850 Parkdale Place"
        ],
        "city": "INDIANAPOLIS",
        "state": "IN",
        "postalCode": "46254-4670"
      },
      {
        "line": [
          "13861 OLIO RD STE 200"
        ],
        "city": "FISHERS",
        "state": "IN",
        "postalCode": "46037-3487"
      },
      {
        "line": [
          "2401 W UNIVERSITY AVE"
        ],
        "city": "MUNCIE",
        "state": "IN",
        "postalCode": "47303-3428"
      },
      {
        "line": [
          "1201 HADLEY RD"
        ],
        "city": "MOORESVILLE",
        "state": "IN",
        "postalCode": "46158-1737"
      },
      {
        "line": [
          "102 Woodmont Blvd",
          "#450"
        ],
        "city": "NASHVILLE",
        "state": "TN",
        "postalCode": "37205-2287"
      },
      {
        "line": [
          "3015 10TH STREET"
        ],
        "city": "COLUMBUS",
        "state": "IN",
        "postalCode": "47201-6603"
      },
      {
        "line": [
          "1000 N 16TH ST"
        ],
        "city": "NEW CASTLE",
        "state": "IN",
        "postalCode": "47362-4319"
      },
      {
        "line": [
          "1515 N Madison Ave"
        ],
        "city": "ANDERSON",
        "state": "IN",
        "postalCode": "46011-3453"
      },
      {
        "line": [
          "9700 E 146th Street"
        ],
        "city": "NOBLESVILLE",
        "state": "IN",
        "postalCode": "46062-4303"
      },
      {
        "line": [
          "1500 N Ritter Avenue"
        ],
        "city": "INDIANAPOLIS",
        "state": "IN",
        "postalCode": "46219-3027"
      },
      {
        "line": [
          "1239 E 4th St Rd"
        ],
        "city": "SEYMOUR",
        "state": "IN",
        "postalCode": "47274-1839"
      },
      {
        "line": [
          "2400 EAST 17TH STREET"
        ],
        "city": "COLUMBUS",
        "state": "IN",
        "postalCode": "47201-5351"
      },
      {
        "line": [
          "2400 EAST 17TH STREET"
        ],
        "city": "COLUMBUS",
        "state": "IN",
        "postalCode": "47201-3677"
      },
      {
        "line": [
          "7150 Clearvista Dr"
        ],
        "city": "INDIANAPOLIS",
        "state": "IN",
        "postalCode": "46256-1695"
      },
      {
        "line": [
          "14641 THATCHER LN STE 13"
        ],
        "city": "CARMEL",
        "state": "IN",
        "postalCode": "46032-1563"
      },
      {
        "line": [
          "1159 W. Jefferson St.",
          "Suite 204"
        ],
        "city": "FRANKLIN",
        "state": "IN",
        "postalCode": "46131-2795"
      },
      {
        "line": [
          "13500 N MERIDIAN ST"
        ],
        "city": "CARMEL",
        "state": "IN",
        "postalCode": "46032-1456"
      },
      {
        "line": [
          "1007 N 16TH ST"
        ],
        "city": "NEW CASTLE",
        "state": "IN",
        "postalCode": "47362-4320"
      },
      {
        "line": [
          "8820 S Meridian St"
        ],
        "city": "INDIANAPOLIS",
        "state": "IN",
        "postalCode": "46217-6056"
      },
      {
        "line": [
          "8111 S. Emerson Ave"
        ],
        "city": "INDIANAPOLIS",
        "state": "IN",
        "postalCode": "46237-8601"
      },
      {
        "line": [
          "7430 N Shadeland Ave",
          "Suite 290"
        ],
        "city": "INDIANAPOLIS",
        "state": "IN",
        "postalCode": "46250-2025"
      },
      {
        "line": [
          "8111 S EMERSON AVE"
        ],
        "city": "INDIANAPOLIS",
        "state": "IN",
        "postalCode": "46237-8601"
      },
      {
        "line": [
          "1060 S Main Street",
          "Suite 5"
        ],
        "city": "TIPTON",
        "state": "IN",
        "postalCode": "46072-9596"
      },
      {
        "line": [
          "695 W. 2nd Street",
          "Suite C"
        ],
        "city": "JASPER",
        "state": "IN",
        "postalCode": "47546-3240"
      },
      {
        "line": [
          "325 Westfield Rd",
          "Suite B"
        ],
        "city": "NOBLESVILLE",
        "state": "IN",
        "postalCode": "46060-9702"
      },
      {
        "line": [
          "2015 Jackson St"
        ],
        "city": "ANDERSON",
        "state": "IN",
        "postalCode": "46016-4337"
      },
      {
        "line": [
          "1100 Reid Pkwy"
        ],
        "city": "RICHMOND",
        "state": "IN",
        "postalCode": "47374-1913"
      },
      {
        "line": [
          "2024 Lindberg Road"
        ],
        "city": "ANDERSON",
        "state": "IN",
        "postalCode": "46012-2716"
      },
      {
        "line": [
          "1458 S. Jackson Street"
        ],
        "city": "FRANKFORT",
        "state": "IN",
        "postalCode": "46041-3315"
      },
      {
        "line": [
          "1907 W Sycamore Street",
          "Suite 300"
        ],
        "city": "KOKOMO",
        "state": "IN",
        "postalCode": "46901-5148"
      },
      {
        "line": [
          "802 E 10th St"
        ],
        "city": "FERDINAND",
        "state": "IN",
        "postalCode": "47532-9239"
      },
      {
        "line": [
          "500 W VOTAW ST"
        ],
        "city": "PORTLAND",
        "state": "IN",
        "postalCode": "47371-1322"
      },
      {
        "line": [
          "600 W 13th St"
        ],
        "city": "JASPER",
        "state": "IN",
        "postalCode": "47546-2414"
      },
      {
        "line": [
          "300 Fairgrounds Road"
        ],
        "city": "TIPTON",
        "state": "IN",
        "postalCode": "46072-8458"
      },
      {
        "line": [
          "2130 W. Sycamore Street",
          "Suite 150"
        ],
        "city": "KOKOMO",
        "state": "IN",
        "postalCode": "46901-6459"
      },
      {
        "line": [
          "Ste B"
        ],
        "city": "NOBLESVILLE",
        "state": "IN",
        "postalCode": "46060-1496"
      },
      {
        "line": [
          "7412 Rockville Road"
        ],
        "city": "INDIANAPOLIS",
        "state": "IN",
        "postalCode": "46214-3097"
      },
      {
        "line": [
          "7830 E 96TH ST"
        ],
        "city": "FISHERS",
        "state": "IN",
        "postalCode": "46037-9629"
      },
      {
        "line": [
          "695 W 2nd St",
          "Suite C"
        ],
        "city": "JASPER",
        "state": "IN",
        "postalCode": "47546-3240"
      },
      {
        "line": [
          "1710 Lafayette Ave."
        ],
        "city": "CRAWFORDSVILLE",
        "state": "IN",
        "postalCode": "47933-1033"
      },
      {
        "line": [
          "2425 North Park Drive",
          "Suite 20"
        ],
        "city": "COLUMBUS",
        "state": "IN",
        "postalCode": "47203-2373"
      },
      {
        "line": [
          "3305 N EVERBROOK LANE"
        ],
        "city": "MUNCIE",
        "state": "IN",
        "postalCode": "47304-5271"
      },
      {
        "line": [
          "473 SE Greenville"
        ],
        "city": "WINCHESTER",
        "state": "IN",
        "postalCode": "47394-9436"
      },
      {
        "line": [
          "679 S State Rd 145"
        ],
        "city": "FRENCH LICK",
        "state": "IN",
        "postalCode": "47432-8328"
      },
      {
        "line": [
          "200 HIGH PARK AVE"
        ],
        "city": "GOSHEN",
        "state": "IN",
        "postalCode": "46526-4810"
      },
      {
        "line": [
          "8040 Clearvista Pkwy"
        ],
        "city": "INDIANAPOLIS",
        "state": "IN",
        "postalCode": "46256-4663"
      },
      {
        "line": [
          "2400 EAST 17TH STREET"
        ],
        "city": "COLUMBUS",
        "state": "IN",
        "postalCode": "47202-5351"
      },
      {
        "line": [
          "9865 E 116TH ST"
        ],
        "city": "FISHERS",
        "state": "IN",
        "postalCode": "46037-9237"
      },
      {
        "line": [
          "13100 E 136th St",
          "Suite 1100"
        ],
        "city": "FISHERS",
        "state": "IN",
        "postalCode": "46037-9478"
      },
      {
        "line": [
          "1106 South A Street"
        ],
        "city": "RICHMOND",
        "state": "IN",
        "postalCode": "47374-5526"
      },
      {
        "line": [
          "11725 Illinois Street",
          "Suite LL050"
        ],
        "city": "CARMEL",
        "state": "IN",
        "postalCode": "46032-3014"
      },
      {
        "line": [
          "600 S State Road 57",
          "Suite B"
        ],
        "city": "WASHINGTON",
        "state": "IN",
        "postalCode": "47501-4371"
      }
    ],
    "extension": [
      {
        "url": "https://fhir.athena.io/StructureDefinition/ah-practice",
        "valueReference": {
          "reference": "Organization/a-1.Practice-4399"
        }
      },
      {
        "url": "https://fhir.athena.io/StructureDefinition/ah-brand",
        "valueReference": {
          "reference": "Organization/a-4399.Brand-9"
        }
      }
    ]
  },
  "fullUrl": "urn:uuid:38c0aaf9-d9f7-5349-a706-bf9395735916"
}