{
  "resource": {
    "resourceType": "Organization",
    "id": "ff954864-359b-5d97-9245-171c4b9ba873",
    "name": "Manatee Kidney Diseases Consultants",
    "endpoint": [
      {
        "reference": "Endpoint/27a4e967-47aa-5a9c-a572-b8297ee268a2"
      },
      {
        "reference": "Endpoint/bd8a5b79-b4f1-501c-b6d8-5ec9126daa32"
      }
    ],
    "identifier": [
      {
        "system": "http://hl7.org/fhir/sid/us-npi",
        "value": "1043335813"
      }
    ],
    "address": [
      {
        "line": [
          "3501 CORTEZ RD W",
          "STE 104"
        ],
        "city": "BRADENTON",
        "state": "FL",
        "postalCode": "34210-3196"
      },
      {
        "line": [
          "3501 CORTEZ RD W"
        ],
        "city": "BRADENTON",
        "state": "FL",
        "postalCode": "34210-3104"
      },
      {
        "line": [
          "952 Cypress Village Blvd"
        ],
        "city": "SUN CITY CENTER",
        "state": "FL",
        "postalCode": "33573-6830"
      },
      {
        "line": [
          "5902 Pointe West Blvd"
        ],
        "city": "BRADENTON",
        "state": "FL",
        "postalCode": "34209-5529"
      },
      {
        "line": [
          "5837 21st Ave W"
        ],
        "city": "BRADENTON",
        "state": "FL",
        "postalCode": "34209-5641"
      },
      {
        "line": [
          "3701 MANATEE AVE W"
        ],
        "city": "BRADENTON",
        "state": "FL",
        "postalCode": "34205-1711"
      },
      {
        "line": [
          "2020 59TH ST W"
        ],
        "city": "BRADENTON",
        "state": "FL",
        "postalCode": "34209-4604"
      },
      {
        "line": [
          "3820 US HIGHWAY 301 N"
        ],
        "city": "ELLENTON",
        "state": "FL",
        "postalCode": "34222-2331"
      },
      {
        "line": [
          "8330 Lakewood Ranch Blvd"
        ],
        "city": "BRADENTON",
        "state": "FL",
        "postalCode": "34202-5174"
      },
      {
        "line": [
          "520 Manatee Ave E"
        ],
        "city": "BRADENTON",
        "state": "FL",
        "postalCode": "34208-1146"
      },
      {
        "line": [
          "4016 SUN CITY CENTER BLVD"
        ],
        "city": "SUN CITY CENTER",
        "state": "FL",
        "postalCode": "33573-5256"
      },
      {
        "line": [
          "206 2ND ST E"
        ],
        "city": "BRADENTON",
        "state": "FL",
        "postalCode": "34208-1042"
      },
      {
        "line": [
          "3909 GALEN CT",
          "STE 102"
        ],
        "city": "SUN CITY CENTER",
        "state": "FL",
        "postalCode": "33573-6824"
      },
      {
        "line": [
          "5309 E STATE ROAD 64"
        ],
        "city": "BRADENTON",
        "state": "FL",
        "postalCode": "34208-5534"
      }
    ],
    "extension": [
      {
        "url": "https://fhir.athena.io/StructureDefinition/ah-practice",
        "valueReference": {
          "reference": "Organization/a-1.Practice-31469"
        }
      },
      {
        "url": "https://fhir.athena.io/StructureDefinition/ah-brand",
        "valueReference": {
          "reference": "Organization/a-31469.Brand-1"
        }
      }
    ]
  },
  "fullUrl": "urn:uuid:ff954864-359b-5d97-9245-171c4b9ba873"
}