{
  "resource": {
    "resourceType": "Organization",
    "id": "03d8dbbc-6b57-58e2-a1d1-b04bf24e43a8",
    "name": "Developmental Pediatrics Telehealth",
    "endpoint": [
      {
        "reference": "Endpoint/27a4e967-47aa-5a9c-a572-b8297ee268a2"
      },
      {
        "reference": "Endpoint/ad5e7ed2-c9a8-54c7-8d5b-4dd27a40b23f"
      }
    ],
    "identifier": [
      {
        "system": "http://hl7.org/fhir/sid/us-npi",
        "value": "1801386644"
      }
    ],
    "address": [
      {
        "line": [
          "2021 N. Boise Ave"
        ],
        "city": "LOVELAND",
        "state": "CO",
        "postalCode": "80538-5038"
      },
      {
        "line": [
          "1683 Main St"
        ],
        "city": "WINDSOR",
        "state": "CO",
        "postalCode": "80550-7921"
      },
      {
        "line": [
          "1801 16th ST"
        ],
        "city": "GREELEY",
        "state": "CO",
        "postalCode": "80631-5154"
      },
      {
        "line": [
          "1800 W 26TH ST STE 206"
        ],
        "city": "HOUSTON",
        "state": "TX",
        "postalCode": "77008-1450"
      },
      {
        "line": [
          "2001 70th Ave",
          "Suite 300"
        ],
        "city": "GREELEY",
        "state": "CO",
        "postalCode": "80634-4632"
      },
      {
        "line": [
          "2055 N HIGH ST STE 300"
        ],
        "city": "DENVER",
        "state": "CO",
        "postalCode": "80205-5665"
      },
      {
        "line": [
          "6031 E WOODMEN RD STE 330"
        ],
        "city": "COLORADO SPRINGS",
        "state": "CO",
        "postalCode": "80923-2624"
      },
      {
        "line": [
          "6011 E Woodman Road",
          "STE 115"
        ],
        "city": "COLORADO SPRINGS",
        "state": "CO",
        "postalCode": "80923-2603"
      }
    ],
    "extension": [
      {
        "url": "https://fhir.athena.io/StructureDefinition/ah-practice",
        "valueReference": {
          "reference": "Organization/a-1.Practice-18767"
        }
      },
      {
        "url": "https://fhir.athena.io/StructureDefinition/ah-brand",
        "valueReference": {
          "reference": "Organization/a-18767.Brand-1"
        }
      }
    ]
  },
  "fullUrl": "urn:uuid:03d8dbbc-6b57-58e2-a1d1-b04bf24e43a8"
}