{
  "resource": {
    "resourceType": "Organization",
    "id": "2519344f-62fa-5a1d-8296-1c26b81fce40",
    "name": "National Kidney Partners",
    "endpoint": [
      {
        "reference": "Endpoint/27a4e967-47aa-5a9c-a572-b8297ee268a2"
      },
      {
        "reference": "Endpoint/10f4a390-5401-5d2f-a086-1c601e90bf13"
      }
    ],
    "identifier": [
      {
        "system": "http://hl7.org/fhir/sid/us-npi",
        "value": "1780684795"
      }
    ],
    "address": [
      {
        "line": [
          "1700 s Tamiami trl"
        ],
        "city": "SARASOTA",
        "state": "FL",
        "postalCode": "34239-3509"
      },
      {
        "line": [
          "6901 Simmons Loop"
        ],
        "city": "RIVERVIEW",
        "state": "FL",
        "postalCode": "33578-9498"
      },
      {
        "line": [
          "13691 METRO PKWY STE 260"
        ],
        "city": "FORT MYERS",
        "state": "FL",
        "postalCode": "33912-4350"
      },
      {
        "line": [
          "2600 LAUREL RD E"
        ],
        "city": "NOKOMIS",
        "state": "FL",
        "postalCode": "34275-3226"
      },
      {
        "line": [
          "26750 US HIGHWAY 19 N STE 120"
        ],
        "city": "CLEARWATER",
        "state": "FL",
        "postalCode": "33761-3404"
      },
      {
        "line": [
          "4705 N. ARMENIA AVE"
        ],
        "city": "TAMPA",
        "state": "FL",
        "postalCode": "33603-2627"
      },
      {
        "line": [
          "4211 VAN DYKE RD"
        ],
        "city": "LUTZ",
        "state": "FL",
        "postalCode": "33558-8005"
      },
      {
        "line": [
          "4012 s tamiami trail"
        ],
        "city": "SARASOTA",
        "state": "FL",
        "postalCode": "34231-3624"
      },
      {
        "line": [
          "1120 indian hills blvd"
        ],
        "city": "VENICE",
        "state": "FL",
        "postalCode": "34293-2000"
      },
      {
        "line": [
          "9441 HEALTH CENTER"
        ],
        "city": "LAND O LAKES",
        "state": "FL",
        "postalCode": "34639-5837"
      },
      {
        "line": [
          "11306 N 53rd St"
        ],
        "city": "TAMPA",
        "state": "FL",
        "postalCode": "33617-2214"
      },
      {
        "line": [
          "601 MAIN ST."
        ],
        "city": "DUNEDIN",
        "state": "FL",
        "postalCode": "34698-5848"
      },
      {
        "line": [
          "2205 w kennedy blvd"
        ],
        "city": "TAMPA",
        "state": "FL",
        "postalCode": "33606-1536"
      },
      {
        "line": [
          "1950 LAUREL MANOR DR"
        ],
        "city": "THE VILLAGES",
        "state": "FL",
        "postalCode": "32162-5608"
      },
      {
        "line": [
          "1117 ARLINGTON AVE N"
        ],
        "city": "SAINT PETERSBURG",
        "state": "FL",
        "postalCode": "33705-1521"
      },
      {
        "line": [
          "1 TAMPA GENERAL CIRCLE"
        ],
        "city": "TAMPA",
        "state": "FL",
        "postalCode": "33606-3571"
      },
      {
        "line": [
          "5276 BLANDING BLVD STE 26"
        ],
        "city": "JACKSONVILLE",
        "state": "FL",
        "postalCode": "32210-8176"
      },
      {
        "line": [
          "13681 Doctors Way"
        ],
        "city": "FORT MYERS",
        "state": "FL",
        "postalCode": "33912-4350"
      },
      {
        "line": [
          "6150 MEDICAL PARK LOOP"
        ],
        "city": "FORT MYERS",
        "state": "FL",
        "postalCode": "33912-4537"
      },
      {
        "line": [
          "2100 ViaBella blvd",
          "ste 104"
        ],
        "city": "LAND O LAKES",
        "state": "FL",
        "postalCode": "34639-5429"
      },
      {
        "line": [
          "14134 Nephron Ln"
        ],
        "city": "HUDSON",
        "state": "FL",
        "postalCode": "34667-6504"
      },
      {
        "line": [
          "9981 S HEALTHPARK DR"
        ],
        "city": "FORT MYERS",
        "state": "FL",
        "postalCode": "33908-3618"
      },
      {
        "line": [
          "7421 RIDGE RD."
        ],
        "city": "PORT RICHEY",
        "state": "FL",
        "postalCode": "34668-6935"
      },
      {
        "line": [
          "514 medical oaks"
        ],
        "city": "BRANDON",
        "state": "FL",
        "postalCode": "33511-5961"
      },
      {
        "line": [
          "8470 COOPER CREEK BLVD"
        ],
        "city": "BRADENTON",
        "state": "FL",
        "postalCode": "34201-2020"
      },
      {
        "line": [
          "1601 Clint Moore Ave",
          "#160"
        ],
        "city": "BOCA RATON",
        "state": "FL",
        "postalCode": "33487-2768"
      },
      {
        "line": [
          "2820 SCHERER DR"
        ],
        "city": "SAINT PETERSBURG",
        "state": "FL",
        "postalCode": "33716-1019"
      },
      {
        "line": [
          "323 JEFFORDS ST"
        ],
        "city": "CLEARWATER",
        "state": "FL",
        "postalCode": "33756-3825"
      },
      {
        "line": [
          "2025 Indian Rocks Rd,"
        ],
        "city": "LARGO",
        "state": "FL",
        "postalCode": "33774-1035"
      },
      {
        "line": [
          "1701 e 9th ave"
        ],
        "city": "TAMPA",
        "state": "FL",
        "postalCode": "33605-3801"
      },
      {
        "line": [
          "508 Manatee ave e"
        ],
        "city": "BRADENTON",
        "state": "FL",
        "postalCode": "34208-1146"
      },
      {
        "line": [
          "109 44TH AVE E STE 100"
        ],
        "city": "BRADENTON",
        "state": "FL",
        "postalCode": "34203-3640"
      },
      {
        "line": [
          "636 Del Prado Blvd S"
        ],
        "city": "CAPE CORAL",
        "state": "FL",
        "postalCode": "33990-2668"
      },
      {
        "line": [
          "206 SECOND ST EAST"
        ],
        "city": "BRADENTON",
        "state": "FL",
        "postalCode": "34204-1042"
      },
      {
        "line": [
          "6000 49TH ST. NORTH"
        ],
        "city": "SAINT PETERSBURG",
        "state": "FL",
        "postalCode": "33709-2114"
      },
      {
        "line": [
          "4555 South Manhattan Avenue"
        ],
        "city": "TAMPA",
        "state": "FL",
        "postalCode": "33611-2305"
      },
      {
        "line": [
          "2100 ViaBella blvd"
        ],
        "city": "LAND O LAKES",
        "state": "FL",
        "postalCode": "34639-5429"
      },
      {
        "line": [
          "3140 S Falkenburg Rd",
          "Ste 101"
        ],
        "city": "RIVERVIEW",
        "state": "FL",
        "postalCode": "33578-2594"
      },
      {
        "line": [
          "2600 BRUCE B DOWNS BLVD"
        ],
        "city": "WESLEY CHAPEL",
        "state": "FL",
        "postalCode": "33544-9207"
      },
      {
        "line": [
          "1500 Lee Blvd"
        ],
        "city": "LEHIGH ACRES",
        "state": "FL",
        "postalCode": "33936-4835"
      },
      {
        "line": [
          "1401 WEST BAY DR"
        ],
        "city": "LARGO",
        "state": "FL",
        "postalCode": "33770-2207"
      },
      {
        "line": [
          "4515 George Rd",
          "Ste 300"
        ],
        "city": "TAMPA",
        "state": "FL",
        "postalCode": "33634-7300"
      },
      {
        "line": [
          "14941 TAMIAMI TRAIL",
          "SUITE G"
        ],
        "city": "NORTH PORT",
        "state": "FL",
        "postalCode": "34287-7510"
      },
      {
        "line": [
          "12480 S Tamiami Trail"
        ],
        "city": "NORTH PORT",
        "state": "FL",
        "postalCode": "34287-1448"
      },
      {
        "line": [
          "5837 21ST AVE W"
        ],
        "city": "BRADENTON",
        "state": "FL",
        "postalCode": "34209-5641"
      },
      {
        "line": [
          "2323 9TH AVE N"
        ],
        "city": "SAINT PETERSBURG",
        "state": "FL",
        "postalCode": "33713-6832"
      },
      {
        "line": [
          "635 4TH ST N"
        ],
        "city": "SAINT PETERSBURG",
        "state": "FL",
        "postalCode": "33701-2319"
      },
      {
        "line": [
          "5504 PINEBROOK RD STE 102"
        ],
        "city": "NOKOMIS",
        "state": "FL",
        "postalCode": "34275-3673"
      },
      {
        "line": [
          "900 N. ROBERT AVE"
        ],
        "city": "ARCADIA",
        "state": "FL",
        "postalCode": "34266-8712"
      },
      {
        "line": [
          "2735 SANTA BARBARA BLVD"
        ],
        "city": "CAPE CORAL",
        "state": "FL",
        "postalCode": "33914-4448"
      },
      {
        "line": [
          "9981 S Healthpark Dr"
        ],
        "city": "FORT MYERS",
        "state": "FL",
        "postalCode": "33908-3618"
      },
      {
        "line": [
          "2989 fruitville rd"
        ],
        "city": "SARASOTA",
        "state": "FL",
        "postalCode": "34237-5302"
      },
      {
        "line": [
          "41747 us hwy 19 77"
        ],
        "city": "TARPON SPRINGS",
        "state": "FL",
        "postalCode": "34689-3709"
      },
      {
        "line": [
          "50 N BRIDGE ST"
        ],
        "city": "LABELLE",
        "state": "FL",
        "postalCode": "33935-5083"
      },
      {
        "line": [
          "3140 S Falkenburg Rd"
        ],
        "city": "RIVERVIEW",
        "state": "FL",
        "postalCode": "33578-2594"
      },
      {
        "line": [
          "3002 E College Ave"
        ],
        "city": "RUSKIN",
        "state": "FL",
        "postalCode": "33570-3002"
      },
      {
        "line": [
          "952 CYPRESS VILLAGE BLDV"
        ],
        "city": "SUN CITY CENTER",
        "state": "FL",
        "postalCode": "33573-6830"
      },
      {
        "line": [
          "7421 Ridge Rd",
          "Ste 105"
        ],
        "city": "PORT RICHEY",
        "state": "FL",
        "postalCode": "34668-9998"
      },
      {
        "line": [
          "3100 East Fletcher Avenue"
        ],
        "city": "TAMPA",
        "state": "FL",
        "postalCode": "33613-4613"
      },
      {
        "line": [
          "119OAKFIELD DR"
        ],
        "city": "BRANDON",
        "state": "FL",
        "postalCode": "33511-5779"
      },
      {
        "line": [
          "14000 FIVAY RD."
        ],
        "city": "HUDSON",
        "state": "FL",
        "postalCode": "34667-7103"
      },
      {
        "line": [
          "1057 S FORT HARRISON AVE"
        ],
        "city": "CLEARWATER",
        "state": "FL",
        "postalCode": "33756-3905"
      },
      {
        "line": [
          "7421 RIDGE RD"
        ],
        "city": "PORT RICHEY",
        "state": "FL",
        "postalCode": "34668-6935"
      },
      {
        "line": [
          "3614 W KENNEDY BLVD"
        ],
        "city": "TAMPA",
        "state": "FL",
        "postalCode": "33609-2852"
      },
      {
        "line": [
          "520 MANATEE AVE E"
        ],
        "city": "BRADENTON",
        "state": "FL",
        "postalCode": "34208-1146"
      },
      {
        "line": [
          "2301 W Dr MLK Jr"
        ],
        "city": "TAMPA",
        "state": "FL",
        "postalCode": "33607-1609"
      },
      {
        "line": [
          "7318 BROAD ST"
        ],
        "city": "BROOKSVILLE",
        "state": "FL",
        "postalCode": "34601-3114"
      },
      {
        "line": [
          "14181 S TAMIAMI TRL STE 120"
        ],
        "city": "FORT MYERS",
        "state": "FL",
        "postalCode": "33912-1985"
      },
      {
        "line": [
          "2525 E Hillsborough Ave",
          "ste 209"
        ],
        "city": "TAMPA",
        "state": "FL",
        "postalCode": "33610-4424"
      },
      {
        "line": [
          "9330 STATE RD. 54"
        ],
        "city": "NEW PORT RICHEY",
        "state": "FL",
        "postalCode": "34655-1808"
      },
      {
        "line": [
          "1211 W Reynolds St Ste 1"
        ],
        "city": "PLANT CITY",
        "state": "FL",
        "postalCode": "33563-4321"
      },
      {
        "line": [
          "1200 7TH AVE NORTH"
        ],
        "city": "SAINT PETERSBURG",
        "state": "FL",
        "postalCode": "33705-1300"
      },
      {
        "line": [
          "908 S PARSONS AVE STE D"
        ],
        "city": "BRANDON",
        "state": "FL",
        "postalCode": "33511-6045"
      },
      {
        "line": [
          "13681 DOCTORS WAY"
        ],
        "city": "FORT MYERS",
        "state": "FL",
        "postalCode": "33912-4350"
      },
      {
        "line": [
          "8021 PHILIPS HWY STE 15"
        ],
        "city": "JACKSONVILLE",
        "state": "FL",
        "postalCode": "32256-7460"
      },
      {
        "line": [
          "4705 n armenia ave"
        ],
        "city": "TAMPA",
        "state": "FL",
        "postalCode": "33603-2627"
      },
      {
        "line": [
          "1341 E. OAK ST."
        ],
        "city": "ARCADIA",
        "state": "FL",
        "postalCode": "34266-8902"
      },
      {
        "line": [
          "3625 UNIVERSITY BLVD S"
        ],
        "city": "JACKSONVILLE",
        "state": "FL",
        "postalCode": "32216-4207"
      },
      {
        "line": [
          "457 Carlton St"
        ],
        "city": "WAUCHULA",
        "state": "FL",
        "postalCode": "33873-3400"
      },
      {
        "line": [
          "4204 n macdill ave"
        ],
        "city": "TAMPA",
        "state": "FL",
        "postalCode": "33607-6364"
      },
      {
        "line": [
          "5731 BEE RIDGE RD"
        ],
        "city": "SARASOTA",
        "state": "FL",
        "postalCode": "34233-5222"
      },
      {
        "line": [
          "FMC PINELLAS PARK"
        ],
        "city": "SAINT PETERSBURG",
        "state": "FL",
        "postalCode": "33711-1722"
      },
      {
        "line": [
          "6600 university parkway lakewood"
        ],
        "city": "SARASOTA",
        "state": "FL",
        "postalCode": "34240-9037"
      },
      {
        "line": [
          "4251 Mariner Blvd"
        ],
        "city": "SPRING HILL",
        "state": "FL",
        "postalCode": "34609-2416"
      },
      {
        "line": [
          "12674 Telecom Dr",
          "ste D"
        ],
        "city": "TAMPA",
        "state": "FL",
        "postalCode": "33637-0935"
      },
      {
        "line": [
          "3501 CORTEZ RD. W"
        ],
        "city": "BRADENTON",
        "state": "FL",
        "postalCode": "34210-3196"
      },
      {
        "line": [
          "3451 66TH ST N"
        ],
        "city": "SAINT PETERSBURG",
        "state": "FL",
        "postalCode": "33710-1568"
      },
      {
        "line": [
          "1500 LEE BLVD"
        ],
        "city": "LEHIGH ACRES",
        "state": "FL",
        "postalCode": "33936-4385"
      },
      {
        "line": [
          "14153 YOSEMITE DR STE 102"
        ],
        "city": "HUDSON",
        "state": "FL",
        "postalCode": "34667-8063"
      },
      {
        "line": [
          "3227 LEE BLVD UNIT 5"
        ],
        "city": "LEHIGH ACRES",
        "state": "FL",
        "postalCode": "33971-1428"
      },
      {
        "line": [
          "10800 Temple Terrace"
        ],
        "city": "SEMINOLE",
        "state": "FL",
        "postalCode": "33772-4736"
      },
      {
        "line": [
          "6901 Simmons Loop",
          "ste 207"
        ],
        "city": "RIVERVIEW",
        "state": "FL",
        "postalCode": "33578-9498"
      },
      {
        "line": [
          "1121 OVERCASH DR"
        ],
        "city": "DUNEDIN",
        "state": "FL",
        "postalCode": "34698-5516"
      },
      {
        "line": [
          "7050 GAIL BLVD."
        ],
        "city": "ZEPHYRHILLS",
        "state": "FL",
        "postalCode": "33541-1347"
      },
      {
        "line": [
          "1921 WALDEMERE ST",
          "#107"
        ],
        "city": "SARASOTA",
        "state": "FL",
        "postalCode": "34239-2349"
      },
      {
        "line": [
          "1701 E 9TH AVE"
        ],
        "city": "TAMPA",
        "state": "FL",
        "postalCode": "33605-3801"
      },
      {
        "line": [
          "Davita Land O'Lakes"
        ],
        "city": "SARASOTA",
        "state": "FL",
        "postalCode": "34240-8428"
      },
      {
        "line": [
          "4016 Sun City Center Blvd"
        ],
        "city": "SUN CITY CENTER",
        "state": "FL",
        "postalCode": "33573-5256"
      },
      {
        "line": [
          "26381 S TAMIAMI TRL"
        ],
        "city": "BONITA SPRINGS",
        "state": "FL",
        "postalCode": "34134-7803"
      },
      {
        "line": [
          "7910 US 19N"
        ],
        "city": "PINELLAS PARK",
        "state": "FL",
        "postalCode": "33781-6245"
      },
      {
        "line": [
          "8330 LAKEWOOD RANCH"
        ],
        "city": "BRADENTON",
        "state": "FL",
        "postalCode": "34202-5174"
      },
      {
        "line": [
          "9332 STATE ROAD 54 STE 306"
        ],
        "city": "NEW PORT RICHEY",
        "state": "FL",
        "postalCode": "34655-1810"
      },
      {
        "line": [
          "109 E. 44th Ave.",
          "SUITE 301"
        ],
        "city": "BRADENTON",
        "state": "FL",
        "postalCode": "34203-3640"
      },
      {
        "line": [
          "7421 Ridge Rd"
        ],
        "city": "PORT RICHEY",
        "state": "FL",
        "postalCode": "34668-9998"
      },
      {
        "line": [
          "3242 Henderson Blvd",
          "ste 200"
        ],
        "city": "TAMPA",
        "state": "FL",
        "postalCode": "33609-3097"
      },
      {
        "line": [
          "540 the rialto"
        ],
        "city": "VENICE",
        "state": "FL",
        "postalCode": "34285-2900"
      },
      {
        "line": [
          "KIF LEHIGH MEDICAL CENTER OBS"
        ],
        "city": "LEHIGH ACRES",
        "state": "FL",
        "postalCode": "33936-4835"
      },
      {
        "line": [
          "6500 38TH AVE N"
        ],
        "city": "SAINT PETERSBURG",
        "state": "FL",
        "postalCode": "33710-1629"
      },
      {
        "line": [
          "2020 Tamiami Trail"
        ],
        "city": "PORT CHARLOTTE",
        "state": "FL",
        "postalCode": "33948-2178"
      },
      {
        "line": [
          "1631 sw gatlin blvd st"
        ],
        "city": "PORT SAINT LUCIE",
        "state": "FL",
        "postalCode": "34953-4103"
      },
      {
        "line": [
          "114 E BRANDON BLVD"
        ],
        "city": "WEST PALM BEACH",
        "state": "FL",
        "postalCode": "33411-4310"
      },
      {
        "line": [
          "14358 N. DALE MABRY HWY."
        ],
        "city": "TAMPA",
        "state": "FL",
        "postalCode": "33618-2018"
      },
      {
        "line": [
          "4553 Gunn Hwy"
        ],
        "city": "TAMPA",
        "state": "FL",
        "postalCode": "33624-6311"
      },
      {
        "line": [
          "3820 us hwy 301 n"
        ],
        "city": "ELLENTON",
        "state": "FL",
        "postalCode": "34222-3624"
      },
      {
        "line": [
          "14444 BEACH BLVD STE B"
        ],
        "city": "JACKSONVILLE BEACH",
        "state": "FL",
        "postalCode": "32250-2010"
      },
      {
        "line": [
          "4300 kings hwy",
          "ste 406"
        ],
        "city": "PUNTA GORDA",
        "state": "FL",
        "postalCode": "33980-2990"
      },
      {
        "line": [
          "731 W lumsden Rd"
        ],
        "city": "BRANDON",
        "state": "FL",
        "postalCode": "33511-6261"
      },
      {
        "line": [
          "26338 US HWY 19"
        ],
        "city": "CLEARWATER",
        "state": "FL",
        "postalCode": "33761-4500"
      },
      {
        "line": [
          "29296 US HWY 19"
        ],
        "city": "CLEARWATER",
        "state": "FL",
        "postalCode": "33761-2104"
      },
      {
        "line": [
          "3820 US 301"
        ],
        "city": "ELLENTON",
        "state": "FL",
        "postalCode": "34222-2331"
      },
      {
        "line": [
          "Landmark Hospital",
          "floor 3"
        ],
        "city": "LEHIGH ACRES",
        "state": "FL",
        "postalCode": "33936-4385"
      },
      {
        "line": [
          "1939 Worth Ct"
        ],
        "city": "BRADENTON",
        "state": "FL",
        "postalCode": "34211-2110"
      },
      {
        "line": [
          "10800 temple terrace"
        ],
        "city": "SEMINOLE",
        "state": "FL",
        "postalCode": "33772-4736"
      },
      {
        "line": [
          "446 4th St S"
        ],
        "city": "SAINT PETERSBURG",
        "state": "FL",
        "postalCode": "33701-4603"
      },
      {
        "line": [
          "14134 NEPHRON LANE"
        ],
        "city": "HUDSON",
        "state": "FL",
        "postalCode": "34667-6504"
      },
      {
        "line": [
          "3240 us 441"
        ],
        "city": "OKEECHOBEE",
        "state": "FL",
        "postalCode": "34974-1111"
      },
      {
        "line": [
          "3001 w Martin Luther King JR blvd"
        ],
        "city": "TAMPA",
        "state": "FL",
        "postalCode": "33607-9501"
      },
      {
        "line": [
          "4801 N Howard Ave"
        ],
        "city": "TAMPA",
        "state": "FL",
        "postalCode": "33603-1411"
      },
      {
        "line": [
          "2901 swann ave"
        ],
        "city": "TAMPA",
        "state": "FL",
        "postalCode": "33609-4056"
      },
      {
        "line": [
          "7171 N Dale Mabry Hwy"
        ],
        "city": "TAMPA",
        "state": "FL",
        "postalCode": "33614-2665"
      },
      {
        "line": [
          "6001 WEBB  RD"
        ],
        "city": "TAMPA",
        "state": "FL",
        "postalCode": "33615-3241"
      },
      {
        "line": [
          "5504 PINEBROOK RD STE 203"
        ],
        "city": "NOKOMIS",
        "state": "FL",
        "postalCode": "34275-3745"
      },
      {
        "line": [
          "10770 n 46th st"
        ],
        "city": "TAMPA",
        "state": "FL",
        "postalCode": "33612-3442"
      },
      {
        "line": [
          "14305 COLLIER BLVD"
        ],
        "city": "NAPLES",
        "state": "FL",
        "postalCode": "34119-9589"
      },
      {
        "line": [
          "27800 SUMMERGATE"
        ],
        "city": "WESLEY CHAPEL",
        "state": "FL",
        "postalCode": "33544-6919"
      },
      {
        "line": [
          "816 PINEBROOK RD"
        ],
        "city": "VENICE",
        "state": "FL",
        "postalCode": "34285-7103"
      },
      {
        "line": [
          "11550 ULMERTON RD"
        ],
        "city": "LARGO",
        "state": "FL",
        "postalCode": "33778-1501"
      },
      {
        "line": [
          "4204 MCDILL AVE"
        ],
        "city": "TAMPA",
        "state": "FL",
        "postalCode": "33607-6364"
      },
      {
        "line": [
          "3187 US HIGHWAY 98 N"
        ],
        "city": "LAKELAND",
        "state": "FL",
        "postalCode": "33805-2103"
      },
      {
        "line": [
          "355 Dupont St"
        ],
        "city": "PUNTA GORDA",
        "state": "FL",
        "postalCode": "33950-3809"
      },
      {
        "line": [
          "10441 Quality Drive"
        ],
        "city": "SPRING HILL",
        "state": "FL",
        "postalCode": "34609-9656"
      },
      {
        "line": [
          "1519 MAIN ST"
        ],
        "city": "DUNEDIN",
        "state": "FL",
        "postalCode": "34698-4650"
      },
      {
        "line": [
          "4251 MARINER BLVD"
        ],
        "city": "SPRING HILL",
        "state": "FL",
        "postalCode": "34609-2416"
      },
      {
        "line": [
          "4511 NORTH HINES"
        ],
        "city": "TAMPA",
        "state": "FL",
        "postalCode": "33614-7074"
      },
      {
        "line": [
          "201 14TH ST SW"
        ],
        "city": "LARGO",
        "state": "FL",
        "postalCode": "33770-3313"
      },
      {
        "line": [
          "2025 Indian Rocks Rd"
        ],
        "city": "LARGO",
        "state": "FL",
        "postalCode": "33774-1035"
      },
      {
        "line": [
          "6310 HEALTH PARK WAY STE 210 BLDG 2"
        ],
        "city": "BRADENTON",
        "state": "FL",
        "postalCode": "34202-5177"
      },
      {
        "line": [
          "4515 George Rd",
          "ste 300"
        ],
        "city": "TAMPA",
        "state": "FL",
        "postalCode": "33615-7300"
      },
      {
        "line": [
          "617 LAKEVIEW RD"
        ],
        "city": "CLEARWATER",
        "state": "FL",
        "postalCode": "33756-3338"
      },
      {
        "line": [
          "50 N BRIDGE ST"
        ],
        "city": "LABELLE",
        "state": "FL",
        "postalCode": "33935-5099"
      },
      {
        "line": [
          "3501 Cortez Rd W"
        ],
        "city": "BRADENTON",
        "state": "FL",
        "postalCode": "34210-3196"
      },
      {
        "line": [
          "1395 S. PINELLAS AVE"
        ],
        "city": "TARPON SPRINGS",
        "state": "FL",
        "postalCode": "34689-3790"
      },
      {
        "line": [
          "2870 BUND AVE"
        ],
        "city": "NEW PORT RICHEY",
        "state": "FL",
        "postalCode": "34655-1849"
      },
      {
        "line": [
          "6222 Harney Rd"
        ],
        "city": "TAMPA",
        "state": "FL",
        "postalCode": "33610-5500"
      },
      {
        "line": [
          "7179 BROAD ST"
        ],
        "city": "BROOKSVILLE",
        "state": "FL",
        "postalCode": "34601-5536"
      },
      {
        "line": [
          "2000 hartman rd",
          "#2"
        ],
        "city": "FORT PIERCE",
        "state": "FL",
        "postalCode": "34947-4413"
      },
      {
        "line": [
          "1730 NE PINE ISLAND RD"
        ],
        "city": "CAPE CORAL",
        "state": "FL",
        "postalCode": "33909-1734"
      },
      {
        "line": [
          "11375 CORTEZ BLVD"
        ],
        "city": "TAMPA",
        "state": "FL",
        "postalCode": "33613-5409"
      },
      {
        "line": [
          "6600 MADISON AVE"
        ],
        "city": "NEW PORT RICHEY",
        "state": "FL",
        "postalCode": "34652-1971"
      },
      {
        "line": [
          "2020 59TH ST W"
        ],
        "city": "BRADENTON",
        "state": "FL",
        "postalCode": "34206-4604"
      },
      {
        "line": [
          "3231 MCMULLINBOOTH RD."
        ],
        "city": "SAFETY HARBOR",
        "state": "FL",
        "postalCode": "34695-6607"
      },
      {
        "line": [
          "700 MEDICAL BLVD"
        ],
        "city": "ENGLEWOOD",
        "state": "FL",
        "postalCode": "34223-3964"
      },
      {
        "line": [
          "7421 RIDGE RD STE 105"
        ],
        "city": "PORT RICHEY",
        "state": "FL",
        "postalCode": "34668-6935"
      },
      {
        "line": [
          "701 6TH STREET SOUTH"
        ],
        "city": "SAINT PETERSBURG",
        "state": "FL",
        "postalCode": "33701-4814"
      },
      {
        "line": [
          "1730 MAYO DR"
        ],
        "city": "TAVARES",
        "state": "FL",
        "postalCode": "32778-4308"
      },
      {
        "line": [
          "3242 Henderson Blvd",
          "Suite 200"
        ],
        "city": "TAMPA",
        "state": "FL",
        "postalCode": "33609-3094"
      },
      {
        "line": [
          "2301 W Doctor M.L.K. Jr Blvd"
        ],
        "city": "TAMPA",
        "state": "FL",
        "postalCode": "33607-1234"
      },
      {
        "line": [
          "41747 us hwy 19"
        ],
        "city": "TARPON SPRINGS",
        "state": "FL",
        "postalCode": "34689-4166"
      },
      {
        "line": [
          "3227 LEE BLVD"
        ],
        "city": "LEHIGH ACRES",
        "state": "FL",
        "postalCode": "33971-1428"
      },
      {
        "line": [
          "3421 n lakeview dr"
        ],
        "city": "TAMPA",
        "state": "FL",
        "postalCode": "33618-1332"
      },
      {
        "line": [
          "446 4TH ST S"
        ],
        "city": "SAINT PETERSBURG",
        "state": "FL",
        "postalCode": "33701-4603"
      },
      {
        "line": [
          "4515 George Rd"
        ],
        "city": "TAMPA",
        "state": "FL",
        "postalCode": "33634-7300"
      },
      {
        "line": [
          "8661 us 1 s"
        ],
        "city": "PORT SAINT LUCIE",
        "state": "FL",
        "postalCode": "34952-1111"
      },
      {
        "line": [
          "1501 PASEDENA AVE S"
        ],
        "city": "SAINT PETERSBURG",
        "state": "FL",
        "postalCode": "33707-3717"
      },
      {
        "line": [
          "5831 BEE RIDGE RD STE 207"
        ],
        "city": "SARASOTA",
        "state": "FL",
        "postalCode": "34233-5090"
      },
      {
        "line": [
          "5951 Webb Rd"
        ],
        "city": "TAMPA",
        "state": "FL",
        "postalCode": "33615-3219"
      },
      {
        "line": [
          "1407 se goldtree dr"
        ],
        "city": "PORT SAINT LUCIE",
        "state": "FL",
        "postalCode": "34952-7562"
      },
      {
        "line": [
          "1117 N. ARLINGTON AVE"
        ],
        "city": "SAINT PETERSBURG",
        "state": "FL",
        "postalCode": "33705-1521"
      },
      {
        "line": [
          "12505 STARKEY RD"
        ],
        "city": "LARGO",
        "state": "FL",
        "postalCode": "33773-2617"
      },
      {
        "line": [
          "2191 9th ave n",
          "ste 200"
        ],
        "city": "SAINT PETERSBURG",
        "state": "FL",
        "postalCode": "33713-7146"
      },
      {
        "line": [
          "1201 OAKBRIDGE PKWY"
        ],
        "city": "LAKELAND",
        "state": "FL",
        "postalCode": "33803-5945"
      },
      {
        "line": [
          "3100 E Fletcher Ave"
        ],
        "city": "TAMPA",
        "state": "FL",
        "postalCode": "33613-4613"
      },
      {
        "line": [
          "8340 Lakewood Ranch Blvd",
          "ste 101"
        ],
        "city": "BRADENTON",
        "state": "FL",
        "postalCode": "34202-5180"
      },
      {
        "line": [
          "1430 PASADENA AVE S"
        ],
        "city": "SAINT PETERSBURG",
        "state": "FL",
        "postalCode": "33707-3716"
      },
      {
        "line": [
          "4705 N Armenia Ave"
        ],
        "city": "TAMPA",
        "state": "FL",
        "postalCode": "33603-2627"
      },
      {
        "line": [
          "10791 PARK BLVD"
        ],
        "city": "SEMINOLE",
        "state": "FL",
        "postalCode": "33772-5420"
      },
      {
        "line": [
          "611 S 13TH ST"
        ],
        "city": "FORT PIERCE",
        "state": "FL",
        "postalCode": "34950-4054"
      },
      {
        "line": [
          "7435 W GULF TO LAKE HWY"
        ],
        "city": "CRYSTAL RIVER",
        "state": "FL",
        "postalCode": "34429-7834"
      },
      {
        "line": [
          "3001 W MARTIN LUTHER KING"
        ],
        "city": "TAMPA",
        "state": "FL",
        "postalCode": "33607-9501"
      },
      {
        "line": [
          "26381 S TAMIAMI TRL STE 120"
        ],
        "city": "BONITA SPRINGS",
        "state": "FL",
        "postalCode": "34134-7803"
      },
      {
        "line": [
          "5902 Pointe West Blvd"
        ],
        "city": "BRADENTON",
        "state": "FL",
        "postalCode": "34209-5529"
      },
      {
        "line": [
          "6914 SHELDON RD STE 102"
        ],
        "city": "TAMPA",
        "state": "FL",
        "postalCode": "33615-2701"
      },
      {
        "line": [
          "3030 W. Dr. Martin Luther King Jr. Blvd."
        ],
        "city": "TAMPA",
        "state": "FL",
        "postalCode": "33607-6308"
      },
      {
        "line": [
          "3614 WEST KENNEDY BLVD."
        ],
        "city": "TAMPA",
        "state": "FL",
        "postalCode": "33609-2852"
      }
    ],
    "extension": [
      {
        "url": "https://fhir.athena.io/StructureDefinition/ah-practice",
        "valueReference": {
          "reference": "Organization/a-1.Practice-16880"
        }
      },
      {
        "url": "https://fhir.athena.io/StructureDefinition/ah-brand",
        "valueReference": {
          "reference": "Organization/a-16880.Brand-4"
        }
      }
    ]
  },
  "fullUrl": "urn:uuid:2519344f-62fa-5a1d-8296-1c26b81fce40"
}