{
  "resource": {
    "resourceType": "Organization",
    "id": "4089ef68-1426-5d56-ad39-1f8ffd4d416e",
    "name": "Greater Burlington YMCA",
    "endpoint": [
      {
        "reference": "Endpoint/27a4e967-47aa-5a9c-a572-b8297ee268a2"
      },
      {
        "reference": "Endpoint/abb5f7d5-468e-5806-be46-fb2282afef02"
      }
    ],
    "identifier": [
      {
        "system": "http://hl7.org/fhir/sid/us-npi",
        "value": "1104373125"
      }
    ],
    "address": [
      {
        "line": [
          "189 Prouty Dr"
        ],
        "city": "NEWPORT",
        "state": "VT",
        "postalCode": "05855-9326"
      },
      {
        "line": [
          "5452 US Route 5"
        ],
        "city": "DERBY",
        "state": "VT",
        "postalCode": "05829-1234"
      },
      {
        "line": [
          "1697 Ethan Allen Hwy."
        ],
        "city": "FAIRFAX",
        "state": "VT",
        "postalCode": "05454-5430"
      },
      {
        "line": [
          "17 Belmont Ave"
        ],
        "city": "BRATTLEBORO",
        "state": "VT",
        "postalCode": "05301-7601"
      },
      {
        "line": [
          "607 Washington Highway"
        ],
        "city": "MORRISVILLE",
        "state": "VT",
        "postalCode": "05661-8652"
      },
      {
        "line": [
          "481 Summer St",
          "suite 101"
        ],
        "city": "SAINT JOHNSBURY",
        "state": "VT",
        "postalCode": "05819-2103"
      },
      {
        "line": [
          "7 Richmond St"
        ],
        "city": "MORRISVILLE",
        "state": "VT",
        "postalCode": "05661-1234"
      },
      {
        "line": [
          "412 Farrell St."
        ],
        "city": "SOUTH BURLINGTON",
        "state": "VT",
        "postalCode": "05403-4463"
      },
      {
        "line": [
          "331 Olcott Dr"
        ],
        "city": "WHITE RIVER JUNCTION",
        "state": "VT",
        "postalCode": "05001-9601"
      },
      {
        "line": [
          "604 Washington Hwy"
        ],
        "city": "MORRISVILLE",
        "state": "VT",
        "postalCode": "05661-8839"
      },
      {
        "line": [
          "44 Collins Drive"
        ],
        "city": "MIDDLEBURY",
        "state": "VT",
        "postalCode": "05753-8502"
      },
      {
        "line": [
          "60 Bombardier Dr"
        ],
        "city": "MILTON",
        "state": "VT",
        "postalCode": "05468-3330"
      },
      {
        "line": [
          "146 Mill Street"
        ],
        "city": "BRADFORD",
        "state": "VT",
        "postalCode": "05033-4456"
      },
      {
        "line": [
          "40 IDX Drive"
        ],
        "city": "SOUTH BURLINGTON",
        "state": "VT",
        "postalCode": "05403-7771"
      },
      {
        "line": [
          "84 Water Tower Rd"
        ],
        "city": "ENOSBURG FALLS",
        "state": "VT",
        "postalCode": "05450-6097"
      },
      {
        "line": [
          "28 Park Ave."
        ],
        "city": "WILLISTON",
        "state": "VT",
        "postalCode": "05495-9701"
      },
      {
        "line": [
          "108 Church St."
        ],
        "city": "BETHEL",
        "state": "VT",
        "postalCode": "05032-1234"
      },
      {
        "line": [
          "260 Crest Road"
        ],
        "city": "SAINT ALBANS",
        "state": "VT",
        "postalCode": "05478-9503"
      },
      {
        "line": [
          "133 Fairfield st"
        ],
        "city": "SAINT ALBANS",
        "state": "VT",
        "postalCode": "05478-1726"
      },
      {
        "line": [
          "160 Allen St."
        ],
        "city": "RUTLAND",
        "state": "VT",
        "postalCode": "05701-4560"
      },
      {
        "line": [
          "1422 VT-66"
        ],
        "city": "RANDOLPH",
        "state": "VT",
        "postalCode": "05060-7718"
      },
      {
        "line": [
          "241 North Winooski Avenue"
        ],
        "city": "BURLINGTON",
        "state": "VT",
        "postalCode": "05401-3620"
      },
      {
        "line": [
          "61 Pine St"
        ],
        "city": "BRISTOL",
        "state": "VT",
        "postalCode": "05443-1043"
      },
      {
        "line": [
          "1 National Life Drive"
        ],
        "city": "MONTPELIER",
        "state": "VT",
        "postalCode": "05602-3377"
      },
      {
        "line": [
          "1304 Scott Hwy"
        ],
        "city": "GROTON",
        "state": "VT",
        "postalCode": "05046-5727"
      },
      {
        "line": [
          "55 Sherman Drive"
        ],
        "city": "SAINT JOHNSBURY",
        "state": "VT",
        "postalCode": "05819-9280"
      },
      {
        "line": [
          "100 Hospital Drive"
        ],
        "city": "BENNINGTON",
        "state": "VT",
        "postalCode": "05201-5004"
      },
      {
        "line": [
          "46 Pleasant St"
        ],
        "city": "LUDLOW",
        "state": "VT",
        "postalCode": "05149-1320"
      },
      {
        "line": [
          "575 Dorset St"
        ],
        "city": "SOUTH BURLINGTON",
        "state": "VT",
        "postalCode": "05403-6234"
      },
      {
        "line": [
          "617 Riverside Ave"
        ],
        "city": "BURLINGTON",
        "state": "VT",
        "postalCode": "05401-1601"
      },
      {
        "line": [
          "130 Fisher Rd"
        ],
        "city": "MONTPELIER",
        "state": "VT",
        "postalCode": "05602-9516"
      },
      {
        "line": [
          "1197 North Ave"
        ],
        "city": "BURLINGTON",
        "state": "VT",
        "postalCode": "05408-2796"
      },
      {
        "line": [
          "1878 Mountain Rd"
        ],
        "city": "STOWE",
        "state": "VT",
        "postalCode": "05672-4775"
      },
      {
        "line": [
          "100 River St"
        ],
        "city": "SPRINGFIELD",
        "state": "VT",
        "postalCode": "05156-2930"
      },
      {
        "line": [
          "99 Ranger Rd"
        ],
        "city": "ROCHESTER",
        "state": "VT",
        "postalCode": "05767-9431"
      },
      {
        "line": [
          "426 Industrial Ave"
        ],
        "city": "WILLISTON",
        "state": "VT",
        "postalCode": "05495-4448"
      },
      {
        "line": [
          "2108 Main St."
        ],
        "city": "CASTLETON",
        "state": "VT",
        "postalCode": "05735-7711"
      },
      {
        "line": [
          "44 South Main St"
        ],
        "city": "RANDOLPH",
        "state": "VT",
        "postalCode": "05060-1381"
      },
      {
        "line": [
          "266 College St"
        ],
        "city": "BURLINGTON",
        "state": "VT",
        "postalCode": "05401-8318"
      },
      {
        "line": [
          "133 Fairfield St"
        ],
        "city": "SAINT ALBANS",
        "state": "VT",
        "postalCode": "05478-1726"
      },
      {
        "line": [
          "69 Swift St"
        ],
        "city": "SOUTH BURLINGTON",
        "state": "VT",
        "postalCode": "05403-7313"
      }
    ],
    "extension": [
      {
        "url": "https://fhir.athena.io/StructureDefinition/ah-practice",
        "valueReference": {
          "reference": "Organization/a-1.Practice-14268"
        }
      },
      {
        "url": "https://fhir.athena.io/StructureDefinition/ah-brand",
        "valueReference": {
          "reference": "Organization/a-14268.Brand-1"
        }
      }
    ]
  },
  "fullUrl": "urn:uuid:4089ef68-1426-5d56-ad39-1f8ffd4d416e"
}