{
  "resource": {
    "resourceType": "Organization",
    "id": "07046bea-e4a1-5004-8d7b-30bcb4934b79",
    "name": "BROWN UNIVERSITY HEALTH MORTON",
    "endpoint": [
      {
        "reference": "Endpoint/27a4e967-47aa-5a9c-a572-b8297ee268a2"
      },
      {
        "reference": "Endpoint/3b806573-71ae-5650-aaca-b7f32757b932"
      }
    ],
    "identifier": [
      {
        "system": "http://hl7.org/fhir/sid/us-npi",
        "value": "1841220977"
      }
    ],
    "address": [
      {
        "line": [
          "88 WASHINGTON ST"
        ],
        "city": "TAUNTON",
        "state": "MA",
        "postalCode": "02780-2465"
      },
      {
        "line": [
          "72 WASHINGTON ST  2220"
        ],
        "city": "TAUNTON",
        "state": "MA",
        "postalCode": "02780-7029"
      },
      {
        "line": [
          "72 WASHINGTON ST",
          "SUITE 2220"
        ],
        "city": "TAUNTON",
        "state": "MA",
        "postalCode": "02780-2490"
      },
      {
        "line": [
          "795 MIDDLE STREET"
        ],
        "city": "FALL RIVER",
        "state": "MA",
        "postalCode": "02721-1798"
      },
      {
        "line": [],
        "city": "TAUNTON",
        "state": "MA",
        "postalCode": "02780-2490"
      },
      {
        "line": [
          "795 MIDDLE STREET"
        ],
        "city": "FALL RIVER",
        "state": "MA",
        "postalCode": "02721-1001"
      },
      {
        "line": [
          "72 WASHINGTON ST STE 2220"
        ],
        "city": "TAUNTON",
        "state": "MA",
        "postalCode": "02780-2490"
      },
      {
        "line": [
          "72 WASHINGTON ST",
          "SUITE 2220"
        ],
        "city": "TAUNTON",
        "state": "MA",
        "postalCode": "02780-7029"
      }
    ],
    "extension": [
      {
        "url": "https://fhir.athena.io/StructureDefinition/ah-practice",
        "valueReference": {
          "reference": "Organization/a-1.Practice-4081"
        }
      },
      {
        "url": "https://fhir.athena.io/StructureDefinition/ah-brand",
        "valueReference": {
          "reference": "Organization/a-4081.Brand-1"
        }
      }
    ]
  },
  "fullUrl": "urn:uuid:07046bea-e4a1-5004-8d7b-30bcb4934b79"
}