{
  "resource": {
    "resourceType": "Organization",
    "id": "16155803-a6cd-500e-80a1-a70bdeb4f0ef",
    "name": "Advanced Foot and Ankle Specialists",
    "endpoint": [
      {
        "reference": "Endpoint/27a4e967-47aa-5a9c-a572-b8297ee268a2"
      },
      {
        "reference": "Endpoint/e59aac81-b430-54c6-a443-0655e85a245d"
      }
    ],
    "identifier": [
      {
        "system": "http://hl7.org/fhir/sid/us-npi",
        "value": "1023334935"
      }
    ],
    "address": [
      {
        "line": [
          "7435 WEST TALCOTT AVE"
        ],
        "city": "CHICAGO",
        "state": "IL",
        "postalCode": "60631-3707"
      },
      {
        "line": [
          "5645 WEST ADDISON"
        ],
        "city": "CHICAGO",
        "state": "IL",
        "postalCode": "60634-4403"
      },
      {
        "line": [
          "1555 NORTH BARRINGTON RD"
        ],
        "city": "HOFFMAN ESTATES",
        "state": "IL",
        "postalCode": "60169-1019"
      },
      {
        "line": [
          "800 WEST BIESTERFIELD"
        ],
        "city": "ELK GROVE VILLAGE",
        "state": "IL",
        "postalCode": "60007-3361"
      },
      {
        "line": [
          "77 NORTH AIRLITE ST."
        ],
        "city": "ELGIN",
        "state": "IL",
        "postalCode": "60123-4912"
      },
      {
        "line": [
          "701 NORTH WINTHROP AVE"
        ],
        "city": "GLENDALE HEIGHTS",
        "state": "IL",
        "postalCode": "60139-1405"
      },
      {
        "line": [
          "1750 North Randall Rd"
        ],
        "city": "ELGIN",
        "state": "IL",
        "postalCode": "60123-7902"
      },
      {
        "line": [
          "10400 HALIGUS RD."
        ],
        "city": "HUNTLEY",
        "state": "IL",
        "postalCode": "60142-9553"
      },
      {
        "line": [
          "1425 NORTH RANDALL RD."
        ],
        "city": "ELGIN",
        "state": "IL",
        "postalCode": "60123-2300"
      },
      {
        "line": [
          "800 BIESTERFIELD RD"
        ],
        "city": "ELK GROVE VILLAGE",
        "state": "IL",
        "postalCode": "60007-3361"
      },
      {
        "line": [
          "3115 N HARLEM AVE"
        ],
        "city": "CHICAGO",
        "state": "IL",
        "postalCode": "60634-4684"
      },
      {
        "line": [
          "800 BIESTERFIELD RD STE 3004"
        ],
        "city": "ELK GROVE VILLAGE",
        "state": "IL",
        "postalCode": "60007-3364"
      },
      {
        "line": [
          "1750 N RANDALL RD STE 160"
        ],
        "city": "ELGIN",
        "state": "IL",
        "postalCode": "60123-7902"
      }
    ],
    "extension": [
      {
        "url": "https://fhir.athena.io/StructureDefinition/ah-practice",
        "valueReference": {
          "reference": "Organization/a-1.Practice-24710"
        }
      },
      {
        "url": "https://fhir.athena.io/StructureDefinition/ah-brand",
        "valueReference": {
          "reference": "Organization/a-24710.Brand-1"
        }
      }
    ]
  },
  "fullUrl": "urn:uuid:16155803-a6cd-500e-80a1-a70bdeb4f0ef"
}