{
  "resource": {
    "resourceType": "Organization",
    "id": "d2315ee9-d54b-5e4a-97c1-a4cc8ec58867",
    "name": "St Cloud Physician Management LLC",
    "endpoint": [
      {
        "reference": "Endpoint/27a4e967-47aa-5a9c-a572-b8297ee268a2"
      },
      {
        "reference": "Endpoint/dd475764-7859-5ed4-b200-457d93163ae9"
      }
    ],
    "identifier": [
      {
        "system": "http://hl7.org/fhir/sid/us-npi",
        "value": "1245289578"
      }
    ],
    "address": [
      {
        "line": [
          "700 W OAK ST"
        ],
        "city": "KISSIMMEE",
        "state": "FL",
        "postalCode": "34741-4924"
      },
      {
        "line": [
          "1330 Budinger Ave Ste 107"
        ],
        "city": "SAINT CLOUD",
        "state": "FL",
        "postalCode": "34769-4137"
      },
      {
        "line": [
          "1700 E Irlo Bronson Memorial Hwy"
        ],
        "city": "SAINT CLOUD",
        "state": "FL",
        "postalCode": "34771-5806"
      },
      {
        "line": [
          "3286 GREENWALD WAY N"
        ],
        "city": "KISSIMMEE",
        "state": "FL",
        "postalCode": "34741-4763"
      },
      {
        "line": [
          "2550 SIMPSON RD"
        ],
        "city": "KISSIMMEE",
        "state": "FL",
        "postalCode": "34744-4637"
      },
      {
        "line": [
          "1525 BUDINGER AVE"
        ],
        "city": "SAINT CLOUD",
        "state": "FL",
        "postalCode": "34769-4140"
      },
      {
        "line": [
          "901 N Narcoossee Rd"
        ],
        "city": "SAINT CLOUD",
        "state": "FL",
        "postalCode": "34771-7240"
      },
      {
        "line": [
          "3356 Canoe Creek rd"
        ],
        "city": "SAINT CLOUD",
        "state": "FL",
        "postalCode": "34772-6536"
      },
      {
        "line": [
          "2906 17th St"
        ],
        "city": "SAINT CLOUD",
        "state": "FL",
        "postalCode": "34769-6009"
      },
      {
        "line": [
          "1000 ROBINSON AVE"
        ],
        "city": "SAINT CLOUD",
        "state": "FL",
        "postalCode": "34769-4063"
      },
      {
        "line": [
          "2906 17 Street"
        ],
        "city": "SAINT CLOUD",
        "state": "FL",
        "postalCode": "34769-6006"
      },
      {
        "line": [
          "1300 Kevstin Dr"
        ],
        "city": "KISSIMMEE",
        "state": "FL",
        "postalCode": "34744-5843"
      },
      {
        "line": [
          "1551 Budinger Ave"
        ],
        "city": "SAINT CLOUD",
        "state": "FL",
        "postalCode": "34769-4140"
      },
      {
        "line": [
          "2900 17th St",
          "SUITE 2"
        ],
        "city": "SAINT CLOUD",
        "state": "FL",
        "postalCode": "34769-6098"
      },
      {
        "line": [
          "1700 E Irlo Bronson Memorial Highway"
        ],
        "city": "SAINT CLOUD",
        "state": "FL",
        "postalCode": "34771-5806"
      },
      {
        "line": [
          "4201 West New Nolte Raod"
        ],
        "city": "SAINT CLOUD",
        "state": "FL",
        "postalCode": "34772-7100"
      },
      {
        "line": [
          "2900 17th St, Suite 3"
        ],
        "city": "SAINT CLOUD",
        "state": "FL",
        "postalCode": "34769-6098"
      },
      {
        "line": [
          "4745 Canoe Creek Rd"
        ],
        "city": "SAINT CLOUD",
        "state": "FL",
        "postalCode": "34769-1400"
      },
      {
        "line": [
          "3356 Canoe Creek Rd"
        ],
        "city": "SAINT CLOUD",
        "state": "FL",
        "postalCode": "34772-6536"
      },
      {
        "line": [
          "2550 Simpson RD"
        ],
        "city": "KISSIMMEE",
        "state": "FL",
        "postalCode": "34744-4637"
      },
      {
        "line": [
          "401 Kissimee Park"
        ],
        "city": "SAINT CLOUD",
        "state": "FL",
        "postalCode": "34769-1413"
      },
      {
        "line": [
          "901 N Narcoossee Road"
        ],
        "city": "SAINT CLOUD",
        "state": "FL",
        "postalCode": "34771-7240"
      },
      {
        "line": [
          "2900 17TH ST STE 4"
        ],
        "city": "SAINT CLOUD",
        "state": "FL",
        "postalCode": "34769-6098"
      },
      {
        "line": [
          "52 W Underwood St"
        ],
        "city": "ORLANDO",
        "state": "FL",
        "postalCode": "32806-1110"
      },
      {
        "line": [
          "1600 Budinger Ave Suite D"
        ],
        "city": "SAINT CLOUD",
        "state": "FL",
        "postalCode": "34769-6005"
      },
      {
        "line": [
          "1330 BUDINGER AVE STE 108"
        ],
        "city": "SAINT CLOUD",
        "state": "FL",
        "postalCode": "34769-4123"
      },
      {
        "line": [
          "401 Bishop Grady CT"
        ],
        "city": "SAINT CLOUD",
        "state": "FL",
        "postalCode": "34769-1538"
      }
    ],
    "extension": [
      {
        "url": "https://fhir.athena.io/StructureDefinition/ah-practice",
        "valueReference": {
          "reference": "Organization/a-1.Practice-4692"
        }
      },
      {
        "url": "https://fhir.athena.io/StructureDefinition/ah-brand",
        "valueReference": {
          "reference": "Organization/a-4692.Brand-24"
        }
      }
    ]
  },
  "fullUrl": "urn:uuid:d2315ee9-d54b-5e4a-97c1-a4cc8ec58867"
}