{
  "resource": {
    "resourceType": "Organization",
    "id": "1a10de78-4f45-52b5-aeb6-ce45183074e3",
    "name": "TOTAL HEALTH CARE",
    "endpoint": [
      {
        "reference": "Endpoint/27a4e967-47aa-5a9c-a572-b8297ee268a2"
      },
      {
        "reference": "Endpoint/1ae7a353-2b9f-5cea-9ae4-8e583a74a0fe"
      }
    ],
    "identifier": [
      {
        "system": "http://hl7.org/fhir/sid/us-npi",
        "value": "1972597425"
      }
    ],
    "address": [
      {
        "line": [
          "2401 LIBERTY HEIGHTS AVENUE",
          "SUITE 111"
        ],
        "city": "BALTIMORE",
        "state": "MD",
        "postalCode": "21215-8019"
      },
      {
        "line": [
          "1501 W SARATOGA STREET"
        ],
        "city": "BALTIMORE",
        "state": "MD",
        "postalCode": "21223-1749"
      },
      {
        "line": [
          "2400 Kirk Ave."
        ],
        "city": "BALTIMORE",
        "state": "MD",
        "postalCode": "21218-5507"
      },
      {
        "line": [
          "1501 DIVISION STREET"
        ],
        "city": "BALTIMORE",
        "state": "MD",
        "postalCode": "21217-3121"
      },
      {
        "line": [
          "2401 LIBERTY HEIGHTS AVE, STE 111"
        ],
        "city": "BALTIMORE",
        "state": "MD",
        "postalCode": "21215-8019"
      },
      {
        "line": [
          "1111 WASHINGTON BLVD"
        ],
        "city": "BALTIMORE",
        "state": "MD",
        "postalCode": "21230-2350"
      },
      {
        "line": [
          "1515 W NORTH AVENUE"
        ],
        "city": "BALTIMORE",
        "state": "MD",
        "postalCode": "21217-3121"
      },
      {
        "line": [
          "922 W NORTH AVE"
        ],
        "city": "BALTIMORE",
        "state": "MD",
        "postalCode": "21217-3121"
      },
      {
        "line": [
          "2449 FREDERICK AVENUE"
        ],
        "city": "BALTIMORE",
        "state": "MD",
        "postalCode": "21223-2856"
      },
      {
        "line": [
          "2449 FREDERICK AVE"
        ],
        "city": "BALTIMORE",
        "state": "MD",
        "postalCode": "21223-2856"
      }
    ],
    "extension": [
      {
        "url": "https://fhir.athena.io/StructureDefinition/ah-practice",
        "valueReference": {
          "reference": "Organization/a-1.Practice-7241"
        }
      },
      {
        "url": "https://fhir.athena.io/StructureDefinition/ah-brand",
        "valueReference": {
          "reference": "Organization/a-7241.Brand-1"
        }
      }
    ]
  },
  "fullUrl": "urn:uuid:1a10de78-4f45-52b5-aeb6-ce45183074e3"
}