{
  "resource": {
    "resourceType": "Organization",
    "id": "c7249bb8-c6ba-5969-835a-944e67e5122c",
    "name": "Beth Abate Nurse Practitioner LLC",
    "endpoint": [
      {
        "reference": "Endpoint/27a4e967-47aa-5a9c-a572-b8297ee268a2"
      },
      {
        "reference": "Endpoint/ab438a15-f32f-5541-b63e-030d761887f1"
      }
    ],
    "identifier": [
      {
        "system": "http://hl7.org/fhir/sid/us-npi",
        "value": "1427326321"
      }
    ],
    "address": [
      {
        "line": [
          "285 N WASHINGTON ST"
        ],
        "city": "ROCKVILLE",
        "state": "MD",
        "postalCode": "20850-1763"
      },
      {
        "line": [
          "9200 DARNESTOWN RD"
        ],
        "city": "ROCKVILLE",
        "state": "MD",
        "postalCode": "20850-3107"
      },
      {
        "line": [
          "5510 GROSVENOR LN"
        ],
        "city": "BETHESDA",
        "state": "MD",
        "postalCode": "20814-2124"
      },
      {
        "line": [
          "5111 CONNECTICUT AVE NW"
        ],
        "city": "WASHINGTON",
        "state": "DC",
        "postalCode": "20008-2004"
      },
      {
        "line": [
          "6505 STONEHAM RD"
        ],
        "city": "BETHESDA",
        "state": "MD",
        "postalCode": "20817-1629"
      },
      {
        "line": [
          "5555 FRIENDSHIP BLVD"
        ],
        "city": "CHEVY CHASE",
        "state": "MD",
        "postalCode": "20815-7243"
      },
      {
        "line": [
          "2701 MILITARY RD NW"
        ],
        "city": "WASHINGTON",
        "state": "DC",
        "postalCode": "20015-1337"
      },
      {
        "line": [
          "18106 CASHELL RD"
        ],
        "city": "ROCKVILLE",
        "state": "MD",
        "postalCode": "20853-1031"
      },
      {
        "line": [
          "5420 CONNECTICUT AVE NW"
        ],
        "city": "WASHINGTON",
        "state": "DC",
        "postalCode": "20015-2832"
      },
      {
        "line": [
          "4301 KNOWLES AVE"
        ],
        "city": "KENSINGTON",
        "state": "MD",
        "postalCode": "20895-2410"
      },
      {
        "line": [
          "1801 E JEFFERSON ST"
        ],
        "city": "ROCKVILLE",
        "state": "MD",
        "postalCode": "20852-4045"
      },
      {
        "line": [
          "6910 Mayfair rd"
        ],
        "city": "LAUREL",
        "state": "MD",
        "postalCode": "20707-5237"
      },
      {
        "line": [
          "201 RUSSELL AVE"
        ],
        "city": "GAITHERSBURG",
        "state": "MD",
        "postalCode": "20877-2800"
      },
      {
        "line": [
          "8300 BURDETTE RD"
        ],
        "city": "BETHESDA",
        "state": "MD",
        "postalCode": "20817-2801"
      },
      {
        "line": [
          "9001 CHERRY LN"
        ],
        "city": "LAUREL",
        "state": "MD",
        "postalCode": "20708-1120"
      },
      {
        "line": [
          "711 LAMBERTON DR"
        ],
        "city": "SILVER SPRING",
        "state": "MD",
        "postalCode": "20902-3036"
      },
      {
        "line": [
          "10501 BIT AND SPUR LN"
        ],
        "city": "POTOMAC",
        "state": "MD",
        "postalCode": "20854-1563"
      },
      {
        "line": [
          "8919 LIBERTY LN"
        ],
        "city": "POTOMAC",
        "state": "MD",
        "postalCode": "20854-3639"
      },
      {
        "line": [
          "4901 CONNECTICUT AVE NW"
        ],
        "city": "WASHINGTON",
        "state": "DC",
        "postalCode": "20008-2022"
      },
      {
        "line": [
          "9707 OLD GEORGETOWN RD"
        ],
        "city": "BETHESDA",
        "state": "MD",
        "postalCode": "20814-1745"
      }
    ],
    "extension": [
      {
        "url": "https://fhir.athena.io/StructureDefinition/ah-practice",
        "valueReference": {
          "reference": "Organization/a-1.Practice-24821"
        }
      },
      {
        "url": "https://fhir.athena.io/StructureDefinition/ah-brand",
        "valueReference": {
          "reference": "Organization/a-24821.Brand-1"
        }
      }
    ]
  },
  "fullUrl": "urn:uuid:c7249bb8-c6ba-5969-835a-944e67e5122c"
}