{
  "resource": {
    "resourceType": "Organization",
    "id": "2eea647b-3c44-5bc4-9f49-82fa9a7757a6",
    "name": "Advanced Wound Care Solutions",
    "endpoint": [
      {
        "reference": "Endpoint/27a4e967-47aa-5a9c-a572-b8297ee268a2"
      },
      {
        "reference": "Endpoint/5734593b-f3e0-5ca1-b304-7e4a48207582"
      }
    ],
    "identifier": [
      {
        "system": "http://hl7.org/fhir/sid/us-npi",
        "value": "1063919934"
      }
    ],
    "address": [
      {
        "line": [
          "5790 S 27TH STREET"
        ],
        "city": "MILWAUKEE",
        "state": "WI",
        "postalCode": "53221-4129"
      },
      {
        "line": [
          "1902 Mead Ave"
        ],
        "city": "SHEBOYGAN",
        "state": "WI",
        "postalCode": "53081-6140"
      },
      {
        "line": [
          "1703 60TH ST"
        ],
        "city": "KENOSHA",
        "state": "WI",
        "postalCode": "53140-3986"
      },
      {
        "line": [
          "2021 S Alverno Rd"
        ],
        "city": "MANITOWOC",
        "state": "WI",
        "postalCode": "54220-9208"
      },
      {
        "line": [
          "1900 american eagle drive"
        ],
        "city": "SLINGER",
        "state": "WI",
        "postalCode": "53086-9043"
      },
      {
        "line": [
          "2020 S Muskego Ave"
        ],
        "city": "MILWAUKEE",
        "state": "WI",
        "postalCode": "53204-3622"
      },
      {
        "line": [
          "3613 S 13th Street"
        ],
        "city": "SHEBOYGAN",
        "state": "WI",
        "postalCode": "53081-7253"
      },
      {
        "line": [
          "10101 W Wisconsin Ave"
        ],
        "city": "MILWAUKEE",
        "state": "WI",
        "postalCode": "53216-4861"
      },
      {
        "line": [
          "2195 N SUMMIT VILLAGE WAY"
        ],
        "city": "OCONOMOWOC",
        "state": "WI",
        "postalCode": "53066-8675"
      },
      {
        "line": [
          "N84W17049 MENOMONEE AVE"
        ],
        "city": "MENOMONEE FALLS",
        "state": "WI",
        "postalCode": "53051-2701"
      },
      {
        "line": [
          "2700 Honadel Blvd"
        ],
        "city": "OAK CREEK",
        "state": "WI",
        "postalCode": "53154-2650"
      },
      {
        "line": [
          "9301 N 76TH STREET"
        ],
        "city": "MILWAUKEE",
        "state": "WI",
        "postalCode": "53223-1074"
      },
      {
        "line": [
          "N27 W5707 Lincoln Blvd."
        ],
        "city": "CEDARBURG",
        "state": "WI",
        "postalCode": "53012-2852"
      },
      {
        "line": [
          "3821 S CHICAGO AVE"
        ],
        "city": "SOUTH MILWAUKEE",
        "state": "WI",
        "postalCode": "53172-3712"
      },
      {
        "line": [
          "814 Jackson St"
        ],
        "city": "STOUGHTON",
        "state": "WI",
        "postalCode": "53589-1520"
      },
      {
        "line": [
          "2727 W MITCHELL STREET"
        ],
        "city": "MILWAUKEE",
        "state": "WI",
        "postalCode": "53215-2259"
      },
      {
        "line": [
          "8400 SHERIDAN ROAD"
        ],
        "city": "KENOSHA",
        "state": "WI",
        "postalCode": "53143-6327"
      },
      {
        "line": [
          "3415 SHERIDAN ROAD"
        ],
        "city": "KENOSHA",
        "state": "WI",
        "postalCode": "53140-1924"
      },
      {
        "line": [
          "N26W23977 Watertown Road"
        ],
        "city": "WAUKESHA",
        "state": "WI",
        "postalCode": "53188-1006"
      },
      {
        "line": [
          "244 N Macy Street"
        ],
        "city": "FOND DU LAC",
        "state": "WI",
        "postalCode": "54935-3362"
      },
      {
        "line": [
          "N7135 ROCKY KNOLL PKWY"
        ],
        "city": "PLYMOUTH",
        "state": "WI",
        "postalCode": "53073-3103"
      },
      {
        "line": [
          "1755 N BARKER RD"
        ],
        "city": "BROOKFIELD",
        "state": "WI",
        "postalCode": "53045-1801"
      },
      {
        "line": [
          "18200 W CAPITOL DR"
        ],
        "city": "BROOKFIELD",
        "state": "WI",
        "postalCode": "53045-1445"
      },
      {
        "line": [
          "3205 WOOD ROAD"
        ],
        "city": "RACINE",
        "state": "WI",
        "postalCode": "53406-5048"
      },
      {
        "line": [
          "3216 W HIGHLAND BLVD"
        ],
        "city": "MILWAUKEE",
        "state": "WI",
        "postalCode": "53208-3252"
      },
      {
        "line": [
          "10330 PRAIRIE RIDGE BLVD"
        ],
        "city": "PLEASANT PRAIRIE",
        "state": "WI",
        "postalCode": "53158-1947"
      },
      {
        "line": [
          "2505 E Bradford Ave"
        ],
        "city": "MILWAUKEE",
        "state": "WI",
        "postalCode": "53211-4262"
      },
      {
        "line": [
          "1010 E Wausau Ave"
        ],
        "city": "WAUSAU",
        "state": "WI",
        "postalCode": "54403-3101"
      },
      {
        "line": [
          "1810 KENSINGTON DR"
        ],
        "city": "WAUKESHA",
        "state": "WI",
        "postalCode": "53188-5616"
      },
      {
        "line": [
          "1335 S Oneida St"
        ],
        "city": "APPLETON",
        "state": "WI",
        "postalCode": "54915-1351"
      },
      {
        "line": [
          "3014 ERIE AVE"
        ],
        "city": "SHEBOYGAN",
        "state": "WI",
        "postalCode": "53081-3658"
      },
      {
        "line": [
          "301 S BEDFORD ST STE 1"
        ],
        "city": "MADISON",
        "state": "WI",
        "postalCode": "53703-3691"
      },
      {
        "line": [
          "110 Belmont Rd"
        ],
        "city": "MADISON",
        "state": "WI",
        "postalCode": "53714-3129"
      },
      {
        "line": [
          "905 EAST GENEVA STREET"
        ],
        "city": "DELAVAN",
        "state": "WI",
        "postalCode": "53115-1922"
      },
      {
        "line": [
          "677 E state street"
        ],
        "city": "BURLINGTON",
        "state": "WI",
        "postalCode": "53105-1639"
      },
      {
        "line": [
          "1400 8th Avenue"
        ],
        "city": "UNION GROVE",
        "state": "WI",
        "postalCode": "53182-1063"
      },
      {
        "line": [
          "3129 Michigan Ave"
        ],
        "city": "SHEBOYGAN",
        "state": "WI",
        "postalCode": "53081-3062"
      },
      {
        "line": [
          "3200 S 20TH ST"
        ],
        "city": "MILWAUKEE",
        "state": "WI",
        "postalCode": "53215-4442"
      },
      {
        "line": [
          "7545 N Port Washington Road",
          "Ste. 103"
        ],
        "city": "MILWAUKEE",
        "state": "WI",
        "postalCode": "53217-3422"
      },
      {
        "line": [
          "3800 N 92nd St"
        ],
        "city": "MILWAUKEE",
        "state": "WI",
        "postalCode": "53222-2504"
      },
      {
        "line": [
          "2730 W RAMSEY AVE"
        ],
        "city": "MILWAUKEE",
        "state": "WI",
        "postalCode": "53221-4814"
      },
      {
        "line": [
          "1119 N Wisconsin St. Port Washington"
        ],
        "city": "PORT WASHINGTON",
        "state": "WI",
        "postalCode": "53074-1209"
      },
      {
        "line": [
          "1905 W HART ROAD"
        ],
        "city": "BELOIT",
        "state": "WI",
        "postalCode": "53511-2230"
      },
      {
        "line": [
          "19525 W North Ave"
        ],
        "city": "BROOKFIELD",
        "state": "WI",
        "postalCode": "53045-9827"
      },
      {
        "line": [
          "3540 S 43RD ST"
        ],
        "city": "MILWAUKEE",
        "state": "WI",
        "postalCode": "53220-1502"
      },
      {
        "line": [
          "677 E STATE STREET"
        ],
        "city": "BURLINGTON",
        "state": "WI",
        "postalCode": "53105-1639"
      },
      {
        "line": [
          "6735 W BRADLEY ROAD"
        ],
        "city": "MILWAUKEE",
        "state": "WI",
        "postalCode": "53223-3477"
      },
      {
        "line": [
          "4500 W LOOMIS ROAD"
        ],
        "city": "MILWAUKEE",
        "state": "WI",
        "postalCode": "53220-4819"
      },
      {
        "line": [
          "10101 W WISCONSIN AVE"
        ],
        "city": "MILWAUKEE",
        "state": "WI",
        "postalCode": "53226-4814"
      },
      {
        "line": [
          "1610 Hoover St"
        ],
        "city": "NEW HOLSTEIN",
        "state": "WI",
        "postalCode": "53061-1636"
      },
      {
        "line": [
          "5643 Erie street"
        ],
        "city": "RACINE",
        "state": "WI",
        "postalCode": "53402-1934"
      },
      {
        "line": [
          "6263 N GREEN BAY AVE"
        ],
        "city": "MILWAUKEE",
        "state": "WI",
        "postalCode": "53209-3823"
      },
      {
        "line": [
          "W173N10915 BERNIES WAY"
        ],
        "city": "GERMANTOWN",
        "state": "WI",
        "postalCode": "53022-4043"
      },
      {
        "line": [
          "6800 N 76TH ST, MILWAUKEE"
        ],
        "city": "MILWAUKEE",
        "state": "WI",
        "postalCode": "53223-5002"
      },
      {
        "line": [
          "3100 Washington Road"
        ],
        "city": "KENOSHA",
        "state": "WI",
        "postalCode": "53144-1604"
      },
      {
        "line": [
          "905EAST GENEVA STREET"
        ],
        "city": "DELAVAN",
        "state": "WI",
        "postalCode": "53115-1922"
      },
      {
        "line": [
          "5600 W Brown Deer Road"
        ],
        "city": "MILWAUKEE",
        "state": "WI",
        "postalCode": "53223-2311"
      },
      {
        "line": [
          "8633 32ND AVE"
        ],
        "city": "KENOSHA",
        "state": "WI",
        "postalCode": "53142-5187"
      },
      {
        "line": [
          "100 East Highland Drive"
        ],
        "city": "OCONTO FALLS",
        "state": "WI",
        "postalCode": "54154-1001"
      },
      {
        "line": [
          "430 Wilcox Street"
        ],
        "city": "FORT ATKINSON",
        "state": "WI",
        "postalCode": "53538-1968"
      },
      {
        "line": [
          "517 E. Division Street"
        ],
        "city": "FOND DU LAC",
        "state": "WI",
        "postalCode": "54935-3735"
      },
      {
        "line": [
          "354 N Main Street"
        ],
        "city": "OREGON",
        "state": "WI",
        "postalCode": "53575-1426"
      },
      {
        "line": [
          "3601 S CHICAGO AVE"
        ],
        "city": "SOUTH MILWAUKEE",
        "state": "WI",
        "postalCode": "53172-3708"
      }
    ],
    "extension": [
      {
        "url": "https://fhir.athena.io/StructureDefinition/ah-practice",
        "valueReference": {
          "reference": "Organization/a-1.Practice-17740"
        }
      },
      {
        "url": "https://fhir.athena.io/StructureDefinition/ah-brand",
        "valueReference": {
          "reference": "Organization/a-17740.Brand-1"
        }
      }
    ]
  },
  "fullUrl": "urn:uuid:2eea647b-3c44-5bc4-9f49-82fa9a7757a6"
}