{
  "resource": {
    "resourceType": "Organization",
    "id": "e257772f-8684-5aa9-8271-6ae844935e4a",
    "name": "4TH STREET OFFICE",
    "endpoint": [
      {
        "reference": "Endpoint/27a4e967-47aa-5a9c-a572-b8297ee268a2"
      },
      {
        "reference": "Endpoint/c753aec8-9a86-5a98-a46c-bbb134823523"
      }
    ],
    "identifier": [
      {
        "system": "http://hl7.org/fhir/sid/us-npi",
        "value": "1386639920"
      },
      {
        "system": "http://hl7.org/fhir/sid/us-npi",
        "value": "1194778050"
      }
    ],
    "address": [
      {
        "line": [
          "7050 GALL BLVD"
        ],
        "city": "ZEPHYRHILLS",
        "state": "FL",
        "postalCode": "33541-1347"
      },
      {
        "line": [
          "7171 N DALE MABRY HWY"
        ],
        "city": "TAMPA",
        "state": "FL",
        "postalCode": "33614-2630"
      },
      {
        "line": [
          "4725 US HIGHWAY 98 S STE 101-102"
        ],
        "city": "LAKELAND",
        "state": "FL",
        "postalCode": "33812-4334"
      },
      {
        "line": [
          "4725 US HIGHWAY 98 S., Suite 101-102"
        ],
        "city": "LAKELAND",
        "state": "FL",
        "postalCode": "33812-4334"
      },
      {
        "line": [
          "7540 W UNIVERSITY AVE"
        ],
        "city": "GAINESVILLE",
        "state": "FL",
        "postalCode": "32607-7609"
      },
      {
        "line": [
          "13100 FORT KING RD"
        ],
        "city": "DADE CITY",
        "state": "FL",
        "postalCode": "33525-5294"
      },
      {
        "line": [
          "1324 LAKELAND HILLS BLVD"
        ],
        "city": "LAKELAND",
        "state": "FL",
        "postalCode": "33805-4543"
      },
      {
        "line": [
          "300 PINELLAS ST"
        ],
        "city": "CLEARWATER",
        "state": "FL",
        "postalCode": "33756-3804"
      },
      {
        "line": [
          "4725 US HIGHWAY 98 S., STE 101-102"
        ],
        "city": "LAKELAND",
        "state": "FL",
        "postalCode": "33812-4334"
      },
      {
        "line": [
          "9330 US HIGHWAY 301 S"
        ],
        "city": "RIVERVIEW",
        "state": "FL",
        "postalCode": "33578-6300"
      },
      {
        "line": [
          "516 VONDERBURG DRIVE"
        ],
        "city": "BRANDON",
        "state": "FL",
        "postalCode": "33511-5954"
      },
      {
        "line": [
          "115 S MISSOURI AVE"
        ],
        "city": "LAKELAND",
        "state": "FL",
        "postalCode": "33815-4600"
      },
      {
        "line": [
          "13020 N TELECOM PKWY"
        ],
        "city": "TAMPA",
        "state": "FL",
        "postalCode": "33637-0925"
      },
      {
        "line": [
          "200 AVENUE F NE"
        ],
        "city": "WINTER HAVEN",
        "state": "FL",
        "postalCode": "33881-4131"
      },
      {
        "line": [
          "5901 E FOWLER AVE",
          "STE 100"
        ],
        "city": "TAMPA",
        "state": "FL",
        "postalCode": "33617-2305"
      },
      {
        "line": [
          "119 OAKFIELD DR"
        ],
        "city": "BRANDON",
        "state": "FL",
        "postalCode": "33511-5779"
      },
      {
        "line": [
          "721 W ROBERTSON ST",
          "SUITE 102"
        ],
        "city": "BRANDON",
        "state": "FL",
        "postalCode": "33511-4900"
      },
      {
        "line": [
          "916 CYPRESS VILLAGE BLVD"
        ],
        "city": "SUN CITY CENTER",
        "state": "FL",
        "postalCode": "33573-6810"
      },
      {
        "line": [
          "4501 BRUCE B DOWNS BLVD"
        ],
        "city": "WESLEY CHAPEL",
        "state": "FL",
        "postalCode": "33544-9216"
      },
      {
        "line": [
          "3890 TAMPA RD STE 202"
        ],
        "city": "PALM HARBOR",
        "state": "FL",
        "postalCode": "34684-3677"
      },
      {
        "line": [
          "721 W ROBERTSON ST"
        ],
        "city": "BRANDON",
        "state": "FL",
        "postalCode": "33511-4934"
      },
      {
        "line": [
          "3202 N PARK RD"
        ],
        "city": "PLANT CITY",
        "state": "FL",
        "postalCode": "33563-2026"
      },
      {
        "line": [
          "10740 PALM RIVER RD"
        ],
        "city": "TAMPA",
        "state": "FL",
        "postalCode": "33619-4573"
      },
      {
        "line": [
          "93 N PARK PLACE BLVD STE 102"
        ],
        "city": "CLEARWATER",
        "state": "FL",
        "postalCode": "33759-3929"
      },
      {
        "line": [
          "1 TAMPA GENERAL CIRCLE"
        ],
        "city": "TAMPA",
        "state": "FL",
        "postalCode": "33606-3571"
      },
      {
        "line": [
          "13060 N TELECOM PKWY"
        ],
        "city": "TAMPA",
        "state": "FL",
        "postalCode": "33637-0925"
      },
      {
        "line": [
          "5013 N ARMENIA AVE"
        ],
        "city": "TAMPA",
        "state": "FL",
        "postalCode": "33603-1403"
      },
      {
        "line": [
          "2118 SW 20th PL STE 102"
        ],
        "city": "OCALA",
        "state": "FL",
        "postalCode": "34471-0869"
      },
      {
        "line": [
          "1901 HAVERFORD AVE",
          "SUITE 107"
        ],
        "city": "SUN CITY CENTER",
        "state": "FL",
        "postalCode": "33573-5200"
      },
      {
        "line": [
          "13020 TELECOM PKWY N"
        ],
        "city": "TAMPA",
        "state": "FL",
        "postalCode": "33637-0925"
      },
      {
        "line": [
          "2200 OSPREY BLVD"
        ],
        "city": "BARTOW",
        "state": "FL",
        "postalCode": "33830-3308"
      },
      {
        "line": [
          "5901 E FOWLER AVE STE 200"
        ],
        "city": "TAMPA",
        "state": "FL",
        "postalCode": "33617-2362"
      },
      {
        "line": [
          "13060 TELECOM PARKWAY"
        ],
        "city": "TAMPA",
        "state": "FL",
        "postalCode": "33637-0925"
      },
      {
        "line": [
          "11286 BOYETTE RD STE 101"
        ],
        "city": "RIVERVIEW",
        "state": "FL",
        "postalCode": "33569-8022"
      },
      {
        "line": [
          "2118 SW 20TH PL STE 102"
        ],
        "city": "OCALA",
        "state": "FL",
        "postalCode": "34471-0869"
      },
      {
        "line": [
          "8718 TROUBLE CREEK RD #102"
        ],
        "city": "NEW PORT RICHEY",
        "state": "FL",
        "postalCode": "34653-7012"
      },
      {
        "line": [
          "5016 W CYPRESS ST",
          "STE 210"
        ],
        "city": "TAMPA",
        "state": "FL",
        "postalCode": "33607-3809"
      },
      {
        "line": [
          "3612 E 138TH AVE"
        ],
        "city": "TAMPA",
        "state": "FL",
        "postalCode": "33613-4703"
      },
      {
        "line": [
          "1907 S ALEXANDER ST"
        ],
        "city": "PLANT CITY",
        "state": "FL",
        "postalCode": "33566-0921"
      },
      {
        "line": [
          "603 7TH ST STE 480"
        ],
        "city": "SAINT PETERSBURG",
        "state": "FL",
        "postalCode": "33701-4734"
      }
    ],
    "extension": [
      {
        "url": "https://fhir.athena.io/StructureDefinition/ah-practice",
        "valueReference": {
          "reference": "Organization/a-1.Practice-18802"
        }
      },
      {
        "url": "https://fhir.athena.io/StructureDefinition/ah-brand",
        "valueReference": {
          "reference": "Organization/a-18802.Brand-1"
        }
      }
    ]
  },
  "fullUrl": "urn:uuid:e257772f-8684-5aa9-8271-6ae844935e4a"
}