{
  "resource": {
    "resourceType": "Organization",
    "id": "6e8c748e-9c98-51f2-b459-6b399d53fd29",
    "name": "RESTORED HEALTH FAMILY MEDICINE",
    "endpoint": [
      {
        "reference": "Endpoint/27a4e967-47aa-5a9c-a572-b8297ee268a2"
      },
      {
        "reference": "Endpoint/e897863c-5840-5d71-a96d-17871a567051"
      }
    ],
    "identifier": [
      {
        "system": "http://hl7.org/fhir/sid/us-npi",
        "value": "1225242308"
      }
    ],
    "address": [
      {
        "line": [
          "460 AUBURN AVENUE NE"
        ],
        "city": "ATLANTA",
        "state": "GA",
        "postalCode": "30312-1504"
      },
      {
        "line": [
          "26 TOWER RD"
        ],
        "city": "MARIETTA",
        "state": "GA",
        "postalCode": "30060-6947"
      },
      {
        "line": [
          "1001 Research Center Atlanta Dr SW"
        ],
        "city": "ATLANTA",
        "state": "GA",
        "postalCode": "30331-2019"
      },
      {
        "line": [
          "150 HOSPITAL CIR"
        ],
        "city": "CANTON",
        "state": "GA",
        "postalCode": "30114-3209"
      },
      {
        "line": [
          "771 OLD NORCROSS ROAD",
          "SUITE 375"
        ],
        "city": "LAWRENCEVILLE",
        "state": "GA",
        "postalCode": "30046-4324"
      },
      {
        "line": [
          "3850 SAFEHAVEN DR"
        ],
        "city": "LAWRENCEVILLE",
        "state": "GA",
        "postalCode": "30044-4042"
      },
      {
        "line": [
          "960 HAWTHORNE AVE"
        ],
        "city": "ATHENS",
        "state": "GA",
        "postalCode": "30606-2140"
      },
      {
        "line": [
          "490 KATHWOOD DR"
        ],
        "city": "ATHENS",
        "state": "GA",
        "postalCode": "30607-1132"
      },
      {
        "line": [
          "54 PEACHTREE PARK DR NE"
        ],
        "city": "ATLANTA",
        "state": "GA",
        "postalCode": "30309-1304"
      },
      {
        "line": [
          "560 SAINT CHARLES AVE NE"
        ],
        "city": "ATLANTA",
        "state": "GA",
        "postalCode": "30308-1812"
      },
      {
        "line": [
          "811 KENNESAW AVE NW"
        ],
        "city": "MARIETTA",
        "state": "GA",
        "postalCode": "30060-1002"
      },
      {
        "line": [
          "210 COLLINS INDUSTRIAL WAY"
        ],
        "city": "LAWRENCEVILLE",
        "state": "GA",
        "postalCode": "30043-5450"
      },
      {
        "line": [
          "3000 LENORA CHURCH DRIVE"
        ],
        "city": "SNELLVILLE",
        "state": "GA",
        "postalCode": "30078-3622"
      },
      {
        "line": [
          "2451 PEACHTREE INDUSTRIAL BLVD"
        ],
        "city": "BUFORD",
        "state": "GA",
        "postalCode": "30518-2418"
      },
      {
        "line": [
          "2920 PHARR CT S NORTHWEST"
        ],
        "city": "ATLANTA",
        "state": "GA",
        "postalCode": "30305-2104"
      }
    ],
    "extension": [
      {
        "url": "https://fhir.athena.io/StructureDefinition/ah-practice",
        "valueReference": {
          "reference": "Organization/a-1.Practice-15800"
        }
      },
      {
        "url": "https://fhir.athena.io/StructureDefinition/ah-brand",
        "valueReference": {
          "reference": "Organization/a-15800.Brand-1"
        }
      }
    ]
  },
  "fullUrl": "urn:uuid:6e8c748e-9c98-51f2-b459-6b399d53fd29"
}