{
  "resource": {
    "resourceType": "Organization",
    "id": "15bdb8a7-5707-59e7-a9d1-a20686e80f38",
    "name": "MHPP Sable Point Family Care",
    "endpoint": [
      {
        "reference": "Endpoint/27a4e967-47aa-5a9c-a572-b8297ee268a2"
      },
      {
        "reference": "Endpoint/b646eae2-dcb5-5dab-aace-addd15b24463"
      }
    ],
    "identifier": [
      {
        "system": "http://hl7.org/fhir/sid/us-npi",
        "value": "1831132133"
      },
      {
        "system": "http://hl7.org/fhir/sid/us-npi",
        "value": "1972734200"
      },
      {
        "system": "http://hl7.org/fhir/sid/us-npi",
        "value": "1598213241"
      },
      {
        "system": "http://hl7.org/fhir/sid/us-npi",
        "value": "1861810186"
      },
      {
        "system": "http://hl7.org/fhir/sid/us-npi",
        "value": "1861818379"
      },
      {
        "system": "http://hl7.org/fhir/sid/us-npi",
        "value": "1326463357"
      },
      {
        "system": "http://hl7.org/fhir/sid/us-npi",
        "value": "1730571100"
      },
      {
        "system": "http://hl7.org/fhir/sid/us-npi",
        "value": "1194767186"
      }
    ],
    "address": [
      {
        "line": [
          "701 E. Main St"
        ],
        "city": "HART",
        "state": "MI",
        "postalCode": "49420-1168"
      },
      {
        "line": [
          "570 S Henry St"
        ],
        "city": "MUSKEGON",
        "state": "MI",
        "postalCode": "49442-1814"
      },
      {
        "line": [
          "1380 E Sherman Blvd"
        ],
        "city": "MUSKEGON",
        "state": "MI",
        "postalCode": "49444-1814"
      },
      {
        "line": [
          "916 E. Lewis St"
        ],
        "city": "WHITEHALL",
        "state": "MI",
        "postalCode": "49461-1699"
      },
      {
        "line": [
          "1275 Kenneth"
        ],
        "city": "MUSKEGON",
        "state": "MI",
        "postalCode": "49442-5180"
      },
      {
        "line": [
          "1300 W. Broadway Ave"
        ],
        "city": "MUSKEGON",
        "state": "MI",
        "postalCode": "49441-3530"
      },
      {
        "line": [
          "1750 Vulcan St"
        ],
        "city": "MUSKEGON",
        "state": "MI",
        "postalCode": "49442-6099"
      },
      {
        "line": [
          "1061 W. Hackley Ave."
        ],
        "city": "MUSKEGON",
        "state": "MI",
        "postalCode": "49441-3059"
      },
      {
        "line": [
          "1000 E Tinkham Ave"
        ],
        "city": "LUDINGTON",
        "state": "MI",
        "postalCode": "49431-1568"
      },
      {
        "line": [
          "2053 S. Sheridan Dr"
        ],
        "city": "MUSKEGON",
        "state": "MI",
        "postalCode": "49442-6254"
      },
      {
        "line": [
          "5656 W US Highway 10"
        ],
        "city": "LUDINGTON",
        "state": "MI",
        "postalCode": "49431-2454"
      },
      {
        "line": [
          "611 E. Main St"
        ],
        "city": "HART",
        "state": "MI",
        "postalCode": "49420-1190"
      },
      {
        "line": [
          "1001 Diana St"
        ],
        "city": "LUDINGTON",
        "state": "MI",
        "postalCode": "49431-1908"
      }
    ],
    "extension": [
      {
        "url": "https://fhir.athena.io/StructureDefinition/ah-practice",
        "valueReference": {
          "reference": "Organization/a-1.Practice-11692"
        }
      },
      {
        "url": "https://fhir.athena.io/StructureDefinition/ah-brand",
        "valueReference": {
          "reference": "Organization/a-11692.Brand-1"
        }
      }
    ]
  },
  "fullUrl": "urn:uuid:15bdb8a7-5707-59e7-a9d1-a20686e80f38"
}