{
  "resource": {
    "resourceType": "Organization",
    "id": "c118c7a5-eb23-517c-b023-942777cbe2cd",
    "name": "ASSOCIATED INTERNAL MEDICINE PHYSICIANS SC",
    "endpoint": [
      {
        "reference": "Endpoint/27a4e967-47aa-5a9c-a572-b8297ee268a2"
      },
      {
        "reference": "Endpoint/59ec41b6-d0d3-50eb-a6ec-9e5a290a3599"
      }
    ],
    "identifier": [
      {
        "system": "http://hl7.org/fhir/sid/us-npi",
        "value": "1033212246"
      }
    ],
    "address": [
      {
        "line": [
          "9600 Gross Point Road"
        ],
        "city": "Skokie",
        "state": "IL",
        "postalCode": "60076-1214"
      },
      {
        "line": [
          "1775 Dempster"
        ],
        "city": "Park Ridge",
        "state": "IL",
        "postalCode": "60068-1143"
      },
      {
        "line": [
          "4959 GOLF ROAD"
        ],
        "city": "SKOKIE",
        "state": "IL",
        "postalCode": "60077-1537"
      },
      {
        "line": [
          "500 Skokie Blvd.",
          "Suite 120"
        ],
        "city": "NORTHBROOK",
        "state": "IL",
        "postalCode": "60062-2849"
      },
      {
        "line": [
          "777 Park Ave West"
        ],
        "city": "Highland Park",
        "state": "IL",
        "postalCode": "60035-2433"
      },
      {
        "line": [
          "4959 Golf"
        ],
        "city": "Skokie",
        "state": "IL",
        "postalCode": "60077-1537"
      },
      {
        "line": [
          "4959 golf"
        ],
        "city": "SKOKIE",
        "state": "IL",
        "postalCode": "60077-1537"
      },
      {
        "line": [
          "2100 Pfingsten Road"
        ],
        "city": "Glenview",
        "state": "IL",
        "postalCode": "60026-1301"
      },
      {
        "line": [
          "660 North Westmoreland Road"
        ],
        "city": "Lake Forest",
        "state": "IL",
        "postalCode": "60045-1659"
      },
      {
        "line": [
          "2650 Ridge"
        ],
        "city": "Evanston",
        "state": "IL",
        "postalCode": "60201-1781"
      }
    ],
    "extension": [
      {
        "url": "https://fhir.athena.io/StructureDefinition/ah-practice",
        "valueReference": {
          "reference": "Organization/a-1.Practice-3992"
        }
      },
      {
        "url": "https://fhir.athena.io/StructureDefinition/ah-brand",
        "valueReference": {
          "reference": "Organization/a-3992.Brand-1"
        }
      }
    ]
  },
  "fullUrl": "urn:uuid:c118c7a5-eb23-517c-b023-942777cbe2cd"
}