{
  "resource": {
    "resourceType": "Organization",
    "id": "06973353-88fb-566f-9af6-b4d81745007f",
    "name": "Dr. Maria Luz Nieto",
    "endpoint": [
      {
        "reference": "Endpoint/27a4e967-47aa-5a9c-a572-b8297ee268a2"
      },
      {
        "reference": "Endpoint/9e8dd2cd-3765-5cb9-b0b2-67ff8d1c67f2"
      }
    ],
    "identifier": [
      {
        "system": "http://hl7.org/fhir/sid/us-npi",
        "value": "1265100069"
      }
    ],
    "address": [
      {
        "line": [
          "1411 N. Flagler Dr. Suite 7200"
        ],
        "city": "WEST PALM BEACH",
        "state": "FL",
        "postalCode": "33401-3421"
      },
      {
        "line": [
          "11030 RCA Center Dr. #3001"
        ],
        "city": "PALM BEACH GARDENS",
        "state": "FL",
        "postalCode": "33410-4276"
      },
      {
        "line": [
          "1210 SOUTH OLD DIXIE HIGHWAY"
        ],
        "city": "JUPITER",
        "state": "FL",
        "postalCode": "33458-7297"
      },
      {
        "line": [
          "3995 NW GOLDEN ROD ROAD"
        ],
        "city": "JENSEN BEACH",
        "state": "FL",
        "postalCode": "34957-3699"
      },
      {
        "line": [
          "1309 N Flagler Drive"
        ],
        "city": "WEST PALM BEACH",
        "state": "FL",
        "postalCode": "33401-3406"
      },
      {
        "line": [
          "1309 N FLAGLER DR"
        ],
        "city": "WEST PALM BEACH",
        "state": "FL",
        "postalCode": "33401-3406"
      },
      {
        "line": [
          "401 SE OSCEOLA ST STE 200A"
        ],
        "city": "STUART",
        "state": "FL",
        "postalCode": "34994-2503"
      },
      {
        "line": [
          "200 SE Hospital Ave #2346"
        ],
        "city": "STUART",
        "state": "FL",
        "postalCode": "34994-2503"
      },
      {
        "line": [
          "200 SE HOSPITAL AVE"
        ],
        "city": "STUART",
        "state": "FL",
        "postalCode": "34994-2346"
      },
      {
        "line": [
          "401 SE OSCEOLA STREET SUITE 200A"
        ],
        "city": "STUART",
        "state": "FL",
        "postalCode": "34994-2503"
      }
    ],
    "extension": [
      {
        "url": "https://fhir.athena.io/StructureDefinition/ah-practice",
        "valueReference": {
          "reference": "Organization/a-1.Practice-25031"
        }
      },
      {
        "url": "https://fhir.athena.io/StructureDefinition/ah-brand",
        "valueReference": {
          "reference": "Organization/a-25031.Brand-1"
        }
      }
    ]
  },
  "fullUrl": "urn:uuid:06973353-88fb-566f-9af6-b4d81745007f"
}