{
  "resource": {
    "resourceType": "Organization",
    "id": "8b3624a9-27a7-5d15-9235-68a7edcab729",
    "name": "Braintree",
    "endpoint": [
      {
        "reference": "Endpoint/27a4e967-47aa-5a9c-a572-b8297ee268a2"
      },
      {
        "reference": "Endpoint/174dac32-b1ca-56d3-b071-a27a5d9f4b64"
      }
    ],
    "identifier": [
      {
        "system": "http://hl7.org/fhir/sid/us-npi",
        "value": "1154575058"
      }
    ],
    "address": [
      {
        "line": [
          "235 pearl st"
        ],
        "city": "BROCKTON",
        "state": "MA",
        "postalCode": "02301-1794"
      },
      {
        "line": [
          "88 WASHINGTON ST"
        ],
        "city": "TAUNTON",
        "state": "MA",
        "postalCode": "02780-2465"
      },
      {
        "line": [
          "114 Whitwell St"
        ],
        "city": "QUINCY",
        "state": "MA",
        "postalCode": "02169-1870"
      },
      {
        "line": [
          "400 Washington St",
          "Suite 206"
        ],
        "city": "BRAINTREE",
        "state": "MA",
        "postalCode": "02184-5328"
      },
      {
        "line": [
          "88 washington street"
        ],
        "city": "TAUNTON",
        "state": "MA",
        "postalCode": "02780-7029"
      },
      {
        "line": [
          "2100"
        ],
        "city": "DORCHESTER CENTER",
        "state": "MA",
        "postalCode": "02124-5615"
      },
      {
        "line": [
          "2100 Dorchester Ave"
        ],
        "city": "DORCHESTER CENTER",
        "state": "MA",
        "postalCode": "02124-5666"
      },
      {
        "line": [
          "1345 Boston Providence HWY"
        ],
        "city": "NORWOOD",
        "state": "MA",
        "postalCode": "02062-5055"
      },
      {
        "line": [
          "400 Washington St"
        ],
        "city": "BRAINTREE",
        "state": "MA",
        "postalCode": "02184-5328"
      },
      {
        "line": [
          "400 WASHINGTON ST STE 206"
        ],
        "city": "BRAINTREE",
        "state": "MA",
        "postalCode": "02184-4769"
      },
      {
        "line": [
          "100 MORSE STREET"
        ],
        "city": "NORWOOD",
        "state": "MA",
        "postalCode": "02062-4679"
      },
      {
        "line": [
          "70 Walnut st"
        ],
        "city": "FOXBORO",
        "state": "MA",
        "postalCode": "02035-2147"
      }
    ],
    "extension": [
      {
        "url": "https://fhir.athena.io/StructureDefinition/ah-practice",
        "valueReference": {
          "reference": "Organization/a-1.Practice-6537"
        }
      },
      {
        "url": "https://fhir.athena.io/StructureDefinition/ah-brand",
        "valueReference": {
          "reference": "Organization/a-6537.Brand-1"
        }
      }
    ]
  },
  "fullUrl": "urn:uuid:8b3624a9-27a7-5d15-9235-68a7edcab729"
}