{
  "resource": {
    "resourceType": "Organization",
    "id": "2b9b44fc-4141-5e4d-8e33-0d8872bd468d",
    "name": "Dr John Attenello MD",
    "endpoint": [
      {
        "reference": "Endpoint/27a4e967-47aa-5a9c-a572-b8297ee268a2"
      },
      {
        "reference": "Endpoint/f5f94a24-cbc5-5a29-9092-d5d9d8f8ca84"
      }
    ],
    "identifier": [
      {
        "system": "http://hl7.org/fhir/sid/us-npi",
        "value": "1457130924"
      }
    ],
    "address": [
      {
        "line": [
          "4650 LINCOLN BLVD"
        ],
        "city": "MARINA DEL REY",
        "state": "CA",
        "postalCode": "90292-6306"
      },
      {
        "line": [
          "1225 WILSHIRE BLVD"
        ],
        "city": "LOS ANGELES",
        "state": "CA",
        "postalCode": "90017-1901"
      },
      {
        "line": [
          "2121 SANTA MONICA BLVD"
        ],
        "city": "SANTA MONICA",
        "state": "CA",
        "postalCode": "90404-2303"
      },
      {
        "line": [
          "1300 N VERMONT AVE"
        ],
        "city": "LOS ANGELES",
        "state": "CA",
        "postalCode": "90027-6005"
      },
      {
        "line": [
          "18321 CLARK ST"
        ],
        "city": "TARZANA",
        "state": "CA",
        "postalCode": "91356-3501"
      },
      {
        "line": [
          "1328 22ND ST"
        ],
        "city": "SANTA MONICA",
        "state": "CA",
        "postalCode": "90404-2032"
      },
      {
        "line": [
          "2801 ATLANTIC AVE"
        ],
        "city": "LONG BEACH",
        "state": "CA",
        "postalCode": "90806-1701"
      },
      {
        "line": [
          "1050 LINDEN AVE"
        ],
        "city": "LONG BEACH",
        "state": "CA",
        "postalCode": "90813-3321"
      },
      {
        "line": [
          "2001 SANTA MONICA BLVD # 7"
        ],
        "city": "SANTA MONICA",
        "state": "CA",
        "postalCode": "90404-2102"
      },
      {
        "line": [
          "3828 DELMAS TER"
        ],
        "city": "CULVER CITY",
        "state": "CA",
        "postalCode": "90232-2713"
      },
      {
        "line": [
          "1513 S GRAND AVE",
          "Suite 380"
        ],
        "city": "LOS ANGELES",
        "state": "CA",
        "postalCode": "90015-3070"
      },
      {
        "line": [
          "1401 S GRAND AVE"
        ],
        "city": "LOS ANGELES",
        "state": "CA",
        "postalCode": "90015-3010"
      },
      {
        "line": [
          "1201 E BIXBY RD"
        ],
        "city": "LONG BEACH",
        "state": "CA",
        "postalCode": "90807-4221"
      },
      {
        "line": [
          "13160 MINDANAO WAY STE 304"
        ],
        "city": "MARINA DEL REY",
        "state": "CA",
        "postalCode": "90292-6358"
      }
    ],
    "extension": [
      {
        "url": "https://fhir.athena.io/StructureDefinition/ah-practice",
        "valueReference": {
          "reference": "Organization/a-1.Practice-30394"
        }
      },
      {
        "url": "https://fhir.athena.io/StructureDefinition/ah-brand",
        "valueReference": {
          "reference": "Organization/a-30394.Brand-1"
        }
      }
    ]
  },
  "fullUrl": "urn:uuid:2b9b44fc-4141-5e4d-8e33-0d8872bd468d"
}