{
  "resource": {
    "resourceType": "Organization",
    "id": "f731502c-5e63-561c-bad8-7ca8078fa40c",
    "name": "MEDEXPRESS URGENT CARE - NEW JERSEY, INC.",
    "endpoint": [
      {
        "reference": "Endpoint/27a4e967-47aa-5a9c-a572-b8297ee268a2"
      },
      {
        "reference": "Endpoint/0212e4ba-9850-5772-a20c-66713a3542f8"
      }
    ],
    "identifier": [
      {
        "system": "http://hl7.org/fhir/sid/us-npi",
        "value": "1205183894"
      }
    ],
    "address": [
      {
        "line": [
          "1210 Route 130N",
          "Suite 1438"
        ],
        "city": "CINNAMINSON",
        "state": "NJ",
        "postalCode": "08077-3046"
      },
      {
        "line": [
          "501 State Route 10"
        ],
        "city": "LEDGEWOOD",
        "state": "NJ",
        "postalCode": "07852-9667"
      },
      {
        "line": [
          "30 Shrewsbury Plaza"
        ],
        "city": "SHREWSBURY",
        "state": "NJ",
        "postalCode": "07702-4322"
      },
      {
        "line": [
          "228 Mountain Avenue"
        ],
        "city": "HACKETTSTOWN",
        "state": "NJ",
        "postalCode": "07840-2409"
      },
      {
        "line": [
          "301 S Main Road"
        ],
        "city": "VINELAND",
        "state": "NJ",
        "postalCode": "08360-7897"
      },
      {
        "line": [
          "363 State Highway 36"
        ],
        "city": "PORT MONMOUTH",
        "state": "NJ",
        "postalCode": "07758-1359"
      },
      {
        "line": [
          "135 Bloomfield Ave"
        ],
        "city": "BLOOMFIELD",
        "state": "NJ",
        "postalCode": "07003-5902"
      },
      {
        "line": [
          "1919 NJ Route 35",
          "Suite 100"
        ],
        "city": "BELMAR",
        "state": "NJ",
        "postalCode": "07719-3512"
      },
      {
        "line": [
          "124 Washington Ave"
        ],
        "city": "NUTLEY",
        "state": "NJ",
        "postalCode": "07110-3502"
      },
      {
        "line": [
          "251 North Broadway"
        ],
        "city": "PENNSVILLE",
        "state": "NJ",
        "postalCode": "08070-1200"
      },
      {
        "line": [
          "415 W Saint Georges Ave"
        ],
        "city": "LINDEN",
        "state": "NJ",
        "postalCode": "07036-5641"
      },
      {
        "line": [
          "2 South Black Horse Pike"
        ],
        "city": "MOUNT EPHRAIM",
        "state": "NJ",
        "postalCode": "08059-1307"
      },
      {
        "line": [
          "346 US Highway 46"
        ],
        "city": "ROCKAWAY",
        "state": "NJ",
        "postalCode": "07866-9998"
      }
    ],
    "extension": [
      {
        "url": "https://fhir.athena.io/StructureDefinition/ah-practice",
        "valueReference": {
          "reference": "Organization/a-1.Practice-3908"
        }
      },
      {
        "url": "https://fhir.athena.io/StructureDefinition/ah-brand",
        "valueReference": {
          "reference": "Organization/a-3908.Brand-1"
        }
      }
    ]
  },
  "fullUrl": "urn:uuid:f731502c-5e63-561c-bad8-7ca8078fa40c"
}