{
  "resource": {
    "resourceType": "Organization",
    "id": "e9c749d5-31b4-58be-a889-fc34d41443bf",
    "name": "Hawaii Nephrologists",
    "endpoint": [
      {
        "reference": "Endpoint/27a4e967-47aa-5a9c-a572-b8297ee268a2"
      },
      {
        "reference": "Endpoint/b87b4fcc-3b0e-540d-ab60-55a578517227"
      }
    ],
    "identifier": [
      {
        "system": "http://hl7.org/fhir/sid/us-npi",
        "value": "1871909549"
      }
    ],
    "address": [
      {
        "line": [
          "4380 LAWEHANA ST"
        ],
        "city": "HONOLULU",
        "state": "HI",
        "postalCode": "96818-3137"
      },
      {
        "line": [
          "47-388 Hui Iwa St"
        ],
        "city": "KANEOHE",
        "state": "HI",
        "postalCode": "96744-4428"
      },
      {
        "line": [
          "128 Lehua Street"
        ],
        "city": "WAHIAWA",
        "state": "HI",
        "postalCode": "96786-2036"
      },
      {
        "line": [
          "94229 Waipahu Depot Rd",
          "Suite 101"
        ],
        "city": "WAIPAHU",
        "state": "HI",
        "postalCode": "96797-3031"
      },
      {
        "line": [
          "500 Ala Moana Blvd  Ste 7302"
        ],
        "city": "HONOLULU",
        "state": "HI",
        "postalCode": "96813-4930"
      },
      {
        "line": [
          "94-229 Waipahu Depot St",
          "Suite 101"
        ],
        "city": "WAIPAHU",
        "state": "HI",
        "postalCode": "96797-3348"
      },
      {
        "line": [
          "3-3420 Kuhio Hwy"
        ],
        "city": "LIHUE",
        "state": "HI",
        "postalCode": "96766-1042"
      },
      {
        "line": [
          "1 Kamani Street"
        ],
        "city": "PAHALA",
        "state": "HI",
        "postalCode": "96777-0040"
      },
      {
        "line": [
          "94-229 Waipahu Depot Road"
        ],
        "city": "WAIPAHU",
        "state": "HI",
        "postalCode": "96797-3031"
      },
      {
        "line": [
          "750 Palani Ave"
        ],
        "city": "HONOLULU",
        "state": "HI",
        "postalCode": "96816-1109"
      },
      {
        "line": [
          "25 Kaneohe Bay Dr Ste 230"
        ],
        "city": "KAILUA",
        "state": "HI",
        "postalCode": "96734-5419"
      },
      {
        "line": [
          "7192 Kalanianaole Hwy Unit Q101"
        ],
        "city": "HONOLULU",
        "state": "HI",
        "postalCode": "96825-1850"
      },
      {
        "line": [
          "75-184 HUALALAI ROAD"
        ],
        "city": "KAILUA KONA",
        "state": "HI",
        "postalCode": "96740-1719"
      },
      {
        "line": [
          "45-480 Kaneohe Bay Dr"
        ],
        "city": "KANEOHE",
        "state": "HI",
        "postalCode": "96744-2039"
      },
      {
        "line": [
          "45-547 Plumeria St"
        ],
        "city": "HONOKAA",
        "state": "HI",
        "postalCode": "96727-6902"
      },
      {
        "line": [
          "75 PUUHONU PL"
        ],
        "city": "HILO",
        "state": "HI",
        "postalCode": "96720-2000"
      },
      {
        "line": [
          "95-1105 Ainamakua Dr"
        ],
        "city": "MILILANI",
        "state": "HI",
        "postalCode": "96789-6313"
      },
      {
        "line": [
          "75-184 HUALALAI ROAD",
          "#202"
        ],
        "city": "KAILUA KONA",
        "state": "HI",
        "postalCode": "96740-1719"
      },
      {
        "line": [
          "3625 Harding Ave"
        ],
        "city": "HONOLULU",
        "state": "HI",
        "postalCode": "96816-3765"
      }
    ],
    "extension": [
      {
        "url": "https://fhir.athena.io/StructureDefinition/ah-practice",
        "valueReference": {
          "reference": "Organization/a-1.Practice-14360"
        }
      },
      {
        "url": "https://fhir.athena.io/StructureDefinition/ah-brand",
        "valueReference": {
          "reference": "Organization/a-14360.Brand-9"
        }
      }
    ]
  },
  "fullUrl": "urn:uuid:e9c749d5-31b4-58be-a889-fc34d41443bf"
}