{
  "resource": {
    "resourceType": "Organization",
    "id": "7d4a63c1-a2b3-5ffe-bf82-abf5cd51f387",
    "name": "Advanced Internal Medicine of Michiana",
    "endpoint": [
      {
        "reference": "Endpoint/27a4e967-47aa-5a9c-a572-b8297ee268a2"
      },
      {
        "reference": "Endpoint/1aaf7293-8f8b-58ee-89e3-0b8170eb743e"
      }
    ],
    "identifier": [
      {
        "system": "http://hl7.org/fhir/sid/us-npi",
        "value": "1194288860"
      }
    ],
    "address": [
      {
        "line": [
          "5215 HOLY CROSS PARKWAY"
        ],
        "city": "MISHAWAKA",
        "state": "IN",
        "postalCode": "46545-1469"
      },
      {
        "line": [
          "4455 Edison Lakes Prky",
          "#100"
        ],
        "city": "MISHAWAKA",
        "state": "IN",
        "postalCode": "46545-1414"
      },
      {
        "line": [
          "4807 EDISON LAKES PARKWAY"
        ],
        "city": "MISHAWAKA",
        "state": "IN",
        "postalCode": "46545-1112"
      },
      {
        "line": [
          "611 EAST DOUGLAS ROAD",
          "SUITE 128"
        ],
        "city": "MISHAWKAK",
        "state": "IN",
        "postalCode": "46545-1464"
      },
      {
        "line": [
          "4455 Edison Lakes Prkwy",
          "#100"
        ],
        "city": "MISHAWAKA",
        "state": "IN",
        "postalCode": "46545-1414"
      },
      {
        "line": [
          "4455 Edison Lakes Prky",
          "Suite 100"
        ],
        "city": "MISHAWAKA",
        "state": "IN",
        "postalCode": "46545-1414"
      },
      {
        "line": [
          "60257 BODNAR BOULEVARD"
        ],
        "city": "MISHAWAKA",
        "state": "IN",
        "postalCode": "46544-9342"
      },
      {
        "line": [
          "3809 N MAIN ST STE 100"
        ],
        "city": "MISHAWAKA",
        "state": "IN",
        "postalCode": "46545-3109"
      },
      {
        "line": [
          "4455 Edison Lakes Prkwy",
          "Suite 100"
        ],
        "city": "MISHAWAKA",
        "state": "IN",
        "postalCode": "46545-1414"
      }
    ],
    "extension": [
      {
        "url": "https://fhir.athena.io/StructureDefinition/ah-practice",
        "valueReference": {
          "reference": "Organization/a-1.Practice-22250"
        }
      },
      {
        "url": "https://fhir.athena.io/StructureDefinition/ah-brand",
        "valueReference": {
          "reference": "Organization/a-22250.Brand-1"
        }
      }
    ]
  },
  "fullUrl": "urn:uuid:7d4a63c1-a2b3-5ffe-bf82-abf5cd51f387"
}