{
  "resource": {
    "resourceType": "Organization",
    "id": "da0999ef-e42d-56e7-ad4d-96ebefe7439b",
    "name": "GENITO URINARY SURGEONS",
    "endpoint": [
      {
        "reference": "Endpoint/27a4e967-47aa-5a9c-a572-b8297ee268a2"
      },
      {
        "reference": "Endpoint/ecc0f6fb-1fd9-5579-b55a-7fbc7723420d"
      }
    ],
    "identifier": [
      {
        "system": "http://hl7.org/fhir/sid/us-npi",
        "value": "1366795221"
      }
    ],
    "address": [
      {
        "line": [
          "970 W WOOSTER",
          "STE 129"
        ],
        "city": "BOWLING GREEN",
        "state": "OH",
        "postalCode": "43402-2652"
      },
      {
        "line": [
          "3500 EXECUTIVE PARKWAY"
        ],
        "city": "TOLEDO",
        "state": "OH",
        "postalCode": "43606-1319"
      },
      {
        "line": [
          "5757 MONCLOVA",
          "STE 6"
        ],
        "city": "MAUMEE",
        "state": "OH",
        "postalCode": "43537-1863"
      },
      {
        "line": [
          "605 THIRD AVE",
          "BUILDING A SUITE B"
        ],
        "city": "FREMONT",
        "state": "OH",
        "postalCode": "43420-3269"
      },
      {
        "line": [
          "121 WESTFIELD DR"
        ],
        "city": "ARCHBOLD",
        "state": "OH",
        "postalCode": "43502-1056"
      },
      {
        "line": [
          "905 N MACOMB ST"
        ],
        "city": "MONROE",
        "state": "MI",
        "postalCode": "48162-3075"
      },
      {
        "line": [
          "501 VAN BUREN",
          "MOB 1ST FLOOR"
        ],
        "city": "FOSTORIA",
        "state": "OH",
        "postalCode": "44830-1534"
      },
      {
        "line": [
          "7640 Sylvania Ave",
          "Ste L"
        ],
        "city": "SYLVANIA",
        "state": "OH",
        "postalCode": "43560-9263"
      }
    ],
    "extension": [
      {
        "url": "https://fhir.athena.io/StructureDefinition/ah-practice",
        "valueReference": {
          "reference": "Organization/a-1.Practice-3813"
        }
      },
      {
        "url": "https://fhir.athena.io/StructureDefinition/ah-brand",
        "valueReference": {
          "reference": "Organization/a-3813.Brand-1"
        }
      }
    ]
  },
  "fullUrl": "urn:uuid:da0999ef-e42d-56e7-ad4d-96ebefe7439b"
}