{
  "resource": {
    "resourceType": "Organization",
    "id": "f5f71f6a-d339-5c84-aeb4-8472acafe58e",
    "name": "Robert DeMartin MD",
    "endpoint": [
      {
        "reference": "Endpoint/27a4e967-47aa-5a9c-a572-b8297ee268a2"
      },
      {
        "reference": "Endpoint/cf9dc3ee-5278-5af7-9eca-982bb3525fff"
      }
    ],
    "identifier": [
      {
        "system": "http://hl7.org/fhir/sid/us-npi",
        "value": "1043260870"
      }
    ],
    "address": [
      {
        "line": [
          "1515 Hulse Rd"
        ],
        "city": "POINT PLEASANT BEACH",
        "state": "NJ",
        "postalCode": "08742-4410"
      },
      {
        "line": [
          "1515 HULSE RD"
        ],
        "city": "POINT PLEASANT BEACH",
        "state": "NJ",
        "postalCode": "08742-4527"
      },
      {
        "line": [
          "4900 RT 33"
        ],
        "city": "NEPTUNE",
        "state": "NJ",
        "postalCode": "07753-6825"
      },
      {
        "line": [
          "425 JACK MARTIN BLVD"
        ],
        "city": "BRICK",
        "state": "NJ",
        "postalCode": "08724-7732"
      },
      {
        "line": [
          "1330 LAUREL AVE STE 201"
        ],
        "city": "SEA GIRT",
        "state": "NJ",
        "postalCode": "08750-2320"
      },
      {
        "line": [
          "2500 RIDGEWAY RD"
        ],
        "city": "WALL",
        "state": "NJ",
        "postalCode": "07719-9600"
      },
      {
        "line": [
          "1330 Laurel Ave suite 201"
        ],
        "city": "SEA GIRT",
        "state": "NJ",
        "postalCode": "08750-0001"
      },
      {
        "line": [
          "2350 HOPSITAL RD"
        ],
        "city": "ALLENWOOD",
        "state": "NJ",
        "postalCode": "08720-7037"
      },
      {
        "line": [
          "1049 BURNT TAVERN RD"
        ],
        "city": "BRICK",
        "state": "NJ",
        "postalCode": "08742-1967"
      }
    ],
    "extension": [
      {
        "url": "https://fhir.athena.io/StructureDefinition/ah-practice",
        "valueReference": {
          "reference": "Organization/a-1.Practice-18682"
        }
      },
      {
        "url": "https://fhir.athena.io/StructureDefinition/ah-brand",
        "valueReference": {
          "reference": "Organization/a-18682.Brand-1"
        }
      }
    ]
  },
  "fullUrl": "urn:uuid:f5f71f6a-d339-5c84-aeb4-8472acafe58e"
}