{
  "resource": {
    "resourceType": "Organization",
    "id": "a1f48c08-3d44-5f3d-bbb8-f0cf065c31d1",
    "name": "Premier Brain and Spine",
    "endpoint": [
      {
        "reference": "Endpoint/27a4e967-47aa-5a9c-a572-b8297ee268a2"
      },
      {
        "reference": "Endpoint/3c3a7b90-6465-5e3a-8eba-5599b4252b77"
      }
    ],
    "identifier": [
      {
        "system": "http://hl7.org/fhir/sid/us-npi",
        "value": "1922771377"
      }
    ],
    "address": [
      {
        "line": [
          "223 North Van Dien Ave"
        ],
        "city": "RIDGEWOOD",
        "state": "NJ",
        "postalCode": "07450-2726"
      },
      {
        "line": [
          "201 Route 17"
        ],
        "city": "RUTHERFORD",
        "state": "NJ",
        "postalCode": "07070-2574"
      },
      {
        "line": [
          "55 Meadowlands Pkwy"
        ],
        "city": "SECAUCUS",
        "state": "NJ",
        "postalCode": "07094-2977"
      },
      {
        "line": [
          "250 Old Hook Rd"
        ],
        "city": "WESTWOOD",
        "state": "NJ",
        "postalCode": "07675-3123"
      },
      {
        "line": [
          "30 Prospect Ave"
        ],
        "city": "HACKENSACK",
        "state": "NJ",
        "postalCode": "07601-1915"
      },
      {
        "line": [
          "1945 State Route 33"
        ],
        "city": "NEPTUNE",
        "state": "NJ",
        "postalCode": "07753-4859"
      },
      {
        "line": [
          "718 Teaneck Rd"
        ],
        "city": "TEANECK",
        "state": "NJ",
        "postalCode": "07666-4245"
      },
      {
        "line": [
          "61 Main Street",
          "Suite D"
        ],
        "city": "WEST ORANGE",
        "state": "NJ",
        "postalCode": "07052-5352"
      },
      {
        "line": [
          "113 W Essex St",
          "Suite 204"
        ],
        "city": "MAYWOOD",
        "state": "NJ",
        "postalCode": "07607-1023"
      },
      {
        "line": [
          "1 Bay Ave"
        ],
        "city": "MONTCLAIR",
        "state": "NJ",
        "postalCode": "07042-4837"
      },
      {
        "line": [
          "11 W 25th St"
        ],
        "city": "BAYONNE",
        "state": "NJ",
        "postalCode": "07002-3800"
      },
      {
        "line": [
          "201 NJ-17",
          "Suite 1202"
        ],
        "city": "RUTHERFORD",
        "state": "NJ",
        "postalCode": "07070-2574"
      },
      {
        "line": [
          "2500 Morris Avenue",
          "Suite 221"
        ],
        "city": "UNION",
        "state": "NJ",
        "postalCode": "07083-5675"
      },
      {
        "line": [
          " 94 Old Short Hills Rd"
        ],
        "city": "LIVINGSTON",
        "state": "NJ",
        "postalCode": "07039-5672"
      },
      {
        "line": [
          "234 Industrial Way West"
        ],
        "city": "EATONTOWN",
        "state": "NJ",
        "postalCode": "07724-4244"
      },
      {
        "line": [
          "300 Executive Drive",
          "Suite 101"
        ],
        "city": "WEST ORANGE",
        "state": "NJ",
        "postalCode": "07052-3327"
      },
      {
        "line": [
          "7600 River Rd"
        ],
        "city": "NORTH BERGEN",
        "state": "NJ",
        "postalCode": "07047-6217"
      },
      {
        "line": [
          "25 Pocono Rd"
        ],
        "city": "DENVILLE",
        "state": "NJ",
        "postalCode": "07834-2954"
      },
      {
        "line": [
          "1 Clara Maass Rd"
        ],
        "city": "BELLEVILLE",
        "state": "NJ",
        "postalCode": "07109-3550"
      },
      {
        "line": [
          "20 Prospect Ave",
          "Suite 905"
        ],
        "city": "HACKENSACK",
        "state": "NJ",
        "postalCode": "07601-1974"
      },
      {
        "line": [
          "350 Engle Street"
        ],
        "city": "ENGLEWOOD",
        "state": "NJ",
        "postalCode": "07631-1808"
      },
      {
        "line": [
          "922 Main Street",
          "Suite 201"
        ],
        "city": "PATERSON",
        "state": "NJ",
        "postalCode": "07503-2602"
      },
      {
        "line": [
          "70 Hatfield Lane",
          "Suite 201"
        ],
        "city": "GOSHEN",
        "state": "NY",
        "postalCode": "10924-6735"
      },
      {
        "line": [
          "16 Whitesville Rd"
        ],
        "city": "TOMS RIVER",
        "state": "NJ",
        "postalCode": "08753-4107"
      },
      {
        "line": [
          "10 Parsonage Road",
          "Suite 208"
        ],
        "city": "EDISON",
        "state": "NJ",
        "postalCode": "08837-2429"
      },
      {
        "line": [
          "116 South Euclid Ave",
          "Suite 1"
        ],
        "city": "WESTFIELD",
        "state": "NJ",
        "postalCode": "07090-2187"
      },
      {
        "line": [
          "950 W Chestnut St"
        ],
        "city": "UNION",
        "state": "NJ",
        "postalCode": "07083-6966"
      },
      {
        "line": [
          "901 W MAIN ST STE 240"
        ],
        "city": "FREEHOLD",
        "state": "NJ",
        "postalCode": "07728-2537"
      },
      {
        "line": [
          "500 Grand Ave",
          "Suite 3"
        ],
        "city": "ENGLEWOOD",
        "state": "NJ",
        "postalCode": "07631-4967"
      }
    ],
    "extension": [
      {
        "url": "https://fhir.athena.io/StructureDefinition/ah-practice",
        "valueReference": {
          "reference": "Organization/a-1.Practice-25297"
        }
      },
      {
        "url": "https://fhir.athena.io/StructureDefinition/ah-brand",
        "valueReference": {
          "reference": "Organization/a-25297.Brand-1"
        }
      }
    ]
  },
  "fullUrl": "urn:uuid:a1f48c08-3d44-5f3d-bbb8-f0cf065c31d1"
}