{
  "resource": {
    "resourceType": "Organization",
    "id": "d4561f4c-3b3a-5ab7-b619-25f56b75017e",
    "name": "Rockford Nephrology",
    "endpoint": [
      {
        "reference": "Endpoint/27a4e967-47aa-5a9c-a572-b8297ee268a2"
      },
      {
        "reference": "Endpoint/cd93a25d-ce79-58ed-9a3f-c193ab4940c7"
      }
    ],
    "identifier": [
      {
        "system": "http://hl7.org/fhir/sid/us-npi",
        "value": "1336326388"
      }
    ],
    "address": [
      {
        "line": [
          "811 W 2nd St"
        ],
        "city": "BYRON",
        "state": "IL",
        "postalCode": "61010-1464"
      },
      {
        "line": [
          "1131 N Galena Ave"
        ],
        "city": "DIXON",
        "state": "IL",
        "postalCode": "61021-1015"
      },
      {
        "line": [
          "225 Edward St"
        ],
        "city": "SYCAMORE",
        "state": "IL",
        "postalCode": "60178-2137"
      },
      {
        "line": [
          "615 Harrison Ave"
        ],
        "city": "ROCKFORD",
        "state": "IL",
        "postalCode": "61104-7384"
      },
      {
        "line": [
          "1969 W Hart Road"
        ],
        "city": "BELOIT",
        "state": "WI",
        "postalCode": "53511-2230"
      },
      {
        "line": [
          "403 E First St"
        ],
        "city": "DIXON",
        "state": "IL",
        "postalCode": "61021-3166"
      },
      {
        "line": [
          "1969 West Hart Road",
          "Beloit Memorial Hospital"
        ],
        "city": "BELOIT",
        "state": "WI",
        "postalCode": "53511-2230"
      },
      {
        "line": [
          "2127 Midlands Ct.",
          "Suite 102"
        ],
        "city": "SYCAMORE",
        "state": "IL",
        "postalCode": "60178-3113"
      },
      {
        "line": [
          "3339 N Rockton Ave"
        ],
        "city": "ROCKFORD",
        "state": "IL",
        "postalCode": "61103-2839"
      },
      {
        "line": [
          "612 Roxbury Road"
        ],
        "city": "ROCKFORD",
        "state": "IL",
        "postalCode": "61107-5089"
      },
      {
        "line": [
          "3927 W Riverside Blvd"
        ],
        "city": "ROCKFORD",
        "state": "IL",
        "postalCode": "61101-5086"
      },
      {
        "line": [
          "612 Roxbury Rd"
        ],
        "city": "ROCKFORD",
        "state": "IL",
        "postalCode": "61107-5089"
      },
      {
        "line": [
          "417 Ware Ave"
        ],
        "city": "ROCKFORD",
        "state": "IL",
        "postalCode": "61107-6413"
      },
      {
        "line": [
          "1311 Parkview Ave"
        ],
        "city": "ROCKFORD",
        "state": "IL",
        "postalCode": "61107-1818"
      },
      {
        "line": [
          "1001 S Annie Glidden Rd"
        ],
        "city": "DEKALB",
        "state": "IL",
        "postalCode": "60115-8250"
      },
      {
        "line": [
          "215 E. 1st St"
        ],
        "city": "DIXON",
        "state": "IL",
        "postalCode": "61021-3166"
      },
      {
        "line": [
          "4406 E Lincolnway"
        ],
        "city": "STERLING",
        "state": "IL",
        "postalCode": "61081-4602"
      },
      {
        "line": [
          "707 W Riverside Blvd"
        ],
        "city": "ROCKFORD",
        "state": "IL",
        "postalCode": "61103-2125"
      },
      {
        "line": [
          "550 S Mulford Rd"
        ],
        "city": "ROCKFORD",
        "state": "IL",
        "postalCode": "61108-2511"
      },
      {
        "line": [
          "1401 E State St"
        ],
        "city": "ROCKFORD",
        "state": "IL",
        "postalCode": "61104-2315"
      },
      {
        "line": [
          "One Kish Hospital Dr"
        ],
        "city": "DEKALB",
        "state": "IL",
        "postalCode": "60115-4939"
      },
      {
        "line": [
          "100 E Le Fevre Rd"
        ],
        "city": "STERLING",
        "state": "IL",
        "postalCode": "61081-1278"
      },
      {
        "line": [
          "1007 W Riverside Blvd B"
        ],
        "city": "ROCKFORD",
        "state": "IL",
        "postalCode": "61103-2158"
      },
      {
        "line": [
          "7170 N Perryville Rd"
        ],
        "city": "MACHESNEY PARK",
        "state": "IL",
        "postalCode": "61115-7700"
      },
      {
        "line": [
          "1028 S Kunkle Blvd"
        ],
        "city": "FREEPORT",
        "state": "IL",
        "postalCode": "61032-6914"
      },
      {
        "line": [
          "2200 Gateway Dr."
        ],
        "city": "SYCAMORE",
        "state": "IL",
        "postalCode": "60178-3113"
      },
      {
        "line": [
          "8201 E Riverside Blvd"
        ],
        "city": "ROCKFORD",
        "state": "IL",
        "postalCode": "61114-5480"
      },
      {
        "line": [
          "2400 N Rockton Ave."
        ],
        "city": "ROCKFORD",
        "state": "IL",
        "postalCode": "61103-3619"
      },
      {
        "line": [
          "2540 Hauser-ross Dr",
          "Suite200"
        ],
        "city": "SYCAMORE",
        "state": "IL",
        "postalCode": "60178-3171"
      },
      {
        "line": [
          "198 N SPRINGFIELD AVE"
        ],
        "city": "ROCKFORD",
        "state": "IL",
        "postalCode": "61101-5086"
      },
      {
        "line": [
          "5666 E State St."
        ],
        "city": "ROCKFORD",
        "state": "IL",
        "postalCode": "61108-2425"
      },
      {
        "line": [
          "1302 East State Street"
        ],
        "city": "ROCKFORD",
        "state": "IL",
        "postalCode": "61104-2228"
      },
      {
        "line": [
          "612 ROXBURY RD"
        ],
        "city": "ROCKFORD",
        "state": "IL",
        "postalCode": "61107-5089"
      },
      {
        "line": [
          "622 Roxbury Rd"
        ],
        "city": "ROCKFORD",
        "state": "IL",
        "postalCode": "61107-5089"
      },
      {
        "line": [
          "1755 Henry Luckow Ln"
        ],
        "city": "BELVIDERE",
        "state": "IL",
        "postalCode": "61008-1242"
      },
      {
        "line": [
          "900 North 2nd Street"
        ],
        "city": "ROCHELLE",
        "state": "IL",
        "postalCode": "61068-1764"
      },
      {
        "line": [
          "1808 S West Ave"
        ],
        "city": "FREEPORT",
        "state": "IL",
        "postalCode": "61032-6712"
      },
      {
        "line": [
          "950 S Mulford Rd"
        ],
        "city": "ROCKFORD",
        "state": "IL",
        "postalCode": "61108-2425"
      },
      {
        "line": [
          "900 N 2nd St"
        ],
        "city": "ROCHELLE",
        "state": "IL",
        "postalCode": "61068-1764"
      },
      {
        "line": [
          "1969 W Hart Rd"
        ],
        "city": "BELOIT",
        "state": "WI",
        "postalCode": "53511-2230"
      }
    ],
    "extension": [
      {
        "url": "https://fhir.athena.io/StructureDefinition/ah-practice",
        "valueReference": {
          "reference": "Organization/a-1.Practice-19234"
        }
      },
      {
        "url": "https://fhir.athena.io/StructureDefinition/ah-brand",
        "valueReference": {
          "reference": "Organization/a-19234.Brand-1"
        }
      }
    ]
  },
  "fullUrl": "urn:uuid:d4561f4c-3b3a-5ab7-b619-25f56b75017e"
}