{
  "resource": {
    "resourceType": "Organization",
    "id": "5bb748bc-851d-58d4-b757-9a0ca855f2d7",
    "name": "Azalea Orthopedic and Sports Medicine",
    "endpoint": [
      {
        "reference": "Endpoint/27a4e967-47aa-5a9c-a572-b8297ee268a2"
      },
      {
        "reference": "Endpoint/ceb4391f-7771-5860-b1db-cbb3535c87af"
      }
    ],
    "identifier": [
      {
        "system": "http://hl7.org/fhir/sid/us-npi",
        "value": "1699765107"
      },
      {
        "system": "http://hl7.org/fhir/sid/us-npi",
        "value": "1205845369"
      },
      {
        "system": "http://hl7.org/fhir/sid/us-npi",
        "value": "1679501746"
      },
      {
        "system": "http://hl7.org/fhir/sid/us-npi",
        "value": "1942860176"
      },
      {
        "system": "http://hl7.org/fhir/sid/us-npi",
        "value": "1346244688"
      }
    ],
    "address": [
      {
        "line": [
          "2001 NORTH JEFFERSON AVENUE"
        ],
        "city": "MOUNT PLEASANT",
        "state": "TX",
        "postalCode": "75455-2338"
      },
      {
        "line": [
          "6210 S BROADWAY AVE"
        ],
        "city": "TYLER",
        "state": "TX",
        "postalCode": "75701-4413"
      },
      {
        "line": [
          "2900 S. LOOP 256"
        ],
        "city": "PALESTINE",
        "state": "TX",
        "postalCode": "75801-6958"
      },
      {
        "line": [
          "3414 GOLDEN ROAD"
        ],
        "city": "TYLER",
        "state": "TX",
        "postalCode": "75701-8336"
      },
      {
        "line": [
          "1000 S BECKHAM AVE"
        ],
        "city": "TYLER",
        "state": "TX",
        "postalCode": "75701-1908"
      },
      {
        "line": [
          "8200 Walnut Hill"
        ],
        "city": "DALLAS",
        "state": "TX",
        "postalCode": "75231-4402"
      },
      {
        "line": [
          "4948 NE STALLINGS DR"
        ],
        "city": "NACOGDOCHES",
        "state": "TX",
        "postalCode": "75965-1212"
      },
      {
        "line": [
          "4800 NE STALLINGS DR # 110"
        ],
        "city": "NACOGDOCHES",
        "state": "TX",
        "postalCode": "75965-1250"
      },
      {
        "line": [
          "2701 US HIGHWAY 271 N"
        ],
        "city": "PITTSBURG",
        "state": "TX",
        "postalCode": "75686-4289"
      },
      {
        "line": [
          "5505 NEW COPELAND ROAD"
        ],
        "city": "TYLER",
        "state": "TX",
        "postalCode": "75703-3955"
      },
      {
        "line": [
          "1204 N MOUND ST"
        ],
        "city": "NACOGDOCHES",
        "state": "TX",
        "postalCode": "75961-1212"
      },
      {
        "line": [
          "4920 NE STALLINGS DR"
        ],
        "city": "NACOGDOCHES",
        "state": "TX",
        "postalCode": "75965-1212"
      },
      {
        "line": [
          "712 HAYTER STREET"
        ],
        "city": "NACOGDOCHES",
        "state": "TX",
        "postalCode": "75962-0001"
      },
      {
        "line": [
          "4800 NE STALLINGS DR # 110"
        ],
        "city": "NACOGDOCHES",
        "state": "TX",
        "postalCode": "75965-1212"
      },
      {
        "line": [
          "3414 Golden Road"
        ],
        "city": "TYLER",
        "state": "TX",
        "postalCode": "75701-8336"
      }
    ],
    "extension": [
      {
        "url": "https://fhir.athena.io/StructureDefinition/ah-practice",
        "valueReference": {
          "reference": "Organization/a-1.Practice-15533"
        }
      },
      {
        "url": "https://fhir.athena.io/StructureDefinition/ah-brand",
        "valueReference": {
          "reference": "Organization/a-15533.Brand-3"
        }
      }
    ]
  },
  "fullUrl": "urn:uuid:5bb748bc-851d-58d4-b757-9a0ca855f2d7"
}