{
  "resource": {
    "resourceType": "Organization",
    "id": "a2dfe815-5bb1-53b1-9c45-32bbbe28e36a",
    "name": "Grace at Home",
    "endpoint": [
      {
        "reference": "Endpoint/27a4e967-47aa-5a9c-a572-b8297ee268a2"
      },
      {
        "reference": "Endpoint/4ca4b549-3c66-55c9-99d9-8a760b973f06"
      }
    ],
    "identifier": [
      {
        "system": "http://hl7.org/fhir/sid/us-npi",
        "value": "1235736067"
      }
    ],
    "address": [
      {
        "line": [
          "9745 OLYMPIA DR"
        ],
        "city": "FISHERS",
        "state": "IN",
        "postalCode": "46037-9226"
      },
      {
        "line": [
          "2141 N DAN JONES RD"
        ],
        "city": "AVON",
        "state": "IN",
        "postalCode": "46123-6023"
      },
      {
        "line": [
          "2026 E 54th St"
        ],
        "city": "Indianapolis",
        "state": "IN",
        "postalCode": "46220-3490"
      },
      {
        "line": [
          "250 E NORTHFIELD DR"
        ],
        "city": "BROWNSBURG",
        "state": "IN",
        "postalCode": "46112-1097"
      },
      {
        "line": [
          "334 S Cherry St"
        ],
        "city": "Westfield",
        "state": "IN",
        "postalCode": "46074-9085"
      },
      {
        "line": [
          "230 Welcome Way Blvd"
        ],
        "city": "Indianapolis",
        "state": "IN",
        "postalCode": "46214-3085"
      },
      {
        "line": [
          "1435 Christian Blvd"
        ],
        "city": "Franklin",
        "state": "IN",
        "postalCode": "46131-7211"
      },
      {
        "line": [
          "200 Arbor Ln"
        ],
        "city": "Danville",
        "state": "IN",
        "postalCode": "46122-8033"
      },
      {
        "line": [
          "675 S 1000 E"
        ],
        "city": "Zionsville",
        "state": "IN",
        "postalCode": "46077-2051"
      },
      {
        "line": [
          "1301 N Ritter Ave"
        ],
        "city": "Indianapolis",
        "state": "IN",
        "postalCode": "46219-3054"
      },
      {
        "line": [
          "610 Crown Pointe Dr"
        ],
        "city": "Lebanon",
        "state": "IN",
        "postalCode": "46052-8616"
      },
      {
        "line": [
          "118 Medical Dr"
        ],
        "city": "Carmel",
        "state": "IN",
        "postalCode": "46032-3323"
      },
      {
        "line": [
          "11851 Cumberland Rd"
        ],
        "city": "Fishers",
        "state": "IN",
        "postalCode": "46037-8273"
      },
      {
        "line": [
          "1335 S. Gulford Rd"
        ],
        "city": "Carmel",
        "state": "IN",
        "postalCode": "46032-2999"
      },
      {
        "line": [
          "3525 E Hanna Ave"
        ],
        "city": "Indianapolis",
        "state": "IN",
        "postalCode": "46237-1230"
      },
      {
        "line": [
          "855 SOUTHFIELD DR"
        ],
        "city": "PLAINFIELD",
        "state": "IN",
        "postalCode": "46168-2951"
      },
      {
        "line": [
          "3660 Central Ave"
        ],
        "city": "Columbus",
        "state": "IN",
        "postalCode": "47203-4621"
      },
      {
        "line": [
          "7126 SPRING MILL RD"
        ],
        "city": "INDIANAPOLIS",
        "state": "IN",
        "postalCode": "46260-4250"
      },
      {
        "line": [
          "8025 DOUBLEDAY DR"
        ],
        "city": "INDIANAPOLIS",
        "state": "IN",
        "postalCode": "46216-2016"
      },
      {
        "line": [
          "1840 W MAIN ST"
        ],
        "city": "CARMEL",
        "state": "IN",
        "postalCode": "46032-8829"
      },
      {
        "line": [
          "5011 Kessler Blvd E Dr"
        ],
        "city": "Indianapolis",
        "state": "IN",
        "postalCode": "46220-6328"
      },
      {
        "line": [
          "7721 Battery Pointe Way"
        ],
        "city": "Indianapolis",
        "state": "IN",
        "postalCode": "46240-1393"
      },
      {
        "line": [
          "7235 RIVERWALK WAY N"
        ],
        "city": "NOBLESVILLE",
        "state": "IN",
        "postalCode": "46062-7001"
      },
      {
        "line": [
          "3575 Senior Place"
        ],
        "city": "West Lafayette",
        "state": "IN",
        "postalCode": "47906-8656"
      },
      {
        "line": [
          "1703 W 86th St"
        ],
        "city": "Indianapolis",
        "state": "IN",
        "postalCode": "46260-2076"
      },
      {
        "line": [
          "10410 Allisonville Rd"
        ],
        "city": "Fishers",
        "state": "IN",
        "postalCode": "46038-2017"
      },
      {
        "line": [
          "8616 W 10th St"
        ],
        "city": "Indianapolis",
        "state": "IN",
        "postalCode": "46234-2167"
      },
      {
        "line": [
          "2725 Lake Circle Dr"
        ],
        "city": "Indianapolis",
        "state": "IN",
        "postalCode": "46268-4931"
      },
      {
        "line": [
          "11011 Village Square Ln"
        ],
        "city": "Fishers",
        "state": "IN",
        "postalCode": "46038-4559"
      },
      {
        "line": [
          "4300 W Goeller Blvd"
        ],
        "city": "Columbus",
        "state": "IN",
        "postalCode": "47201-8050"
      },
      {
        "line": [
          "250 Shenandoah Dr"
        ],
        "city": "Lafayette",
        "state": "IN",
        "postalCode": "47905-5927"
      },
      {
        "line": [
          "6311 W CR 900 N"
        ],
        "city": "McCordsville",
        "state": "IN",
        "postalCode": "46055-9355"
      },
      {
        "line": [
          "7365 E 16th St"
        ],
        "city": "Indianapolis",
        "state": "IN",
        "postalCode": "46219-2308"
      },
      {
        "line": [
          "14532 Allisonville Rd"
        ],
        "city": "Fishers",
        "state": "IN",
        "postalCode": "46038-5119"
      },
      {
        "line": [
          "7410 W RAYMOND RUN"
        ],
        "city": "ELLETTSVILLE",
        "state": "IN",
        "postalCode": "47429-2208"
      },
      {
        "line": [
          "1176 Kingwood Dr"
        ],
        "city": "Avon",
        "state": "IN",
        "postalCode": "46123-5501"
      },
      {
        "line": [
          "8025 Double Day Dr"
        ],
        "city": "Indianapolis",
        "state": "IN",
        "postalCode": "46216-2016"
      },
      {
        "line": [
          "2 E Tilden Rd"
        ],
        "city": "Brownsburg",
        "state": "IN",
        "postalCode": "46112-1648"
      },
      {
        "line": [
          "182 S COUNTY ROAD 550 E"
        ],
        "city": "AVON",
        "state": "IN",
        "postalCode": "46123-7057"
      },
      {
        "line": [
          "12999 N Pennsylvania St"
        ],
        "city": "Carmel",
        "state": "IN",
        "postalCode": "46032-5477"
      },
      {
        "line": [
          "13390 ILLINOIS ST"
        ],
        "city": "CARMEL",
        "state": "IN",
        "postalCode": "46032-3018"
      },
      {
        "line": [
          "8480 Craig St"
        ],
        "city": "Indianapolis",
        "state": "IN",
        "postalCode": "46250-4745"
      },
      {
        "line": [
          "2460 Glebe St"
        ],
        "city": "Carmel",
        "state": "IN",
        "postalCode": "46032-7154"
      },
      {
        "line": [
          "8900 KEYSTONE XING",
          "STE 540"
        ],
        "city": "INDIANAPOLIS",
        "state": "IN",
        "postalCode": "46240-2130"
      },
      {
        "line": [
          "13633 Carey Rd"
        ],
        "city": "Carmel",
        "state": "IN",
        "postalCode": "46033-9403"
      },
      {
        "line": [
          "14901 Carey Rd"
        ],
        "city": "Carmel",
        "state": "IN",
        "postalCode": "46033-6000"
      },
      {
        "line": [
          "4411 PARK PLACE DR"
        ],
        "city": "FORT WAYNE",
        "state": "IN",
        "postalCode": "46845-8793"
      },
      {
        "line": [
          "9730 Prairie Lake Blvd E"
        ],
        "city": "Noblesville",
        "state": "IN",
        "postalCode": "46060-4766"
      },
      {
        "line": [
          "625 E Water St"
        ],
        "city": "Pendleton",
        "state": "IN",
        "postalCode": "46064-8551"
      },
      {
        "line": [
          "6336 Robin Run East"
        ],
        "city": "Indianapolis",
        "state": "IN",
        "postalCode": "46268-4068"
      },
      {
        "line": [
          "7525 Rosegate Dr"
        ],
        "city": "Indianapolis",
        "state": "IN",
        "postalCode": "46237-8353"
      },
      {
        "line": [
          "11570 E 126th St"
        ],
        "city": "Fishers",
        "state": "IN",
        "postalCode": "46037-9592"
      },
      {
        "line": [
          "1070 W Jefferson St"
        ],
        "city": "Franklin",
        "state": "IN",
        "postalCode": "46131-2179"
      },
      {
        "line": [
          "1051 Cumberland Ave"
        ],
        "city": "West Lafayette",
        "state": "IN",
        "postalCode": "47906-1447"
      },
      {
        "line": [
          "3060 Valley Farms Rd"
        ],
        "city": "Indianapolis",
        "state": "IN",
        "postalCode": "46214-4501"
      },
      {
        "line": [
          "11755 N Michigan Rd"
        ],
        "city": "Zionsville",
        "state": "IN",
        "postalCode": "46077-9325"
      },
      {
        "line": [
          "12130 Old Meridian"
        ],
        "city": "Carmel",
        "state": "IN",
        "postalCode": "46032-8787"
      },
      {
        "line": [
          "532 COUNTRY GATE DR"
        ],
        "city": "WHITELAND",
        "state": "IN",
        "postalCode": "46184-8016"
      },
      {
        "line": [
          "800 N BELL TRACE CIR"
        ],
        "city": "BLOOMINGTON",
        "state": "IN",
        "postalCode": "47408-4405"
      },
      {
        "line": [
          "75 S Milford Dr"
        ],
        "city": "Franklin",
        "state": "IN",
        "postalCode": "46131-9337"
      },
      {
        "line": [
          "1900 N LEBANON ST"
        ],
        "city": "LEBANON",
        "state": "IN",
        "postalCode": "46052-1505"
      },
      {
        "line": [
          "9600 E 146th St"
        ],
        "city": "Noblesville",
        "state": "IN",
        "postalCode": "46060-4990"
      },
      {
        "line": [
          "1667 Sheridan Rd"
        ],
        "city": "Noblesville",
        "state": "IN",
        "postalCode": "46062-8723"
      },
      {
        "line": [
          "689 Pro-Med Ln"
        ],
        "city": "Carmel",
        "state": "IN",
        "postalCode": "46032-5397"
      },
      {
        "line": [
          "2564 FOX POINTE DR"
        ],
        "city": "COLUMBUS",
        "state": "IN",
        "postalCode": "47203-3181"
      },
      {
        "line": [
          "10799 Alliance Dr"
        ],
        "city": "Camby",
        "state": "IN",
        "postalCode": "46113-8909"
      },
      {
        "line": [
          "6800 Central Blvd"
        ],
        "city": "Zionsville",
        "state": "IN",
        "postalCode": "46077-7676"
      },
      {
        "line": [
          "9225 Garrison Dr"
        ],
        "city": "Indianapolis",
        "state": "IN",
        "postalCode": "46240-4269"
      },
      {
        "line": [
          "8801 S Madison Ave"
        ],
        "city": "Indianapolis",
        "state": "IN",
        "postalCode": "46227-6460"
      },
      {
        "line": [
          "8617 W 10th St"
        ],
        "city": "Indianapolis",
        "state": "IN",
        "postalCode": "46234-2167"
      },
      {
        "line": [
          "855 Southfield Dr"
        ],
        "city": "Plainfield",
        "state": "IN",
        "postalCode": "46168-2951"
      },
      {
        "line": [
          "1375 NICOLE DR"
        ],
        "city": "FRANKLIN",
        "state": "IN",
        "postalCode": "46131-9250"
      },
      {
        "line": [
          "8601 S Shelby St"
        ],
        "city": "Indianapolis",
        "state": "IN",
        "postalCode": "46227-6596"
      },
      {
        "line": [
          "9365 COUNSELORS ROW"
        ],
        "city": "INDIANAPOLIS",
        "state": "IN",
        "postalCode": "46240-6418"
      },
      {
        "line": [
          "603 St. Joseph Dr"
        ],
        "city": "Kokomo",
        "state": "IN",
        "postalCode": "46901-4189"
      },
      {
        "line": [
          "7212 US Hwy 31"
        ],
        "city": "Indianapolis",
        "state": "IN",
        "postalCode": "46227-8549"
      },
      {
        "line": [
          "3021 Stella Dr"
        ],
        "city": "Greenwood",
        "state": "IN",
        "postalCode": "46143-8502"
      },
      {
        "line": [
          "901 S Hastings Dr"
        ],
        "city": "Bloomington",
        "state": "IN",
        "postalCode": "47401-8205"
      },
      {
        "line": [
          "1910 Wellesley Blvd"
        ],
        "city": "Indianapolis",
        "state": "IN",
        "postalCode": "46219-8435"
      },
      {
        "line": [
          "4926 Sir Barton Way"
        ],
        "city": "Indianapolis",
        "state": "IN",
        "postalCode": "46237-9769"
      },
      {
        "line": [
          "13390 N Illinois St"
        ],
        "city": "CARMEL",
        "state": "IN",
        "postalCode": "46032-3143"
      },
      {
        "line": [
          "6038 W 25th St"
        ],
        "city": "Indianapolis",
        "state": "IN",
        "postalCode": "46224-3628"
      },
      {
        "line": [
          "1250 W 146TH ST"
        ],
        "city": "WESTFIELD",
        "state": "IN",
        "postalCode": "46074-9869"
      },
      {
        "line": [
          "9796 E 131st St"
        ],
        "city": "Fishers",
        "state": "IN",
        "postalCode": "46038-3601"
      },
      {
        "line": [
          "1251 W 96th St"
        ],
        "city": "Indianapolis",
        "state": "IN",
        "postalCode": "46260-1181"
      },
      {
        "line": [
          "4895 Pine Ridge Dr"
        ],
        "city": "Columbus",
        "state": "IN",
        "postalCode": "47201-2569"
      },
      {
        "line": [
          "741 Park E Blvd"
        ],
        "city": "Lafayette",
        "state": "IN",
        "postalCode": "47905-0797"
      },
      {
        "line": [
          "8810 Colby Blvd"
        ],
        "city": "Indianapolis",
        "state": "IN",
        "postalCode": "46268-1399"
      },
      {
        "line": [
          "5865 Sugar Ln"
        ],
        "city": "Plainfield",
        "state": "IN",
        "postalCode": "46168-8328"
      },
      {
        "line": [
          "167 Walter Scholer Dr"
        ],
        "city": "Lafayette",
        "state": "IN",
        "postalCode": "47909-6300"
      },
      {
        "line": [
          "1123 N Edmondson Ave"
        ],
        "city": "Indianapolis",
        "state": "IN",
        "postalCode": "46219-3566"
      },
      {
        "line": [
          "1971 State St"
        ],
        "city": "Columbus",
        "state": "IN",
        "postalCode": "47201-7167"
      },
      {
        "line": [
          "413 E 86th St"
        ],
        "city": "Indianapolis",
        "state": "IN",
        "postalCode": "46240-1529"
      },
      {
        "line": [
          "8549 N Meridian St"
        ],
        "city": "Indianapolis",
        "state": "IN",
        "postalCode": "46260-2329"
      },
      {
        "line": [
          "11610 Technology Dr"
        ],
        "city": "Carmel",
        "state": "IN",
        "postalCode": "46032-5618"
      },
      {
        "line": [
          "2339 S State Rd 135"
        ],
        "city": "Greenwood",
        "state": "IN",
        "postalCode": "46143-4800"
      },
      {
        "line": [
          "6510 US 31"
        ],
        "city": "Indianapolis",
        "state": "IN",
        "postalCode": "46227-2200"
      },
      {
        "line": [
          "2250 Harvest Moon Dr"
        ],
        "city": "Indianapolis",
        "state": "IN",
        "postalCode": "46229-4970"
      },
      {
        "line": [
          "8905 EVERGREEN AVE"
        ],
        "city": "INDIANAPOLIS",
        "state": "IN",
        "postalCode": "46240-2000"
      },
      {
        "line": [
          "9974 Federalist Dr"
        ],
        "city": "Fishers",
        "state": "IN",
        "postalCode": "46037-6545"
      },
      {
        "line": [
          "8275 CRAIG ST"
        ],
        "city": "INDIANAPOLIS",
        "state": "IN",
        "postalCode": "46250-4522"
      },
      {
        "line": [
          "11755 N MICHIGAN RD"
        ],
        "city": "ZIONSVILLE",
        "state": "IN",
        "postalCode": "46077-9325"
      },
      {
        "line": [
          "55 Mission Dr"
        ],
        "city": "Indianapolis",
        "state": "IN",
        "postalCode": "46214-5907"
      },
      {
        "line": [
          "301 Executive Dr"
        ],
        "city": "Carmel",
        "state": "IN",
        "postalCode": "46032-2984"
      },
      {
        "line": [
          "6021 S ARLINGTON AVE"
        ],
        "city": "INDIANAPOLIS",
        "state": "IN",
        "postalCode": "46237-3164"
      },
      {
        "line": [
          "225 W Harrison"
        ],
        "city": "Mooresville",
        "state": "IN",
        "postalCode": "46158-1634"
      },
      {
        "line": [
          "4400 Terrace Dr"
        ],
        "city": "New Palestine",
        "state": "IN",
        "postalCode": "46163-5539"
      },
      {
        "line": [
          "1255 Demaree Rd"
        ],
        "city": "Greenwood",
        "state": "IN",
        "postalCode": "46143-9518"
      },
      {
        "line": [
          "6510 US 31"
        ],
        "city": "INDIANAPOLIS",
        "state": "IN",
        "postalCode": "46227-2200"
      },
      {
        "line": [
          "208 Beck Lane"
        ],
        "city": "Lafayette",
        "state": "IN",
        "postalCode": "47909-3033"
      },
      {
        "line": [
          "10480 Glasswater Ln"
        ],
        "city": "Indianapolis",
        "state": "IN",
        "postalCode": "46231-0009"
      },
      {
        "line": [
          "5829 NEW HOPE BLVD"
        ],
        "city": "WHITESTOWN",
        "state": "IN",
        "postalCode": "46075-4576"
      },
      {
        "line": [
          "8400 Clearvista Pl"
        ],
        "city": "Indianapolis",
        "state": "IN",
        "postalCode": "46256-3700"
      },
      {
        "line": [
          "8800 Spoon Drive"
        ],
        "city": "Indianapolis",
        "state": "IN",
        "postalCode": "46219-4230"
      },
      {
        "line": [
          "830 Park East Blvd"
        ],
        "city": "Lafayette",
        "state": "IN",
        "postalCode": "47905-0778"
      },
      {
        "line": [
          "1151 S Hubert Circle W Dr"
        ],
        "city": "Martinsville",
        "state": "IN",
        "postalCode": "46151-5877"
      },
      {
        "line": [
          "2216 N Riley Hwy"
        ],
        "city": "Shelbyville",
        "state": "IN",
        "postalCode": "46176-9311"
      },
      {
        "line": [
          "400 HUNTER STATION RD"
        ],
        "city": "SELLERSBURG",
        "state": "IN",
        "postalCode": "47172-1072"
      },
      {
        "line": [
          "7960 Shadeland Ave"
        ],
        "city": "Indianapolis",
        "state": "IN",
        "postalCode": "46250-2081"
      },
      {
        "line": [
          "6338 W QUIET RD"
        ],
        "city": "GREENFIELD",
        "state": "IN",
        "postalCode": "46140-0130"
      },
      {
        "line": [
          "8505 Woodfield Crossing Blvd"
        ],
        "city": "Indianapolis",
        "state": "IN",
        "postalCode": "46240-4309"
      },
      {
        "line": [
          "9940 Hoosier Village Dr"
        ],
        "city": "Indianapolis",
        "state": "IN",
        "postalCode": "46268-3945"
      },
      {
        "line": [
          "5829 E. 116th St"
        ],
        "city": "Carmel",
        "state": "IN",
        "postalCode": "46033-9307"
      },
      {
        "line": [
          "3177 Meridian Parke Dr"
        ],
        "city": "Greenwood",
        "state": "IN",
        "postalCode": "46142-9629"
      },
      {
        "line": [
          "907 N EAST ST"
        ],
        "city": "INDIANAPOLIS",
        "state": "IN",
        "postalCode": "46202-3425"
      },
      {
        "line": [
          "6990 E CR 100 N"
        ],
        "city": "Avon",
        "state": "IN",
        "postalCode": "46123-9711"
      },
      {
        "line": [
          "250 N Northfield Dr"
        ],
        "city": "Brownsburg",
        "state": "IN",
        "postalCode": "46112-1097"
      },
      {
        "line": [
          "4519 E 82nd St"
        ],
        "city": "Indianapolis",
        "state": "IN",
        "postalCode": "46250-4241"
      },
      {
        "line": [
          "1123 N Edmondson Ave"
        ],
        "city": "INDIANAPOLIS",
        "state": "IN",
        "postalCode": "46219-3566"
      },
      {
        "line": [
          "1285 Fairfax Manor Dr"
        ],
        "city": "Carmel",
        "state": "IN",
        "postalCode": "46032-4450"
      },
      {
        "line": [
          "2444 S State Rd 135"
        ],
        "city": "Greenwood",
        "state": "IN",
        "postalCode": "46143-9446"
      },
      {
        "line": [
          "5045 West 52nd St"
        ],
        "city": "Indianapolis",
        "state": "IN",
        "postalCode": "46254-1705"
      },
      {
        "line": [
          "831 Swope St"
        ],
        "city": "Greenfield",
        "state": "IN",
        "postalCode": "46140-7431"
      },
      {
        "line": [
          "13390 N Illinois St"
        ],
        "city": "Carmel",
        "state": "IN",
        "postalCode": "46032-3143"
      },
      {
        "line": [
          "11870 Sandy Dr"
        ],
        "city": "Zionsville",
        "state": "IN",
        "postalCode": "46077-9327"
      },
      {
        "line": [
          "4940 W 56th St"
        ],
        "city": "Indianapolis",
        "state": "IN",
        "postalCode": "46254-1408"
      },
      {
        "line": [
          "3530 S Shelby St"
        ],
        "city": "Indianapolis",
        "state": "IN",
        "postalCode": "46227-3269"
      },
      {
        "line": [
          "5651 E 30th St"
        ],
        "city": "Indianapolis",
        "state": "IN",
        "postalCode": "46218-3366"
      }
    ],
    "extension": [
      {
        "url": "https://fhir.athena.io/StructureDefinition/ah-practice",
        "valueReference": {
          "reference": "Organization/a-1.Practice-32399"
        }
      },
      {
        "url": "https://fhir.athena.io/StructureDefinition/ah-brand",
        "valueReference": {
          "reference": "Organization/a-32399.Brand-1"
        }
      }
    ]
  },
  "fullUrl": "urn:uuid:a2dfe815-5bb1-53b1-9c45-32bbbe28e36a"
}