{
  "resource": {
    "resourceType": "Organization",
    "id": "4a44d187-7e16-5450-9748-720607901333",
    "name": "ASHWOOD ALF",
    "endpoint": [
      {
        "reference": "Endpoint/27a4e967-47aa-5a9c-a572-b8297ee268a2"
      },
      {
        "reference": "Endpoint/f4605bc7-8b06-5cf5-ada7-7fd85b4b56c7"
      }
    ],
    "identifier": [
      {
        "system": "http://hl7.org/fhir/sid/us-npi",
        "value": "1023473139"
      }
    ],
    "address": [
      {
        "line": [
          "226 CHAPEL ST"
        ],
        "city": "HAMPTON",
        "state": "VA",
        "postalCode": "23669-4022"
      },
      {
        "line": [
          "5700 Williamsburg Landing Dr."
        ],
        "city": "WILLIAMSBURG",
        "state": "VA",
        "postalCode": "23185-8055"
      },
      {
        "line": [
          "1807 JAMESTOWN RD"
        ],
        "city": "WILLIAMSBURG",
        "state": "VA",
        "postalCode": "23185-2326"
      },
      {
        "line": [
          "1204 E. PEMBROKE AVE"
        ],
        "city": "HAMPTON",
        "state": "VA",
        "postalCode": "23669-3226"
      },
      {
        "line": [
          "3900 WINDSOR HALL DR."
        ],
        "city": "WILLIAMSBURG",
        "state": "VA",
        "postalCode": "23188-2875"
      },
      {
        "line": [
          "5501 DISCOVERY PARK BLVD"
        ],
        "city": "WILLIAMSBURG",
        "state": "VA",
        "postalCode": "23188-1111"
      },
      {
        "line": [
          "414 Algonuin Road"
        ],
        "city": "HAMPTON",
        "state": "VA",
        "postalCode": "23661-1605"
      },
      {
        "line": [
          "2102 NEWTON ROAD"
        ],
        "city": "HAMPTON",
        "state": "VA",
        "postalCode": "23663-1023"
      },
      {
        "line": [
          "3900 Windsor Hall Dr."
        ],
        "city": "WILLIAMSBURG",
        "state": "VA",
        "postalCode": "23188-2875"
      },
      {
        "line": [
          "414 ALGONQUIN RD"
        ],
        "city": "HAMPTON",
        "state": "VA",
        "postalCode": "23661-1605"
      },
      {
        "line": [
          "918 27th Street"
        ],
        "city": "NEWPORT NEWS",
        "state": "VA",
        "postalCode": "23607-4137"
      },
      {
        "line": [
          "850 Denbigh Blvd"
        ],
        "city": "NEWPORT NEWS",
        "state": "VA",
        "postalCode": "23608-4438"
      },
      {
        "line": [
          "935 Capitol Landing Road"
        ],
        "city": "WILLIAMSBURG",
        "state": "VA",
        "postalCode": "23185-4347"
      },
      {
        "line": [
          "439 ORIANA RD",
          "STE. C"
        ],
        "city": "NEWPORT NEWS",
        "state": "VA",
        "postalCode": "23608-3702"
      },
      {
        "line": [
          "P.O. 2553"
        ],
        "city": "NEWPORT NEWS",
        "state": "VA",
        "postalCode": "23609-0553"
      }
    ],
    "extension": [
      {
        "url": "https://fhir.athena.io/StructureDefinition/ah-practice",
        "valueReference": {
          "reference": "Organization/a-1.Practice-12812"
        }
      },
      {
        "url": "https://fhir.athena.io/StructureDefinition/ah-brand",
        "valueReference": {
          "reference": "Organization/a-12812.Brand-1"
        }
      }
    ]
  },
  "fullUrl": "urn:uuid:4a44d187-7e16-5450-9748-720607901333"
}