{
  "resource": {
    "resourceType": "Organization",
    "id": "f9f50cf4-693a-54f7-a6f0-6f5567fdaf2e",
    "name": "Happy Feet Mobile",
    "endpoint": [
      {
        "reference": "Endpoint/27a4e967-47aa-5a9c-a572-b8297ee268a2"
      },
      {
        "reference": "Endpoint/7963261a-9236-5e1f-bf8f-6f350d74640e"
      }
    ],
    "identifier": [
      {
        "system": "http://hl7.org/fhir/sid/us-npi",
        "value": "1588412159"
      }
    ],
    "address": [
      {
        "line": [
          "7999 N CRESCENT BLVD"
        ],
        "city": "PENNSAUKEN",
        "state": "NJ",
        "postalCode": "08110-1402"
      },
      {
        "line": [
          "110 GREENWOOD AVE"
        ],
        "city": "MONTCLAIR",
        "state": "NJ",
        "postalCode": "07042-4010"
      },
      {
        "line": [
          "3000 HADLEY RD"
        ],
        "city": "SOUTH PLAINFIELD",
        "state": "NJ",
        "postalCode": "07080-1183"
      },
      {
        "line": [
          "540 BORDENTOWN AVE STE 10B"
        ],
        "city": "SOUTH AMBOY",
        "state": "NJ",
        "postalCode": "08879-1576"
      },
      {
        "line": [
          "505 COUNTY AVE"
        ],
        "city": "SECAUCUS",
        "state": "NJ",
        "postalCode": "07094-2620"
      },
      {
        "line": [
          "5 N STATE HOME RD"
        ],
        "city": "MONROE TOWNSHIP",
        "state": "NJ",
        "postalCode": "08831-2940"
      },
      {
        "line": [
          "1607 MANHATTAN AVE"
        ],
        "city": "UNION CITY",
        "state": "NJ",
        "postalCode": "07087-5417"
      },
      {
        "line": [
          "316 BLACK HORSE PIKE"
        ],
        "city": "GLENDORA",
        "state": "NJ",
        "postalCode": "08029-1476"
      },
      {
        "line": [
          "475 HURFFVILLE CROSSKEYS RD # 12"
        ],
        "city": "SEWELL",
        "state": "NJ",
        "postalCode": "08080-2360"
      },
      {
        "line": [
          "426 RARITAN ST"
        ],
        "city": "SAYREVILLE",
        "state": "NJ",
        "postalCode": "08872-1465"
      },
      {
        "line": [
          "839 PERRINEVILLE RD"
        ],
        "city": "MILLSTONE TOWNSHIP",
        "state": "NJ",
        "postalCode": "08535-1301"
      },
      {
        "line": [
          "860 ROUTE 168"
        ],
        "city": "BLACKWOOD",
        "state": "NJ",
        "postalCode": "08012-3215"
      },
      {
        "line": [
          "3610 PALISADE AVE"
        ],
        "city": "UNION CITY",
        "state": "NJ",
        "postalCode": "07087-4718"
      },
      {
        "line": [
          "525 MONMOUTH ST"
        ],
        "city": "JERSEY CITY",
        "state": "NJ",
        "postalCode": "07302-1527"
      },
      {
        "line": [
          "7 LINCOLN HWY STE 200B"
        ],
        "city": "EDISON",
        "state": "NJ",
        "postalCode": "08820-3965"
      },
      {
        "line": [
          "10 BRUNSWICK AVE"
        ],
        "city": "EDISON",
        "state": "NJ",
        "postalCode": "08817-2507"
      },
      {
        "line": [
          "835 US-1 South"
        ],
        "city": "ISELIN",
        "state": "NJ",
        "postalCode": "08830-1234"
      },
      {
        "line": [
          "53 W FORT LEE RD # 57"
        ],
        "city": "BOGOTA",
        "state": "NJ",
        "postalCode": "07603-1201"
      },
      {
        "line": [
          "615 23RD ST"
        ],
        "city": "UNION CITY",
        "state": "NJ",
        "postalCode": "07087-3505"
      },
      {
        "line": [
          "2000 CORNWALL RD"
        ],
        "city": "MONMOUTH JUNCTION",
        "state": "NJ",
        "postalCode": "08852-2444"
      },
      {
        "line": [
          "303 ELM ST"
        ],
        "city": "PERTH AMBOY",
        "state": "NJ",
        "postalCode": "08861-4015"
      },
      {
        "line": [
          "3996 COUNTY ROAD 516 STE 110"
        ],
        "city": "MATAWAN",
        "state": "NJ",
        "postalCode": "07747-7081"
      }
    ],
    "extension": [
      {
        "url": "https://fhir.athena.io/StructureDefinition/ah-practice",
        "valueReference": {
          "reference": "Organization/a-1.Practice-31745"
        }
      },
      {
        "url": "https://fhir.athena.io/StructureDefinition/ah-brand",
        "valueReference": {
          "reference": "Organization/a-31745.Brand-1"
        }
      }
    ]
  },
  "fullUrl": "urn:uuid:f9f50cf4-693a-54f7-a6f0-6f5567fdaf2e"
}