{
  "resource": {
    "resourceType": "Organization",
    "id": "a8cbe3f8-2f2b-53b9-900f-c6833f15fc32",
    "name": "CHC Mental Health - Healthway Drive",
    "endpoint": [
      {
        "reference": "Endpoint/27a4e967-47aa-5a9c-a572-b8297ee268a2"
      },
      {
        "reference": "Endpoint/cd59f206-468c-5335-9a86-c13dac74bf5c"
      }
    ],
    "identifier": [
      {
        "system": "http://hl7.org/fhir/sid/us-npi",
        "value": "1154354744"
      }
    ],
    "address": [
      {
        "line": [
          "10344 OLD OCEAN CITY BLVD"
        ],
        "city": "BERLIN",
        "state": "MD",
        "postalCode": "21811-1162"
      },
      {
        "line": [
          "12165 Elm Street"
        ],
        "city": "PRINCESS ANNE",
        "state": "MD",
        "postalCode": "21853-1358"
      },
      {
        "line": [
          "31413 Winterplace Pkwy suite 103"
        ],
        "city": "SALISBURY",
        "state": "MD",
        "postalCode": "21804-1877"
      },
      {
        "line": [
          "1665 WOODBROOKE DR"
        ],
        "city": "SALISBURY",
        "state": "MD",
        "postalCode": "21804-8502"
      },
      {
        "line": [
          "1615 TREE SAP CT STE A"
        ],
        "city": "SALISBURY",
        "state": "MD",
        "postalCode": "21804-9403"
      },
      {
        "line": [
          "elm street"
        ],
        "city": "PRINCESS ANNE",
        "state": "MD",
        "postalCode": "21853-1358"
      },
      {
        "line": [
          "560 Riverside Drive, Suite 204"
        ],
        "city": "SALISBURY",
        "state": "MD",
        "postalCode": "21801-4702"
      },
      {
        "line": [
          "12145 Elm Street"
        ],
        "city": "PRINCESS ANNE",
        "state": "MD",
        "postalCode": "21853-1358"
      },
      {
        "line": [
          "1104 HEALTHWAY DR"
        ],
        "city": "SALISBURY",
        "state": "MD",
        "postalCode": "21804-4469"
      },
      {
        "line": [
          "1647 WOODBROOKE DR"
        ],
        "city": "SALISBURY",
        "state": "MD",
        "postalCode": "21804-8502"
      },
      {
        "line": [
          "100 Power Street"
        ],
        "city": "SALISBURY",
        "state": "MD",
        "postalCode": "21804-8502"
      }
    ],
    "extension": [
      {
        "url": "https://fhir.athena.io/StructureDefinition/ah-practice",
        "valueReference": {
          "reference": "Organization/a-1.Practice-3167"
        }
      },
      {
        "url": "https://fhir.athena.io/StructureDefinition/ah-brand",
        "valueReference": {
          "reference": "Organization/a-3167.Brand-1"
        }
      }
    ]
  },
  "fullUrl": "urn:uuid:a8cbe3f8-2f2b-53b9-900f-c6833f15fc32"
}