{
  "resource": {
    "resourceType": "Organization",
    "id": "c48398bc-d1de-5ab6-9b0a-513e3486fece",
    "name": "East Florida Premium Medical Care",
    "endpoint": [
      {
        "reference": "Endpoint/27a4e967-47aa-5a9c-a572-b8297ee268a2"
      },
      {
        "reference": "Endpoint/8bc571fe-da77-5b01-9e83-18da8ea0091a"
      }
    ],
    "identifier": [
      {
        "system": "http://hl7.org/fhir/sid/us-npi",
        "value": "1326312125"
      }
    ],
    "address": [
      {
        "line": [
          "434 SE 3RD ST"
        ],
        "city": "DANIA",
        "state": "FL",
        "postalCode": "33004-4014"
      },
      {
        "line": [
          "1350 SE 3RD TER"
        ],
        "city": "DEERFIELD BEACH",
        "state": "FL",
        "postalCode": "33441-6735"
      },
      {
        "line": [
          "45 SE 7TH ST"
        ],
        "city": "DANIA",
        "state": "FL",
        "postalCode": "33004-4318"
      },
      {
        "line": [
          "2436 SW 30TH AVE"
        ],
        "city": "FORT LAUDERDALE",
        "state": "FL",
        "postalCode": "33312-4722"
      },
      {
        "line": [
          "7421 N UNIVERSITY DRV STE 314"
        ],
        "city": "FORT LAUDERDALE",
        "state": "FL",
        "postalCode": "33321-2952"
      },
      {
        "line": [
          "2500 ANDORA PL"
        ],
        "city": "MIRAMAR",
        "state": "FL",
        "postalCode": "33025-2557"
      },
      {
        "line": [
          "30110 SW 145TH CT"
        ],
        "city": "HOMESTEAD",
        "state": "FL",
        "postalCode": "33033-3916"
      },
      {
        "line": [
          "421 SW 28TH RD"
        ],
        "city": "MIAMI",
        "state": "FL",
        "postalCode": "33129-2618"
      },
      {
        "line": [
          "2808 NW 14TH CT"
        ],
        "city": "FORT LAUDERDALE",
        "state": "FL",
        "postalCode": "33311-5136"
      },
      {
        "line": [
          "3377 SW 29 Terr"
        ],
        "city": "MIAMI",
        "state": "FL",
        "postalCode": "33133-3605"
      },
      {
        "line": [
          "2810 NW 14TH CT"
        ],
        "city": "FORT LAUDERDALE",
        "state": "FL",
        "postalCode": "33311-5136"
      },
      {
        "line": [
          "21321 SW 128TH CT"
        ],
        "city": "MIAMI",
        "state": "FL",
        "postalCode": "33177-7421"
      },
      {
        "line": [
          "3501 N 30TH TER"
        ],
        "city": "HOLLYWOOD",
        "state": "FL",
        "postalCode": "33021-2602"
      },
      {
        "line": [
          "6071 NW 198TH TER"
        ],
        "city": "HIALEAH",
        "state": "FL",
        "postalCode": "33015-4857"
      }
    ],
    "extension": [
      {
        "url": "https://fhir.athena.io/StructureDefinition/ah-practice",
        "valueReference": {
          "reference": "Organization/a-1.Practice-24672"
        }
      },
      {
        "url": "https://fhir.athena.io/StructureDefinition/ah-brand",
        "valueReference": {
          "reference": "Organization/a-24672.Brand-1"
        }
      }
    ]
  },
  "fullUrl": "urn:uuid:c48398bc-d1de-5ab6-9b0a-513e3486fece"
}