{
  "resource": {
    "resourceType": "Organization",
    "id": "1c35ebdd-f2b1-58dd-a107-81f50838ed5c",
    "name": "Aesthetica LA",
    "endpoint": [
      {
        "reference": "Endpoint/27a4e967-47aa-5a9c-a572-b8297ee268a2"
      },
      {
        "reference": "Endpoint/2fddfed1-e094-55d9-9b80-f62aeee3ace7"
      }
    ],
    "identifier": [
      {
        "system": "http://hl7.org/fhir/sid/us-npi",
        "value": "1447442595"
      },
      {
        "system": "http://hl7.org/fhir/sid/us-npi",
        "value": "1245728443"
      }
    ],
    "address": [
      {
        "line": [
          "7240 medical center drive"
        ],
        "city": "WEST HILLS",
        "state": "CA",
        "postalCode": "91307-1906"
      },
      {
        "line": [
          "18321 Clark St"
        ],
        "city": "TARZANA",
        "state": "CA",
        "postalCode": "91356-3501"
      },
      {
        "line": [
          "7301 MEDICAL CENTER DR.",
          "SUITE 208"
        ],
        "city": "WEST HILLS",
        "state": "CA",
        "postalCode": "91307-1968"
      },
      {
        "line": [
          "7300 medical center dr"
        ],
        "city": "WEST HILLS",
        "state": "CA",
        "postalCode": "91307-1902"
      },
      {
        "line": [
          "18300 roscoe blvd"
        ],
        "city": "NORTHRIDGE",
        "state": "CA",
        "postalCode": "91325-4105"
      },
      {
        "line": [
          "1509 Wilson Terrace"
        ],
        "city": "GLENDALE",
        "state": "CA",
        "postalCode": "91206-4007"
      },
      {
        "line": [
          "2121 Santa Monica Blvd."
        ],
        "city": "SANTA MONICA",
        "state": "CA",
        "postalCode": "90404-2303"
      },
      {
        "line": [
          "7301 medical center drive",
          "suite#208"
        ],
        "city": "WEST HILLS",
        "state": "CA",
        "postalCode": "91307-1968"
      },
      {
        "line": [
          "15107 vanowen"
        ],
        "city": "VAN NUYS",
        "state": "CA",
        "postalCode": "91405-4542"
      },
      {
        "line": [
          "18300 roscoe blvd."
        ],
        "city": "NORTHRIDGE",
        "state": "CA",
        "postalCode": "91325-4105"
      },
      {
        "line": [
          "7300 Medical Center Dr,"
        ],
        "city": "WEST HILLS",
        "state": "CA",
        "postalCode": "91307-1902"
      },
      {
        "line": [
          "1500 E chevy chase drive"
        ],
        "city": "GLENDALE",
        "state": "CA",
        "postalCode": "91206-4152"
      },
      {
        "line": [
          "2121 Santa Monica Blvd"
        ],
        "city": "SANTA MONICA",
        "state": "CA",
        "postalCode": "90401-2303"
      },
      {
        "line": [
          "8670 WILSHIRE BLVD",
          "Suite 300"
        ],
        "city": "BEVERLY HILLS",
        "state": "CA",
        "postalCode": "90211-2930"
      },
      {
        "line": [
          "18133 VENTURA BLVD"
        ],
        "city": "TARZANA",
        "state": "CA",
        "postalCode": "91356-3612"
      },
      {
        "line": [
          "2121 Santa Monica"
        ],
        "city": "SANTA MONICA",
        "state": "CA",
        "postalCode": "90404-2303"
      }
    ],
    "extension": [
      {
        "url": "https://fhir.athena.io/StructureDefinition/ah-practice",
        "valueReference": {
          "reference": "Organization/a-1.Practice-15161"
        }
      },
      {
        "url": "https://fhir.athena.io/StructureDefinition/ah-brand",
        "valueReference": {
          "reference": "Organization/a-15161.Brand-1"
        }
      }
    ]
  },
  "fullUrl": "urn:uuid:1c35ebdd-f2b1-58dd-a107-81f50838ed5c"
}