{
  "resource": {
    "resourceType": "Organization",
    "id": "2850d11a-3c28-562a-86e7-c5dee387aacd",
    "name": "Admin",
    "endpoint": [
      {
        "reference": "Endpoint/27a4e967-47aa-5a9c-a572-b8297ee268a2"
      },
      {
        "reference": "Endpoint/fd2b3a65-cd16-532f-8c87-e3606aeaa102"
      }
    ],
    "identifier": [
      {
        "system": "http://hl7.org/fhir/sid/us-npi",
        "value": "1356388599"
      }
    ],
    "address": [
      {
        "line": [
          "625 N MAIN ST"
        ],
        "city": "GREENSBORO",
        "state": "MD",
        "postalCode": "21639-1469"
      },
      {
        "line": [
          "301 RANDOLPH STREET"
        ],
        "city": "DENTON",
        "state": "MD",
        "postalCode": "21629-1243"
      },
      {
        "line": [
          "503 A Muir St"
        ],
        "city": "CAMBRIDGE",
        "state": "MD",
        "postalCode": "21613-1848"
      },
      {
        "line": [
          "215 Bloomingdale Ave"
        ],
        "city": "FEDERALSBURG",
        "state": "MD",
        "postalCode": "21632-1012"
      },
      {
        "line": [
          "231 RUTHSBURG RD"
        ],
        "city": "CENTREVILLE",
        "state": "MD",
        "postalCode": "21617-2096"
      },
      {
        "line": [
          "402 East Campus Avenue"
        ],
        "city": "CHESTERTOWN",
        "state": "MD",
        "postalCode": "21620-1608"
      },
      {
        "line": [
          "316 Railroad Ave"
        ],
        "city": "GOLDSBORO",
        "state": "MD",
        "postalCode": "21636-0122"
      },
      {
        "line": [
          "808 S. 5th Ave"
        ],
        "city": "DENTON",
        "state": "MD",
        "postalCode": "21629-1392"
      },
      {
        "line": [
          "21203 W SHARP ST"
        ],
        "city": "ROCK HALL",
        "state": "MD",
        "postalCode": "21661-1517"
      },
      {
        "line": [
          "126 PHILOSOPHERS TER",
          "Suite 101"
        ],
        "city": "CHESTERTOWN",
        "state": "MD",
        "postalCode": "21620-1715"
      },
      {
        "line": [
          "125 RUTHSBURG RD"
        ],
        "city": "CENTREVILLE",
        "state": "MD",
        "postalCode": "21617-2095"
      },
      {
        "line": [
          "522 CYNWOOD DR"
        ],
        "city": "EASTON",
        "state": "MD",
        "postalCode": "21601-3876"
      },
      {
        "line": [
          "301 Randolph St",
          "301 Randolph St"
        ],
        "city": "DENTON",
        "state": "MD",
        "postalCode": "21629-1243"
      },
      {
        "line": [
          "301 Randolph Street"
        ],
        "city": "DENTON",
        "state": "MD",
        "postalCode": "21629-2162"
      },
      {
        "line": [
          "522 CYNWOOD DR STE 100"
        ],
        "city": "EASTON",
        "state": "MD",
        "postalCode": "21601-3805"
      },
      {
        "line": [
          "600 Charles Street"
        ],
        "city": "SUDLERSVILLE",
        "state": "MD",
        "postalCode": "21668-1532"
      },
      {
        "line": [
          "320 Calvert Street"
        ],
        "city": "CHESTERTOWN",
        "state": "MD",
        "postalCode": "21620-1304"
      },
      {
        "line": [
          "114 South Main Street"
        ],
        "city": "GALENA",
        "state": "MD",
        "postalCode": "21635-1525"
      },
      {
        "line": [
          "808 S 5th Street"
        ],
        "city": "DENTON",
        "state": "MD",
        "postalCode": "21629-1398"
      },
      {
        "line": [
          "300 South Church Street"
        ],
        "city": "SUDLERSVILLE",
        "state": "MD",
        "postalCode": "21668-1503"
      },
      {
        "line": [
          "808 S 5TH AVE"
        ],
        "city": "DENTON",
        "state": "MD",
        "postalCode": "21629-1398"
      },
      {
        "line": [
          "126 Philosophers Terrace"
        ],
        "city": "CHESTERTOWN",
        "state": "MD",
        "postalCode": "21620-1715"
      },
      {
        "line": [
          "631 Main Street"
        ],
        "city": "CHURCH HILL",
        "state": "MD",
        "postalCode": "21623-1201"
      },
      {
        "line": [
          "933 Talbot St Unit 4"
        ],
        "city": "SAINT MICHAELS",
        "state": "MD",
        "postalCode": "21663-2637"
      },
      {
        "line": [
          "25301 Lambs Meadow Road"
        ],
        "city": "WORTON",
        "state": "MD",
        "postalCode": "21678-1924"
      }
    ],
    "extension": [
      {
        "url": "https://fhir.athena.io/StructureDefinition/ah-practice",
        "valueReference": {
          "reference": "Organization/a-1.Practice-20853"
        }
      },
      {
        "url": "https://fhir.athena.io/StructureDefinition/ah-brand",
        "valueReference": {
          "reference": "Organization/a-20853.Brand-1"
        }
      }
    ]
  },
  "fullUrl": "urn:uuid:2850d11a-3c28-562a-86e7-c5dee387aacd"
}