{
  "resource": {
    "resourceType": "Organization",
    "id": "27723161-7b77-5d03-a30b-be3bed6f0647",
    "name": "Halifax Health Clinics",
    "endpoint": [
      {
        "reference": "Endpoint/27a4e967-47aa-5a9c-a572-b8297ee268a2"
      },
      {
        "reference": "Endpoint/e5c751d2-d1a8-5090-b945-262a7130f441"
      }
    ],
    "identifier": [
      {
        "system": "http://hl7.org/fhir/sid/us-npi",
        "value": "1245283530"
      }
    ],
    "address": [
      {
        "line": [
          "303 N Clyde Morris Blvd"
        ],
        "city": "DAYTONA BEACH",
        "state": "FL",
        "postalCode": "32114-2709"
      },
      {
        "line": [
          "1041 Dunlawton Ave"
        ],
        "city": "PORT ORANGE",
        "state": "FL",
        "postalCode": "32127-7968"
      },
      {
        "line": [
          "3300 Halifax Crossing Blvd"
        ],
        "city": "DELTONA",
        "state": "FL",
        "postalCode": "32725-2909"
      },
      {
        "line": [
          "1890 LPGA BLVD STE 240"
        ],
        "city": "DAYTONA BEACH",
        "state": "FL",
        "postalCode": "32117-7131"
      },
      {
        "line": [
          "415 S. Timberlane Dr."
        ],
        "city": "NEW SMYRNA BEACH",
        "state": "FL",
        "postalCode": "32168-8261"
      },
      {
        "line": [
          "303 N Clyde Morris Blvd"
        ],
        "city": "DAYTONA BEACH",
        "state": "FL",
        "postalCode": "32114-2765"
      },
      {
        "line": [
          "1511 MANGO TREE DR"
        ],
        "city": "EDGEWATER",
        "state": "FL",
        "postalCode": "32132-2607"
      },
      {
        "line": [
          "200 POINCIANA AVE"
        ],
        "city": "PORT ORANGE",
        "state": "FL",
        "postalCode": "32127-6318"
      },
      {
        "line": [
          "2010 S RIDGEWOOD AVE"
        ],
        "city": "EDGEWATER",
        "state": "FL",
        "postalCode": "32141-4253"
      },
      {
        "line": [
          "650 COLBERT LN"
        ],
        "city": "PALM COAST",
        "state": "FL",
        "postalCode": "32137-4503"
      },
      {
        "line": [
          "3704 CARDINAL BLVD"
        ],
        "city": "DAYTONA BEACH",
        "state": "FL",
        "postalCode": "32118-7301"
      },
      {
        "line": [
          "1890 LPGA BLVD"
        ],
        "city": "DAYTONA BEACH",
        "state": "FL",
        "postalCode": "32117-7130"
      },
      {
        "line": [
          "3875 YORKTOWNE BLVD"
        ],
        "city": "PORT ORANGE",
        "state": "FL",
        "postalCode": "32129-6051"
      },
      {
        "line": [
          "1041 DUNLAWTON AVE"
        ],
        "city": "PORT ORANGE",
        "state": "FL",
        "postalCode": "32127-7968"
      },
      {
        "line": [
          "201 N Clyde Morris Blvd. Suite 200"
        ],
        "city": "DAYTONA BEACH",
        "state": "FL",
        "postalCode": "32114-2765"
      },
      {
        "line": [
          "3635 CLYDE MORRIS BLVD"
        ],
        "city": "PORT ORANGE",
        "state": "FL",
        "postalCode": "32129-2300"
      },
      {
        "line": [
          "595 W GRANADA BLVD"
        ],
        "city": "ORMOND BEACH",
        "state": "FL",
        "postalCode": "32174-5190"
      },
      {
        "line": [
          "8 MIRROR LAKE DR"
        ],
        "city": "ORMOND BEACH",
        "state": "FL",
        "postalCode": "32174-3101"
      },
      {
        "line": [
          "955 VILLAGE TRL"
        ],
        "city": "PORT ORANGE",
        "state": "FL",
        "postalCode": "32127-8916"
      },
      {
        "line": [
          "1675 Dunlawton Ave"
        ],
        "city": "PORT ORANGE",
        "state": "FL",
        "postalCode": "32127-4755"
      }
    ],
    "extension": [
      {
        "url": "https://fhir.athena.io/StructureDefinition/ah-practice",
        "valueReference": {
          "reference": "Organization/a-1.Practice-16462"
        }
      },
      {
        "url": "https://fhir.athena.io/StructureDefinition/ah-brand",
        "valueReference": {
          "reference": "Organization/a-16462.Brand-2"
        }
      }
    ]
  },
  "fullUrl": "urn:uuid:27723161-7b77-5d03-a30b-be3bed6f0647"
}