{
  "resource": {
    "resourceType": "Organization",
    "id": "9a524e9f-aa1d-5ce8-8844-1666a862a23f",
    "name": "Aunt Martha's Health and Wellness",
    "endpoint": [
      {
        "reference": "Endpoint/27a4e967-47aa-5a9c-a572-b8297ee268a2"
      },
      {
        "reference": "Endpoint/791a27f9-f11a-5db2-ab0e-168097c51c47"
      }
    ],
    "identifier": [
      {
        "system": "http://hl7.org/fhir/sid/us-npi",
        "value": "1619104098"
      }
    ],
    "address": [
      {
        "line": [
          "17800 Kedzie Ave"
        ],
        "city": "HAZEL CREST",
        "state": "IL",
        "postalCode": "60429-2029"
      },
      {
        "line": [
          "1777 East Court Street"
        ],
        "city": "KANKAKEE",
        "state": "IL",
        "postalCode": "60901-2670"
      },
      {
        "line": [
          "2124 Ogden Avenue",
          "Unit 201"
        ],
        "city": "AURORA",
        "state": "IL",
        "postalCode": "60504-7542"
      },
      {
        "line": [
          "5001 South Michigan Avenue"
        ],
        "city": "CHICAGO",
        "state": "IL",
        "postalCode": "60615-2112"
      },
      {
        "line": [
          "2219 W. Jefferson St."
        ],
        "city": "JOLIET",
        "state": "IL",
        "postalCode": "60435-8200"
      },
      {
        "line": [
          "1536 Vincennes Avenue"
        ],
        "city": "CHICAGO HEIGHTS",
        "state": "IL",
        "postalCode": "60411-1741"
      },
      {
        "line": [
          "614 North Gilbert Street"
        ],
        "city": "DANVILLE",
        "state": "IL",
        "postalCode": "61832-3940"
      },
      {
        "line": [
          "15420 Dixie Highway"
        ],
        "city": "SOUTH HOLLAND",
        "state": "IL",
        "postalCode": "60473-2061"
      },
      {
        "line": [
          "2229 W. Jefferson St."
        ],
        "city": "JOLIET",
        "state": "IL",
        "postalCode": "60435-8200"
      },
      {
        "line": [
          "3703 Doty Rd",
          "MOB 1 Suite 1"
        ],
        "city": "WOODSTOCK",
        "state": "IL",
        "postalCode": "60098-7517"
      },
      {
        "line": [
          "45 W. 111th"
        ],
        "city": "CHICAGO",
        "state": "IL",
        "postalCode": "60628-4200"
      },
      {
        "line": [
          "4840 W BYRON ST"
        ],
        "city": "CHICAGO",
        "state": "IL",
        "postalCode": "60641-2712"
      },
      {
        "line": [
          "3703 Doty Road",
          "MOB1 Suite 1"
        ],
        "city": "WOODSTOCK",
        "state": "IL",
        "postalCode": "60098-7517"
      },
      {
        "line": [
          "1200 Eagle Street"
        ],
        "city": "JOLIET",
        "state": "IL",
        "postalCode": "60432-2010"
      },
      {
        "line": [
          "800 N Logan Ave",
          "Suite 106"
        ],
        "city": "DANVILLE",
        "state": "IL",
        "postalCode": "61832-3741"
      },
      {
        "line": [
          "1401 E State St",
          "Suite 3000"
        ],
        "city": "ROCKFORD",
        "state": "IL",
        "postalCode": "61104-2315"
      },
      {
        "line": [
          "2641 W DIVISION ST"
        ],
        "city": "CHICAGO",
        "state": "IL",
        "postalCode": "60622-6107"
      },
      {
        "line": [
          "500 Dixie Highway"
        ],
        "city": "CHICAGO HEIGHTS",
        "state": "IL",
        "postalCode": "60411-1744"
      },
      {
        "line": [
          "1425 N Randall Rd"
        ],
        "city": "ELGIN",
        "state": "IL",
        "postalCode": "60123-2300"
      },
      {
        "line": [
          "1200 Eagle St"
        ],
        "city": "JOLIET",
        "state": "IL",
        "postalCode": "60432-2056"
      },
      {
        "line": [
          "1536 Vincennes Ave"
        ],
        "city": "CHICAGO HEIGHTS",
        "state": "IL",
        "postalCode": "60411-3458"
      },
      {
        "line": [
          "3528 E 118th St"
        ],
        "city": "CHICAGO",
        "state": "IL",
        "postalCode": "60617-7314"
      },
      {
        "line": [
          "1777 East Court St"
        ],
        "city": "KANKAKEE",
        "state": "IL",
        "postalCode": "60901-2670"
      },
      {
        "line": [
          "15420 Dixie Highway"
        ],
        "city": "HARVEY",
        "state": "IL",
        "postalCode": "60426-3478"
      },
      {
        "line": [
          "17850 South Kedzie Avenue",
          "Suite 1150"
        ],
        "city": "HAZEL CREST",
        "state": "IL",
        "postalCode": "60429-2058"
      },
      {
        "line": [
          "1401E State St",
          "Suite 3000"
        ],
        "city": "ROCKFORD",
        "state": "IL",
        "postalCode": "61104-2315"
      },
      {
        "line": [
          "420 NE Glen Oak Ave",
          "1st Floor"
        ],
        "city": "PEORIA",
        "state": "IL",
        "postalCode": "61603-3106"
      },
      {
        "line": [
          "1536 Vincennes Avenue"
        ],
        "city": "CHICAGO HEIGHTS",
        "state": "IL",
        "postalCode": "60411-3458"
      },
      {
        "line": [
          "3003 Wakefield Drive"
        ],
        "city": "CARPENTERSVILLE",
        "state": "IL",
        "postalCode": "60110-2422"
      },
      {
        "line": [
          "233 W Joe Orr Rd",
          "South Bldg"
        ],
        "city": "CHICAGO HEIGHTS",
        "state": "IL",
        "postalCode": "60411-1744"
      },
      {
        "line": [
          "20201 S. Crawford Ave"
        ],
        "city": "OLYMPIA FIELDS",
        "state": "IL",
        "postalCode": "60461-1010"
      },
      {
        "line": [
          "120 E Court St"
        ],
        "city": "TOULON",
        "state": "IL",
        "postalCode": "61483-5288"
      },
      {
        "line": [
          "233 West Joe Orr Road",
          "South Building"
        ],
        "city": "CHICAGO HEIGHTS",
        "state": "IL",
        "postalCode": "60411-1744"
      },
      {
        "line": [
          "52 West 162nd St"
        ],
        "city": "SOUTH HOLLAND",
        "state": "IL",
        "postalCode": "60473-2061"
      },
      {
        "line": [
          "680 South River Street"
        ],
        "city": "AURORA",
        "state": "IL",
        "postalCode": "60506-5552"
      },
      {
        "line": [
          "19990 GOVERNORS HWY"
        ],
        "city": "OLYMPIA FIELDS",
        "state": "IL",
        "postalCode": "60461-1021"
      },
      {
        "line": [
          "3003 Wakefield Dr"
        ],
        "city": "CARPENTERSVILLE",
        "state": "IL",
        "postalCode": "60110-2422"
      },
      {
        "line": [
          "500 DIXIE HWY"
        ],
        "city": "CHICAGO HEIGHTS",
        "state": "IL",
        "postalCode": "60411-1741"
      },
      {
        "line": [
          "45 W 111th St"
        ],
        "city": "CHICAGO",
        "state": "IL",
        "postalCode": "60628-4200"
      },
      {
        "line": [
          "3528 East 118th"
        ],
        "city": "CHICAGO",
        "state": "IL",
        "postalCode": "60617-7314"
      },
      {
        "line": [
          "614 N Gilbert"
        ],
        "city": "DANVILLE",
        "state": "IL",
        "postalCode": "61832-3940"
      },
      {
        "line": [
          "3528 East 118th Street"
        ],
        "city": "CHICAGO",
        "state": "IL",
        "postalCode": "60617-7314"
      },
      {
        "line": [
          "3703 Doty Road",
          "MOB 1 Suite 1"
        ],
        "city": "WOODSTOCK",
        "state": "IL",
        "postalCode": "60098-7517"
      },
      {
        "line": [
          "5001 S. Michigan Ave"
        ],
        "city": "CHICAGO",
        "state": "IL",
        "postalCode": "60615-2112"
      },
      {
        "line": [
          "200 E Walnut St"
        ],
        "city": "WATSEKA",
        "state": "IL",
        "postalCode": "60970-1356"
      },
      {
        "line": [
          "8640 S. South Chicago"
        ],
        "city": "CHICAGO",
        "state": "IL",
        "postalCode": "60617-2314"
      },
      {
        "line": [
          "233 W Joe Orr Road",
          "South Building"
        ],
        "city": "CHICAGO HEIGHTS",
        "state": "IL",
        "postalCode": "60411-1744"
      },
      {
        "line": [
          "52 West 162nd Street"
        ],
        "city": "SOUTH HOLLAND",
        "state": "IL",
        "postalCode": "60473-2061"
      },
      {
        "line": [
          "19990 Governors Higways"
        ],
        "city": "OLYMPIA FIELDS",
        "state": "IL",
        "postalCode": "60461-1021"
      },
      {
        "line": [
          "1760 West Algonquin Road",
          "Suite 100"
        ],
        "city": "PALATINE",
        "state": "IL",
        "postalCode": "60067-4791"
      },
      {
        "line": [
          "1401 E. State St",
          "Suite 3000"
        ],
        "city": "ROCKFORD",
        "state": "IL",
        "postalCode": "61104-2315"
      },
      {
        "line": [
          "500 Dixie Highway"
        ],
        "city": "CHICAGO HEIGHTS",
        "state": "IL",
        "postalCode": "60411-1741"
      },
      {
        "line": [
          "12139 South Western",
          "Suite B"
        ],
        "city": "BLUE ISLAND",
        "state": "IL",
        "postalCode": "60406-1387"
      },
      {
        "line": [
          "2124 Ogden Avenue",
          "Unit 201"
        ],
        "city": "AURORA",
        "state": "IL",
        "postalCode": "60504-7642"
      },
      {
        "line": [
          "1760 W Algonquin Rd"
        ],
        "city": "PALATINE",
        "state": "IL",
        "postalCode": "60067-4791"
      },
      {
        "line": [
          "20201 S. Crawford AVe"
        ],
        "city": "OLYMPIA FIELDS",
        "state": "IL",
        "postalCode": "60461-1010"
      }
    ],
    "extension": [
      {
        "url": "https://fhir.athena.io/StructureDefinition/ah-practice",
        "valueReference": {
          "reference": "Organization/a-1.Practice-13826"
        }
      },
      {
        "url": "https://fhir.athena.io/StructureDefinition/ah-brand",
        "valueReference": {
          "reference": "Organization/a-13826.Brand-4"
        }
      }
    ]
  },
  "fullUrl": "urn:uuid:9a524e9f-aa1d-5ce8-8844-1666a862a23f"
}