{
  "resource": {
    "resourceType": "Organization",
    "id": "6547265a-12f0-55a5-965c-9d49c705e4f7",
    "name": "United Family Medical Center",
    "endpoint": [
      {
        "reference": "Endpoint/27a4e967-47aa-5a9c-a572-b8297ee268a2"
      },
      {
        "reference": "Endpoint/5ba4beeb-b522-5b6a-bfe9-1f2d7ade1508"
      }
    ],
    "identifier": [
      {
        "system": "http://hl7.org/fhir/sid/us-npi",
        "value": "1275312530"
      }
    ],
    "address": [
      {
        "line": [
          "1 Wallace Bashaw Junior Way",
          "suite 1002"
        ],
        "city": "NEWBURYPORT",
        "state": "MA",
        "postalCode": "01950-3879"
      },
      {
        "line": [
          "6 HALE ST"
        ],
        "city": "NEWBURYPORT",
        "state": "MA",
        "postalCode": "01950-3502"
      },
      {
        "line": [
          "85 STOREY AVE"
        ],
        "city": "NEWBURYPORT",
        "state": "MA",
        "postalCode": "01950-3571"
      },
      {
        "line": [
          "63 Locust St"
        ],
        "city": "DANVERS",
        "state": "MA",
        "postalCode": "01923-2240"
      },
      {
        "line": [
          "19 BEACH RD"
        ],
        "city": "SALISBURY",
        "state": "MA",
        "postalCode": "01952-2014"
      },
      {
        "line": [
          "298 EXETER RD"
        ],
        "city": "HAMPTON",
        "state": "NH",
        "postalCode": "03842-1044"
      },
      {
        "line": [
          "1 WALLACE BASHAW WAY STE 1002"
        ],
        "city": "NEWBURYPORT",
        "state": "MA",
        "postalCode": "01950-3876"
      },
      {
        "line": [
          "226 Lincoln Ave"
        ],
        "city": "SAUGUS",
        "state": "MA",
        "postalCode": "01906-3037"
      },
      {
        "line": [
          "6 MORRILL PL"
        ],
        "city": "AMESBURY",
        "state": "MA",
        "postalCode": "01913-3502"
      }
    ],
    "extension": [
      {
        "url": "https://fhir.athena.io/StructureDefinition/ah-practice",
        "valueReference": {
          "reference": "Organization/a-1.Practice-30018"
        }
      },
      {
        "url": "https://fhir.athena.io/StructureDefinition/ah-brand",
        "valueReference": {
          "reference": "Organization/a-30018.Brand-1"
        }
      }
    ]
  },
  "fullUrl": "urn:uuid:6547265a-12f0-55a5-965c-9d49c705e4f7"
}