{
  "resource": {
    "resourceType": "Organization",
    "id": "42e62373-9156-52ca-8adf-9024f4e68642",
    "name": "Bethesda West ASC",
    "endpoint": [
      {
        "reference": "Endpoint/27a4e967-47aa-5a9c-a572-b8297ee268a2"
      },
      {
        "reference": "Endpoint/5b2572f0-5411-58b1-8066-329c21ede926"
      }
    ],
    "identifier": [
      {
        "system": "http://hl7.org/fhir/sid/us-npi",
        "value": "1881804094"
      }
    ],
    "address": [
      {
        "line": [
          "11000 Prosperity Farms Rd",
          "Suite 206"
        ],
        "city": "PALM BEACH GARDENS",
        "state": "FL",
        "postalCode": "33410-3462"
      },
      {
        "line": [
          "200 NORTHPOINT PKWY"
        ],
        "city": "WEST PALM BEACH",
        "state": "FL",
        "postalCode": "33407-1967"
      },
      {
        "line": [
          "901 45th Street"
        ],
        "city": "WEST PALM BEACH",
        "state": "FL",
        "postalCode": "33407-2413"
      },
      {
        "line": [
          "3347 S State Road 7"
        ],
        "city": "Wellington",
        "state": "FL",
        "postalCode": "33449-8905"
      },
      {
        "line": [
          "1210 S OLD DIXIE HWY"
        ],
        "city": "JUPITER",
        "state": "FL",
        "postalCode": "33458-7205"
      },
      {
        "line": [
          "5405 Okeechobee Blvd",
          "Suite 100"
        ],
        "city": "WEST PALM BEACH",
        "state": "FL",
        "postalCode": "33417-4544"
      },
      {
        "line": [
          "6414 13TH RD S"
        ],
        "city": "WEST PALM BEACH",
        "state": "FL",
        "postalCode": "33415-1401"
      },
      {
        "line": [
          "4847 David S Mach Dr"
        ],
        "city": "WEST PALM BEACH",
        "state": "FL",
        "postalCode": "33417-8023"
      },
      {
        "line": [
          "3060 Melaleuca Lane"
        ],
        "city": "LAKE WORTH",
        "state": "FL",
        "postalCode": "33461-5174"
      },
      {
        "line": [
          "13005 Southern Blvd",
          "Suite 111"
        ],
        "city": "LOXAHATCHEE",
        "state": "FL",
        "postalCode": "33470-9231"
      },
      {
        "line": [
          "2815 S Seacrest Blvd"
        ],
        "city": "BOYNTON BEACH",
        "state": "FL",
        "postalCode": "33435-7934"
      },
      {
        "line": [
          "2326 S CONGRESS AVE"
        ],
        "city": "WEST PALM BEACH",
        "state": "FL",
        "postalCode": "33406-7617"
      },
      {
        "line": [
          "2326 S. CONGRESS AVE",
          "SUITE 1A"
        ],
        "city": "WEST PALM BEACH",
        "state": "FL",
        "postalCode": "33406-7652"
      },
      {
        "line": [
          "201 W INDIANTOWN RD"
        ],
        "city": "JUPITER",
        "state": "FL",
        "postalCode": "33458-3533"
      },
      {
        "line": [
          "2815 S SEACREST BLVD"
        ],
        "city": "BOYNTON BEACH",
        "state": "FL",
        "postalCode": "33435-7969"
      },
      {
        "line": [
          "10301 Hagen Ranch Rd"
        ],
        "city": "BOYNTON BEACH",
        "state": "FL",
        "postalCode": "33437-3724"
      },
      {
        "line": [
          "2815 S SEACREST BLVD"
        ],
        "city": "BOYNTON BEACH",
        "state": "FL",
        "postalCode": "33435-7934"
      },
      {
        "line": [
          "2326 S Congress Avenue",
          "Suite 1A"
        ],
        "city": "WEST PALM BEACH",
        "state": "FL",
        "postalCode": "33406-7652"
      },
      {
        "line": [
          "901 45TH ST"
        ],
        "city": "WEST PALM BEACH",
        "state": "FL",
        "postalCode": "33407-2413"
      }
    ],
    "extension": [
      {
        "url": "https://fhir.athena.io/StructureDefinition/ah-practice",
        "valueReference": {
          "reference": "Organization/a-1.Practice-28764"
        }
      },
      {
        "url": "https://fhir.athena.io/StructureDefinition/ah-brand",
        "valueReference": {
          "reference": "Organization/a-28764.Brand-1"
        }
      }
    ]
  },
  "fullUrl": "urn:uuid:42e62373-9156-52ca-8adf-9024f4e68642"
}