{
  "resource": {
    "resourceType": "Organization",
    "id": "6a8de875-8ab3-51b4-b33e-8d55a569da8b",
    "name": "MountainView Medical Group",
    "endpoint": [
      {
        "reference": "Endpoint/27a4e967-47aa-5a9c-a572-b8297ee268a2"
      },
      {
        "reference": "Endpoint/c5554a6c-83b9-596a-8404-e663223f219a"
      }
    ],
    "identifier": [
      {
        "system": "http://hl7.org/fhir/sid/us-npi",
        "value": "1215079678"
      },
      {
        "system": "http://hl7.org/fhir/sid/us-npi",
        "value": "1669708467"
      }
    ],
    "address": [
      {
        "line": [],
        "city": "LAS CRUCES",
        "state": "NM",
        "postalCode": "88011-8255"
      },
      {
        "line": [
          "4311 E LOHMAN AVE"
        ],
        "city": "LAS CRUCES",
        "state": "NM",
        "postalCode": "88011-8255"
      },
      {
        "line": [
          "2029 SAGECREST AVE"
        ],
        "city": "LAS CRUCES",
        "state": "NM",
        "postalCode": "88011-8044"
      },
      {
        "line": [
          "2450 S Telshor Blvd"
        ],
        "city": "LAS CRUCES",
        "state": "NM",
        "postalCode": "88011-5069"
      },
      {
        "line": [
          "45-021 LIKEKE PL"
        ],
        "city": "KANEOHE",
        "state": "HI",
        "postalCode": "96744-2426"
      },
      {
        "line": [
          "1135 S MAIN STE B"
        ],
        "city": "LAS CRUCES",
        "state": "NM",
        "postalCode": "88005-2946"
      },
      {
        "line": [
          "2450 S Telshor Blvd"
        ],
        "city": "LAS CRUCES",
        "state": "NM",
        "postalCode": "88011-5141"
      },
      {
        "line": [
          "2425 S TELSHOR BLVD"
        ],
        "city": "LAS CRUCES",
        "state": "NM",
        "postalCode": "88011-8801"
      },
      {
        "line": [
          "4351 E Lohman Ave Ste 102"
        ],
        "city": "LAS CRUCES",
        "state": "NM",
        "postalCode": "88012-8258"
      },
      {
        "line": [
          "151 S. Walnut Street, Ste C3"
        ],
        "city": "LAS CRUCES",
        "state": "NM",
        "postalCode": "88011-2617"
      },
      {
        "line": [
          "1250 HILLRISE CIR"
        ],
        "city": "LAS CRUCES",
        "state": "NM",
        "postalCode": "88011-4741"
      },
      {
        "line": [
          "26 MEADOW ST"
        ],
        "city": "DEMAREST",
        "state": "NJ",
        "postalCode": "07627-2424"
      },
      {
        "line": [
          "3900 E. Lohman Suite B"
        ],
        "city": "LAS CRUCES",
        "state": "NM",
        "postalCode": "88011-8268"
      },
      {
        "line": [
          "17161 FRIML LN"
        ],
        "city": "HUNTINGTON BEACH",
        "state": "CA",
        "postalCode": "92649-4510"
      },
      {
        "line": [],
        "city": "LAS CRUCES",
        "state": "NM",
        "postalCode": "88011-8263"
      },
      {
        "line": [
          "4371 E LOHMAN AVE"
        ],
        "city": "LAS CRUCES",
        "state": "NM",
        "postalCode": "88011-9998"
      },
      {
        "line": [
          "435 NAKOMA DR"
        ],
        "city": "ROCKWALL",
        "state": "TX",
        "postalCode": "75087-0087"
      },
      {
        "line": [
          "901 W ASH ST"
        ],
        "city": "DEMING",
        "state": "NM",
        "postalCode": "88030-4000"
      },
      {
        "line": [
          "3751 DEL REY BLVD"
        ],
        "city": "LAS CRUCES",
        "state": "NM",
        "postalCode": "88012-7710"
      },
      {
        "line": [
          "56 LEONARD ST",
          "APT 31BW"
        ],
        "city": "NEW YORK",
        "state": "NY",
        "postalCode": "10013-8303"
      },
      {
        "line": [
          "19 LITTLEFIELD AVE"
        ],
        "city": "TEWKSBURY",
        "state": "MA",
        "postalCode": "01876-1721"
      },
      {
        "line": [
          "4301 E Lohman Ave Ste 200"
        ],
        "city": "LAS CRUCES",
        "state": "NM",
        "postalCode": "88011-8260"
      },
      {
        "line": [
          "2450 S TELSHOR BLVD"
        ],
        "city": "LAS CRUCES",
        "state": "NM",
        "postalCode": "88011-5069"
      },
      {
        "line": [],
        "city": "LAS CRUCES",
        "state": "NM",
        "postalCode": "88011-8258"
      },
      {
        "line": [
          "26815 WEDGEWATER CREST LN"
        ],
        "city": "KATY",
        "state": "TX",
        "postalCode": "77494-3594"
      },
      {
        "line": [
          "4351 E Lohman Ste 208"
        ],
        "city": "LAS CRUCES",
        "state": "NM",
        "postalCode": "88011-8260"
      },
      {
        "line": [
          "616 WINDWARD CIR N"
        ],
        "city": "BOYNTON BEACH",
        "state": "FL",
        "postalCode": "33435-5079"
      },
      {
        "line": [
          "4311 E. LOHMAN AVE."
        ],
        "city": "LAS CRUCES",
        "state": "NM",
        "postalCode": "88011-8255"
      },
      {
        "line": [
          "2474 INDIAN WELLS ROAD STE. A"
        ],
        "city": "ALAMOGORDO",
        "state": "NM",
        "postalCode": "88310-3845"
      },
      {
        "line": [
          "4351 E. Lohman Ave Ste 408"
        ],
        "city": "LAS CRUCES",
        "state": "NM",
        "postalCode": "88011-8261"
      },
      {
        "line": [
          "2450 SOUTH TELSHOR BLVD"
        ],
        "city": "LAS CRUCES",
        "state": "NM",
        "postalCode": "88011-5141"
      },
      {
        "line": [
          "175 N ROADRUNNER PKWY"
        ],
        "city": "LAS CRUCES",
        "state": "NM",
        "postalCode": "88011-8090"
      },
      {
        "line": [
          "4311 E Lohman Ave"
        ],
        "city": "LAS CRUCES",
        "state": "NM",
        "postalCode": "88011-8255"
      },
      {
        "line": [
          "1501 CHERRY LN"
        ],
        "city": "COLLEYVILLE",
        "state": "TX",
        "postalCode": "76034-5522"
      },
      {
        "line": [],
        "city": "LAS CRUCES",
        "state": "NM",
        "postalCode": "88011-9998"
      },
      {
        "line": [
          "4901 PINEHURST DR"
        ],
        "city": "FRISCO",
        "state": "TX",
        "postalCode": "75034-6843"
      },
      {
        "line": [
          "4351 E LOHMAN AVE STE 320"
        ],
        "city": "LAS CRUCES",
        "state": "NM",
        "postalCode": "88011-8260"
      },
      {
        "line": [
          "1005 LUJAN HILL RD"
        ],
        "city": "LAS CRUCES",
        "state": "NM",
        "postalCode": "88007-6304"
      },
      {
        "line": [
          "2450 S. TELSHOR BLVD"
        ],
        "city": "LAS CRUCES",
        "state": "NM",
        "postalCode": "88011-5069"
      },
      {
        "line": [
          "8681 E SWEETWATER AVE"
        ],
        "city": "SCOTTSDALE",
        "state": "AZ",
        "postalCode": "85260-4111"
      },
      {
        "line": [
          "151 S WALNUT ST STE C3"
        ],
        "city": "LAS CRUCES",
        "state": "NM",
        "postalCode": "88011-2617"
      },
      {
        "line": [
          "4351 E LOHMAN AVE STE 201"
        ],
        "city": "LAS CRUCES",
        "state": "NM",
        "postalCode": "88011-8260"
      },
      {
        "line": [
          "2560 Samaritan Dr"
        ],
        "city": "LAS CRUCES",
        "state": "NM",
        "postalCode": "88001-1170"
      },
      {
        "line": [
          "4371 E Lohman Ave"
        ],
        "city": "LAS CRUCES",
        "state": "NM",
        "postalCode": "88011-8255"
      },
      {
        "line": [
          "3025 TERRACE DR"
        ],
        "city": "LAS CRUCES",
        "state": "NM",
        "postalCode": "88011-5053"
      },
      {
        "line": [
          "4351 E LOHMAN AVE STE 310"
        ],
        "city": "LAS CRUCES",
        "state": "NM",
        "postalCode": "88011-8258"
      },
      {
        "line": [
          "4351 E Lohman Ave Ste 102"
        ],
        "city": "LAS CRUCES",
        "state": "NM",
        "postalCode": "88011-8258"
      },
      {
        "line": [
          "1423 ESTUARY TRL"
        ],
        "city": "DELRAY BEACH",
        "state": "FL",
        "postalCode": "33483-5941"
      },
      {
        "line": [
          "4351 E LOHMAN STE 320"
        ],
        "city": "LAS CRUCES",
        "state": "NM",
        "postalCode": "88011-8262"
      },
      {
        "line": [
          "2560 Samaritan Drive"
        ],
        "city": "LAS CRUCES",
        "state": "NM",
        "postalCode": "88001-1170"
      },
      {
        "line": [
          "3329 LAKESHORE DR"
        ],
        "city": "ANNA",
        "state": "TX",
        "postalCode": "75409-3672"
      },
      {
        "line": [
          "4401 E Lohman Ave Ste C"
        ],
        "city": "LAS CRUCES",
        "state": "NM",
        "postalCode": "88011-8267"
      },
      {
        "line": [
          "2905 E MISSOURI AVE"
        ],
        "city": "LAS CRUCES",
        "state": "NM",
        "postalCode": "88011-4813"
      },
      {
        "line": [
          "4351 E LOHMAN AVE STE 202"
        ],
        "city": "LAS CRUCES",
        "state": "NM",
        "postalCode": "88011-8260"
      },
      {
        "line": [
          "4351 E. Lohman Ave Ste 208"
        ],
        "city": "LAS CRUCES",
        "state": "NM",
        "postalCode": "88011-8260"
      },
      {
        "line": [
          "4351 E LOHMAN AVE",
          "STE 100"
        ],
        "city": "LAS CRUCES",
        "state": "NM",
        "postalCode": "88011-8258"
      },
      {
        "line": [
          "4441 E Lohman Ave"
        ],
        "city": "LAS CRUCES",
        "state": "NM",
        "postalCode": "88011-8267"
      },
      {
        "line": [
          "2884 N. Roadrunner Pkwy"
        ],
        "city": "LAS CRUCES",
        "state": "NM",
        "postalCode": "88011-0853"
      },
      {
        "line": [
          "1135 S MAIN ST STE B"
        ],
        "city": "LAS CRUCES",
        "state": "NM",
        "postalCode": "88005-2946"
      },
      {
        "line": [
          "3434 CLUB ESTATES DR"
        ],
        "city": "CARMEL",
        "state": "IN",
        "postalCode": "46033-8118"
      },
      {
        "line": [
          "2908 HILLRISE DR"
        ],
        "city": "LAS CRUCES",
        "state": "NM",
        "postalCode": "88011-4702"
      },
      {
        "line": [
          "175 N Roadrunner Pkwy"
        ],
        "city": "LAS CRUCES",
        "state": "NM",
        "postalCode": "88001-8090"
      },
      {
        "line": [
          "224 E 24TH PL"
        ],
        "city": "TULSA",
        "state": "OK",
        "postalCode": "74114-2606"
      },
      {
        "line": [
          "521 E JONES ST"
        ],
        "city": "RALEIGH",
        "state": "NC",
        "postalCode": "27601-1137"
      },
      {
        "line": [
          "4351 E Lohman Ave Ste 208"
        ],
        "city": "LAS CRUCES",
        "state": "NM",
        "postalCode": "88011-8260"
      },
      {
        "line": [
          "4311 Lohman Ave"
        ],
        "city": "LAS CRUCES",
        "state": "NM",
        "postalCode": "88011-8255"
      },
      {
        "line": [
          "1205 S TELSHOR BLVD"
        ],
        "city": "LAS CRUCES",
        "state": "NM",
        "postalCode": "88011-4748"
      },
      {
        "line": [
          "4351 E LOHMAN AVE",
          "STE 409"
        ],
        "city": "LAS CRUCES",
        "state": "NM",
        "postalCode": "88011-8263"
      },
      {
        "line": [],
        "city": "DEMING",
        "state": "NM",
        "postalCode": "88030-4908"
      },
      {
        "line": [
          "4451 E LOHMAN AVE"
        ],
        "city": "LAS CRUCES",
        "state": "NM",
        "postalCode": "88011-8267"
      },
      {
        "line": [
          "2450 S TELSHOR BLVD"
        ],
        "city": "LAS CRUCES",
        "state": "NM",
        "postalCode": "88011-5141"
      },
      {
        "line": [],
        "city": "TRUTH OR CONSEQUENCES",
        "state": "NM",
        "postalCode": "87901-1954"
      },
      {
        "line": [
          "4351 E Lohman Ave Ste 100"
        ],
        "city": "LAS CRUCES",
        "state": "NM",
        "postalCode": "88011-8263"
      },
      {
        "line": [
          "4401 WHISPERING CREEK DR"
        ],
        "city": "SAND SPRINGS",
        "state": "OK",
        "postalCode": "74063-3173"
      },
      {
        "line": [
          "4351 E LOHMAN AVE STE 401"
        ],
        "city": "LAS CRUCES",
        "state": "NM",
        "postalCode": "88011-8261"
      },
      {
        "line": [
          "3025 TERRACE DRIVE"
        ],
        "city": "LAS CRUCES",
        "state": "NM",
        "postalCode": "88011-5053"
      },
      {
        "line": [
          "4351 E LOHMAN AVE STE. 201"
        ],
        "city": "LAS CRUCES",
        "state": "NM",
        "postalCode": "88011-8255"
      },
      {
        "line": [
          "2450 S. TELSHOR BLVD"
        ],
        "city": "LAS CRUCES",
        "state": "NM",
        "postalCode": "88011-5141"
      },
      {
        "line": [
          "4351 EAST LOHMAN AVE. STE. 201"
        ],
        "city": "LAS CRUCES",
        "state": "NM",
        "postalCode": "88011-8260"
      },
      {
        "line": [
          "4401 E. Lohman Ave Ste. A"
        ],
        "city": "LAS CRUCES",
        "state": "NM",
        "postalCode": "88011-8267"
      },
      {
        "line": [
          "4351 E LOHMAN AVE STE 408"
        ],
        "city": "LAS CRUCES",
        "state": "NM",
        "postalCode": "88011-8263"
      },
      {
        "line": [
          "4351 E LOHMAN AVE STE 102"
        ],
        "city": "LAS CRUCES",
        "state": "NM",
        "postalCode": "88011-8258"
      },
      {
        "line": [
          "2905 MISSOURI AVE"
        ],
        "city": "LAS CRUCES",
        "state": "NM",
        "postalCode": "88011-4813"
      }
    ],
    "extension": [
      {
        "url": "https://fhir.athena.io/StructureDefinition/ah-practice",
        "valueReference": {
          "reference": "Organization/a-1.Practice-1928"
        }
      },
      {
        "url": "https://fhir.athena.io/StructureDefinition/ah-brand",
        "valueReference": {
          "reference": "Organization/a-1928.Brand-1"
        }
      }
    ]
  },
  "fullUrl": "urn:uuid:6a8de875-8ab3-51b4-b33e-8d55a569da8b"
}