{
  "resource": {
    "resourceType": "Organization",
    "id": "268fb8c1-9905-5ae2-bddd-ba9da7be7cab",
    "name": "Upperline Health",
    "endpoint": [
      {
        "reference": "Endpoint/27a4e967-47aa-5a9c-a572-b8297ee268a2"
      },
      {
        "reference": "Endpoint/0a04dd99-8f7f-5f49-9cc9-1b601780c841"
      }
    ],
    "identifier": [
      {
        "system": "http://hl7.org/fhir/sid/us-npi",
        "value": "1538686498"
      }
    ],
    "address": [
      {
        "line": [
          "5617 Highway 153",
          "Suite 102"
        ],
        "city": "HIXSON",
        "state": "TN",
        "postalCode": "37343-4676"
      },
      {
        "line": [
          "819 East Oak Street"
        ],
        "city": "KISSIMMEE",
        "state": "FL",
        "postalCode": "34744-5842"
      },
      {
        "line": [
          "9600 Two Notch Rd",
          "Ste 500"
        ],
        "city": "COLUMBIA",
        "state": "SC",
        "postalCode": "29223-1612"
      },
      {
        "line": [
          "595 W Granada Blvd",
          "Suite F"
        ],
        "city": "ORMOND BEACH",
        "state": "FL",
        "postalCode": "32174-5182"
      },
      {
        "line": [
          "247 Maitland Ave."
        ],
        "city": "ALTAMONTE SPRINGS",
        "state": "FL",
        "postalCode": "32701-4907"
      },
      {
        "line": [
          "6704 PARK AVE"
        ],
        "city": "ALLEN PARK",
        "state": "MI",
        "postalCode": "48101-2034"
      },
      {
        "line": [
          "2057 VALLEYDALE RD STE 109"
        ],
        "city": "BIRMINGHAM",
        "state": "AL",
        "postalCode": "35244-2707"
      },
      {
        "line": [
          "11725 ILLINOIS ST STE LL050"
        ],
        "city": "CARMEL",
        "state": "IN",
        "postalCode": "46032-3015"
      },
      {
        "line": [
          "205 S MOON AVE",
          "STE 101"
        ],
        "city": "BRANDON",
        "state": "FL",
        "postalCode": "33511-5716"
      },
      {
        "line": [
          "117 TRADEPARK DR STE B"
        ],
        "city": "SOMERSET",
        "state": "KY",
        "postalCode": "42503-3428"
      },
      {
        "line": [
          "429 4TH AVE STE 300"
        ],
        "city": "PITTSBURGH",
        "state": "PA",
        "postalCode": "15219-1507"
      },
      {
        "line": [
          "7 Professional Pkwy",
          "Ste 101"
        ],
        "city": "HATTIESBURG",
        "state": "MS",
        "postalCode": "39402-2648"
      },
      {
        "line": [
          "615 W JOHNSON AVE STE 202"
        ],
        "city": "CHESHIRE",
        "state": "CT",
        "postalCode": "06410-4532"
      },
      {
        "line": [
          "220 W CONGRESS ST FL 2ND"
        ],
        "city": "DETROIT",
        "state": "MI",
        "postalCode": "48226-3213"
      },
      {
        "line": [
          "790 Dunlawton",
          "Suite C"
        ],
        "city": "PORT ORANGE",
        "state": "FL",
        "postalCode": "32127-4222"
      },
      {
        "line": [
          "117 TRADEPARK DR"
        ],
        "city": "SOMERSET",
        "state": "KY",
        "postalCode": "42503-3428"
      },
      {
        "line": [
          "2045 PEACHTREE RD NE STE 810"
        ],
        "city": "ATLANTA",
        "state": "GA",
        "postalCode": "30309-1412"
      },
      {
        "line": [
          "1890 LPGA BLVD STE 250"
        ],
        "city": "DAYTONA BEACH",
        "state": "FL",
        "postalCode": "32117-7131"
      },
      {
        "line": [
          "13907 N DALE MABRY HWY STE 103"
        ],
        "city": "TAMPA",
        "state": "FL",
        "postalCode": "33618-2411"
      },
      {
        "line": [
          "101 EATON ST"
        ],
        "city": "HAMPTON",
        "state": "VA",
        "postalCode": "23669-4079"
      },
      {
        "line": [
          "4101 CHARLOTTE AVE STE F185"
        ],
        "city": "NASHVILLE",
        "state": "TN",
        "postalCode": "37209-4066"
      },
      {
        "line": [
          "1850 WESTEN ST"
        ],
        "city": "BOWLING GREEN",
        "state": "KY",
        "postalCode": "42104-4152"
      },
      {
        "line": [
          "9600 TWO NOTCH RD",
          "STE 5"
        ],
        "city": "COLUMBIA",
        "state": "SC",
        "postalCode": "29223-1612"
      },
      {
        "line": [
          "6477 College Park Square #106"
        ],
        "city": "VIRGINIA BEACH",
        "state": "VA",
        "postalCode": "23464-2346"
      },
      {
        "line": [
          "501 SILVERSIDE RD"
        ],
        "city": "WILMINGTON",
        "state": "DE",
        "postalCode": "19809-1374"
      },
      {
        "line": [
          "479 Whirlaway Drive",
          "Suite A"
        ],
        "city": "DANVILLE",
        "state": "KY",
        "postalCode": "40422-9036"
      },
      {
        "line": [
          "2324 CONGRESS PKWY S"
        ],
        "city": "ATHENS",
        "state": "TN",
        "postalCode": "37303-2820"
      },
      {
        "line": [
          "815 SUPERIOR AVE E STE 1618"
        ],
        "city": "CLEVELAND",
        "state": "OH",
        "postalCode": "44114-2709"
      },
      {
        "line": [
          "200 S 20TH ST STE B"
        ],
        "city": "ROGERS",
        "state": "AR",
        "postalCode": "72758-1100"
      },
      {
        "line": [
          "1561 NJ-38 #4"
        ],
        "city": "LUMBERTON TOWNSHIP",
        "state": "NJ",
        "postalCode": "08048-0001"
      },
      {
        "line": [
          "5617 Highway 153"
        ],
        "city": "HIXSON",
        "state": "TN",
        "postalCode": "37343-4676"
      },
      {
        "line": [
          "52 MOUSE CREEK RD NW"
        ],
        "city": "CLEVELAND",
        "state": "TN",
        "postalCode": "37312-4839"
      },
      {
        "line": [
          "1976 Gadsden Hwy",
          "Suite 101"
        ],
        "city": "BIRMINGHAM",
        "state": "AL",
        "postalCode": "35235-3266"
      },
      {
        "line": [
          "132 WELL RD"
        ],
        "city": "WEST MONROE",
        "state": "LA",
        "postalCode": "71291-9701"
      },
      {
        "line": [
          "1416 Wainbrook Drive"
        ],
        "city": "AUGUSTA",
        "state": "GA",
        "postalCode": "30909-6289"
      },
      {
        "line": [
          "629 W MAIN ST"
        ],
        "city": "OKLAHOMA CITY",
        "state": "OK",
        "postalCode": "73102-2221"
      },
      {
        "line": [
          "6545 FRANCE AVE S STE 571"
        ],
        "city": "Edina",
        "state": "MN",
        "postalCode": "55435-2153"
      },
      {
        "line": [
          "247 Maitland Ave"
        ],
        "city": "ALTAMONTE SPRINGS",
        "state": "FL",
        "postalCode": "32701-4907"
      },
      {
        "line": [
          "125 Memorial Drive"
        ],
        "city": "FRANKLIN",
        "state": "KY",
        "postalCode": "42134-2752"
      },
      {
        "line": [
          "241 W OLIVE AVE"
        ],
        "city": "BURBANK",
        "state": "CA",
        "postalCode": "91502-1825"
      },
      {
        "line": [
          "503 Spivey Lane"
        ],
        "city": "LONDON",
        "state": "KY",
        "postalCode": "40741-2641"
      },
      {
        "line": [
          "2835 W DE LEON ST",
          "STE 101"
        ],
        "city": "TAMPA",
        "state": "FL",
        "postalCode": "33609-4130"
      },
      {
        "line": [
          "1515 MOCKINGBIRD LN STE 420"
        ],
        "city": "CHARLOTTE",
        "state": "NC",
        "postalCode": "28209-3236"
      },
      {
        "line": [
          "21 Hospital Drive"
        ],
        "city": "PALM COAST",
        "state": "FL",
        "postalCode": "32164-2454"
      },
      {
        "line": [
          "213 E. Oak Street"
        ],
        "city": "KISSIMMEE",
        "state": "FL",
        "postalCode": "34744-4503"
      },
      {
        "line": [
          "8015 SHOAL CREEK BLVD STE 119"
        ],
        "city": "AUSTIN",
        "state": "TX",
        "postalCode": "78757-8052"
      },
      {
        "line": [
          "849 FAIRMOUNT AVE STE 200"
        ],
        "city": "TOWSON",
        "state": "MD",
        "postalCode": "21286-2693"
      },
      {
        "line": [
          "247 MAITLAND AVE"
        ],
        "city": "ALTAMONTE SPRINGS",
        "state": "FL",
        "postalCode": "32701-4907"
      },
      {
        "line": [
          "1261 Blackwood Avenue"
        ],
        "city": "OCOEE",
        "state": "FL",
        "postalCode": "34761-4521"
      },
      {
        "line": [
          "1007 Cumberland Falls Hwy"
        ],
        "city": "CORBIN",
        "state": "KY",
        "postalCode": "40701-2714"
      },
      {
        "line": [
          "8400 RED BUG LAKE RD STE 2030"
        ],
        "city": "OVIEDO",
        "state": "FL",
        "postalCode": "32765-6838"
      }
    ],
    "extension": [
      {
        "url": "https://fhir.athena.io/StructureDefinition/ah-practice",
        "valueReference": {
          "reference": "Organization/a-1.Practice-4399"
        }
      },
      {
        "url": "https://fhir.athena.io/StructureDefinition/ah-brand",
        "valueReference": {
          "reference": "Organization/a-4399.Brand-27"
        }
      }
    ]
  },
  "fullUrl": "urn:uuid:268fb8c1-9905-5ae2-bddd-ba9da7be7cab"
}