{
  "resource": {
    "resourceType": "Organization",
    "id": "923a4eab-a705-5b57-a1e4-949e6824df4f",
    "name": "Westover Hills Orthopaedics",
    "endpoint": [
      {
        "reference": "Endpoint/27a4e967-47aa-5a9c-a572-b8297ee268a2"
      },
      {
        "reference": "Endpoint/9aca8102-472d-5b21-b250-91428c56f820"
      }
    ],
    "identifier": [
      {
        "system": "http://hl7.org/fhir/sid/us-npi",
        "value": "1770002727"
      }
    ],
    "address": [
      {
        "line": [
          "5330 N LOOP 1604 WEST"
        ],
        "city": "SAN ANTONIO",
        "state": "TX",
        "postalCode": "78249-1371"
      },
      {
        "line": [
          "11212 State HWY 151 Med Plaza",
          "Ste 250"
        ],
        "city": "SAN ANTONIO",
        "state": "TX",
        "postalCode": "78251-4507"
      },
      {
        "line": [
          "10131 W MILITARY DR STE 104"
        ],
        "city": "SAN ANTONIO",
        "state": "TX",
        "postalCode": "78251-1927"
      },
      {
        "line": [
          "5510 PRESIDIO PKWY STE 100"
        ],
        "city": "SAN ANTONIO",
        "state": "TX",
        "postalCode": "78249-3192"
      },
      {
        "line": [
          "11212 TX-151"
        ],
        "city": "SAN ANTONIO",
        "state": "TX",
        "postalCode": "78251-3108"
      },
      {
        "line": [
          "6700 IH 10"
        ],
        "city": "SAN ANTONIO",
        "state": "TX",
        "postalCode": "78201-2009"
      },
      {
        "line": [
          "1927 ROGERS ROAD"
        ],
        "city": "SAN ANTONIO",
        "state": "TX",
        "postalCode": "78251-4614"
      },
      {
        "line": [
          "11212 STATE HIGHWAY 151",
          "MEDICAL PLAZA 2 STE 250"
        ],
        "city": "SAN ANTONIO",
        "state": "TX",
        "postalCode": "78251-4498"
      }
    ],
    "extension": [
      {
        "url": "https://fhir.athena.io/StructureDefinition/ah-practice",
        "valueReference": {
          "reference": "Organization/a-1.Practice-17583"
        }
      },
      {
        "url": "https://fhir.athena.io/StructureDefinition/ah-brand",
        "valueReference": {
          "reference": "Organization/a-17583.Brand-1"
        }
      }
    ]
  },
  "fullUrl": "urn:uuid:923a4eab-a705-5b57-a1e4-949e6824df4f"
}