{
  "resource": {
    "resourceType": "Organization",
    "id": "f6deeb1c-1bc7-5dd4-a4a0-8afb45736585",
    "name": "DAVITA BURTON DIALYSIS",
    "endpoint": [
      {
        "reference": "Endpoint/27a4e967-47aa-5a9c-a572-b8297ee268a2"
      },
      {
        "reference": "Endpoint/e94b993c-cc46-53af-a668-2e0eefa69d26"
      }
    ],
    "identifier": [
      {
        "system": "http://hl7.org/fhir/sid/us-npi",
        "value": "1730190596"
      }
    ],
    "address": [
      {
        "line": [
          "1375 N MAIN ST"
        ],
        "city": "LAPEER",
        "state": "MI",
        "postalCode": "48446-1350"
      },
      {
        "line": [
          "6302 Dixie Hwy"
        ],
        "city": "BRIDGEPORT",
        "state": "MI",
        "postalCode": "48722-9566"
      },
      {
        "line": [
          "G3404 Miller Rd"
        ],
        "city": "FLINT",
        "state": "MI",
        "postalCode": "48507-1238"
      },
      {
        "line": [
          "4015 DAVISON RD"
        ],
        "city": "BURTON",
        "state": "MI",
        "postalCode": "48509-1401"
      },
      {
        "line": [
          "G1071 N Ballenger Hwy",
          "Suite 310"
        ],
        "city": "FLINT",
        "state": "MI",
        "postalCode": "48504-4453"
      },
      {
        "line": [
          "1621 44TH ST",
          "STE 300"
        ],
        "city": "WYOMING",
        "state": "MI",
        "postalCode": "49509-4387"
      },
      {
        "line": [
          "14700 FARMINGTON RD STE 108"
        ],
        "city": "LIVONIA",
        "state": "MI",
        "postalCode": "48154-5462"
      },
      {
        "line": [
          "2149 EAST WARNER ROAD",
          "Suite 102"
        ],
        "city": "TEMPE",
        "state": "AZ",
        "postalCode": "85284-3495"
      }
    ],
    "extension": [
      {
        "url": "https://fhir.athena.io/StructureDefinition/ah-practice",
        "valueReference": {
          "reference": "Organization/a-1.Practice-6373"
        }
      },
      {
        "url": "https://fhir.athena.io/StructureDefinition/ah-brand",
        "valueReference": {
          "reference": "Organization/a-6373.Brand-1"
        }
      }
    ]
  },
  "fullUrl": "urn:uuid:f6deeb1c-1bc7-5dd4-a4a0-8afb45736585"
}