{
  "resource": {
    "resourceType": "Organization",
    "id": "d34b2c7a-04b6-582d-94f1-a04b8f17b235",
    "name": "VIA ORTHOPEDICS",
    "endpoint": [
      {
        "reference": "Endpoint/27a4e967-47aa-5a9c-a572-b8297ee268a2"
      },
      {
        "reference": "Endpoint/301aa2c8-b39c-5015-aa34-ac1e64c23acb"
      }
    ],
    "identifier": [
      {
        "system": "http://hl7.org/fhir/sid/us-npi",
        "value": "1801508510"
      }
    ],
    "address": [
      {
        "line": [
          "7141 YORK AVE S"
        ],
        "city": "MINNEAPOLIS",
        "state": "MN",
        "postalCode": "55435-4512"
      },
      {
        "line": [
          "2601 STINSON PKWY"
        ],
        "city": "MINNEAPOLIS",
        "state": "MN",
        "postalCode": "55418-1672"
      },
      {
        "line": [
          "6070 BLANCHARD BLVD"
        ],
        "city": "CIRCLE PINES",
        "state": "MN",
        "postalCode": "55014-6020"
      },
      {
        "line": [
          "5500 BOONE AVE N"
        ],
        "city": "MINNEAPOLIS",
        "state": "MN",
        "postalCode": "55428-3629"
      },
      {
        "line": [
          "8715 PORTLAND AVE S"
        ],
        "city": "MINNEAPOLIS",
        "state": "MN",
        "postalCode": "55420-5408"
      },
      {
        "line": [
          "6490 CENTRAL AVE NE"
        ],
        "city": "MINNEAPOLIS",
        "state": "MN",
        "postalCode": "55432-5106"
      },
      {
        "line": [
          "3701 Bryant Ave S"
        ],
        "city": "MINNEAPOLIS",
        "state": "MN",
        "postalCode": "55409-1051"
      },
      {
        "line": [
          "14900 CROWN DR"
        ],
        "city": "MINNETONKA",
        "state": "MN",
        "postalCode": "55345-3603"
      },
      {
        "line": [
          "744 19TH AVE N"
        ],
        "city": "SOUTH SAINT PAUL",
        "state": "MN",
        "postalCode": "55075-1360"
      },
      {
        "line": [
          "580 LIBERTY WAY"
        ],
        "city": "SAINT PAUL",
        "state": "MN",
        "postalCode": "55127-7851"
      },
      {
        "line": [
          "16258 KENYON AVE"
        ],
        "city": "LAKEVILLE",
        "state": "MN",
        "postalCode": "55044-4665"
      },
      {
        "line": [
          "4925 MINNETONKA BLVD"
        ],
        "city": "MINNEAPOLIS",
        "state": "MN",
        "postalCode": "55416-5712"
      },
      {
        "line": [
          "4285 FOUNTAIN HILLS DR NE"
        ],
        "city": "PRIOR LAKE",
        "state": "MN",
        "postalCode": "55372-5204"
      },
      {
        "line": [
          "1645 WINDERMERE WAY"
        ],
        "city": "SHAKOPEE",
        "state": "MN",
        "postalCode": "55379-3551"
      },
      {
        "line": [
          "3385 DISCOVERY RD"
        ],
        "city": "SAINT PAUL",
        "state": "MN",
        "postalCode": "55121-2167"
      },
      {
        "line": [
          "6352 CENTRAL AVE NE"
        ],
        "city": "MINNEAPOLIS",
        "state": "MN",
        "postalCode": "55432-5110"
      },
      {
        "line": [
          "750 1ST ST NE"
        ],
        "city": "FOREST LAKE",
        "state": "MN",
        "postalCode": "55025-1202"
      },
      {
        "line": [
          "61 THOMPSON AVE W"
        ],
        "city": "SAINT PAUL",
        "state": "MN",
        "postalCode": "55118-3114"
      },
      {
        "line": [
          "501 Second St SE"
        ],
        "city": "OSSEO",
        "state": "MN",
        "postalCode": "55369-1000"
      },
      {
        "line": [
          "6288 LOUISIANA CT N"
        ],
        "city": "MINNEAPOLIS",
        "state": "MN",
        "postalCode": "55428-2550"
      },
      {
        "line": [
          "1861 COMMERCE BLVD"
        ],
        "city": "MOUND",
        "state": "MN",
        "postalCode": "55364-1126"
      },
      {
        "line": [
          "1746 OAKDALE AVE"
        ],
        "city": "SAINT PAUL",
        "state": "MN",
        "postalCode": "55118-4622"
      },
      {
        "line": [
          "3733 23RD AVE S"
        ],
        "city": "MINNEAPOLIS",
        "state": "MN",
        "postalCode": "55407-3598"
      },
      {
        "line": [
          "1306 ALTON ST"
        ],
        "city": "SAINT PAUL",
        "state": "MN",
        "postalCode": "55116-3169"
      },
      {
        "line": [
          "733 SELBY AVE"
        ],
        "city": "SAINT PAUL",
        "state": "MN",
        "postalCode": "55104-2038"
      },
      {
        "line": [
          "3501 DOUGLAS DR N"
        ],
        "city": "MINNEAPOLIS",
        "state": "MN",
        "postalCode": "55422-2480"
      },
      {
        "line": [
          "14401 GRAND AVE"
        ],
        "city": "BURNSVILLE",
        "state": "MN",
        "postalCode": "55306-5709"
      },
      {
        "line": [
          "18695 73RD AVE N"
        ],
        "city": "MAPLE GROVE",
        "state": "MN",
        "postalCode": "55311-6604"
      },
      {
        "line": [
          "20150 HIGHVIEW AVE"
        ],
        "city": "LAKEVILLE",
        "state": "MN",
        "postalCode": "55044-6874"
      },
      {
        "line": [
          "920 6TH ST W"
        ],
        "city": "CARVER",
        "state": "MN",
        "postalCode": "55315-4559"
      },
      {
        "line": [
          "1570 BEAM AVE"
        ],
        "city": "SAINT PAUL",
        "state": "MN",
        "postalCode": "55109-1166"
      },
      {
        "line": [
          "418 HIGHWAY 96 W"
        ],
        "city": "SAINT PAUL",
        "state": "MN",
        "postalCode": "55126-1993"
      },
      {
        "line": [
          "1200 LAKEWOOD DR N"
        ],
        "city": "SAINT PAUL",
        "state": "MN",
        "postalCode": "55119-7601"
      },
      {
        "line": [
          "202 N CEDAR AVE",
          "STE 1"
        ],
        "city": "OWATONNA",
        "state": "MN",
        "postalCode": "55060-1000"
      },
      {
        "line": [
          "1 THOMPSON AVE W"
        ],
        "city": "SAINT PAUL",
        "state": "MN",
        "postalCode": "55118-3100"
      },
      {
        "line": [
          "17710 OLD EXCELSIOR BLVD"
        ],
        "city": "MINNETONKA",
        "state": "MN",
        "postalCode": "55345-4113"
      },
      {
        "line": [
          "7088 11TH ST N"
        ],
        "city": "SAINT PAUL",
        "state": "MN",
        "postalCode": "55128-6501"
      },
      {
        "line": [
          "525 CUTTER ST"
        ],
        "city": "ANOKA",
        "state": "MN",
        "postalCode": "55303-2091"
      },
      {
        "line": [
          "4232 BLACKHAWK RD"
        ],
        "city": "SAINT PAUL",
        "state": "MN",
        "postalCode": "55122-2406"
      },
      {
        "line": [
          "420 MARSHALL AVE"
        ],
        "city": "SAINT PAUL",
        "state": "MN",
        "postalCode": "55102-1718"
      },
      {
        "line": [
          "1640 155TH LN NW"
        ],
        "city": "ANDOVER",
        "state": "MN",
        "postalCode": "55304-5056"
      },
      {
        "line": [
          "525 OSBORNE RD NE"
        ],
        "city": "MINNEAPOLIS",
        "state": "MN",
        "postalCode": "55432-2751"
      },
      {
        "line": [
          "245 W 76TH ST"
        ],
        "city": "MINNEAPOLIS",
        "state": "MN",
        "postalCode": "55423-2225"
      },
      {
        "line": [
          "706 6TH AVE NE"
        ],
        "city": "ISANTI",
        "state": "MN",
        "postalCode": "55040-3207"
      },
      {
        "line": [
          "3601 WOODDALE AVE S"
        ],
        "city": "MINNEAPOLIS",
        "state": "MN",
        "postalCode": "55416-5384"
      },
      {
        "line": [
          "5601 94TH AVE N"
        ],
        "city": "MINNEAPOLIS",
        "state": "MN",
        "postalCode": "55443-2395"
      },
      {
        "line": [
          "8700 EMERY PKWY N"
        ],
        "city": "CHAMPLIN",
        "state": "MN",
        "postalCode": "55316-2400"
      },
      {
        "line": [
          "1670 LEGACY PKWY E"
        ],
        "city": "SAINT PAUL",
        "state": "MN",
        "postalCode": "55109-5469"
      },
      {
        "line": [
          "1740 PARKSHORE DR"
        ],
        "city": "SAINT PAUL",
        "state": "MN",
        "postalCode": "55112-3934"
      },
      {
        "line": [
          "100 PROMENADE AVE"
        ],
        "city": "WAYZATA",
        "state": "MN",
        "postalCode": "55391-4542"
      },
      {
        "line": [
          "100 MONROE ST"
        ],
        "city": "ANOKA",
        "state": "MN",
        "postalCode": "55303-4374"
      },
      {
        "line": [
          "131 MONROE ST"
        ],
        "city": "ANOKA",
        "state": "MN",
        "postalCode": "55303-2484"
      },
      {
        "line": [
          "7008 LAKE RD"
        ],
        "city": "SAINT PAUL",
        "state": "MN",
        "postalCode": "55125-3824"
      },
      {
        "line": [
          "5379 383RD ST"
        ],
        "city": "NORTH BRANCH",
        "state": "MN",
        "postalCode": "55056-4962"
      },
      {
        "line": [
          "2300 HAZELWOOD ST"
        ],
        "city": "SAINT PAUL",
        "state": "MN",
        "postalCode": "55109-2668"
      },
      {
        "line": [
          "2600 DALE ST N"
        ],
        "city": "SAINT PAUL",
        "state": "MN",
        "postalCode": "55113-2480"
      },
      {
        "line": [
          "11124 183RD CIR NW"
        ],
        "city": "ELK RIVER",
        "state": "MN",
        "postalCode": "55330-8227"
      },
      {
        "line": [
          "7260 S ROBERT TRL"
        ],
        "city": "INVER GROVE HEIGHTS",
        "state": "MN",
        "postalCode": "55077-2711"
      },
      {
        "line": [
          "9850 163RD ST W"
        ],
        "city": "LAKEVILLE",
        "state": "MN",
        "postalCode": "55044-4755"
      },
      {
        "line": [
          "5300 4TH ST NE"
        ],
        "city": "MINNEAPOLIS",
        "state": "MN",
        "postalCode": "55421-1101"
      },
      {
        "line": [
          "38610 14TH AVE"
        ],
        "city": "NORTH BRANCH",
        "state": "MN",
        "postalCode": "55056-5495"
      },
      {
        "line": [
          "6300 COLONIAL WAY"
        ],
        "city": "EDINA",
        "state": "MN",
        "postalCode": "55436-2251"
      },
      {
        "line": [
          "192 JADE TRL N"
        ],
        "city": "LAKE ELMO",
        "state": "MN",
        "postalCode": "55042-4496"
      },
      {
        "line": [
          "2945 LINCOLN DR"
        ],
        "city": "SAINT PAUL",
        "state": "MN",
        "postalCode": "55113-1338"
      },
      {
        "line": [
          "5399 155TH ST W"
        ],
        "city": "SAINT PAUL",
        "state": "MN",
        "postalCode": "55124-5418"
      },
      {
        "line": [
          "7400 YORK AVE S"
        ],
        "city": "MINNEAPOLIS",
        "state": "MN",
        "postalCode": "55435-5661"
      },
      {
        "line": [
          "2533 1ST AVE S"
        ],
        "city": "MINNEAPOLIS",
        "state": "MN",
        "postalCode": "55404-4342"
      },
      {
        "line": [
          "3620 PHILLIPS PKWY"
        ],
        "city": "MINNEAPOLIS",
        "state": "MN",
        "postalCode": "55426-3700"
      },
      {
        "line": [
          "20600 S DIAMOND LAKE RD"
        ],
        "city": "ROGERS",
        "state": "MN",
        "postalCode": "55374-4515"
      },
      {
        "line": [
          "3434 HERITAGE DR"
        ],
        "city": "EDINA",
        "state": "MN",
        "postalCode": "55435-2280"
      }
    ],
    "extension": [
      {
        "url": "https://fhir.athena.io/StructureDefinition/ah-practice",
        "valueReference": {
          "reference": "Organization/a-1.Practice-28903"
        }
      },
      {
        "url": "https://fhir.athena.io/StructureDefinition/ah-brand",
        "valueReference": {
          "reference": "Organization/a-28903.Brand-1"
        }
      }
    ]
  },
  "fullUrl": "urn:uuid:d34b2c7a-04b6-582d-94f1-a04b8f17b235"
}