{
  "resource": {
    "resourceType": "Organization",
    "id": "8c66ca0f-95ca-5622-90c3-da5a973015c1",
    "name": "Southwest Kidney Institute, PLC",
    "endpoint": [
      {
        "reference": "Endpoint/27a4e967-47aa-5a9c-a572-b8297ee268a2"
      },
      {
        "reference": "Endpoint/37d8cb4d-dd68-5215-8201-4661cf283863"
      }
    ],
    "identifier": [
      {
        "system": "http://hl7.org/fhir/sid/us-npi",
        "value": "1407094436"
      },
      {
        "system": "http://hl7.org/fhir/sid/us-npi",
        "value": "1891933560"
      },
      {
        "system": "http://hl7.org/fhir/sid/us-npi",
        "value": "1659316008"
      }
    ],
    "address": [
      {
        "line": [
          "3600 W Tangerine Rd"
        ],
        "city": "MARANA",
        "state": "AZ",
        "postalCode": "85658-4789"
      },
      {
        "line": [
          "1866 East Innovation Park Drive"
        ],
        "city": "TUCSON",
        "state": "AZ",
        "postalCode": "85755-1963"
      },
      {
        "line": [
          "3501 North Scottsdale Road",
          "Suite 347"
        ],
        "city": "SCOTTSDALE",
        "state": "AZ",
        "postalCode": "85251-5631"
      },
      {
        "line": [
          "930 N SWITZER CANYON DR STE 103"
        ],
        "city": "FLAGSTAFF",
        "state": "AZ",
        "postalCode": "86001-4834"
      },
      {
        "line": [
          "13041 N DEL WEBB BLVD STE 140"
        ],
        "city": "SUN CITY",
        "state": "AZ",
        "postalCode": "85351-3034"
      },
      {
        "line": [
          "350 West Thomas Road"
        ],
        "city": "PHOENIX",
        "state": "AZ",
        "postalCode": "85013-4409"
      },
      {
        "line": [
          "5330 AZ-95"
        ],
        "city": "FORT MOHAVE",
        "state": "AZ",
        "postalCode": "86426-9225"
      },
      {
        "line": [
          "9225 N 3RD ST"
        ],
        "city": "PHOENIX",
        "state": "AZ",
        "postalCode": "85020-2439"
      },
      {
        "line": [
          "11411 N 19TH AVE"
        ],
        "city": "PHOENIX",
        "state": "AZ",
        "postalCode": "85029-3642"
      },
      {
        "line": [
          "1209 West Target Range Road",
          "Suite 102"
        ],
        "city": "Nogales",
        "state": "AZ",
        "postalCode": "85621-2466"
      },
      {
        "line": [
          "1405 S Alma School Rd"
        ],
        "city": "CHANDLER",
        "state": "AZ",
        "postalCode": "85286-7144"
      },
      {
        "line": [
          "1702 S PIERPONT DR"
        ],
        "city": "MESA",
        "state": "AZ",
        "postalCode": "85206-4697"
      },
      {
        "line": [
          "1515 W CHANDLER BLVD"
        ],
        "city": "CHANDLER",
        "state": "AZ",
        "postalCode": "85224-6141"
      },
      {
        "line": [
          "4990 East Mediterranean Drive",
          "Suite D"
        ],
        "city": "SIERRA VISTA",
        "state": "AZ",
        "postalCode": "85635-2494"
      },
      {
        "line": [
          "6200 N La Cholla Blvd"
        ],
        "city": "TUCSON",
        "state": "AZ",
        "postalCode": "85741-3529"
      },
      {
        "line": [
          "37200 N GANTZEL RD STE 230"
        ],
        "city": "SAN TAN VALLEY",
        "state": "AZ",
        "postalCode": "85140-7386"
      },
      {
        "line": [
          "3717 S ROME ST STE 104"
        ],
        "city": "GILBERT",
        "state": "AZ",
        "postalCode": "85297-7368"
      },
      {
        "line": [
          "6420 East Broadway Boulevard",
          "Suite C"
        ],
        "city": "TUCSON",
        "state": "AZ",
        "postalCode": "85710-3534"
      },
      {
        "line": [
          "Agency Road"
        ],
        "city": "PARKER",
        "state": "AZ",
        "postalCode": "85344-3103"
      },
      {
        "line": [
          "1521 E. Tangerine Road",
          "STE 101"
        ],
        "city": "TUCSON",
        "state": "AZ",
        "postalCode": "85755-6214"
      },
      {
        "line": [
          "18701 N 67TH AVE"
        ],
        "city": "GLENDALE",
        "state": "AZ",
        "postalCode": "85308-7100"
      },
      {
        "line": [
          "5020 E Glenn Street"
        ],
        "city": "TUCSON",
        "state": "AZ",
        "postalCode": "85712-1214"
      },
      {
        "line": [
          "5330 South 95 Highway",
          "Suite M"
        ],
        "city": "FORT MOHAVE",
        "state": "AZ",
        "postalCode": "86426-0001"
      },
      {
        "line": [
          "13575 W MCDOWELL RD"
        ],
        "city": "GOODYEAR",
        "state": "AZ",
        "postalCode": "85395-2604"
      },
      {
        "line": [
          "10401 W Thunderbird Rd"
        ],
        "city": "SUN CITY",
        "state": "AZ",
        "postalCode": "85351-3004"
      },
      {
        "line": [
          "5750 West Thunderbird Road",
          "Suite G700"
        ],
        "city": "Glendale",
        "state": "AZ",
        "postalCode": "85306-4660"
      },
      {
        "line": [
          "9201 W THOMAS RD"
        ],
        "city": "PHOENIX",
        "state": "AZ",
        "postalCode": "85037-3332"
      },
      {
        "line": [
          "13943 North 91st Avenue",
          "Building H, Suite 101"
        ],
        "city": "PEORIA",
        "state": "AZ",
        "postalCode": "85381-3689"
      },
      {
        "line": [
          "6644 E BAYWOOD AVE"
        ],
        "city": "MESA",
        "state": "AZ",
        "postalCode": "85206-1747"
      },
      {
        "line": [
          "2000 W Bethany Home Rd"
        ],
        "city": "PHOENIX",
        "state": "AZ",
        "postalCode": "85015-2443"
      },
      {
        "line": [
          "1103 Circulo Mercado"
        ],
        "city": "RIO RICO",
        "state": "AZ",
        "postalCode": "85648-6248"
      },
      {
        "line": [
          "1919 W MEDICAL ST"
        ],
        "city": "TUCSON",
        "state": "AZ",
        "postalCode": "85704-1133"
      },
      {
        "line": [
          "1551 E TANGERINE RD"
        ],
        "city": "TUCSON",
        "state": "AZ",
        "postalCode": "85755-6213"
      },
      {
        "line": [
          "9225 N 3RD ST STE 102"
        ],
        "city": "PHOENIX",
        "state": "AZ",
        "postalCode": "85020-2455"
      },
      {
        "line": [
          "9401 West Thunderbird Road",
          "Suite 155"
        ],
        "city": "PEORIA",
        "state": "AZ",
        "postalCode": "85381-4210"
      },
      {
        "line": [
          "16838 East Palisades Boulevard",
          "Building C, Suite 152"
        ],
        "city": "FOUNTAIN HILLS",
        "state": "AZ",
        "postalCode": "85268-3786"
      },
      {
        "line": [
          "455 S CALVARY WAY"
        ],
        "city": "COTTONWOOD",
        "state": "AZ",
        "postalCode": "86326-4169"
      },
      {
        "line": [
          "1675 E VILLA ST"
        ],
        "city": "PHOENIX",
        "state": "AZ",
        "postalCode": "85006-3710"
      },
      {
        "line": [
          "325 South Euclid Avenue",
          "Suite 109"
        ],
        "city": "TUCSON",
        "state": "AZ",
        "postalCode": "85719-6653"
      },
      {
        "line": [
          "1111 E McDowell Rd"
        ],
        "city": "PHOENIX",
        "state": "AZ",
        "postalCode": "85006-2612"
      },
      {
        "line": [
          "6261 N La Cholla Blvd",
          "STE 181"
        ],
        "city": "TUCSON",
        "state": "AZ",
        "postalCode": "85741-3563"
      },
      {
        "line": [
          "7362 W Thunderbird Road",
          "Suite 104"
        ],
        "city": "PEORIA",
        "state": "AZ",
        "postalCode": "85381-5028"
      },
      {
        "line": [
          "6644 E Baywood Ave",
          "Unit 3"
        ],
        "city": "MESA",
        "state": "AZ",
        "postalCode": "85206-1747"
      },
      {
        "line": [
          "214 South Main Street"
        ],
        "city": "COTTONWOOD",
        "state": "AZ",
        "postalCode": "86326-3907"
      },
      {
        "line": [
          "2141 East Warner Rd",
          "Suite 101"
        ],
        "city": "Tempe",
        "state": "AZ",
        "postalCode": "85284-3493"
      },
      {
        "line": [
          "3700 West State Route 89A"
        ],
        "city": "SEDONA",
        "state": "AZ",
        "postalCode": "86336-4937"
      },
      {
        "line": [
          "2620 N Third Street",
          "Suite 100"
        ],
        "city": "PHOENIX",
        "state": "AZ",
        "postalCode": "85004-1153"
      },
      {
        "line": [
          "10005 East Osborn Rd"
        ],
        "city": "Scottsdale",
        "state": "AZ",
        "postalCode": "85256-4019"
      },
      {
        "line": [
          "2133 E. Warner Rd.",
          "Suite 105"
        ],
        "city": "TEMPE",
        "state": "AZ",
        "postalCode": "85284-3492"
      },
      {
        "line": [
          "1100 East University Drive",
          "#102"
        ],
        "city": "TEMPE",
        "state": "AZ",
        "postalCode": "85281-8401"
      },
      {
        "line": [
          "7763 E Florentine"
        ],
        "city": "Prescott",
        "state": "AZ",
        "postalCode": "86314-2289"
      },
      {
        "line": [
          "127 E MAIN ST STE D"
        ],
        "city": "PAYSON",
        "state": "AZ",
        "postalCode": "85541-5646"
      },
      {
        "line": [
          "7700 Florentine Rd"
        ],
        "city": "PRESCOTT VALLEY",
        "state": "AZ",
        "postalCode": "86314-2245"
      },
      {
        "line": [
          "3555 S Val Vista Drive"
        ],
        "city": "GILBERT",
        "state": "AZ",
        "postalCode": "85297-7323"
      },
      {
        "line": [
          "1880 E. Van Buren St"
        ],
        "city": "PHOENIX",
        "state": "AZ",
        "postalCode": "85006-3742"
      },
      {
        "line": [
          "4901 W. McDowell",
          "STE 120"
        ],
        "city": "PHOENIX",
        "state": "AZ",
        "postalCode": "85035-4160"
      },
      {
        "line": [
          "3000 N 91ST AVE"
        ],
        "city": "PHOENIX",
        "state": "AZ",
        "postalCode": "85037-4037"
      },
      {
        "line": [
          "475 S Dobson Rd"
        ],
        "city": "CHANDLER",
        "state": "AZ",
        "postalCode": "85224-5605"
      },
      {
        "line": [
          "1605 North Industrial Park Drive",
          "Suite H"
        ],
        "city": "NOGALES",
        "state": "AZ",
        "postalCode": "85621-4577"
      },
      {
        "line": [
          "19829 N 27th Ave"
        ],
        "city": "PHOENIX",
        "state": "AZ",
        "postalCode": "85027-4001"
      },
      {
        "line": [
          "1845 West Orange Grove Road",
          "Building 3 Suite 131"
        ],
        "city": "TUCSON",
        "state": "AZ",
        "postalCode": "85704-1146"
      },
      {
        "line": [
          "700 East Broadway Boulevard",
          "Suite 100"
        ],
        "city": "TUCSON",
        "state": "AZ",
        "postalCode": "85719-5788"
      },
      {
        "line": [
          "1003 Willow Creek Road"
        ],
        "city": "PRESCOTT",
        "state": "AZ",
        "postalCode": "86301-1641"
      },
      {
        "line": [
          "1811 Mesquite Ave"
        ],
        "city": "LAKE HAVASU CITY",
        "state": "AZ",
        "postalCode": "86403-5668"
      },
      {
        "line": [
          "5882 S Hospital Drive",
          "Bldg E, Suite 3"
        ],
        "city": "GLOBE",
        "state": "AZ",
        "postalCode": "85501-9455"
      },
      {
        "line": [
          "395 North Silverbell",
          "Suite 209"
        ],
        "city": "TUCSON",
        "state": "AZ",
        "postalCode": "85745-2719"
      },
      {
        "line": [
          "13395 North Marana Main Street"
        ],
        "city": "MARANA",
        "state": "AZ",
        "postalCode": "85653-7008"
      },
      {
        "line": [
          "337 E Coronado Road",
          "Suite 201"
        ],
        "city": "Phoenix",
        "state": "AZ",
        "postalCode": "85004-1580"
      },
      {
        "line": [
          "629 N Hwy 90 BYP",
          "Suite 6"
        ],
        "city": "Sierra Vista",
        "state": "AZ",
        "postalCode": "85635-2257"
      },
      {
        "line": [
          "13430 N SAGUARO BLVD # 1 Suite 100"
        ],
        "city": "FOUNTAIN HILLS",
        "state": "AZ",
        "postalCode": "85268-3728"
      },
      {
        "line": [
          "75 Colonia De Salud"
        ],
        "city": "SIERRA VISTA",
        "state": "AZ",
        "postalCode": "85635-2487"
      },
      {
        "line": [
          "7300 N. 99th Avenue"
        ],
        "city": "GLENDALE",
        "state": "AZ",
        "postalCode": "85307-3003"
      },
      {
        "line": [
          "2005 Highway 60"
        ],
        "city": "GLOBE",
        "state": "AZ",
        "postalCode": "85501-9601"
      },
      {
        "line": [
          "7362 West Thunderbird Road",
          "Suite 101"
        ],
        "city": "PEORIA",
        "state": "AZ",
        "postalCode": "85381-5028"
      },
      {
        "line": [
          "801 Miller Valley Road"
        ],
        "city": "Prescott",
        "state": "AZ",
        "postalCode": "86301-1611"
      },
      {
        "line": [
          "3705 N SWAN RD"
        ],
        "city": "TUCSON",
        "state": "AZ",
        "postalCode": "85718-6939"
      },
      {
        "line": [
          "1000 Willow Creek Road",
          "Suite F"
        ],
        "city": "PRESCOTT",
        "state": "AZ",
        "postalCode": "86301-1645"
      },
      {
        "line": [
          "14502 W MEEKER BLVD"
        ],
        "city": "SUN CITY WEST",
        "state": "AZ",
        "postalCode": "85375-5282"
      },
      {
        "line": [
          "1501 N WILLIAMSON AVE"
        ],
        "city": "WINSLOW",
        "state": "AZ",
        "postalCode": "86047-2735"
      },
      {
        "line": [
          "10440 E RIGGS RD STE 250"
        ],
        "city": "SUN LAKES",
        "state": "AZ",
        "postalCode": "85248-0048"
      },
      {
        "line": [
          "4550 EAST BELL RD STE 280"
        ],
        "city": "PHOENIX",
        "state": "AZ",
        "postalCode": "85032-9384"
      },
      {
        "line": [
          "1852 North Mastick Way"
        ],
        "city": "NOGALES",
        "state": "AZ",
        "postalCode": "85621-1063"
      },
      {
        "line": [
          "1400 S Dobson Rd"
        ],
        "city": "MESA",
        "state": "AZ",
        "postalCode": "85202-4707"
      },
      {
        "line": [
          "926 E Mcdowell Rd",
          "STE 100"
        ],
        "city": "PHOENIX",
        "state": "AZ",
        "postalCode": "85006-2503"
      },
      {
        "line": [
          "775 East Willeta St"
        ],
        "city": "PHOENIX",
        "state": "AZ",
        "postalCode": "85006-2723"
      },
      {
        "line": [
          "617 North Humphreys Street",
          "Suite 102"
        ],
        "city": "FLAGSTAFF",
        "state": "AZ",
        "postalCode": "86001-3063"
      },
      {
        "line": [
          "350 North Wilmot Road"
        ],
        "city": "TUCSON",
        "state": "AZ",
        "postalCode": "85711-2602"
      },
      {
        "line": [
          "9130 E. Elliot Road"
        ],
        "city": "MESA",
        "state": "AZ",
        "postalCode": "85212-9675"
      },
      {
        "line": [
          "5555 W THUNDERBIRD RD"
        ],
        "city": "GLENDALE",
        "state": "AZ",
        "postalCode": "85306-4622"
      },
      {
        "line": [
          "3600 W Tangerine Rd",
          "STE 120"
        ],
        "city": "MARANA",
        "state": "AZ",
        "postalCode": "85658-4789"
      },
      {
        "line": [
          "14671 W Mountain View Blvd",
          "Ste 102"
        ],
        "city": "SURPRISE",
        "state": "AZ",
        "postalCode": "85374-4840"
      },
      {
        "line": [
          "5555 Mesa Verde Dr",
          "STE 120"
        ],
        "city": "SIERRA VISTA",
        "state": "AZ",
        "postalCode": "85635-4311"
      },
      {
        "line": [
          "1645 North Swan Road"
        ],
        "city": "TUCSON",
        "state": "AZ",
        "postalCode": "85712-1591"
      },
      {
        "line": [
          "450 South Ocotillo Avenue"
        ],
        "city": "BENSON",
        "state": "AZ",
        "postalCode": "85602-6403"
      },
      {
        "line": [
          "107 E Oak Ave",
          "Ste 202"
        ],
        "city": "Flagstaff",
        "state": "AZ",
        "postalCode": "86001-1818"
      },
      {
        "line": [
          "400 West Camino Casa Verde"
        ],
        "city": "Green Valley",
        "state": "AZ",
        "postalCode": "85614-3564"
      },
      {
        "line": [
          "5886 S Hospital Drive",
          "Bldg E"
        ],
        "city": "GLOBE",
        "state": "AZ",
        "postalCode": "85501-9455"
      },
      {
        "line": [
          "200 E Lee St"
        ],
        "city": "WINSLOW",
        "state": "AZ",
        "postalCode": "86047-2735"
      },
      {
        "line": [
          "301 S POWER RD STE 103"
        ],
        "city": "MESA",
        "state": "AZ",
        "postalCode": "85206-5243"
      },
      {
        "line": [
          "1800 East Florence Boulevard"
        ],
        "city": "CASA GRANDE",
        "state": "AZ",
        "postalCode": "85122-5303"
      },
      {
        "line": [
          "1845 W ORANGE GROVE RD STE 111"
        ],
        "city": "TUCSON",
        "state": "AZ",
        "postalCode": "85704-1196"
      },
      {
        "line": [
          "519 Rose Lane"
        ],
        "city": "WICKENBURG",
        "state": "AZ",
        "postalCode": "85390-1448"
      },
      {
        "line": [
          "5301 E GRANT RD"
        ],
        "city": "TUCSON",
        "state": "AZ",
        "postalCode": "85712-2805"
      },
      {
        "line": [
          "7362 West Thunderbird Road",
          "Suite 103"
        ],
        "city": "PEORIA",
        "state": "AZ",
        "postalCode": "85381-5028"
      },
      {
        "line": [
          "36889 North Tom Darlington Drive",
          "Suite A-4"
        ],
        "city": "CAREFREE",
        "state": "AZ",
        "postalCode": "85377-4605"
      },
      {
        "line": [
          "33400 N 32ND AVE",
          "Suite 201"
        ],
        "city": "PHOENIX",
        "state": "AZ",
        "postalCode": "85085-8876"
      },
      {
        "line": [
          "14620 W ENCANTO BLVD STE 110"
        ],
        "city": "GOODYEAR",
        "state": "AZ",
        "postalCode": "85395-1616"
      },
      {
        "line": [
          "13060 W BELL RD"
        ],
        "city": "SURPRISE",
        "state": "AZ",
        "postalCode": "85378-1200"
      },
      {
        "line": [
          "520 Rose Lane",
          "Suite B"
        ],
        "city": "Wickenburg",
        "state": "AZ",
        "postalCode": "85390-1447"
      },
      {
        "line": [
          "1880 E VAN BUREN ST"
        ],
        "city": "PHOENIX",
        "state": "AZ",
        "postalCode": "85006-3742"
      },
      {
        "line": [
          "250 E DUNLAP AVE"
        ],
        "city": "PHOENIX",
        "state": "AZ",
        "postalCode": "85020-2825"
      },
      {
        "line": [
          "13451 N 94TH DR"
        ],
        "city": "PEORIA",
        "state": "AZ",
        "postalCode": "85381-5056"
      },
      {
        "line": [
          "2149 E WARNER RD",
          "SUITE 101"
        ],
        "city": "TEMPE",
        "state": "AZ",
        "postalCode": "85284-3494"
      },
      {
        "line": [
          "51 S 48th ST."
        ],
        "city": "MESA",
        "state": "AZ",
        "postalCode": "85206-1250"
      },
      {
        "line": [
          "135 S Power Rd",
          "Suite 110"
        ],
        "city": "Mesa",
        "state": "AZ",
        "postalCode": "85206-5245"
      },
      {
        "line": [
          "2020 W 16th Street"
        ],
        "city": "SAFFORD",
        "state": "AZ",
        "postalCode": "85546-4015"
      },
      {
        "line": [
          "2090 N Smoketree Ave"
        ],
        "city": "Lake Havasu City",
        "state": "AZ",
        "postalCode": "86403-5806"
      },
      {
        "line": [
          "6622 N 91ST AVE",
          "STE 210"
        ],
        "city": "GLENDALE",
        "state": "AZ",
        "postalCode": "85305-2569"
      },
      {
        "line": [
          "1601 West St. Marys Road"
        ],
        "city": "TUCSON",
        "state": "AZ",
        "postalCode": "85745-2623"
      },
      {
        "line": [
          "302 EL CAMINO REAL BLDG 11"
        ],
        "city": "SIERRA VISTA",
        "state": "AZ",
        "postalCode": "85635-2860"
      },
      {
        "line": [
          "1710 N Mastick Way"
        ],
        "city": "NOGALES",
        "state": "AZ",
        "postalCode": "85621-1013"
      },
      {
        "line": [
          "10350 East Drexel Road",
          "Suite 204"
        ],
        "city": "TUCSON",
        "state": "AZ",
        "postalCode": "85747-9405"
      },
      {
        "line": [
          "1821 North Trekell Road",
          "Suite 5"
        ],
        "city": "Casa Grande",
        "state": "AZ",
        "postalCode": "85122-1705"
      },
      {
        "line": [
          "450 S GILBERT RD"
        ],
        "city": "CHANDLER",
        "state": "AZ",
        "postalCode": "85225-2479"
      },
      {
        "line": [
          "1824 E Innovation Park Drive"
        ],
        "city": "ORO VALLEY",
        "state": "AZ",
        "postalCode": "85755-1963"
      },
      {
        "line": [
          "2650 Miracle Mile"
        ],
        "city": "BULLHEAD CITY",
        "state": "AZ",
        "postalCode": "86442-7548"
      },
      {
        "line": [
          "5125 N 58TH AVE"
        ],
        "city": "GLENDALE",
        "state": "AZ",
        "postalCode": "85301-7453"
      },
      {
        "line": [
          "2040 North Wilmot Road"
        ],
        "city": "TUCSON",
        "state": "AZ",
        "postalCode": "85712-3039"
      },
      {
        "line": [
          "2149 E Warner Rd"
        ],
        "city": "TEMPE",
        "state": "AZ",
        "postalCode": "85284-3494"
      },
      {
        "line": [
          "2149 East Warner Road",
          "Suite 101"
        ],
        "city": "TEMPE",
        "state": "AZ",
        "postalCode": "85284-3495"
      },
      {
        "line": [
          "203 South Candy Lane",
          "Ste 11A 11B"
        ],
        "city": "Cottonwood",
        "state": "AZ",
        "postalCode": "86326-4120"
      },
      {
        "line": [
          "12740 N Plaza Del Rio Blvd"
        ],
        "city": "PEORIA",
        "state": "AZ",
        "postalCode": "85381-8100"
      },
      {
        "line": [
          "13830 W. Camino Del Sol",
          "Suite 160"
        ],
        "city": "Sun City West",
        "state": "AZ",
        "postalCode": "85375-4485"
      },
      {
        "line": [
          "926 E Mcdowell Rd",
          "STE100"
        ],
        "city": "PHOENIX",
        "state": "AZ",
        "postalCode": "85006-2503"
      },
      {
        "line": [
          "2610 N 3RD ST"
        ],
        "city": "PHOENIX",
        "state": "AZ",
        "postalCode": "85004-1102"
      },
      {
        "line": [
          "350 W Thomas Rd"
        ],
        "city": "PHOENIX",
        "state": "AZ",
        "postalCode": "85013-4409"
      },
      {
        "line": [
          "300 S OCOTILLO AVE"
        ],
        "city": "BENSON",
        "state": "AZ",
        "postalCode": "85602-6401"
      },
      {
        "line": [
          "1739 E Beverly Avenue",
          "Suite 221"
        ],
        "city": "KINGMAN",
        "state": "AZ",
        "postalCode": "86409-3593"
      },
      {
        "line": [
          "660 Coronado Dr"
        ],
        "city": "SIERRA VISTA",
        "state": "AZ",
        "postalCode": "85635-3386"
      },
      {
        "line": [
          "9305 West Thomas Road - Suite 478",
          "Suite 478"
        ],
        "city": "PHOENIX",
        "state": "AZ",
        "postalCode": "85037-3364"
      },
      {
        "line": [
          "9310 N Central Avenue",
          "Ste 1"
        ],
        "city": "PHOENIX",
        "state": "AZ",
        "postalCode": "85020-2416"
      },
      {
        "line": [
          "2174 West Oak Avenue"
        ],
        "city": "DOUGLAS",
        "state": "AZ",
        "postalCode": "85607-6003"
      },
      {
        "line": [
          "1930 N LA CANADA DR",
          "STE 2"
        ],
        "city": "GREEN VALLEY",
        "state": "AZ",
        "postalCode": "85614-4380"
      },
      {
        "line": [
          "14620 W Encanto BLVD",
          "STE 110"
        ],
        "city": "GOODYEAR",
        "state": "AZ",
        "postalCode": "85395-1616"
      },
      {
        "line": [
          "850 W RIO SALADO PKWY STE 201"
        ],
        "city": "TEMPE",
        "state": "AZ",
        "postalCode": "85281-3812"
      },
      {
        "line": [
          "2121 North Beverly Avenue",
          "Suite 105"
        ],
        "city": "TUCSON",
        "state": "AZ",
        "postalCode": "85712-2154"
      },
      {
        "line": [
          "695 South Pecan Tree Lane"
        ],
        "city": "GREEN VALLEY",
        "state": "AZ",
        "postalCode": "85614-5114"
      },
      {
        "line": [
          "2025 W ORANGE GROVE RD"
        ],
        "city": "TUCSON",
        "state": "AZ",
        "postalCode": "85704-1118"
      },
      {
        "line": [
          "14671 W MOUNTAIN VIEW BLVD STE 112"
        ],
        "city": "SURPRISE",
        "state": "AZ",
        "postalCode": "85374-4840"
      },
      {
        "line": [
          "1900 N Higley Rd"
        ],
        "city": "GILBERT",
        "state": "AZ",
        "postalCode": "85234-1604"
      },
      {
        "line": [
          "14620 West Encanto Blvd",
          "Suite 100"
        ],
        "city": "GOODYEAR",
        "state": "AZ",
        "postalCode": "85395-8184"
      },
      {
        "line": [
          "33300 N 32ND AVE STE 201"
        ],
        "city": "PHOENIX",
        "state": "AZ",
        "postalCode": "85085-8824"
      },
      {
        "line": [
          "1851 N GEMINI DR"
        ],
        "city": "FLAGSTAFF",
        "state": "AZ",
        "postalCode": "86001-1607"
      },
      {
        "line": [
          "1041 N Arizola Rd"
        ],
        "city": "CASA GRANDE",
        "state": "AZ",
        "postalCode": "85122-6003"
      },
      {
        "line": [
          "14671 W Mountain View Blvd",
          "STE 106"
        ],
        "city": "SURPRISE",
        "state": "AZ",
        "postalCode": "85374-4840"
      },
      {
        "line": [
          "6060 N Fountain Plaza Dr",
          "Suite 170"
        ],
        "city": "Tucson",
        "state": "AZ",
        "postalCode": "85704-7870"
      },
      {
        "line": [
          "9212 North Central Avenue"
        ],
        "city": "PHOENIX",
        "state": "AZ",
        "postalCode": "85020-2416"
      },
      {
        "line": [
          "8410 W Thomas Rd",
          "Bldg 1 Ste 100"
        ],
        "city": "Phoenix",
        "state": "AZ",
        "postalCode": "85037-3329"
      },
      {
        "line": [
          "807 S Ponderosa St"
        ],
        "city": "PAYSON",
        "state": "AZ",
        "postalCode": "85541-5542"
      },
      {
        "line": [
          "1850 S SAN TAN VILLAGE PKWY"
        ],
        "city": "GILBERT",
        "state": "AZ",
        "postalCode": "85295-6245"
      },
      {
        "line": [
          "6750 E Baywood Ave"
        ],
        "city": "MESA",
        "state": "AZ",
        "postalCode": "85206-1749"
      },
      {
        "line": [
          "9745 N 90th Place",
          "Suite B"
        ],
        "city": "Scottsdale",
        "state": "AZ",
        "postalCode": "85258-5066"
      },
      {
        "line": [
          "10440 East Riggs Road",
          "Suite 209"
        ],
        "city": "CHANDLER",
        "state": "AZ",
        "postalCode": "85248-7751"
      },
      {
        "line": [
          "1876 Sabin Road",
          "Bldg C Unit 3"
        ],
        "city": "CASA GRANDE",
        "state": "AZ",
        "postalCode": "85122-6197"
      },
      {
        "line": [
          "2538 East University Drive",
          "Suite 110"
        ],
        "city": "PHOENIX",
        "state": "AZ",
        "postalCode": "85034-6945"
      },
      {
        "line": [
          "18861 S LA CANADA DR"
        ],
        "city": "SAHUARITA",
        "state": "AZ",
        "postalCode": "85629-7990"
      },
      {
        "line": [
          "3100 N NAVAJO DR, STE B2"
        ],
        "city": "PRESCOTT VALLEY",
        "state": "AZ",
        "postalCode": "86314-8654"
      },
      {
        "line": [
          "13624 West Camino Del Sol",
          "Suite 100"
        ],
        "city": "Sun City West",
        "state": "AZ",
        "postalCode": "85375-3400"
      },
      {
        "line": [
          "20401 N 73RD ST STE 155"
        ],
        "city": "SCOTTSDALE",
        "state": "AZ",
        "postalCode": "85255-4149"
      },
      {
        "line": [
          "2005 Injo Drive",
          "Suite 103"
        ],
        "city": "LAKE HAVASU CITY",
        "state": "AZ",
        "postalCode": "86403-5874"
      },
      {
        "line": [
          "269 South Candy Lane"
        ],
        "city": "COTTONWOOD",
        "state": "AZ",
        "postalCode": "86326-4158"
      },
      {
        "line": [
          "5880 S.  Hospital Drive"
        ],
        "city": "GLOBE",
        "state": "AZ",
        "postalCode": "85501-9447"
      }
    ],
    "extension": [
      {
        "url": "https://fhir.athena.io/StructureDefinition/ah-practice",
        "valueReference": {
          "reference": "Organization/a-1.Practice-2697"
        }
      },
      {
        "url": "https://fhir.athena.io/StructureDefinition/ah-brand",
        "valueReference": {
          "reference": "Organization/a-2697.Brand-1"
        }
      }
    ]
  },
  "fullUrl": "urn:uuid:8c66ca0f-95ca-5622-90c3-da5a973015c1"
}