{
  "resource": {
    "resourceType": "Organization",
    "id": "6b753aaf-646d-594a-9f9e-89f15b83a0b3",
    "name": "POTTSTOWN TELERAD",
    "endpoint": [
      {
        "reference": "Endpoint/27a4e967-47aa-5a9c-a572-b8297ee268a2"
      },
      {
        "reference": "Endpoint/d3598ba4-e387-5acb-9dc7-75c0c75c0dfe"
      }
    ],
    "identifier": [
      {
        "system": "http://hl7.org/fhir/sid/us-npi",
        "value": "1649341934"
      }
    ],
    "address": [
      {
        "line": [
          "513 ACACIA COURT"
        ],
        "city": "REDLANDS",
        "state": "CA",
        "postalCode": "92373-5665"
      },
      {
        "line": [
          "98 E GOODWYN ST"
        ],
        "city": "MEMPHIS",
        "state": "TN",
        "postalCode": "38111-2514"
      },
      {
        "line": [
          "12455 N 118TH WAY"
        ],
        "city": "SCOTTSDALE",
        "state": "AZ",
        "postalCode": "85259-2718"
      },
      {
        "line": [
          "355 BRYANT ST UNIT 409"
        ],
        "city": "SAN FRANCISCO",
        "state": "CA",
        "postalCode": "94107-4164"
      },
      {
        "line": [
          "14235 Ridgemont Drive"
        ],
        "city": "URBANDALE",
        "state": "IA",
        "postalCode": "50323-2284"
      },
      {
        "line": [
          "4870 W PINEWILD RD"
        ],
        "city": "RENO",
        "state": "NV",
        "postalCode": "89511-2779"
      },
      {
        "line": [
          "4696 BROADWAY ST",
          "UNIT 2-A"
        ],
        "city": "BOULDER",
        "state": "CO",
        "postalCode": "80304-0510"
      },
      {
        "line": [
          "116 N DIANTHUS STREET"
        ],
        "city": "MANHATTAN BEACH",
        "state": "CA",
        "postalCode": "90266-6713"
      },
      {
        "line": [
          "1193 WINTERBERRY DR"
        ],
        "city": "MARCO ISLAND",
        "state": "FL",
        "postalCode": "34145-5433"
      },
      {
        "line": [
          "1777 ALA MOANA BLVD APT 922"
        ],
        "city": "HONOLULU",
        "state": "HI",
        "postalCode": "96815-1603"
      },
      {
        "line": [
          "107 KEMPTON DR"
        ],
        "city": "LAFAYETTE",
        "state": "LA",
        "postalCode": "70508-6547"
      },
      {
        "line": [
          "7235 BONNEVAL RD STE 164"
        ],
        "city": "JACKSONVILLE",
        "state": "FL",
        "postalCode": "32256-7565"
      },
      {
        "line": [
          "6129 Tuswell Drive"
        ],
        "city": "DUBLIN",
        "state": "OH",
        "postalCode": "43016-9186"
      },
      {
        "line": [
          "1901 BLACK WATER CT"
        ],
        "city": "LAS VEGAS",
        "state": "NV",
        "postalCode": "89117-1949"
      },
      {
        "line": [
          "457 E 900 S"
        ],
        "city": "MAPLETON",
        "state": "UT",
        "postalCode": "84664-5019"
      },
      {
        "line": [
          "4047 ENSENADA AVE"
        ],
        "city": "MIAMI",
        "state": "FL",
        "postalCode": "33133-6313"
      },
      {
        "line": [
          "3117 S 174TH CIR"
        ],
        "city": "OMAHA",
        "state": "NE",
        "postalCode": "68130-2092"
      },
      {
        "line": [
          "240 Stacey Rd"
        ],
        "city": "NARBERTH",
        "state": "PA",
        "postalCode": "19072-1321"
      },
      {
        "line": [
          "8506 Kentucky Derby Drive"
        ],
        "city": "ODESSA",
        "state": "FL",
        "postalCode": "33556-2445"
      },
      {
        "line": [
          "38 BENNINGTON CT"
        ],
        "city": "RENO",
        "state": "NV",
        "postalCode": "89511-2742"
      },
      {
        "line": [
          "1080 Peachtree St NE"
        ],
        "city": "ATLANTA",
        "state": "GA",
        "postalCode": "30309-6800"
      },
      {
        "line": [
          "11402 NEWPORT BAY DRIVE"
        ],
        "city": "BERLIN",
        "state": "MD",
        "postalCode": "21811-9642"
      },
      {
        "line": [
          "62 CROSS RD"
        ],
        "city": "SYRACUSE",
        "state": "NY",
        "postalCode": "13224-2104"
      },
      {
        "line": [
          "2400 SPRUCE CT"
        ],
        "city": "ROANOKE",
        "state": "TX",
        "postalCode": "76262-8832"
      },
      {
        "line": [
          "3657 SPRING HOLLOW RD"
        ],
        "city": "INDIANAPOLIS",
        "state": "IN",
        "postalCode": "46208-4167"
      },
      {
        "line": [
          "845 COACHWAY"
        ],
        "city": "ANNAPOLIS",
        "state": "MD",
        "postalCode": "21401-6477"
      },
      {
        "line": [
          "30 ASPEN DR"
        ],
        "city": "LIVINGSTON",
        "state": "NJ",
        "postalCode": "07039-1433"
      },
      {
        "line": [
          "3864 STONERIDGE ROAD"
        ],
        "city": "CARLSBAD",
        "state": "CA",
        "postalCode": "92010-7073"
      },
      {
        "line": [
          "295 FOX DRIVE"
        ],
        "city": "BOULDER",
        "state": "CO",
        "postalCode": "80305-3529"
      },
      {
        "line": [
          "918 DEMONT AVENUE E"
        ],
        "city": "MAPLEWOOD",
        "state": "MN",
        "postalCode": "55109-1953"
      },
      {
        "line": [
          "20717 Ashburn Valley Ct"
        ],
        "city": "ASHBURN",
        "state": "VA",
        "postalCode": "20147-4660"
      },
      {
        "line": [
          "2710 Woodland Rd"
        ],
        "city": "EVANSTON",
        "state": "IL",
        "postalCode": "60201-2034"
      },
      {
        "line": [
          "6000 RED TAIL LN"
        ],
        "city": "GIBSONIA",
        "state": "PA",
        "postalCode": "15044-6046"
      },
      {
        "line": [
          "1401 39th Ave E"
        ],
        "city": "SEATTLE",
        "state": "WA",
        "postalCode": "98112-3801"
      },
      {
        "line": [
          "322 KAREN AVE",
          "TURNBERRY TOWER, #4405"
        ],
        "city": "LAS VEGAS",
        "state": "NV",
        "postalCode": "89109-0412"
      },
      {
        "line": [
          "4610 E CERRO DE AGUILA"
        ],
        "city": "TUCSON",
        "state": "AZ",
        "postalCode": "85718-6931"
      },
      {
        "line": [
          "4323 Pond Apple Dr."
        ],
        "city": "NAPLES",
        "state": "FL",
        "postalCode": "34119-8535"
      },
      {
        "line": [
          "4479 Zarahemla Drive"
        ],
        "city": "SALT LAKE CITY",
        "state": "UT",
        "postalCode": "84124-4039"
      },
      {
        "line": [
          "130 CHERRY LN"
        ],
        "city": "WYNNEWOOD",
        "state": "PA",
        "postalCode": "19096-1220"
      },
      {
        "line": [
          "3736 RIVIERA RD"
        ],
        "city": "SARTELL",
        "state": "MN",
        "postalCode": "56377-9763"
      },
      {
        "line": [
          "309 S. Crescent Dr"
        ],
        "city": "BEVERLY HILLS",
        "state": "CA",
        "postalCode": "90212-4502"
      },
      {
        "line": [
          "5605 Saddlewood Lane"
        ],
        "city": "BRENTWOOD",
        "state": "TN",
        "postalCode": "37027-4837"
      },
      {
        "line": [
          "2349 Yanoo Trace"
        ],
        "city": "JASPER",
        "state": "GA",
        "postalCode": "30143-8999"
      },
      {
        "line": [
          "4064 Douglas Road"
        ],
        "city": "DOWNERS GROVE",
        "state": "IL",
        "postalCode": "60515-2244"
      },
      {
        "line": [
          "7711 Silver Lake Dr."
        ],
        "city": "Cottonwood Heights",
        "state": "UT",
        "postalCode": "84121-5342"
      },
      {
        "line": [
          "25 SILVER CRESENT"
        ],
        "city": "IRVINE",
        "state": "CA",
        "postalCode": "92603-3605"
      },
      {
        "line": [
          "403 S OAK ST"
        ],
        "city": "LAKE CITY",
        "state": "MN",
        "postalCode": "55041-1739"
      },
      {
        "line": [
          "7711 Silver Lake Dr."
        ],
        "city": "SALT LAKE CITY",
        "state": "UT",
        "postalCode": "84121-5342"
      },
      {
        "line": [
          "116 N DIANTHUS ST"
        ],
        "city": "MANHATTAN BEACH",
        "state": "CA",
        "postalCode": "90266-6713"
      },
      {
        "line": [
          "12 N CALIBOGUE CAY RD"
        ],
        "city": "HILTON HEAD ISLAND",
        "state": "SC",
        "postalCode": "29928-2913"
      },
      {
        "line": [
          "41 LEEWARD LANE"
        ],
        "city": "GROTON",
        "state": "CT",
        "postalCode": "06340-4876"
      },
      {
        "line": [
          "1810 30TH AVE W"
        ],
        "city": "SEATTLE",
        "state": "WA",
        "postalCode": "98199-4267"
      },
      {
        "line": [
          "2349 Yanoo Trace"
        ],
        "city": "JASPER",
        "state": "GA",
        "postalCode": "30146-8999"
      },
      {
        "line": [
          "91-1111 Hoomahana Street"
        ],
        "city": "EWA BEACH",
        "state": "HI",
        "postalCode": "96706-4630"
      }
    ],
    "extension": [
      {
        "url": "https://fhir.athena.io/StructureDefinition/ah-practice",
        "valueReference": {
          "reference": "Organization/a-1.Practice-1916"
        }
      },
      {
        "url": "https://fhir.athena.io/StructureDefinition/ah-brand",
        "valueReference": {
          "reference": "Organization/a-1916.Brand-4"
        }
      }
    ]
  },
  "fullUrl": "urn:uuid:6b753aaf-646d-594a-9f9e-89f15b83a0b3"
}