{
  "resource": {
    "resourceType": "Organization",
    "id": "b3efc1ea-b69d-58ae-a082-5bb5962da862",
    "name": "Dr. Joseph Morandi",
    "endpoint": [
      {
        "reference": "Endpoint/27a4e967-47aa-5a9c-a572-b8297ee268a2"
      },
      {
        "reference": "Endpoint/7aed36c2-2c8e-591d-b1e2-b3a53a41c550"
      }
    ],
    "identifier": [
      {
        "system": "http://hl7.org/fhir/sid/us-npi",
        "value": "1235790338"
      }
    ],
    "address": [
      {
        "line": [
          "1213 WESTFIELD AVE"
        ],
        "city": "CLARK",
        "state": "NJ",
        "postalCode": "07066-1323"
      },
      {
        "line": [
          "361 MAIN STREET"
        ],
        "city": "CHATHAM",
        "state": "NJ",
        "postalCode": "07928-2229"
      },
      {
        "line": [
          "404 KING GEORGE ROAD"
        ],
        "city": "BASKING RIDGE",
        "state": "NJ",
        "postalCode": "07920-2808"
      },
      {
        "line": [
          "205 BIRCHWOOD AVE"
        ],
        "city": "CRANFORD",
        "state": "NJ",
        "postalCode": "07016-2566"
      },
      {
        "line": [
          "39 Olcott Square",
          "2nd floor"
        ],
        "city": "BERNARDSVILLE",
        "state": "NJ",
        "postalCode": "07924-2453"
      },
      {
        "line": [
          "57 MT BETHEL ROAD"
        ],
        "city": "WARREN",
        "state": "NJ",
        "postalCode": "07059-5606"
      },
      {
        "line": [
          "39 Olcott SQ 2nd Flr"
        ],
        "city": "BERNARDSVILLE",
        "state": "NJ",
        "postalCode": "07924-2453"
      },
      {
        "line": [
          "10 Jackson DR."
        ],
        "city": "CRANFORD",
        "state": "NJ",
        "postalCode": "07016-9998"
      }
    ],
    "extension": [
      {
        "url": "https://fhir.athena.io/StructureDefinition/ah-practice",
        "valueReference": {
          "reference": "Organization/a-1.Practice-20222"
        }
      },
      {
        "url": "https://fhir.athena.io/StructureDefinition/ah-brand",
        "valueReference": {
          "reference": "Organization/a-20222.Brand-1"
        }
      }
    ]
  },
  "fullUrl": "urn:uuid:b3efc1ea-b69d-58ae-a082-5bb5962da862"
}