{
  "resource": {
    "resourceType": "Organization",
    "id": "f8111f0f-8b66-5d6f-aa36-4ceb3e580831",
    "name": "Foot and Ankle Associates of Florida",
    "endpoint": [
      {
        "reference": "Endpoint/27a4e967-47aa-5a9c-a572-b8297ee268a2"
      },
      {
        "reference": "Endpoint/4f06006c-ff74-5fc2-aeed-8627a43c04ac"
      }
    ],
    "identifier": [
      {
        "system": "http://hl7.org/fhir/sid/us-npi",
        "value": "1740275635"
      }
    ],
    "address": [
      {
        "line": [
          "3710 Lake Center Drive"
        ],
        "city": "MOUNT DORA",
        "state": "FL",
        "postalCode": "32757-2316"
      },
      {
        "line": [
          "2501 N. Orange Ave",
          "Suite #439"
        ],
        "city": "ORLANDO",
        "state": "FL",
        "postalCode": "32804-4675"
      },
      {
        "line": [
          "2450 North Orange Blossom Trail"
        ],
        "city": "KISSIMMEE",
        "state": "FL",
        "postalCode": "34744-2316"
      },
      {
        "line": [
          "700 W. Oak Street"
        ],
        "city": "KISSIMMEE",
        "state": "FL",
        "postalCode": "34741-4996"
      },
      {
        "line": [
          "4901 Vineland Rd",
          "Ste #150"
        ],
        "city": "ORLANDO",
        "state": "FL",
        "postalCode": "32811-7190"
      },
      {
        "line": [
          "2275 N. Central Ave"
        ],
        "city": "KISSIMMEE",
        "state": "FL",
        "postalCode": "34741-2342"
      },
      {
        "line": [
          "661 E. Altamonte Drive",
          "#210"
        ],
        "city": "ALTAMONTE SPRINGS",
        "state": "FL",
        "postalCode": "32701-5102"
      },
      {
        "line": [
          "213 E. Oak Street"
        ],
        "city": "KISSIMMEE",
        "state": "FL",
        "postalCode": "34744-4503"
      },
      {
        "line": [
          "1401 West Seminole Blvd"
        ],
        "city": "SANFORD",
        "state": "FL",
        "postalCode": "32771-6743"
      },
      {
        "line": [
          "801 N. Orange Ave",
          "Ste #630"
        ],
        "city": "ORLANDO",
        "state": "FL",
        "postalCode": "32801-5202"
      },
      {
        "line": [
          "601 E. Altamonte Drive"
        ],
        "city": "ALTAMONTE SPRINGS",
        "state": "FL",
        "postalCode": "32701-4802"
      },
      {
        "line": [
          "917 Rinehart Rd"
        ],
        "city": "LAKE MARY",
        "state": "FL",
        "postalCode": "32746-4802"
      },
      {
        "line": [
          "1000 Waterman Way"
        ],
        "city": "TAVARES",
        "state": "FL",
        "postalCode": "32778-5266"
      },
      {
        "line": [
          "9401 Turkey Lake Rd"
        ],
        "city": "ORLANDO",
        "state": "FL",
        "postalCode": "32819-8001"
      },
      {
        "line": [
          "1807 Salk Avenue"
        ],
        "city": "TAVARES",
        "state": "FL",
        "postalCode": "32778-4311"
      },
      {
        "line": [
          "661 E. Altamonte Drive",
          "Ste #110"
        ],
        "city": "ALTAMONTE SPRINGS",
        "state": "FL",
        "postalCode": "32701-5102"
      },
      {
        "line": [
          "555 W.SR 434"
        ],
        "city": "LONGWOOD",
        "state": "FL",
        "postalCode": "32750-5119"
      },
      {
        "line": [
          "601 E Rollins St"
        ],
        "city": "ORLANDO",
        "state": "FL",
        "postalCode": "32803-1248"
      },
      {
        "line": [
          "1307 South International Pkwy",
          "#1061"
        ],
        "city": "LAKE MARY",
        "state": "FL",
        "postalCode": "32746-1412"
      },
      {
        "line": [
          "7477 Sand Lake Commons Blvd."
        ],
        "city": "ORLANDO",
        "state": "FL",
        "postalCode": "32819-8034"
      },
      {
        "line": [
          "460 St.Charles Court"
        ],
        "city": "LAKE MARY",
        "state": "FL",
        "postalCode": "32746-2103"
      },
      {
        "line": [
          "2835 W DE LEON ST",
          "STE 101"
        ],
        "city": "TAMPA",
        "state": "FL",
        "postalCode": "33609-4130"
      },
      {
        "line": [
          "88 W KALEY ST"
        ],
        "city": "ORLANDO",
        "state": "FL",
        "postalCode": "32806-2931"
      },
      {
        "line": [
          "88 W Kaley St"
        ],
        "city": "ORLANDO",
        "state": "FL",
        "postalCode": "32806-2931"
      },
      {
        "line": [
          "7251 UNIVERSITY BLVD STE 100"
        ],
        "city": "WINTER PARK",
        "state": "FL",
        "postalCode": "32792-8659"
      },
      {
        "line": [
          "819 East Oak Street"
        ],
        "city": "KISSIMMEE",
        "state": "FL",
        "postalCode": "34744-5842"
      },
      {
        "line": [
          "392 Rinehart Rd"
        ],
        "city": "LAKE MARY",
        "state": "FL",
        "postalCode": "32746-2527"
      },
      {
        "line": [
          "7727 Lake Underhill Rd"
        ],
        "city": "ORLANDO",
        "state": "FL",
        "postalCode": "32822-8224"
      },
      {
        "line": [
          "7350 Sand Lake Commons Boulevard",
          "Suite 3329, Medplex B"
        ],
        "city": "ORLANDO",
        "state": "FL",
        "postalCode": "32819-8040"
      }
    ],
    "extension": [
      {
        "url": "https://fhir.athena.io/StructureDefinition/ah-practice",
        "valueReference": {
          "reference": "Organization/a-1.Practice-4399"
        }
      },
      {
        "url": "https://fhir.athena.io/StructureDefinition/ah-brand",
        "valueReference": {
          "reference": "Organization/a-4399.Brand-4"
        }
      }
    ]
  },
  "fullUrl": "urn:uuid:f8111f0f-8b66-5d6f-aa36-4ceb3e580831"
}