{
  "resource": {
    "resourceType": "Organization",
    "id": "3432298d-7b60-5c50-a340-5ded493bb521",
    "name": "SaVida Health",
    "endpoint": [
      {
        "reference": "Endpoint/27a4e967-47aa-5a9c-a572-b8297ee268a2"
      },
      {
        "reference": "Endpoint/f5aa8da6-f614-5d01-8b79-6e12cb3e3372"
      }
    ],
    "identifier": [
      {
        "system": "http://hl7.org/fhir/sid/us-npi",
        "value": "1861054744"
      },
      {
        "system": "http://hl7.org/fhir/sid/us-npi",
        "value": "1104386655"
      },
      {
        "system": "http://hl7.org/fhir/sid/us-npi",
        "value": "1124586938"
      },
      {
        "system": "http://hl7.org/fhir/sid/us-npi",
        "value": "1295397032"
      },
      {
        "system": "http://hl7.org/fhir/sid/us-npi",
        "value": "1871801688"
      }
    ],
    "address": [
      {
        "line": [
          "214 Main St"
        ],
        "city": "VERGENNES",
        "state": "VT",
        "postalCode": "05491-1157"
      },
      {
        "line": [
          "462 Hegeman Ave"
        ],
        "city": "COLCHESTER",
        "state": "VT",
        "postalCode": "05446-3187"
      },
      {
        "line": [
          "368 River Street"
        ],
        "city": "SPRINGFIELD",
        "state": "VT",
        "postalCode": "05156-2242"
      },
      {
        "line": [
          "31 Lower Main Street",
          "Suite 3"
        ],
        "city": "MORRISVILLE",
        "state": "VT",
        "postalCode": "05661-6100"
      },
      {
        "line": [
          "17 Catherine Street"
        ],
        "city": "SAINT ALBANS",
        "state": "VT",
        "postalCode": "05478-2205"
      },
      {
        "line": [
          "655 Main Street",
          "Suite 2"
        ],
        "city": "BENNINGTON",
        "state": "VT",
        "postalCode": "05201-2225"
      },
      {
        "line": [
          "54 Chickering Dr. Ste A"
        ],
        "city": "Brattleboro",
        "state": "VT",
        "postalCode": "05301-8805"
      },
      {
        "line": [
          "4614 Memorial Drive"
        ],
        "city": "SAINT JOHNSBURY",
        "state": "VT",
        "postalCode": "05819-8780"
      },
      {
        "line": [
          "79 Coventry St"
        ],
        "city": "NEWPORT",
        "state": "VT",
        "postalCode": "05855-2206"
      }
    ],
    "extension": [
      {
        "url": "https://fhir.athena.io/StructureDefinition/ah-practice",
        "valueReference": {
          "reference": "Organization/a-1.Practice-18057"
        }
      },
      {
        "url": "https://fhir.athena.io/StructureDefinition/ah-brand",
        "valueReference": {
          "reference": "Organization/a-18057.Brand-2"
        }
      }
    ]
  },
  "fullUrl": "urn:uuid:3432298d-7b60-5c50-a340-5ded493bb521"
}