{
  "resource": {
    "resourceType": "Organization",
    "id": "21ceb845-2849-5b4b-9367-8112342b2f3a",
    "name": "VISITING PHYSICIANS OF CALIFORNIA",
    "endpoint": [
      {
        "reference": "Endpoint/27a4e967-47aa-5a9c-a572-b8297ee268a2"
      },
      {
        "reference": "Endpoint/f1dd4b76-1178-5be2-8271-d15443d876e3"
      }
    ],
    "identifier": [
      {
        "system": "http://hl7.org/fhir/sid/us-npi",
        "value": "1083055545"
      }
    ],
    "address": [
      {
        "line": [
          "14164 COHASSET ST."
        ],
        "city": "VAN NUYS",
        "state": "CA",
        "postalCode": "91405-1424"
      },
      {
        "line": [
          "6361 Lochinvar Way"
        ],
        "city": "SACRAMENTO",
        "state": "CA",
        "postalCode": "95823-5662"
      },
      {
        "line": [
          "44523 n. 15th st. west"
        ],
        "city": "LANCASTER",
        "state": "CA",
        "postalCode": "93534-2847"
      },
      {
        "line": [
          "17650 DEVONSHIRE ST."
        ],
        "city": "NORTHRIDGE",
        "state": "CA",
        "postalCode": "91325-1445"
      },
      {
        "line": [
          "2158 JOHN STILL DR."
        ],
        "city": "SACRAMENTO",
        "state": "CA",
        "postalCode": "95832-1246"
      },
      {
        "line": [
          "1340 Highland Ave."
        ],
        "city": "DUARTE",
        "state": "CA",
        "postalCode": "91010-2520"
      },
      {
        "line": [
          "17150 BIRCHER ST."
        ],
        "city": "GRANADA HILLS",
        "state": "CA",
        "postalCode": "91344-2509"
      },
      {
        "line": [
          "1220 Huntington Dr."
        ],
        "city": "DUARTE",
        "state": "CA",
        "postalCode": "91010-2477"
      },
      {
        "line": [
          "4926 SHENANDOAH AVE."
        ],
        "city": "LOS ANGELES",
        "state": "CA",
        "postalCode": "90056-1058"
      }
    ],
    "extension": [
      {
        "url": "https://fhir.athena.io/StructureDefinition/ah-practice",
        "valueReference": {
          "reference": "Organization/a-1.Practice-8150"
        }
      },
      {
        "url": "https://fhir.athena.io/StructureDefinition/ah-brand",
        "valueReference": {
          "reference": "Organization/a-8150.Brand-1"
        }
      }
    ]
  },
  "fullUrl": "urn:uuid:21ceb845-2849-5b4b-9367-8112342b2f3a"
}