{
  "resource": {
    "resourceType": "Organization",
    "id": "b56d93a5-61ca-5d6e-8776-a4826357238e",
    "name": "Precision Vascular",
    "endpoint": [
      {
        "reference": "Endpoint/27a4e967-47aa-5a9c-a572-b8297ee268a2"
      },
      {
        "reference": "Endpoint/8833f32a-a92d-518d-a488-ecd68ca0195d"
      }
    ],
    "identifier": [
      {
        "system": "http://hl7.org/fhir/sid/us-npi",
        "value": "1649501347"
      },
      {
        "system": "http://hl7.org/fhir/sid/us-npi",
        "value": "1750814737"
      }
    ],
    "address": [
      {
        "line": [
          "3901 W 15TH ST"
        ],
        "city": "PLANO",
        "state": "TX",
        "postalCode": "75075-7738"
      },
      {
        "line": [
          "4343 N Josey Lane"
        ],
        "city": "CARROLLTON",
        "state": "TX",
        "postalCode": "75010-4603"
      },
      {
        "line": [
          "3301 Matlock Rd"
        ],
        "city": "ARLINGTON",
        "state": "TX",
        "postalCode": "76015-2908"
      },
      {
        "line": [
          "231 S Collins Rd"
        ],
        "city": "SUNNYVALE",
        "state": "TX",
        "postalCode": "75182-4624"
      },
      {
        "line": [
          "2300 LONE STAR RD"
        ],
        "city": "MANSFIELD",
        "state": "TX",
        "postalCode": "76063-8744"
      },
      {
        "line": [
          "7777 Forest Lane"
        ],
        "city": "DALLAS",
        "state": "TX",
        "postalCode": "75230-2501"
      },
      {
        "line": [
          "12840 Hillcrest Rd",
          "Ste E104"
        ],
        "city": "DALLAS",
        "state": "TX",
        "postalCode": "75230-1528"
      },
      {
        "line": [
          "1190 Haskell Ave"
        ],
        "city": "DALLAS",
        "state": "TX",
        "postalCode": "75204-8102"
      },
      {
        "line": [
          "3500 W WHEATLAND RD"
        ],
        "city": "DALLAS",
        "state": "TX",
        "postalCode": "75237-3460"
      },
      {
        "line": [
          "7955 Harry Hines Blvd"
        ],
        "city": "DALLAS",
        "state": "TX",
        "postalCode": "75235-3305"
      },
      {
        "line": [
          "1871 Harroun Ave",
          "Ste 200"
        ],
        "city": "MCKINNEY",
        "state": "TX",
        "postalCode": "75069-3496"
      },
      {
        "line": [
          "811 Wright St."
        ],
        "city": "ARLINGTON",
        "state": "TX",
        "postalCode": "76012-4708"
      },
      {
        "line": [
          "3601 N CALAIS ST"
        ],
        "city": "SHERMAN",
        "state": "TX",
        "postalCode": "75090-1785"
      },
      {
        "line": [
          "801 W INTERSTATE 20"
        ],
        "city": "ARLINGTON",
        "state": "TX",
        "postalCode": "76017-5851"
      },
      {
        "line": [
          "231 S COLLINS RD"
        ],
        "city": "SUNNYVALE",
        "state": "TX",
        "postalCode": "75182-4624"
      }
    ],
    "extension": [
      {
        "url": "https://fhir.athena.io/StructureDefinition/ah-practice",
        "valueReference": {
          "reference": "Organization/a-1.Practice-2477"
        }
      },
      {
        "url": "https://fhir.athena.io/StructureDefinition/ah-brand",
        "valueReference": {
          "reference": "Organization/a-2477.Brand-9"
        }
      }
    ]
  },
  "fullUrl": "urn:uuid:b56d93a5-61ca-5d6e-8776-a4826357238e"
}