{
  "resource": {
    "resourceType": "Organization",
    "id": "aafd2a16-1d8c-5650-8708-5df8b853b1d3",
    "name": "ST. JOHNS FOOT AND ANKLE SPECIALISTS",
    "endpoint": [
      {
        "reference": "Endpoint/27a4e967-47aa-5a9c-a572-b8297ee268a2"
      },
      {
        "reference": "Endpoint/be526f28-e935-53dc-80d7-89a661240f05"
      }
    ],
    "identifier": [
      {
        "system": "http://hl7.org/fhir/sid/us-npi",
        "value": "1457839839"
      }
    ],
    "address": [
      {
        "line": [
          "243 St. George St."
        ],
        "city": "SAINT AUGUSTINE",
        "state": "FL",
        "postalCode": "32084-4435"
      },
      {
        "line": [
          "30 Memorial Medical Pkwy"
        ],
        "city": "PALM COAST",
        "state": "FL",
        "postalCode": "32164-5980"
      },
      {
        "line": [
          "66 Blare Castle Dr"
        ],
        "city": "PALM COAST",
        "state": "FL",
        "postalCode": "32137-7309"
      },
      {
        "line": [
          "1690 US Hwy 1 S",
          "Suite 105"
        ],
        "city": "SAINT AUGUSTINE",
        "state": "FL",
        "postalCode": "32084-6024"
      },
      {
        "line": [
          "320 Zeagler Drive",
          "Suite B"
        ],
        "city": "PALATKA",
        "state": "FL",
        "postalCode": "32177-6851"
      },
      {
        "line": [
          "2125 PALM HARBOR PARKWAY"
        ],
        "city": "PALM COAST",
        "state": "FL",
        "postalCode": "32137-8000"
      },
      {
        "line": [
          "100 whetstone place",
          "204"
        ],
        "city": "SAINT AUGUSTINE",
        "state": "FL",
        "postalCode": "32086-5744"
      },
      {
        "line": [
          "611 Zeagler Dr"
        ],
        "city": "PALATKA",
        "state": "FL",
        "postalCode": "32177-3810"
      },
      {
        "line": [
          "180 MARINE ST"
        ],
        "city": "SAINT AUGUSTINE",
        "state": "FL",
        "postalCode": "32084-5153"
      },
      {
        "line": [
          "50 town court"
        ],
        "city": "PALM COAST",
        "state": "FL",
        "postalCode": "32164-5980"
      },
      {
        "line": [
          "60 Memorial Medical Pkwy"
        ],
        "city": "PALM COAST",
        "state": "FL",
        "postalCode": "32164-5980"
      },
      {
        "line": [
          "400 HEALTH PARK BLVD"
        ],
        "city": "SAINT AUGUSTINE",
        "state": "FL",
        "postalCode": "32086-5784"
      },
      {
        "line": [
          "300 Dr Carter Blvd"
        ],
        "city": "BUNNELL",
        "state": "FL",
        "postalCode": "32110-6211"
      },
      {
        "line": [
          "400 Health Park Blvd"
        ],
        "city": "SAINT AUGUSTINE",
        "state": "FL",
        "postalCode": "32086-5784"
      },
      {
        "line": [
          "1690 US Hwy 1 S.",
          "Suite C"
        ],
        "city": "SAINT AUGUSTINE",
        "state": "FL",
        "postalCode": "32084-6024"
      },
      {
        "line": [
          "65 SILVER LN"
        ],
        "city": "SAINT AUGUSTINE",
        "state": "FL",
        "postalCode": "32084-3922"
      },
      {
        "line": [
          "9 ramble way"
        ],
        "city": "PALM COAST",
        "state": "FL",
        "postalCode": "32164-8800"
      }
    ],
    "extension": [
      {
        "url": "https://fhir.athena.io/StructureDefinition/ah-practice",
        "valueReference": {
          "reference": "Organization/a-1.Practice-18420"
        }
      },
      {
        "url": "https://fhir.athena.io/StructureDefinition/ah-brand",
        "valueReference": {
          "reference": "Organization/a-18420.Brand-1"
        }
      }
    ]
  },
  "fullUrl": "urn:uuid:aafd2a16-1d8c-5650-8708-5df8b853b1d3"
}