{
  "resource": {
    "resourceType": "Organization",
    "id": "6382bd0c-52e7-5c11-9f91-b0d1f5cab965",
    "name": "SC House Calls/ Main Street Ph",
    "endpoint": [
      {
        "reference": "Endpoint/27a4e967-47aa-5a9c-a572-b8297ee268a2"
      },
      {
        "reference": "Endpoint/5fe28c19-5951-596a-aa9c-894078f02c86"
      }
    ],
    "identifier": [
      {
        "system": "http://hl7.org/fhir/sid/us-npi",
        "value": "1518048859"
      }
    ],
    "address": [
      {
        "line": [
          "7631 RITTER RD"
        ],
        "city": "WALTERBORO",
        "state": "SC",
        "postalCode": "29488-7179"
      },
      {
        "line": [
          "77 BETHANY WAY"
        ],
        "city": "STATESBORO",
        "state": "GA",
        "postalCode": "30458-2788"
      },
      {
        "line": [
          "17 EDWARDS ST"
        ],
        "city": "SUMTER",
        "state": "SC",
        "postalCode": "29150-4808"
      },
      {
        "line": [
          "120 LAKES AT LITCHFIELD DR"
        ],
        "city": "PAWLEYS ISLAND",
        "state": "SC",
        "postalCode": "29585-9001"
      },
      {
        "line": [
          "355 Berkmans Lane"
        ],
        "city": "GREENVILLE",
        "state": "SC",
        "postalCode": "29605-5606"
      },
      {
        "line": [
          "1408 Parkway Rd"
        ],
        "city": "GREENWOOD",
        "state": "SC",
        "postalCode": "29646-4043"
      },
      {
        "line": [
          "12488 Old #6 Highway"
        ],
        "city": "EUTAWVILLE",
        "state": "SC",
        "postalCode": "29048-9167"
      },
      {
        "line": [
          "925 DOYLE ST"
        ],
        "city": "ORANGEBURG",
        "state": "SC",
        "postalCode": "29115-6086"
      },
      {
        "line": [
          "141 TIMBER TRAIL RD"
        ],
        "city": "RICHMOND HILL",
        "state": "GA",
        "postalCode": "31324-9402"
      },
      {
        "line": [
          "2401 ATLAS RD"
        ],
        "city": "COLUMBIA",
        "state": "SC",
        "postalCode": "29209-3698"
      },
      {
        "line": [
          "2010 Brushy Creek Rd"
        ],
        "city": "GREER",
        "state": "SC",
        "postalCode": "29650-2614"
      },
      {
        "line": [
          "2215 OLD HAMILTON PL"
        ],
        "city": "GAINESVILLE",
        "state": "GA",
        "postalCode": "30507-7893"
      },
      {
        "line": [
          "167 Benthomp Road"
        ],
        "city": "ORANGEBURG",
        "state": "SC",
        "postalCode": "29115-9478"
      },
      {
        "line": [
          "10 N GREENWOOD AVE"
        ],
        "city": "WARE SHOALS",
        "state": "SC",
        "postalCode": "29692-1239"
      },
      {
        "line": [
          "1761 Pinewood Road"
        ],
        "city": "SUMTER",
        "state": "SC",
        "postalCode": "29154-9056"
      },
      {
        "line": [
          "3620 Happy Wood Court"
        ],
        "city": "MYRTLE BEACH",
        "state": "SC",
        "postalCode": "29588-2925"
      },
      {
        "line": [
          "2590 Elms Plantation Blvd"
        ],
        "city": "CHARLESTON",
        "state": "SC",
        "postalCode": "29406-8105"
      },
      {
        "line": [
          "111 DOCTOR CIR"
        ],
        "city": "COLUMBIA",
        "state": "SC",
        "postalCode": "29203-6502"
      },
      {
        "line": [
          "6535 Carolina highway"
        ],
        "city": "DENMARK",
        "state": "SC",
        "postalCode": "29042-9999"
      },
      {
        "line": [
          "218 OLD CHAPIN RD"
        ],
        "city": "LEXINGTON",
        "state": "SC",
        "postalCode": "29072-2030"
      },
      {
        "line": [
          "745 DILWORTH LN"
        ],
        "city": "ROCK HILL",
        "state": "SC",
        "postalCode": "29732-8098"
      },
      {
        "line": [
          "6800 Doby Dr."
        ],
        "city": "COLUMBIA",
        "state": "SC",
        "postalCode": "29203-5133"
      },
      {
        "line": [
          "190 Mcswain Drive"
        ],
        "city": "WEST COLUMBIA",
        "state": "SC",
        "postalCode": "29169-4825"
      },
      {
        "line": [
          "10 Companion Court"
        ],
        "city": "GREER",
        "state": "SC",
        "postalCode": "29651-1288"
      },
      {
        "line": [
          "25 GLENLAKE PKWY"
        ],
        "city": "ATLANTA",
        "state": "GA",
        "postalCode": "30328-3403"
      },
      {
        "line": [
          "133 W Clarke Road"
        ],
        "city": "FLORENCE",
        "state": "SC",
        "postalCode": "29501-0722"
      },
      {
        "line": [
          "1560 Thornblade Blvd"
        ],
        "city": "GREER",
        "state": "SC",
        "postalCode": "29650-4448"
      },
      {
        "line": [
          "1516 Grays Hwy"
        ],
        "city": "RIDGELAND",
        "state": "SC",
        "postalCode": "29936-5440"
      },
      {
        "line": [
          "9547 N KINGS HWY"
        ],
        "city": "MYRTLE BEACH",
        "state": "SC",
        "postalCode": "29572-4005"
      },
      {
        "line": [
          "1434 N LIMESTONE ST"
        ],
        "city": "GAFFNEY",
        "state": "SC",
        "postalCode": "29340-4734"
      },
      {
        "line": [
          "3501 LIVELY LN"
        ],
        "city": "MOUNT PLEASANT",
        "state": "SC",
        "postalCode": "29466-7263"
      },
      {
        "line": [
          "3750 Sheminally Rd"
        ],
        "city": "PAMPLICO",
        "state": "SC",
        "postalCode": "29583-5700"
      },
      {
        "line": [
          "2006 Pelham Rd"
        ],
        "city": "GREENVILLE",
        "state": "SC",
        "postalCode": "29615-4005"
      },
      {
        "line": [
          "1588 BLOOM ST"
        ],
        "city": "MOUNT PLEASANT",
        "state": "SC",
        "postalCode": "29466-7260"
      },
      {
        "line": [
          "2100 Twin Church Road"
        ],
        "city": "FLORENCE",
        "state": "SC",
        "postalCode": "29501-8200"
      },
      {
        "line": [
          "2807 KING ST"
        ],
        "city": "Augusta",
        "state": "GA",
        "postalCode": "30906-3302"
      },
      {
        "line": [
          "118 Britain Street"
        ],
        "city": "SANTEE",
        "state": "SC",
        "postalCode": "29142-9999"
      },
      {
        "line": [
          "1207 N. Cashua Dr."
        ],
        "city": "FLORENCE",
        "state": "SC",
        "postalCode": "29501-6937"
      },
      {
        "line": [
          "3105 Dick Pond Rd"
        ],
        "city": "MYRTLE BEACH",
        "state": "SC",
        "postalCode": "29588-9801"
      },
      {
        "line": [
          "2825 CARTER RD"
        ],
        "city": "SUMTER",
        "state": "SC",
        "postalCode": "29150-1712"
      },
      {
        "line": [
          "3736 ROBERT M GRISSOM PKWY"
        ],
        "city": "MYRTLE BEACH",
        "state": "SC",
        "postalCode": "29577-6405"
      },
      {
        "line": [
          "110 PONTIAC BUSINESS CENTER DR"
        ],
        "city": "ELGIN",
        "state": "SC",
        "postalCode": "29045-9171"
      },
      {
        "line": [
          "2208 WALDEN DR"
        ],
        "city": "AUGUSTA",
        "state": "GA",
        "postalCode": "30904-6508"
      },
      {
        "line": [
          "900 N MARQUIS HWY"
        ],
        "city": "HARTSVILLE",
        "state": "SC",
        "postalCode": "29550-3526"
      },
      {
        "line": [
          "2600 Elms Plantation"
        ],
        "city": "CHARLESTON-",
        "state": "SC",
        "postalCode": "29406-9146"
      },
      {
        "line": [
          "213 Laurens Street, NW"
        ],
        "city": "Aiken",
        "state": "SC",
        "postalCode": "29801-3911"
      },
      {
        "line": [
          "529 MILLS AVE"
        ],
        "city": "GREENVILLE",
        "state": "SC",
        "postalCode": "29605-4218"
      },
      {
        "line": [
          "3335 WISE CREEK LN"
        ],
        "city": "AIKEN",
        "state": "SC",
        "postalCode": "29801-2509"
      },
      {
        "line": [
          "3769 KALLIE CIR"
        ],
        "city": "DAWSONVILLE",
        "state": "GA",
        "postalCode": "30534-5058"
      },
      {
        "line": [
          "1550 GLYNCO PKWY"
        ],
        "city": "BRUNSWICK",
        "state": "GA",
        "postalCode": "31525-7900"
      },
      {
        "line": [
          "1720 Devonshire Dr"
        ],
        "city": "COLUMBIA",
        "state": "SC",
        "postalCode": "29204-4094"
      },
      {
        "line": [
          "104 DILLION DR"
        ],
        "city": "SPARTANBURG",
        "state": "SC",
        "postalCode": "29307-1001"
      },
      {
        "line": [
          "170 EMANUEL HARRIS RD NE"
        ],
        "city": "MILLEDGEVILLE",
        "state": "GA",
        "postalCode": "31061-8768"
      },
      {
        "line": [
          "955 Ribaut Rd"
        ],
        "city": "BEAUFORT",
        "state": "SC",
        "postalCode": "29902-0110"
      },
      {
        "line": [
          "1 Havenwood Land"
        ],
        "city": "TRAVELERS REST",
        "state": "SC",
        "postalCode": "29690-9680"
      },
      {
        "line": [
          "872 Singleton Ridge Rd"
        ],
        "city": "CONWAY",
        "state": "SC",
        "postalCode": "29526-1101"
      },
      {
        "line": [
          "107 W LIBERTY ST"
        ],
        "city": "CLAXTON",
        "state": "GA",
        "postalCode": "30417-2005"
      },
      {
        "line": [
          "3501 Merrill Place"
        ],
        "city": "MOUNT PLEASANT",
        "state": "SC",
        "postalCode": "29466-9442"
      },
      {
        "line": [
          "275 Common Wealth Dr."
        ],
        "city": "GREENVILLE",
        "state": "SC",
        "postalCode": "29615-4814"
      },
      {
        "line": [
          "3431 Rivers Ave"
        ],
        "city": "NORTH CHARLESTON",
        "state": "SC",
        "postalCode": "29405-7760"
      },
      {
        "line": [
          "581 Newberry Highway"
        ],
        "city": "SALUDA",
        "state": "SC",
        "postalCode": "29138-7808"
      },
      {
        "line": [
          "1 still hopes"
        ],
        "city": "WEST COLUMBIA",
        "state": "SC",
        "postalCode": "29169-7164"
      },
      {
        "line": [
          "5001 LITTLE RIVER RD"
        ],
        "city": "MYRTLE BEACH",
        "state": "SC",
        "postalCode": "29577-2449"
      },
      {
        "line": [
          "190 River Park Drive"
        ],
        "city": "LITTLE RIVER",
        "state": "SC",
        "postalCode": "29566-6844"
      },
      {
        "line": [
          "1041 Portside Drive"
        ],
        "city": "MYRTLE BEACH",
        "state": "SC",
        "postalCode": "29572-4642"
      },
      {
        "line": [
          "1273Remount Road"
        ],
        "city": "CHARLESTON",
        "state": "SC",
        "postalCode": "29406-3439"
      },
      {
        "line": [
          "620 W BLACKSTOCK RD"
        ],
        "city": "SPARTANBURG",
        "state": "SC",
        "postalCode": "29301-6810"
      },
      {
        "line": [
          "9330 Medical Plaza Drive"
        ],
        "city": "CHARLESTON",
        "state": "SC",
        "postalCode": "29406-9104"
      },
      {
        "line": [
          "104 Spring Hall Dr"
        ],
        "city": "GOOSE CREEK",
        "state": "SC",
        "postalCode": "29445-9654"
      },
      {
        "line": [
          "3001 BEECHAVEN RD"
        ],
        "city": "COLUMBIA",
        "state": "SC",
        "postalCode": "29204-2701"
      },
      {
        "line": [
          "80 Main Street"
        ],
        "city": "HILTON HEAD ISLAND",
        "state": "SC",
        "postalCode": "29926-2900"
      },
      {
        "line": [
          "2350 W Lucas St"
        ],
        "city": "FLORENCE",
        "state": "SC",
        "postalCode": "29501-1208"
      },
      {
        "line": [
          "20 MAYFIELD ST"
        ],
        "city": "GREENVILLE",
        "state": "SC",
        "postalCode": "29601-1815"
      },
      {
        "line": [
          "2565 THOMPSON BRIDGE RD STE 114"
        ],
        "city": "GAINESVILLE",
        "state": "GA",
        "postalCode": "30501-1723"
      },
      {
        "line": [
          "2585 Hwy 179"
        ],
        "city": "LITTLE RIVER",
        "state": "SC",
        "postalCode": "29566-9451"
      },
      {
        "line": [
          "491 Highway 17"
        ],
        "city": "LITTLE RIVER",
        "state": "SC",
        "postalCode": "29566-8082"
      },
      {
        "line": [
          "338 Elbow Circle"
        ],
        "city": "RIDGEWAY",
        "state": "SC",
        "postalCode": "29130-9999"
      },
      {
        "line": [
          "120 ADDY LN"
        ],
        "city": "LEXINGTON",
        "state": "SC",
        "postalCode": "29072-3405"
      },
      {
        "line": [
          "1115 CARTER ST"
        ],
        "city": "COLUMBIA",
        "state": "SC",
        "postalCode": "29204-2876"
      },
      {
        "line": [
          "104 Dillon Drive"
        ],
        "city": "SPARTANBURG",
        "state": "SC",
        "postalCode": "29307-1018"
      },
      {
        "line": [
          "1810 Richmond Avenue"
        ],
        "city": "PORT ROYAL",
        "state": "SC",
        "postalCode": "29935-2015"
      },
      {
        "line": [
          "2780 East Min Street"
        ],
        "city": "SPARTANBURG",
        "state": "SC",
        "postalCode": "29301-1248"
      },
      {
        "line": [
          "726 Old Spartanburg Highway"
        ],
        "city": "WELLFORD",
        "state": "SC",
        "postalCode": "29385-9668"
      },
      {
        "line": [
          "2681 LENGERS WAY"
        ],
        "city": "FORT MILL",
        "state": "SC",
        "postalCode": "29707-4200"
      },
      {
        "line": [
          "2300 Clemson Road"
        ],
        "city": "COLUMBIA",
        "state": "SC",
        "postalCode": "29229-6872"
      },
      {
        "line": [
          "1110 Marshall Road"
        ],
        "city": "GREENWOOD",
        "state": "SC",
        "postalCode": "29646-4216"
      },
      {
        "line": [
          "937 Bowman Rd"
        ],
        "city": "MOUNT PLEASANT",
        "state": "SC",
        "postalCode": "29464-3336"
      },
      {
        "line": [
          "703 Broad Street"
        ],
        "city": "SUMTER",
        "state": "SC",
        "postalCode": "29150-9999"
      },
      {
        "line": [
          "116 ENTERPRISE CT"
        ],
        "city": "GREENWOOD",
        "state": "SC",
        "postalCode": "29649-1666"
      },
      {
        "line": [
          "1705 Skylan Dr"
        ],
        "city": "SPARTANBURG",
        "state": "SC",
        "postalCode": "29307-1077"
      },
      {
        "line": [
          "201 W WASHINGTON ST"
        ],
        "city": "GREENVILLE",
        "state": "SC",
        "postalCode": "29601-2669"
      },
      {
        "line": [
          "45 COBURG RD"
        ],
        "city": "CHARLESTON",
        "state": "SC",
        "postalCode": "29407-7352"
      },
      {
        "line": [
          "1170 Cardinal Point Drive"
        ],
        "city": "ROCK HILL",
        "state": "SC",
        "postalCode": "29732-7556"
      },
      {
        "line": [
          "23 Southpointe Dr"
        ],
        "city": "GREENVILLE",
        "state": "SC",
        "postalCode": "29607-5956"
      },
      {
        "line": [
          "125 SOUTHERN JUNCTION BLVD"
        ],
        "city": "POOLER",
        "state": "GA",
        "postalCode": "31322-2214"
      },
      {
        "line": [
          "335 midland Parkway"
        ],
        "city": "SUMMERVILLE",
        "state": "SC",
        "postalCode": "29485-8138"
      },
      {
        "line": [
          "9 Sunset Blvd."
        ],
        "city": "BEAUFORT",
        "state": "SC",
        "postalCode": "29907-1465"
      },
      {
        "line": [
          "190 RIVER PARK DR"
        ],
        "city": "LITTLE RIVER",
        "state": "SC",
        "postalCode": "29566-6844"
      },
      {
        "line": [
          "101 Centennial Blvd"
        ],
        "city": "GOOSE CREEK",
        "state": "SC",
        "postalCode": "29445-7079"
      },
      {
        "line": [
          "25 Cassidy Drive"
        ],
        "city": "Bluffton",
        "state": "SC",
        "postalCode": "29910-4143"
      },
      {
        "line": [
          "5130 Wescott Blvd"
        ],
        "city": "SUMMERVILLE",
        "state": "SC",
        "postalCode": "29485-9043"
      },
      {
        "line": [
          "360 WOODRUFF RD"
        ],
        "city": "GREENVILLE",
        "state": "SC",
        "postalCode": "29607-3692"
      },
      {
        "line": [
          "226 W A Reel Drive"
        ],
        "city": "EDGEFIELD",
        "state": "SC",
        "postalCode": "29824-4534"
      },
      {
        "line": [
          "51 Woodcross Drive"
        ],
        "city": "COLUMBIA",
        "state": "SC",
        "postalCode": "29212-2350"
      },
      {
        "line": [
          "530 Benton House Way"
        ],
        "city": "AIKEN",
        "state": "SC",
        "postalCode": "29803-3924"
      },
      {
        "line": [
          "4111 MURRELLS INLET RD"
        ],
        "city": "MURRELLS INLET",
        "state": "SC",
        "postalCode": "29576-6208"
      },
      {
        "line": [
          "1 MARTHA FRANKS DR"
        ],
        "city": "LAURENS",
        "state": "SC",
        "postalCode": "29360-1772"
      },
      {
        "line": [
          "3212 WRIGHTSBORO RD"
        ],
        "city": "AUGUSTA",
        "state": "GA",
        "postalCode": "30909-2937"
      },
      {
        "line": [
          "1400 LIBERTY MIDTOWN DR"
        ],
        "city": "MOUNT PLEASANT",
        "state": "SC",
        "postalCode": "29464-3997"
      },
      {
        "line": [
          "2135 SIBLEY RD"
        ],
        "city": "AUGUSTA",
        "state": "GA",
        "postalCode": "30909-4269"
      },
      {
        "line": [
          "2604 WHITTIER PL"
        ],
        "city": "HEPHZIBAH",
        "state": "GA",
        "postalCode": "30815-6157"
      },
      {
        "line": [
          "709 Rice Ave"
        ],
        "city": "UNION",
        "state": "SC",
        "postalCode": "29379-8613"
      },
      {
        "line": [
          "453 S MCQUEEN ST"
        ],
        "city": "FLORENCE",
        "state": "SC",
        "postalCode": "29501-5167"
      },
      {
        "line": [
          "113 Ellison Street"
        ],
        "city": "BENNETTSVILLE",
        "state": "SC",
        "postalCode": "29512-3768"
      },
      {
        "line": [
          "208 BLOSSOM DR"
        ],
        "city": "GREENVILLE",
        "state": "SC",
        "postalCode": "29605-4910"
      },
      {
        "line": [
          "175 S BROAD ST"
        ],
        "city": "WINDER",
        "state": "GA",
        "postalCode": "30680-8121"
      },
      {
        "line": [
          "200 Wellmore drive"
        ],
        "city": "LEXINGTON",
        "state": "SC",
        "postalCode": "29072-9172"
      },
      {
        "line": [
          "3589 Bluff Rd"
        ],
        "city": "ALLENDALE",
        "state": "SC",
        "postalCode": "29810-4139"
      },
      {
        "line": [
          "153 SOLOMON ST"
        ],
        "city": "COLUMBIA",
        "state": "SC",
        "postalCode": "29203-4949"
      },
      {
        "line": [
          "2019 HACKEMANN AVE"
        ],
        "city": "NORTH CHARLESTON",
        "state": "SC",
        "postalCode": "29405-8323"
      },
      {
        "line": [
          "140 Tokeena Road"
        ],
        "city": "SENECA",
        "state": "SC",
        "postalCode": "29678-1744"
      },
      {
        "line": [
          "2435 LIMESTONE PKWY"
        ],
        "city": "GAINESVILLE",
        "state": "GA",
        "postalCode": "30501-2093"
      },
      {
        "line": [
          "1110 FLORENCE HWY"
        ],
        "city": "SUMTER",
        "state": "SC",
        "postalCode": "29153-7887"
      },
      {
        "line": [
          "1125 PINEY GROVE RD"
        ],
        "city": "AUGUSTA",
        "state": "GA",
        "postalCode": "30906-8714"
      },
      {
        "line": [
          "1451 TOBIAS GADSON BLVD"
        ],
        "city": "CHARLESTON",
        "state": "SC",
        "postalCode": "29407-4769"
      },
      {
        "line": [
          "764 N CHURCH ST"
        ],
        "city": "SPARTANBURG",
        "state": "SC",
        "postalCode": "29303-3097"
      },
      {
        "line": [
          "2121 MARTIN LUTHER KING JR DR"
        ],
        "city": "ALBANY",
        "state": "GA",
        "postalCode": "31701-4101"
      },
      {
        "line": [
          "509 Standard Way"
        ],
        "city": "CHARLESTON",
        "state": "SC",
        "postalCode": "29412-9999"
      },
      {
        "line": [
          "4877 Charlotte Highway"
        ],
        "city": "CLOVER",
        "state": "SC",
        "postalCode": "29710-8096"
      },
      {
        "line": [
          "1267 North Main Street"
        ],
        "city": "SUMTER",
        "state": "SC",
        "postalCode": "29153-2138"
      },
      {
        "line": [
          "6309 Hawthorne Ln"
        ],
        "city": "MYRTLE BEACH",
        "state": "SC",
        "postalCode": "29572-3255"
      },
      {
        "line": [
          "204 Holiday Road"
        ],
        "city": "MC CORMICK",
        "state": "SC",
        "postalCode": "29835-3429"
      },
      {
        "line": [
          "1535 S Morgan Ave",
          "Unit B"
        ],
        "city": "ANDREWS",
        "state": "SC",
        "postalCode": "29510-9999"
      },
      {
        "line": [
          "2333 Ashley River Rd"
        ],
        "city": "CHARLESTON",
        "state": "SC",
        "postalCode": "29414-9999"
      },
      {
        "line": [
          "731 Polo Rd"
        ],
        "city": "COLUMBIA",
        "state": "SC",
        "postalCode": "29223-4462"
      },
      {
        "line": [
          "141 CALLISON HWY"
        ],
        "city": "MC CORMICK",
        "state": "SC",
        "postalCode": "29835-3524"
      },
      {
        "line": [
          "749 DUNKINS FERRY RD"
        ],
        "city": "ROCK HILL",
        "state": "SC",
        "postalCode": "29730-0190"
      },
      {
        "line": [
          "181 MEMORY LN"
        ],
        "city": "DAWSONVILLE",
        "state": "GA",
        "postalCode": "30534-4359"
      },
      {
        "line": [
          "1053 CENTER ST"
        ],
        "city": "WEST COLUMBIA",
        "state": "SC",
        "postalCode": "29169-6749"
      },
      {
        "line": [
          "722 S Dargan St."
        ],
        "city": "FLORENCE",
        "state": "SC",
        "postalCode": "29506-2559"
      },
      {
        "line": [
          "407 HARVEY ST"
        ],
        "city": "Stapleton",
        "state": "GA",
        "postalCode": "30823-6649"
      },
      {
        "line": [
          "35 S Howard Street"
        ],
        "city": "INMAN",
        "state": "SC",
        "postalCode": "29349-1339"
      },
      {
        "line": [
          "1 Medical Park"
        ],
        "city": "CHESTER",
        "state": "SC",
        "postalCode": "29706-9769"
      },
      {
        "line": [
          "21 Edwards Street"
        ],
        "city": "SUMTER",
        "state": "SC",
        "postalCode": "29150-4808"
      },
      {
        "line": [
          "1224 Village Creek Ln"
        ],
        "city": "MOUNT PLEASANT",
        "state": "SC",
        "postalCode": "29464-3146"
      },
      {
        "line": [
          "7419 OCEAN HWY"
        ],
        "city": "PAWLEYS ISLAND",
        "state": "SC",
        "postalCode": "29585-7446"
      },
      {
        "line": [
          "110 Summit Hills Dr."
        ],
        "city": "SPARTANBURG",
        "state": "SC",
        "postalCode": "29307-1532"
      },
      {
        "line": [
          "1800 Eagle Landing Blvd"
        ],
        "city": "CHARLESTON",
        "state": "SC",
        "postalCode": "29410-8517"
      },
      {
        "line": [
          "600 Sulphur Springs Rd"
        ],
        "city": "GREENVILLE",
        "state": "SC",
        "postalCode": "29617-1622"
      },
      {
        "line": [
          "60 Okatie Village"
        ],
        "city": "BLUFFTON",
        "state": "SC",
        "postalCode": "29910-9999"
      },
      {
        "line": [
          "9136 OLD MONTGOMERY RD"
        ],
        "city": "SAVANNAH",
        "state": "GA",
        "postalCode": "31406-6215"
      },
      {
        "line": [
          "260 Seminole Drive"
        ],
        "city": "ORANGEBURG",
        "state": "SC",
        "postalCode": "29115-7622"
      },
      {
        "line": [
          "2563 N FRASER ST"
        ],
        "city": "GEORGETOWN",
        "state": "SC",
        "postalCode": "29440-6411"
      },
      {
        "line": [
          "2382 WHEELESS RD"
        ],
        "city": "AUGUSTA",
        "state": "GA",
        "postalCode": "30906-5404"
      },
      {
        "line": [
          "422 RIVERSIDE RD"
        ],
        "city": "BUFORD",
        "state": "GA",
        "postalCode": "30518-5636"
      },
      {
        "line": [
          "87 Birdsong"
        ],
        "city": "HILTON HEAD ISLAND",
        "state": "SC",
        "postalCode": "29926-1365"
      },
      {
        "line": [
          "5721 SPRINGFIELD RD"
        ],
        "city": "WILLISTON",
        "state": "SC",
        "postalCode": "29853-1917"
      },
      {
        "line": [
          "514 S GUM ST"
        ],
        "city": "PAGELAND",
        "state": "SC",
        "postalCode": "29728-9143"
      },
      {
        "line": [
          "1611 CHARLTON ST"
        ],
        "city": "COLUMBIA",
        "state": "SC",
        "postalCode": "29203-5910"
      },
      {
        "line": [
          "3035 Okatie Hwy"
        ],
        "city": "BLUFFTON",
        "state": "SC",
        "postalCode": "29910-9999"
      },
      {
        "line": [
          "203 Old Chapin Rd"
        ],
        "city": "LEXINGTON",
        "state": "SC",
        "postalCode": "29072-2017"
      },
      {
        "line": [
          "201 Overland Dr"
        ],
        "city": "GREENWOOD",
        "state": "SC",
        "postalCode": "29646-4097"
      },
      {
        "line": [
          "706 Pelzer Highway"
        ],
        "city": "EASLEY",
        "state": "SC",
        "postalCode": "29642-2941"
      },
      {
        "line": [
          "1004 HARDIN ST"
        ],
        "city": "LANCASTER",
        "state": "SC",
        "postalCode": "29720-1609"
      },
      {
        "line": [
          "1951 Clemson Road"
        ],
        "city": "COLUMBIA",
        "state": "SC",
        "postalCode": "29229-7813"
      },
      {
        "line": [
          "500 Downs Loop"
        ],
        "city": "CLEMSON",
        "state": "SC",
        "postalCode": "29631-2035"
      },
      {
        "line": [
          "1232 CELEBRATION BLVD"
        ],
        "city": "FLORENCE",
        "state": "SC",
        "postalCode": "29501-5498"
      },
      {
        "line": [
          "22 PINE VALLEY RD"
        ],
        "city": "PIEDMONT",
        "state": "SC",
        "postalCode": "29673-9636"
      },
      {
        "line": [
          "935 Pineview Dr"
        ],
        "city": "NEW ELLENTON",
        "state": "SC",
        "postalCode": "29809-3302"
      },
      {
        "line": [
          "3701 CLARK RD"
        ],
        "city": "BOILING SPRINGS",
        "state": "SC",
        "postalCode": "29316-0002"
      },
      {
        "line": [
          "8088 RIVERS AVE"
        ],
        "city": "CHARLESTON",
        "state": "SC",
        "postalCode": "29406-9235"
      },
      {
        "line": [
          "1938 Mountian Laurel Ct"
        ],
        "city": "FLORENCE",
        "state": "SC",
        "postalCode": "29505-6084"
      },
      {
        "line": [
          "2385 Pamplico Hwy"
        ],
        "city": "FLORENCE",
        "state": "SC",
        "postalCode": "29505-7515"
      },
      {
        "line": [
          "114 Lime Lane"
        ],
        "city": "SUMTER",
        "state": "SC",
        "postalCode": "29150-6630"
      },
      {
        "line": [
          "4520 Trenholm Rd"
        ],
        "city": "Columbia",
        "state": "SC",
        "postalCode": "29206-4425"
      },
      {
        "line": [
          "1119 Pickpocket Plantation Blvd"
        ],
        "city": "BEAUFORT",
        "state": "SC",
        "postalCode": "29902-9907"
      },
      {
        "line": [
          "150 VERDIN RD"
        ],
        "city": "GREENVILLE",
        "state": "SC",
        "postalCode": "29607-6160"
      },
      {
        "line": [
          "107 PERPETUAL SQ"
        ],
        "city": "ANDERSON",
        "state": "SC",
        "postalCode": "29621-1713"
      },
      {
        "line": [
          "345 Five Forks Road"
        ],
        "city": "SIMPSONVILLE",
        "state": "SC",
        "postalCode": "29681-6806"
      },
      {
        "line": [
          "961 Hampton St"
        ],
        "city": "ELLOREE",
        "state": "SC",
        "postalCode": "29047-9509"
      },
      {
        "line": [
          "617 W MARION ST"
        ],
        "city": "FLORENCE",
        "state": "SC",
        "postalCode": "29501-2421"
      },
      {
        "line": [
          "700 TIDEPOINTE WAY"
        ],
        "city": "HILTON HEAD ISLAND",
        "state": "SC",
        "postalCode": "29928-3040"
      },
      {
        "line": [
          "800 Fording Island Rd"
        ],
        "city": "BLUFFTON",
        "state": "SC",
        "postalCode": "29910-4845"
      },
      {
        "line": [
          "2385 PAMPLICO HWY"
        ],
        "city": "FLORENCE",
        "state": "SC",
        "postalCode": "29505-7515"
      },
      {
        "line": [
          "901 Portside Drive"
        ],
        "city": "MYRTLE BEACH",
        "state": "SC",
        "postalCode": "29572-4634"
      },
      {
        "line": [
          "15 Benton Street"
        ],
        "city": "SENECA",
        "state": "SC",
        "postalCode": "29672-6883"
      },
      {
        "line": [
          "320 SEVEN FARMS DR"
        ],
        "city": "CHARLESTON",
        "state": "SC",
        "postalCode": "29492-7532"
      },
      {
        "line": [
          "209 WILD WING BLVD"
        ],
        "city": "CONWAY",
        "state": "SC",
        "postalCode": "29526-9701"
      },
      {
        "line": [
          "217 HEATHERLY DR"
        ],
        "city": "GREENVILLE",
        "state": "SC",
        "postalCode": "29611-5407"
      },
      {
        "line": [
          "2205 Gregg Street"
        ],
        "city": "COLUMBIA",
        "state": "SC",
        "postalCode": "29201-2671"
      },
      {
        "line": [
          "5870 MOOREFIELD MEMORIAL HWY"
        ],
        "city": "LIBERTY",
        "state": "SC",
        "postalCode": "29657-9268"
      },
      {
        "line": [
          "1353 DEL WEBB BLVD"
        ],
        "city": "FORT MILL",
        "state": "SC",
        "postalCode": "29707-6492"
      },
      {
        "line": [
          "3709 Clark Road"
        ],
        "city": "Inman",
        "state": "SC",
        "postalCode": "29316-9787"
      },
      {
        "line": [
          "2101 CANE BAY BLVD"
        ],
        "city": "SUMMERVILLE",
        "state": "SC",
        "postalCode": "29486-2433"
      },
      {
        "line": [
          "209 Broad Street"
        ],
        "city": "CAMDEN",
        "state": "SC",
        "postalCode": "29020-4756"
      },
      {
        "line": [
          "142 Okatie Center Blvd"
        ],
        "city": "OKATIE",
        "state": "SC",
        "postalCode": "29909-3768"
      },
      {
        "line": [
          "412 Pee Dee Church Rd"
        ],
        "city": "DILLON",
        "state": "SC",
        "postalCode": "29536-7429"
      },
      {
        "line": [
          "2902 East Main St. Ext."
        ],
        "city": "SPARTANBURG",
        "state": "SC",
        "postalCode": "29307-1252"
      },
      {
        "line": [
          "3006 Hoffmeyer Rd"
        ],
        "city": "FLORENCE",
        "state": "SC",
        "postalCode": "29501-7551"
      },
      {
        "line": [
          "930 Oswego Highway"
        ],
        "city": "SUMTER",
        "state": "SC",
        "postalCode": "29153-8733"
      },
      {
        "line": [
          "801 LEMON GRASS CT"
        ],
        "city": "HILTON HEAD ISLAND",
        "state": "SC",
        "postalCode": "29928-3022"
      },
      {
        "line": [
          "534 WIL STEL RD"
        ],
        "city": "COLUMBIA",
        "state": "SC",
        "postalCode": "29210-3967"
      },
      {
        "line": [
          "1609 HIGHWAY 41"
        ],
        "city": "MOUNT PLEASANT",
        "state": "SC",
        "postalCode": "29466-8615"
      },
      {
        "line": [
          "300 Agape Drive"
        ],
        "city": "WEST COLUMBIA",
        "state": "SC",
        "postalCode": "29169-9999"
      },
      {
        "line": [
          "120 Roper Mountian Ext"
        ],
        "city": "GREENVILLE",
        "state": "SC",
        "postalCode": "29615-7200"
      },
      {
        "line": [
          "2601 Forest Drive"
        ],
        "city": "COLUMBIA",
        "state": "SC",
        "postalCode": "29204-2363"
      },
      {
        "line": [
          "8 North Texas Ave"
        ],
        "city": "GREENVILLE",
        "state": "SC",
        "postalCode": "29611-5034"
      },
      {
        "line": [
          "200 Wellmore Drive"
        ],
        "city": "LEXINGTON",
        "state": "SC",
        "postalCode": "29072-9172"
      },
      {
        "line": [
          "112 Grandview Dr"
        ],
        "city": "SUMMERVILLE",
        "state": "SC",
        "postalCode": "29483-0100"
      },
      {
        "line": [
          "10 Jacob White"
        ],
        "city": "YEMASSEE",
        "state": "SC",
        "postalCode": "29945-7820"
      },
      {
        "line": [
          "5 FRANK PRESSLY DR"
        ],
        "city": "DUE WEST",
        "state": "SC",
        "postalCode": "29639-9708"
      },
      {
        "line": [
          "886 Park Rd"
        ],
        "city": "LEXINGTON",
        "state": "SC",
        "postalCode": "29072-9507"
      },
      {
        "line": [
          "140N MAGNOLIA ST"
        ],
        "city": "BOWMAN",
        "state": "SC",
        "postalCode": "29018-9140"
      },
      {
        "line": [
          "719 KERSHAW HWY"
        ],
        "city": "CAMDEN",
        "state": "SC",
        "postalCode": "29020-1634"
      },
      {
        "line": [
          "550 Gibbs Rd"
        ],
        "city": "EVANS",
        "state": "GA",
        "postalCode": "30809-3832"
      },
      {
        "line": [
          "575 Stonewall Jackson BLVD"
        ],
        "city": "ORANGEBURG",
        "state": "SC",
        "postalCode": "29115-7250"
      },
      {
        "line": [
          "56 GENESIS DR"
        ],
        "city": "LAKE CITY",
        "state": "SC",
        "postalCode": "29560-5531"
      },
      {
        "line": [
          "1445 BLUEWATER WAY"
        ],
        "city": "CHARLESTON",
        "state": "SC",
        "postalCode": "29414-7923"
      },
      {
        "line": [
          "940 S ENOTA DR NE"
        ],
        "city": "GAINESVILLE",
        "state": "GA",
        "postalCode": "30501-2451"
      },
      {
        "line": [
          "510 Thompson St"
        ],
        "city": "GAFFNEY",
        "state": "SC",
        "postalCode": "29340-9999"
      },
      {
        "line": [
          "228 North Creek Blvd"
        ],
        "city": "GREENWOOD",
        "state": "SC",
        "postalCode": "29649-0228"
      },
      {
        "line": [
          "850 John B White Sr. Blvd"
        ],
        "city": "SPARTANBURG",
        "state": "SC",
        "postalCode": "29306-4034"
      },
      {
        "line": [
          "351 S MIDWAY HWY"
        ],
        "city": "JOHNSONVILLE",
        "state": "SC",
        "postalCode": "29555-6242"
      },
      {
        "line": [
          "2306 Forrest St"
        ],
        "city": "WEST COLUMBIA",
        "state": "SC",
        "postalCode": "29169-2124"
      },
      {
        "line": [
          "12 WINCHESTER CT"
        ],
        "city": "MAULDIN",
        "state": "SC",
        "postalCode": "29662-2627"
      },
      {
        "line": [
          "2370 Williston Rd"
        ],
        "city": "AIKEN",
        "state": "SC",
        "postalCode": "29803-9100"
      },
      {
        "line": [
          "1180 Wilson Hall Road"
        ],
        "city": "SUMTER",
        "state": "SC",
        "postalCode": "29150-1738"
      },
      {
        "line": [
          "903 Bartlette St"
        ],
        "city": "SUMTER",
        "state": "SC",
        "postalCode": "29150-8005"
      },
      {
        "line": [
          "3039 OKATIE HWY"
        ],
        "city": "OKATIE",
        "state": "SC",
        "postalCode": "29909-5101"
      },
      {
        "line": [
          "2500 LIN DO CT"
        ],
        "city": "SUMTER",
        "state": "SC",
        "postalCode": "29150-1832"
      },
      {
        "line": [
          "709 Quillen Ave"
        ],
        "city": "FOUNTAIN INN",
        "state": "SC",
        "postalCode": "29644-9444"
      },
      {
        "line": [
          "1110 Marshall Rd."
        ],
        "city": "GREENWOOD",
        "state": "SC",
        "postalCode": "29646-4216"
      },
      {
        "line": [
          "1010 Anna Knapp Blvd"
        ],
        "city": "MOUNT PLEASANT",
        "state": "SC",
        "postalCode": "29464-5400"
      },
      {
        "line": [
          "102 Crepe Myrtle Ct"
        ],
        "city": "AIKEN",
        "state": "SC",
        "postalCode": "29803-7546"
      },
      {
        "line": [
          "415 Brenda Way"
        ],
        "city": "LYMAN",
        "state": "SC",
        "postalCode": "29365-9264"
      },
      {
        "line": [
          "211 Village Dr"
        ],
        "city": "GREER",
        "state": "SC",
        "postalCode": "29651-1238"
      },
      {
        "line": [
          "100 Washington Commons Drive"
        ],
        "city": "EVANS",
        "state": "GA",
        "postalCode": "30809-3159"
      },
      {
        "line": [
          "176 VILLAGE CENTER BLVD"
        ],
        "city": "MYRTLE BEACH",
        "state": "SC",
        "postalCode": "29579-5622"
      },
      {
        "line": [
          "120 Fairforest road"
        ],
        "city": "COLUMBIA",
        "state": "SC",
        "postalCode": "29212-2308"
      },
      {
        "line": [
          "110 Summit Hills Drive"
        ],
        "city": "SPARTANBURG",
        "state": "SC",
        "postalCode": "29307-1532"
      },
      {
        "line": [
          "3959 Fish Hatchery Road"
        ],
        "city": "GASTON",
        "state": "SC",
        "postalCode": "29053-9038"
      },
      {
        "line": [
          "2306 Riverbank Dr"
        ],
        "city": "ORANGEBURG",
        "state": "SC",
        "postalCode": "29118-4046"
      },
      {
        "line": [
          "128 WALNUT LN"
        ],
        "city": "NORTH AUGUSTA",
        "state": "SC",
        "postalCode": "29860-9206"
      },
      {
        "line": [
          "105 N HILLS DR"
        ],
        "city": "NORTH AUGUSTA",
        "state": "SC",
        "postalCode": "29841-0112"
      },
      {
        "line": [
          "295  Midland Parkway"
        ],
        "city": "SUMMERVILLE",
        "state": "SC",
        "postalCode": "29485-8104"
      },
      {
        "line": [
          "7142 WOODROW ST"
        ],
        "city": "IRMO",
        "state": "SC",
        "postalCode": "29063-2832"
      },
      {
        "line": [
          "379 PINEHAVEN STREET EXT"
        ],
        "city": "LAURENS",
        "state": "SC",
        "postalCode": "29360-2672"
      },
      {
        "line": [
          "1053 Center St"
        ],
        "city": "WEST COLUMBIA",
        "state": "SC",
        "postalCode": "29169-6749"
      },
      {
        "line": [
          "1047 Anna Knapp Blvd"
        ],
        "city": "MOUNT PLEASANT",
        "state": "SC",
        "postalCode": "29464-3146"
      },
      {
        "line": [
          "1705 Skylan Dr."
        ],
        "city": "SPARTANBURG",
        "state": "SC",
        "postalCode": "29307-1077"
      },
      {
        "line": [
          "840 Manor Road"
        ],
        "city": "CHERAW",
        "state": "SC",
        "postalCode": "29520-4035"
      },
      {
        "line": [
          "1004 Hardin Street"
        ],
        "city": "LANCASTER",
        "state": "SC",
        "postalCode": "29720-1609"
      },
      {
        "line": [
          "1101 Garlington Road"
        ],
        "city": "GREENVILLE",
        "state": "SC",
        "postalCode": "29615-5446"
      },
      {
        "line": [
          "9254 US-17"
        ],
        "city": "MC CLELLANVILLE",
        "state": "SC",
        "postalCode": "29458-9999"
      },
      {
        "line": [
          "575 Stonewall Jackson St SW"
        ],
        "city": "ORANGEBURG",
        "state": "SC",
        "postalCode": "29115-7250"
      },
      {
        "line": [
          "567 N Okatie Highway"
        ],
        "city": "RIDGELAND",
        "state": "SC",
        "postalCode": "29936-5078"
      },
      {
        "line": [
          "5200 HABERSHAM ST"
        ],
        "city": "SAVANNAH",
        "state": "GA",
        "postalCode": "31405-5300"
      },
      {
        "line": [
          "101 Clinton Manor Drive"
        ],
        "city": "CLINTON",
        "state": "SC",
        "postalCode": "29325-2107"
      },
      {
        "line": [
          "2327 BRIAN CHRISTOPHER DR"
        ],
        "city": "GREAT FALLS",
        "state": "SC",
        "postalCode": "29055-8844"
      },
      {
        "line": [
          "2779 HIGHWAY 15 N"
        ],
        "city": "BISHOPVILLE",
        "state": "SC",
        "postalCode": "29010-7101"
      },
      {
        "line": [
          "786 LUMPKIN CAMPGROUND RD N"
        ],
        "city": "DAWSONVILLE",
        "state": "GA",
        "postalCode": "30534-6386"
      },
      {
        "line": [
          "60 Oak Forest Rd"
        ],
        "city": "BLUFFTON",
        "state": "SC",
        "postalCode": "29910-5010"
      },
      {
        "line": [
          "2288 South Centennial Ave."
        ],
        "city": "AIKEN",
        "state": "SC",
        "postalCode": "29803-7864"
      },
      {
        "line": [
          "2300 Clemson Rd"
        ],
        "city": "COLUMBIA",
        "state": "SC",
        "postalCode": "29229-6872"
      },
      {
        "line": [
          "1206 MOUNT VERNON ST"
        ],
        "city": "COLUMBIA",
        "state": "SC",
        "postalCode": "29203-5866"
      },
      {
        "line": [
          "3863 AUGUSTA HWY"
        ],
        "city": "LINCOLNTON",
        "state": "GA",
        "postalCode": "30817-4403"
      },
      {
        "line": [
          "615 W Evans St"
        ],
        "city": "FLORENCE",
        "state": "SC",
        "postalCode": "29501-3409"
      },
      {
        "line": [
          "107 Cornwell St"
        ],
        "city": "UNION",
        "state": "SC",
        "postalCode": "29379-2404"
      },
      {
        "line": [
          "123 GIBSON RD"
        ],
        "city": "LEXINGTON",
        "state": "SC",
        "postalCode": "29072-3488"
      },
      {
        "line": [
          "309 East Main Street"
        ],
        "city": "BENNETTSVILLE",
        "state": "SC",
        "postalCode": "29512-3137"
      },
      {
        "line": [
          "1805 DEVINE ST"
        ],
        "city": "COLUMBIA",
        "state": "SC",
        "postalCode": "29201-4012"
      },
      {
        "line": [
          "80 Main Street"
        ],
        "city": "HILTON HEAD ISLAND",
        "state": "SC",
        "postalCode": "29926-4605"
      },
      {
        "line": [
          "1056 TPC BLVD"
        ],
        "city": "MURRELLS INLET",
        "state": "SC",
        "postalCode": "29576-8912"
      },
      {
        "line": [
          "1000 Powell Mill Rd"
        ],
        "city": "SPARTANBURG",
        "state": "SC",
        "postalCode": "29301-5899"
      },
      {
        "line": [
          "2044 PAGELAND HWY"
        ],
        "city": "LANCASTER",
        "state": "SC",
        "postalCode": "29720-7608"
      },
      {
        "line": [
          "5146 TOWLES RD"
        ],
        "city": "HOLLYWOOD",
        "state": "SC",
        "postalCode": "29449-6119"
      },
      {
        "line": [
          "6009 SUWANEE DAM RD"
        ],
        "city": "BUFORD",
        "state": "GA",
        "postalCode": "30518-5514"
      },
      {
        "line": [
          "1370 CELEBRATION BLVD"
        ],
        "city": "FLORENCE",
        "state": "SC",
        "postalCode": "29501-5495"
      },
      {
        "line": [
          "483 LOCKHART LN"
        ],
        "city": "GAFFNEY",
        "state": "SC",
        "postalCode": "29341-2841"
      },
      {
        "line": [
          "2317 PRINCE ST"
        ],
        "city": "GEORGETOWN",
        "state": "SC",
        "postalCode": "29440-2925"
      },
      {
        "line": [
          "601 DANTZLER ST"
        ],
        "city": "SAINT MATTHEWS",
        "state": "SC",
        "postalCode": "29135-1522"
      },
      {
        "line": [
          "501 GLOUCESTER ST",
          "STE 102"
        ],
        "city": "BRUNSWICK",
        "state": "GA",
        "postalCode": "31520-7030"
      },
      {
        "line": [
          "2210 Oak Pond rd"
        ],
        "city": "ROCK HILL",
        "state": "SC",
        "postalCode": "29730-7958"
      },
      {
        "line": [
          "704 CENTRAL AVE"
        ],
        "city": "SUMMERVILLE",
        "state": "SC",
        "postalCode": "29483-3752"
      },
      {
        "line": [
          "365 Caldon Rd"
        ],
        "city": "SWANSEA",
        "state": "SC",
        "postalCode": "29160-9541"
      },
      {
        "line": [
          "206 South Gum Street"
        ],
        "city": "LANCASTER",
        "state": "SC",
        "postalCode": "29728-2304"
      },
      {
        "line": [
          "311 North Harper St."
        ],
        "city": "LAURENS",
        "state": "SC",
        "postalCode": "29360-2333"
      },
      {
        "line": [
          "5748 KNIGHTNER ST"
        ],
        "city": "COLUMBIA",
        "state": "SC",
        "postalCode": "29203-3508"
      },
      {
        "line": [
          "48 Main Street"
        ],
        "city": "HILTON HEAD ISLAND",
        "state": "SC",
        "postalCode": "29926-1647"
      },
      {
        "line": [
          "305 SEVEN FARMS DR"
        ],
        "city": "CHARLESTON",
        "state": "SC",
        "postalCode": "29492-8395"
      },
      {
        "line": [
          "252 Charleston Ave N"
        ],
        "city": "FAIRFAX",
        "state": "SC",
        "postalCode": "29827-4502"
      },
      {
        "line": [
          "2902 South Island Rd"
        ],
        "city": "GEORGETOWN",
        "state": "SC",
        "postalCode": "29440-4420"
      },
      {
        "line": [
          "116 ABBEY DR"
        ],
        "city": "GREENWOOD",
        "state": "SC",
        "postalCode": "29649-8536"
      },
      {
        "line": [
          "2514 Faraway Drive"
        ],
        "city": "COLUMBIA",
        "state": "SC",
        "postalCode": "29223-3969"
      },
      {
        "line": [
          "5422 Augusta Rd"
        ],
        "city": "LEXINGTON",
        "state": "SC",
        "postalCode": "29072-3892"
      },
      {
        "line": [
          "2619 N OAK ST"
        ],
        "city": "MYRTLE BEACH",
        "state": "SC",
        "postalCode": "29577-3129"
      },
      {
        "line": [
          "201 West Washington Street"
        ],
        "city": "GREENVILLE",
        "state": "SC",
        "postalCode": "29601-2669"
      },
      {
        "line": [
          "243 Latitude Lane"
        ],
        "city": "CLOVER",
        "state": "SC",
        "postalCode": "29710-9999"
      },
      {
        "line": [
          "8154 English Clover Ln"
        ],
        "city": "FORT MILL",
        "state": "SC",
        "postalCode": "29707-6935"
      },
      {
        "line": [
          "1415 Parkway"
        ],
        "city": "GREENWOOD",
        "state": "SC",
        "postalCode": "29646-4044"
      },
      {
        "line": [
          "415 North Main Street"
        ],
        "city": "GREENVILLE",
        "state": "SC",
        "postalCode": "29601-2047"
      },
      {
        "line": [
          "1925 Essex Farms Drive"
        ],
        "city": "CHARLESTON",
        "state": "SC",
        "postalCode": "29414-6696"
      },
      {
        "line": [
          "2230 ORSON DR"
        ],
        "city": "FORT MILL",
        "state": "SC",
        "postalCode": "29707-7014"
      },
      {
        "line": [
          "213 Laurens Street"
        ],
        "city": "Aiken",
        "state": "SC",
        "postalCode": "29801-3911"
      },
      {
        "line": [
          "2120 Enterprise Drive"
        ],
        "city": "FLORENCE",
        "state": "SC",
        "postalCode": "29501-1104"
      },
      {
        "line": [
          "2030 Charlie Hall Blvd"
        ],
        "city": "CHARLESTON",
        "state": "SC",
        "postalCode": "29414-5830"
      },
      {
        "line": [
          "12488 OLD NUMBER SIX HWY"
        ],
        "city": "EUTAWVILLE",
        "state": "SC",
        "postalCode": "29048-9167"
      },
      {
        "line": [
          "133 W CLARKE RD"
        ],
        "city": "FLORENCE",
        "state": "SC",
        "postalCode": "29501-0722"
      },
      {
        "line": [
          "2107 JAMES BELL DR"
        ],
        "city": "CHARLESTON",
        "state": "SC",
        "postalCode": "29406-6243"
      },
      {
        "line": [
          "7 South Pacific Ave"
        ],
        "city": "YORK",
        "state": "SC",
        "postalCode": "29745-2697"
      },
      {
        "line": [
          "95 SKIDAWAY ISLAND PARK RD"
        ],
        "city": "SAVANNAH",
        "state": "GA",
        "postalCode": "31411-1104"
      },
      {
        "line": [
          "260 Fairwinds Rd"
        ],
        "city": "LANDRUM",
        "state": "SC",
        "postalCode": "29356-9075"
      },
      {
        "line": [
          "431 E BOUNDARY ST"
        ],
        "city": "CHAPIN",
        "state": "SC",
        "postalCode": "29036-8388"
      },
      {
        "line": [
          "950 Travelers Blvd"
        ],
        "city": "SUMMERVILLE",
        "state": "SC",
        "postalCode": "29485-8213"
      },
      {
        "line": [
          "1280 DENNY HWY"
        ],
        "city": "SALUDA",
        "state": "SC",
        "postalCode": "29138-8972"
      },
      {
        "line": [
          "7770 FARR ST"
        ],
        "city": "CHARLESTON",
        "state": "SC",
        "postalCode": "29492-8496"
      },
      {
        "line": [
          "20 Hawthorne Park Court"
        ],
        "city": "Greenville",
        "state": "SC",
        "postalCode": "29615-3194"
      },
      {
        "line": [
          "14 WRCF ST"
        ],
        "city": "KINGSTREE",
        "state": "SC",
        "postalCode": "29556-2596"
      },
      {
        "line": [
          "117 E MAIN ST"
        ],
        "city": "MONCKS CORNER",
        "state": "SC",
        "postalCode": "29461-3764"
      },
      {
        "line": [
          "1910 DALTON ST"
        ],
        "city": "CHARLESTON",
        "state": "SC",
        "postalCode": "29406-3961"
      },
      {
        "line": [
          "2091 Sams Elbow Rd"
        ],
        "city": "WEST COLUMBIA",
        "state": "SC",
        "postalCode": "29170-1114"
      },
      {
        "line": [
          "101 N WISE DR"
        ],
        "city": "SUMTER",
        "state": "SC",
        "postalCode": "29150-2753"
      },
      {
        "line": [
          "401 CHANDLER RD"
        ],
        "city": "GREER",
        "state": "SC",
        "postalCode": "29651-1243"
      },
      {
        "line": [
          "703 South Harvin Street"
        ],
        "city": "SUMTER",
        "state": "SC",
        "postalCode": "29150-6412"
      },
      {
        "line": [
          "3215 Wise Creek Lane"
        ],
        "city": "AIKEN",
        "state": "SC",
        "postalCode": "29801-2534"
      },
      {
        "line": [
          "3315 THOMPSON BRIDGE RD"
        ],
        "city": "GAINESVILLE",
        "state": "GA",
        "postalCode": "30506-1521"
      },
      {
        "line": [
          "1900 ASHLEY CROSSING DR"
        ],
        "city": "CHARLESTON",
        "state": "SC",
        "postalCode": "29414-5752"
      },
      {
        "line": [
          "851 GUNN RD"
        ],
        "city": "WARNER ROBINS",
        "state": "GA",
        "postalCode": "31093-8567"
      },
      {
        "line": [
          "2200 HARDEN ST"
        ],
        "city": "COLUMBIA",
        "state": "SC",
        "postalCode": "29203-7107"
      },
      {
        "line": [
          "101 CENTENNIAL BLVD"
        ],
        "city": "GOOSE CREEK",
        "state": "SC",
        "postalCode": "29445-7079"
      },
      {
        "line": [
          "364 Evergreen Skills Road"
        ],
        "city": "LAURENS",
        "state": "SC",
        "postalCode": "29360-0401"
      },
      {
        "line": [
          "916 Wesley Court"
        ],
        "city": "boiling springs",
        "state": "SC",
        "postalCode": "29316-5649"
      },
      {
        "line": [
          "503 Sullivan Drive"
        ],
        "city": "LAURENS",
        "state": "SC",
        "postalCode": "29360-2107"
      },
      {
        "line": [
          "3744 Torrington Road"
        ],
        "city": "LAURENS",
        "state": "SC",
        "postalCode": "29360-7745"
      },
      {
        "line": [
          "2108 OLD EDISTO DR"
        ],
        "city": "ORANGEBURG",
        "state": "SC",
        "postalCode": "29115-6573"
      },
      {
        "line": [
          "352 Pelham Road"
        ],
        "city": "GREENVILLE",
        "state": "SC",
        "postalCode": "29615-3111"
      },
      {
        "line": [
          "21 Mcbeth Street"
        ],
        "city": "GREENVILLE",
        "state": "SC",
        "postalCode": "29611-3548"
      },
      {
        "line": [
          "115 Gilespie Rd"
        ],
        "city": "SENECA",
        "state": "SC",
        "postalCode": "29678-1122"
      },
      {
        "line": [
          "500 LEXINGTON AVE"
        ],
        "city": "CHAPIN",
        "state": "SC",
        "postalCode": "29036-8088"
      },
      {
        "line": [
          "251 Springtree Dr"
        ],
        "city": "COLUMBIA",
        "state": "SC",
        "postalCode": "29223-7989"
      },
      {
        "line": [
          "1 Still Hopes"
        ],
        "city": "WEST COLUMBIA",
        "state": "SC",
        "postalCode": "29169-7164"
      },
      {
        "line": [
          "4550 Great Oak Dr"
        ],
        "city": "N CHARLESTON",
        "state": "SC",
        "postalCode": "29418-5001"
      },
      {
        "line": [
          "411 Ansel St"
        ],
        "city": "GREENVILLE",
        "state": "SC",
        "postalCode": "29601-3407"
      },
      {
        "line": [
          "516 BELVEDERE CLEARWATER RD"
        ],
        "city": "NORTH AUGUSTA",
        "state": "SC",
        "postalCode": "29841-2583"
      },
      {
        "line": [
          "1645 Ridge Rd."
        ],
        "city": "HOPKINS",
        "state": "SC",
        "postalCode": "29061-8432"
      },
      {
        "line": [
          "205 Midland Parkway"
        ],
        "city": "SUMMERVILLE",
        "state": "SC",
        "postalCode": "29485-8122"
      },
      {
        "line": [
          "3461 N Hwy 81"
        ],
        "city": "ANDERSON",
        "state": "SC",
        "postalCode": "29621-3285"
      },
      {
        "line": [
          "414 CHURCHILL CIR"
        ],
        "city": "GREENVILLE",
        "state": "SC",
        "postalCode": "29605-1613"
      },
      {
        "line": [
          "30 S COLLEGE ST"
        ],
        "city": "METTER",
        "state": "GA",
        "postalCode": "30439-4509"
      },
      {
        "line": [
          "126 TOKEENA RD"
        ],
        "city": "SENECA",
        "state": "SC",
        "postalCode": "29678-1744"
      },
      {
        "line": [
          "210 Academy Road"
        ],
        "city": "WALTERBORO",
        "state": "SC",
        "postalCode": "29488-9208"
      },
      {
        "line": [
          "3575 Sunset Blvd"
        ],
        "city": "WEST COLUMBIA",
        "state": "SC",
        "postalCode": "29169-3043"
      },
      {
        "line": [
          "1444 DRY BRANCH RD"
        ],
        "city": "HOPKINS",
        "state": "SC",
        "postalCode": "29061-8617"
      },
      {
        "line": [
          "2134 N LAKE DR"
        ],
        "city": "COLUMBIA",
        "state": "SC",
        "postalCode": "29212-8134"
      },
      {
        "line": [
          "203 DELANO ST"
        ],
        "city": "SAINT GEORGE",
        "state": "SC",
        "postalCode": "29477-2108"
      },
      {
        "line": [
          "2100 Blossom Street"
        ],
        "city": "COLUMBIA",
        "state": "SC",
        "postalCode": "29205-2248"
      },
      {
        "line": [
          "6151 COLLINE VERDI WAY"
        ],
        "city": "MYRTLE BEACH",
        "state": "SC",
        "postalCode": "29577-2181"
      },
      {
        "line": [
          "311 MANNING AVE"
        ],
        "city": "SUMTER",
        "state": "SC",
        "postalCode": "29150-5742"
      },
      {
        "line": [
          "408 Geneva Avenue"
        ],
        "city": "MARION",
        "state": "SC",
        "postalCode": "29571-5336"
      },
      {
        "line": [
          "131 VICKERY DR"
        ],
        "city": "CENTRAL",
        "state": "SC",
        "postalCode": "29630-8330"
      },
      {
        "line": [
          "112 Powell Street"
        ],
        "city": "GRANITEVILLE",
        "state": "SC",
        "postalCode": "29829-2906"
      },
      {
        "line": [
          "131 Vickery Drive"
        ],
        "city": "CENTRAL",
        "state": "SC",
        "postalCode": "29630-8330"
      },
      {
        "line": [
          "80 Medical Center Dr."
        ],
        "city": "WOODRUFF",
        "state": "SC",
        "postalCode": "29388-8781"
      },
      {
        "line": [
          "821 Duke Ave"
        ],
        "city": "COLUMBIA",
        "state": "SC",
        "postalCode": "29203-5651"
      },
      {
        "line": [
          "1645 Ridge Rd"
        ],
        "city": "HOPKINS",
        "state": "SC",
        "postalCode": "29061-8432"
      },
      {
        "line": [
          "3650 COALITION DR"
        ],
        "city": "MYRTLE BEACH",
        "state": "SC",
        "postalCode": "29588-6183"
      },
      {
        "line": [
          "123 Test Main"
        ],
        "city": "EVANS",
        "state": "GA",
        "postalCode": "30809-4511"
      },
      {
        "line": [
          "651 Polo Rd"
        ],
        "city": "COLUMBIA",
        "state": "SC",
        "postalCode": "29203-2905"
      },
      {
        "line": [
          "544 Harrison Bridge Rd"
        ],
        "city": "SIMPSONVILLE",
        "state": "SC",
        "postalCode": "29680-7003"
      },
      {
        "line": [
          "699 PRINCE CREEK PKWY"
        ],
        "city": "MURRELLS INLET",
        "state": "SC",
        "postalCode": "29576-6622"
      },
      {
        "line": [
          "2333 ASHLEY RIVER RD"
        ],
        "city": "CHARLESTON",
        "state": "SC",
        "postalCode": "29414-4755"
      },
      {
        "line": [
          "645 SCUFFLETOWN RD"
        ],
        "city": "SIMPSONVILLE",
        "state": "SC",
        "postalCode": "29681-4235"
      },
      {
        "line": [
          "1713 Charleston Highway"
        ],
        "city": "WEST COLUMBIA",
        "state": "SC",
        "postalCode": "29169-5051"
      },
      {
        "line": [
          "2900 MCEVER RD"
        ],
        "city": "GAINESVILLE",
        "state": "GA",
        "postalCode": "30504-5516"
      },
      {
        "line": [
          "3696 Peach Orchard Rd"
        ],
        "city": "AUGUSTA",
        "state": "GA",
        "postalCode": "30906-9455"
      },
      {
        "line": [
          "4594 PINE VALLEY DR"
        ],
        "city": "MACON",
        "state": "GA",
        "postalCode": "31210-6252"
      },
      {
        "line": [
          "1133 Bexley St"
        ],
        "city": "NORTH CHARLESTON",
        "state": "SC",
        "postalCode": "29405-9999"
      },
      {
        "line": [
          "71 Society St"
        ],
        "city": "CHARLESTON",
        "state": "SC",
        "postalCode": "29401-6410"
      },
      {
        "line": [
          "4381 BELLS FERRY RD NW"
        ],
        "city": "KENNESAW",
        "state": "GA",
        "postalCode": "30144-1303"
      },
      {
        "line": [
          "1340 Carolina Bay Blvd"
        ],
        "city": "HARTSVILLE",
        "state": "SC",
        "postalCode": "29550-4780"
      },
      {
        "line": [
          "109 Bentz Road"
        ],
        "city": "PIEDMONT",
        "state": "SC",
        "postalCode": "29673-9999"
      },
      {
        "line": [
          "2720 Country Club Place"
        ],
        "city": "SPARTANBURG",
        "state": "SC",
        "postalCode": "29302-4473"
      },
      {
        "line": [
          "1727 BUCK SWAMP RD"
        ],
        "city": "FORK",
        "state": "SC",
        "postalCode": "29543-6116"
      },
      {
        "line": [
          "1800 INDIA HOOK RD"
        ],
        "city": "ROCK HILL",
        "state": "SC",
        "postalCode": "29732-1933"
      },
      {
        "line": [
          "300 SPRINGVIEW LN"
        ],
        "city": "SUMMERVILLE",
        "state": "SC",
        "postalCode": "29485-8265"
      },
      {
        "line": [
          "580 ROBERT DANIEL DR"
        ],
        "city": "CHARLESTON",
        "state": "SC",
        "postalCode": "29492-7448"
      },
      {
        "line": [
          "190 MCSWAIN DR"
        ],
        "city": "WEST COLUMBIA",
        "state": "SC",
        "postalCode": "29169-4825"
      },
      {
        "line": [
          "100 ALLEN AVE"
        ],
        "city": "SPARTANBURG",
        "state": "SC",
        "postalCode": "29303-2821"
      },
      {
        "line": [
          "1330 FORSYTH ST"
        ],
        "city": "MACON",
        "state": "GA",
        "postalCode": "31201-1448"
      },
      {
        "line": [
          "800 W CHURCH ST"
        ],
        "city": "BISHOPVILLE",
        "state": "SC",
        "postalCode": "29010-1054"
      },
      {
        "line": [
          "9370 WINDSOR LAKE BLVD"
        ],
        "city": "COLUMBIA",
        "state": "SC",
        "postalCode": "29223-1995"
      },
      {
        "line": [
          "704 Anderson Street"
        ],
        "city": "CALHOUN FALLS",
        "state": "SC",
        "postalCode": "29628-1034"
      },
      {
        "line": [
          "4015 2nd Ave"
        ],
        "city": "SUMMERVILLE",
        "state": "SC",
        "postalCode": "29486-7882"
      },
      {
        "line": [
          "208 James Street"
        ],
        "city": "ANDERSON",
        "state": "SC",
        "postalCode": "29625-2942"
      },
      {
        "line": [
          "123 Dupont Dr. NW"
        ],
        "city": "AIKEN",
        "state": "SC",
        "postalCode": "29801-4089"
      },
      {
        "line": [
          "2972 SLAB LANDING"
        ],
        "city": "ORANGEBURG",
        "state": "SC",
        "postalCode": "29115-1119"
      },
      {
        "line": [
          "706 PELZER HWY"
        ],
        "city": "EASLEY",
        "state": "SC",
        "postalCode": "29642-2941"
      },
      {
        "line": [
          "300 Jacobs Highway"
        ],
        "city": "CLINTON",
        "state": "SC",
        "postalCode": "29325-7279"
      },
      {
        "line": [
          "3514 Sidney Road"
        ],
        "city": "COLUMBIA",
        "state": "SC",
        "postalCode": "29210-4437"
      },
      {
        "line": [
          "111 GENERATIONS BLVD"
        ],
        "city": "BATESBURG",
        "state": "SC",
        "postalCode": "29006-2315"
      },
      {
        "line": [
          "374 Myers Rd"
        ],
        "city": "SUMMERVILLE",
        "state": "SC",
        "postalCode": "29486-8816"
      },
      {
        "line": [
          "2585 hwy 179"
        ],
        "city": "LITTLE RIVER",
        "state": "SC",
        "postalCode": "29566-9451"
      },
      {
        "line": [
          "4003 LADSON RD"
        ],
        "city": "LADSON",
        "state": "SC",
        "postalCode": "29456-4936"
      },
      {
        "line": [
          "241 Singleton Ridge Dr"
        ],
        "city": "CONWAY",
        "state": "SC",
        "postalCode": "29526-8371"
      },
      {
        "line": [
          "4438 Pamplico Hwy"
        ],
        "city": "FLORENCE",
        "state": "SC",
        "postalCode": "29505-8502"
      },
      {
        "line": [
          "421 Squire Pope Road"
        ],
        "city": "HILTON HEAD ISLAND",
        "state": "SC",
        "postalCode": "29926-1229"
      },
      {
        "line": [
          "1830 MAIN ST W"
        ],
        "city": "ROCK HILL",
        "state": "SC",
        "postalCode": "29732-8965"
      },
      {
        "line": [
          "1053 Center Street"
        ],
        "city": "WEST COLUMBIA",
        "state": "SC",
        "postalCode": "29169-6749"
      },
      {
        "line": [
          "224 WARD LOOP"
        ],
        "city": "HEMINGWAY",
        "state": "SC",
        "postalCode": "29554-3415"
      },
      {
        "line": [
          "48 N Main Street"
        ],
        "city": "HILTON HEAD ISLAND",
        "state": "SC",
        "postalCode": "29926-4605"
      },
      {
        "line": [
          "107 CURLY LN"
        ],
        "city": "LADSON",
        "state": "SC",
        "postalCode": "29456-3583"
      },
      {
        "line": [
          "1010 Lake Hunter Cr"
        ],
        "city": "MOUNT PLEASANT",
        "state": "SC",
        "postalCode": "29464-9999"
      },
      {
        "line": [
          "487 Hwy 378"
        ],
        "city": "LEXINGTON",
        "state": "SC",
        "postalCode": "29072-9177"
      },
      {
        "line": [
          "4933 Hereford Farms"
        ],
        "city": "EVANS",
        "state": "GA",
        "postalCode": "30809-4511"
      },
      {
        "line": [
          "990 Columbia Ave"
        ],
        "city": "IRMO",
        "state": "SC",
        "postalCode": "29063-2854"
      },
      {
        "line": [
          "431 North Main Street"
        ],
        "city": "SUMTER",
        "state": "SC",
        "postalCode": "29153-4232"
      },
      {
        "line": [
          "702 W Evans Street"
        ],
        "city": "FLORENCE",
        "state": "SC",
        "postalCode": "29501-3412"
      },
      {
        "line": [
          "3335 Wise Creek Ln"
        ],
        "city": "AIKEN",
        "state": "SC",
        "postalCode": "29801-2509"
      },
      {
        "line": [
          "11951 Grandhaven Dr"
        ],
        "city": "MURRELLS INLET",
        "state": "SC",
        "postalCode": "29576-5014"
      },
      {
        "line": [
          "1099 EDGEWATER CORPORATE PKWY"
        ],
        "city": "FORT MILL",
        "state": "SC",
        "postalCode": "29707-4516"
      },
      {
        "line": [
          "15 Main Street"
        ],
        "city": "HILTON HEAD ISLAND",
        "state": "SC",
        "postalCode": "29926-4605"
      },
      {
        "line": [
          "356 YORK ST NE"
        ],
        "city": "AIKEN",
        "state": "SC",
        "postalCode": "29801-4470"
      },
      {
        "line": [
          "406 W Broad St"
        ],
        "city": "IVA",
        "state": "SC",
        "postalCode": "29655-9765"
      },
      {
        "line": [
          "300 Jacobs Hwy"
        ],
        "city": "CLINTON",
        "state": "SC",
        "postalCode": "29325-7279"
      },
      {
        "line": [
          "289 ORANGEBURG RD"
        ],
        "city": "SUMMERVILLE",
        "state": "SC",
        "postalCode": "29483-8922"
      },
      {
        "line": [
          "1310 N LONGSTREET ST"
        ],
        "city": "KINGSTREE",
        "state": "SC",
        "postalCode": "29556-2740"
      },
      {
        "line": [
          "103 LAVENDER ST"
        ],
        "city": "FORT VALLEY",
        "state": "GA",
        "postalCode": "31030-2625"
      },
      {
        "line": [
          "7125 Main Hwy"
        ],
        "city": "BAMBERG",
        "state": "SC",
        "postalCode": "29003-8590"
      },
      {
        "line": [
          "349 Jacobs Hwy"
        ],
        "city": "CLINTON",
        "state": "SC",
        "postalCode": "29325-9999"
      },
      {
        "line": [
          "1304 McLees Road"
        ],
        "city": "ANDERSON",
        "state": "SC",
        "postalCode": "29621-3345"
      },
      {
        "line": [
          "110 Geddings Rd"
        ],
        "city": "SUMTER",
        "state": "SC",
        "postalCode": "29150-8812"
      },
      {
        "line": [
          "1901 West Carolina Ave"
        ],
        "city": "HARTSVILLE",
        "state": "SC",
        "postalCode": "29550-4701"
      },
      {
        "line": [
          "260 Watson Heritage Rd."
        ],
        "city": "LORIS",
        "state": "SC",
        "postalCode": "29569-6766"
      },
      {
        "line": [
          "1012 ENOTA AVE NE"
        ],
        "city": "GAINESVILLE",
        "state": "GA",
        "postalCode": "30501-1802"
      },
      {
        "line": [
          "5373 THOMPSON MILL RD"
        ],
        "city": "HOSCHTON",
        "state": "GA",
        "postalCode": "30548-4037"
      },
      {
        "line": [
          "97 Bridgetown Rd"
        ],
        "city": "GOOSE CREEK",
        "state": "SC",
        "postalCode": "29445-5359"
      },
      {
        "line": [
          "311 Simpson Road",
          "311 Simpson Road"
        ],
        "city": "ANDERSON",
        "state": "SC",
        "postalCode": "29621-2197"
      },
      {
        "line": [
          "222 Green Street"
        ],
        "city": "ROCK HILL",
        "state": "SC",
        "postalCode": "29730-3589"
      },
      {
        "line": [
          "1250 JOHN B WHITE SR BLVD"
        ],
        "city": "SPARTANBURG",
        "state": "SC",
        "postalCode": "29306-3929"
      },
      {
        "line": [
          "4405 FOREST DR"
        ],
        "city": "COLUMBIA",
        "state": "SC",
        "postalCode": "29206-3103"
      }
    ],
    "extension": [
      {
        "url": "https://fhir.athena.io/StructureDefinition/ah-practice",
        "valueReference": {
          "reference": "Organization/a-1.Practice-7602"
        }
      },
      {
        "url": "https://fhir.athena.io/StructureDefinition/ah-brand",
        "valueReference": {
          "reference": "Organization/a-7602.Brand-1"
        }
      }
    ]
  },
  "fullUrl": "urn:uuid:6382bd0c-52e7-5c11-9f91-b0d1f5cab965"
}