{
  "resource": {
    "resourceType": "Organization",
    "id": "fb030b64-4d36-51c4-91de-1a5b7c4d5118",
    "name": "Borders Hood Assoc.",
    "endpoint": [
      {
        "reference": "Endpoint/27a4e967-47aa-5a9c-a572-b8297ee268a2"
      },
      {
        "reference": "Endpoint/a7a38f7f-d323-5ef3-a031-5276fec69e17"
      }
    ],
    "identifier": [
      {
        "system": "http://hl7.org/fhir/sid/us-npi",
        "value": "1790784825"
      }
    ],
    "address": [
      {
        "line": [
          "2101 Nicholasville Rd",
          "Suite 106"
        ],
        "city": "LEXINGTON",
        "state": "KY",
        "postalCode": "40503-2517"
      },
      {
        "line": [
          "2710 Man O'War Boulevard"
        ],
        "city": "LEXINGTON",
        "state": "KY",
        "postalCode": "40515-3801"
      },
      {
        "line": [
          "700 MASON HEADLEY RD"
        ],
        "city": "LEXINGTON",
        "state": "KY",
        "postalCode": "40504-2326"
      },
      {
        "line": [
          "2101 NICHOLASVILLE RD STE 106"
        ],
        "city": "LEXINGTON",
        "state": "KY",
        "postalCode": "40503-2517"
      },
      {
        "line": [
          "2531 Rosebud Rd"
        ],
        "city": "LEXINGTON",
        "state": "KY",
        "postalCode": "40509-4574"
      },
      {
        "line": [
          "580 Greenfield Dr.",
          "Apt 206A"
        ],
        "city": "LEXINGTON",
        "state": "KY",
        "postalCode": "40517-1704"
      },
      {
        "line": [
          "150 SHORESIDE DR"
        ],
        "city": "LEXINGTON",
        "state": "KY",
        "postalCode": "40515-6433"
      },
      {
        "line": [
          "2770 PALUMBO DR"
        ],
        "city": "LEXINGTON",
        "state": "KY",
        "postalCode": "40509-1232"
      },
      {
        "line": [
          "3775 BELLEAU WOOD DR"
        ],
        "city": "LEXINGTON",
        "state": "KY",
        "postalCode": "40517-1804"
      },
      {
        "line": [
          "3310 Tates Creek Rd"
        ],
        "city": "Lexington",
        "state": "KY",
        "postalCode": "40502-3487"
      },
      {
        "line": [
          "233 RUCCIO WAY"
        ],
        "city": "LEXINGTON",
        "state": "KY",
        "postalCode": "40503-3584"
      },
      {
        "line": [
          "2141 Executive Dr"
        ],
        "city": "LEXINGTON",
        "state": "KY",
        "postalCode": "40505-4869"
      },
      {
        "line": [
          "1600 NICHOLASVILLE BYP"
        ],
        "city": "NICHOLASVILLE",
        "state": "KY",
        "postalCode": "40356-2638"
      },
      {
        "line": [
          "1165 Monarch St"
        ],
        "city": "LEXINGTON",
        "state": "KY",
        "postalCode": "40513-1992"
      },
      {
        "line": [
          "4251 Saron Dr"
        ],
        "city": "LEXINGTON",
        "state": "KY",
        "postalCode": "40515-7005"
      },
      {
        "line": [
          "1121 Tanbark Rd"
        ],
        "city": "LEXINGTON",
        "state": "KY",
        "postalCode": "40515-1826"
      },
      {
        "line": [
          "2000 MAIN ST"
        ],
        "city": "PARIS",
        "state": "KY",
        "postalCode": "40361-1149"
      },
      {
        "line": [
          "2710 MAN O WAR BLVD"
        ],
        "city": "LEXINGTON",
        "state": "KY",
        "postalCode": "40515-3801"
      },
      {
        "line": [
          "2101 NICHOLASVILLE RD"
        ],
        "city": "LEXINGTON",
        "state": "KY",
        "postalCode": "40503-2518"
      },
      {
        "line": [
          "2700 Man-O-War Blvd"
        ],
        "city": "LEXINGTON",
        "state": "KY",
        "postalCode": "40515-3802"
      },
      {
        "line": [
          "1376 SILVER SPRINGS DR"
        ],
        "city": "LEXINGTON",
        "state": "KY",
        "postalCode": "40511-2319"
      }
    ],
    "extension": [
      {
        "url": "https://fhir.athena.io/StructureDefinition/ah-practice",
        "valueReference": {
          "reference": "Organization/a-1.Practice-18764"
        }
      },
      {
        "url": "https://fhir.athena.io/StructureDefinition/ah-brand",
        "valueReference": {
          "reference": "Organization/a-18764.Brand-1"
        }
      }
    ]
  },
  "fullUrl": "urn:uuid:fb030b64-4d36-51c4-91de-1a5b7c4d5118"
}