{
  "resource": {
    "resourceType": "Organization",
    "id": "986052d4-8553-5b81-955e-862a434401d0",
    "name": "Choptank Community Health  Based Dental",
    "endpoint": [
      {
        "reference": "Endpoint/27a4e967-47aa-5a9c-a572-b8297ee268a2"
      },
      {
        "reference": "Endpoint/fd2b3a65-cd16-532f-8c87-e3606aeaa102"
      }
    ],
    "identifier": [
      {
        "system": "http://hl7.org/fhir/sid/us-npi",
        "value": "1356388599"
      }
    ],
    "address": [
      {
        "line": [
          "723 Mecklenburg Ave"
        ],
        "city": "EASTON",
        "state": "MD",
        "postalCode": "21601-3395"
      },
      {
        "line": [
          "320 Calvert Street"
        ],
        "city": "CHESTERTOWN",
        "state": "MD",
        "postalCode": "21620-1304"
      },
      {
        "line": [
          "5875 Cloverdale Rd"
        ],
        "city": "HURLOCK",
        "state": "MD",
        "postalCode": "21643-3019"
      },
      {
        "line": [
          "1405 Glasgow St"
        ],
        "city": "CAMBRIDGE",
        "state": "MD",
        "postalCode": "21613-1317"
      },
      {
        "line": [
          "1103 Maces Ln"
        ],
        "city": "CAMBRIDGE",
        "state": "MD",
        "postalCode": "21613-2619"
      },
      {
        "line": [
          "100 Seymour Ave"
        ],
        "city": "SAINT MICHAELS",
        "state": "MD",
        "postalCode": "21663-2930"
      },
      {
        "line": [
          "402 East Campus Avenue"
        ],
        "city": "CHESTERTOWN",
        "state": "MD",
        "postalCode": "21620-1608"
      },
      {
        "line": [
          "1503 Glasgow Rd"
        ],
        "city": "CAMBRIDGE",
        "state": "MD",
        "postalCode": "21613-1350"
      },
      {
        "line": [
          "201 Peachblossom Rd"
        ],
        "city": "EASTON",
        "state": "MD",
        "postalCode": "21601-2544"
      },
      {
        "line": [
          "4322 Lovers Ln"
        ],
        "city": "TRAPPE",
        "state": "MD",
        "postalCode": "21673-1866"
      },
      {
        "line": [
          "155 Main St"
        ],
        "city": "SECRETARY",
        "state": "MD",
        "postalCode": "21664-4054"
      },
      {
        "line": [
          "3025 S. University Ave"
        ],
        "city": "FEDERALSBURG",
        "state": "MD",
        "postalCode": "21632-1437"
      },
      {
        "line": [
          "307 Glenwood Ave"
        ],
        "city": "EASTON",
        "state": "MD",
        "postalCode": "21601-4104"
      },
      {
        "line": [
          "5745 Cloverdale Rd"
        ],
        "city": "HURLOCK",
        "state": "MD",
        "postalCode": "21643-3025"
      },
      {
        "line": [
          "5225 Egypt Rd"
        ],
        "city": "CAMBRIDGE",
        "state": "MD",
        "postalCode": "21613-3693"
      },
      {
        "line": [
          "301 Charles St"
        ],
        "city": "HURLOCK",
        "state": "MD",
        "postalCode": "21643-3432"
      },
      {
        "line": [
          "3485 Golden Hill Rd"
        ],
        "city": "CHURCH CREEK",
        "state": "MD",
        "postalCode": "21622-1106"
      },
      {
        "line": [
          "4905 Ocean Gateway"
        ],
        "city": "VIENNA",
        "state": "MD",
        "postalCode": "21869-9000"
      },
      {
        "line": [
          "1101 Maces Ln"
        ],
        "city": "CAMBRIDGE",
        "state": "MD",
        "postalCode": "21613-3261"
      },
      {
        "line": [
          "25301 Lambs Meadow Road"
        ],
        "city": "WORTON",
        "state": "MD",
        "postalCode": "21678-1924"
      }
    ],
    "extension": [
      {
        "url": "https://fhir.athena.io/StructureDefinition/ah-practice",
        "valueReference": {
          "reference": "Organization/a-1.Practice-20853"
        }
      },
      {
        "url": "https://fhir.athena.io/StructureDefinition/ah-brand",
        "valueReference": {
          "reference": "Organization/a-20853.Brand-1"
        }
      }
    ]
  },
  "fullUrl": "urn:uuid:986052d4-8553-5b81-955e-862a434401d0"
}