{
  "resource": {
    "resourceType": "Organization",
    "id": "b3c4c9bd-bfc3-5a5c-b0d5-acaf2764d7c0",
    "name": "MinuteClinic",
    "endpoint": [
      {
        "reference": "Endpoint/27a4e967-47aa-5a9c-a572-b8297ee268a2"
      },
      {
        "reference": "Endpoint/550072c6-5777-5802-aaf2-1562d7e328f6"
      }
    ],
    "identifier": [
      {
        "system": "http://hl7.org/fhir/sid/us-npi",
        "value": "1386821932"
      }
    ],
    "address": [
      {
        "line": [
          "16 MAIN ST."
        ],
        "city": "EAST HARTFORD",
        "state": "CT",
        "postalCode": "06118-3208"
      },
      {
        "line": [
          "6 Queen St"
        ],
        "city": "NEWTOWN",
        "state": "CT",
        "postalCode": "06470-2146"
      },
      {
        "line": [
          "162 Washington Ave"
        ],
        "city": "NORTH HAVEN",
        "state": "CT",
        "postalCode": "06473-1711"
      },
      {
        "line": [
          "734 Bridgetport Ave"
        ],
        "city": "MILFORD",
        "state": "CT",
        "postalCode": "06460-3169"
      },
      {
        "line": [
          "1 Hawley Lane"
        ],
        "city": "STRATFORD",
        "state": "CT",
        "postalCode": "06614-1200"
      },
      {
        "line": [
          "542 Providence Rd"
        ],
        "city": "BROOKLYN",
        "state": "CT",
        "postalCode": "06234-3413"
      },
      {
        "line": [
          "915 Poquonnock Rd"
        ],
        "city": "GROTON",
        "state": "CT",
        "postalCode": "06340-4257"
      },
      {
        "line": [
          "372 West Main St"
        ],
        "city": "NORWICH",
        "state": "CT",
        "postalCode": "06360-5415"
      },
      {
        "line": [
          "644 W Putnam Ave"
        ],
        "city": "GREENWICH",
        "state": "CT",
        "postalCode": "06830-6008"
      },
      {
        "line": [
          "37 West Main Street"
        ],
        "city": "STAFFORD SPRINGS",
        "state": "CT",
        "postalCode": "06076-1459"
      },
      {
        "line": [
          "734 Bridgeport Ave"
        ],
        "city": "MILFORD",
        "state": "CT",
        "postalCode": "06460-3169"
      },
      {
        "line": [
          "930 White Plains Rd"
        ],
        "city": "TRUMBULL",
        "state": "CT",
        "postalCode": "06611-4550"
      }
    ],
    "extension": [
      {
        "url": "https://fhir.athena.io/StructureDefinition/ah-practice",
        "valueReference": {
          "reference": "Organization/a-1.Practice-1643"
        }
      },
      {
        "url": "https://fhir.athena.io/StructureDefinition/ah-brand",
        "valueReference": {
          "reference": "Organization/a-1643.Brand-1"
        }
      }
    ]
  },
  "fullUrl": "urn:uuid:b3c4c9bd-bfc3-5a5c-b0d5-acaf2764d7c0"
}