{
  "resource": {
    "resourceType": "Organization",
    "id": "a91eb82a-98d4-569e-a98f-82c0b4f108a9",
    "name": "Advanced Orthopaedics & Sports Medicine",
    "endpoint": [
      {
        "reference": "Endpoint/27a4e967-47aa-5a9c-a572-b8297ee268a2"
      },
      {
        "reference": "Endpoint/c99070dc-bdc3-5553-bcd4-2ab5e2fa2ad9"
      }
    ],
    "identifier": [
      {
        "system": "http://hl7.org/fhir/sid/us-npi",
        "value": "1346244688"
      },
      {
        "system": "http://hl7.org/fhir/sid/us-npi",
        "value": "1679501746"
      },
      {
        "system": "http://hl7.org/fhir/sid/us-npi",
        "value": "1205845369"
      },
      {
        "system": "http://hl7.org/fhir/sid/us-npi",
        "value": "1942860176"
      }
    ],
    "address": [
      {
        "line": [
          "26710 Interstate 45 N Ste B100"
        ],
        "city": "SPRING",
        "state": "TX",
        "postalCode": "77386-1015"
      },
      {
        "line": [
          "10425 HUFFMEISTER RD STE 320"
        ],
        "city": "HOUSTON",
        "state": "TX",
        "postalCode": "77065-3429"
      },
      {
        "line": [
          "10425 Huffmeister Rd, Ste 320"
        ],
        "city": "HOUSTON",
        "state": "TX",
        "postalCode": "77065-3707"
      },
      {
        "line": [
          "10655 Steepletop Dr"
        ],
        "city": "HOUSTON",
        "state": "TX",
        "postalCode": "77065-4222"
      },
      {
        "line": [
          "21214 Northwest Frwy"
        ],
        "city": "CYPRESS",
        "state": "TX",
        "postalCode": "77429-3373"
      },
      {
        "line": [
          "54727 Tomball Pkwy"
        ],
        "city": "TOMBALL",
        "state": "TX",
        "postalCode": "77375-7877"
      },
      {
        "line": [
          "22485 Tomball Parkway, Ste 2100"
        ],
        "city": "HOUSTON",
        "state": "TX",
        "postalCode": "77070-1551"
      },
      {
        "line": [
          "9230 Katy Frwy Ste 601"
        ],
        "city": "HOUSTON",
        "state": "TX",
        "postalCode": "77055-7469"
      },
      {
        "line": [
          "27800 Northwest Frwy"
        ],
        "city": "CYPRESS",
        "state": "TX",
        "postalCode": "77433-5302"
      },
      {
        "line": [
          "5215 Hollister Rd"
        ],
        "city": "HOUSTON",
        "state": "TX",
        "postalCode": "77040-6205"
      },
      {
        "line": [
          "605 Holderrieth Blvd"
        ],
        "city": "TOMBALL",
        "state": "TX",
        "postalCode": "77375-6445"
      },
      {
        "line": [
          "11250 Fallbrook Dr"
        ],
        "city": "HOUSTON",
        "state": "TX",
        "postalCode": "77065-4229"
      },
      {
        "line": [
          "921 Gessner Rd"
        ],
        "city": "HOUSTON",
        "state": "TX",
        "postalCode": "77024-2501"
      },
      {
        "line": [
          "24429 Tomball Pkwy"
        ],
        "city": "TOMBALL",
        "state": "TX",
        "postalCode": "77375-8214"
      },
      {
        "line": [
          "20171 Chasewood Park Dr"
        ],
        "city": "HOUSTON",
        "state": "TX",
        "postalCode": "77070-1437"
      },
      {
        "line": [
          "17080 Red Oak Dr"
        ],
        "city": "HOUSTON",
        "state": "TX",
        "postalCode": "77090-2602"
      },
      {
        "line": [
          "1631 North Loop West Ste 300"
        ],
        "city": "HOUSTON",
        "state": "TX",
        "postalCode": "77008-1528"
      },
      {
        "line": [
          "9180 Katy Frwy Ste 202"
        ],
        "city": "HOUSTON",
        "state": "TX",
        "postalCode": "77055-7443"
      },
      {
        "line": [
          "13603 Michel Rd"
        ],
        "city": "TOMBALL",
        "state": "TX",
        "postalCode": "77375-6410"
      },
      {
        "line": [
          "8731 Katy Frwy Ste 400"
        ],
        "city": "HOUSTON",
        "state": "TX",
        "postalCode": "77024-1701"
      },
      {
        "line": [
          "6011 W Sam Houston Pkw South"
        ],
        "city": "HOUSTON",
        "state": "TX",
        "postalCode": "77072-1646"
      },
      {
        "line": [
          "9645 BARKER CYPRESS RD STE 110"
        ],
        "city": "CYPRESS",
        "state": "TX",
        "postalCode": "77433-5292"
      },
      {
        "line": [
          "18220 State Hwy 249"
        ],
        "city": "HOUSTON",
        "state": "TX",
        "postalCode": "77070-4347"
      },
      {
        "line": [
          "1475 FM 1960 Bypass Rd E"
        ],
        "city": "HUMBLE",
        "state": "TX",
        "postalCode": "77338-3909"
      }
    ],
    "extension": [
      {
        "url": "https://fhir.athena.io/StructureDefinition/ah-practice",
        "valueReference": {
          "reference": "Organization/a-1.Practice-15533"
        }
      },
      {
        "url": "https://fhir.athena.io/StructureDefinition/ah-brand",
        "valueReference": {
          "reference": "Organization/a-15533.Brand-7"
        }
      }
    ]
  },
  "fullUrl": "urn:uuid:a91eb82a-98d4-569e-a98f-82c0b4f108a9"
}