{
  "resource": {
    "resourceType": "Organization",
    "id": "83079e62-0382-52b1-ada3-cd55a1359494",
    "name": "Bariatric Office",
    "endpoint": [
      {
        "reference": "Endpoint/27a4e967-47aa-5a9c-a572-b8297ee268a2"
      },
      {
        "reference": "Endpoint/998fe51f-7f94-59ae-b709-fa33d35d6434"
      }
    ],
    "identifier": [
      {
        "system": "http://hl7.org/fhir/sid/us-npi",
        "value": "1598755605"
      }
    ],
    "address": [
      {
        "line": [
          "130 Division Street"
        ],
        "city": "DERBY",
        "state": "CT",
        "postalCode": "06418-1336"
      },
      {
        "line": [
          "45 Maltby St"
        ],
        "city": "SHELTON",
        "state": "CT",
        "postalCode": "06484-3328"
      },
      {
        "line": [
          "130 Division Street"
        ],
        "city": "DERBY",
        "state": "CT",
        "postalCode": "06418-1326"
      },
      {
        "line": [
          "130 Division Street"
        ],
        "city": "Derby",
        "state": "CT",
        "postalCode": "06418-1326"
      },
      {
        "line": [
          "130 Division STreet"
        ],
        "city": "DERBY",
        "state": "CT",
        "postalCode": "06418-1326"
      },
      {
        "line": [
          "64 Robbins Street"
        ],
        "city": "WATERBURY",
        "state": "CT",
        "postalCode": "06708-2613"
      },
      {
        "line": [
          "2 Ivy Brook Rd.",
          "STE 115"
        ],
        "city": "Shelton",
        "state": "CT",
        "postalCode": "06478-7872"
      },
      {
        "line": [],
        "city": "DERBY",
        "state": "CT",
        "postalCode": "06418-3128"
      },
      {
        "line": [
          "130 DIVISION ST"
        ],
        "city": "DERBY",
        "state": "CT",
        "postalCode": "06418-1326"
      },
      {
        "line": [
          "110 COMMERCE DR"
        ],
        "city": "SHELTON",
        "state": "CT",
        "postalCode": "06484-6244"
      },
      {
        "line": [
          "5 Lake Rd"
        ],
        "city": "SHELTON",
        "state": "CT",
        "postalCode": "06484-2967"
      },
      {
        "line": [
          "130 Division St"
        ],
        "city": "DERBY",
        "state": "CT",
        "postalCode": "06418-1326"
      },
      {
        "line": [
          "5 Lake Road"
        ],
        "city": "SHELTON",
        "state": "CT",
        "postalCode": "06484-2967"
      },
      {
        "line": [
          "130 DIVISION STREET"
        ],
        "city": "DERBY",
        "state": "CT",
        "postalCode": "06418-1326"
      },
      {
        "line": [
          "2800 Main Street"
        ],
        "city": "BRIDGEPORT",
        "state": "CT",
        "postalCode": "06606-4201"
      },
      {
        "line": [
          "350 SEYMOUR AVE"
        ],
        "city": "DERBY",
        "state": "CT",
        "postalCode": "06418-1336"
      },
      {
        "line": [
          "NOT IN PERSON"
        ],
        "city": "DERBY",
        "state": "CT",
        "postalCode": "06418-1302"
      },
      {
        "line": [
          "41 Skokorat St"
        ],
        "city": "SEYMOUR",
        "state": "CT",
        "postalCode": "06483-3826"
      },
      {
        "line": [
          "10 PROGRESS DR"
        ],
        "city": "SHELTON",
        "state": "CT",
        "postalCode": "06484-6219"
      },
      {
        "line": [
          "130 Division Street"
        ],
        "city": "DERBY",
        "state": "CT",
        "postalCode": "06418-1323"
      },
      {
        "line": [
          "130 Division street"
        ],
        "city": "DERBY",
        "state": "CT",
        "postalCode": "06418-1326"
      },
      {
        "line": [
          "435 LEWIS AVE"
        ],
        "city": "MERIDEN",
        "state": "CT",
        "postalCode": "06451-2101"
      },
      {
        "line": [
          "300 OXFORD RD STE 2A"
        ],
        "city": "OXFORD",
        "state": "CT",
        "postalCode": "06478-1656"
      },
      {
        "line": [
          "130 Division Street"
        ],
        "city": "derby",
        "state": "CT",
        "postalCode": "06418-1326"
      },
      {
        "line": [
          "135 DIVISION ST"
        ],
        "city": "ANSONIA",
        "state": "CT",
        "postalCode": "06401-2135"
      },
      {
        "line": [
          "580 Long Hill Ave"
        ],
        "city": "SHELTON",
        "state": "CT",
        "postalCode": "06484-4803"
      },
      {
        "line": [
          "110 Commerce Drive"
        ],
        "city": "SHELTON",
        "state": "CT",
        "postalCode": "06484-3861"
      },
      {
        "line": [
          "130 DIVISON STREET"
        ],
        "city": "DERBY",
        "state": "CT",
        "postalCode": "06418-1326"
      },
      {
        "line": [
          "435 Lewis Ave"
        ],
        "city": "MERIDEN",
        "state": "CT",
        "postalCode": "06451-2101"
      }
    ],
    "extension": [
      {
        "url": "https://fhir.athena.io/StructureDefinition/ah-practice",
        "valueReference": {
          "reference": "Organization/a-1.Practice-1323"
        }
      },
      {
        "url": "https://fhir.athena.io/StructureDefinition/ah-brand",
        "valueReference": {
          "reference": "Organization/a-1323.Brand-1"
        }
      }
    ]
  },
  "fullUrl": "urn:uuid:83079e62-0382-52b1-ada3-cd55a1359494"
}