{
  "resource": {
    "resourceType": "Organization",
    "id": "f58b73e4-e110-519d-82c1-40a0fa66eaf3",
    "name": "Eric A. Wechsler, M.D., Inc.",
    "endpoint": [
      {
        "reference": "Endpoint/27a4e967-47aa-5a9c-a572-b8297ee268a2"
      },
      {
        "reference": "Endpoint/a7aefd37-ba62-5dd7-9e47-aaa9d31ac71b"
      }
    ],
    "identifier": [
      {
        "system": "http://hl7.org/fhir/sid/us-npi",
        "value": "1770759151"
      }
    ],
    "address": [
      {
        "line": [
          "17197 New Hope St Ste E"
        ],
        "city": "FOUNTAIN VALLEY",
        "state": "CA",
        "postalCode": "92708-4207"
      },
      {
        "line": [
          "One Hoag Dr"
        ],
        "city": "NEWPORT BEACH",
        "state": "CA",
        "postalCode": "92663-4162"
      },
      {
        "line": [
          "2740 S BRISTOL",
          "SUITE 110"
        ],
        "city": "SANTA ANA",
        "state": "CA",
        "postalCode": "92704-6232"
      },
      {
        "line": [
          "721 W 1ST ST"
        ],
        "city": "TUSTIN",
        "state": "CA",
        "postalCode": "92780-2903"
      },
      {
        "line": [
          "1501 SUPERIOR AVE STE 208"
        ],
        "city": "NEWPORT BEACH",
        "state": "CA",
        "postalCode": "92663-3640"
      },
      {
        "line": [
          "17762 BEACH BLVD STE 120"
        ],
        "city": "HUNTINGTON BEACH",
        "state": "CA",
        "postalCode": "92647-6860"
      },
      {
        "line": [
          "12761 HARBOR BLVD"
        ],
        "city": "GARDEN GROVE",
        "state": "CA",
        "postalCode": "92840-5845"
      },
      {
        "line": [
          "290 Hospital Cir"
        ],
        "city": "WESTMINSTER",
        "state": "CA",
        "postalCode": "92683-3950"
      },
      {
        "line": [
          "16255 LAGUNA CANYON RD"
        ],
        "city": "IRVINE",
        "state": "CA",
        "postalCode": "92618-3603"
      },
      {
        "line": [
          "510 SUPERIOR AVE",
          "SUITE  150"
        ],
        "city": "NEWPORT BEACH",
        "state": "CA",
        "postalCode": "92663-3663"
      },
      {
        "line": [
          "2070 Century Park East"
        ],
        "city": "LOS ANGELES",
        "state": "CA",
        "postalCode": "90067-1907"
      },
      {
        "line": [
          "12555 GARDEN GROVE BLVD",
          "STE 100"
        ],
        "city": "GARDEN GROVE",
        "state": "CA",
        "postalCode": "92843-1904"
      },
      {
        "line": [
          "23681 Via Linda Ste E"
        ],
        "city": "Mission Viejo",
        "state": "CA",
        "postalCode": "92961-7882"
      },
      {
        "line": [
          "16250 SAND CANYON AVE"
        ],
        "city": "IRVINE",
        "state": "CA",
        "postalCode": "92618-3714"
      },
      {
        "line": [
          "4300 Von Karman Ave"
        ],
        "city": "NEWPORT BEACH",
        "state": "CA",
        "postalCode": "92660-2004"
      },
      {
        "line": [
          "535 First St"
        ],
        "city": "TUSTIN",
        "state": "CA",
        "postalCode": "92780-3312"
      },
      {
        "line": [
          "9920 TALBERT AVE"
        ],
        "city": "FOUNTAIN VALLEY",
        "state": "CA",
        "postalCode": "92708-5153"
      },
      {
        "line": [
          "1501 SUPERIOR AVE STE 205"
        ],
        "city": "NEWPORT BEACH",
        "state": "CA",
        "postalCode": "92663-3640"
      },
      {
        "line": [
          "2090 N TUSTIN AVE STE 100"
        ],
        "city": "SANTA ANA",
        "state": "CA",
        "postalCode": "92705-7869"
      },
      {
        "line": [
          "23141 PLAZA POINTE DR"
        ],
        "city": "LAGUNA HILLS",
        "state": "CA",
        "postalCode": "92653-1425"
      },
      {
        "line": [
          "31001 RANCHO VIEJO RD STE 100"
        ],
        "city": "SAN JUAN CAPISTRANO",
        "state": "CA",
        "postalCode": "92675-8704"
      }
    ],
    "extension": [
      {
        "url": "https://fhir.athena.io/StructureDefinition/ah-practice",
        "valueReference": {
          "reference": "Organization/a-1.Practice-13534"
        }
      },
      {
        "url": "https://fhir.athena.io/StructureDefinition/ah-brand",
        "valueReference": {
          "reference": "Organization/a-13534.Brand-1"
        }
      }
    ]
  },
  "fullUrl": "urn:uuid:f58b73e4-e110-519d-82c1-40a0fa66eaf3"
}