{
  "resource": {
    "resourceType": "Organization",
    "id": "74118ce9-e360-51de-8dfc-b4a5d380d3da",
    "name": "CLE Specialists",
    "endpoint": [
      {
        "reference": "Endpoint/27a4e967-47aa-5a9c-a572-b8297ee268a2"
      },
      {
        "reference": "Endpoint/80a73e53-cfe7-56f9-bc47-6e2fe70e6656"
      }
    ],
    "identifier": [
      {
        "system": "http://hl7.org/fhir/sid/us-npi",
        "value": "1902322324"
      }
    ],
    "address": [
      {
        "line": [
          "23515 E 22ND ST"
        ],
        "city": "CLEVELAND",
        "state": "OH",
        "postalCode": "44115-3111"
      },
      {
        "line": [
          "29017 CEDAR RD"
        ],
        "city": "CLEVELAND",
        "state": "OH",
        "postalCode": "44124-4073"
      },
      {
        "line": [
          "7007 POWERS BLVD"
        ],
        "city": "CLEVELAND",
        "state": "OH",
        "postalCode": "44129-5437"
      },
      {
        "line": [
          "18101 LORAIN ROAD"
        ],
        "city": "CLEVELAND",
        "state": "OH",
        "postalCode": "44111-5612"
      },
      {
        "line": [
          "850 Columbia Road"
        ],
        "city": "WESTLAKE",
        "state": "OH",
        "postalCode": "44145-0324"
      },
      {
        "line": [
          "7711 W. RIDGEWOOD DR"
        ],
        "city": "CLEVELAND",
        "state": "OH",
        "postalCode": "44129-5553"
      },
      {
        "line": [
          "6780 MAYFIELD RD"
        ],
        "city": "CLEVELAND",
        "state": "OH",
        "postalCode": "44124-2203"
      },
      {
        "line": [
          "29000 center ridge road"
        ],
        "city": "WESTLAKE",
        "state": "OH",
        "postalCode": "44145-0324"
      },
      {
        "line": [
          "757 Alpha Drive"
        ],
        "city": "CLEVELAND",
        "state": "OH",
        "postalCode": "44143-2173"
      },
      {
        "line": [
          "29160 CENTER RIDGE ROAD",
          "SUITE S"
        ],
        "city": "WESTLAKE",
        "state": "OH",
        "postalCode": "44145-0324"
      },
      {
        "line": [
          "27100 Chardon Road"
        ],
        "city": "CLEVELAND",
        "state": "OH",
        "postalCode": "44143-9998"
      },
      {
        "line": [
          "3755 ORANGE PLACE #102"
        ],
        "city": "BEACHWOOD",
        "state": "OH",
        "postalCode": "44122-4455"
      },
      {
        "line": [
          "33300 CLEVELAND CLINIC BLVD"
        ],
        "city": "AVON",
        "state": "OH",
        "postalCode": "44011-1172"
      },
      {
        "line": [
          "4492 W 220TH ST"
        ],
        "city": "CLEVELAND",
        "state": "OH",
        "postalCode": "44126-3340"
      },
      {
        "line": [
          "1601 ROCKSIDE RD"
        ],
        "city": "INDEPENDENCE",
        "state": "OH",
        "postalCode": "44131-2212"
      }
    ],
    "extension": [
      {
        "url": "https://fhir.athena.io/StructureDefinition/ah-practice",
        "valueReference": {
          "reference": "Organization/a-1.Practice-21633"
        }
      },
      {
        "url": "https://fhir.athena.io/StructureDefinition/ah-brand",
        "valueReference": {
          "reference": "Organization/a-21633.Brand-1"
        }
      }
    ]
  },
  "fullUrl": "urn:uuid:74118ce9-e360-51de-8dfc-b4a5d380d3da"
}