{
  "resource": {
    "resourceType": "Organization",
    "id": "10f49387-5d61-51b2-af6f-ceef3af12a90",
    "name": "Quad Cities Foot & Ankle",
    "endpoint": [
      {
        "reference": "Endpoint/27a4e967-47aa-5a9c-a572-b8297ee268a2"
      },
      {
        "reference": "Endpoint/13366c62-c24a-5235-bdad-52a6cc0ad6b7"
      }
    ],
    "identifier": [
      {
        "system": "http://hl7.org/fhir/sid/us-npi",
        "value": "1639517501"
      }
    ],
    "address": [
      {
        "line": [
          "1118 11th St"
        ],
        "city": "DE WITT",
        "state": "IA",
        "postalCode": "52742-1353"
      },
      {
        "line": [
          "1518 MULBERRY AVE"
        ],
        "city": "MUSCATINE",
        "state": "IA",
        "postalCode": "52761-3433"
      },
      {
        "line": [
          "801 Illini Dr"
        ],
        "city": "SILVIS",
        "state": "IL",
        "postalCode": "61282-1804"
      },
      {
        "line": [
          "2700 Linwood Court"
        ],
        "city": "DAVENPORT",
        "state": "IA",
        "postalCode": "52806-1660"
      },
      {
        "line": [
          "2332 CUMBERLAND SQUARE DR"
        ],
        "city": "BETTENDORF",
        "state": "IA",
        "postalCode": "52722-3219"
      },
      {
        "line": [
          "4500 Elmore Avenue"
        ],
        "city": "DAVENPORT",
        "state": "IA",
        "postalCode": "52807-2502"
      },
      {
        "line": [
          "1118 11th Street"
        ],
        "city": "DE WITT",
        "state": "IA",
        "postalCode": "52742-1353"
      },
      {
        "line": [
          "900 W 46th St"
        ],
        "city": "DAVENPORT",
        "state": "IA",
        "postalCode": "52806-4362"
      },
      {
        "line": [
          "1118 11th Street",
          "Pavilion 1"
        ],
        "city": "DE WITT",
        "state": "IA",
        "postalCode": "52742-1353"
      },
      {
        "line": [
          "4500 Elmore Ave"
        ],
        "city": "DAVENPORT",
        "state": "IA",
        "postalCode": "52807-2502"
      },
      {
        "line": [
          "107 2nd St"
        ],
        "city": "DE WITT",
        "state": "IA",
        "postalCode": "52742-2140"
      },
      {
        "line": [
          "1518 Mulberry Ave"
        ],
        "city": "MUSCATINE",
        "state": "IA",
        "postalCode": "52761-3433"
      },
      {
        "line": [
          "4130 Northwest blvd"
        ],
        "city": "DAVENPORT",
        "state": "IA",
        "postalCode": "52806-4243"
      },
      {
        "line": [
          "430 W 35TH ST"
        ],
        "city": "DAVENPORT",
        "state": "IA",
        "postalCode": "52806-5820"
      },
      {
        "line": [
          "1301 MAYNARD WAY"
        ],
        "city": "DE WITT",
        "state": "IA",
        "postalCode": "52742-9319"
      },
      {
        "line": [
          "3940 MARQUETTE ST"
        ],
        "city": "DAVENPORT",
        "state": "IA",
        "postalCode": "52806-4430"
      },
      {
        "line": [
          "4130 Northwest Blvd"
        ],
        "city": "DAVENPORT",
        "state": "IA",
        "postalCode": "52806-4243"
      },
      {
        "line": [
          "3800 Commerce BLVD"
        ],
        "city": "DAVENPORT",
        "state": "IA",
        "postalCode": "52807-3495"
      }
    ],
    "extension": [
      {
        "url": "https://fhir.athena.io/StructureDefinition/ah-practice",
        "valueReference": {
          "reference": "Organization/a-1.Practice-11329"
        }
      },
      {
        "url": "https://fhir.athena.io/StructureDefinition/ah-brand",
        "valueReference": {
          "reference": "Organization/a-11329.Brand-1"
        }
      }
    ]
  },
  "fullUrl": "urn:uuid:10f49387-5d61-51b2-af6f-ceef3af12a90"
}