{
  "resource": {
    "resourceType": "Organization",
    "id": "d91be9b0-4a5a-58e7-9542-97c5aa69a342",
    "name": "RELYMD VIRTUAL HEALTH DC LLC",
    "endpoint": [
      {
        "reference": "Endpoint/27a4e967-47aa-5a9c-a572-b8297ee268a2"
      },
      {
        "reference": "Endpoint/6e7e4e0a-a2ef-5780-981e-32b61f496492"
      }
    ],
    "identifier": [
      {
        "system": "http://hl7.org/fhir/sid/us-npi",
        "value": "1609637099"
      }
    ],
    "address": [
      {
        "line": [
          "45-327 KA HANAHOU CIRCLE"
        ],
        "city": "KANEOHE",
        "state": "HI",
        "postalCode": "96744-3012"
      },
      {
        "line": [
          "22724 BRANDYWINE DR"
        ],
        "city": "CALABASAS",
        "state": "CA",
        "postalCode": "91302-5735"
      },
      {
        "line": [
          "12020 Lake Trail Lane"
        ],
        "city": "POMPANO BEACH",
        "state": "FL",
        "postalCode": "33076-2994"
      },
      {
        "line": [
          "4807 MATSONIA DRIVE"
        ],
        "city": "HONOLULU",
        "state": "HI",
        "postalCode": "96816-4040"
      },
      {
        "line": [
          "3935 LANIPILI PLACE"
        ],
        "city": "HONOLULU",
        "state": "HI",
        "postalCode": "96816-3911"
      },
      {
        "line": [
          "1122 2ND AVENUE",
          "APARTMENT D"
        ],
        "city": "HONOLULU",
        "state": "HI",
        "postalCode": "96816-5846"
      },
      {
        "line": [
          "94-159 HOKULELE PL"
        ],
        "city": "MILILANI",
        "state": "HI",
        "postalCode": "96789-2343"
      },
      {
        "line": [
          "144 MAUNALANIKAI PLACE"
        ],
        "city": "HONOLULU",
        "state": "HI",
        "postalCode": "96816-3954"
      },
      {
        "line": [
          "9667 CRYSTAL BEACH ROAD"
        ],
        "city": "HAMMONDSPORT",
        "state": "NY",
        "postalCode": "14840-9341"
      },
      {
        "line": [
          "525 GLEN IRIS DR NE",
          "UNIT #3509"
        ],
        "city": "ATLANTA",
        "state": "GA",
        "postalCode": "30308-2985"
      },
      {
        "line": [
          "395 MICHEL CIRCLE"
        ],
        "city": "SANTA CLARA",
        "state": "UT",
        "postalCode": "84765-5626"
      },
      {
        "line": [
          "114 HUDSON CIRCLE"
        ],
        "city": "SUNSET",
        "state": "SC",
        "postalCode": "29685-2003"
      },
      {
        "line": [
          "19108 WINSLOW TERRACE"
        ],
        "city": "BOCA RATON",
        "state": "FL",
        "postalCode": "33434-5546"
      },
      {
        "line": [
          "5829 WISSAHICKON AVENUE"
        ],
        "city": "PHILADELPHIA",
        "state": "PA",
        "postalCode": "19144-4446"
      },
      {
        "line": [
          "6004 CAIN TERRACE"
        ],
        "city": "BETHESDA",
        "state": "MD",
        "postalCode": "20817-5406"
      },
      {
        "line": [
          "19208 WINSLOW TERRACE"
        ],
        "city": "BOCA RATON",
        "state": "FL",
        "postalCode": "33434-5546"
      },
      {
        "line": [
          "1200 QUEEN EMMA ST",
          "UNIT 1607"
        ],
        "city": "HONOLULU",
        "state": "HI",
        "postalCode": "96813-6300"
      }
    ],
    "extension": [
      {
        "url": "https://fhir.athena.io/StructureDefinition/ah-practice",
        "valueReference": {
          "reference": "Organization/a-1.Practice-14272"
        }
      },
      {
        "url": "https://fhir.athena.io/StructureDefinition/ah-brand",
        "valueReference": {
          "reference": "Organization/a-14272.Brand-215"
        }
      }
    ]
  },
  "fullUrl": "urn:uuid:d91be9b0-4a5a-58e7-9542-97c5aa69a342"
}