{
  "resource": {
    "resourceType": "Organization",
    "id": "8c0788f4-75d2-51f3-ad91-0c49558df2c8",
    "name": "REPUBLIC SPINE AND PAIN",
    "endpoint": [
      {
        "reference": "Endpoint/27a4e967-47aa-5a9c-a572-b8297ee268a2"
      },
      {
        "reference": "Endpoint/01e2e122-5628-51ac-b4c7-7cbcb6501a44"
      }
    ],
    "identifier": [
      {
        "system": "http://hl7.org/fhir/sid/us-npi",
        "value": "1831410323"
      }
    ],
    "address": [
      {
        "line": [
          "13617 CALDWELL DRIVE"
        ],
        "city": "AUSTIN",
        "state": "TX",
        "postalCode": "78750-2300"
      },
      {
        "line": [
          "1623 Rivery Blvd"
        ],
        "city": "GEORGETOWN",
        "state": "TX",
        "postalCode": "78628-3677"
      },
      {
        "line": [
          "2000 Scenic Dr"
        ],
        "city": "GEORGETOWN",
        "state": "TX",
        "postalCode": "78626-7726"
      },
      {
        "line": [
          "13617 CALDWELL DRIVE STE 200"
        ],
        "city": "AUSTIN",
        "state": "TX",
        "postalCode": "78750-2300"
      },
      {
        "line": [
          "351 Cypress Creek Road"
        ],
        "city": "CEDAR PARK",
        "state": "TX",
        "postalCode": "78613-9006"
      },
      {
        "line": [
          "1401 MEDICAL PARKWAY"
        ],
        "city": "CEDAR PARK",
        "state": "TX",
        "postalCode": "78613-7763"
      },
      {
        "line": [
          "800 CRYSTAL FALLS PKWY UNIT 5"
        ],
        "city": "LEANDER",
        "state": "TX",
        "postalCode": "78641-3671"
      },
      {
        "line": [
          "1401 Medical Parkway"
        ],
        "city": "CEDAR PARK",
        "state": "TX",
        "postalCode": "78613-7763"
      }
    ],
    "extension": [
      {
        "url": "https://fhir.athena.io/StructureDefinition/ah-practice",
        "valueReference": {
          "reference": "Organization/a-1.Practice-18125"
        }
      },
      {
        "url": "https://fhir.athena.io/StructureDefinition/ah-brand",
        "valueReference": {
          "reference": "Organization/a-18125.Brand-1"
        }
      }
    ]
  },
  "fullUrl": "urn:uuid:8c0788f4-75d2-51f3-ad91-0c49558df2c8"
}