{
  "resource": {
    "resourceType": "Organization",
    "id": "435e52f0-bcb8-586b-9bab-6cbdde938a6c",
    "name": "Steady Strides",
    "endpoint": [
      {
        "reference": "Endpoint/27a4e967-47aa-5a9c-a572-b8297ee268a2"
      },
      {
        "reference": "Endpoint/f06dcdaf-9640-5f49-a67c-d2f5fa48c81f"
      }
    ],
    "identifier": [
      {
        "system": "http://hl7.org/fhir/sid/us-npi",
        "value": "1124564703"
      },
      {
        "system": "http://hl7.org/fhir/sid/us-npi",
        "value": "1922831825"
      }
    ],
    "address": [
      {
        "line": [
          "4000 OLD COURT RD"
        ],
        "city": "PIKESVILLE",
        "state": "MD",
        "postalCode": "21208-2800"
      },
      {
        "line": [
          "5009 FRANKFORD AVE"
        ],
        "city": "BALTIMORE",
        "state": "MD",
        "postalCode": "21206-5353"
      },
      {
        "line": [
          "8710 EMGE RD"
        ],
        "city": "PARKVILLE",
        "state": "MD",
        "postalCode": "21234-3504"
      },
      {
        "line": [
          "11901 GEORGIA AVE"
        ],
        "city": "Wheaton",
        "state": "MD",
        "postalCode": "20902-2001"
      },
      {
        "line": [
          "7520 SURRATTS RD"
        ],
        "city": "CLINTON",
        "state": "MD",
        "postalCode": "20735-3353"
      },
      {
        "line": [
          "9199 Reisterstown Rd",
          "Ste 101B"
        ],
        "city": "OWINGS MILLS",
        "state": "MD",
        "postalCode": "21117-4520"
      },
      {
        "line": [
          "1221 WAUGH CHAPEL RD"
        ],
        "city": "GAMBRILLS",
        "state": "MD",
        "postalCode": "21054-1608"
      },
      {
        "line": [
          "4017 LIBERTY HEIGHTS AVE"
        ],
        "city": "GWYNN OAK",
        "state": "MD",
        "postalCode": "21207-7545"
      },
      {
        "line": [
          "711 ACADEMY RD"
        ],
        "city": "CATONSVILLE",
        "state": "MD",
        "postalCode": "21228-1802"
      },
      {
        "line": [
          "4511 ROBOSSON RD"
        ],
        "city": "RANDALLSTOWN",
        "state": "MD",
        "postalCode": "21133-1018"
      },
      {
        "line": [
          "1006 MARKET ST"
        ],
        "city": "POCOMOKE CITY",
        "state": "MD",
        "postalCode": "21851-1206"
      },
      {
        "line": [
          "8720 EMGE RD"
        ],
        "city": "BALTIMORE",
        "state": "MD",
        "postalCode": "21234-3504"
      },
      {
        "line": [
          "11974 EDGEHILL TERRACE RD"
        ],
        "city": "PRINCESS ANNE",
        "state": "MD",
        "postalCode": "21853-2105"
      },
      {
        "line": [
          "3320 BENSON AVE"
        ],
        "city": "HALETHORPE",
        "state": "MD",
        "postalCode": "21227-1035"
      },
      {
        "line": [
          "1010 E 33RD ST"
        ],
        "city": "BALTIMORE",
        "state": "MD",
        "postalCode": "21218-3780"
      },
      {
        "line": [
          "7700 YORK RD"
        ],
        "city": "TOWSON",
        "state": "MD",
        "postalCode": "21204-7513"
      },
      {
        "line": [
          "9199 REISTERSTOWN RD STE 101B"
        ],
        "city": "OWINGS MILLS",
        "state": "MD",
        "postalCode": "21117-4513"
      },
      {
        "line": [
          "610 DUTCHMANS LN"
        ],
        "city": "EASTON",
        "state": "MD",
        "postalCode": "21601-3346"
      },
      {
        "line": [
          "115 E MELROSE AVE"
        ],
        "city": "BALTIMORE",
        "state": "MD",
        "postalCode": "21212-2945"
      },
      {
        "line": [
          "6500 RIGGS RD"
        ],
        "city": "HYATTSVILLE",
        "state": "MD",
        "postalCode": "20783-3056"
      },
      {
        "line": [
          "9001 CHERRY LANE"
        ],
        "city": "LAUREL",
        "state": "MD",
        "postalCode": "20708-1120"
      },
      {
        "line": [
          "420 COLONIAL DR"
        ],
        "city": "DENTON",
        "state": "MD",
        "postalCode": "21629-3055"
      },
      {
        "line": [
          "1 PRICE DRIVE"
        ],
        "city": "ELKTON",
        "state": "MD",
        "postalCode": "21921-6731"
      },
      {
        "line": [
          "6000 BELLONA AVE"
        ],
        "city": "BALTIMORE",
        "state": "MD",
        "postalCode": "21212-2922"
      },
      {
        "line": [
          "16 FUSTING AVE"
        ],
        "city": "CATONSVILLE",
        "state": "MD",
        "postalCode": "21228-4413"
      },
      {
        "line": [
          "2095 ROCKROSE AVENUE"
        ],
        "city": "BALTIMORE",
        "state": "MD",
        "postalCode": "21211-1328"
      },
      {
        "line": [
          "7407 WILLOW RD"
        ],
        "city": "FREDERICK",
        "state": "MD",
        "postalCode": "21702-2500"
      },
      {
        "line": [
          "415 MORGNEC RD"
        ],
        "city": "CHESTERTOWN",
        "state": "MD",
        "postalCode": "21620-1046"
      },
      {
        "line": [
          "1300 WINDLASS DRIVE"
        ],
        "city": "MIDDLE RIVER",
        "state": "MD",
        "postalCode": "21220-4126"
      },
      {
        "line": [
          "3939 PENHURST AVENUE"
        ],
        "city": "BALTIMORE",
        "state": "MD",
        "postalCode": "21215-5632"
      },
      {
        "line": [
          "10714 POTOMAC TENNIS LN"
        ],
        "city": "POTOMAC",
        "state": "MD",
        "postalCode": "20854-4418"
      },
      {
        "line": [
          "6530 DEMOCRACY BLVD"
        ],
        "city": "BETHESDA",
        "state": "MD",
        "postalCode": "20817-1679"
      },
      {
        "line": [
          "4204 Old Milford Mill Rd"
        ],
        "city": "PIKESVILLE",
        "state": "MD",
        "postalCode": "21208-6031"
      },
      {
        "line": [
          "520 KERR AVE"
        ],
        "city": "DENTON",
        "state": "MD",
        "postalCode": "21629-1343"
      },
      {
        "line": [
          "85 HOSPITAL RD"
        ],
        "city": "PRINCE FREDERICK",
        "state": "MD",
        "postalCode": "20678-4018"
      },
      {
        "line": [
          "7401 WILLOW ROAD",
          "Community Office Room"
        ],
        "city": "FREDERICK",
        "state": "MD",
        "postalCode": "21702-2590"
      },
      {
        "line": [
          "300 INTERNATIONAL CIRCLE"
        ],
        "city": "COCKEYSVILLE",
        "state": "MD",
        "postalCode": "21030-1300"
      },
      {
        "line": [
          "520 GLENBURN AVE"
        ],
        "city": "CAMBRIDGE",
        "state": "MD",
        "postalCode": "21613-1415"
      }
    ],
    "extension": [
      {
        "url": "https://fhir.athena.io/StructureDefinition/ah-practice",
        "valueReference": {
          "reference": "Organization/a-1.Practice-24618"
        }
      },
      {
        "url": "https://fhir.athena.io/StructureDefinition/ah-brand",
        "valueReference": {
          "reference": "Organization/a-24618.Brand-1"
        }
      }
    ]
  },
  "fullUrl": "urn:uuid:435e52f0-bcb8-586b-9bab-6cbdde938a6c"
}