{
  "resource": {
    "resourceType": "Organization",
    "id": "ecbd22e7-3e62-5b02-8a40-12742825bb3c",
    "name": "TENNESSEE EYE CARE CENTERS",
    "endpoint": [
      {
        "reference": "Endpoint/27a4e967-47aa-5a9c-a572-b8297ee268a2"
      },
      {
        "reference": "Endpoint/9c2c6ea7-98ec-503d-8b0b-59beafbe3b74"
      }
    ],
    "identifier": [
      {
        "system": "http://hl7.org/fhir/sid/us-npi",
        "value": "1548349186"
      }
    ],
    "address": [
      {
        "line": [
          "5491 CREEKWOOD PARK BLVD"
        ],
        "city": "LENOIR CITY",
        "state": "TN",
        "postalCode": "37772-1204"
      },
      {
        "line": [
          "2523 JACKSBORO PIKE"
        ],
        "city": "JACKSBORO",
        "state": "TN",
        "postalCode": "37757-4847"
      },
      {
        "line": [
          "5491 CREEKWOOD PARK BLVD",
          "STE B"
        ],
        "city": "LENOIR CITY",
        "state": "TN",
        "postalCode": "37772-1204"
      },
      {
        "line": [
          "1639 W MORRIS BLVD"
        ],
        "city": "MORRISTOWN",
        "state": "TN",
        "postalCode": "37813-2832"
      },
      {
        "line": [
          "6354 LONAS SPRING DRIVE"
        ],
        "city": "KNOXVILLE",
        "state": "TN",
        "postalCode": "37909-2719"
      },
      {
        "line": [
          "1639 WEST MORRIS BLVD"
        ],
        "city": "MORRISTOWN",
        "state": "TN",
        "postalCode": "37813-2832"
      },
      {
        "line": [
          "320 CHESHIRE DRIVE"
        ],
        "city": "KNOXVILLE",
        "state": "TN",
        "postalCode": "37919-5813"
      },
      {
        "line": [
          "702 S FOOTHILLS PLAZA DRIVE"
        ],
        "city": "MARYVILLE",
        "state": "TN",
        "postalCode": "37801-2300"
      },
      {
        "line": [
          "7739 DANNAHER DRIVE"
        ],
        "city": "POWELL",
        "state": "TN",
        "postalCode": "37849-4049"
      },
      {
        "line": [
          "115 HEDRICK DRIVE"
        ],
        "city": "NEWPORT",
        "state": "TN",
        "postalCode": "37821-2930"
      },
      {
        "line": [
          "7714 CONNER ROAD",
          "STE 102"
        ],
        "city": "POWELL",
        "state": "TN",
        "postalCode": "37849-3559"
      },
      {
        "line": [
          "1760 W MORRIS BLVD"
        ],
        "city": "MORRISTOWN",
        "state": "TN",
        "postalCode": "37813-2834"
      },
      {
        "line": [
          "1798 ROANE STATE HWY"
        ],
        "city": "HARRIMAN",
        "state": "TN",
        "postalCode": "37748-8305"
      },
      {
        "line": [
          "902 WEST MADISON AVENUE"
        ],
        "city": "ATHENS",
        "state": "TN",
        "postalCode": "37303-1204"
      },
      {
        "line": [
          "204 EMORY DRIVE"
        ],
        "city": "GREENEVILLE",
        "state": "TN",
        "postalCode": "37745-4644"
      }
    ],
    "extension": [
      {
        "url": "https://fhir.athena.io/StructureDefinition/ah-practice",
        "valueReference": {
          "reference": "Organization/a-1.Practice-20785"
        }
      },
      {
        "url": "https://fhir.athena.io/StructureDefinition/ah-brand",
        "valueReference": {
          "reference": "Organization/a-20785.Brand-1"
        }
      }
    ]
  },
  "fullUrl": "urn:uuid:ecbd22e7-3e62-5b02-8a40-12742825bb3c"
}