{
  "resource": {
    "resourceType": "Organization",
    "id": "95ced0d3-559b-5341-bf06-d8b0a8e2bd06",
    "name": "First California Physician Partners",
    "endpoint": [
      {
        "reference": "Endpoint/27a4e967-47aa-5a9c-a572-b8297ee268a2"
      },
      {
        "reference": "Endpoint/86cea242-e77a-5151-bf02-904c1ce34d49"
      }
    ],
    "identifier": [
      {
        "system": "http://hl7.org/fhir/sid/us-npi",
        "value": "1558797118"
      },
      {
        "system": "http://hl7.org/fhir/sid/us-npi",
        "value": "1912264862"
      },
      {
        "system": "http://hl7.org/fhir/sid/us-npi",
        "value": "1417297847"
      },
      {
        "system": "http://hl7.org/fhir/sid/us-npi",
        "value": "1538420104"
      }
    ],
    "address": [
      {
        "line": [
          "6001 Norris Canyon Rd"
        ],
        "city": "SAN RAMON",
        "state": "CA",
        "postalCode": "94583-5400"
      },
      {
        "line": [
          "1801 Colorado Ave",
          "Ste 250"
        ],
        "city": "TURLOCK",
        "state": "CA",
        "postalCode": "95382-2710"
      },
      {
        "line": [
          "1144 Norman Dr",
          "STE 203"
        ],
        "city": "MANTECA",
        "state": "CA",
        "postalCode": "95336-5960"
      },
      {
        "line": [
          "1205 E North ST"
        ],
        "city": "MANTECA",
        "state": "CA",
        "postalCode": "95336-4932"
      },
      {
        "line": [
          "1541 Florida Ave",
          "Ste 101"
        ],
        "city": "MODESTO",
        "state": "CA",
        "postalCode": "95350-4438"
      },
      {
        "line": [
          "333 Mercy Ave"
        ],
        "city": "MERCED",
        "state": "CA",
        "postalCode": "95340-8319"
      },
      {
        "line": [
          "1134 NORMAN DR"
        ],
        "city": "MANTECA",
        "state": "CA",
        "postalCode": "95336-5963"
      },
      {
        "line": [
          "1000 Greenly Road"
        ],
        "city": "SONORA",
        "state": "CA",
        "postalCode": "95370-5200"
      },
      {
        "line": [
          "1300 Mable Ave",
          "Suite 1"
        ],
        "city": "MODESTO",
        "state": "CA",
        "postalCode": "95355-1120"
      },
      {
        "line": [
          "1700 Coffee RD"
        ],
        "city": "MODESTO",
        "state": "CA",
        "postalCode": "95355-2803"
      },
      {
        "line": [
          "1801 Colorado Ave",
          "Ste 140"
        ],
        "city": "TURLOCK",
        "state": "CA",
        "postalCode": "95382-2711"
      },
      {
        "line": [
          "2121 Colorado Ave Ste C"
        ],
        "city": "TURLOCK",
        "state": "CA",
        "postalCode": "95382-2012"
      },
      {
        "line": [
          "334 Northgate Dr"
        ],
        "city": "MANTECA",
        "state": "CA",
        "postalCode": "95336-3139"
      },
      {
        "line": [
          "825 Delbon AVE"
        ],
        "city": "TURLOCK",
        "state": "CA",
        "postalCode": "95382-2016"
      },
      {
        "line": [
          "1441 Florida Ave"
        ],
        "city": "MODESTO",
        "state": "CA",
        "postalCode": "95350-4400"
      },
      {
        "line": [
          "880 East Tuolumne Road",
          "Suite 101"
        ],
        "city": "TURLOCK",
        "state": "CA",
        "postalCode": "95382-1549"
      },
      {
        "line": [
          "2336 Sylvan Avenue",
          "Suite B"
        ],
        "city": "MODESTO",
        "state": "CA",
        "postalCode": "95356-9211"
      },
      {
        "line": [
          "3850 Geer Road"
        ],
        "city": "TURLOCK",
        "state": "CA",
        "postalCode": "95382-1146"
      }
    ],
    "extension": [
      {
        "url": "https://fhir.athena.io/StructureDefinition/ah-practice",
        "valueReference": {
          "reference": "Organization/a-1.Practice-14035"
        }
      },
      {
        "url": "https://fhir.athena.io/StructureDefinition/ah-brand",
        "valueReference": {
          "reference": "Organization/a-14035.Brand-1"
        }
      }
    ]
  },
  "fullUrl": "urn:uuid:95ced0d3-559b-5341-bf06-d8b0a8e2bd06"
}