{
  "resource": {
    "resourceType": "Organization",
    "id": "c90da4c3-6b10-54cb-8d51-3a7a856ea996",
    "name": "ATLANTA KIDNEY AND HYPERTENSION ASSOCIATES",
    "endpoint": [
      {
        "reference": "Endpoint/27a4e967-47aa-5a9c-a572-b8297ee268a2"
      },
      {
        "reference": "Endpoint/a5fe5c47-57fa-5cc6-85ea-68377b929d0f"
      }
    ],
    "identifier": [
      {
        "system": "http://hl7.org/fhir/sid/us-npi",
        "value": "1083649552"
      }
    ],
    "address": [
      {
        "line": [
          "2518 Jimmy Lee Smith Pkwy"
        ],
        "city": "HIRAM",
        "state": "GA",
        "postalCode": "30141-2068"
      },
      {
        "line": [
          "200 Cobb Pkwy N",
          "Suite 318"
        ],
        "city": "MARIETTA",
        "state": "GA",
        "postalCode": "30062-3558"
      },
      {
        "line": [
          "1810 Mulkey Rd, Suite 103"
        ],
        "city": "AUSTELL",
        "state": "GA",
        "postalCode": "30106-1132"
      },
      {
        "line": [
          "3865 MEDICAL PARK DRIVE"
        ],
        "city": "AUSTELL",
        "state": "GA",
        "postalCode": "30106-1109"
      },
      {
        "line": [
          "3240 S COBB DR SE"
        ],
        "city": "SMYRNA",
        "state": "GA",
        "postalCode": "30080-4194"
      },
      {
        "line": [
          "1810 MULKEY RD STE 103"
        ],
        "city": "AUSTELL",
        "state": "GA",
        "postalCode": "30106-1132"
      },
      {
        "line": [
          "76 Highland Pavilion Ct"
        ],
        "city": "HIRAM",
        "state": "GA",
        "postalCode": "30141-3169"
      },
      {
        "line": [
          "4110 Austell Powder Springs Road Suite 100"
        ],
        "city": "POWDER SPRINGS",
        "state": "GA",
        "postalCode": "30127-2954"
      },
      {
        "line": [
          "1810 Mulkey Road",
          "Suite 103"
        ],
        "city": "AUSTELL",
        "state": "GA",
        "postalCode": "30106-1132"
      },
      {
        "line": [
          "3651 BAKERS FERRY RD SW"
        ],
        "city": "ATLANTA",
        "state": "GA",
        "postalCode": "30331-3712"
      },
      {
        "line": [
          "1899 LAKE RD STE 111"
        ],
        "city": "HIRAM",
        "state": "GA",
        "postalCode": "30141-2292"
      },
      {
        "line": [
          "7117 SOUTH SWEETWATER ROAD"
        ],
        "city": "LITHIA SPRINGS",
        "state": "GA",
        "postalCode": "30122-2446"
      },
      {
        "line": [
          "880 Lower Roswell Rd Ste 770"
        ],
        "city": "MARIETTA",
        "state": "GA",
        "postalCode": "30068-4375"
      },
      {
        "line": [
          "3919 ATLANTA HIGHWAY"
        ],
        "city": "HIRAM",
        "state": "GA",
        "postalCode": "30141-1851"
      }
    ],
    "extension": [
      {
        "url": "https://fhir.athena.io/StructureDefinition/ah-practice",
        "valueReference": {
          "reference": "Organization/a-1.Practice-3666"
        }
      },
      {
        "url": "https://fhir.athena.io/StructureDefinition/ah-brand",
        "valueReference": {
          "reference": "Organization/a-3666.Brand-1"
        }
      }
    ]
  },
  "fullUrl": "urn:uuid:c90da4c3-6b10-54cb-8d51-3a7a856ea996"
}