{
  "resource": {
    "resourceType": "Organization",
    "id": "0dde15cf-b9df-56ab-b462-873049b4dcd8",
    "name": "Dr. Manish Gopal",
    "endpoint": [
      {
        "reference": "Endpoint/27a4e967-47aa-5a9c-a572-b8297ee268a2"
      },
      {
        "reference": "Endpoint/7199f13d-363d-51b2-9dbc-f7d145f7fd13"
      }
    ],
    "identifier": [
      {
        "system": "http://hl7.org/fhir/sid/us-npi",
        "value": "1205981230"
      }
    ],
    "address": [
      {
        "line": [
          "99 ROUTE 37 W"
        ],
        "city": "TOMS RIVER",
        "state": "NJ",
        "postalCode": "08755-6423"
      },
      {
        "line": [
          "254 EASTON AVE"
        ],
        "city": "NEW BRUNSWICK",
        "state": "NJ",
        "postalCode": "08901-1766"
      },
      {
        "line": [
          "1 ROBERT WOOD JOHNSON PL"
        ],
        "city": "NEW BRUNSWICK",
        "state": "NJ",
        "postalCode": "08901-1928"
      },
      {
        "line": [
          "111 UNION VALLEY ROAD"
        ],
        "city": "MONROE TOWNSHIP",
        "state": "NJ",
        "postalCode": "08831-6000"
      },
      {
        "line": [
          "65 JAMES ST"
        ],
        "city": "EDISON",
        "state": "NJ",
        "postalCode": "08820-3947"
      },
      {
        "line": [
          "901 W MAIN ST"
        ],
        "city": "FREEHOLD",
        "state": "NJ",
        "postalCode": "07728-2537"
      },
      {
        "line": [
          "1 PLAINSBORO RD"
        ],
        "city": "PLAINSBORO",
        "state": "NJ",
        "postalCode": "08536-1913"
      },
      {
        "line": [
          "300 2ND AVE"
        ],
        "city": "LONG BRANCH",
        "state": "NJ",
        "postalCode": "07740-6303"
      },
      {
        "line": [
          "1 ROUTE 70 W"
        ],
        "city": "LAKEWOOD",
        "state": "NJ",
        "postalCode": "08701-5895"
      },
      {
        "line": [
          "1 HIGHWAY 70"
        ],
        "city": "LAKEWOOD",
        "state": "NJ",
        "postalCode": "08701-5895"
      },
      {
        "line": [
          "49 VERONICA AVE STE 207"
        ],
        "city": "SOMERSET",
        "state": "NJ",
        "postalCode": "08873-6802"
      },
      {
        "line": [
          "1000 WEST MAIN STREET"
        ],
        "city": "FREEHOLD",
        "state": "NJ",
        "postalCode": "07728-2156"
      }
    ],
    "extension": [
      {
        "url": "https://fhir.athena.io/StructureDefinition/ah-practice",
        "valueReference": {
          "reference": "Organization/a-1.Practice-27793"
        }
      },
      {
        "url": "https://fhir.athena.io/StructureDefinition/ah-brand",
        "valueReference": {
          "reference": "Organization/a-27793.Brand-1"
        }
      }
    ]
  },
  "fullUrl": "urn:uuid:0dde15cf-b9df-56ab-b462-873049b4dcd8"
}