{
  "resource": {
    "resourceType": "Organization",
    "id": "a679a221-d753-54b9-911c-aa36acbaf7c5",
    "name": "BOXER PROPERTY",
    "endpoint": [
      {
        "reference": "Endpoint/27a4e967-47aa-5a9c-a572-b8297ee268a2"
      },
      {
        "reference": "Endpoint/aecc67cf-2526-5647-b734-e9d7d04011c7"
      }
    ],
    "identifier": [
      {
        "system": "http://hl7.org/fhir/sid/us-npi",
        "value": "1952868952"
      }
    ],
    "address": [
      {
        "line": [
          "2450 HOLCOMBE"
        ],
        "city": "HOUSTON",
        "state": "TX",
        "postalCode": "77021-2039"
      },
      {
        "line": [
          "7324 SOUTHWEST FWY STE 115"
        ],
        "city": "HOUSTON",
        "state": "TX",
        "postalCode": "77074-2064"
      },
      {
        "line": [
          "2450 Holcombe Blvd",
          "X+240"
        ],
        "city": "HOUSTON",
        "state": "TX",
        "postalCode": "77021-2039"
      },
      {
        "line": [
          "2450 HOLCOMBE BLVD",
          "x240"
        ],
        "city": "HOUSTON",
        "state": "TX",
        "postalCode": "77021-2039"
      },
      {
        "line": [
          "3800 CENTERPOINT DR STE 1400"
        ],
        "city": "ANCHORAGE",
        "state": "AK",
        "postalCode": "99503-5832"
      },
      {
        "line": [
          "441 GEEBEE AVE"
        ],
        "city": "KENAI",
        "state": "AK",
        "postalCode": "99611-7864"
      },
      {
        "line": [
          "8715 W MILITARY DR"
        ],
        "city": "SAN ANTONIO",
        "state": "TX",
        "postalCode": "78227-5302"
      },
      {
        "line": [
          "2017 WHITE STREET"
        ],
        "city": "HOUSTON",
        "state": "TX",
        "postalCode": "77007-2810"
      },
      {
        "line": [
          "2450 Holcombe",
          "Suite X"
        ],
        "city": "HOUSTON",
        "state": "TX",
        "postalCode": "77021-2810"
      },
      {
        "line": [
          "11421 Todd St"
        ],
        "city": "HOUSTON",
        "state": "TX",
        "postalCode": "77055-1349"
      },
      {
        "line": [
          "2450 HOLCOMBE BLVD",
          "X+240"
        ],
        "city": "HOUSTON",
        "state": "TX",
        "postalCode": "77021-2039"
      }
    ],
    "extension": [
      {
        "url": "https://fhir.athena.io/StructureDefinition/ah-practice",
        "valueReference": {
          "reference": "Organization/a-1.Practice-19329"
        }
      },
      {
        "url": "https://fhir.athena.io/StructureDefinition/ah-brand",
        "valueReference": {
          "reference": "Organization/a-19329.Brand-2"
        }
      }
    ]
  },
  "fullUrl": "urn:uuid:a679a221-d753-54b9-911c-aa36acbaf7c5"
}