{
  "resource": {
    "resourceType": "Organization",
    "id": "9b3e78b2-a285-5561-9a42-abfdc30ac66d",
    "name": "Foot and Ankle Physicians of Ohio",
    "endpoint": [
      {
        "reference": "Endpoint/27a4e967-47aa-5a9c-a572-b8297ee268a2"
      },
      {
        "reference": "Endpoint/48d3ee22-c9d1-5553-b120-9c5239bfbcf4"
      }
    ],
    "identifier": [
      {
        "system": "http://hl7.org/fhir/sid/us-npi",
        "value": "1922526698"
      }
    ],
    "address": [
      {
        "line": [
          "600 N Pickaway St"
        ],
        "city": "CIRCLEVILLE",
        "state": "OH",
        "postalCode": "43113-9373"
      },
      {
        "line": [
          "210 SHARON RD STE C"
        ],
        "city": "CIRCLEVILLE",
        "state": "OH",
        "postalCode": "43113-1498"
      },
      {
        "line": [
          "1325 STRINGTOWN RD"
        ],
        "city": "GROVE CITY",
        "state": "OH",
        "postalCode": "43123-9288"
      },
      {
        "line": [
          "5100 W BROAD ST"
        ],
        "city": "COLUMBUS",
        "state": "OH",
        "postalCode": "43228-1607"
      },
      {
        "line": [
          "600 N PIckaway St"
        ],
        "city": "CIRCLEVILLE",
        "state": "OH",
        "postalCode": "43113-9373"
      },
      {
        "line": [
          "111 S GRANT AVE"
        ],
        "city": "COLUMBUS",
        "state": "OH",
        "postalCode": "43215-4701"
      },
      {
        "line": [
          "4845 KNIGHTSBRIDGE BLVD"
        ],
        "city": "COLUMBUS",
        "state": "OH",
        "postalCode": "43214-2463"
      },
      {
        "line": [
          "3535 Olentangy River Rd"
        ],
        "city": "COLUMBUS",
        "state": "OH",
        "postalCode": "43214-3908"
      },
      {
        "line": [
          "1325 Stringtown Rd"
        ],
        "city": "GROVE CITY",
        "state": "OH",
        "postalCode": "43123-8453"
      },
      {
        "line": [
          "1325 STRINGTOWN RD Suite 220"
        ],
        "city": "GROVE CITY",
        "state": "OH",
        "postalCode": "43123-9288"
      },
      {
        "line": [
          "5300 N Meadows Rd"
        ],
        "city": "GROVE CITY",
        "state": "OH",
        "postalCode": "43123-8453"
      }
    ],
    "extension": [
      {
        "url": "https://fhir.athena.io/StructureDefinition/ah-practice",
        "valueReference": {
          "reference": "Organization/a-1.Practice-32308"
        }
      },
      {
        "url": "https://fhir.athena.io/StructureDefinition/ah-brand",
        "valueReference": {
          "reference": "Organization/a-32308.Brand-1"
        }
      }
    ]
  },
  "fullUrl": "urn:uuid:9b3e78b2-a285-5561-9a42-abfdc30ac66d"
}