{
  "resource": {
    "resourceType": "Organization",
    "id": "ea070da4-93ab-5f47-9ffa-a469f7f4dbcf",
    "name": "Dell Children's Medical Group Palliative Care Department",
    "endpoint": [
      {
        "reference": "Endpoint/27a4e967-47aa-5a9c-a572-b8297ee268a2"
      },
      {
        "reference": "Endpoint/9cc18d86-9cfd-51f4-8362-613d94d57769"
      }
    ],
    "identifier": [
      {
        "system": "http://hl7.org/fhir/sid/us-npi",
        "value": "1790103869"
      },
      {
        "system": "http://hl7.org/fhir/sid/us-npi",
        "value": "1326072943"
      }
    ],
    "address": [
      {
        "line": [
          "4314 Medical Pkwy Ste 200"
        ],
        "city": "Austin",
        "state": "TX",
        "postalCode": "78756-3332"
      },
      {
        "line": [
          "4910 Mueller Blvd Ste 100"
        ],
        "city": "Austin",
        "state": "TX",
        "postalCode": "78723-3079"
      },
      {
        "line": [
          "1301 Medical Parkway"
        ],
        "city": "CEDAR PARK",
        "state": "TX",
        "postalCode": "78613-2305"
      },
      {
        "line": [
          "4910 Mueller Blvd",
          "STE 200"
        ],
        "city": "AUSTIN",
        "state": "TX",
        "postalCode": "78723-3079"
      },
      {
        "line": [
          "1301 W. 38th St., Suite 315"
        ],
        "city": "Austin",
        "state": "TX",
        "postalCode": "78705-1012"
      },
      {
        "line": [
          "11111 Research Blvd Suite 210"
        ],
        "city": "Austin",
        "state": "TX",
        "postalCode": "78759-5791"
      },
      {
        "line": [
          "4910 Mueller Blvd, Suite 300"
        ],
        "city": "Austin",
        "state": "TX",
        "postalCode": "78723-3078"
      },
      {
        "line": [
          "1301 Medical Pkwy",
          "STE 200"
        ],
        "city": "CEDAR PARK",
        "state": "TX",
        "postalCode": "78613-2529"
      },
      {
        "line": [
          "1301 Barbara Jordan Blvd",
          "STE 307"
        ],
        "city": "AUSTIN",
        "state": "TX",
        "postalCode": "78723-3080"
      }
    ],
    "extension": [
      {
        "url": "https://fhir.athena.io/StructureDefinition/ah-practice",
        "valueReference": {
          "reference": "Organization/a-1.Practice-8363"
        }
      },
      {
        "url": "https://fhir.athena.io/StructureDefinition/ah-brand",
        "valueReference": {
          "reference": "Organization/a-8363.Brand-1"
        }
      }
    ]
  },
  "fullUrl": "urn:uuid:ea070da4-93ab-5f47-9ffa-a469f7f4dbcf"
}