{
  "resource": {
    "resourceType": "Organization",
    "id": "3f991aac-55ac-5565-8e39-e2cff2641b33",
    "name": "CHICAGO INSTITUTE OF ADVANCED BARIATRICS",
    "endpoint": [
      {
        "reference": "Endpoint/27a4e967-47aa-5a9c-a572-b8297ee268a2"
      },
      {
        "reference": "Endpoint/bee4f8a6-6a7e-591a-997f-f16e16af70fb"
      }
    ],
    "identifier": [
      {
        "system": "http://hl7.org/fhir/sid/us-npi",
        "value": "1558600957"
      }
    ],
    "address": [
      {
        "line": [
          "7456 S State Rd",
          "Suite 300"
        ],
        "city": "CHICAGO",
        "state": "IL",
        "postalCode": "60638-6623"
      },
      {
        "line": [
          "3000 N HALSTED ST",
          "Suite 7003"
        ],
        "city": "CHICAGO",
        "state": "IL",
        "postalCode": "60657-5196"
      },
      {
        "line": [
          "4733  N Damen"
        ],
        "city": "CHICAGO",
        "state": "IL",
        "postalCode": "60625-1442"
      },
      {
        "line": [
          "1775 DEMPSTER ST"
        ],
        "city": "PARK RIDGE",
        "state": "IL",
        "postalCode": "60068-1143"
      },
      {
        "line": [
          "2800 W 95th street"
        ],
        "city": "EVERGREEN PARK",
        "state": "IL",
        "postalCode": "60805-2701"
      },
      {
        "line": [
          "5145 n caifornia"
        ],
        "city": "CHICAGO",
        "state": "IL",
        "postalCode": "60625-3661"
      },
      {
        "line": [
          "2850 W 95TH STREET",
          "SUITE 300"
        ],
        "city": "EVERGREEN PARK",
        "state": "IL",
        "postalCode": "60805-2741"
      },
      {
        "line": [
          "3000 N HALSTED, SUITE 703"
        ],
        "city": "CHICAGO",
        "state": "IL",
        "postalCode": "60657-5196"
      },
      {
        "line": [
          "900 W Nelson Street",
          "Conference Room 19179"
        ],
        "city": "CHICAGO",
        "state": "IL",
        "postalCode": "60657-6704"
      },
      {
        "line": [
          "123 Main St"
        ],
        "city": "NEW YORK",
        "state": "NY",
        "postalCode": "10017-1020"
      },
      {
        "line": [
          "8901 GOLF RD STE 305"
        ],
        "city": "DES PLAINES",
        "state": "IL",
        "postalCode": "60016-4029"
      },
      {
        "line": [
          "1349 N western Ave"
        ],
        "city": "CHICAGO",
        "state": "IL",
        "postalCode": "60622-8316"
      },
      {
        "line": [
          "3000 N HALSTED ST",
          "Suite 703"
        ],
        "city": "CHICAGO",
        "state": "IL",
        "postalCode": "60657-5196"
      },
      {
        "line": [
          "3000 N HALSTED ST",
          "703"
        ],
        "city": "CHICAGO",
        "state": "IL",
        "postalCode": "60657-5196"
      },
      {
        "line": [
          "2740 W Foster Ave",
          "Suite 101"
        ],
        "city": "CHICAGO",
        "state": "IL",
        "postalCode": "60625-5691"
      },
      {
        "line": [
          "850 West Irving Park Road"
        ],
        "city": "CHICAGO",
        "state": "IL",
        "postalCode": "60613-3077"
      },
      {
        "line": [
          "850 West Irving Park Road",
          "SUITE 305"
        ],
        "city": "CHICAGO",
        "state": "IL",
        "postalCode": "60613-3077"
      }
    ],
    "extension": [
      {
        "url": "https://fhir.athena.io/StructureDefinition/ah-practice",
        "valueReference": {
          "reference": "Organization/a-1.Practice-6721"
        }
      },
      {
        "url": "https://fhir.athena.io/StructureDefinition/ah-brand",
        "valueReference": {
          "reference": "Organization/a-6721.Brand-2"
        }
      }
    ]
  },
  "fullUrl": "urn:uuid:3f991aac-55ac-5565-8e39-e2cff2641b33"
}