{
  "resource": {
    "resourceType": "Organization",
    "id": "bf46f3cd-cd2f-5bb1-ac4b-dbc4a773af36",
    "name": "SIGNATURE MEDICAL GROUP OF KC, P.A.",
    "endpoint": [
      {
        "reference": "Endpoint/27a4e967-47aa-5a9c-a572-b8297ee268a2"
      },
      {
        "reference": "Endpoint/8fe16375-3ec9-5010-a5a1-21dddfec3532"
      }
    ],
    "identifier": [
      {
        "system": "http://hl7.org/fhir/sid/us-npi",
        "value": "1992087266"
      }
    ],
    "address": [
      {
        "line": [
          "705 BAPTISTE DRIVE"
        ],
        "city": "PAOLA",
        "state": "KS",
        "postalCode": "66071-1336"
      },
      {
        "line": [
          "20333 W 151ST STREET"
        ],
        "city": "OLATHE",
        "state": "KS",
        "postalCode": "66061-5350"
      },
      {
        "line": [
          "10550 QUIVIRA RD",
          "SUITE 270"
        ],
        "city": "LENEXA",
        "state": "KS",
        "postalCode": "66215-2375"
      },
      {
        "line": [
          "2100 BAPTISTE DRIVE"
        ],
        "city": "PAOLA",
        "state": "KS",
        "postalCode": "66071-1314"
      },
      {
        "line": [
          "401 WOODLAND HILLS BLVD"
        ],
        "city": "FORT SCOTT",
        "state": "KS",
        "postalCode": "66701-8797"
      },
      {
        "line": [
          "11155 TUCKER RD"
        ],
        "city": "PLEASANTON",
        "state": "KS",
        "postalCode": "66075-8401"
      },
      {
        "line": [
          "20375 W 151ST ST",
          "SUITE 270"
        ],
        "city": "OLATHE",
        "state": "KS",
        "postalCode": "66061-5306"
      },
      {
        "line": [
          "902 S HORTON"
        ],
        "city": "FORT SCOTT",
        "state": "KS",
        "postalCode": "66701-2438"
      },
      {
        "line": [
          "10730 NALL AVE"
        ],
        "city": "LEAWOOD",
        "state": "KS",
        "postalCode": "66211-1366"
      },
      {
        "line": [
          "1000 CARONDELET DRIVE"
        ],
        "city": "KANSAS CITY",
        "state": "MO",
        "postalCode": "64114-4673"
      }
    ],
    "extension": [
      {
        "url": "https://fhir.athena.io/StructureDefinition/ah-practice",
        "valueReference": {
          "reference": "Organization/a-1.Practice-10689"
        }
      },
      {
        "url": "https://fhir.athena.io/StructureDefinition/ah-brand",
        "valueReference": {
          "reference": "Organization/a-10689.Brand-1"
        }
      }
    ]
  },
  "fullUrl": "urn:uuid:bf46f3cd-cd2f-5bb1-ac4b-dbc4a773af36"
}