{
  "resource": {
    "resourceType": "Organization",
    "id": "76e08edf-66b8-5459-8e0f-32422d49a76b",
    "name": "Miami Kidney Group",
    "endpoint": [
      {
        "reference": "Endpoint/27a4e967-47aa-5a9c-a572-b8297ee268a2"
      },
      {
        "reference": "Endpoint/2b9c2ea2-7946-5ed5-9097-cc0889250a57"
      }
    ],
    "identifier": [
      {
        "system": "http://hl7.org/fhir/sid/us-npi",
        "value": "1396894952"
      }
    ],
    "address": [
      {
        "line": [
          "7900 SW 57TH AVENUE SUITE 21"
        ],
        "city": "MIAMI",
        "state": "FL",
        "postalCode": "33143-5522"
      },
      {
        "line": [
          "2561 CORAL WAY"
        ],
        "city": "MIAMI",
        "state": "FL",
        "postalCode": "33145-3403"
      },
      {
        "line": [
          "18942 S DIXIE HWY"
        ],
        "city": "MIAMI",
        "state": "FL",
        "postalCode": "33157-7711"
      },
      {
        "line": [
          "8364 MILLS DR"
        ],
        "city": "MIAMI",
        "state": "FL",
        "postalCode": "33183-4806"
      },
      {
        "line": [
          "14600 NW 60TH AVENUE"
        ],
        "city": "HIALEAH",
        "state": "FL",
        "postalCode": "33014-2811"
      },
      {
        "line": [
          "1402 NW 7TH ST"
        ],
        "city": "MIAMI",
        "state": "FL",
        "postalCode": "33125-3700"
      },
      {
        "line": [
          "2791 SW 137TH AVE"
        ],
        "city": "MIAMI",
        "state": "FL",
        "postalCode": "33175-6354"
      },
      {
        "line": [
          "3863 W BROWARD BLVD"
        ],
        "city": "FORT LAUDERDALE",
        "state": "FL",
        "postalCode": "33312-1017"
      },
      {
        "line": [
          "3280 PONCE DE LEON BLVD"
        ],
        "city": "MIAMI",
        "state": "FL",
        "postalCode": "33134-7252"
      },
      {
        "line": [
          "16600 NW 13 AVE"
        ],
        "city": "MIAMI GARDENS",
        "state": "FL",
        "postalCode": "33169-5722"
      },
      {
        "line": [
          "5550 W FLAGLER ST"
        ],
        "city": "MIAMI",
        "state": "FL",
        "postalCode": "33134-1066"
      },
      {
        "line": [
          "7980 NW 155 ST",
          "2ND FLOOR"
        ],
        "city": "HIALEAH",
        "state": "FL",
        "postalCode": "33016-5894"
      },
      {
        "line": [
          "8100 JOHNSON STREET"
        ],
        "city": "HOLLYWOOD",
        "state": "FL",
        "postalCode": "33024-6734"
      },
      {
        "line": [
          "16740 SW 88TH ST"
        ],
        "city": "MIAMI",
        "state": "FL",
        "postalCode": "33196-5934"
      },
      {
        "line": [
          "11251 NW 20 STREET",
          "SUITE 105"
        ],
        "city": "MIAMI",
        "state": "FL",
        "postalCode": "33172-1859"
      },
      {
        "line": [
          "9555 SW 162ND AVE"
        ],
        "city": "MIAMI",
        "state": "FL",
        "postalCode": "33196-6408"
      },
      {
        "line": [
          "8900 NORTH KENDALL DRIVE"
        ],
        "city": "MIAMI",
        "state": "FL",
        "postalCode": "33176-2118"
      },
      {
        "line": [
          "7170 W 20TH AVE"
        ],
        "city": "HIALEAH",
        "state": "FL",
        "postalCode": "33016-1849"
      },
      {
        "line": [
          "7815 CORAL WAY"
        ],
        "city": "MIAMI",
        "state": "FL",
        "postalCode": "33155-6541"
      },
      {
        "line": [
          "5130 LINTON BLVD"
        ],
        "city": "DELRAY BEACH",
        "state": "FL",
        "postalCode": "33484-6596"
      },
      {
        "line": [
          "12000 SW 131 AVE"
        ],
        "city": "MIAMI",
        "state": "FL",
        "postalCode": "33186-6419"
      },
      {
        "line": [
          "5000 UNIERSITY DRIVE"
        ],
        "city": "MIAMI",
        "state": "FL",
        "postalCode": "33146-2008"
      },
      {
        "line": [
          "975 BAPTIST WAY"
        ],
        "city": "HOMESTEAD",
        "state": "FL",
        "postalCode": "33033-7600"
      },
      {
        "line": [
          "1492 N.W. 7 STREET"
        ],
        "city": "MIAMI",
        "state": "FL",
        "postalCode": "33125-3700"
      },
      {
        "line": [
          "19056 NE 29TH AVE"
        ],
        "city": "MIAMI",
        "state": "FL",
        "postalCode": "33180-2802"
      },
      {
        "line": [
          "99 CAMPBELL DRIVE"
        ],
        "city": "HOMESTEAD",
        "state": "FL",
        "postalCode": "33030-4605"
      },
      {
        "line": [
          "10850 S.W. 184TH STREET"
        ],
        "city": "MIAMI",
        "state": "FL",
        "postalCode": "33157-6737"
      },
      {
        "line": [
          "10850 SW 184 ST"
        ],
        "city": "MIAMI",
        "state": "FL",
        "postalCode": "33157-6737"
      },
      {
        "line": [
          "1982 NE 8 STREET"
        ],
        "city": "HOMESTEAD",
        "state": "FL",
        "postalCode": "33033-4704"
      },
      {
        "line": [
          "238 PALERMO AVE"
        ],
        "city": "MIAMI",
        "state": "FL",
        "postalCode": "33134-6606"
      },
      {
        "line": [
          "9333 SW 152ND ST"
        ],
        "city": "MIAMI",
        "state": "FL",
        "postalCode": "33157-1778"
      },
      {
        "line": [
          "16740 S.W. 88 STREET"
        ],
        "city": "MIAMI",
        "state": "FL",
        "postalCode": "33196-5934"
      },
      {
        "line": [
          "9193 SW 72ND ST",
          "SUITE 100"
        ],
        "city": "MIAMI",
        "state": "FL",
        "postalCode": "33173-3487"
      },
      {
        "line": [
          "6200 SW 73RD ST"
        ],
        "city": "MIAMI",
        "state": "FL",
        "postalCode": "33143-4679"
      },
      {
        "line": [
          "2876 NE 8TH STREET"
        ],
        "city": "HOMESTEAD",
        "state": "FL",
        "postalCode": "33033-5695"
      },
      {
        "line": [
          "11440 NW 7 AVE"
        ],
        "city": "MIAMI",
        "state": "FL",
        "postalCode": "33168-2208"
      },
      {
        "line": [
          "99 NE 8 ST"
        ],
        "city": "HOMESTEAD",
        "state": "FL",
        "postalCode": "33030-4605"
      },
      {
        "line": [
          "26585 S DIXIE HWY"
        ],
        "city": "HOMESTEAD",
        "state": "FL",
        "postalCode": "33032-7426"
      },
      {
        "line": [
          "8770 SW 144TH ST"
        ],
        "city": "MIAMI",
        "state": "FL",
        "postalCode": "33176-7217"
      },
      {
        "line": [
          "2876 NE 8TH ST"
        ],
        "city": "HOMESTEAD",
        "state": "FL",
        "postalCode": "33033-5695"
      },
      {
        "line": [
          "11040 SW 184 STREET"
        ],
        "city": "MIAMI",
        "state": "FL",
        "postalCode": "33157-6602"
      },
      {
        "line": [
          "7900 SW 57TH AVE STE 21"
        ],
        "city": "MIAMI",
        "state": "FL",
        "postalCode": "33143-5546"
      },
      {
        "line": [
          " 20601 OLD CUTLER RD"
        ],
        "city": "MIAMI",
        "state": "FL",
        "postalCode": "33189-2441"
      }
    ],
    "extension": [
      {
        "url": "https://fhir.athena.io/StructureDefinition/ah-practice",
        "valueReference": {
          "reference": "Organization/a-1.Practice-24546"
        }
      },
      {
        "url": "https://fhir.athena.io/StructureDefinition/ah-brand",
        "valueReference": {
          "reference": "Organization/a-24546.Brand-1"
        }
      }
    ]
  },
  "fullUrl": "urn:uuid:76e08edf-66b8-5459-8e0f-32422d49a76b"
}