{
  "resource": {
    "resourceType": "Organization",
    "id": "5b19efc5-b6a3-5799-9f31-2c3b19000e79",
    "name": "Premier Mobile Health",
    "endpoint": [
      {
        "reference": "Endpoint/27a4e967-47aa-5a9c-a572-b8297ee268a2"
      },
      {
        "reference": "Endpoint/500d0fb3-fb0f-5b2a-b14e-eebab4c89f6d"
      }
    ],
    "identifier": [
      {
        "system": "http://hl7.org/fhir/sid/us-npi",
        "value": "1639661937"
      }
    ],
    "address": [
      {
        "line": [
          "5547 10TH AVE STE 2864"
        ],
        "city": "FORT MYERS",
        "state": "FL",
        "postalCode": "33907-2864"
      },
      {
        "line": [
          "820 BUTTONWOOD DR"
        ],
        "city": "FORT MYERS BEACH",
        "state": "FL",
        "postalCode": "33931-2202"
      },
      {
        "line": [
          "10676 COLONIAL BLVD STE 20"
        ],
        "city": "FORT MYERS",
        "state": "FL",
        "postalCode": "33913-8715"
      },
      {
        "line": [
          "201 PLAZA DR",
          "STE 103"
        ],
        "city": "LEHIGH ACRES",
        "state": "FL",
        "postalCode": "33936-6071"
      },
      {
        "line": [
          "201 S 3RD ST"
        ],
        "city": "IMMOKALEE",
        "state": "FL",
        "postalCode": "34142-3914"
      },
      {
        "line": [
          "2900 Price Ave"
        ],
        "city": "FORT MYERS",
        "state": "FL",
        "postalCode": "33916-8715"
      },
      {
        "line": [
          "26724 NOMAD DRIVE"
        ],
        "city": "BONITA SPRINGS",
        "state": "FL",
        "postalCode": "34135-9946"
      },
      {
        "line": [
          "10511 GLADIOLUS DRIVE"
        ],
        "city": "FORT MYERS",
        "state": "FL",
        "postalCode": "33908-2890"
      }
    ],
    "extension": [
      {
        "url": "https://fhir.athena.io/StructureDefinition/ah-practice",
        "valueReference": {
          "reference": "Organization/a-1.Practice-22489"
        }
      },
      {
        "url": "https://fhir.athena.io/StructureDefinition/ah-brand",
        "valueReference": {
          "reference": "Organization/a-22489.Brand-1"
        }
      }
    ]
  },
  "fullUrl": "urn:uuid:5b19efc5-b6a3-5799-9f31-2c3b19000e79"
}