{
  "resource": {
    "resourceType": "Organization",
    "id": "657fd974-c503-5502-ba60-3949b37fde7a",
    "name": "Regional Employee Assistance Program Inc.",
    "endpoint": [
      {
        "reference": "Endpoint/27a4e967-47aa-5a9c-a572-b8297ee268a2"
      },
      {
        "reference": "Endpoint/aaa2bb72-9ac2-57d8-b8bd-97662f4b61ad"
      }
    ],
    "identifier": [
      {
        "system": "http://hl7.org/fhir/sid/us-npi",
        "value": "1053373951"
      },
      {
        "system": "http://hl7.org/fhir/sid/us-npi",
        "value": "1114235918"
      },
      {
        "system": "http://hl7.org/fhir/sid/us-npi",
        "value": "1881656247"
      },
      {
        "system": "http://hl7.org/fhir/sid/us-npi",
        "value": "1730484031"
      },
      {
        "system": "http://hl7.org/fhir/sid/us-npi",
        "value": "1750302923"
      },
      {
        "system": "http://hl7.org/fhir/sid/us-npi",
        "value": "1215999511"
      },
      {
        "system": "http://hl7.org/fhir/sid/us-npi",
        "value": "1962602300"
      },
      {
        "system": "http://hl7.org/fhir/sid/us-npi",
        "value": "1649232984"
      },
      {
        "system": "http://hl7.org/fhir/sid/us-npi",
        "value": "1124080320"
      }
    ],
    "address": [
      {
        "line": [
          "1686 Hwy 79 West"
        ],
        "city": "BUFFALO",
        "state": "TX",
        "postalCode": "75831-3490"
      },
      {
        "line": [
          "1602 Rock Prairie Ste 2400"
        ],
        "city": "COLLEGE STATION",
        "state": "TX",
        "postalCode": "77845-0001"
      },
      {
        "line": [
          "1002 W Brown St"
        ],
        "city": "HEARNE",
        "state": "TX",
        "postalCode": "77859-3063"
      },
      {
        "line": [
          "1602 Rock Prairie Ste 4880"
        ],
        "city": "COLLEGE STATION",
        "state": "TX",
        "postalCode": "77845-5992"
      },
      {
        "line": [
          "1721 Birmingham Drive"
        ],
        "city": "COLLEGE STATION",
        "state": "TX",
        "postalCode": "77845-4082"
      },
      {
        "line": [
          "1602 Rock Prairie Rd Ste 2000"
        ],
        "city": "COLLEGE STATION",
        "state": "TX",
        "postalCode": "77845-5988"
      },
      {
        "line": [
          "500 E Washington"
        ],
        "city": "NAVASOTA",
        "state": "TX",
        "postalCode": "77868-3001"
      },
      {
        "line": [
          "1602 Rock Prairie Ste 2600"
        ],
        "city": "COLLEGE STATION",
        "state": "TX",
        "postalCode": "77845-5990"
      },
      {
        "line": [
          "3201 University Dr. Ste 135"
        ],
        "city": "BRYAN",
        "state": "TX",
        "postalCode": "77802-3481"
      },
      {
        "line": [
          "600 N. Park"
        ],
        "city": "BRENHAM",
        "state": "TX",
        "postalCode": "77833-2610"
      },
      {
        "line": [
          "607 W Lassater"
        ],
        "city": "CENTERVILLE",
        "state": "TX",
        "postalCode": "75833-1959"
      }
    ],
    "extension": [
      {
        "url": "https://fhir.athena.io/StructureDefinition/ah-practice",
        "valueReference": {
          "reference": "Organization/a-1.Practice-1902"
        }
      },
      {
        "url": "https://fhir.athena.io/StructureDefinition/ah-brand",
        "valueReference": {
          "reference": "Organization/a-1902.Brand-5"
        }
      }
    ]
  },
  "fullUrl": "urn:uuid:657fd974-c503-5502-ba60-3949b37fde7a"
}