{
  "resource": {
    "resourceType": "Organization",
    "id": "295713c7-ba52-5f9e-bb27-e9f25dc1ef56",
    "name": "National Church Residences Medical Home",
    "endpoint": [
      {
        "reference": "Endpoint/27a4e967-47aa-5a9c-a572-b8297ee268a2"
      },
      {
        "reference": "Endpoint/7bcef751-a1fa-540a-a533-a0961d085ad8"
      }
    ],
    "identifier": [
      {
        "system": "http://hl7.org/fhir/sid/us-npi",
        "value": "1154692838"
      }
    ],
    "address": [
      {
        "line": [
          "3349 E. Livingston Ave."
        ],
        "city": "COLUMBUS",
        "state": "OH",
        "postalCode": "43227-1949"
      },
      {
        "line": [
          "807 Western Ave"
        ],
        "city": "Chillicothe",
        "state": "OH",
        "postalCode": "45601-2198"
      },
      {
        "line": [
          "1185 E. Broad Street"
        ],
        "city": "COLUMBUS",
        "state": "OH",
        "postalCode": "43205-1302"
      },
      {
        "line": [
          "2233 North Bank Drive"
        ],
        "city": "COLUMBUS",
        "state": "OH",
        "postalCode": "43220-5499"
      },
      {
        "line": [
          "3720 Sullivant Ave."
        ],
        "city": "COLUMBUS",
        "state": "OH",
        "postalCode": "43228-4301"
      },
      {
        "line": [
          "650 Van Buren Drive"
        ],
        "city": "COLUMBUS",
        "state": "OH",
        "postalCode": "43223-7501"
      },
      {
        "line": [
          "807 Western Ave"
        ],
        "city": "CHILLICOTHE",
        "state": "OH",
        "postalCode": "45601-2198"
      },
      {
        "line": [
          "807 Western Ave"
        ],
        "city": "CHILLICOTHE",
        "state": "OH",
        "postalCode": "45601-2132"
      },
      {
        "line": [
          "398 South Grant Street"
        ],
        "city": "COLUMBUS",
        "state": "OH",
        "postalCode": "43215-5549"
      },
      {
        "line": [
          "2233 North Bank Drive"
        ],
        "city": "COLUMBUS",
        "state": "OH",
        "postalCode": "43220-5423"
      },
      {
        "line": [
          "1280 Norton Ave"
        ],
        "city": "Columbus",
        "state": "OH",
        "postalCode": "43212-3125"
      },
      {
        "line": [
          "1700 E. Dublin Granville Road"
        ],
        "city": "Columbus",
        "state": "OH",
        "postalCode": "43229-3525"
      },
      {
        "line": [
          "4111 Southpoint Blvd"
        ],
        "city": "COLUMBUS",
        "state": "OH",
        "postalCode": "43207-4988"
      },
      {
        "line": [
          "807 Western Ave"
        ],
        "city": "Chillicothe",
        "state": "OH",
        "postalCode": "45601-2132"
      },
      {
        "line": [
          "621 East 5th Street"
        ],
        "city": "WAVERLY",
        "state": "OH",
        "postalCode": "45690-1505"
      },
      {
        "line": [
          "621 East 5th Street"
        ],
        "city": "Waverly",
        "state": "OH",
        "postalCode": "45690-1505"
      },
      {
        "line": [
          "2233 North Bank Drive"
        ],
        "city": "COLUMBUS",
        "state": "OH",
        "postalCode": "43220-5420"
      },
      {
        "line": [
          "5500 Millersfield Drive"
        ],
        "city": "COLUMBUS",
        "state": "OH",
        "postalCode": "43232-7758"
      },
      {
        "line": [
          "3341 E. Livingston Avenue"
        ],
        "city": "Columbus",
        "state": "OH",
        "postalCode": "43227-1949"
      },
      {
        "line": [
          "165 North Stygler Road"
        ],
        "city": "Columbus",
        "state": "OH",
        "postalCode": "43230-2488"
      },
      {
        "line": [
          "328 Buckingham Street"
        ],
        "city": "COLUMBUS",
        "state": "OH",
        "postalCode": "43215-2177"
      },
      {
        "line": [
          "300 Overstreet Way"
        ],
        "city": "Columbus",
        "state": "OH",
        "postalCode": "43228-4335"
      }
    ],
    "extension": [
      {
        "url": "https://fhir.athena.io/StructureDefinition/ah-practice",
        "valueReference": {
          "reference": "Organization/a-1.Practice-4416"
        }
      },
      {
        "url": "https://fhir.athena.io/StructureDefinition/ah-brand",
        "valueReference": {
          "reference": "Organization/a-4416.Brand-1"
        }
      }
    ]
  },
  "fullUrl": "urn:uuid:295713c7-ba52-5f9e-bb27-e9f25dc1ef56"
}