{
  "resource": {
    "resourceType": "Organization",
    "id": "5927b92d-841d-5e4d-943e-a82bf185b89a",
    "name": "Ascension Medical Group",
    "endpoint": [
      {
        "reference": "Endpoint/27a4e967-47aa-5a9c-a572-b8297ee268a2"
      },
      {
        "reference": "Endpoint/8a7d3814-a97c-5504-b9d5-2a29b4a7fd4b"
      }
    ],
    "identifier": [
      {
        "system": "http://hl7.org/fhir/sid/us-npi",
        "value": "1225709801"
      },
      {
        "system": "http://hl7.org/fhir/sid/us-npi",
        "value": "1962946459"
      },
      {
        "system": "http://hl7.org/fhir/sid/us-npi",
        "value": "1023770567"
      },
      {
        "system": "http://hl7.org/fhir/sid/us-npi",
        "value": "1356912646"
      },
      {
        "system": "http://hl7.org/fhir/sid/us-npi",
        "value": "1639740921"
      },
      {
        "system": "http://hl7.org/fhir/sid/us-npi",
        "value": "1144513375"
      },
      {
        "system": "http://hl7.org/fhir/sid/us-npi",
        "value": "1710708367"
      },
      {
        "system": "http://hl7.org/fhir/sid/us-npi",
        "value": "1164296000"
      },
      {
        "system": "http://hl7.org/fhir/sid/us-npi",
        "value": "1811881527"
      },
      {
        "system": "http://hl7.org/fhir/sid/us-npi",
        "value": "1689373458"
      },
      {
        "system": "http://hl7.org/fhir/sid/us-npi",
        "value": "1700650645"
      },
      {
        "system": "http://hl7.org/fhir/sid/us-npi",
        "value": "1720555170"
      },
      {
        "system": "http://hl7.org/fhir/sid/us-npi",
        "value": "1316685191"
      },
      {
        "system": "http://hl7.org/fhir/sid/us-npi",
        "value": "1194251439"
      },
      {
        "system": "http://hl7.org/fhir/sid/us-npi",
        "value": "1851036339"
      },
      {
        "system": "http://hl7.org/fhir/sid/us-npi",
        "value": "1033999370"
      },
      {
        "system": "http://hl7.org/fhir/sid/us-npi",
        "value": "1497426076"
      },
      {
        "system": "http://hl7.org/fhir/sid/us-npi",
        "value": "1558686436"
      },
      {
        "system": "http://hl7.org/fhir/sid/us-npi",
        "value": "1518638196"
      },
      {
        "system": "http://hl7.org/fhir/sid/us-npi",
        "value": "1003180548"
      },
      {
        "system": "http://hl7.org/fhir/sid/us-npi",
        "value": "1225301740"
      },
      {
        "system": "http://hl7.org/fhir/sid/us-npi",
        "value": "1659033108"
      },
      {
        "system": "http://hl7.org/fhir/sid/us-npi",
        "value": "1871866384"
      },
      {
        "system": "http://hl7.org/fhir/sid/us-npi",
        "value": "1902349483"
      },
      {
        "system": "http://hl7.org/fhir/sid/us-npi",
        "value": "1144968926"
      },
      {
        "system": "http://hl7.org/fhir/sid/us-npi",
        "value": "1376816975"
      },
      {
        "system": "http://hl7.org/fhir/sid/us-npi",
        "value": "1578234050"
      },
      {
        "system": "http://hl7.org/fhir/sid/us-npi",
        "value": "1518731454"
      },
      {
        "system": "http://hl7.org/fhir/sid/us-npi",
        "value": "1164852539"
      },
      {
        "system": "http://hl7.org/fhir/sid/us-npi",
        "value": "1568799740"
      },
      {
        "system": "http://hl7.org/fhir/sid/us-npi",
        "value": "1962169441"
      }
    ],
    "address": [
      {
        "line": [
          "10330 N. Meridian St., Suite 201"
        ],
        "city": "CARMEL",
        "state": "IN",
        "postalCode": "46290-1024"
      },
      {
        "line": [
          "1001 BROAD RIPPLE AVE"
        ],
        "city": "INDIANAPOLIS",
        "state": "IN",
        "postalCode": "46220-2093"
      },
      {
        "line": [
          "2354 WEST BOULEVARD"
        ],
        "city": "KOKOMO",
        "state": "IN",
        "postalCode": "46902-6069"
      },
      {
        "line": [
          "13421 OLD MERIDIAN ST"
        ],
        "city": "CARMEL",
        "state": "IN",
        "postalCode": "46032-1427"
      },
      {
        "line": [
          "9355 Warrick Trail"
        ],
        "city": "NEWBURGH",
        "state": "IN",
        "postalCode": "47630-0015"
      },
      {
        "line": [
          "1300 S JACKSON ST"
        ],
        "city": "FRANKFORT",
        "state": "IN",
        "postalCode": "46041-3313"
      },
      {
        "line": [
          "8220 NAAB ROAD"
        ],
        "city": "INDIANAPOLIS",
        "state": "IN",
        "postalCode": "46260-5926"
      },
      {
        "line": [
          "395 Westfield Rd"
        ],
        "city": "NOBLESVILLE",
        "state": "IN",
        "postalCode": "46060-1425"
      },
      {
        "line": [
          "250 W 96TH STREET, STE 520"
        ],
        "city": "INDIANAPOLIS",
        "state": "IN",
        "postalCode": "46260-1316"
      },
      {
        "line": [
          "2415 Mitchell Rd Ste C"
        ],
        "city": "Bedford",
        "state": "IN",
        "postalCode": "47421-4731"
      },
      {
        "line": [
          "309 Medic Drive"
        ],
        "city": "GREENCASTLE",
        "state": "IN",
        "postalCode": "46135-2296"
      },
      {
        "line": [
          "12999 N Pennsylvania St"
        ],
        "city": "CARMEL",
        "state": "IN",
        "postalCode": "46032-5477"
      },
      {
        "line": [
          "2759 SR 37"
        ],
        "city": "Mitchell",
        "state": "IN",
        "postalCode": "47446-6016"
      },
      {
        "line": [
          "395 Westfieldd Rd"
        ],
        "city": "NOBLESVILLE",
        "state": "IN",
        "postalCode": "46060-1425"
      },
      {
        "line": [
          "250 W. 96th Street, Suite 520"
        ],
        "city": "INDIANAPOLIS",
        "state": "IN",
        "postalCode": "46260-1316"
      },
      {
        "line": [
          "473 E Greenville Ave"
        ],
        "city": "WINCHESTER",
        "state": "IN",
        "postalCode": "47394-9436"
      },
      {
        "line": [
          "106 WEST 7TH ST"
        ],
        "city": "CLAY CITY",
        "state": "IN",
        "postalCode": "47841-1250"
      },
      {
        "line": [
          "705 N MERIDIAN"
        ],
        "city": "GREENTOWN",
        "state": "IN",
        "postalCode": "46936-1045"
      },
      {
        "line": [
          "1214 E NATIONAL AVE",
          "STE 90A"
        ],
        "city": "BRAZIL",
        "state": "IN",
        "postalCode": "47834-2700"
      },
      {
        "line": [
          "8333 Naab Rd, Ste200"
        ],
        "city": "INDIANAPOLIS",
        "state": "IN",
        "postalCode": "46260-1973"
      },
      {
        "line": [
          "12999 N PENNSYLVANIA ST"
        ],
        "city": "CARMEL",
        "state": "IN",
        "postalCode": "46032-5477"
      },
      {
        "line": [
          "10330 N Meridian Street"
        ],
        "city": "Carmel",
        "state": "IN",
        "postalCode": "46290-1024"
      },
      {
        "line": [
          "2485 E Wabash St"
        ],
        "city": "FRANKFORT",
        "state": "IN",
        "postalCode": "46041-9400"
      },
      {
        "line": [
          "1400 Professional Blvd., Suite 210"
        ],
        "city": "EVANSVILLE",
        "state": "IN",
        "postalCode": "47714-8004"
      }
    ],
    "extension": [
      {
        "url": "https://fhir.athena.io/StructureDefinition/ah-practice",
        "valueReference": {
          "reference": "Organization/a-1.Practice-7598"
        }
      },
      {
        "url": "https://fhir.athena.io/StructureDefinition/ah-brand",
        "valueReference": {
          "reference": "Organization/a-7598.Brand-1"
        }
      }
    ]
  },
  "fullUrl": "urn:uuid:5927b92d-841d-5e4d-943e-a82bf185b89a"
}