{
  "resource": {
    "resourceType": "Organization",
    "id": "f46fbc6e-6cd6-5416-8174-33f9eed662d5",
    "name": "AllyMed",
    "endpoint": [
      {
        "reference": "Endpoint/27a4e967-47aa-5a9c-a572-b8297ee268a2"
      },
      {
        "reference": "Endpoint/c6ca6a4e-ce44-54f4-ab7b-1b3288944ab9"
      }
    ],
    "identifier": [
      {
        "system": "http://hl7.org/fhir/sid/us-npi",
        "value": "1306280177"
      }
    ],
    "address": [
      {
        "line": [
          "1216 North RaceStreet"
        ],
        "city": "GLASGOW",
        "state": "KY",
        "postalCode": "42141-3462"
      },
      {
        "line": [
          "911 S Bypass Rd"
        ],
        "city": "PIKEVILLE",
        "state": "KY",
        "postalCode": "41501-1689"
      },
      {
        "line": [
          "911 S. Bypass Road",
          "Building A"
        ],
        "city": "PIKEVILLE",
        "state": "KY",
        "postalCode": "41501-1689"
      },
      {
        "line": [
          "4305 NEW SHEPHERDSVILLE RD"
        ],
        "city": "BARDSTOWN",
        "state": "KY",
        "postalCode": "40004-9019"
      },
      {
        "line": [
          "1112 S Main St"
        ],
        "city": "FRANKLIN",
        "state": "KY",
        "postalCode": "42134-2322"
      },
      {
        "line": [
          "1373 E STATE ROAD 62",
          "STE 1B"
        ],
        "city": "MADISON",
        "state": "IN",
        "postalCode": "47250-7328"
      },
      {
        "line": [
          "1107 CROWN POINTE DR",
          "Ste 107"
        ],
        "city": "ELIZABETHTOWN",
        "state": "KY",
        "postalCode": "42701-7123"
      },
      {
        "line": [
          "1107 Crown Pointe Dr",
          "Ste 107"
        ],
        "city": "ELIZABETHTOWN",
        "state": "KY",
        "postalCode": "42701-7280"
      },
      {
        "line": [
          "1305 N Elm St"
        ],
        "city": "HENDERSON",
        "state": "KY",
        "postalCode": "42420-2783"
      },
      {
        "line": [
          "100 London Mountain View Drive"
        ],
        "city": "LONDON",
        "state": "KY",
        "postalCode": "40741-6668"
      },
      {
        "line": [
          "805 MONTAGUE AVE",
          "STE A"
        ],
        "city": "GREENWOOD",
        "state": "SC",
        "postalCode": "29649-1464"
      },
      {
        "line": [
          "101 Prosperous Pl",
          "Ste 300"
        ],
        "city": "LEXINGTON",
        "state": "KY",
        "postalCode": "40509-1836"
      },
      {
        "line": [
          "120 Executive Park"
        ],
        "city": "LOUISVILLE",
        "state": "KY",
        "postalCode": "40207-4201"
      },
      {
        "line": [
          "2031 JEFFERSONVILLE COMMONS DR"
        ],
        "city": "JEFFERSONVILLE",
        "state": "IN",
        "postalCode": "47130-8996"
      },
      {
        "line": [
          "320 Thomas More Pkwy",
          "Ste 202"
        ],
        "city": "FT MITCHELL",
        "state": "KY",
        "postalCode": "41017-3456"
      },
      {
        "line": [
          "935 Chambers Boulevard"
        ],
        "city": "BARDSTOWN",
        "state": "KY",
        "postalCode": "40004-2575"
      },
      {
        "line": [
          "250 PARK ST"
        ],
        "city": "BOWLING GREEN",
        "state": "KY",
        "postalCode": "42101-1760"
      },
      {
        "line": [
          "972 EMERSON PKWY",
          "STE A1"
        ],
        "city": "GREENWOOD",
        "state": "IN",
        "postalCode": "46143-6201"
      },
      {
        "line": [
          "210 BEATTY DR"
        ],
        "city": "BELMONT",
        "state": "NC",
        "postalCode": "28012-2716"
      },
      {
        "line": [
          "700 Kimber Lane"
        ],
        "city": "EVANSVILLE",
        "state": "IN",
        "postalCode": "47715-2803"
      },
      {
        "line": [
          "120 Executive Park"
        ],
        "city": "LOUISVILLE",
        "state": "KY",
        "postalCode": "40207-4202"
      },
      {
        "line": [
          "99 Wellpark Lane Ste 4"
        ],
        "city": "CAMPBELLSVILLE",
        "state": "KY",
        "postalCode": "42718-4919"
      },
      {
        "line": [
          "2609 New Hartford Rd",
          "Ste 3"
        ],
        "city": "OWENSBORO",
        "state": "KY",
        "postalCode": "42303-1316"
      },
      {
        "line": [
          "1000 Breckenridge St",
          "Ste 1001"
        ],
        "city": "OWENSBORO",
        "state": "KY",
        "postalCode": "42303-0839"
      },
      {
        "line": [
          "267 STONECROSSING DR"
        ],
        "city": "CLARKSVILLE",
        "state": "TN",
        "postalCode": "37042-8404"
      },
      {
        "line": [
          "2200 E. Parrish Ave",
          "Bldg A"
        ],
        "city": "OWENSBORO",
        "state": "KY",
        "postalCode": "42303-1453"
      },
      {
        "line": [
          "4420 DIXIE HWY STE 107"
        ],
        "city": "LOUISVILLE",
        "state": "KY",
        "postalCode": "40216-2986"
      },
      {
        "line": [
          "4200 Technology Avenue"
        ],
        "city": "NEW ALBANY",
        "state": "IN",
        "postalCode": "47150-0001"
      },
      {
        "line": [
          "1700 Old Lebanon Rd"
        ],
        "city": "CAMPBELLSVILLE",
        "state": "KY",
        "postalCode": "42718-9615"
      },
      {
        "line": [
          "10388 Warrick Wellness Trail"
        ],
        "city": "NEWBURGH",
        "state": "IN",
        "postalCode": "47630-9998"
      },
      {
        "line": [
          "400 EXECUTIVE PARK"
        ],
        "city": "LOUISVILLE",
        "state": "KY",
        "postalCode": "40207-4204"
      },
      {
        "line": [
          "255 Church St Ste 101"
        ],
        "city": "PIKEVILLE",
        "state": "KY",
        "postalCode": "41501-3476"
      },
      {
        "line": [
          "4115 MANNHEIM RD"
        ],
        "city": "JASPER",
        "state": "IN",
        "postalCode": "47546-2964"
      },
      {
        "line": [
          "225 EXECUTIVE PARK"
        ],
        "city": "LOUISVILLE",
        "state": "KY",
        "postalCode": "40207-4202"
      },
      {
        "line": [
          "73 Kingswood Drive"
        ],
        "city": "CAMPBELLSVILLE",
        "state": "KY",
        "postalCode": "42718-9615"
      },
      {
        "line": [
          "2201 Green Valley Road"
        ],
        "city": "NEW ALBANY",
        "state": "IN",
        "postalCode": "47150-4647"
      },
      {
        "line": [
          "952 DOLLY PARTON PKWY"
        ],
        "city": "SEVIERVILLE",
        "state": "TN",
        "postalCode": "37862-3707"
      },
      {
        "line": [
          "520 RIVERGATE PKWY STE 202"
        ],
        "city": "GOODLETTSVILLE",
        "state": "TN",
        "postalCode": "37072-2030"
      },
      {
        "line": [
          "214 INNOVATION DR"
        ],
        "city": "GREENVILLE",
        "state": "SC",
        "postalCode": "29607-5254"
      },
      {
        "line": [
          "127 BEN CASEY DR STE 103"
        ],
        "city": "FORT MILL",
        "state": "SC",
        "postalCode": "29708-6600"
      },
      {
        "line": [
          "252 WHITTINGTON PKWY"
        ],
        "city": "LOUISVILLE",
        "state": "KY",
        "postalCode": "40222-4904"
      },
      {
        "line": [
          "165 Natchez Trace Ave"
        ],
        "city": "BOWLING GREEN",
        "state": "KY",
        "postalCode": "42103-7947"
      },
      {
        "line": [
          "1001 St Joseph Lane"
        ],
        "city": "LONDON",
        "state": "KY",
        "postalCode": "40741-8345"
      },
      {
        "line": [
          "1418 College Drive"
        ],
        "city": "MOUNT CARMEL",
        "state": "IL",
        "postalCode": "62863-2638"
      },
      {
        "line": [
          "6016 E COLUMBIA ST"
        ],
        "city": "EVANSVILLE",
        "state": "IN",
        "postalCode": "47715-9128"
      },
      {
        "line": [
          "484 GOLDEN AUTUMN WAY"
        ],
        "city": "BOWLING GREEN",
        "state": "KY",
        "postalCode": "42103-6914"
      },
      {
        "line": [
          "600 W 13TH ST",
          "STE 200"
        ],
        "city": "JASPER",
        "state": "IN",
        "postalCode": "47546-1881"
      },
      {
        "line": [
          "3602 Northgate Ct",
          "Ste 39"
        ],
        "city": "NEW ALBANY",
        "state": "IN",
        "postalCode": "47150-6417"
      }
    ],
    "extension": [
      {
        "url": "https://fhir.athena.io/StructureDefinition/ah-practice",
        "valueReference": {
          "reference": "Organization/a-1.Practice-16521"
        }
      },
      {
        "url": "https://fhir.athena.io/StructureDefinition/ah-brand",
        "valueReference": {
          "reference": "Organization/a-16521.Brand-1"
        }
      }
    ]
  },
  "fullUrl": "urn:uuid:f46fbc6e-6cd6-5416-8174-33f9eed662d5"
}