{
  "resource": {
    "resourceType": "Organization",
    "id": "027222bb-2600-5c82-b2ae-d7ad8ead5eed",
    "name": "ALABAMA PODIATRY - ALABASTER",
    "endpoint": [
      {
        "reference": "Endpoint/27a4e967-47aa-5a9c-a572-b8297ee268a2"
      },
      {
        "reference": "Endpoint/2b1e344c-6300-5868-8458-9fe0b83ec8ac"
      }
    ],
    "identifier": [
      {
        "system": "http://hl7.org/fhir/sid/us-npi",
        "value": "1538686498"
      }
    ],
    "address": [
      {
        "line": [
          "503 Spivey Lane"
        ],
        "city": "LONDON",
        "state": "KY",
        "postalCode": "40741-2641"
      },
      {
        "line": [
          "125 Memorial Drive"
        ],
        "city": "FRANKLIN",
        "state": "KY",
        "postalCode": "42134-2752"
      },
      {
        "line": [
          "49 Medical Loop"
        ],
        "city": "WHITLEY CITY",
        "state": "KY",
        "postalCode": "42653-9999"
      },
      {
        "line": [
          "1100 BROOKHAVEN RD"
        ],
        "city": "FRANKLIN",
        "state": "KY",
        "postalCode": "42134-2746"
      },
      {
        "line": [
          "1007 Cumberland Falls Hwy"
        ],
        "city": "CORBIN",
        "state": "KY",
        "postalCode": "40701-2714"
      },
      {
        "line": [
          "305 Langdon St."
        ],
        "city": "SOMERSET",
        "state": "KY",
        "postalCode": "42503-2750"
      },
      {
        "line": [
          "1 Trillium Way"
        ],
        "city": "CORBIN",
        "state": "KY",
        "postalCode": "40701-8426"
      },
      {
        "line": [
          "140 Newcombe Avenue"
        ],
        "city": "MOUNT VERNON",
        "state": "KY",
        "postalCode": "40456-2725"
      },
      {
        "line": [
          "49 Gregory Street"
        ],
        "city": "MONTICELLO",
        "state": "KY",
        "postalCode": "42633-2407"
      },
      {
        "line": [
          "153 Dowell Road"
        ],
        "city": "RUSSELL SPRINGS",
        "state": "KY",
        "postalCode": "42642-6106"
      },
      {
        "line": [
          "801 Eastern Bypass"
        ],
        "city": "RICHMOND",
        "state": "KY",
        "postalCode": "40475-2751"
      },
      {
        "line": [
          "145 NEWCOMB AVE"
        ],
        "city": "MOUNT VERNON",
        "state": "KY",
        "postalCode": "40456-2728"
      },
      {
        "line": [
          "301 Langdon St."
        ],
        "city": "SOMERSET",
        "state": "KY",
        "postalCode": "42503-2750"
      },
      {
        "line": [
          "1008 Argyll Woods"
        ],
        "city": "DANVILLE",
        "state": "KY",
        "postalCode": "40422-2715"
      },
      {
        "line": [
          "2868 S. US Hwy 127"
        ],
        "city": "RUSSELL SPRINGS",
        "state": "KY",
        "postalCode": "42642-4020"
      },
      {
        "line": [
          "275 KY-770"
        ],
        "city": "CORBIN",
        "state": "KY",
        "postalCode": "40701-4732"
      },
      {
        "line": [
          "1375 Perryville Road"
        ],
        "city": "DANVILLE",
        "state": "KY",
        "postalCode": "40422-1444"
      },
      {
        "line": [
          "180 Mercury Blvd"
        ],
        "city": "SOMERSET",
        "state": "KY",
        "postalCode": "42503-9645"
      },
      {
        "line": [
          "145 Tower Circle"
        ],
        "city": "SOMERSET",
        "state": "KY",
        "postalCode": "42503-3488"
      },
      {
        "line": [
          "479 Whirlaway Drive",
          "Suite A"
        ],
        "city": "DANVILLE",
        "state": "KY",
        "postalCode": "40422-9036"
      },
      {
        "line": [
          "145 Newcombe Avenue"
        ],
        "city": "MOUNT VERNON",
        "state": "KY",
        "postalCode": "40456-2728"
      },
      {
        "line": [
          "555 Bourne Ave"
        ],
        "city": "SOMERSET",
        "state": "KY",
        "postalCode": "42501-3506"
      },
      {
        "line": [
          "1025 Robert L. Telford Drive"
        ],
        "city": "RICHMOND",
        "state": "KY",
        "postalCode": "40475-1199"
      },
      {
        "line": [
          "115 Tradepark Drive",
          "Suite A"
        ],
        "city": "SOMERSET",
        "state": "KY",
        "postalCode": "42503-3428"
      },
      {
        "line": [
          "317 W Main Street"
        ],
        "city": "BRODHEAD",
        "state": "KY",
        "postalCode": "40409-9999"
      },
      {
        "line": [
          "225 Norfleet Drive"
        ],
        "city": "SOMERSET",
        "state": "KY",
        "postalCode": "42501-1992"
      },
      {
        "line": [
          "65 GLENNDALE RD"
        ],
        "city": "MANCHESTER",
        "state": "KY",
        "postalCode": "40962-6135"
      },
      {
        "line": [
          "532 Cady Drive"
        ],
        "city": "RICHMOND",
        "state": "KY",
        "postalCode": "40475-7629"
      },
      {
        "line": [
          "466 Burnley Road"
        ],
        "city": "SCOTTSVILLE",
        "state": "KY",
        "postalCode": "42164-6355"
      },
      {
        "line": [
          "200 Norfleet Drive"
        ],
        "city": "SOMERSET",
        "state": "KY",
        "postalCode": "42501-1952"
      },
      {
        "line": [
          "200 MERIDIAN WAY"
        ],
        "city": "RICHMOND",
        "state": "KY",
        "postalCode": "40475-3331"
      },
      {
        "line": [
          "202 N. Main Street"
        ],
        "city": "SOMERSET",
        "state": "KY",
        "postalCode": "42501-1405"
      },
      {
        "line": [
          "210 MARIE LANGDON DR"
        ],
        "city": "MANCHESTER",
        "state": "KY",
        "postalCode": "40962-6388"
      },
      {
        "line": [
          "1850 WESTEN ST"
        ],
        "city": "BOWLING GREEN",
        "state": "KY",
        "postalCode": "42104-4152"
      },
      {
        "line": [
          "65 GLENNDALE RD",
          "STE 1"
        ],
        "city": "MANCHESTER",
        "state": "KY",
        "postalCode": "40962-6135"
      },
      {
        "line": [
          "20 Oakhill Road"
        ],
        "city": "SOMERSET",
        "state": "KY",
        "postalCode": "42503-4110"
      },
      {
        "line": [
          "115 North Keeneland Drive"
        ],
        "city": "RICHMOND",
        "state": "KY",
        "postalCode": "40475-8687"
      },
      {
        "line": [
          "400 S. Main Street"
        ],
        "city": "LONDON",
        "state": "KY",
        "postalCode": "40741-1999"
      },
      {
        "line": [
          "117 TRADEPARK DR STE B"
        ],
        "city": "SOMERSET",
        "state": "KY",
        "postalCode": "42503-3428"
      },
      {
        "line": [
          "300 Stocker Drive"
        ],
        "city": "RICHMOND",
        "state": "KY",
        "postalCode": "40475-4304"
      },
      {
        "line": [
          "106 Gover Street"
        ],
        "city": "SOMERSET",
        "state": "KY",
        "postalCode": "42501-3332"
      },
      {
        "line": [
          "765 Old Waynesburg Road"
        ],
        "city": "WAYNESBURG",
        "state": "KY",
        "postalCode": "40489-8885"
      },
      {
        "line": [
          "235 South Richardson Drive"
        ],
        "city": "SOMERSET",
        "state": "KY",
        "postalCode": "42501-2086"
      },
      {
        "line": [
          "1901 KY-90"
        ],
        "city": "MONTICELLO",
        "state": "KY",
        "postalCode": "42633-1105"
      }
    ],
    "extension": [
      {
        "url": "https://fhir.athena.io/StructureDefinition/ah-practice",
        "valueReference": {
          "reference": "Organization/a-1.Practice-4399"
        }
      },
      {
        "url": "https://fhir.athena.io/StructureDefinition/ah-brand",
        "valueReference": {
          "reference": "Organization/a-4399.Brand-21"
        }
      }
    ]
  },
  "fullUrl": "urn:uuid:027222bb-2600-5c82-b2ae-d7ad8ead5eed"
}