{
  "resource": {
    "resourceType": "Organization",
    "id": "d6b218ed-02bf-559b-bf5c-97884b3dfe28",
    "name": "Midi Health PC",
    "endpoint": [
      {
        "reference": "Endpoint/27a4e967-47aa-5a9c-a572-b8297ee268a2"
      },
      {
        "reference": "Endpoint/2c46998c-51b5-5e61-8671-8e4366f2ca8a"
      }
    ],
    "identifier": [
      {
        "system": "http://hl7.org/fhir/sid/us-npi",
        "value": "1972266732"
      },
      {
        "system": "http://hl7.org/fhir/sid/us-npi",
        "value": "1215653480"
      }
    ],
    "address": [
      {
        "line": [
          "3010 SANTA FE CT FL 1"
        ],
        "city": "MISSOULA",
        "state": "MT",
        "postalCode": "59808-1730"
      },
      {
        "line": [
          "1000 N WEST ST STE 1200"
        ],
        "city": "WILMINGTON",
        "state": "DE",
        "postalCode": "19801-1058"
      },
      {
        "line": [
          "6975 S UNION PARK CTR STE 600"
        ],
        "city": "MIDVALE",
        "state": "UT",
        "postalCode": "84047-4187"
      },
      {
        "line": [
          "429 4TH AVE FL 7"
        ],
        "city": "PITTSBURGH",
        "state": "PA",
        "postalCode": "15219-1500"
      },
      {
        "line": [
          "1 LAWSON LN STE 200D"
        ],
        "city": "BURLINGTON",
        "state": "VT",
        "postalCode": "05401-8445"
      },
      {
        "line": [
          "201 N ILLINOIS ST FL 16",
          "SOUTH TOWER"
        ],
        "city": "INDIANAPOLIS",
        "state": "IN",
        "postalCode": "46204-1904"
      },
      {
        "line": [
          "111 N ORANGE AVE STE 800"
        ],
        "city": "ORLANDO",
        "state": "FL",
        "postalCode": "32801-2381"
      },
      {
        "line": [
          "260 PEACHTREE ST NW"
        ],
        "city": "ATLANTA",
        "state": "GA",
        "postalCode": "30303-1202"
      },
      {
        "line": [
          "1433 N WATER ST STE 400"
        ],
        "city": "MILWAUKEE",
        "state": "WI",
        "postalCode": "53202-2603"
      },
      {
        "line": [
          "1531 32ND AVE S STE 102"
        ],
        "city": "FARGO",
        "state": "ND",
        "postalCode": "58103-5910"
      },
      {
        "line": [
          "111 W JACKSON BLVD STE 1700"
        ],
        "city": "CHICAGO",
        "state": "IL",
        "postalCode": "60604-3597"
      },
      {
        "line": [
          "100 SUN AVE NE STE 650"
        ],
        "city": "ALBUQUERQUE",
        "state": "NM",
        "postalCode": "87109-4670"
      },
      {
        "line": [
          "5600 N MAY AVE STE 310"
        ],
        "city": "OKLAHOMA CITY",
        "state": "OK",
        "postalCode": "73112-3973"
      },
      {
        "line": [
          "10 DORRANCE ST STE 700"
        ],
        "city": "PROVIDENCE",
        "state": "RI",
        "postalCode": "02903-2018"
      },
      {
        "line": [
          "1050 SW 6TH AVE STE 1100"
        ],
        "city": "PORTLAND",
        "state": "OR",
        "postalCode": "97204-1153"
      },
      {
        "line": [
          "301 N MAIN ST STE 2200"
        ],
        "city": "BATON ROUGE",
        "state": "LA",
        "postalCode": "70825-0014"
      },
      {
        "line": [
          "700 MAINE AVE STE 3"
        ],
        "city": "BANGOR",
        "state": "ME",
        "postalCode": "04401-3021"
      },
      {
        "line": [
          "1101 WILSON BLVD FL 6"
        ],
        "city": "ARLINGTON",
        "state": "VA",
        "postalCode": "22209-2281"
      },
      {
        "line": [
          "14355 MIRANDA WAY"
        ],
        "city": "LOS ALTOS Hills",
        "state": "CA",
        "postalCode": "94022-2032"
      },
      {
        "line": [
          "421 FAYETTEVILLE ST STE 1100"
        ],
        "city": "RALEIGH",
        "state": "NC",
        "postalCode": "27601-1792"
      },
      {
        "line": [
          "325 N SAINT PAUL ST STE 3100"
        ],
        "city": "DALLAS",
        "state": "TX",
        "postalCode": "75201-3923"
      },
      {
        "line": [
          "601 PENNSYLVANIA AVE NW STE 900"
        ],
        "city": "WASHINGTON",
        "state": "DC",
        "postalCode": "20004-3647"
      },
      {
        "line": [
          "4000 S FABER PLACE DR STE 300"
        ],
        "city": "CHARLESTON",
        "state": "SC",
        "postalCode": "29405-8585"
      },
      {
        "line": [
          "1 GATEWAY CTR STE 2600"
        ],
        "city": "NEWARK",
        "state": "NJ",
        "postalCode": "07102-5323"
      },
      {
        "line": [
          "699 WALNUT ST FL 4"
        ],
        "city": "DES MOINES",
        "state": "IA",
        "postalCode": "50309-3949"
      },
      {
        "line": [
          "20 S 3RD ST STE 210"
        ],
        "city": "COLUMBUS",
        "state": "OH",
        "postalCode": "43215-4206"
      },
      {
        "line": [
          "312 S 4TH ST STE 700"
        ],
        "city": "LOUISVILLE",
        "state": "KY",
        "postalCode": "40202-3002"
      },
      {
        "line": [
          "14355 MIRANDA WAY"
        ],
        "city": "LOS ALTOS",
        "state": "CA",
        "postalCode": "94022-2032"
      },
      {
        "line": [
          "999 18TH ST STE 3000"
        ],
        "city": "DENVER",
        "state": "CO",
        "postalCode": "80202-2449"
      },
      {
        "line": [
          "101 S REID ST STE 307"
        ],
        "city": "SIOUX FALLS",
        "state": "SD",
        "postalCode": "57103-7030"
      },
      {
        "line": [
          "232 CAPITOL ST STE 18"
        ],
        "city": "CHARLESTON",
        "state": "WV",
        "postalCode": "25301-2206"
      },
      {
        "line": [
          "450 ALASKAN WAY S STE 200",
          "#9452"
        ],
        "city": "SEATTLE",
        "state": "WA",
        "postalCode": "98104-2783"
      },
      {
        "line": [
          "950 BANNOCK ST STE 1100"
        ],
        "city": "BOISE",
        "state": "ID",
        "postalCode": "83702-6140"
      },
      {
        "line": [
          "100 PEARL ST",
          "FL 14"
        ],
        "city": "HARTFORD",
        "state": "CT",
        "postalCode": "06103-4506"
      },
      {
        "line": [
          "721 DEPOT DR"
        ],
        "city": "ANCHORAGE",
        "state": "AK",
        "postalCode": "99501-1615"
      },
      {
        "line": [
          "20 FOUNDRY ST FL 2"
        ],
        "city": "CONCORD",
        "state": "NH",
        "postalCode": "03301-5419"
      },
      {
        "line": [
          "1299 FARNAM ST STE 300"
        ],
        "city": "OMAHA",
        "state": "NE",
        "postalCode": "68102-1837"
      },
      {
        "line": [
          "10440 LITTLE PATUXENT PKWY STE 300"
        ],
        "city": "COLUMBIA",
        "state": "MD",
        "postalCode": "21044-3648"
      },
      {
        "line": [
          "3636 S GEYER RD STE 100"
        ],
        "city": "SAINT LOUIS",
        "state": "MO",
        "postalCode": "63127-1237"
      },
      {
        "line": [
          "400 RENAISSANCE CTR STE 2600",
          "PBM 2027"
        ],
        "city": "DETROIT",
        "state": "MI",
        "postalCode": "48243-1599"
      },
      {
        "line": [
          "222 2ND AVE S FL 17"
        ],
        "city": "NASHVILLE",
        "state": "TN",
        "postalCode": "37201-2366"
      },
      {
        "line": [
          "1603 CAPITOL AVE STE 413"
        ],
        "city": "CHEYENNE",
        "state": "WY",
        "postalCode": "82001-4569"
      },
      {
        "line": [
          "317 E CAPITOL ST STE 200"
        ],
        "city": "JACKSON",
        "state": "MS",
        "postalCode": "39201-3405"
      },
      {
        "line": [
          "100 CAMBRIDGE ST FL 14"
        ],
        "city": "BOSTON",
        "state": "MA",
        "postalCode": "02114-2509"
      },
      {
        "line": [
          "400 W CAPITOL AVE STE 1700"
        ],
        "city": "LITTLE ROCK",
        "state": "AR",
        "postalCode": "72201-3438"
      },
      {
        "line": [
          "121 WASHINGTON AVE N FL 2"
        ],
        "city": "MINNEAPOLIS",
        "state": "MN",
        "postalCode": "55401-2503"
      },
      {
        "line": [
          "400 S 4TH ST STE 500"
        ],
        "city": "LAS VEGAS",
        "state": "NV",
        "postalCode": "89101-6207"
      },
      {
        "line": [
          "2010 PATTON CHAPEL RD STE 103",
          "STE 103"
        ],
        "city": "BIRMINGHAM",
        "state": "AL",
        "postalCode": "35216-5783"
      },
      {
        "line": [
          "801 E DOUGLAS AVE FL 2"
        ],
        "city": "WICHITA",
        "state": "KS",
        "postalCode": "67202-3548"
      },
      {
        "line": [
          "500 ALA MOANA BLVD STE 7400"
        ],
        "city": "HONOLULU",
        "state": "HI",
        "postalCode": "96813-4902"
      }
    ],
    "extension": [
      {
        "url": "https://fhir.athena.io/StructureDefinition/ah-practice",
        "valueReference": {
          "reference": "Organization/a-1.Practice-27069"
        }
      },
      {
        "url": "https://fhir.athena.io/StructureDefinition/ah-brand",
        "valueReference": {
          "reference": "Organization/a-27069.Brand-1"
        }
      }
    ]
  },
  "fullUrl": "urn:uuid:d6b218ed-02bf-559b-bf5c-97884b3dfe28"
}