{
  "resource": {
    "resourceType": "Organization",
    "id": "9c47c7f1-5c64-544b-bce3-b1772161a0b7",
    "name": "BHMC Jamaica Hospital OP",
    "endpoint": [
      {
        "reference": "Endpoint/27a4e967-47aa-5a9c-a572-b8297ee268a2"
      },
      {
        "reference": "Endpoint/71a7f998-9001-5060-b045-e14a748a5562"
      }
    ],
    "identifier": [
      {
        "system": "http://hl7.org/fhir/sid/us-npi",
        "value": "1720028772"
      },
      {
        "system": "http://hl7.org/fhir/sid/us-npi",
        "value": "1457643991"
      },
      {
        "system": "http://hl7.org/fhir/sid/us-npi",
        "value": "1487958559"
      },
      {
        "system": "http://hl7.org/fhir/sid/us-npi",
        "value": "1104112838"
      },
      {
        "system": "http://hl7.org/fhir/sid/us-npi",
        "value": "1770844797"
      },
      {
        "system": "http://hl7.org/fhir/sid/us-npi",
        "value": "1457643785"
      },
      {
        "system": "http://hl7.org/fhir/sid/us-npi",
        "value": "1407842255"
      }
    ],
    "address": [
      {
        "line": [
          "1555 Rockaway Pkwy"
        ],
        "city": "Brooklyn",
        "state": "NY",
        "postalCode": "11236-4001"
      },
      {
        "line": [
          "1545 Atlantic Avenue"
        ],
        "city": "BROOKLYN",
        "state": "NY",
        "postalCode": "11213-1122"
      },
      {
        "line": [
          "880 Bergen Street"
        ],
        "city": "BROOKLYN",
        "state": "NY",
        "postalCode": "11238-3301"
      },
      {
        "line": [
          "1423 Bedford Avenue"
        ],
        "city": "BROOKLYN",
        "state": "NY",
        "postalCode": "11216-3840"
      },
      {
        "line": [
          "903 E 85TH ST"
        ],
        "city": "BROOKLYN",
        "state": "NY",
        "postalCode": "11236-3874"
      },
      {
        "line": [
          "One Brookdale Plaza"
        ],
        "city": "BROOKLYN",
        "state": "NY",
        "postalCode": "11212-3139"
      },
      {
        "line": [
          "5202 Avenue N"
        ],
        "city": "BROOKLYN",
        "state": "NY",
        "postalCode": "11234-3942"
      },
      {
        "line": [
          "1545 Atlantic Avenue, Ste S301"
        ],
        "city": "BROOKLYN",
        "state": "NY",
        "postalCode": "11213-1122"
      },
      {
        "line": [
          "585 Schenectady Avenue"
        ],
        "city": "BROOKLYN",
        "state": "NY",
        "postalCode": "11203-1822"
      },
      {
        "line": [
          "101 PENNSYLVANIA AVE",
          "7th floor"
        ],
        "city": "BROOKLYN",
        "state": "NY",
        "postalCode": "11207-2428"
      },
      {
        "line": [
          "111-02 Farmers Blvd"
        ],
        "city": "SAINT ALBANS",
        "state": "NY",
        "postalCode": "11412-2358"
      },
      {
        "line": [
          "1381 Linden Blvd",
          "# B"
        ],
        "city": "BROOKLYN",
        "state": "NY",
        "postalCode": "11212-3139"
      },
      {
        "line": [
          "42-65 Kissena Blvd",
          "Suite L1-L2"
        ],
        "city": "FLUSHING",
        "state": "NY",
        "postalCode": "11355-3273"
      },
      {
        "line": [
          "1545 Atlantic Avenue, Ste S316"
        ],
        "city": "BROOKLYN",
        "state": "NY",
        "postalCode": "11213-1122"
      },
      {
        "line": [
          "101 PENNSYLVANIA AVE",
          "11207-2428"
        ],
        "city": "BROOKLYN",
        "state": "NY",
        "postalCode": "11207-2428"
      },
      {
        "line": [
          "1 Brookdale Plaza",
          "Room 169"
        ],
        "city": "BROOKLYN",
        "state": "NY",
        "postalCode": "11212-3139"
      },
      {
        "line": [
          "585 Schenectady Ave"
        ],
        "city": "BROOKLYN",
        "state": "NY",
        "postalCode": "11203-1822"
      },
      {
        "line": [
          "1545 Atlantic Avenue",
          "4th Floor"
        ],
        "city": "BROOKLYN",
        "state": "NY",
        "postalCode": "11213-1122"
      },
      {
        "line": [
          "585 Schenectady Avenue"
        ],
        "city": "BROOKLYN",
        "state": "NY",
        "postalCode": "11213-1122"
      },
      {
        "line": [
          "8900 Van Wyck Expwy"
        ],
        "city": "Jamaica",
        "state": "NY",
        "postalCode": "11418-2832"
      },
      {
        "line": [
          "SUNY Downstate Medical Center",
          "450 Clarkson Avenue"
        ],
        "city": "BROOKLYN",
        "state": "NY",
        "postalCode": "11203-2098"
      },
      {
        "line": [
          "1 Brookdale Plaza"
        ],
        "city": "BROOKLYN",
        "state": "NY",
        "postalCode": "11212-3139"
      },
      {
        "line": [
          "611 East 103rd Street"
        ],
        "city": "Brooklyn",
        "state": "NY",
        "postalCode": "11236-2501"
      },
      {
        "line": [
          "9620 Church Avenue",
          "1st Floor"
        ],
        "city": "BROOKLYN",
        "state": "NY",
        "postalCode": "11212-2436"
      },
      {
        "line": [
          "9413 Flatlands Avenue",
          "ste 101E"
        ],
        "city": "BROOKLYN",
        "state": "NY",
        "postalCode": "11236-3726"
      },
      {
        "line": [
          "55 Greene Avenue"
        ],
        "city": "BROOKLYN",
        "state": "NY",
        "postalCode": "11238-6406"
      },
      {
        "line": [
          "9413 Flatlands Avenue"
        ],
        "city": "BROOKLYN",
        "state": "NY",
        "postalCode": "11236-3713"
      },
      {
        "line": [
          "One Brookdale Plaza",
          "4th Floor Room 4C-30 Katz"
        ],
        "city": "BROOKLYN",
        "state": "NY",
        "postalCode": "11212-3139"
      },
      {
        "line": [],
        "city": "BROOKLYN",
        "state": "NY",
        "postalCode": "11212-3139"
      },
      {
        "line": [
          "555 ROCKAWAY PKWY"
        ],
        "city": "BROOKLYN",
        "state": "NY",
        "postalCode": "11212-3132"
      },
      {
        "line": [
          "391 Eastern Pkwy"
        ],
        "city": "BROOKLYN",
        "state": "NY",
        "postalCode": "11216-4570"
      },
      {
        "line": [
          "1110 Eastern PKWY"
        ],
        "city": "BROOKLYN",
        "state": "NY",
        "postalCode": "11213-4881"
      },
      {
        "line": [
          "4450 N 12TH ST STE 210"
        ],
        "city": "PHOENIX",
        "state": "AZ",
        "postalCode": "85014-6012"
      },
      {
        "line": [
          "9701 Church Avenue"
        ],
        "city": "BROOKLYN",
        "state": "NY",
        "postalCode": "11212-3137"
      },
      {
        "line": [
          "2237 Linden Blvd"
        ],
        "city": "BROOKLYN",
        "state": "NY",
        "postalCode": "11207-7527"
      },
      {
        "line": [
          "528 Prospect Place"
        ],
        "city": "BROOKLYN",
        "state": "NY",
        "postalCode": "11238-4205"
      },
      {
        "line": [
          "1110 Eastern Parkway"
        ],
        "city": "BROOKLYN",
        "state": "NY",
        "postalCode": "11203-4881"
      },
      {
        "line": [
          "One Hanson Place",
          "# 710"
        ],
        "city": "BROOKLYN",
        "state": "NY",
        "postalCode": "11243-2907"
      },
      {
        "line": [
          "465 New Lots Avenue"
        ],
        "city": "BROOKLYN",
        "state": "NY",
        "postalCode": "11207-6414"
      },
      {
        "line": [
          "585 Schenectady Avenue"
        ],
        "city": "BROOKLYN",
        "state": "NY",
        "postalCode": "11212-1122"
      },
      {
        "line": [
          "2372 Linden Blvd."
        ],
        "city": "BROOKLYN",
        "state": "NY",
        "postalCode": "11208-4821"
      },
      {
        "line": [
          "1873 Eastern Parkway"
        ],
        "city": "BROOKLYN",
        "state": "NY",
        "postalCode": "11233-3214"
      },
      {
        "line": [
          "82-23 14th Avenue"
        ],
        "city": "BROOKLYN",
        "state": "NY",
        "postalCode": "11228-3113"
      },
      {
        "line": [
          "660 LOUISIANA AVENUE"
        ],
        "city": "BROOKLYN",
        "state": "NY",
        "postalCode": "11239-1526"
      },
      {
        "line": [
          "94-13 Flatlands"
        ],
        "city": "BROOKLYN",
        "state": "NY",
        "postalCode": "11236-3713"
      },
      {
        "line": [
          "1222 East 96th Street"
        ],
        "city": "BROOKLYN",
        "state": "NY",
        "postalCode": "11236-3903"
      },
      {
        "line": [
          "2554 Linden Blvd"
        ],
        "city": "BROOKLYN",
        "state": "NY",
        "postalCode": "11208-4904"
      },
      {
        "line": [
          "5205 Church Avenue"
        ],
        "city": "BROOKLYN",
        "state": "NY",
        "postalCode": "11203-3513"
      },
      {
        "line": [
          "15 WASHINGTON AVE"
        ],
        "city": "BROOKLYN",
        "state": "NY",
        "postalCode": "11205-1202"
      }
    ],
    "extension": [
      {
        "url": "https://fhir.athena.io/StructureDefinition/ah-practice",
        "valueReference": {
          "reference": "Organization/a-1.Practice-5853"
        }
      },
      {
        "url": "https://fhir.athena.io/StructureDefinition/ah-brand",
        "valueReference": {
          "reference": "Organization/a-5853.Brand-1"
        }
      }
    ]
  },
  "fullUrl": "urn:uuid:9c47c7f1-5c64-544b-bce3-b1772161a0b7"
}