{
  "resource": {
    "resourceType": "Organization",
    "id": "641c65de-00e9-5f81-b8ea-e7bc5892e5da",
    "name": "Rappore",
    "endpoint": [
      {
        "reference": "Endpoint/27a4e967-47aa-5a9c-a572-b8297ee268a2"
      },
      {
        "reference": "Endpoint/d8392169-b66d-50d4-8c7b-70a8a38c0075"
      }
    ],
    "identifier": [
      {
        "system": "http://hl7.org/fhir/sid/us-npi",
        "value": "1699301614"
      },
      {
        "system": "http://hl7.org/fhir/sid/us-npi",
        "value": "1952179327"
      },
      {
        "system": "http://hl7.org/fhir/sid/us-npi",
        "value": "1932971876"
      },
      {
        "system": "http://hl7.org/fhir/sid/us-npi",
        "value": "1417729617"
      },
      {
        "system": "http://hl7.org/fhir/sid/us-npi",
        "value": "1154173003"
      }
    ],
    "address": [
      {
        "line": [
          "5718 WESTHEIMER RD ST 1000"
        ],
        "city": "HOUSTON",
        "state": "TX",
        "postalCode": "77057-9903"
      },
      {
        "line": [
          "4445 WILLARD AVE STE 600"
        ],
        "city": "CHEVY CHASE",
        "state": "MD",
        "postalCode": "20815-3786"
      },
      {
        "line": [
          "350 West 42ND Street",
          "Unit 37G"
        ],
        "city": "NEW YORK",
        "state": "NY",
        "postalCode": "10036-6959"
      },
      {
        "line": [
          "1 MARINA PARK DR STE 1410"
        ],
        "city": "BOSTON",
        "state": "MA",
        "postalCode": "02210-1874"
      },
      {
        "line": [
          "220 5TH AVE FL 11",
          "SUITE 4"
        ],
        "city": "NEW YORK",
        "state": "NY",
        "postalCode": "10001-8017"
      },
      {
        "line": [
          "221 River Street",
          "9th Floor"
        ],
        "city": "HOBOKEN",
        "state": "NJ",
        "postalCode": "07030-5990"
      },
      {
        "line": [
          "442 5TH AVE",
          "# 1983"
        ],
        "city": "NEW YORK",
        "state": "NY",
        "postalCode": "10018-2794"
      },
      {
        "line": [
          "350 WEST 42ND STREET",
          "UNIT 37G"
        ],
        "city": "NEW YORK",
        "state": "NY",
        "postalCode": "10036-6959"
      },
      {
        "line": [
          "5718 WESTHEIMER RD STE 1000"
        ],
        "city": "HOUSTON",
        "state": "TX",
        "postalCode": "77057-9903"
      }
    ],
    "extension": [
      {
        "url": "https://fhir.athena.io/StructureDefinition/ah-practice",
        "valueReference": {
          "reference": "Organization/a-1.Practice-25072"
        }
      },
      {
        "url": "https://fhir.athena.io/StructureDefinition/ah-brand",
        "valueReference": {
          "reference": "Organization/a-25072.Brand-1"
        }
      }
    ]
  },
  "fullUrl": "urn:uuid:641c65de-00e9-5f81-b8ea-e7bc5892e5da"
}