{
  "resource": {
    "resourceType": "Organization",
    "id": "9bc525b1-c796-5b1c-a9e6-76dc3f51f8d3",
    "name": "Concierge Medical Group",
    "endpoint": [
      {
        "reference": "Endpoint/27a4e967-47aa-5a9c-a572-b8297ee268a2"
      },
      {
        "reference": "Endpoint/f3a147c3-f92d-53e3-bfd2-6cfd03d57ed5"
      }
    ],
    "identifier": [
      {
        "system": "http://hl7.org/fhir/sid/us-npi",
        "value": "1811407521"
      }
    ],
    "address": [
      {
        "line": [
          "4013 PERCIVAL RD"
        ],
        "city": "COLUMBIA",
        "state": "SC",
        "postalCode": "29229-8321"
      },
      {
        "line": [
          "110 WILDEWOOD PARK DR STE A"
        ],
        "city": "COLUMBIA",
        "state": "SC",
        "postalCode": "29223-4301"
      },
      {
        "line": [
          "112 Goodrich St"
        ],
        "city": "COLUMBIA",
        "state": "SC",
        "postalCode": "29223-7725"
      },
      {
        "line": [
          "821 DUKE AVE"
        ],
        "city": "COLUMBIA",
        "state": "SC",
        "postalCode": "29203-5651"
      },
      {
        "line": [
          "5342 Hardscrabble Rd."
        ],
        "city": "BLYTHEWOOD",
        "state": "SC",
        "postalCode": "29016-9171"
      },
      {
        "line": [
          "665 SHARPE ROAD"
        ],
        "city": "COLUMBIA",
        "state": "SC",
        "postalCode": "29230-3283"
      },
      {
        "line": [
          "5530 BUSH RIVER RD"
        ],
        "city": "COLUMBIA",
        "state": "SC",
        "postalCode": "29212-3007"
      },
      {
        "line": [
          "7705 Richard St."
        ],
        "city": "COLUMBIA",
        "state": "SC",
        "postalCode": "29203-3733"
      },
      {
        "line": [
          "2525 St. Matthews Rd NE"
        ],
        "city": "ORANGEBURG",
        "state": "SC",
        "postalCode": "29118-1319"
      },
      {
        "line": [
          "4003 Calhoun St"
        ],
        "city": "BRANCHVILLE",
        "state": "SC",
        "postalCode": "29432-2243"
      },
      {
        "line": [
          "102 Ballention Rd"
        ],
        "city": "COLUMBIA",
        "state": "SC",
        "postalCode": "29203-9072"
      },
      {
        "line": [
          "1018 Crystal Clear Lane"
        ],
        "city": "HOPKINS",
        "state": "SC",
        "postalCode": "29061-8237"
      },
      {
        "line": [
          "9316 Wilson Blvd"
        ],
        "city": "COLUMBIA",
        "state": "SC",
        "postalCode": "29203-9769"
      },
      {
        "line": [
          "1456 Dixon Rd"
        ],
        "city": "ELGIN",
        "state": "SC",
        "postalCode": "29045-9030"
      },
      {
        "line": [
          "3961 Fish Hatchery Rd"
        ],
        "city": "GASTON",
        "state": "SC",
        "postalCode": "29053-9038"
      },
      {
        "line": [
          "5048 Percival Rd"
        ],
        "city": "ELGIN",
        "state": "SC",
        "postalCode": "29045-9156"
      },
      {
        "line": [
          "4112 Hartford St."
        ],
        "city": "COLUMBIA",
        "state": "SC",
        "postalCode": "29204-3025"
      },
      {
        "line": [
          "2033 Heyward Brockington Rd"
        ],
        "city": "COLUMBIA",
        "state": "SC",
        "postalCode": "29203-9674"
      },
      {
        "line": [
          "204 John Apree Cir"
        ],
        "city": "BLYTHEWOOD",
        "state": "SC",
        "postalCode": "29016-1230"
      },
      {
        "line": [
          "756 FARROWOOD DR"
        ],
        "city": "COLUMBIA",
        "state": "SC",
        "postalCode": "29223-7801"
      },
      {
        "line": [
          "4013 Percival Rd."
        ],
        "city": "COLUMBIA",
        "state": "SC",
        "postalCode": "29229-8321"
      },
      {
        "line": [
          "8809 Wilson Blvd"
        ],
        "city": "COLUMBIA",
        "state": "SC",
        "postalCode": "29203-1817"
      }
    ],
    "extension": [
      {
        "url": "https://fhir.athena.io/StructureDefinition/ah-practice",
        "valueReference": {
          "reference": "Organization/a-1.Practice-30985"
        }
      },
      {
        "url": "https://fhir.athena.io/StructureDefinition/ah-brand",
        "valueReference": {
          "reference": "Organization/a-30985.Brand-1"
        }
      }
    ]
  },
  "fullUrl": "urn:uuid:9bc525b1-c796-5b1c-a9e6-76dc3f51f8d3"
}