{
  "resource": {
    "resourceType": "Organization",
    "id": "c695aa7d-b46c-54d8-b7a4-4c69c2c09196",
    "name": "CARDIOVASCULAR ASSOCIATES OF VIRGINIA",
    "endpoint": [
      {
        "reference": "Endpoint/27a4e967-47aa-5a9c-a572-b8297ee268a2"
      },
      {
        "reference": "Endpoint/9cf42df6-73d7-5a7c-a3fb-7a69cade064a"
      }
    ],
    "identifier": [
      {
        "system": "http://hl7.org/fhir/sid/us-npi",
        "value": "1306175682"
      },
      {
        "system": "http://hl7.org/fhir/sid/us-npi",
        "value": "1215216387"
      },
      {
        "system": "http://hl7.org/fhir/sid/us-npi",
        "value": "1790050235"
      },
      {
        "system": "http://hl7.org/fhir/sid/us-npi",
        "value": "1366715682"
      },
      {
        "system": "http://hl7.org/fhir/sid/us-npi",
        "value": "1699906875"
      },
      {
        "system": "http://hl7.org/fhir/sid/us-npi",
        "value": "1518102235"
      },
      {
        "system": "http://hl7.org/fhir/sid/us-npi",
        "value": "1326379769"
      },
      {
        "system": "http://hl7.org/fhir/sid/us-npi",
        "value": "1629377221"
      },
      {
        "system": "http://hl7.org/fhir/sid/us-npi",
        "value": "1548529126"
      },
      {
        "system": "http://hl7.org/fhir/sid/us-npi",
        "value": "1427361922"
      }
    ],
    "address": [
      {
        "line": [
          "7001 FOREST AVENUE",
          "SUITE 200"
        ],
        "city": "RICHMOND",
        "state": "VA",
        "postalCode": "23230-1726"
      },
      {
        "line": [
          "1500 N 28TH STREET",
          "SUITE 204"
        ],
        "city": "RICHMOND",
        "state": "VA",
        "postalCode": "23223-5332"
      },
      {
        "line": [
          "13700 ST. FRANCIS BOULEVARD",
          "SUITE 600"
        ],
        "city": "MIDLOTHIAN",
        "state": "VA",
        "postalCode": "23114-3223"
      },
      {
        "line": [
          "7001 FOREST AVE",
          "SUITE 100"
        ],
        "city": "RICHMOND",
        "state": "VA",
        "postalCode": "23230-1727"
      },
      {
        "line": [
          "11601 IRONBRIDGE ROAD",
          "SUITE 200"
        ],
        "city": "CHESTER",
        "state": "VA",
        "postalCode": "23831-1468"
      },
      {
        "line": [
          "4900 COX RD",
          "SUITE 150"
        ],
        "city": "GLEN ALLEN",
        "state": "VA",
        "postalCode": "23060-6507"
      },
      {
        "line": [
          "8243 MEADOWBRIDGE RD"
        ],
        "city": "MECHANICSVILLE",
        "state": "VA",
        "postalCode": "23116-2329"
      },
      {
        "line": [
          "213 N MAIN STREET"
        ],
        "city": "BLACKSTONE",
        "state": "VA",
        "postalCode": "23824-1425"
      },
      {
        "line": [
          "611 WATKINS CENTRE PKWY",
          "SUITE 250"
        ],
        "city": "MIDLOTHIAN",
        "state": "VA",
        "postalCode": "23114-4404"
      },
      {
        "line": [
          "11601 IRONBRIDGE ROAD",
          "SUITE 200"
        ],
        "city": "CHESTER",
        "state": "VA",
        "postalCode": "23831-1466"
      },
      {
        "line": [
          "101 HARRIS DRIVE"
        ],
        "city": "KILMARNOCK",
        "state": "VA",
        "postalCode": "22482-3880"
      },
      {
        "line": [
          "1850 POCAHONTAS TRAIL",
          "2ND FLOOR"
        ],
        "city": "QUINTON",
        "state": "VA",
        "postalCode": "23141-1647"
      },
      {
        "line": [
          "13700 ST FRANCIS BLVD",
          "SUITE 600"
        ],
        "city": "MIDLOTHIAN",
        "state": "VA",
        "postalCode": "23114-3222"
      },
      {
        "line": [
          "32 W WASHINGTON STREET",
          "SUITE B"
        ],
        "city": "PETERSBURG",
        "state": "VA",
        "postalCode": "23803-4224"
      }
    ],
    "extension": [
      {
        "url": "https://fhir.athena.io/StructureDefinition/ah-practice",
        "valueReference": {
          "reference": "Organization/a-1.Practice-679"
        }
      },
      {
        "url": "https://fhir.athena.io/StructureDefinition/ah-brand",
        "valueReference": {
          "reference": "Organization/a-679.Brand-1"
        }
      }
    ]
  },
  "fullUrl": "urn:uuid:c695aa7d-b46c-54d8-b7a4-4c69c2c09196"
}