{
  "resource": {
    "resourceType": "Organization",
    "id": "87d81ec7-41ae-5254-b14a-39864bffc455",
    "name": "Lightyear Health",
    "endpoint": [
      {
        "reference": "Endpoint/27a4e967-47aa-5a9c-a572-b8297ee268a2"
      },
      {
        "reference": "Endpoint/0c0ba3ef-34e7-526e-a6ef-7621401007e4"
      }
    ],
    "identifier": [
      {
        "system": "http://hl7.org/fhir/sid/us-npi",
        "value": "1063185874"
      },
      {
        "system": "http://hl7.org/fhir/sid/us-npi",
        "value": "1558968727"
      },
      {
        "system": "http://hl7.org/fhir/sid/us-npi",
        "value": "1639822802"
      },
      {
        "system": "http://hl7.org/fhir/sid/us-npi",
        "value": "1053093054"
      },
      {
        "system": "http://hl7.org/fhir/sid/us-npi",
        "value": "1477253615"
      },
      {
        "system": "http://hl7.org/fhir/sid/us-npi",
        "value": "1861190969"
      },
      {
        "system": "http://hl7.org/fhir/sid/us-npi",
        "value": "1194594077"
      }
    ],
    "address": [
      {
        "line": [
          "17751 PARK VALLEY DR"
        ],
        "city": "ROUND ROCK",
        "state": "TX",
        "postalCode": "78681-3592"
      },
      {
        "line": [
          "5602 University Ave"
        ],
        "city": "SAN DIEGO",
        "state": "CA",
        "postalCode": "92105-2308"
      },
      {
        "line": [
          "7090 COVENANT WOODS DR"
        ],
        "city": "MECHANICSVILLE",
        "state": "VA",
        "postalCode": "23111-7025"
      },
      {
        "line": [
          "1212 S Bridge Ave"
        ],
        "city": "WESLACO",
        "state": "TX",
        "postalCode": "78596-7906"
      },
      {
        "line": [
          "8111 TIS WELL DR"
        ],
        "city": "ALEXANDRIA",
        "state": "VA",
        "postalCode": "22306-3211"
      },
      {
        "line": [
          "300 NEAL ST"
        ],
        "city": "PLEASANTON",
        "state": "CA",
        "postalCode": "94566-7317"
      },
      {
        "line": [
          "615 N WARE RD"
        ],
        "city": "MCALLEN",
        "state": "TX",
        "postalCode": "78501-8057"
      },
      {
        "line": [
          "4105 TERAVISTA CLUB DR"
        ],
        "city": "ROUND ROCK",
        "state": "TX",
        "postalCode": "78665-1525"
      },
      {
        "line": [
          "100 NE 5TH ST FL 1"
        ],
        "city": "OKLAHOMA CITY",
        "state": "OK",
        "postalCode": "73104-2228"
      },
      {
        "line": [
          "5600 DAVIS BLVD"
        ],
        "city": "NORTH RICHLAND HILLS",
        "state": "TX",
        "postalCode": "76180-6464"
      },
      {
        "line": [
          "1255 Adventure Ln"
        ],
        "city": "SAN MARCOS",
        "state": "CA",
        "postalCode": "92069-3201"
      },
      {
        "line": [
          "42301 Morage Rd"
        ],
        "city": "TEMECULA",
        "state": "CA",
        "postalCode": "92591-1502"
      },
      {
        "line": [
          "1220 LOOP 459"
        ],
        "city": "MATHIS",
        "state": "TX",
        "postalCode": "78368-1804"
      },
      {
        "line": [
          "2620 W WALKER ST"
        ],
        "city": "LEAGUE CITY",
        "state": "TX",
        "postalCode": "77573-6812"
      },
      {
        "line": [
          "701 BENNETT RD"
        ],
        "city": "DECATUR",
        "state": "TX",
        "postalCode": "76234-3817"
      },
      {
        "line": [
          "235 EVERGREEN AVE"
        ],
        "city": "APPOMATTOX",
        "state": "VA",
        "postalCode": "24522-4501"
      },
      {
        "line": [
          "21 E STATE ST STE 200"
        ],
        "city": "COLUMBUS",
        "state": "OH",
        "postalCode": "43215-0109"
      },
      {
        "line": [
          "9101 Bon Air Crossings Dr"
        ],
        "city": "RICHMOND",
        "state": "VA",
        "postalCode": "23235-4968"
      },
      {
        "line": [
          "1224 ROSSMOOR PKWY"
        ],
        "city": "WALNUT CREEK",
        "state": "CA",
        "postalCode": "94595-2501"
      },
      {
        "line": [
          "660 VAN HOUTEN AVE"
        ],
        "city": "EL CAJON",
        "state": "CA",
        "postalCode": "92020-5134"
      },
      {
        "line": [
          "24200 Monroe Ave"
        ],
        "city": "MURRIETA",
        "state": "CA",
        "postalCode": "92562-9523"
      },
      {
        "line": [
          "3811 Dominion Rd"
        ],
        "city": "SANTA MARIA",
        "state": "CA",
        "postalCode": "93454-9173"
      },
      {
        "line": [
          "3401 E AIRLINE RD"
        ],
        "city": "VICTORIA",
        "state": "TX",
        "postalCode": "77901-4551"
      },
      {
        "line": [
          "1005 IRA E WOODS AVE"
        ],
        "city": "GRAPEVINE",
        "state": "TX",
        "postalCode": "76051-4018"
      },
      {
        "line": [
          "1310 W GRANGER AVE"
        ],
        "city": "MODESTO",
        "state": "CA",
        "postalCode": "95350-3911"
      },
      {
        "line": [
          "2106 15TH ST"
        ],
        "city": "BRIDGEPORT",
        "state": "TX",
        "postalCode": "76426-2073"
      },
      {
        "line": [
          "121 FM 971"
        ],
        "city": "GEORGETOWN",
        "state": "TX",
        "postalCode": "78626-4546"
      },
      {
        "line": [
          "6700 COLUMBIA PIKE"
        ],
        "city": "ANNANDALE",
        "state": "VA",
        "postalCode": "22003-3450"
      },
      {
        "line": [
          "1410 N AUGUSTA ST"
        ],
        "city": "STAUNTON",
        "state": "VA",
        "postalCode": "24401-2401"
      },
      {
        "line": [
          "48 ST LAWRENCE DR"
        ],
        "city": "TIFFIN",
        "state": "OH",
        "postalCode": "44883-8310"
      },
      {
        "line": [
          "725 COLUMBUS AVE"
        ],
        "city": "FOSTORIA",
        "state": "OH",
        "postalCode": "44830-3255"
      },
      {
        "line": [
          "950 L Ave."
        ],
        "city": "NATIONAL CITY",
        "state": "CA",
        "postalCode": "91950-3785"
      },
      {
        "line": [
          "31451 AVENIDA LOS CERRITOS"
        ],
        "city": "SAN JUAN CAPISTRANO",
        "state": "CA",
        "postalCode": "92675-1708"
      },
      {
        "line": [
          "310 America Dr."
        ],
        "city": "BROWNSVILLE",
        "state": "TX",
        "postalCode": "78526-7437"
      },
      {
        "line": [
          "9840 MONTGOMERY RD"
        ],
        "city": "Montgomery",
        "state": "OH",
        "postalCode": "45242-6412"
      },
      {
        "line": [
          "122 MORVEN PARK RD NW"
        ],
        "city": "LEESBURG",
        "state": "VA",
        "postalCode": "20176-2024"
      },
      {
        "line": [
          "900 GEORGE HOPPER RD"
        ],
        "city": "MIDLOTHIAN",
        "state": "TX",
        "postalCode": "76065-5509"
      },
      {
        "line": [
          "2489 California Ave"
        ],
        "city": "CORONA",
        "state": "CA",
        "postalCode": "92881-6600"
      },
      {
        "line": [
          "9814 Grant Rd"
        ],
        "city": "HOUSTON",
        "state": "TX",
        "postalCode": "77070-4558"
      },
      {
        "line": [
          "1445 Parkway Dr"
        ],
        "city": "CRESCENT CITY",
        "state": "CA",
        "postalCode": "95531-8021"
      },
      {
        "line": [
          "2400 E PARHAM RD"
        ],
        "city": "HENRICO",
        "state": "VA",
        "postalCode": "23228-3119"
      },
      {
        "line": [
          "40131 Highway 49"
        ],
        "city": "OAKHURST",
        "state": "CA",
        "postalCode": "93644-9560"
      },
      {
        "line": [
          "1217 ALLIANCE DR"
        ],
        "city": "VIRGINIA BEACH",
        "state": "VA",
        "postalCode": "23454-7412"
      },
      {
        "line": [
          "810 Turquoise St"
        ],
        "city": "SAN DIEGO",
        "state": "CA",
        "postalCode": "92109-1126"
      },
      {
        "line": [
          "730 34TH ST"
        ],
        "city": "BAKERSFIELD",
        "state": "CA",
        "postalCode": "93301-2210"
      },
      {
        "line": [
          "900 VIRGINIA AVE"
        ],
        "city": "ALEXANDRIA",
        "state": "VA",
        "postalCode": "22302-3200"
      },
      {
        "line": [
          "120 ANDERSON AVE"
        ],
        "city": "BOWLING GREEN",
        "state": "VA",
        "postalCode": "22427-9401"
      },
      {
        "line": [
          "470 OLDE WORTHINGTON RD STE 200"
        ],
        "city": "WESTERVILLE",
        "state": "OH",
        "postalCode": "43082-9127"
      },
      {
        "line": [
          "3806 CLAYTON RD"
        ],
        "city": "CONCORD",
        "state": "CA",
        "postalCode": "94521-2516"
      },
      {
        "line": [
          "14300 Pebble Hills Blvd"
        ],
        "city": "EL PASO",
        "state": "TX",
        "postalCode": "79938-2796"
      },
      {
        "line": [
          "2715 DOGTOWN RD"
        ],
        "city": "GOOCHLAND",
        "state": "VA",
        "postalCode": "23063-2424"
      },
      {
        "line": [
          "14906 RICHMOND HWY"
        ],
        "city": "WOODBRIDGE",
        "state": "VA",
        "postalCode": "22191-4016"
      },
      {
        "line": [
          "2301 N OREGON ST"
        ],
        "city": "EL PASO",
        "state": "TX",
        "postalCode": "79902-3216"
      },
      {
        "line": [
          "2030 Evergreen Ave",
          "2030 Evergreen Ave"
        ],
        "city": "MODESTO",
        "state": "CA",
        "postalCode": "95350-3785"
      },
      {
        "line": [
          "3103 E AIRLINE RD"
        ],
        "city": "VICTORIA",
        "state": "TX",
        "postalCode": "77901-4546"
      },
      {
        "line": [
          "12021 Metric Blvd"
        ],
        "city": "AUSTIN",
        "state": "TX",
        "postalCode": "78758-8616"
      },
      {
        "line": [
          "1112 GIBBINS RD"
        ],
        "city": "ARLINGTON",
        "state": "TX",
        "postalCode": "76011-5618"
      },
      {
        "line": [
          "275 SE JOHN JONES DR"
        ],
        "city": "BURLESON",
        "state": "TX",
        "postalCode": "76028-8327"
      },
      {
        "line": [
          "795 LINDBERGH DR"
        ],
        "city": "BEAUMONT",
        "state": "TX",
        "postalCode": "77707-3616"
      },
      {
        "line": [
          "2739 BABCOCK RD"
        ],
        "city": "SAN ANTONIO",
        "state": "TX",
        "postalCode": "78229-4811"
      },
      {
        "line": [
          "200 SAND CREEK HWY"
        ],
        "city": "ADRIAN",
        "state": "MI",
        "postalCode": "49221-1255"
      },
      {
        "line": [
          "400 RENAISSANCE CTR STE 2600"
        ],
        "city": "DETROIT",
        "state": "MI",
        "postalCode": "48243-1599"
      },
      {
        "line": [
          "159 E Orangeburg Ave"
        ],
        "city": "MODESTO",
        "state": "CA",
        "postalCode": "95350-5334"
      },
      {
        "line": [
          "505 RIO RD W"
        ],
        "city": "CHARLOTTESVILLE",
        "state": "VA",
        "postalCode": "22901-1411"
      },
      {
        "line": [
          "2170 N LAKE FOREST DR"
        ],
        "city": "MCKINNEY",
        "state": "TX",
        "postalCode": "75071-5156"
      },
      {
        "line": [
          "631 LAKEVIEW BLVD"
        ],
        "city": "NEW BRAUNFELS",
        "state": "TX",
        "postalCode": "78130-4017"
      },
      {
        "line": [
          "2900 STONERIDGE DR"
        ],
        "city": "PLEASANTON",
        "state": "CA",
        "postalCode": "94588-8310"
      },
      {
        "line": [
          "1034 LIBERTY PARK DR"
        ],
        "city": "AUSTIN",
        "state": "TX",
        "postalCode": "78746-6891"
      },
      {
        "line": [
          "10251 Vista Sorrento Parkway"
        ],
        "city": "SAN DIEGO",
        "state": "CA",
        "postalCode": "92121-3774"
      },
      {
        "line": [
          "2660 BRICKYARD RD"
        ],
        "city": "BEAUMONT",
        "state": "TX",
        "postalCode": "77703-4708"
      },
      {
        "line": [
          "7181 Crestway Drive"
        ],
        "city": "SAN ANTONIO",
        "state": "TX",
        "postalCode": "78239-3002"
      },
      {
        "line": [
          "1221 ROSSER AVE"
        ],
        "city": "WAYNESBORO",
        "state": "VA",
        "postalCode": "22980-3336"
      },
      {
        "line": [
          "7441 Paseo Del Norte"
        ],
        "city": "EL PASO",
        "state": "TX",
        "postalCode": "79911-3158"
      },
      {
        "line": [
          "3302 Bonita Road"
        ],
        "city": "CHULA VISTA",
        "state": "CA",
        "postalCode": "91910-3207"
      },
      {
        "line": [
          "1226 ROSSMOOR PKWY"
        ],
        "city": "WALNUT CREEK",
        "state": "CA",
        "postalCode": "94595-2538"
      },
      {
        "line": [
          "515 E Orangeburg Ave"
        ],
        "city": "MODESTO",
        "state": "CA",
        "postalCode": "95350-5510"
      },
      {
        "line": [
          "10251 VISTA SORRENTO PKWY STE 280"
        ],
        "city": "SAN DIEGO",
        "state": "CA",
        "postalCode": "92121-3776"
      },
      {
        "line": [
          "1575 5TH AVE"
        ],
        "city": "SAN FRANCISCO",
        "state": "CA",
        "postalCode": "94122-3885"
      },
      {
        "line": [
          "7220 PIPPIN RD"
        ],
        "city": "CINCINNATI",
        "state": "OH",
        "postalCode": "45239-4607"
      },
      {
        "line": [
          "300 PROVIDENCE RD"
        ],
        "city": "CHARLOTTE",
        "state": "NC",
        "postalCode": "28207-1420"
      },
      {
        "line": [
          "2034 SUNDANCE PKWY"
        ],
        "city": "NEW BRAUNFELS",
        "state": "TX",
        "postalCode": "78130-2750"
      },
      {
        "line": [
          "521 S HEATHERWILDE BLVD"
        ],
        "city": "PFLUGERVILLE",
        "state": "TX",
        "postalCode": "78660-3668"
      },
      {
        "line": [
          "900 ENTERPRISE BLVD"
        ],
        "city": "ROCKPORT",
        "state": "TX",
        "postalCode": "78382-3200"
      },
      {
        "line": [
          "6001 GEORGE BUSH DR"
        ],
        "city": "KATY",
        "state": "TX",
        "postalCode": "77493-1991"
      },
      {
        "line": [
          "3032 ROWENA AVE"
        ],
        "city": "LOS ANGELES",
        "state": "CA",
        "postalCode": "90039-2005"
      },
      {
        "line": [
          "4201 Greenwood Dr"
        ],
        "city": "PORTSMOUTH",
        "state": "VA",
        "postalCode": "23701-3250"
      },
      {
        "line": [
          "5607 EVERHART RD"
        ],
        "city": "CORPUS CHRISTI",
        "state": "TX",
        "postalCode": "78411-4904"
      },
      {
        "line": [
          "8554 Calle Norte"
        ],
        "city": "LEMON GROVE",
        "state": "CA",
        "postalCode": "91945-3301"
      },
      {
        "line": [
          "3050 SUNNYBROOK RD"
        ],
        "city": "CORPUS CHRISTI",
        "state": "TX",
        "postalCode": "78415-1748"
      },
      {
        "line": [
          "44320 CAMPANULA WAY"
        ],
        "city": "TEMECULA",
        "state": "CA",
        "postalCode": "92592-7903"
      },
      {
        "line": [
          "1785 S HAYES ST"
        ],
        "city": "ARLINGTON",
        "state": "VA",
        "postalCode": "22202-2714"
      },
      {
        "line": [
          "930 W Main St"
        ],
        "city": "RIPON",
        "state": "CA",
        "postalCode": "95366-2325"
      },
      {
        "line": [
          "1290 Santa Rosa Dr"
        ],
        "city": "CHULA VISTA",
        "state": "CA",
        "postalCode": "91913-1849"
      },
      {
        "line": [
          "200 HIOAKS RD"
        ],
        "city": "RICHMOND",
        "state": "VA",
        "postalCode": "23225-4048"
      },
      {
        "line": [
          "1640 Fairway"
        ],
        "city": "KYLE",
        "state": "TX",
        "postalCode": "78640-8791"
      },
      {
        "line": [
          "1008 ENTERPRISE BLVD"
        ],
        "city": "ROCKPORT",
        "state": "TX",
        "postalCode": "78382-3201"
      },
      {
        "line": [
          "11910 RICHMOND AVE"
        ],
        "city": "HOUSTON",
        "state": "TX",
        "postalCode": "77082-6827"
      },
      {
        "line": [
          "2202 N TRAVIS AVE"
        ],
        "city": "CAMERON",
        "state": "TX",
        "postalCode": "76520-1665"
      },
      {
        "line": [
          "2400 MCKINNEY BLVD"
        ],
        "city": "COLONIAL BEACH",
        "state": "VA",
        "postalCode": "22443-1237"
      },
      {
        "line": [
          "5615 SEMINOLE AVE"
        ],
        "city": "LYNCHBURG",
        "state": "VA",
        "postalCode": "24502-2201"
      },
      {
        "line": [
          "1150 WHITLEY RD"
        ],
        "city": "KELLER",
        "state": "TX",
        "postalCode": "76248-3038"
      },
      {
        "line": [
          "3801 CIMARRON BLVD"
        ],
        "city": "CORPUS CHRISTI",
        "state": "TX",
        "postalCode": "78414-3887"
      },
      {
        "line": [
          "8139 LEE DAVIS RD"
        ],
        "city": "MECHANICSVILLE",
        "state": "VA",
        "postalCode": "23111-7001"
      },
      {
        "line": [
          "705 JACKSON ST"
        ],
        "city": "RICHMOND",
        "state": "TX",
        "postalCode": "77469-3417"
      },
      {
        "line": [
          "855 E Basse Rd"
        ],
        "city": "SAN ANTONIO",
        "state": "TX",
        "postalCode": "78209-1890"
      },
      {
        "line": [
          "7400 CRESTWAY RD"
        ],
        "city": "SAN ANTONIO",
        "state": "TX",
        "postalCode": "78239-3104"
      },
      {
        "line": [
          "1154 E HAWKINS PKWY"
        ],
        "city": "LONGVIEW",
        "state": "TX",
        "postalCode": "75605-7975"
      },
      {
        "line": [
          "1425 E NEES AVE"
        ],
        "city": "FRESNO",
        "state": "CA",
        "postalCode": "93720-2282"
      },
      {
        "line": [
          "7377 RIDGE RD"
        ],
        "city": "CLEVELAND",
        "state": "OH",
        "postalCode": "44129-6602"
      },
      {
        "line": [
          "130 TAMPICO"
        ],
        "city": "WALNUT CREEK",
        "state": "CA",
        "postalCode": "94598-2948"
      },
      {
        "line": [
          "110 East Live Oak Street"
        ],
        "city": "AUSTIN",
        "state": "TX",
        "postalCode": "78704-4355"
      },
      {
        "line": [
          "5701 W BRITTON RD"
        ],
        "city": "OKLAHOMA CITY",
        "state": "OK",
        "postalCode": "73132-2402"
      },
      {
        "line": [
          "16123 CHATSWORTH ST"
        ],
        "city": "GRANADA HILLS",
        "state": "CA",
        "postalCode": "91344-7045"
      },
      {
        "line": [
          "225 N SOWERS RD"
        ],
        "city": "IRVING",
        "state": "TX",
        "postalCode": "75061-7449"
      },
      {
        "line": [
          "6725 INGLEWOOD AVE"
        ],
        "city": "STOCKTON",
        "state": "CA",
        "postalCode": "95207-3865"
      },
      {
        "line": [
          "401 CONGRESS AVE"
        ],
        "city": "AUSTIN",
        "state": "TX",
        "postalCode": "78701-4071"
      },
      {
        "line": [
          "469 E NORTH ST"
        ],
        "city": "MANTECA",
        "state": "CA",
        "postalCode": "95336-4710"
      },
      {
        "line": [
          "11106 Christus Hills"
        ],
        "city": "SAN ANTONIO",
        "state": "TX",
        "postalCode": "78251-3584"
      },
      {
        "line": [
          "1260 WILLIAMS WAY"
        ],
        "city": "YUBA CITY",
        "state": "CA",
        "postalCode": "95991-2400"
      },
      {
        "line": [
          "7107 QUEENSTON BLVD"
        ],
        "city": "HOUSTON",
        "state": "TX",
        "postalCode": "77095-5339"
      },
      {
        "line": [
          "2211 Mount Vernon Ave"
        ],
        "city": "BAKERSFIELD",
        "state": "CA",
        "postalCode": "93306-3309"
      },
      {
        "line": [
          "11490 Gateway N Blvd"
        ],
        "city": "EL PASO",
        "state": "TX",
        "postalCode": "79934-3456"
      },
      {
        "line": [
          "12042 Bittern Hollow"
        ],
        "city": "AUSTIN",
        "state": "TX",
        "postalCode": "78758-3350"
      },
      {
        "line": [
          "3100 SHORE DR"
        ],
        "city": "VIRGINIA BEACH",
        "state": "VA",
        "postalCode": "23451-1199"
      },
      {
        "line": [
          "21966 DOLORES ST"
        ],
        "city": "CASTRO VALLEY",
        "state": "CA",
        "postalCode": "94546-6900"
      },
      {
        "line": [
          "350 Cole Ranch Rd"
        ],
        "city": "ENCINITAS",
        "state": "CA",
        "postalCode": "92024-6416"
      },
      {
        "line": [
          "210 40TH STREET WAY"
        ],
        "city": "OAKLAND",
        "state": "CA",
        "postalCode": "94611-5612"
      },
      {
        "line": [
          "919 E Main St.",
          "Suite 1000"
        ],
        "city": "RICHMOND",
        "state": "VA",
        "postalCode": "23219-4623"
      },
      {
        "line": [
          "4006 Vista Rd"
        ],
        "city": "PASADENA",
        "state": "TX",
        "postalCode": "77504-2112"
      },
      {
        "line": [
          "430 WILLOW ST"
        ],
        "city": "ALAMEDA",
        "state": "CA",
        "postalCode": "94501-6130"
      },
      {
        "line": [
          "11525 VISTA DEL SOL DR"
        ],
        "city": "EL PASO",
        "state": "TX",
        "postalCode": "79936-5629"
      },
      {
        "line": [
          "490 HILLSDALE DR"
        ],
        "city": "CHARLOTTESVILLE",
        "state": "VA",
        "postalCode": "22901-5731"
      },
      {
        "line": [
          "140 E TULARE AVE"
        ],
        "city": "SHAFTER",
        "state": "CA",
        "postalCode": "93263-1834"
      },
      {
        "line": [
          "955 Grand Ave"
        ],
        "city": "SAN DIEGO",
        "state": "CA",
        "postalCode": "92109-4042"
      },
      {
        "line": [
          "919 E MAIN ST STE 1000"
        ],
        "city": "RICHMOND",
        "state": "VA",
        "postalCode": "23219-4623"
      },
      {
        "line": [
          "182 SAINT FRANCIS AVE"
        ],
        "city": "TIFFIN",
        "state": "OH",
        "postalCode": "44883-3456"
      },
      {
        "line": [
          "7302 OAK MANOR DR"
        ],
        "city": "SAN ANTONIO",
        "state": "TX",
        "postalCode": "78229-4509"
      },
      {
        "line": [
          "1730 S College Ave"
        ],
        "city": "DINUBA",
        "state": "CA",
        "postalCode": "93618-2812"
      },
      {
        "line": [
          "1181 N WILLIAMSON ST"
        ],
        "city": "GIDDINGS",
        "state": "TX",
        "postalCode": "78942-1213"
      },
      {
        "line": [
          "919 E MAIN ST"
        ],
        "city": "RICHMOND",
        "state": "VA",
        "postalCode": "23219-4625"
      },
      {
        "line": [
          "603 Corinne Dr"
        ],
        "city": "SAN ANTONIO",
        "state": "TX",
        "postalCode": "78218-3303"
      },
      {
        "line": [
          "537 E Fulton St"
        ],
        "city": "STOCKTON",
        "state": "CA",
        "postalCode": "95204-2227"
      },
      {
        "line": [
          "3536 WASHINGTON AVE"
        ],
        "city": "CINCINNATI",
        "state": "OH",
        "postalCode": "45229-2618"
      },
      {
        "line": [
          "12515 Springhurst Dr"
        ],
        "city": "SAN DIEGO",
        "state": "CA",
        "postalCode": "92128-6305"
      },
      {
        "line": [
          "670 E STATE ROUTE 18"
        ],
        "city": "TIFFIN",
        "state": "OH",
        "postalCode": "44883-1856"
      },
      {
        "line": [
          "1155 E SPRINGFIELD AVE"
        ],
        "city": "REEDLEY",
        "state": "CA",
        "postalCode": "93654-3225"
      },
      {
        "line": [
          "1801 Julian Ave"
        ],
        "city": "BAKERSFIELD",
        "state": "CA",
        "postalCode": "93304-6419"
      },
      {
        "line": [
          "7810 BETHANY RD"
        ],
        "city": "MIDDLETOWN",
        "state": "OH",
        "postalCode": "45044-9516"
      },
      {
        "line": [
          "12001 IRON BRIDGE RD"
        ],
        "city": "CHESTER",
        "state": "VA",
        "postalCode": "23831-1460"
      },
      {
        "line": [
          "100 Veterans Pkwy"
        ],
        "city": "BARSTOW",
        "state": "CA",
        "postalCode": "92311-7003"
      },
      {
        "line": [
          "3935 MEDICAL DR"
        ],
        "city": "SAN ANTONIO",
        "state": "TX",
        "postalCode": "78229-2102"
      },
      {
        "line": [
          "2108 15TH ST"
        ],
        "city": "BRIDGEPORT",
        "state": "TX",
        "postalCode": "76426-2055"
      },
      {
        "line": [
          "12660 PEBBLE HILLS BLVD"
        ],
        "city": "EL PASO",
        "state": "TX",
        "postalCode": "79938-4886"
      },
      {
        "line": [
          "2902 S 77 Sunshine Strip"
        ],
        "city": "HARLINGEN",
        "state": "TX",
        "postalCode": "78550-8968"
      },
      {
        "line": [
          "9000 Murray Dr"
        ],
        "city": "LA MESA",
        "state": "CA",
        "postalCode": "91942-3572"
      },
      {
        "line": [
          "38650 Mission Blvd"
        ],
        "city": "FREMONT",
        "state": "CA",
        "postalCode": "94536-4391"
      },
      {
        "line": [
          "12624 Willow Rd"
        ],
        "city": "LAKESIDE",
        "state": "CA",
        "postalCode": "92040-1809"
      },
      {
        "line": [
          "1 Street"
        ],
        "city": "SCHENECTADY",
        "state": "NY",
        "postalCode": "12345-6789"
      },
      {
        "line": [
          "10251 VISTA SORRENTO PKWY"
        ],
        "city": "SAN DIEGO",
        "state": "CA",
        "postalCode": "92121-3774"
      },
      {
        "line": [
          "15101 W FM 2147"
        ],
        "city": "HORSESHOE BAY",
        "state": "TX",
        "postalCode": "78657-2168"
      },
      {
        "line": [
          "255 N EGRET BAY BLVD"
        ],
        "city": "LEAGUE CITY",
        "state": "TX",
        "postalCode": "77573-6533"
      },
      {
        "line": [
          "515 W ASHBY PL"
        ],
        "city": "SAN ANTONIO",
        "state": "TX",
        "postalCode": "78212-3802"
      },
      {
        "line": [
          "2633 W Rumble Rd"
        ],
        "city": "MODESTO",
        "state": "CA",
        "postalCode": "95350-0154"
      },
      {
        "line": [
          "823 Congress Ave",
          "Suite 150-518"
        ],
        "city": "AUSTIN",
        "state": "TX",
        "postalCode": "78701-4071"
      },
      {
        "line": [
          "22103 REDWOOD RD"
        ],
        "city": "CASTRO VALLEY",
        "state": "CA",
        "postalCode": "94546-7107"
      },
      {
        "line": [
          "2300 S OAK GROVE RD"
        ],
        "city": "ENNIS",
        "state": "TX",
        "postalCode": "75119-6841"
      },
      {
        "line": [
          "23352 COURTHOUSE HWY"
        ],
        "city": "WINDSOR",
        "state": "VA",
        "postalCode": "23487-5333"
      },
      {
        "line": [
          "1960 Bedford Rd"
        ],
        "city": "BEDFORD",
        "state": "TX",
        "postalCode": "76021-5722"
      },
      {
        "line": [
          "1200 ATLANTIC SHORES DR"
        ],
        "city": "VIRGINIA BEACH",
        "state": "VA",
        "postalCode": "23454-7311"
      },
      {
        "line": [
          "561 N AIRPORT DR"
        ],
        "city": "HENRICO",
        "state": "VA",
        "postalCode": "23075-2100"
      }
    ],
    "extension": [
      {
        "url": "https://fhir.athena.io/StructureDefinition/ah-practice",
        "valueReference": {
          "reference": "Organization/a-1.Practice-23032"
        }
      },
      {
        "url": "https://fhir.athena.io/StructureDefinition/ah-brand",
        "valueReference": {
          "reference": "Organization/a-23032.Brand-1"
        }
      }
    ]
  },
  "fullUrl": "urn:uuid:87d81ec7-41ae-5254-b14a-39864bffc455"
}