{
  "resource": {
    "resourceType": "Organization",
    "id": "d7fbe323-4519-538c-a6c9-7e12eed43be3",
    "name": "MHPP West Shore Cardiology",
    "endpoint": [
      {
        "reference": "Endpoint/27a4e967-47aa-5a9c-a572-b8297ee268a2"
      },
      {
        "reference": "Endpoint/b646eae2-dcb5-5dab-aace-addd15b24463"
      }
    ],
    "identifier": [
      {
        "system": "http://hl7.org/fhir/sid/us-npi",
        "value": "1336573393"
      },
      {
        "system": "http://hl7.org/fhir/sid/us-npi",
        "value": "1194767186"
      },
      {
        "system": "http://hl7.org/fhir/sid/us-npi",
        "value": "1831132133"
      },
      {
        "system": "http://hl7.org/fhir/sid/us-npi",
        "value": "1972734200"
      },
      {
        "system": "http://hl7.org/fhir/sid/us-npi",
        "value": "1861818379"
      },
      {
        "system": "http://hl7.org/fhir/sid/us-npi",
        "value": "1326463357"
      },
      {
        "system": "http://hl7.org/fhir/sid/us-npi",
        "value": "1730571100"
      },
      {
        "system": "http://hl7.org/fhir/sid/us-npi",
        "value": "1598213241"
      },
      {
        "system": "http://hl7.org/fhir/sid/us-npi",
        "value": "1861810186"
      }
    ],
    "address": [
      {
        "line": [
          "1500 E. SHERMAN BLVD"
        ],
        "city": "MUSKEGON",
        "state": "MI",
        "postalCode": "49444-1849"
      },
      {
        "line": [
          "200 Jefferson Ave SE"
        ],
        "city": "GRAND RAPIDS",
        "state": "MI",
        "postalCode": "49503-4502"
      },
      {
        "line": [
          "3290 N. Wellness Dr.",
          "Building D, Suite 220"
        ],
        "city": "HOLLAND",
        "state": "MI",
        "postalCode": "49424-7261"
      },
      {
        "line": [
          "72 S. State St."
        ],
        "city": "SHELBY",
        "state": "MI",
        "postalCode": "49455-1228"
      },
      {
        "line": [
          "1 N. Atkinson Dr."
        ],
        "city": "LUDINGTON",
        "state": "MI",
        "postalCode": "49431-1906"
      },
      {
        "line": [
          "1212 E Sherman Blvd"
        ],
        "city": "MUSKEGON",
        "state": "MI",
        "postalCode": "49444-1879"
      },
      {
        "line": [
          "1212 E SHERMAN BLVD"
        ],
        "city": "MUSKEGON",
        "state": "MI",
        "postalCode": "49444-1852"
      },
      {
        "line": [
          "1700 CLINTON ST."
        ],
        "city": "MUSKEGON",
        "state": "MI",
        "postalCode": "49442-5502"
      },
      {
        "line": [
          "1309 Sheldon Rd"
        ],
        "city": "GRAND HAVEN",
        "state": "MI",
        "postalCode": "49417-2404"
      },
      {
        "line": [
          "2525 Roberts St."
        ],
        "city": "MUSKEGON",
        "state": "MI",
        "postalCode": "49444-1879"
      },
      {
        "line": [
          "1309 Sheldon"
        ],
        "city": "GRAND HAVEN",
        "state": "MI",
        "postalCode": "49417-2404"
      }
    ],
    "extension": [
      {
        "url": "https://fhir.athena.io/StructureDefinition/ah-practice",
        "valueReference": {
          "reference": "Organization/a-1.Practice-11692"
        }
      },
      {
        "url": "https://fhir.athena.io/StructureDefinition/ah-brand",
        "valueReference": {
          "reference": "Organization/a-11692.Brand-1"
        }
      }
    ]
  },
  "fullUrl": "urn:uuid:d7fbe323-4519-538c-a6c9-7e12eed43be3"
}