{
  "resource": {
    "resourceType": "Organization",
    "id": "860365eb-2cbf-5b03-8af5-795760669a7a",
    "name": "Ambulatory Center for Excellence Surgery",
    "endpoint": [
      {
        "reference": "Endpoint/27a4e967-47aa-5a9c-a572-b8297ee268a2"
      },
      {
        "reference": "Endpoint/e70cf017-66f7-5bac-be58-55d0841d14e9"
      }
    ],
    "identifier": [
      {
        "system": "http://hl7.org/fhir/sid/us-npi",
        "value": "1649563636"
      }
    ],
    "address": [
      {
        "line": [
          "1 CORPORATE DR"
        ],
        "city": "WAYNE",
        "state": "NJ",
        "postalCode": "07470-3112"
      },
      {
        "line": [
          "1255 BROAD ST STE 200"
        ],
        "city": "BLOOMFIELD",
        "state": "NJ",
        "postalCode": "07003-3061"
      },
      {
        "line": [
          "1 CLARA MASS"
        ],
        "city": "BELLEVILLE",
        "state": "NJ",
        "postalCode": "07109-3550"
      },
      {
        "line": [
          "97 West Parkway"
        ],
        "city": "POMPTON PLAINS",
        "state": "NJ",
        "postalCode": "07444-1647"
      },
      {
        "line": [
          "559 ANDERSON AVENUE"
        ],
        "city": "CLIFFSIDE PARK",
        "state": "NJ",
        "postalCode": "07010-1701"
      },
      {
        "line": [
          "1255 BROAD STREET"
        ],
        "city": "BLOOMFIELD",
        "state": "NJ",
        "postalCode": "07003-3061"
      },
      {
        "line": [
          "968 Hamburg TPK"
        ],
        "city": "WAYNE",
        "state": "NJ",
        "postalCode": "07470-3225"
      },
      {
        "line": [
          "2 EXECUTIVE DR",
          "SUITE 1"
        ],
        "city": "FORT LEE",
        "state": "NJ",
        "postalCode": "07024-3320"
      },
      {
        "line": [
          "559 ANDERSON AVENUE",
          "STE 1"
        ],
        "city": "CLIFFSIDE PARK",
        "state": "NJ",
        "postalCode": "07010-1701"
      },
      {
        "line": [
          "2333 Morris Avenue",
          "Suite C103"
        ],
        "city": "UNION",
        "state": "NJ",
        "postalCode": "07083-5717"
      },
      {
        "line": [
          "1095 MORRIS AVENUE"
        ],
        "city": "UNION",
        "state": "NJ",
        "postalCode": "07083-7143"
      },
      {
        "line": [
          "1255 BROAD ST STE 104"
        ],
        "city": "BLOOMFIELD",
        "state": "NJ",
        "postalCode": "07003-3061"
      },
      {
        "line": [
          "1 CORPORATE DRIVE"
        ],
        "city": "WAYNE",
        "state": "NJ",
        "postalCode": "07470-3112"
      },
      {
        "line": [
          "233 North VanDien Avenue"
        ],
        "city": "RIDGEWOOD",
        "state": "NJ",
        "postalCode": "07450-2700"
      },
      {
        "line": [
          "62 RIDGE RD"
        ],
        "city": "NORTH ARLINGTON",
        "state": "NJ",
        "postalCode": "07031-6318"
      },
      {
        "line": [
          "855 LEHIGH AVE STE 203"
        ],
        "city": "UNION",
        "state": "NJ",
        "postalCode": "07083-7631"
      },
      {
        "line": [
          "540 BERGEN BLVD"
        ],
        "city": "PALISADES PARK",
        "state": "NJ",
        "postalCode": "07650-2322"
      },
      {
        "line": [
          "XXXX"
        ],
        "city": "WEST NEW YORK",
        "state": "NJ",
        "postalCode": "07093-1660"
      },
      {
        "line": [
          "199 BROAD STREET",
          "STE 2B"
        ],
        "city": "BLOOMFIELD",
        "state": "NJ",
        "postalCode": "07003-2635"
      },
      {
        "line": [
          "1255 BROAD STREET",
          "STE 200"
        ],
        "city": "BLOOMFIELD",
        "state": "NJ",
        "postalCode": "07003-3061"
      },
      {
        "line": [
          "27 BAKER AVENUE"
        ],
        "city": "DOVER",
        "state": "NJ",
        "postalCode": "07801-2501"
      },
      {
        "line": [
          "18-01 POLLITT DRIVE"
        ],
        "city": "FAIR LAWN",
        "state": "NJ",
        "postalCode": "07410-2821"
      }
    ],
    "extension": [
      {
        "url": "https://fhir.athena.io/StructureDefinition/ah-practice",
        "valueReference": {
          "reference": "Organization/a-1.Practice-3162"
        }
      },
      {
        "url": "https://fhir.athena.io/StructureDefinition/ah-brand",
        "valueReference": {
          "reference": "Organization/a-3162.Brand-1"
        }
      }
    ]
  },
  "fullUrl": "urn:uuid:860365eb-2cbf-5b03-8af5-795760669a7a"
}