{
  "resource": {
    "resourceType": "Organization",
    "id": "6a3c3255-7801-501f-be06-635c4681debb",
    "name": "Gabbi",
    "endpoint": [
      {
        "reference": "Endpoint/27a4e967-47aa-5a9c-a572-b8297ee268a2"
      },
      {
        "reference": "Endpoint/12eac736-eece-511c-af97-91d8e8ca6f0d"
      }
    ],
    "identifier": [
      {
        "system": "http://hl7.org/fhir/sid/us-npi",
        "value": "1952174757"
      },
      {
        "system": "http://hl7.org/fhir/sid/us-npi",
        "value": "1285469346"
      }
    ],
    "address": [
      {
        "line": [
          "3900 WESTERRE PKWY STE 300"
        ],
        "city": "RICHMOND",
        "state": "VA",
        "postalCode": "23233-1339"
      },
      {
        "line": [
          "470 OLDE WORTHINGTON RD STE 200"
        ],
        "city": "COLUMBUS",
        "state": "OH",
        "postalCode": "43082-9127"
      },
      {
        "line": [
          "450 ALASKAN WAY S STE 200"
        ],
        "city": "SEATTLE",
        "state": "WA",
        "postalCode": "98104-2785"
      },
      {
        "line": [
          "8270 WOODLAND CENTER BLVD"
        ],
        "city": "TAMPA",
        "state": "FL",
        "postalCode": "33614-2401"
      },
      {
        "line": [
          "5050 QUORUM DR STE 700"
        ],
        "city": "DALLAS",
        "state": "TX",
        "postalCode": "75254-1410"
      },
      {
        "line": [
          "1700 HOSPITAL SOUTH DR STE 500"
        ],
        "city": "AUSTELL",
        "state": "GA",
        "postalCode": "30106-8159"
      },
      {
        "line": [
          "136 MADISON AVE FL 5-6"
        ],
        "city": "NEW YORK",
        "state": "NY",
        "postalCode": "10016-6796"
      },
      {
        "line": [
          "401 N MICHIGAN AVE STE 1200"
        ],
        "city": "CHICAGO",
        "state": "IL",
        "postalCode": "60611-4264"
      },
      {
        "line": [
          "6203 SAN IGNACIO AVE STE 110"
        ],
        "city": "SAN JOSE",
        "state": "CA",
        "postalCode": "95119-1358"
      },
      {
        "line": [
          "6991 E CAMELBACK RD STE D300"
        ],
        "city": "SCOTTSDALE",
        "state": "AZ",
        "postalCode": "85251-2492"
      },
      {
        "line": [
          "10350 N VANCOUVER WAY PMB 1067"
        ],
        "city": "PORTLAND",
        "state": "OR",
        "postalCode": "97217-7530"
      },
      {
        "line": [
          "3597 E MONARCH SKY LN"
        ],
        "city": "MERIDIAN",
        "state": "ID",
        "postalCode": "83646-1053"
      }
    ],
    "extension": [
      {
        "url": "https://fhir.athena.io/StructureDefinition/ah-practice",
        "valueReference": {
          "reference": "Organization/a-1.Practice-31900"
        }
      },
      {
        "url": "https://fhir.athena.io/StructureDefinition/ah-brand",
        "valueReference": {
          "reference": "Organization/a-31900.Brand-1"
        }
      }
    ]
  },
  "fullUrl": "urn:uuid:6a3c3255-7801-501f-be06-635c4681debb"
}