{
  "resource": {
    "resourceType": "Organization",
    "id": "5e77f58a-6b72-535b-8932-5893998d0a83",
    "name": "Ascension Texas Imaging",
    "endpoint": [
      {
        "reference": "Endpoint/27a4e967-47aa-5a9c-a572-b8297ee268a2"
      },
      {
        "reference": "Endpoint/9cc18d86-9cfd-51f4-8362-613d94d57769"
      }
    ],
    "identifier": [
      {
        "system": "http://hl7.org/fhir/sid/us-npi",
        "value": "1508489782"
      },
      {
        "system": "http://hl7.org/fhir/sid/us-npi",
        "value": "1629538491"
      },
      {
        "system": "http://hl7.org/fhir/sid/us-npi",
        "value": "1730412388"
      },
      {
        "system": "http://hl7.org/fhir/sid/us-npi",
        "value": "1275290694"
      },
      {
        "system": "http://hl7.org/fhir/sid/us-npi",
        "value": "1962025148"
      },
      {
        "system": "http://hl7.org/fhir/sid/us-npi",
        "value": "1588997233"
      }
    ],
    "address": [
      {
        "line": [
          "5103 Kyle Center Dr",
          "STE 108"
        ],
        "city": "KYLE",
        "state": "TX",
        "postalCode": "78640-6164"
      },
      {
        "line": [
          "800 W Central TX Expressway",
          "STE 155"
        ],
        "city": "HARKER HEIGHTS",
        "state": "TX",
        "postalCode": "76548-1995"
      },
      {
        "line": [
          "11111 Research Blvd",
          "Suite 210"
        ],
        "city": "AUSTIN",
        "state": "TX",
        "postalCode": "78759-5791"
      },
      {
        "line": [
          "201 University Oaks Blvd",
          "Suite 1260"
        ],
        "city": "ROUND ROCK",
        "state": "TX",
        "postalCode": "78665-2437"
      },
      {
        "line": [
          "1101 Wolf Lake Dr",
          "STE 225"
        ],
        "city": "GEORGETOWN",
        "state": "TX",
        "postalCode": "78628-3778"
      },
      {
        "line": [
          "1101 Wolf Lake Dr",
          "STE 100"
        ],
        "city": "GEORGETOWN",
        "state": "TX",
        "postalCode": "78628-3778"
      },
      {
        "line": [
          "1004 W 32nd St",
          "STE 100"
        ],
        "city": "AUSTIN",
        "state": "TX",
        "postalCode": "78705-1915"
      },
      {
        "line": [
          "1004 W 32nd Street",
          "Ste 110"
        ],
        "city": "AUSTIN",
        "state": "TX",
        "postalCode": "78705-1915"
      },
      {
        "line": [
          "11111 Research Blvd  Suite 210"
        ],
        "city": "AUSTIN",
        "state": "TX",
        "postalCode": "78759-5791"
      },
      {
        "line": [
          "1905 SW H K  Dodgen Loop"
        ],
        "city": "TEMPLE",
        "state": "TX",
        "postalCode": "76502-1814"
      },
      {
        "line": [
          "1004 W 32nd St  Ste 110"
        ],
        "city": "AUSTIN",
        "state": "TX",
        "postalCode": "78705-1915"
      },
      {
        "line": [
          "1905 SW H K Dodgen Loop"
        ],
        "city": "TEMPLE",
        "state": "TX",
        "postalCode": "76502-1814"
      },
      {
        "line": [
          "1101 Wolf Lakes DR",
          "STE 100"
        ],
        "city": "GEORGETOWN",
        "state": "TX",
        "postalCode": "78628-3778"
      },
      {
        "line": [
          "1101 Wolf Lakes Drive",
          "STE 225"
        ],
        "city": "GEORGETOWN",
        "state": "TX",
        "postalCode": "78628-3778"
      },
      {
        "line": [
          "5103 Kyle Center Drive",
          "STE 108"
        ],
        "city": "KYLE",
        "state": "TX",
        "postalCode": "78640-6164"
      },
      {
        "line": [
          "1015 W University Ave",
          "STE 700"
        ],
        "city": "GEORGETOWN",
        "state": "TX",
        "postalCode": "78628-5355"
      },
      {
        "line": [
          "1909 SW HK Dodgen loop"
        ],
        "city": "Temple",
        "state": "TX",
        "postalCode": "76502-1814"
      },
      {
        "line": [
          "1909 SW HK Dodgen Loop"
        ],
        "city": "TEMPLE",
        "state": "TX",
        "postalCode": "76502-1814"
      },
      {
        "line": [
          "5103 Kyle Center Drive Suite 108"
        ],
        "city": "KYLE",
        "state": "TX",
        "postalCode": "78640-6164"
      }
    ],
    "extension": [
      {
        "url": "https://fhir.athena.io/StructureDefinition/ah-practice",
        "valueReference": {
          "reference": "Organization/a-1.Practice-8363"
        }
      },
      {
        "url": "https://fhir.athena.io/StructureDefinition/ah-brand",
        "valueReference": {
          "reference": "Organization/a-8363.Brand-1"
        }
      }
    ]
  },
  "fullUrl": "urn:uuid:5e77f58a-6b72-535b-8932-5893998d0a83"
}