{
  "resource": {
    "resourceType": "Organization",
    "id": "7c03c865-5a83-591b-ad73-96af84408be5",
    "name": "Amita St Marys Hospital",
    "endpoint": [
      {
        "reference": "Endpoint/27a4e967-47aa-5a9c-a572-b8297ee268a2"
      },
      {
        "reference": "Endpoint/313a92ed-bf6a-508f-8444-d3d9474eaab4"
      }
    ],
    "identifier": [
      {
        "system": "http://hl7.org/fhir/sid/us-npi",
        "value": "1205922432"
      }
    ],
    "address": [
      {
        "line": [
          "500 W Court St"
        ],
        "city": "KANKAKEE",
        "state": "IL",
        "postalCode": "60901-2901"
      },
      {
        "line": [
          "1890 SILVER CROSS BLVD"
        ],
        "city": "NEW LENOX",
        "state": "IL",
        "postalCode": "60451-9524"
      },
      {
        "line": [
          "1 university dr"
        ],
        "city": "BOURBONNAIS",
        "state": "IL",
        "postalCode": "60914-9998"
      },
      {
        "line": [
          "19552 S Harlem Ave"
        ],
        "city": "FRANKFORT",
        "state": "IL",
        "postalCode": "60423-6733"
      },
      {
        "line": [
          "400 S Kennedy Dr Suite 100"
        ],
        "city": "BRADLEY",
        "state": "IL",
        "postalCode": "60915-2685"
      },
      {
        "line": [
          "530 N Cass Ave"
        ],
        "city": "WESTMONT",
        "state": "IL",
        "postalCode": "60559-1503"
      },
      {
        "line": [
          "400 S Kennedy Drive"
        ],
        "city": "BRADLEY",
        "state": "IL",
        "postalCode": "60915-1004"
      },
      {
        "line": [
          "200 Fairman"
        ],
        "city": "WATSEKA",
        "state": "IL",
        "postalCode": "60970-1644"
      },
      {
        "line": [
          "400 s. Kennedy"
        ],
        "city": "BOURBONNAIS",
        "state": "IL",
        "postalCode": "60914-9998"
      },
      {
        "line": [
          "400 S Kennedy Dr Ste 100"
        ],
        "city": "BRADLEY",
        "state": "IL",
        "postalCode": "60915-2685"
      },
      {
        "line": [
          "500 W Court St"
        ],
        "city": "KANKAKEE",
        "state": "IL",
        "postalCode": "60901-1209"
      },
      {
        "line": [
          "1890 Silver Cross Blvd",
          "Pavilion A, Lower Level"
        ],
        "city": "NEW LENOX",
        "state": "IL",
        "postalCode": "60451-9524"
      }
    ],
    "extension": [
      {
        "url": "https://fhir.athena.io/StructureDefinition/ah-practice",
        "valueReference": {
          "reference": "Organization/a-1.Practice-8039"
        }
      },
      {
        "url": "https://fhir.athena.io/StructureDefinition/ah-brand",
        "valueReference": {
          "reference": "Organization/a-8039.Brand-1"
        }
      }
    ]
  },
  "fullUrl": "urn:uuid:7c03c865-5a83-591b-ad73-96af84408be5"
}