{
  "resource": {
    "resourceType": "Organization",
    "id": "393e22f3-09e2-5773-82d5-ec7703868b22",
    "name": "GLENWOOD SURGERY CENTER",
    "endpoint": [
      {
        "reference": "Endpoint/27a4e967-47aa-5a9c-a572-b8297ee268a2"
      },
      {
        "reference": "Endpoint/f7a42c88-95a9-58b7-99ef-7dc5c184afb9"
      }
    ],
    "identifier": [
      {
        "system": "http://hl7.org/fhir/sid/us-npi",
        "value": "1467649657"
      }
    ],
    "address": [
      {
        "line": [
          "8945 MAGNOLIA AVE",
          "SUITE 200"
        ],
        "city": "RIVERSIDE",
        "state": "CA",
        "postalCode": "92503-4436"
      },
      {
        "line": [
          "27450 Ynez Road",
          "Suite 128"
        ],
        "city": "TEMECULA",
        "state": "CA",
        "postalCode": "92591-4680"
      },
      {
        "line": [
          "25405 HANCOCK AVE"
        ],
        "city": "MURRIETA",
        "state": "CA",
        "postalCode": "92562-5982"
      },
      {
        "line": [
          "6900 BROCKTON AVE STE 103"
        ],
        "city": "RIVERSIDE",
        "state": "CA",
        "postalCode": "92506-3817"
      },
      {
        "line": [
          "123 MAIN ST"
        ],
        "city": "RIVERSIDE",
        "state": "CA",
        "postalCode": "92501-1023"
      },
      {
        "line": [
          "25915 BARTON RD",
          "SUITE 101"
        ],
        "city": "LOMA LINDA",
        "state": "CA",
        "postalCode": "92354-3818"
      },
      {
        "line": [
          "3989 Stetson Ave.",
          "Suite 102"
        ],
        "city": "HEMET",
        "state": "CA",
        "postalCode": "92545-9695"
      },
      {
        "line": [
          "27990 Sherman Road"
        ],
        "city": "SUN CITY",
        "state": "CA",
        "postalCode": "92585-9155"
      },
      {
        "line": [
          "6900 Brockton Ave.",
          "Suite 103"
        ],
        "city": "RIVERSIDE",
        "state": "CA",
        "postalCode": "92506-3817"
      }
    ],
    "extension": [
      {
        "url": "https://fhir.athena.io/StructureDefinition/ah-practice",
        "valueReference": {
          "reference": "Organization/a-1.Practice-7620"
        }
      },
      {
        "url": "https://fhir.athena.io/StructureDefinition/ah-brand",
        "valueReference": {
          "reference": "Organization/a-7620.Brand-1"
        }
      }
    ]
  },
  "fullUrl": "urn:uuid:393e22f3-09e2-5773-82d5-ec7703868b22"
}