{
  "resource": {
    "resourceType": "Organization",
    "id": "f9b06b5a-a3c0-5dea-aea9-4d9092426ca5",
    "name": "NewYork Presbyterian Medical Group/Queens",
    "endpoint": [
      {
        "reference": "Endpoint/27a4e967-47aa-5a9c-a572-b8297ee268a2"
      },
      {
        "reference": "Endpoint/8d4398b3-4631-56f3-8b92-ee64e6d59c69"
      }
    ],
    "identifier": [
      {
        "system": "http://hl7.org/fhir/sid/us-npi",
        "value": "1003114851"
      }
    ],
    "address": [
      {
        "line": [
          "56-45 Main Street"
        ],
        "city": "Flushing",
        "state": "NY",
        "postalCode": "11355-5045"
      },
      {
        "line": [
          "75-68 187th Street",
          "1st Floor"
        ],
        "city": "Fresh Meadows",
        "state": "NY",
        "postalCode": "11366-1726"
      },
      {
        "line": [
          "72-41 Grand Avenue"
        ],
        "city": "Maspeth",
        "state": "NY",
        "postalCode": "11378-1532"
      },
      {
        "line": [
          "525 East 68th Street"
        ],
        "city": "New York",
        "state": "NY",
        "postalCode": "10065-4870"
      },
      {
        "line": [
          "163-03 Oak Avenue"
        ],
        "city": "Flushing",
        "state": "NY",
        "postalCode": "11358-3725"
      },
      {
        "line": [
          "72-06 Northern Boulevard",
          "2nd Floor"
        ],
        "city": "Jackson Heights",
        "state": "NY",
        "postalCode": "11372-1049"
      },
      {
        "line": [
          "525 East 68th Street"
        ],
        "city": "NEW YORK",
        "state": "NY",
        "postalCode": "10065-4870"
      },
      {
        "line": [
          "133-47 Sanford Avenue",
          "Suite 2C"
        ],
        "city": "Flushing",
        "state": "NY",
        "postalCode": "11355-5816"
      }
    ],
    "extension": [
      {
        "url": "https://fhir.athena.io/StructureDefinition/ah-practice",
        "valueReference": {
          "reference": "Organization/a-1.Practice-11917"
        }
      },
      {
        "url": "https://fhir.athena.io/StructureDefinition/ah-brand",
        "valueReference": {
          "reference": "Organization/a-11917.Brand-1"
        }
      }
    ]
  },
  "fullUrl": "urn:uuid:f9b06b5a-a3c0-5dea-aea9-4d9092426ca5"
}