{
  "resource": {
    "resourceType": "Organization",
    "id": "3604304c-f3f1-5e2c-b8c4-6031b7a042af",
    "name": "CATAWBA VALLEY BEHAVIORAL HEALTHCARE",
    "endpoint": [
      {
        "reference": "Endpoint/27a4e967-47aa-5a9c-a572-b8297ee268a2"
      },
      {
        "reference": "Endpoint/2a82b12b-3c94-555c-b15a-8b1186d082a3"
      }
    ],
    "identifier": [
      {
        "system": "http://hl7.org/fhir/sid/us-npi",
        "value": "1073824330"
      },
      {
        "system": "http://hl7.org/fhir/sid/us-npi",
        "value": "1962478362"
      }
    ],
    "address": [
      {
        "line": [
          "350 E. Parker Rd. Suite 100"
        ],
        "city": "MORGANTON",
        "state": "NC",
        "postalCode": "28655-5155"
      },
      {
        "line": [
          "120 West C Street"
        ],
        "city": "NEWTON",
        "state": "NC",
        "postalCode": "28658-1933"
      },
      {
        "line": [
          "3060 11th Ave Dr. SE"
        ],
        "city": "HICKORY",
        "state": "NC",
        "postalCode": "28602-8336"
      },
      {
        "line": [
          "1018 5th St SE"
        ],
        "city": "HICKORY",
        "state": "NC",
        "postalCode": "28602-3918"
      },
      {
        "line": [],
        "city": "HICKORY",
        "state": "NC",
        "postalCode": "28601-6122"
      },
      {
        "line": [
          "1516 Steeple Street NE"
        ],
        "city": "CONOVER",
        "state": "NC",
        "postalCode": "28613-7506"
      },
      {
        "line": [
          "20 4th St. SW"
        ],
        "city": "HICKORY",
        "state": "NC",
        "postalCode": "28602-2963"
      },
      {
        "line": [
          "722 8th Ave SW"
        ],
        "city": "CONOVER",
        "state": "NC",
        "postalCode": "28613-2951"
      },
      {
        "line": [
          "327 1ST AVE NW"
        ],
        "city": "HICKORY",
        "state": "NC",
        "postalCode": "28601-6122"
      },
      {
        "line": [
          "401 N. 4th Ave."
        ],
        "city": "MAIDEN",
        "state": "NC",
        "postalCode": "28650-4922"
      },
      {
        "line": [
          "350 E. Parker Rd. Suite 101"
        ],
        "city": "MORGANTON",
        "state": "NC",
        "postalCode": "28655-5155"
      },
      {
        "line": [
          "608 4th St. SW"
        ],
        "city": "CONOVER",
        "state": "NC",
        "postalCode": "28613-2635"
      },
      {
        "line": [
          "1679 US HWY 321 S"
        ],
        "city": "NEWTON",
        "state": "NC",
        "postalCode": "28658-8155"
      },
      {
        "line": [
          "2001 Eastside Drive"
        ],
        "city": "NEWTON",
        "state": "NC",
        "postalCode": "28658-1933"
      }
    ],
    "extension": [
      {
        "url": "https://fhir.athena.io/StructureDefinition/ah-practice",
        "valueReference": {
          "reference": "Organization/a-1.Practice-9539"
        }
      },
      {
        "url": "https://fhir.athena.io/StructureDefinition/ah-brand",
        "valueReference": {
          "reference": "Organization/a-9539.Brand-1"
        }
      }
    ]
  },
  "fullUrl": "urn:uuid:3604304c-f3f1-5e2c-b8c4-6031b7a042af"
}