{
  "resource": {
    "resourceType": "Organization",
    "id": "ca0c6c52-ee07-5a04-bbcc-b1427464d852",
    "name": "Optum Medical Care of New Jersey, P.C.",
    "endpoint": [
      {
        "reference": "Endpoint/27a4e967-47aa-5a9c-a572-b8297ee268a2"
      },
      {
        "reference": "Endpoint/af901c54-008e-531e-8bda-f2f77b33f6b9"
      }
    ],
    "identifier": [
      {
        "system": "http://hl7.org/fhir/sid/us-npi",
        "value": "1760515860"
      },
      {
        "system": "http://hl7.org/fhir/sid/us-npi",
        "value": "1578665048"
      }
    ],
    "address": [
      {
        "line": [
          "96 Parkway"
        ],
        "city": "ROCHELLE PARK",
        "state": "NJ",
        "postalCode": "07662-4200"
      },
      {
        "line": [
          "47W. GreenbrookRd"
        ],
        "city": "FAIRFIELD",
        "state": "NJ",
        "postalCode": "07004-3890"
      },
      {
        "line": [
          "165 Fairfield Ave"
        ],
        "city": "CALDWELL",
        "state": "NJ",
        "postalCode": "07006-7457"
      },
      {
        "line": [
          "23 Park Place"
        ],
        "city": "BLOOMFIELD",
        "state": "NJ",
        "postalCode": "07003-3513"
      },
      {
        "line": [
          "144 Gales Drive"
        ],
        "city": "NEW PROVIDENCE",
        "state": "NJ",
        "postalCode": "07974-2900"
      },
      {
        "line": [
          "1350 Route 22 West"
        ],
        "city": "MOUNTAINSIDE",
        "state": "NJ",
        "postalCode": "07092-2618"
      },
      {
        "line": [
          "2005 US Route 22 West"
        ],
        "city": "BRIDGEWATER",
        "state": "NJ",
        "postalCode": "08807-3294"
      },
      {
        "line": [
          "901 NorthWood Avenue"
        ],
        "city": "LINDEN",
        "state": "NJ",
        "postalCode": "07036-5200"
      },
      {
        "line": [
          "800 Hamburg Tpke"
        ],
        "city": "WAYNE",
        "state": "NJ",
        "postalCode": "07470-2019"
      },
      {
        "line": [
          "345 Eagle Rock Ave."
        ],
        "city": "ROSELAND",
        "state": "NJ",
        "postalCode": "07068-1607"
      },
      {
        "line": [
          "459 Passaic Ave"
        ],
        "city": "CALDWELL",
        "state": "NJ",
        "postalCode": "07006-7457"
      },
      {
        "line": [
          "718 Teaneck Road"
        ],
        "city": "TEANECK\t",
        "state": "NJ",
        "postalCode": "07666-4245"
      },
      {
        "line": [
          "404 King George Road"
        ],
        "city": "BASKING RIDGE",
        "state": "NJ",
        "postalCode": "07920-2808"
      },
      {
        "line": [
          "25 East Lindsley Road"
        ],
        "city": "CEDAR GROVE",
        "state": "NJ",
        "postalCode": "07009-1023"
      },
      {
        "line": [
          "800 River Road"
        ],
        "city": "NEW MILFORD",
        "state": "NJ",
        "postalCode": "07646-3127"
      },
      {
        "line": [
          "10 Jackson Drive"
        ],
        "city": "CRANFORD",
        "state": "NJ",
        "postalCode": "07016-3602"
      },
      {
        "line": [
          "184 Berdan Road"
        ],
        "city": "WAYNE",
        "state": "NJ",
        "postalCode": "07470-3232"
      },
      {
        "line": [
          "110 Grove Ave."
        ],
        "city": "CEDAR GROVE",
        "state": "NJ",
        "postalCode": "07009-1436"
      },
      {
        "line": [
          "135 South Center Street"
        ],
        "city": "ORANGE",
        "state": "NJ",
        "postalCode": "07050-3522"
      },
      {
        "line": [
          "114 Gales Drive"
        ],
        "city": "New Providence\t",
        "state": "NJ",
        "postalCode": "07944-2921"
      },
      {
        "line": [
          "600 Lincoln Park East"
        ],
        "city": "CRANFORD",
        "state": "NJ",
        "postalCode": "07016-3125"
      },
      {
        "line": [
          "1339 York Ave."
        ],
        "city": "NEW YORK",
        "state": "NY",
        "postalCode": "10021-4707"
      },
      {
        "line": [
          "1339 York Avenue"
        ],
        "city": "NEW YORK",
        "state": "NY",
        "postalCode": "10021-4707"
      },
      {
        "line": [
          "240 Springfield AVenue"
        ],
        "city": "WESTFIELD",
        "state": "NJ",
        "postalCode": "07090-1023"
      },
      {
        "line": [
          "21 Ridgedale Avenue"
        ],
        "city": "FLORHAM PARK",
        "state": "NJ",
        "postalCode": "07932-2336"
      },
      {
        "line": [
          "20 Summit Street"
        ],
        "city": "WEST ORANGE",
        "state": "NJ",
        "postalCode": "07052-1501"
      },
      {
        "line": [
          "One Clara Maass Drive"
        ],
        "city": "BELLEVILLE",
        "state": "NJ",
        "postalCode": "07109-3550"
      },
      {
        "line": [
          "472 N MOUNTAIN AVE"
        ],
        "city": "MONTCLAIR",
        "state": "NJ",
        "postalCode": "07042-0091"
      },
      {
        "line": [
          "101 Whippany Rd"
        ],
        "city": "WHIPPANY",
        "state": "NJ",
        "postalCode": "07981-1407"
      },
      {
        "line": [
          "100 Madison Avenue"
        ],
        "city": "MORRISTOWN",
        "state": "NJ",
        "postalCode": "07960-6136"
      },
      {
        "line": [
          "90 Burgen St"
        ],
        "city": "NEWARK",
        "state": "NJ",
        "postalCode": "07103-1051"
      },
      {
        "line": [
          "33 Overlook Road"
        ],
        "city": "SUMMIT",
        "state": "NJ",
        "postalCode": "07901-3570"
      },
      {
        "line": [
          "274 King George Road"
        ],
        "city": "WARREN",
        "state": "NJ",
        "postalCode": "07059-5157"
      },
      {
        "line": [
          "520 Prospect Ave"
        ],
        "city": "WEST ORANGE",
        "state": "NJ",
        "postalCode": "07052-3229"
      },
      {
        "line": [
          "301 Union Street"
        ],
        "city": "HACKENSACK",
        "state": "NJ",
        "postalCode": "07601-4304"
      },
      {
        "line": [
          "300 Old Hook Road"
        ],
        "city": "WESTWOOD",
        "state": "NJ",
        "postalCode": "07675-3122"
      },
      {
        "line": [
          "1180 Route 22 West"
        ],
        "city": "MOUNTAINSIDE",
        "state": "NJ",
        "postalCode": "07092-0709"
      },
      {
        "line": [
          "65 Jay Street"
        ],
        "city": "NEWARK",
        "state": "NJ",
        "postalCode": "07103-3235"
      },
      {
        "line": [
          "1155 Pleasant Valley Way"
        ],
        "city": "WEST ORANGE",
        "state": "NJ",
        "postalCode": "07052-1144"
      },
      {
        "line": [
          "96 Parkway"
        ],
        "city": "ROCHELLE PARK",
        "state": "NJ",
        "postalCode": "07662-2010"
      },
      {
        "line": [
          "200 Mazdabrook Road"
        ],
        "city": "PARSIPPANY",
        "state": "NJ",
        "postalCode": "07054-3301"
      },
      {
        "line": [
          "536 Ridge Road"
        ],
        "city": "CEDAR GROVE",
        "state": "NJ",
        "postalCode": "07009-1611"
      },
      {
        "line": [
          "1000 Galloping Hills Road"
        ],
        "city": "UNION",
        "state": "NJ",
        "postalCode": "07083-7989"
      },
      {
        "line": [
          "225 Williamson St"
        ],
        "city": "ELIZABETH",
        "state": "NJ",
        "postalCode": "07202-3625"
      },
      {
        "line": [
          "2385 Springfield Avenue"
        ],
        "city": "VAUXHALL",
        "state": "NJ",
        "postalCode": "07088-1046"
      },
      {
        "line": [
          "60 Lincoln Park East"
        ],
        "city": "CRANFORD",
        "state": "NJ",
        "postalCode": "07016-3602"
      },
      {
        "line": [
          "1120 Alps Road"
        ],
        "city": "WAYNE",
        "state": "NJ",
        "postalCode": "07470-3704"
      },
      {
        "line": [
          "197 Ridgedale Ave"
        ],
        "city": "CEDAR KNOLLS",
        "state": "NJ",
        "postalCode": "07927-2111"
      },
      {
        "line": [
          "30 Prospect Avenue"
        ],
        "city": "HACKENSACK\t",
        "state": "NJ",
        "postalCode": "07601-1914"
      },
      {
        "line": [
          "100 Mazdabrook Rd"
        ],
        "city": "PARSIPPANY",
        "state": "NJ",
        "postalCode": "07054-3304"
      },
      {
        "line": [
          "268 Martin Luther King BLVD"
        ],
        "city": "NEWARK",
        "state": "NJ",
        "postalCode": "07103-1051"
      },
      {
        "line": [
          "459 Passaic Ave."
        ],
        "city": "CALDWELL",
        "state": "NJ",
        "postalCode": "07006-7457"
      },
      {
        "line": [
          "1140 Black Oak Ridge Road"
        ],
        "city": "WAYNE",
        "state": "NJ",
        "postalCode": "07470-6347"
      },
      {
        "line": [
          "741 Northfield Avenue",
          "Suite 102"
        ],
        "city": "WEST ORANGE",
        "state": "NJ",
        "postalCode": "07052-1174"
      },
      {
        "line": [
          "135 S. CENTER STREET"
        ],
        "city": "ORANGE",
        "state": "NJ",
        "postalCode": "07050-3522"
      },
      {
        "line": [
          "336 Prospect Ave"
        ],
        "city": "HACKENSACK",
        "state": "NJ",
        "postalCode": "07601-2506"
      },
      {
        "line": [
          "206 Bergen Ave"
        ],
        "city": "KEARNY",
        "state": "NJ",
        "postalCode": "07032-2604"
      },
      {
        "line": [
          "201 Lyons Avenue at Osborne Terrace"
        ],
        "city": "NEWARK",
        "state": "NJ",
        "postalCode": "07112-2027"
      },
      {
        "line": [
          "21 Ridgedale Rd"
        ],
        "city": "FLORHAM PARK",
        "state": "NJ",
        "postalCode": "07932-2336"
      },
      {
        "line": [
          "130 Terhune Drive"
        ],
        "city": "WAYNE",
        "state": "NJ",
        "postalCode": "07470-7104"
      },
      {
        "line": [
          "345 Eagle Rock Avenue"
        ],
        "city": "ROSELAND",
        "state": "NJ",
        "postalCode": "07068-1768"
      },
      {
        "line": [
          "200 Reynolds Ave"
        ],
        "city": "PARSIPPANY",
        "state": "NJ",
        "postalCode": "07054-3326"
      },
      {
        "line": [
          "820 Hamburg Tpke"
        ],
        "city": "WAYNE",
        "state": "NJ",
        "postalCode": "07470-2019"
      },
      {
        "line": [
          "209 Littleton Road"
        ],
        "city": "MORRIS PLAINS",
        "state": "NJ",
        "postalCode": "07950-2134"
      },
      {
        "line": [
          "295 South Ave"
        ],
        "city": "FANWOOD",
        "state": "NJ",
        "postalCode": "07023-1357"
      },
      {
        "line": [
          "101 WHIPPANY RD"
        ],
        "city": "WHIPPANY",
        "state": "NJ",
        "postalCode": "07981-1407"
      },
      {
        "line": [
          "250 Bloomfield Ave"
        ],
        "city": "BLOOMFIELD",
        "state": "NJ",
        "postalCode": "07003-5689"
      },
      {
        "line": [
          "110 Grove Avenue"
        ],
        "city": "CEDAR GROVE",
        "state": "NJ",
        "postalCode": "07009-1436"
      },
      {
        "line": [
          "54 South Dean Sstreet"
        ],
        "city": "ENGLEWOOD",
        "state": "NJ",
        "postalCode": "07631-3514"
      },
      {
        "line": [
          "184 Bordan Ave"
        ],
        "city": "WAYNE",
        "state": "NJ",
        "postalCode": "07470-3232"
      },
      {
        "line": [
          "495 North 13th Street"
        ],
        "city": "NEWARK\t",
        "state": "NJ",
        "postalCode": "07107-1317"
      },
      {
        "line": [
          "560 berkeley ave"
        ],
        "city": "ORANGE",
        "state": "NJ",
        "postalCode": "07050-3522"
      },
      {
        "line": [
          "311 Sringfield Ave"
        ],
        "city": "BERKELEY HEIGHTS",
        "state": "NJ",
        "postalCode": "07922-1215"
      },
      {
        "line": [
          "77 E 43rd Street"
        ],
        "city": "PATERSON",
        "state": "NJ",
        "postalCode": "07514-1116"
      },
      {
        "line": [
          "18 Eden La."
        ],
        "city": "WHIPPANY",
        "state": "NJ",
        "postalCode": "07981-1402"
      },
      {
        "line": [
          "195 Belgrove Drive"
        ],
        "city": "KEARNY",
        "state": "NJ",
        "postalCode": "07032-2010"
      },
      {
        "line": [
          "703 Main Street"
        ],
        "city": "PATERSON",
        "state": "NJ",
        "postalCode": "07503-2621"
      },
      {
        "line": [
          "348 E Cedar St"
        ],
        "city": "LIVINGSTON",
        "state": "NJ",
        "postalCode": "07039-5672"
      },
      {
        "line": [
          "680 US-202"
        ],
        "city": "BRIDGEWATER",
        "state": "NJ",
        "postalCode": "08807-3294"
      },
      {
        "line": [
          "1 BAY AVENUE"
        ],
        "city": "MONTCLAIR\t",
        "state": "NJ",
        "postalCode": "07042-4837"
      },
      {
        "line": [
          "77 Madison Avenue"
        ],
        "city": "MORRISTOWN",
        "state": "NJ",
        "postalCode": "07960-7330"
      },
      {
        "line": [
          "799 BLOOMFIELD AVENUE"
        ],
        "city": "VERONA",
        "state": "NJ",
        "postalCode": "07044-1301"
      },
      {
        "line": [
          "240 Springfield Ave"
        ],
        "city": "WESTFIELD",
        "state": "NJ",
        "postalCode": "07090-1023"
      },
      {
        "line": [
          "1515 Lamberts Mill Road"
        ],
        "city": "WESTFIELD",
        "state": "NJ",
        "postalCode": "07090-4763"
      },
      {
        "line": [
          "17 Spring STreet"
        ],
        "city": "MORRISTOWN",
        "state": "NJ",
        "postalCode": "07960-3947"
      },
      {
        "line": [
          "94 Old Short Hills Road"
        ],
        "city": "LIVINGSTON",
        "state": "NJ",
        "postalCode": "07039-5672"
      },
      {
        "line": [
          "1 BAY AVENUE"
        ],
        "city": "MONTCLAIR",
        "state": "NJ",
        "postalCode": "07042-4837"
      },
      {
        "line": [
          "404 King George Rd"
        ],
        "city": "BASKING RIDGE",
        "state": "NJ",
        "postalCode": "07920-2808"
      },
      {
        "line": [
          "400 West Stimpson Avenue"
        ],
        "city": "LINDEN",
        "state": "NJ",
        "postalCode": "07036-4434"
      },
      {
        "line": [
          "84 Cold Hill Road"
        ],
        "city": "MENDHAM",
        "state": "NJ",
        "postalCode": "07945-2021"
      },
      {
        "line": [
          "61 D Main Street"
        ],
        "city": "WEST ORANGE",
        "state": "NJ",
        "postalCode": "07052-5353"
      },
      {
        "line": [
          "205 Birchwood Ave"
        ],
        "city": "CRANFORD",
        "state": "NJ",
        "postalCode": "07016-2515"
      },
      {
        "line": [
          "111 Central Ave"
        ],
        "city": "NEWARK",
        "state": "NJ",
        "postalCode": "07103-1051"
      },
      {
        "line": [
          "865 Stone Street"
        ],
        "city": "RAHWAY",
        "state": "NJ",
        "postalCode": "07065-4231"
      },
      {
        "line": [
          "544 Teaneck Road"
        ],
        "city": "TEANECK",
        "state": "NJ",
        "postalCode": "07666-4141"
      },
      {
        "line": [
          "495 N 13th ST."
        ],
        "city": "NEWARK",
        "state": "NJ",
        "postalCode": "07101-1317"
      },
      {
        "line": [
          "787 Northfield Avenue"
        ],
        "city": "WEST ORANGE",
        "state": "NJ",
        "postalCode": "07052-1144"
      },
      {
        "line": [
          "155 40th Street"
        ],
        "city": "IRVINGTON",
        "state": "NJ",
        "postalCode": "07111-1184"
      },
      {
        "line": [
          "300 Broadway"
        ],
        "city": "NEWARK",
        "state": "NJ",
        "postalCode": "07104-8000"
      }
    ],
    "extension": [
      {
        "url": "https://fhir.athena.io/StructureDefinition/ah-practice",
        "valueReference": {
          "reference": "Organization/a-1.Practice-17375"
        }
      },
      {
        "url": "https://fhir.athena.io/StructureDefinition/ah-brand",
        "valueReference": {
          "reference": "Organization/a-17375.Brand-1"
        }
      }
    ]
  },
  "fullUrl": "urn:uuid:ca0c6c52-ee07-5a04-bbcc-b1427464d852"
}