{
  "resource": {
    "resourceType": "Organization",
    "id": "b92fe8d2-49e8-5751-a6f4-3a8dcda50938",
    "name": "Array AtHome",
    "endpoint": [
      {
        "reference": "Endpoint/27a4e967-47aa-5a9c-a572-b8297ee268a2"
      },
      {
        "reference": "Endpoint/4fd3e67b-856f-519d-9d3b-fa8c798f4025"
      }
    ],
    "identifier": [
      {
        "system": "http://hl7.org/fhir/sid/us-npi",
        "value": "1134711138"
      }
    ],
    "address": [
      {
        "line": [
          "5 W MENDENHALL ST STE 202"
        ],
        "city": "BOZEMAN",
        "state": "MT",
        "postalCode": "59715-3566"
      },
      {
        "line": [
          "445 MINNESOTA ST STE 1500"
        ],
        "city": "SAINT PAUL",
        "state": "MN",
        "postalCode": "55101-2269"
      },
      {
        "line": [
          "100 CHESTERFIELD BUSINESS PKWY FL 2"
        ],
        "city": "CHESTERFIELD",
        "state": "MO",
        "postalCode": "63005-1271"
      },
      {
        "line": [
          "4525 N RAVENSWOOD AVE STE 201"
        ],
        "city": "CHICAGO",
        "state": "IL",
        "postalCode": "60640-5201"
      },
      {
        "line": [
          "1000 HIGHLAND COLONY PKWY",
          "BLDG 500, STE 5203"
        ],
        "city": "RIDGELAND",
        "state": "MS",
        "postalCode": "39157-2073"
      },
      {
        "line": [
          "871 CORONADO CENTER DR STE 200"
        ],
        "city": "HENDERSON",
        "state": "NV",
        "postalCode": "89052-3977"
      },
      {
        "line": [
          "9465 COUNSELORS ROW STE 200"
        ],
        "city": "INDIANAPOLIS",
        "state": "IN",
        "postalCode": "46240-3817"
      },
      {
        "line": [
          "10260 SW GREENBURG RD FL 4"
        ],
        "city": "PORTLAND",
        "state": "OR",
        "postalCode": "97223-5500"
      },
      {
        "line": [
          "615 SAINT GEORGE SQUARE CT STE 300"
        ],
        "city": "WINSTON SALEM",
        "state": "NC",
        "postalCode": "27103-1368"
      },
      {
        "line": [
          "90 CANAL ST FL 4"
        ],
        "city": "BOSTON",
        "state": "MA",
        "postalCode": "02114-2018"
      },
      {
        "line": [
          "312 S 4TH ST STE 700"
        ],
        "city": "LOUISVILLE",
        "state": "KY",
        "postalCode": "40202-3046"
      },
      {
        "line": [
          "100 E CAMPUS VIEW BLVD STE 250"
        ],
        "city": "COLUMBUS",
        "state": "OH",
        "postalCode": "43235-4682"
      },
      {
        "line": [
          "145 PINE HAVEN SHORES RD"
        ],
        "city": "SHELBURNE",
        "state": "VT",
        "postalCode": "05482-7703"
      },
      {
        "line": [
          "6700 ALEXANDER BELL DR STE 200"
        ],
        "city": "COLUMBIA",
        "state": "MD",
        "postalCode": "21046-2105"
      },
      {
        "line": [
          "801 E DOUGLAS AVE FL 2ND"
        ],
        "city": "WICHITA",
        "state": "KS",
        "postalCode": "67202-3515"
      },
      {
        "line": [
          "1320 CENTRAL PARK BLVD STE 200"
        ],
        "city": "FREDERICKSBURG",
        "state": "VA",
        "postalCode": "22401-4953"
      },
      {
        "line": [
          "4500 MERCANTILE PLAZA DR STE 300"
        ],
        "city": "FORT WORTH",
        "state": "TX",
        "postalCode": "76137-4206"
      },
      {
        "line": [
          "80 BROAD ST FL 5"
        ],
        "city": "NEW YORK",
        "state": "NY",
        "postalCode": "10004-2257"
      },
      {
        "line": [
          "2900 WESTFORK DR STE 401"
        ],
        "city": "BATON ROUGE",
        "state": "LA",
        "postalCode": "70827-0004"
      },
      {
        "line": [
          "6 CITY CTR"
        ],
        "city": "PORTLAND",
        "state": "ME",
        "postalCode": "04101-4000"
      },
      {
        "line": [
          "1712 PIONEER AVE"
        ],
        "city": "CHEYENNE",
        "state": "WY",
        "postalCode": "82001-4406"
      },
      {
        "line": [
          "11414 W PARK PL STE 202"
        ],
        "city": "MILWAUKEE",
        "state": "WI",
        "postalCode": "53224-3500"
      },
      {
        "line": [
          "3523 45TH ST S STE 100"
        ],
        "city": "FARGO",
        "state": "ND",
        "postalCode": "58104-8962"
      },
      {
        "line": [
          "1455 NW LEARY WAY STE 200"
        ],
        "city": "SEATTLE",
        "state": "WA",
        "postalCode": "98107-5137"
      },
      {
        "line": [
          "500 MARQUETTE AVE NW STE 1200"
        ],
        "city": "ALBUQUERQUE",
        "state": "NM",
        "postalCode": "87102-5312"
      },
      {
        "line": [
          "500 NORTH COMMERCIAL ST STE 502"
        ],
        "city": "MANCHESTER",
        "state": "NH",
        "postalCode": "03101-1151"
      },
      {
        "line": [
          "1831 E 71ST ST"
        ],
        "city": "TULSA",
        "state": "OK",
        "postalCode": "74136-3922"
      },
      {
        "line": [
          "6975 S UNION PARK CTR STE 600"
        ],
        "city": "COTTONWOOD HEIGHTS",
        "state": "UT",
        "postalCode": "84047-4187"
      },
      {
        "line": [
          "101 S REID ST # 107"
        ],
        "city": "SIOUX FALLS",
        "state": "SD",
        "postalCode": "57103-7030"
      },
      {
        "line": [
          "3597 E MONARCH SKY LN STE F-240"
        ],
        "city": "MERIDIAN",
        "state": "ID",
        "postalCode": "83646-1053"
      },
      {
        "line": [
          "6000 POPLAR AVE STE 250"
        ],
        "city": "MEMPHIS",
        "state": "TN",
        "postalCode": "38119-3974"
      },
      {
        "line": [
          "110 TRADERS CROSS FL 1"
        ],
        "city": "BLUFFTON",
        "state": "SC",
        "postalCode": "29909-4637"
      },
      {
        "line": [
          "3501 MACCORKLE AVE SE"
        ],
        "city": "CHARLESTON",
        "state": "WV",
        "postalCode": "25304-1419"
      },
      {
        "line": [
          "41000 WOODWARD AVE STE 350"
        ],
        "city": "BLOOMFIELD HILLS",
        "state": "MI",
        "postalCode": "48304-5092"
      },
      {
        "line": [
          "10 DORRANCE ST STE 700"
        ],
        "city": "PROVIDENCE",
        "state": "RI",
        "postalCode": "02903-2014"
      },
      {
        "line": [
          "1299 FARNAM ST STE 300"
        ],
        "city": "OMAHA",
        "state": "NE",
        "postalCode": "68102-1857"
      },
      {
        "line": [
          "699 WALNUT ST STE 4"
        ],
        "city": "DES MOINES",
        "state": "IA",
        "postalCode": "50309-3949"
      },
      {
        "line": [
          "201 KING OF PRUSSIA RD STE 650"
        ],
        "city": "WAYNE",
        "state": "PA",
        "postalCode": "19087-5156"
      }
    ],
    "extension": [
      {
        "url": "https://fhir.athena.io/StructureDefinition/ah-practice",
        "valueReference": {
          "reference": "Organization/a-1.Practice-24284"
        }
      },
      {
        "url": "https://fhir.athena.io/StructureDefinition/ah-brand",
        "valueReference": {
          "reference": "Organization/a-24284.Brand-1"
        }
      }
    ]
  },
  "fullUrl": "urn:uuid:b92fe8d2-49e8-5751-a6f4-3a8dcda50938"
}