{
  "resource": {
    "resourceType": "Organization",
    "id": "0f448927-46e4-5a3f-87b8-7d1aba363be1",
    "name": "n/a",
    "endpoint": [
      {
        "reference": "Endpoint/27a4e967-47aa-5a9c-a572-b8297ee268a2"
      },
      {
        "reference": "Endpoint/5b9579ad-104d-5251-a27e-72a50a776b49"
      }
    ],
    "identifier": [
      {
        "system": "http://hl7.org/fhir/sid/us-npi",
        "value": "1811122880"
      }
    ],
    "address": [
      {
        "line": [
          "11161 HEALTHPARK BLVD"
        ],
        "city": "NAPLES",
        "state": "FL",
        "postalCode": "34110-5730"
      },
      {
        "line": [
          "2776 CLEVELAND AVE"
        ],
        "city": "FORT MYERS",
        "state": "FL",
        "postalCode": "33901-5856"
      },
      {
        "line": [
          "15201 N CLEVELAND AVE STE 1010"
        ],
        "city": "NORTH FORT MYERS",
        "state": "FL",
        "postalCode": "33903-2717"
      },
      {
        "line": [
          "13681 DOCTOR'S WAY"
        ],
        "city": "FORT MYERS",
        "state": "FL",
        "postalCode": "33912-4300"
      },
      {
        "line": [
          "11190 HEALTH PARK BLVD"
        ],
        "city": "NAPLES",
        "state": "FL",
        "postalCode": "34110-5729"
      },
      {
        "line": [
          "23013 WESTCHESTER BLVD"
        ],
        "city": "PORT CHARLOTTE",
        "state": "FL",
        "postalCode": "33980-8448"
      },
      {
        "line": [
          "6940 OUTREACH WAY"
        ],
        "city": "NORTH PORT",
        "state": "FL",
        "postalCode": "34287-3405"
      },
      {
        "line": [
          "3067 TAMIAMI TRL",
          "STE 4"
        ],
        "city": "PORT CHARLOTTE",
        "state": "FL",
        "postalCode": "33952-6619"
      },
      {
        "line": [
          "2343 AARON ST"
        ],
        "city": "PORT CHARLOTTE",
        "state": "FL",
        "postalCode": "33952-5305"
      },
      {
        "line": [
          "14400 TAMIAMI TRAIL"
        ],
        "city": "NORTH PORT",
        "state": "FL",
        "postalCode": "34287-2703"
      },
      {
        "line": [
          "2826 Cleveland Ave"
        ],
        "city": "FORT MYERS",
        "state": "FL",
        "postalCode": "33901-6001"
      },
      {
        "line": [
          "350 7TH ST N"
        ],
        "city": "NAPLES",
        "state": "FL",
        "postalCode": "34102-5754"
      },
      {
        "line": [
          "18440 COCHRAN BLVD"
        ],
        "city": "PORT CHARLOTTE",
        "state": "FL",
        "postalCode": "33948-3343"
      },
      {
        "line": [
          "9981 S HEALTHPARK DRIVE"
        ],
        "city": "FORT MYERS",
        "state": "FL",
        "postalCode": "33908-3618"
      },
      {
        "line": [
          "350 7TH ST NORTH"
        ],
        "city": "NAPLES",
        "state": "FL",
        "postalCode": "34102-5754"
      },
      {
        "line": [
          "636 DEL PRADO BLVD"
        ],
        "city": "CAPE CORAL",
        "state": "FL",
        "postalCode": "33990-2695"
      },
      {
        "line": [
          "18400 COCHRAN BLVD"
        ],
        "city": "PORT CHARLOTTE",
        "state": "FL",
        "postalCode": "33948-3343"
      },
      {
        "line": [
          "831 SANTA BARBARA BLVD"
        ],
        "city": "CAPE CORAL",
        "state": "FL",
        "postalCode": "33991-2072"
      },
      {
        "line": [
          "832 SUNSET LAKE BLVD"
        ],
        "city": "VENICE",
        "state": "FL",
        "postalCode": "34292-7550"
      },
      {
        "line": [
          "1500 LEE BLVD"
        ],
        "city": "LEHIGH ACRES",
        "state": "FL",
        "postalCode": "33936-4835"
      },
      {
        "line": [
          "1433 INGLESIDE AE"
        ],
        "city": "JACKSONVILLE",
        "state": "FL",
        "postalCode": "32205-7712"
      },
      {
        "line": [
          "279 N Lecanto Highway"
        ],
        "city": "LECANTO",
        "state": "FL",
        "postalCode": "34461-8536"
      }
    ],
    "extension": [
      {
        "url": "https://fhir.athena.io/StructureDefinition/ah-practice",
        "valueReference": {
          "reference": "Organization/a-1.Practice-4290"
        }
      },
      {
        "url": "https://fhir.athena.io/StructureDefinition/ah-brand",
        "valueReference": {
          "reference": "Organization/a-4290.Brand-1"
        }
      }
    ]
  },
  "fullUrl": "urn:uuid:0f448927-46e4-5a3f-87b8-7d1aba363be1"
}