{
  "resource": {
    "resourceType": "Organization",
    "id": "67f516a1-1996-520d-88d9-ffdbec4a8cd1",
    "name": "Meridian Medical Clinic, the office of Dr. Danny Silver",
    "endpoint": [
      {
        "reference": "Endpoint/27a4e967-47aa-5a9c-a572-b8297ee268a2"
      },
      {
        "reference": "Endpoint/a01ef56c-7ea1-586e-86fa-04c40f458713"
      }
    ],
    "identifier": [
      {
        "system": "http://hl7.org/fhir/sid/us-npi",
        "value": "1043660665"
      }
    ],
    "address": [
      {
        "line": [
          "1404 NORTH 28TH STREET"
        ],
        "city": "VAN BUREN",
        "state": "AR",
        "postalCode": "72956-2931"
      },
      {
        "line": [
          "350 E MILLSAP Road"
        ],
        "city": "FAYETTEVILLE",
        "state": "AR",
        "postalCode": "72703-4098"
      },
      {
        "line": [
          "1200 WEST CENTER STREET"
        ],
        "city": "GREENWOOD",
        "state": "AR",
        "postalCode": "72936-3716"
      },
      {
        "line": [
          "PHASE 1 115 FORT STREET"
        ],
        "city": "BARLING",
        "state": "AR",
        "postalCode": "72923-2646"
      },
      {
        "line": [
          "311 SOUTH CENTRAL STREET"
        ],
        "city": "CLARKSVILLE",
        "state": "AR",
        "postalCode": "72830-3601"
      },
      {
        "line": [
          "949 NORTH MAIN"
        ],
        "city": "MULBERRY",
        "state": "AR",
        "postalCode": "72947-8538"
      },
      {
        "line": [
          "708 LEXINGTON AVE"
        ],
        "city": "FORT SMITH",
        "state": "AR",
        "postalCode": "72901-4738"
      },
      {
        "line": [
          "PHASE 2 203 SOUTH 3RD"
        ],
        "city": "BARLING",
        "state": "AR",
        "postalCode": "72923-2604"
      },
      {
        "line": [
          "350 E MILSAP"
        ],
        "city": "FAYETTEVILLE",
        "state": "AR",
        "postalCode": "72703-4098"
      }
    ],
    "extension": [
      {
        "url": "https://fhir.athena.io/StructureDefinition/ah-practice",
        "valueReference": {
          "reference": "Organization/a-1.Practice-28186"
        }
      },
      {
        "url": "https://fhir.athena.io/StructureDefinition/ah-brand",
        "valueReference": {
          "reference": "Organization/a-28186.Brand-1"
        }
      }
    ]
  },
  "fullUrl": "urn:uuid:67f516a1-1996-520d-88d9-ffdbec4a8cd1"
}