{
  "resource": {
    "resourceType": "Organization",
    "id": "9dd8b803-ea90-5935-8ef0-759f8ef68af6",
    "name": "ERIC D TRATTNER DPM",
    "endpoint": [
      {
        "reference": "Endpoint/27a4e967-47aa-5a9c-a572-b8297ee268a2"
      },
      {
        "reference": "Endpoint/93567a3d-a637-5f18-b366-fb6030b924e0"
      }
    ],
    "identifier": [
      {
        "system": "http://hl7.org/fhir/sid/us-npi",
        "value": "1649242629"
      }
    ],
    "address": [
      {
        "line": [
          "5277 CHILLICOTHE RD"
        ],
        "city": "CHAGRIN FALLS",
        "state": "OH",
        "postalCode": "44022-4334"
      },
      {
        "line": [
          "12300 McCracken Rd"
        ],
        "city": "Garfield Heights",
        "state": "OH",
        "postalCode": "44125-2914"
      },
      {
        "line": [
          "5500 NORTHFIELD RD"
        ],
        "city": "MAPLE HEIGHTS",
        "state": "OH",
        "postalCode": "44137-3114"
      },
      {
        "line": [
          "24025 COMMERCE PARK"
        ],
        "city": "BEACHWOOD",
        "state": "OH",
        "postalCode": "44122-5823"
      },
      {
        "line": [
          "8900 DARROW ROAD H110"
        ],
        "city": "TWINSBURG",
        "state": "OH",
        "postalCode": "44087-6801"
      },
      {
        "line": [
          "2463 Sussex Blvd"
        ],
        "city": "TWINSBURG",
        "state": "OH",
        "postalCode": "44087-6801"
      },
      {
        "line": [
          "17000 Van Aken Boulevard"
        ],
        "city": "CLEVELAND",
        "state": "OH",
        "postalCode": "44120-3613"
      },
      {
        "line": [
          "20455 Lorain Road #101"
        ],
        "city": "CLEVELAND",
        "state": "OH",
        "postalCode": "44126-3494"
      },
      {
        "line": [
          "6701 Rockside Road",
          "Suite 101"
        ],
        "city": "INDEPENDENCE",
        "state": "OH",
        "postalCode": "44131-2316"
      },
      {
        "line": [
          "29017 Cedar Road"
        ],
        "city": "CLEVELAND",
        "state": "OH",
        "postalCode": "44124-4073"
      },
      {
        "line": [
          "190 W BATH RD"
        ],
        "city": "CUYAHOGA FALLS",
        "state": "OH",
        "postalCode": "44223-2516"
      }
    ],
    "extension": [
      {
        "url": "https://fhir.athena.io/StructureDefinition/ah-practice",
        "valueReference": {
          "reference": "Organization/a-1.Practice-16046"
        }
      },
      {
        "url": "https://fhir.athena.io/StructureDefinition/ah-brand",
        "valueReference": {
          "reference": "Organization/a-16046.Brand-1"
        }
      }
    ]
  },
  "fullUrl": "urn:uuid:9dd8b803-ea90-5935-8ef0-759f8ef68af6"
}