{
  "resource": {
    "resourceType": "Organization",
    "id": "c99c7bec-06bc-5885-b96c-345dd91a0245",
    "name": "Apple Podiatry",
    "endpoint": [
      {
        "reference": "Endpoint/27a4e967-47aa-5a9c-a572-b8297ee268a2"
      },
      {
        "reference": "Endpoint/e34e78bf-50bf-54e3-a363-10daef080f26"
      }
    ],
    "identifier": [
      {
        "system": "http://hl7.org/fhir/sid/us-npi",
        "value": "1750814737"
      },
      {
        "system": "http://hl7.org/fhir/sid/us-npi",
        "value": "1649501347"
      }
    ],
    "address": [
      {
        "line": [
          "3301 Matlock Rd"
        ],
        "city": "ARLINGTON",
        "state": "TX",
        "postalCode": "76015-2908"
      },
      {
        "line": [
          "6201 Plaza Parkway"
        ],
        "city": "FORT WORTH",
        "state": "TX",
        "postalCode": "76116-2012"
      },
      {
        "line": [
          "2698 S Hulen St"
        ],
        "city": "FORT WORTH",
        "state": "TX",
        "postalCode": "76109-5552"
      },
      {
        "line": [
          "2815 Medlin Dr"
        ],
        "city": "ARLINGTON",
        "state": "TX",
        "postalCode": "76015-2329"
      },
      {
        "line": [
          "297 NW 25th St"
        ],
        "city": "GRAND PRAIRIE",
        "state": "TX",
        "postalCode": "75050-4804"
      },
      {
        "line": [
          "2600 W Pleasant Run Rd"
        ],
        "city": "LANCASTER",
        "state": "TX",
        "postalCode": "75146-1114"
      },
      {
        "line": [
          "4441 LONG PRAIRIE RD",
          "Ste 400"
        ],
        "city": "FLOWER MOUND",
        "state": "TX",
        "postalCode": "75028-5410"
      },
      {
        "line": [
          "1771 Country Club Dr"
        ],
        "city": "MANSFIELD",
        "state": "TX",
        "postalCode": "76063-6607"
      },
      {
        "line": [
          "1257 Kilpatrick"
        ],
        "city": "CLEBURNE",
        "state": "TX",
        "postalCode": "76033-7421"
      },
      {
        "line": [
          "4400 LONG PRAIRIE RD"
        ],
        "city": "FLOWER MOUND",
        "state": "TX",
        "postalCode": "75028-1892"
      },
      {
        "line": [
          "731 PLAZA BLVD"
        ],
        "city": "COPPELL",
        "state": "TX",
        "postalCode": "75019-6685"
      },
      {
        "line": [
          "3600 Conflans Rd",
          "Suite 103"
        ],
        "city": "IRVING",
        "state": "TX",
        "postalCode": "75061-6324"
      },
      {
        "line": [
          "900 8TH AVE"
        ],
        "city": "FORT WORTH",
        "state": "TX",
        "postalCode": "76104-3902"
      },
      {
        "line": [
          "3600 Matlock Rd",
          "Ste 104"
        ],
        "city": "ARLINGTON",
        "state": "TX",
        "postalCode": "76015-3679"
      },
      {
        "line": [
          "6799 Granbury Rd"
        ],
        "city": "FORT WORTH",
        "state": "TX",
        "postalCode": "76133-4949"
      },
      {
        "line": [
          "3501 Matlock Rd"
        ],
        "city": "ARLINGTON",
        "state": "TX",
        "postalCode": "76015-3604"
      },
      {
        "line": [
          "8701 McCart Ave"
        ],
        "city": "FORT WORTH",
        "state": "TX",
        "postalCode": "76123-2386"
      },
      {
        "line": [
          "4759 South Fwy",
          "Ste B"
        ],
        "city": "FORT WORTH",
        "state": "TX",
        "postalCode": "76115-3655"
      },
      {
        "line": [
          "3400 N Country Club Rd"
        ],
        "city": "IRVING",
        "state": "TX",
        "postalCode": "75062-3443"
      },
      {
        "line": [
          "2312 Michigan Court"
        ],
        "city": "Dalworthington Gardens",
        "state": "TX",
        "postalCode": "76016-5870"
      },
      {
        "line": [
          "701 Saint Louis Ave"
        ],
        "city": "FORT WORTH",
        "state": "TX",
        "postalCode": "76104-3324"
      },
      {
        "line": [
          "500 W MAIN ST"
        ],
        "city": "LEWISVILLE",
        "state": "TX",
        "postalCode": "75057-3629"
      },
      {
        "line": [
          "648 E BUTLER ST"
        ],
        "city": "FORT WORTH",
        "state": "TX",
        "postalCode": "76110-5523"
      },
      {
        "line": [
          "301 Elk Drive"
        ],
        "city": "BURLESON",
        "state": "TX",
        "postalCode": "76028-5957"
      },
      {
        "line": [
          "3424 W Interstate 20 Highway"
        ],
        "city": "ARLINGTON",
        "state": "TX",
        "postalCode": "76017-1898"
      }
    ],
    "extension": [
      {
        "url": "https://fhir.athena.io/StructureDefinition/ah-practice",
        "valueReference": {
          "reference": "Organization/a-1.Practice-2477"
        }
      },
      {
        "url": "https://fhir.athena.io/StructureDefinition/ah-brand",
        "valueReference": {
          "reference": "Organization/a-2477.Brand-3"
        }
      }
    ]
  },
  "fullUrl": "urn:uuid:c99c7bec-06bc-5885-b96c-345dd91a0245"
}