{
  "resource": {
    "resourceType": "Organization",
    "id": "10f8a899-78ec-5223-bf69-7678db06f0a2",
    "name": "3D Sports Medicine and Orthopaedic Center",
    "endpoint": [
      {
        "reference": "Endpoint/27a4e967-47aa-5a9c-a572-b8297ee268a2"
      },
      {
        "reference": "Endpoint/cb1b8d31-7555-5929-b7d9-ee8ac1a5b439"
      }
    ],
    "identifier": [
      {
        "system": "http://hl7.org/fhir/sid/us-npi",
        "value": "1316351372"
      }
    ],
    "address": [
      {
        "line": [
          "640 Classic CT",
          "#104"
        ],
        "city": "INDIALANTIC",
        "state": "FL",
        "postalCode": "32903-2607"
      },
      {
        "line": [
          "2222 S HARBOR CITY BLVD"
        ],
        "city": "MELBOURNE",
        "state": "FL",
        "postalCode": "32901-5594"
      },
      {
        "line": [
          "8240 Devereux Drive",
          "Suite 100"
        ],
        "city": "MELBOURNE",
        "state": "FL",
        "postalCode": "32940-8200"
      },
      {
        "line": [
          "13695 US-1"
        ],
        "city": "SEBASTIAN",
        "state": "FL",
        "postalCode": "32958-1601"
      },
      {
        "line": [
          "640 Classic CT",
          "#104"
        ],
        "city": "MELBOURNE",
        "state": "FL",
        "postalCode": "32940-8279"
      },
      {
        "line": [
          "141 Coconut Dr"
        ],
        "city": "INDIALANTIC",
        "state": "FL",
        "postalCode": "32903-2607"
      },
      {
        "line": [
          "1425 Malabar Road NE"
        ],
        "city": "PALM BAY",
        "state": "FL",
        "postalCode": "32907-2506"
      },
      {
        "line": [
          "141 Coconut Drive"
        ],
        "city": "INDIALANTIC",
        "state": "FL",
        "postalCode": "32903-2607"
      },
      {
        "line": [
          "2200 W Eau Gallie Blvd",
          "Suite 100"
        ],
        "city": "MELBOURNE",
        "state": "FL",
        "postalCode": "32935-3166"
      }
    ],
    "extension": [
      {
        "url": "https://fhir.athena.io/StructureDefinition/ah-practice",
        "valueReference": {
          "reference": "Organization/a-1.Practice-12262"
        }
      },
      {
        "url": "https://fhir.athena.io/StructureDefinition/ah-brand",
        "valueReference": {
          "reference": "Organization/a-12262.Brand-1"
        }
      }
    ]
  },
  "fullUrl": "urn:uuid:10f8a899-78ec-5223-bf69-7678db06f0a2"
}