{
  "resource": {
    "resourceType": "Organization",
    "id": "356d4efe-cc55-5044-a732-eaa6be213761",
    "name": "Cincinnati Elite Orthopedic and Spine",
    "endpoint": [
      {
        "reference": "Endpoint/27a4e967-47aa-5a9c-a572-b8297ee268a2"
      },
      {
        "reference": "Endpoint/b3227bd2-7b56-5e8a-8077-a935e5d9d90e"
      }
    ],
    "identifier": [
      {
        "system": "http://hl7.org/fhir/sid/us-npi",
        "value": "1487368411"
      }
    ],
    "address": [
      {
        "line": [
          "1537 S BREIEL BLVD"
        ],
        "city": "MIDDLETOWN",
        "state": "OH",
        "postalCode": "45044-6703"
      },
      {
        "line": [
          "3535 SOUTHERN BLVD"
        ],
        "city": "DAYTON",
        "state": "OH",
        "postalCode": "45429-1221"
      },
      {
        "line": [
          "6531 WINFORD AVE"
        ],
        "city": "HAMILTON",
        "state": "OH",
        "postalCode": "45011-0548"
      },
      {
        "line": [
          "1 WYOMING ST"
        ],
        "city": "DAYTON",
        "state": "OH",
        "postalCode": "45409-2722"
      },
      {
        "line": [
          "4000 MIAMISBURG CENTERVILLE RD"
        ],
        "city": "MIAMISBURG",
        "state": "OH",
        "postalCode": "45342-3842"
      },
      {
        "line": [
          "630 EATON AVE"
        ],
        "city": "HAMILTON",
        "state": "OH",
        "postalCode": "45013-2767"
      },
      {
        "line": [
          "1 wyoming st"
        ],
        "city": "DAYTON",
        "state": "OH",
        "postalCode": "45409-2722"
      },
      {
        "line": [
          "600 W MAIN ST"
        ],
        "city": "TROY",
        "state": "OH",
        "postalCode": "45373-3384"
      }
    ],
    "extension": [
      {
        "url": "https://fhir.athena.io/StructureDefinition/ah-practice",
        "valueReference": {
          "reference": "Organization/a-1.Practice-29291"
        }
      },
      {
        "url": "https://fhir.athena.io/StructureDefinition/ah-brand",
        "valueReference": {
          "reference": "Organization/a-29291.Brand-1"
        }
      }
    ]
  },
  "fullUrl": "urn:uuid:356d4efe-cc55-5044-a732-eaa6be213761"
}