{
  "resource": {
    "resourceType": "Organization",
    "id": "483310e3-c384-5143-897c-ac7f3ce6067a",
    "name": "Children's Heart Center",
    "endpoint": [
      {
        "reference": "Endpoint/27a4e967-47aa-5a9c-a572-b8297ee268a2"
      },
      {
        "reference": "Endpoint/6355ad4a-88ac-561f-a4a5-0c359e060699"
      }
    ],
    "identifier": [
      {
        "system": "http://hl7.org/fhir/sid/us-npi",
        "value": "1629358767"
      }
    ],
    "address": [
      {
        "line": [
          "100 Maple Ave #1"
        ],
        "city": "GREAT BARRINGTON",
        "state": "MA",
        "postalCode": "01230-1174"
      },
      {
        "line": [
          "1754 Northampton Street"
        ],
        "city": "HOLYOKE",
        "state": "MA",
        "postalCode": "01040-1947"
      },
      {
        "line": [
          "759 CHESTNUT ST"
        ],
        "city": "SPRINGFIELD",
        "state": "MA",
        "postalCode": "01107-1619"
      },
      {
        "line": [
          "271 Carew St"
        ],
        "city": "SPRINGFIELD",
        "state": "MA",
        "postalCode": "01104-2377"
      },
      {
        "line": [
          "90 CONZ ST, SUITE 101"
        ],
        "city": "NORTHAMPTON",
        "state": "MA",
        "postalCode": "01060-3881"
      },
      {
        "line": [
          "575 Beech Street"
        ],
        "city": "HOLYOKE",
        "state": "MA",
        "postalCode": "01040-2223"
      },
      {
        "line": [
          "1754 NORTHAMPTON ST"
        ],
        "city": "HOLYOKE",
        "state": "MA",
        "postalCode": "01040-1947"
      },
      {
        "line": [
          "30 Locust Street"
        ],
        "city": "NORTHAMPTON",
        "state": "MA",
        "postalCode": "01060-2052"
      }
    ],
    "extension": [
      {
        "url": "https://fhir.athena.io/StructureDefinition/ah-practice",
        "valueReference": {
          "reference": "Organization/a-1.Practice-3766"
        }
      },
      {
        "url": "https://fhir.athena.io/StructureDefinition/ah-brand",
        "valueReference": {
          "reference": "Organization/a-3766.Brand-1"
        }
      }
    ]
  },
  "fullUrl": "urn:uuid:483310e3-c384-5143-897c-ac7f3ce6067a"
}