{
  "resource": {
    "resourceType": "Organization",
    "id": "dd56e5a8-fffa-53a0-89f6-2e8b19975c24",
    "name": "TMHPO Orthopedics",
    "endpoint": [
      {
        "reference": "Endpoint/27a4e967-47aa-5a9c-a572-b8297ee268a2"
      },
      {
        "reference": "Endpoint/3eaf47cc-4971-585b-9c96-76dc8d092652"
      }
    ],
    "identifier": [
      {
        "system": "http://hl7.org/fhir/sid/us-npi",
        "value": "1497795272"
      }
    ],
    "address": [
      {
        "line": [
          "909 FROSTWOOD SUITE 251"
        ],
        "city": "HOUSTON",
        "state": "TX",
        "postalCode": "77024-2309"
      },
      {
        "line": [
          "9300 KIRBY DRIVE SUITE 109"
        ],
        "city": "HOUSTON",
        "state": "TX",
        "postalCode": "77054-2530"
      },
      {
        "line": [
          "18400 Katy Freeway Suite 520"
        ],
        "city": "HOUSTON",
        "state": "TX",
        "postalCode": "77094-1293"
      },
      {
        "line": [
          "1333 MOURSUND ST"
        ],
        "city": "HOUSTON",
        "state": "TX",
        "postalCode": "77030-3405"
      },
      {
        "line": [
          "18220 Tomball Parkway"
        ],
        "city": "HOUSTON",
        "state": "TX",
        "postalCode": "77070-4347"
      },
      {
        "line": [
          "18220 Tomball Pkwy"
        ],
        "city": "HOUSTON",
        "state": "TX",
        "postalCode": "77070-4347"
      },
      {
        "line": [
          "16651 SOUTHWEST FREEWAY",
          "SUITE 400"
        ],
        "city": "SUGAR LAND",
        "state": "TX",
        "postalCode": "77479-2345"
      },
      {
        "line": [
          "3122 SPENCER HWY"
        ],
        "city": "PASADENA",
        "state": "TX",
        "postalCode": "77504-1155"
      },
      {
        "line": [
          "4201 Garth Road Suite 107"
        ],
        "city": "BAYTOWN",
        "state": "TX",
        "postalCode": "77521-3167"
      },
      {
        "line": [
          "1025 Birdsong Dr"
        ],
        "city": "BAYTOWN",
        "state": "TX",
        "postalCode": "77521-3205"
      },
      {
        "line": [
          "2802 Garth Road, Suite 109"
        ],
        "city": "BAYTOWN",
        "state": "TX",
        "postalCode": "77521-3924"
      },
      {
        "line": [
          "6560 FANNIN SUITE 400"
        ],
        "city": "HOUSTON",
        "state": "TX",
        "postalCode": "77030-2730"
      },
      {
        "line": [
          "2950 CULLEN PKWY. STE. 101"
        ],
        "city": "PEARLAND",
        "state": "TX",
        "postalCode": "77584-3922"
      },
      {
        "line": [
          "6550 FANNIN STE 2500"
        ],
        "city": "HOUSTON",
        "state": "TX",
        "postalCode": "77030-2750"
      },
      {
        "line": [
          "13802 Centerfield #300"
        ],
        "city": "HOUSTON",
        "state": "TX",
        "postalCode": "77070-6043"
      },
      {
        "line": [
          "1201 Brooks Street"
        ],
        "city": "SUGAR LAND",
        "state": "TX",
        "postalCode": "77478-3835"
      },
      {
        "line": [
          "6550 FANNIN SUITE 2500"
        ],
        "city": "HOUSTON",
        "state": "TX",
        "postalCode": "77030-2750"
      }
    ],
    "extension": [
      {
        "url": "https://fhir.athena.io/StructureDefinition/ah-practice",
        "valueReference": {
          "reference": "Organization/a-1.Practice-1171"
        }
      },
      {
        "url": "https://fhir.athena.io/StructureDefinition/ah-brand",
        "valueReference": {
          "reference": "Organization/a-1171.Brand-2"
        }
      }
    ]
  },
  "fullUrl": "urn:uuid:dd56e5a8-fffa-53a0-89f6-2e8b19975c24"
}