{
  "resource": {
    "resourceType": "Organization",
    "id": "2c94060a-50cb-54ba-921e-65947a63a3d9",
    "name": "Sioux Falls Foot Specialists",
    "endpoint": [
      {
        "reference": "Endpoint/27a4e967-47aa-5a9c-a572-b8297ee268a2"
      },
      {
        "reference": "Endpoint/ddb06bdb-2e80-5688-b059-3ca8165d1e26"
      }
    ],
    "identifier": [
      {
        "system": "http://hl7.org/fhir/sid/us-npi",
        "value": "1013256106"
      }
    ],
    "address": [
      {
        "line": [
          "501 E Spruce St"
        ],
        "city": "MITCHELL",
        "state": "SD",
        "postalCode": "57301-9998"
      },
      {
        "line": [
          "400 N AVE E"
        ],
        "city": "TRUMAN",
        "state": "MN",
        "postalCode": "56088-1108"
      },
      {
        "line": [
          "36 BELL CIRCLE"
        ],
        "city": "SILVER BAY",
        "state": "MN",
        "postalCode": "55614-1322"
      },
      {
        "line": [
          "3900 W 41ST ST"
        ],
        "city": "SIOUX FALLS",
        "state": "SD",
        "postalCode": "57106-0715"
      },
      {
        "line": [
          "505 E 4TH ST"
        ],
        "city": "HILLS",
        "state": "MN",
        "postalCode": "56138-1017"
      },
      {
        "line": [
          "8274 SAN RD"
        ],
        "city": "SOUTH RANGE",
        "state": "WI",
        "postalCode": "54874-8621"
      },
      {
        "line": [
          "2201 N Wisconsin St"
        ],
        "city": "MITCHELL",
        "state": "SD",
        "postalCode": "57301-9998"
      },
      {
        "line": [
          "110 PARK DR"
        ],
        "city": "COLFAX",
        "state": "WI",
        "postalCode": "54730-8902"
      },
      {
        "line": [
          "2500 ARROWHEAD DR"
        ],
        "city": "RAPID CITY",
        "state": "SD",
        "postalCode": "57702-4225"
      },
      {
        "line": [
          "404 E 6th Ave"
        ],
        "city": "LENNOX",
        "state": "SD",
        "postalCode": "57039-9998"
      },
      {
        "line": [
          "5760 East Red Oak Dr"
        ],
        "city": "SIOUX FALLS",
        "state": "SD",
        "postalCode": "57101-0000"
      },
      {
        "line": [
          "211 1st St NW # 25"
        ],
        "city": "MADISON",
        "state": "SD",
        "postalCode": "57042-9998"
      },
      {
        "line": [
          "3405 6th St"
        ],
        "city": "BROOKINGS",
        "state": "SD",
        "postalCode": "57006-9998"
      },
      {
        "line": [
          "1901 S HOLLY AVE"
        ],
        "city": "SIOUX FALLS",
        "state": "SD",
        "postalCode": "57105-2407"
      },
      {
        "line": [
          "500 COLONIAL DR"
        ],
        "city": "SALEM",
        "state": "SD",
        "postalCode": "57058-8719"
      },
      {
        "line": [
          "304 E 3RD AVE S"
        ],
        "city": "AURORA",
        "state": "MN",
        "postalCode": "55705-1543"
      },
      {
        "line": [
          "4576 LAKE STREET"
        ],
        "city": "ORR",
        "state": "MN",
        "postalCode": "55771-8309"
      },
      {
        "line": [
          "6 CHESTNUT ST E"
        ],
        "city": "SISSETON",
        "state": "SD",
        "postalCode": "57262-1449"
      },
      {
        "line": [
          "151 4TH ST SE"
        ],
        "city": "COOK",
        "state": "MN",
        "postalCode": "55723-8094"
      },
      {
        "line": [
          "910 E 20TH ST"
        ],
        "city": "SIOUX FALLS",
        "state": "SD",
        "postalCode": "57105-1012"
      },
      {
        "line": [
          "3008 E ASPEN BLVD"
        ],
        "city": "BRANDON",
        "state": "SD",
        "postalCode": "57005-2202"
      },
      {
        "line": [
          "200 W CONAN ST"
        ],
        "city": "ELY",
        "state": "MN",
        "postalCode": "55731-1143"
      },
      {
        "line": [
          "800 S Wind St"
        ],
        "city": "FLANDREAU",
        "state": "SD",
        "postalCode": "57028-9998"
      },
      {
        "line": [
          "421 10TH ST S"
        ],
        "city": "VIRGINIA",
        "state": "MN",
        "postalCode": "55792-2643"
      },
      {
        "line": [
          "1400 THRESHER DR"
        ],
        "city": "DELL RAPIDS",
        "state": "SD",
        "postalCode": "57022-1049"
      },
      {
        "line": [
          "706 6TH ST"
        ],
        "city": "WINDOM",
        "state": "MN",
        "postalCode": "56101-1234"
      },
      {
        "line": [
          "410 8TH ST SE"
        ],
        "city": "HIGHMORE",
        "state": "SD",
        "postalCode": "57345-2200"
      },
      {
        "line": [
          "PO BOX 66, 1100 NORTH T STREET"
        ],
        "city": "NELIGH",
        "state": "NE",
        "postalCode": "68756-0066"
      },
      {
        "line": [
          "611 E 2nd Ave"
        ],
        "city": "FLANDREAU",
        "state": "SD",
        "postalCode": "57028-9998"
      },
      {
        "line": [
          "108 MAIN ST"
        ],
        "city": "CASTLEWOOD",
        "state": "SD",
        "postalCode": "57223-1234"
      },
      {
        "line": [
          "700 W Main St"
        ],
        "city": "CANISTOTA",
        "state": "SD",
        "postalCode": "57012-9998"
      },
      {
        "line": [
          "2015 8th St"
        ],
        "city": "BROOKINGS",
        "state": "SD",
        "postalCode": "57006-9998"
      },
      {
        "line": [
          "1220 VILLA COURT DR"
        ],
        "city": "CROMWELL",
        "state": "MN",
        "postalCode": "55726-1234"
      },
      {
        "line": [
          "302 ST CLOUD ST"
        ],
        "city": "RAPID CITY",
        "state": "SD",
        "postalCode": "57701-1234"
      },
      {
        "line": [
          "425 N BADGER ST"
        ],
        "city": "CALEDONIA",
        "state": "MN",
        "postalCode": "55921-1567"
      },
      {
        "line": [
          "503 E LINCOLN ST"
        ],
        "city": "HENDRICKS",
        "state": "MN",
        "postalCode": "56136-9598"
      },
      {
        "line": [
          "413 S YELLOWSTONE DR"
        ],
        "city": "MADISON",
        "state": "WI",
        "postalCode": "53719-1042"
      },
      {
        "line": [
          "1 CENTRAL BOULEVARD"
        ],
        "city": "BABBITT",
        "state": "MN",
        "postalCode": "55706-1144"
      },
      {
        "line": [
          "901 WILLMAR AVE SE"
        ],
        "city": "WILLMAR",
        "state": "MN",
        "postalCode": "56201-1234"
      },
      {
        "line": [
          "1321 W DOW RUMMEL ST"
        ],
        "city": "SIOUX FALLS",
        "state": "SD",
        "postalCode": "57104-7808"
      },
      {
        "line": [
          "3409 E 5th St"
        ],
        "city": "SIOUX FALLS",
        "state": "SD",
        "postalCode": "57103-9998"
      },
      {
        "line": [
          "1022 N DAKOTA ST"
        ],
        "city": "CANTON",
        "state": "SD",
        "postalCode": "57013-1004"
      },
      {
        "line": [
          "1001 Egan Ave S"
        ],
        "city": "MADISON",
        "state": "SD",
        "postalCode": "57042-9998"
      },
      {
        "line": [
          "1203 N 13TH ST"
        ],
        "city": "NORFOLK",
        "state": "NE",
        "postalCode": "68701-2609"
      },
      {
        "line": [
          "220 S Lincoln St"
        ],
        "city": "LENNOX",
        "state": "SD",
        "postalCode": "57039-9998"
      },
      {
        "line": [
          "215 MAPLE"
        ],
        "city": "WATERTOWN",
        "state": "SD",
        "postalCode": "57201-4316"
      },
      {
        "line": [
          "706 E 1ST ST"
        ],
        "city": "COLTON",
        "state": "SD",
        "postalCode": "57018-2137"
      },
      {
        "line": [
          "4101 W Cayman St"
        ],
        "city": "SIOUX FALLS",
        "state": "SD",
        "postalCode": "57107-9998"
      },
      {
        "line": [
          "1810 S Dorothy Ave"
        ],
        "city": "SIOUX FALLS",
        "state": "SD",
        "postalCode": "57106-9998"
      },
      {
        "line": [
          "700 N SMITH ST"
        ],
        "city": "CLARK",
        "state": "SD",
        "postalCode": "57225-1120"
      },
      {
        "line": [
          "5501 W 46th St"
        ],
        "city": "SIOUX FALLS",
        "state": "SD",
        "postalCode": "57106-9998"
      },
      {
        "line": [
          "920 4th St"
        ],
        "city": "GARRETSON",
        "state": "SD",
        "postalCode": "57030-9998"
      },
      {
        "line": [
          "305 MINNESOTA ST"
        ],
        "city": "OSTRANDER",
        "state": "MN",
        "postalCode": "55961-4400"
      },
      {
        "line": [
          "900 S Foss Ave"
        ],
        "city": "SIOUX FALLS",
        "state": "SD",
        "postalCode": "57110-9998"
      },
      {
        "line": [
          "803 PARK ST"
        ],
        "city": "LAKE NORDEN",
        "state": "SD",
        "postalCode": "57248-1234"
      },
      {
        "line": [
          "720 PARKWAY"
        ],
        "city": "HUDSON",
        "state": "SD",
        "postalCode": "57034-8500"
      },
      {
        "line": [
          "3141 EAST AVE S"
        ],
        "city": "LA CROSSE",
        "state": "WI",
        "postalCode": "54601-7228"
      },
      {
        "line": [
          "130 N SYCAMORE AVE"
        ],
        "city": "SIOUX FALLS",
        "state": "SD",
        "postalCode": "57110-1230"
      },
      {
        "line": [
          "2815 South, Westlake Dr"
        ],
        "city": "SIOUX FALLS",
        "state": "SD",
        "postalCode": "57106-9998"
      },
      {
        "line": [
          "4200 W Creekside Cir"
        ],
        "city": "SIOUX FALLS",
        "state": "SD",
        "postalCode": "57106-9998"
      },
      {
        "line": [
          "405 1ST AVE"
        ],
        "city": "BROOKINGS",
        "state": "SD",
        "postalCode": "57006-1835"
      },
      {
        "line": [
          "201 8TH AVE NW"
        ],
        "city": "CLARK",
        "state": "SD",
        "postalCode": "57225-1147"
      },
      {
        "line": [
          "949 10TH AVE N"
        ],
        "city": "ONALASKA",
        "state": "WI",
        "postalCode": "54650-2165"
      },
      {
        "line": [
          "101 CHURCH ST"
        ],
        "city": "ALCESTER",
        "state": "SD",
        "postalCode": "57001-1234"
      },
      {
        "line": [
          "3401 W Ralph Rogers Rd"
        ],
        "city": "SIOUX FALLS",
        "state": "SD",
        "postalCode": "57108-9998"
      },
      {
        "line": [
          "36 N 29TH ST"
        ],
        "city": "SUPERIOR",
        "state": "WI",
        "postalCode": "54880-5557"
      },
      {
        "line": [
          "3600 S NORTON AVE"
        ],
        "city": "SIOUX FALLS",
        "state": "SD",
        "postalCode": "57105-6331"
      },
      {
        "line": [
          "703 N MAIN ST"
        ],
        "city": "MADISON",
        "state": "NE",
        "postalCode": "68748-6009"
      },
      {
        "line": [
          "1620 N 7TH ST"
        ],
        "city": "RAPID CITY",
        "state": "SD",
        "postalCode": "57701-0511"
      },
      {
        "line": [
          "111 W 17TH PL"
        ],
        "city": "SIOUX FALLS",
        "state": "SD",
        "postalCode": "57104-1234"
      },
      {
        "line": [
          "916 MOUNTAIN VIEW RD"
        ],
        "city": "RAPID CITY",
        "state": "SD",
        "postalCode": "57702-2521"
      },
      {
        "line": [
          "606 W CEDAR ST"
        ],
        "city": "BERESFORD",
        "state": "SD",
        "postalCode": "57004-1125"
      },
      {
        "line": [
          "540 Morgan Ln"
        ],
        "city": "TEA",
        "state": "SD",
        "postalCode": "57064-9998"
      }
    ],
    "extension": [
      {
        "url": "https://fhir.athena.io/StructureDefinition/ah-practice",
        "valueReference": {
          "reference": "Organization/a-1.Practice-19638"
        }
      },
      {
        "url": "https://fhir.athena.io/StructureDefinition/ah-brand",
        "valueReference": {
          "reference": "Organization/a-19638.Brand-1"
        }
      }
    ]
  },
  "fullUrl": "urn:uuid:2c94060a-50cb-54ba-921e-65947a63a3d9"
}