{
  "resource": {
    "resourceType": "Organization",
    "id": "7438d790-81ff-5ade-a1b9-425c0b467cfa",
    "name": "MinuteClinic",
    "endpoint": [
      {
        "reference": "Endpoint/27a4e967-47aa-5a9c-a572-b8297ee268a2"
      },
      {
        "reference": "Endpoint/29bfaa07-9950-51f2-81d0-5afec878ebc9"
      }
    ],
    "identifier": [
      {
        "system": "http://hl7.org/fhir/sid/us-npi",
        "value": "1609076330"
      }
    ],
    "address": [
      {
        "line": [
          "11101 US 380"
        ],
        "city": "Cross Roads",
        "state": "TX",
        "postalCode": "76227-8203"
      },
      {
        "line": [
          "2121 W Trenton Road"
        ],
        "city": "EDINBURG",
        "state": "TX",
        "postalCode": "78539-4434"
      },
      {
        "line": [
          "8000 Denton Hwy"
        ],
        "city": "FORT WORTH",
        "state": "TX",
        "postalCode": "76148-2464"
      },
      {
        "line": [
          "2525 N Mesa Street"
        ],
        "city": "EL PASO",
        "state": "TX",
        "postalCode": "79902-3110"
      },
      {
        "line": [
          "10550 w parmer lane"
        ],
        "city": "AUSTIN",
        "state": "TX",
        "postalCode": "78717-4873"
      },
      {
        "line": [
          "1602 East Highway 83"
        ],
        "city": "WESLACO",
        "state": "TX",
        "postalCode": "78596-6623"
      },
      {
        "line": [
          "5301 Alamo Parkway"
        ],
        "city": "SAN ANTONIO",
        "state": "TX",
        "postalCode": "78253-5679"
      },
      {
        "line": [
          "2129 E Belt Line Road"
        ],
        "city": "RICHARDSON",
        "state": "TX",
        "postalCode": "75081-3931"
      },
      {
        "line": [
          "105 Harris Ave"
        ],
        "city": "RED OAK",
        "state": "TX",
        "postalCode": "75154-4216"
      },
      {
        "line": [
          "8940 COIT RD"
        ],
        "city": "PLANO",
        "state": "TX",
        "postalCode": "75025-3804"
      },
      {
        "line": [
          "3939 Bellaire Blvd"
        ],
        "city": "HOUSTON",
        "state": "TX",
        "postalCode": "77025-1119"
      },
      {
        "line": [
          "4203 South Carrie Pkwy"
        ],
        "city": "GRAND PRAIRIE",
        "state": "TX",
        "postalCode": "75052-4829"
      },
      {
        "line": [
          "3201 Preston Rd"
        ],
        "city": "FRISCO",
        "state": "TX",
        "postalCode": "75034-9446"
      },
      {
        "line": [
          "2300 North Conway Ave"
        ],
        "city": "MISSION",
        "state": "TX",
        "postalCode": "78574-2345"
      },
      {
        "line": [
          "22135 IH 10 W"
        ],
        "city": "SAN ANTONIO",
        "state": "TX",
        "postalCode": "78257-1621"
      },
      {
        "line": [
          "1300 E Campbell Road"
        ],
        "city": "RICHARDSON",
        "state": "TX",
        "postalCode": "75081-1937"
      },
      {
        "line": [
          "385 E Belt Line Rd"
        ],
        "city": "CEDAR HILL",
        "state": "TX",
        "postalCode": "75104-2206"
      },
      {
        "line": [
          "9101 Hwy 6 North"
        ],
        "city": "HOUSTON",
        "state": "TX",
        "postalCode": "77095-2302"
      },
      {
        "line": [
          "790 E ALTON GLOOR BLVD"
        ],
        "city": "BROWNSVILLE",
        "state": "TX",
        "postalCode": "78526-9000"
      },
      {
        "line": [
          "3614 Camp Bowie Blvd"
        ],
        "city": "FORT WORTH",
        "state": "TX",
        "postalCode": "76107-3552"
      },
      {
        "line": [
          "150 E Stacy Rd"
        ],
        "city": "ALLEN",
        "state": "TX",
        "postalCode": "75002-8756"
      },
      {
        "line": [
          "7208 FM 78"
        ],
        "city": "SAN ANTONIO",
        "state": "TX",
        "postalCode": "78244-1766"
      },
      {
        "line": [
          "1801 S Loop 288"
        ],
        "city": "DENTON",
        "state": "TX",
        "postalCode": "76205-4801"
      },
      {
        "line": [
          "2015 South 77 Sunshine Strip"
        ],
        "city": "HARLINGEN",
        "state": "TX",
        "postalCode": "78550-8398"
      },
      {
        "line": [
          "24048 Kuykendahl Road"
        ],
        "city": "TOMBALL",
        "state": "TX",
        "postalCode": "77375-5326"
      },
      {
        "line": [
          "3850 FM 2920"
        ],
        "city": "SPRING",
        "state": "TX",
        "postalCode": "77388-4123"
      },
      {
        "line": [
          "6950 Alamo Downs Pkwy, Ste 110"
        ],
        "city": "SAN ANTONIO",
        "state": "TX",
        "postalCode": "78238-4502"
      },
      {
        "line": [
          "909 E Collins Blvd"
        ],
        "city": "RICHARDSON",
        "state": "TX",
        "postalCode": "75081-2253"
      },
      {
        "line": [
          "2693 FM 3009"
        ],
        "city": "SCHERTZ",
        "state": "TX",
        "postalCode": "78154-2712"
      },
      {
        "line": [
          "2013 Kelly Lane"
        ],
        "city": "PFLUGERVILLE",
        "state": "TX",
        "postalCode": "78660-7879"
      },
      {
        "line": [
          "1454 Central Blvd"
        ],
        "city": "BROWNSVILLE",
        "state": "TX",
        "postalCode": "78520-7516"
      },
      {
        "line": [
          "7442 South Staples St"
        ],
        "city": "CORPUS CHRISTI",
        "state": "TX",
        "postalCode": "78413-5316"
      },
      {
        "line": [
          "1703 Plano Road"
        ],
        "city": "RICHARDSON",
        "state": "TX",
        "postalCode": "75081-1915"
      },
      {
        "line": [
          "201 S Preston Rd"
        ],
        "city": "PROSPER",
        "state": "TX",
        "postalCode": "75078-8585"
      },
      {
        "line": [
          "5902 FM 1463 Road"
        ],
        "city": "FULSHEAR",
        "state": "TX",
        "postalCode": "77441-3932"
      },
      {
        "line": [
          "750 W John Carpenter Fwy Ste 1200"
        ],
        "city": "IRVING",
        "state": "TX",
        "postalCode": "75039-2507"
      },
      {
        "line": [
          "19802 Imperial Valley Dr"
        ],
        "city": "HOUSTON",
        "state": "TX",
        "postalCode": "77073-6154"
      },
      {
        "line": [
          "5959 Long Prairie Rd"
        ],
        "city": "FLOWER MOUND",
        "state": "TX",
        "postalCode": "75028-2224"
      },
      {
        "line": [
          "12980 Bandera Road"
        ],
        "city": "HELOTES",
        "state": "TX",
        "postalCode": "78023-4098"
      },
      {
        "line": [
          "5002 W Main Street"
        ],
        "city": "LEAGUE CITY",
        "state": "TX",
        "postalCode": "77573-1694"
      },
      {
        "line": [
          "22125 CUMBERLAND Ridge Dr"
        ],
        "city": "CYPRESS",
        "state": "TX",
        "postalCode": "77433-6494"
      },
      {
        "line": [
          "3430 Lakeview Pkwy"
        ],
        "city": "ROWLETT",
        "state": "TX",
        "postalCode": "75088-3367"
      },
      {
        "line": [
          "750 W John Carpenter Freeway"
        ],
        "city": "IRVING",
        "state": "TX",
        "postalCode": "75039-2500"
      },
      {
        "line": [
          "1305 N Highway 377"
        ],
        "city": "ROANOKE",
        "state": "TX",
        "postalCode": "76262-9122"
      },
      {
        "line": [
          "1627 Wildcat Drive"
        ],
        "city": "PORTLAND",
        "state": "TX",
        "postalCode": "78374-2815"
      },
      {
        "line": [
          "1400 Precinct Line Rd"
        ],
        "city": "HURST",
        "state": "TX",
        "postalCode": "76053-3828"
      },
      {
        "line": [
          "4166 south staples street"
        ],
        "city": "CORPUS CHRISTI",
        "state": "TX",
        "postalCode": "78411-2133"
      },
      {
        "line": [
          "7000 Justin Road"
        ],
        "city": "LANTANA",
        "state": "TX",
        "postalCode": "76226-8412"
      },
      {
        "line": [
          "2801 Nogalitos"
        ],
        "city": "SAN ANTONIO",
        "state": "TX",
        "postalCode": "78225-1730"
      },
      {
        "line": [
          "4885 Eldorado Parkway"
        ],
        "city": "FRISCO",
        "state": "TX",
        "postalCode": "75033-8662"
      },
      {
        "line": [
          "2200 Dallas Pkwy"
        ],
        "city": "PLANO",
        "state": "TX",
        "postalCode": "75093-4300"
      },
      {
        "line": [
          "24048 Kuykendahl Road"
        ],
        "city": "TOMBALL",
        "state": "TX",
        "postalCode": "77375-5117"
      },
      {
        "line": [
          "3133 East Lemmon Ave"
        ],
        "city": "DALLAS",
        "state": "TX",
        "postalCode": "75204-1411"
      },
      {
        "line": [
          "2420 W Wheatland Road"
        ],
        "city": "DALLAS",
        "state": "TX",
        "postalCode": "75237-3609"
      },
      {
        "line": [
          "3030 SOUTH GESSNER RD"
        ],
        "city": "HOUSTON",
        "state": "TX",
        "postalCode": "77063-3765"
      },
      {
        "line": [
          "4282 Ridge road"
        ],
        "city": "heath",
        "state": "TX",
        "postalCode": "75032-5833"
      },
      {
        "line": [
          "23865 FM 1314 RD"
        ],
        "city": "PORTER",
        "state": "TX",
        "postalCode": "77365-3727"
      },
      {
        "line": [
          "700 CVS Drive"
        ],
        "city": "ENNIS",
        "state": "TX",
        "postalCode": "75119-7810"
      },
      {
        "line": [
          "16597 Interstate 45 S"
        ],
        "city": "CONROE",
        "state": "TX",
        "postalCode": "77385-3401"
      },
      {
        "line": [
          "4808 DAVIS BLVD N"
        ],
        "city": "NORTH RICHLAND HILLS",
        "state": "TX",
        "postalCode": "76180-7001"
      }
    ],
    "extension": [
      {
        "url": "https://fhir.athena.io/StructureDefinition/ah-practice",
        "valueReference": {
          "reference": "Organization/a-1.Practice-1653"
        }
      },
      {
        "url": "https://fhir.athena.io/StructureDefinition/ah-brand",
        "valueReference": {
          "reference": "Organization/a-1653.Brand-1"
        }
      }
    ]
  },
  "fullUrl": "urn:uuid:7438d790-81ff-5ade-a1b9-425c0b467cfa"
}