{
  "resource": {
    "resourceType": "Organization",
    "id": "7a487c75-ca25-5fb9-921c-87caa4a18bdd",
    "name": "YMCA of Greater Pittsburgh",
    "endpoint": [
      {
        "reference": "Endpoint/27a4e967-47aa-5a9c-a572-b8297ee268a2"
      },
      {
        "reference": "Endpoint/abb5f7d5-468e-5806-be46-fb2282afef02"
      }
    ],
    "identifier": [
      {
        "system": "http://hl7.org/fhir/sid/us-npi",
        "value": "1124285523"
      }
    ],
    "address": [
      {
        "line": [
          "311 S. Bellefield Ave."
        ],
        "city": "PITTSBURGH",
        "state": "PA",
        "postalCode": "15260-1234"
      },
      {
        "line": [
          "7140 Bennett St"
        ],
        "city": "PITTSBURGH",
        "state": "PA",
        "postalCode": "15208-1477"
      },
      {
        "line": [
          "320 East North Avenue"
        ],
        "city": "PITTSBURGH",
        "state": "PA",
        "postalCode": "15212-4756"
      },
      {
        "line": [
          "2550 Mosside Blvd",
          "Suite 500"
        ],
        "city": "MONROEVILLE",
        "state": "PA",
        "postalCode": "15146-3514"
      },
      {
        "line": [
          "1789 S. Braddock Avenue",
          "#410"
        ],
        "city": "PITTSBURGH",
        "state": "PA",
        "postalCode": "15218-1234"
      },
      {
        "line": [
          "604 Evans Avenue"
        ],
        "city": "MCKEESPORT",
        "state": "PA",
        "postalCode": "15132-3029"
      },
      {
        "line": [
          "51 McMurray Rd"
        ],
        "city": "PITTSBURGH",
        "state": "PA",
        "postalCode": "15241-1647"
      },
      {
        "line": [
          "305 Church Rd"
        ],
        "city": "BETHEL PARK",
        "state": "PA",
        "postalCode": "15102-1688"
      },
      {
        "line": [
          "3001 Railroad Street"
        ],
        "city": "PITTSBURGH",
        "state": "PA",
        "postalCode": "15201-1507"
      },
      {
        "line": [
          "2570 Haymaker Road"
        ],
        "city": "MONROEVILLE",
        "state": "PA",
        "postalCode": "15146-3513"
      },
      {
        "line": [
          "450 30th street"
        ],
        "city": "PITTSBURGH",
        "state": "PA",
        "postalCode": "15219-3774"
      },
      {
        "line": [
          "2114 Centre Ave"
        ],
        "city": "PITTSBURGH",
        "state": "PA",
        "postalCode": "15219-6304"
      },
      {
        "line": [
          "7101 Hamilton Ave"
        ],
        "city": "PITTSBURGH",
        "state": "PA",
        "postalCode": "15208-1828"
      },
      {
        "line": [
          "420 Ft Duquesne Blvd",
          "Suite 625"
        ],
        "city": "PITTSBURGH",
        "state": "PA",
        "postalCode": "15222-1908"
      },
      {
        "line": [
          "236 Fifth Ave"
        ],
        "city": "PITTSBURGH",
        "state": "PA",
        "postalCode": "15222-1908"
      },
      {
        "line": [
          "542 Forbes Ave"
        ],
        "city": "PITTSBURGH",
        "state": "PA",
        "postalCode": "15219-2906"
      },
      {
        "line": [
          "2038 Bedford Avenue"
        ],
        "city": "PITTSBURGH",
        "state": "PA",
        "postalCode": "15219-3643"
      },
      {
        "line": [
          "600 W North Ave"
        ],
        "city": "PITTSBURGH",
        "state": "PA",
        "postalCode": "15212-4538"
      },
      {
        "line": [
          "5801 Forbes Avenue"
        ],
        "city": "PITTSBURGH",
        "state": "PA",
        "postalCode": "15217-1601"
      },
      {
        "line": [
          "25 Heckel Road"
        ],
        "city": "MC KEES ROCKS",
        "state": "PA",
        "postalCode": "15136-1651"
      },
      {
        "line": [
          "100 South Jackson Avenue"
        ],
        "city": "PITTSBURGH",
        "state": "PA",
        "postalCode": "15202-3428"
      },
      {
        "line": [
          "4800 Friendship Ave"
        ],
        "city": "PITTSBURGH",
        "state": "PA",
        "postalCode": "15224-1722"
      },
      {
        "line": [
          "414 Grant St"
        ],
        "city": "PITTSBURGH",
        "state": "PA",
        "postalCode": "15219-2409"
      },
      {
        "line": [
          "7501 Penn Avenue"
        ],
        "city": "PITTSBURGH",
        "state": "PA",
        "postalCode": "15208-2560"
      },
      {
        "line": [
          "629 Lincoln Ave"
        ],
        "city": "PITTSBURGH",
        "state": "PA",
        "postalCode": "15202-3405"
      },
      {
        "line": [
          "195 Montour Run Rd"
        ],
        "city": "CORAOPOLIS",
        "state": "PA",
        "postalCode": "15108-9408"
      },
      {
        "line": [
          "2200 Rte 286"
        ],
        "city": "PITTSBURGH",
        "state": "PA",
        "postalCode": "15239-2797"
      },
      {
        "line": [
          "126 Nagel Road"
        ],
        "city": "FOMBELL",
        "state": "PA",
        "postalCode": "16123-9802"
      },
      {
        "line": [
          "4713 Chatsworth St"
        ],
        "city": "PITTSBURGH",
        "state": "PA",
        "postalCode": "15207-1515"
      },
      {
        "line": [
          "2565 Nicholson Road"
        ],
        "city": "SEWICKLEY",
        "state": "PA",
        "postalCode": "15143-8502"
      },
      {
        "line": [
          "254 Deer Valley Drive"
        ],
        "city": "FORT HILL",
        "state": "PA",
        "postalCode": "15540-2131"
      },
      {
        "line": [
          "6750 Hollywood Blvd",
          "900"
        ],
        "city": "DELMONT",
        "state": "PA",
        "postalCode": "15626-2400"
      },
      {
        "line": [
          "134 Camp Soles Ln"
        ],
        "city": "ROCKWOOD",
        "state": "PA",
        "postalCode": "15557-7911"
      },
      {
        "line": [
          "600 Grant St."
        ],
        "city": "PITTSBURGH",
        "state": "PA",
        "postalCode": "15219-2702"
      },
      {
        "line": [
          "1 Memorial Dr"
        ],
        "city": "WILMERDING",
        "state": "PA",
        "postalCode": "15148-1137"
      },
      {
        "line": [
          "2621 Centre Ave"
        ],
        "city": "PITTSBURGH",
        "state": "PA",
        "postalCode": "15219-4933"
      },
      {
        "line": [
          "2200 Wylie Avenue"
        ],
        "city": "PITTSBURGH",
        "state": "PA",
        "postalCode": "15219-4526"
      },
      {
        "line": [
          "11817 Frankstown Rd"
        ],
        "city": "Pittsburgh",
        "state": "PA",
        "postalCode": "15235-3409"
      },
      {
        "line": [
          "425 Bliss Dr"
        ],
        "city": "PITTSBURGH",
        "state": "PA",
        "postalCode": "15236-4008"
      }
    ],
    "extension": [
      {
        "url": "https://fhir.athena.io/StructureDefinition/ah-practice",
        "valueReference": {
          "reference": "Organization/a-1.Practice-14268"
        }
      },
      {
        "url": "https://fhir.athena.io/StructureDefinition/ah-brand",
        "valueReference": {
          "reference": "Organization/a-14268.Brand-1"
        }
      }
    ]
  },
  "fullUrl": "urn:uuid:7a487c75-ca25-5fb9-921c-87caa4a18bdd"
}