{
  "resource": {
    "resourceType": "Organization",
    "id": "145ae838-e9fc-5467-a271-7f5d3569a358",
    "name": "Allied Physicians Surgery Center",
    "endpoint": [
      {
        "reference": "Endpoint/27a4e967-47aa-5a9c-a572-b8297ee268a2"
      },
      {
        "reference": "Endpoint/ecdc7a7e-5a18-5265-a81b-71d415f70cbc"
      }
    ],
    "identifier": [
      {
        "system": "http://hl7.org/fhir/sid/us-npi",
        "value": "1063422137"
      },
      {
        "system": "http://hl7.org/fhir/sid/us-npi",
        "value": "1629580758"
      },
      {
        "system": "http://hl7.org/fhir/sid/us-npi",
        "value": "1164934295"
      },
      {
        "system": "http://hl7.org/fhir/sid/us-npi",
        "value": "1336665991"
      },
      {
        "system": "http://hl7.org/fhir/sid/us-npi",
        "value": "1437661576"
      },
      {
        "system": "http://hl7.org/fhir/sid/us-npi",
        "value": "1669421277"
      }
    ],
    "address": [
      {
        "line": [
          "53880 Carmichael Drive"
        ],
        "city": "SOUTH BEND",
        "state": "IN",
        "postalCode": "46635-1567"
      },
      {
        "line": [
          "900 I Street"
        ],
        "city": "LA PORTE",
        "state": "IN",
        "postalCode": "46350-5533"
      },
      {
        "line": [
          "60160 Bodnar Blvd"
        ],
        "city": "MISHAWAKA",
        "state": "IN",
        "postalCode": "46544-9338"
      },
      {
        "line": [
          "1915 Lake Ave"
        ],
        "city": "PLYMOUTH",
        "state": "IN",
        "postalCode": "46563-9366"
      },
      {
        "line": [
          "SURGERY TEPLATE"
        ],
        "city": "MISHAWAKA",
        "state": "IN",
        "postalCode": "46545-1969"
      },
      {
        "line": [
          "5230 Beck Drive, Suite 6"
        ],
        "city": "ELKHART",
        "state": "IN",
        "postalCode": "46516-9059"
      },
      {
        "line": [
          "303 S NAPPANEE ST",
          "STE F"
        ],
        "city": "ELKHART",
        "state": "IN",
        "postalCode": "46514-2066"
      },
      {
        "line": [
          "615 N. Michigan Street"
        ],
        "city": "SOUTH BEND",
        "state": "IN",
        "postalCode": "46601-1033"
      },
      {
        "line": [
          "53880 CARMICHAEL DR"
        ],
        "city": "SOUTH BEND",
        "state": "IN",
        "postalCode": "46635-1567"
      },
      {
        "line": [
          "5218 BECK DR STE 10"
        ],
        "city": "ELKHART",
        "state": "IN",
        "postalCode": "46516-9132"
      },
      {
        "line": [
          "1020 High Road"
        ],
        "city": "BREMEN",
        "state": "IN",
        "postalCode": "46506-0008"
      },
      {
        "line": [
          "2349 LAKE AVE STE 201"
        ],
        "city": "PLYMOUTH",
        "state": "IN",
        "postalCode": "46563-7837"
      },
      {
        "line": [
          "2222 W. Lexington Ave"
        ],
        "city": "ELKHART",
        "state": "IN",
        "postalCode": "46514-1420"
      },
      {
        "line": [
          "1915 Lake"
        ],
        "city": "PLYMOUTH",
        "state": "IN",
        "postalCode": "46563-9366"
      },
      {
        "line": [
          "BLOCK"
        ],
        "city": "SOUTH BEND",
        "state": "IN",
        "postalCode": "46601-1033"
      },
      {
        "line": [
          "615 N. Michigan"
        ],
        "city": "SOUTH BEND",
        "state": "IN",
        "postalCode": "46601-1033"
      },
      {
        "line": [
          "53990 Carmichael Drive",
          "Suite 100"
        ],
        "city": "SOUTH BEND",
        "state": "IN",
        "postalCode": "46635-1585"
      },
      {
        "line": [
          "SCHEDULE TEMPLATE"
        ],
        "city": "MISHAWAKA",
        "state": "IN",
        "postalCode": "46545-1469"
      },
      {
        "line": [
          "5218 Beck Drive"
        ],
        "city": "ELKHART",
        "state": "IN",
        "postalCode": "46516-9132"
      },
      {
        "line": [
          "5215 Holy Cross Parkway"
        ],
        "city": "MISHAWAKA",
        "state": "IN",
        "postalCode": "46545-1469"
      },
      {
        "line": [
          "53990 Carmichael Drive",
          "STE 100"
        ],
        "city": "SOUTH BEND",
        "state": "IN",
        "postalCode": "46635-1585"
      },
      {
        "line": [
          "60160 Bodnard Blvd"
        ],
        "city": "MISHAWAKA",
        "state": "IN",
        "postalCode": "46544-9214"
      },
      {
        "line": [
          "60160 Bodnar Blvd"
        ],
        "city": "MISHAWAKA",
        "state": "IN",
        "postalCode": "46544-9214"
      },
      {
        "line": [
          "53880 Carmichael Drive"
        ],
        "city": "SOUTH BEND",
        "state": "IN",
        "postalCode": "46615-1567"
      },
      {
        "line": [
          "230 E Day Road"
        ],
        "city": "MISHAWAKA",
        "state": "IN",
        "postalCode": "46545-3408"
      },
      {
        "line": [
          "600 East Boulevard"
        ],
        "city": "ELKHART",
        "state": "IN",
        "postalCode": "46514-1329"
      },
      {
        "line": [
          "2349 Lake Ave",
          "Suite 201"
        ],
        "city": "PLYMOUTH",
        "state": "IN",
        "postalCode": "46563-7830"
      },
      {
        "line": [
          "2222 West Lexington Ave"
        ],
        "city": "ELKHART",
        "state": "IN",
        "postalCode": "46514-1420"
      },
      {
        "line": [
          "611 E. Douglas Rd",
          "Suite 128"
        ],
        "city": "MISHAWAKA",
        "state": "IN",
        "postalCode": "46545-1464"
      },
      {
        "line": [
          "SCHEDULE TEMPLATE"
        ],
        "city": "SOUTH BEND",
        "state": "IN",
        "postalCode": "46601-1033"
      },
      {
        "line": [
          "5230 BECK DRIVE",
          "SUITE 6"
        ],
        "city": "ELKHART",
        "state": "IN",
        "postalCode": "46516-9059"
      },
      {
        "line": [
          "60205 Bodnar Boulevard"
        ],
        "city": "MISHAWAKA",
        "state": "IN",
        "postalCode": "46544-9338"
      },
      {
        "line": [
          "SCHEDULE TEMPLATE"
        ],
        "city": "PLYMOUTH",
        "state": "IN",
        "postalCode": "46563-9366"
      },
      {
        "line": [
          "215 W. 4th Street"
        ],
        "city": "MISHAWAKA",
        "state": "IN",
        "postalCode": "46544-1917"
      },
      {
        "line": [
          "335 Florence Avenue",
          "Suite 1B"
        ],
        "city": "GRANGER",
        "state": "IN",
        "postalCode": "46530-8049"
      },
      {
        "line": [
          "335 Florence Avenue"
        ],
        "city": "GRANGER",
        "state": "IN",
        "postalCode": "46530-8049"
      },
      {
        "line": [
          "100 West Navarre Street"
        ],
        "city": "SOUTH BEND",
        "state": "IN",
        "postalCode": "46601-1176"
      }
    ],
    "extension": [
      {
        "url": "https://fhir.athena.io/StructureDefinition/ah-practice",
        "valueReference": {
          "reference": "Organization/a-1.Practice-13070"
        }
      },
      {
        "url": "https://fhir.athena.io/StructureDefinition/ah-brand",
        "valueReference": {
          "reference": "Organization/a-13070.Brand-2"
        }
      }
    ]
  },
  "fullUrl": "urn:uuid:145ae838-e9fc-5467-a271-7f5d3569a358"
}