{
  "resource": {
    "resourceType": "Organization",
    "id": "2d440760-b764-5917-ab3f-50491a4f75e7",
    "name": "CMGE dba Evergreen Family Medicine",
    "endpoint": [
      {
        "reference": "Endpoint/27a4e967-47aa-5a9c-a572-b8297ee268a2"
      },
      {
        "reference": "Endpoint/d25fc143-1cc9-5cbc-b3dd-00f4c0af70b8"
      }
    ],
    "identifier": [
      {
        "system": "http://hl7.org/fhir/sid/us-npi",
        "value": "1821366071"
      },
      {
        "system": "http://hl7.org/fhir/sid/us-npi",
        "value": "1164124111"
      },
      {
        "system": "http://hl7.org/fhir/sid/us-npi",
        "value": "1134243249"
      }
    ],
    "address": [
      {
        "line": [
          "145 NE Broadway"
        ],
        "city": "MYRTLE CREEK",
        "state": "OR",
        "postalCode": "97457-9039"
      },
      {
        "line": [
          "121 Cordelia Dr"
        ],
        "city": "MYRTLE CREEK",
        "state": "OR",
        "postalCode": "97457-7411"
      },
      {
        "line": [
          "2570 NW Edenbower Ste 100"
        ],
        "city": "ROSEBURG",
        "state": "OR",
        "postalCode": "97471-6214"
      },
      {
        "line": [
          "1937 W HARVARD AVE"
        ],
        "city": "ROSEBURG",
        "state": "OR",
        "postalCode": "97471-2720"
      },
      {
        "line": [
          "2570 NW Edenbower Blvd"
        ],
        "city": "ROSEBURG",
        "state": "OR",
        "postalCode": "97471-6214"
      },
      {
        "line": [
          "1937 W Harvard Ave"
        ],
        "city": "ROSEBURG",
        "state": "OR",
        "postalCode": "97471-2720"
      },
      {
        "line": [
          "1901 NW Hughwood Ave"
        ],
        "city": "ROSEBURG",
        "state": "OR",
        "postalCode": "97471-5598"
      },
      {
        "line": [
          "1458 Quail Lane"
        ],
        "city": "ROSEBURG",
        "state": "OR",
        "postalCode": "97471-9252"
      }
    ],
    "extension": [
      {
        "url": "https://fhir.athena.io/StructureDefinition/ah-practice",
        "valueReference": {
          "reference": "Organization/a-1.Practice-1334"
        }
      },
      {
        "url": "https://fhir.athena.io/StructureDefinition/ah-brand",
        "valueReference": {
          "reference": "Organization/a-1334.Brand-1"
        }
      }
    ]
  },
  "fullUrl": "urn:uuid:2d440760-b764-5917-ab3f-50491a4f75e7"
}