{
  "resource": {
    "resourceType": "Organization",
    "id": "0a5a49ba-d970-55b2-a00b-aa1a27d47fc7",
    "name": "Patient Home",
    "endpoint": [
      {
        "reference": "Endpoint/27a4e967-47aa-5a9c-a572-b8297ee268a2"
      },
      {
        "reference": "Endpoint/3120a9cf-d5ca-5951-9ab1-c1b38c75b3b4"
      }
    ],
    "identifier": [
      {
        "system": "http://hl7.org/fhir/sid/us-npi",
        "value": "1437196359"
      }
    ],
    "address": [
      {
        "line": [
          "464 Hillside Avenue",
          "Suite 304"
        ],
        "city": "NEEDHAM HEIGHTS",
        "state": "MA",
        "postalCode": "02494-1227"
      },
      {
        "line": [
          "1101 Beacon Street",
          "Suite 4East"
        ],
        "city": "BROOKLINE",
        "state": "MA",
        "postalCode": "02446-5587"
      },
      {
        "line": [
          "29 Stiles Road",
          "Suite 301"
        ],
        "city": "SALEM",
        "state": "NH",
        "postalCode": "03079-5802"
      },
      {
        "line": [
          "464 Hillside Avenue"
        ],
        "city": "NEEDHAM HEIGHTS",
        "state": "MA",
        "postalCode": "02494-1227"
      },
      {
        "line": [
          "95 Tremont Street",
          "Suite 10"
        ],
        "city": "DUXBURY",
        "state": "MA",
        "postalCode": "02332-4738"
      },
      {
        "line": [
          "2 Goddard Ave"
        ],
        "city": "AMESBURY",
        "state": "MA",
        "postalCode": "01913-0001"
      },
      {
        "line": [
          "1100 Washington Street",
          "Suite 100"
        ],
        "city": "DORCHESTER CENTER",
        "state": "MA",
        "postalCode": "02124-5520"
      },
      {
        "line": [
          "75 3rd Avenue",
          "1st Floor"
        ],
        "city": "WALTHAM",
        "state": "MA",
        "postalCode": "02451-7576"
      },
      {
        "line": [
          "1180 Beacon Street",
          "8th Floor"
        ],
        "city": "BROOKLINE",
        "state": "MA",
        "postalCode": "02446-3885"
      },
      {
        "line": [
          "1000 Broadway"
        ],
        "city": "CHELSEA",
        "state": "MA",
        "postalCode": "02150-2247"
      },
      {
        "line": [
          "700 Congress Street",
          "Suite 103"
        ],
        "city": "QUINCY",
        "state": "MA",
        "postalCode": "02169-0977"
      },
      {
        "line": [
          "100 Highland Street",
          "Suite 105"
        ],
        "city": "MILTON",
        "state": "MA",
        "postalCode": "02186-3874"
      },
      {
        "line": [
          "501 John Mahar Highway"
        ],
        "city": "BRAINTREE",
        "state": "MA",
        "postalCode": "02184-6562"
      },
      {
        "line": [
          "74 Route 6A"
        ],
        "city": "SANDWICH",
        "state": "MA",
        "postalCode": "02563-1864"
      },
      {
        "line": [
          "32 South Main Street",
          "Suite 100"
        ],
        "city": "RANDOLPH",
        "state": "MA",
        "postalCode": "02368-4835"
      },
      {
        "line": [
          "24 Hartwell Ave",
          "Suite 204"
        ],
        "city": "LEXINGTON",
        "state": "MA",
        "postalCode": "02421-3132"
      },
      {
        "line": [
          "3 Market Crossing",
          "2nd Floor"
        ],
        "city": "PLYMOUTH",
        "state": "MA",
        "postalCode": "02360-7735"
      }
    ],
    "extension": [
      {
        "url": "https://fhir.athena.io/StructureDefinition/ah-practice",
        "valueReference": {
          "reference": "Organization/a-1.Practice-10729"
        }
      },
      {
        "url": "https://fhir.athena.io/StructureDefinition/ah-brand",
        "valueReference": {
          "reference": "Organization/a-10729.Brand-1"
        }
      }
    ]
  },
  "fullUrl": "urn:uuid:0a5a49ba-d970-55b2-a00b-aa1a27d47fc7"
}