{
  "resource": {
    "resourceType": "Organization",
    "id": "26aeac0b-9edd-57d5-91a9-73441dddaf32",
    "name": "MyHome Healthcare",
    "endpoint": [
      {
        "reference": "Endpoint/27a4e967-47aa-5a9c-a572-b8297ee268a2"
      },
      {
        "reference": "Endpoint/e09cce60-3cf7-50a0-a7a1-ec2b6356c257"
      }
    ],
    "identifier": [
      {
        "system": "http://hl7.org/fhir/sid/us-npi",
        "value": "1225656762"
      }
    ],
    "address": [
      {
        "line": [
          "674 W HOLLIS ST"
        ],
        "city": "NASHUA",
        "state": "NH",
        "postalCode": "03062-1306"
      },
      {
        "line": [
          "800 TURNPIKE STREET, SUITE 300"
        ],
        "city": "NORTH ANDOVER",
        "state": "MA",
        "postalCode": "01845-6156"
      },
      {
        "line": [
          "1 VERONICA DR"
        ],
        "city": "DANVERS",
        "state": "MA",
        "postalCode": "01923-5213"
      },
      {
        "line": [
          "1395 Massachusetts Avenue"
        ],
        "city": "ARLINGTON",
        "state": "MA",
        "postalCode": "02476-4101"
      },
      {
        "line": [
          "254 LOWELL STREET"
        ],
        "city": "ANDOVER",
        "state": "MA",
        "postalCode": "01810-4600"
      },
      {
        "line": [
          "1 ESSEX ST"
        ],
        "city": "BEVERLY",
        "state": "MA",
        "postalCode": "01915-4560"
      },
      {
        "line": [
          "21 Crescent Street"
        ],
        "city": "WAKEFIELD",
        "state": "MA",
        "postalCode": "01880-2468"
      },
      {
        "line": [
          "20 CHARNSTAFF LN"
        ],
        "city": "BILLERICA",
        "state": "MA",
        "postalCode": "01821-6702"
      },
      {
        "line": [
          "800 Turnpike Street",
          "Suite 300"
        ],
        "city": "NORTH ANDOVER",
        "state": "MA",
        "postalCode": "01845-6156"
      },
      {
        "line": [
          "21 BROADWAY RD"
        ],
        "city": "DRACUT",
        "state": "MA",
        "postalCode": "01826-4360"
      },
      {
        "line": [
          "254 BILLERICA ROAD"
        ],
        "city": "CHELMSFORD",
        "state": "MA",
        "postalCode": "01824-4114"
      },
      {
        "line": [
          "158 ESSEX ST"
        ],
        "city": "MELROSE",
        "state": "MA",
        "postalCode": "02176-3176"
      },
      {
        "line": [
          "24 MALL RD"
        ],
        "city": "BURLINGTON",
        "state": "MA",
        "postalCode": "01803-4109"
      },
      {
        "line": [
          "9 SUMMER ST"
        ],
        "city": "DANVERS",
        "state": "MA",
        "postalCode": "01923-1558"
      },
      {
        "line": [
          "25 Woodland Road"
        ],
        "city": "STONEHAM",
        "state": "MA",
        "postalCode": "02180-1705"
      },
      {
        "line": [
          "50 Endicott St"
        ],
        "city": "DANVERS",
        "state": "MA",
        "postalCode": "01923-2586"
      },
      {
        "line": [
          "1 SYMMES RD"
        ],
        "city": "ARLINGTON",
        "state": "MA",
        "postalCode": "02474-2140"
      },
      {
        "line": [
          "2 Technology Drive"
        ],
        "city": "NORTH CHELMSFORD",
        "state": "MA",
        "postalCode": "01863-2400"
      },
      {
        "line": [
          "10 Devon Drive"
        ],
        "city": "ACTON",
        "state": "MA",
        "postalCode": "01720-5866"
      },
      {
        "line": [
          "285 COMMONWEALTH RD"
        ],
        "city": "WAYLAND",
        "state": "MA",
        "postalCode": "01778-5042"
      },
      {
        "line": [
          "99 PLEASANT ST"
        ],
        "city": "MARLBOROUGH",
        "state": "MA",
        "postalCode": "01752-2000"
      },
      {
        "line": [
          "55 Salem Street"
        ],
        "city": "LYNNFIELD",
        "state": "MA",
        "postalCode": "01940-2621"
      },
      {
        "line": [
          "300 W FARM POND RD"
        ],
        "city": "FRAMINGHAM",
        "state": "MA",
        "postalCode": "01702-6285"
      },
      {
        "line": [
          "141 Elm Street"
        ],
        "city": "ANDOVER",
        "state": "MA",
        "postalCode": "01810-1600"
      },
      {
        "line": [
          "8 W MAIN ST"
        ],
        "city": "GROTON",
        "state": "MA",
        "postalCode": "01450-1631"
      },
      {
        "line": [
          "3 REHABILITATION WAY"
        ],
        "city": "WOBURN",
        "state": "MA",
        "postalCode": "01801-6050"
      },
      {
        "line": [
          "32 Franklin Street"
        ],
        "city": "STONEHAM",
        "state": "MA",
        "postalCode": "02180-1849"
      },
      {
        "line": [
          "4 TECHNOLOGY DR"
        ],
        "city": "NORTH CHELMSFORD",
        "state": "MA",
        "postalCode": "01863-2438"
      },
      {
        "line": [
          "199 CONCORD RD"
        ],
        "city": "BILLERICA",
        "state": "MA",
        "postalCode": "01821-4656"
      },
      {
        "line": [
          "1827 BRIDGE ST"
        ],
        "city": "DRACUT",
        "state": "MA",
        "postalCode": "01826-2691"
      },
      {
        "line": [
          "56 WATERTOWN ST"
        ],
        "city": "LEXINGTON",
        "state": "MA",
        "postalCode": "02421-6331"
      },
      {
        "line": [
          "565 HUMPHREY ST"
        ],
        "city": "SWAMPSCOTT",
        "state": "MA",
        "postalCode": "01907-2600"
      },
      {
        "line": [
          "300 BEGAN WAY"
        ],
        "city": "WOBURN",
        "state": "MA",
        "postalCode": "01801-2485"
      },
      {
        "line": [
          "430 CONCORD AVE"
        ],
        "city": "LEXINGTON",
        "state": "MA",
        "postalCode": "02421-8040"
      },
      {
        "line": [
          "1275 TURNPIKE STREET"
        ],
        "city": "NORTH ANDOVER",
        "state": "MA",
        "postalCode": "01845-6141"
      },
      {
        "line": [
          "50 GREENLEAF WAY"
        ],
        "city": "BURLINGTON",
        "state": "MA",
        "postalCode": "01803-1146"
      },
      {
        "line": [
          "3 ESSEX STREET"
        ],
        "city": "BEVERLY",
        "state": "MA",
        "postalCode": "01915-4551"
      },
      {
        "line": [
          "108 LITTLETON RD"
        ],
        "city": "WESTFORD",
        "state": "MA",
        "postalCode": "01886-3114"
      },
      {
        "line": [
          "10 PELHAM RD"
        ],
        "city": "LEXINGTON",
        "state": "MA",
        "postalCode": "02421-8400"
      },
      {
        "line": [
          "140 Franklin Street"
        ],
        "city": "STONEHAM",
        "state": "MA",
        "postalCode": "02180-1547"
      },
      {
        "line": [
          "1 CEDAR ST"
        ],
        "city": "WOBURN",
        "state": "MA",
        "postalCode": "01801-6463"
      },
      {
        "line": [
          "240 SOUTH RD"
        ],
        "city": "BEDFORD",
        "state": "MA",
        "postalCode": "01730-2354"
      },
      {
        "line": [
          "73 MARGIN ST"
        ],
        "city": "PEABODY",
        "state": "MA",
        "postalCode": "01960-1877"
      },
      {
        "line": [
          "126 Smith Street"
        ],
        "city": "WALTHAM",
        "state": "MA",
        "postalCode": "02451-1300"
      },
      {
        "line": [
          "220 CONANT ST"
        ],
        "city": "DANVERS",
        "state": "MA",
        "postalCode": "01923-2586"
      }
    ],
    "extension": [
      {
        "url": "https://fhir.athena.io/StructureDefinition/ah-practice",
        "valueReference": {
          "reference": "Organization/a-1.Practice-22118"
        }
      },
      {
        "url": "https://fhir.athena.io/StructureDefinition/ah-brand",
        "valueReference": {
          "reference": "Organization/a-22118.Brand-1"
        }
      }
    ]
  },
  "fullUrl": "urn:uuid:26aeac0b-9edd-57d5-91a9-73441dddaf32"
}