{
  "resource": {
    "resourceType": "Organization",
    "id": "002e320f-2d99-5b51-a28a-ff7bf0af4311",
    "name": "WESTEND ADULT DAYCARE",
    "endpoint": [
      {
        "reference": "Endpoint/27a4e967-47aa-5a9c-a572-b8297ee268a2"
      },
      {
        "reference": "Endpoint/a6b05668-f2e8-549e-a619-da1749ff5c3e"
      }
    ],
    "identifier": [
      {
        "system": "http://hl7.org/fhir/sid/us-npi",
        "value": "1487879938"
      }
    ],
    "address": [
      {
        "line": [
          "1246 DEER PARK RD"
        ],
        "city": "WESTMINSTER",
        "state": "MD",
        "postalCode": "21157-8326"
      },
      {
        "line": [
          "9657 BELAIR ROAD"
        ],
        "city": "NOTTINGHAM",
        "state": "MD",
        "postalCode": "21236-1124"
      },
      {
        "line": [
          "2373 N Rolling Rd"
        ],
        "city": "WINDSOR MILL",
        "state": "MD",
        "postalCode": "21244-1952"
      },
      {
        "line": [
          "2316 E Joppa Rd",
          "Suite 1"
        ],
        "city": "PARKVILLE",
        "state": "MD",
        "postalCode": "21234-2808"
      },
      {
        "line": [
          "827 LINDEN AVENU"
        ],
        "city": "BALTIMORE",
        "state": "MD",
        "postalCode": "21201-4606"
      },
      {
        "line": [
          "660 MCHENRY RD"
        ],
        "city": "ABERDEEN",
        "state": "MD",
        "postalCode": "21001-2682"
      },
      {
        "line": [
          "501 South Union Avenue"
        ],
        "city": "HAVRE DE GRACE",
        "state": "MD",
        "postalCode": "21078-3409"
      },
      {
        "line": [
          "304 CANTATA COURT"
        ],
        "city": "REISTERSTOWN",
        "state": "MD",
        "postalCode": "21136-6510"
      },
      {
        "line": [
          "3216 TAYLOR AVE"
        ],
        "city": "PARKVILLE",
        "state": "MD",
        "postalCode": "21234-6931"
      },
      {
        "line": [
          "1 N Main St"
        ],
        "city": "BEL AIR",
        "state": "MD",
        "postalCode": "21014-3592"
      },
      {
        "line": [
          "6701 N CHARLES ST"
        ],
        "city": "TOWSON",
        "state": "MD",
        "postalCode": "21204-6808"
      },
      {
        "line": [
          "900 s caton avenue"
        ],
        "city": "BALTIMORE",
        "state": "MD",
        "postalCode": "21229-5201"
      },
      {
        "line": [
          "Woodholme Medical Center, 1838 Greene Tree Rd",
          "Suite 325"
        ],
        "city": "PIKESVILLE",
        "state": "MD",
        "postalCode": "21208-5347"
      },
      {
        "line": [
          "2541 CEDAR RIDGE DR"
        ],
        "city": "WESTMINSTER",
        "state": "MD",
        "postalCode": "21158-3119"
      },
      {
        "line": [
          "80 BELL ROAD"
        ],
        "city": "WESTMINSTER",
        "state": "MD",
        "postalCode": "21158-4104"
      },
      {
        "line": [
          "3304 MENLO DRIVE"
        ],
        "city": "BALTIMORE",
        "state": "MD",
        "postalCode": "21215-3826"
      },
      {
        "line": [
          "1110 Professional Ct"
        ],
        "city": "HAGERSTOWN",
        "state": "MD",
        "postalCode": "21740-5826"
      },
      {
        "line": [
          "826 Washington Rd",
          "Suite 203"
        ],
        "city": "WESTMINSTER",
        "state": "MD",
        "postalCode": "21157-1709"
      },
      {
        "line": [
          "501 SOUTH UNION AVENUE"
        ],
        "city": "HAVRE DE GRACE",
        "state": "MD",
        "postalCode": "21078-3409"
      },
      {
        "line": [
          "9 Saint Paul Street"
        ],
        "city": "BOONSBORO",
        "state": "MD",
        "postalCode": "21713-1334"
      },
      {
        "line": [
          "8611 CHURCH LANE"
        ],
        "city": "RANDALLSTOWN",
        "state": "MD",
        "postalCode": "21133-4632"
      },
      {
        "line": [
          "500 Upper Chesapeake Dr"
        ],
        "city": "BEL AIR",
        "state": "MD",
        "postalCode": "21014-4324"
      },
      {
        "line": [
          "8100 ROSSVILLE BLVD"
        ],
        "city": "NOTTINGHAM",
        "state": "MD",
        "postalCode": "21236-3923"
      },
      {
        "line": [
          "12001 LANHAM SEVERN RD"
        ],
        "city": "BOWIE",
        "state": "MD",
        "postalCode": "20720-4553"
      },
      {
        "line": [
          "1811 Crain Highway South",
          "Suite B"
        ],
        "city": "GLEN BURNIE",
        "state": "MD",
        "postalCode": "21061-6399"
      },
      {
        "line": [
          "404 Eastern Blvd",
          "Office 1"
        ],
        "city": "ESSEX",
        "state": "MD",
        "postalCode": "21221-6748"
      },
      {
        "line": [
          "910 WASHINGTON RD STE D"
        ],
        "city": "WESTMINSTER",
        "state": "MD",
        "postalCode": "21157-5845"
      },
      {
        "line": [
          "9123 GAITHER RD"
        ],
        "city": "GAITHERSBURG",
        "state": "MD",
        "postalCode": "20877-1451"
      },
      {
        "line": [
          "301 Hospital Dr"
        ],
        "city": "GLEN BURNIE",
        "state": "MD",
        "postalCode": "21061-5803"
      },
      {
        "line": [
          "200 MEMORIAL AVE"
        ],
        "city": "WESTMINSTER",
        "state": "MD",
        "postalCode": "21157-5726"
      },
      {
        "line": [
          "2229 W. JOPPA ROAD"
        ],
        "city": "LUTHERVILLE TIMONIUM",
        "state": "MD",
        "postalCode": "21093-4601"
      },
      {
        "line": [
          "4411 FRANKFORD AVE"
        ],
        "city": "BALTIMORE",
        "state": "MD",
        "postalCode": "21206-5134"
      },
      {
        "line": [
          "1205 York Rd",
          "Suite 17"
        ],
        "city": "LUTHERVILLE",
        "state": "MD",
        "postalCode": "21093-6211"
      },
      {
        "line": [
          "301 Hospital Drive"
        ],
        "city": "GLEN BURNIE",
        "state": "MD",
        "postalCode": "21061-5803"
      },
      {
        "line": [
          "9403 Harford Rd",
          "Suite 5"
        ],
        "city": "PARKVILLE",
        "state": "MD",
        "postalCode": "21234-3123"
      },
      {
        "line": [
          "540 E BELVEDERE AVE STE 204"
        ],
        "city": "BALTIMORE",
        "state": "MD",
        "postalCode": "21212-3750"
      },
      {
        "line": [
          "9419 COMMON BROOK RD",
          "STE 200"
        ],
        "city": "OWINGS MILLS",
        "state": "MD",
        "postalCode": "21117-7536"
      },
      {
        "line": [
          "7 SCHOOLHOUSE AVENUE"
        ],
        "city": "WESTMINSTER",
        "state": "MD",
        "postalCode": "21157-4566"
      },
      {
        "line": [
          "131 S Union Ave"
        ],
        "city": "HAVRE DE GRACE",
        "state": "MD",
        "postalCode": "21078-3125"
      },
      {
        "line": [
          "2120 INDUSTRIAL PKWY"
        ],
        "city": "SILVER SPRING",
        "state": "MD",
        "postalCode": "20904-1998"
      },
      {
        "line": [
          "3401 Box Hill Corporate Center Dr",
          "Suite 204"
        ],
        "city": "ABINGDON",
        "state": "MD",
        "postalCode": "21009-1251"
      },
      {
        "line": [
          "9114 PHILADELPHIA RD",
          "Suite 308"
        ],
        "city": "ROSEDALE",
        "state": "MD",
        "postalCode": "21237-4350"
      },
      {
        "line": [
          "306 CANTATA COURT"
        ],
        "city": "REISTERSTOWN",
        "state": "MD",
        "postalCode": "21136-6472"
      },
      {
        "line": [
          "814 EASTERN BOULEVARD"
        ],
        "city": "ESSEX",
        "state": "MD",
        "postalCode": "21221-3532"
      },
      {
        "line": [
          "535 OLD WESTMINSTER PIKE STE 105"
        ],
        "city": "WESTMINSTER",
        "state": "MD",
        "postalCode": "21157-6267"
      },
      {
        "line": [
          "404 Eastern",
          "Office 1"
        ],
        "city": "ESSEX",
        "state": "MD",
        "postalCode": "21221-6748"
      },
      {
        "line": [
          "6201 GREENBELT RD",
          "Suite L1-L2"
        ],
        "city": "BERWYN HEIGHTS",
        "state": "MD",
        "postalCode": "20740-2354"
      },
      {
        "line": [
          "1500-C Blenheim Farm Lane"
        ],
        "city": "HAVRE DE GRACE",
        "state": "MD",
        "postalCode": "21078-2042"
      },
      {
        "line": [
          "2000 W. BALTIMORE STREET"
        ],
        "city": "BALTIMORE",
        "state": "MD",
        "postalCode": "21223-1558"
      },
      {
        "line": [
          "11116 MEDICAL CAMPUS ROAD"
        ],
        "city": "HAGERSTOWN",
        "state": "MD",
        "postalCode": "21742-6710"
      },
      {
        "line": [
          "7117 CAMPFIELD RD"
        ],
        "city": "GWYNN OAK",
        "state": "MD",
        "postalCode": "21207-4660"
      },
      {
        "line": [
          "10540 York Rd",
          "Suite H"
        ],
        "city": "COCKEYSVILLE",
        "state": "MD",
        "postalCode": "21030-4365"
      },
      {
        "line": [
          "795 Aquahart Rd",
          "Suite 125"
        ],
        "city": "GLEN BURNIE",
        "state": "MD",
        "postalCode": "21061-3962"
      },
      {
        "line": [
          "11110 MEDICAL CAMPUS RD STE 125"
        ],
        "city": "HAGERSTOWN",
        "state": "MD",
        "postalCode": "21742-6799"
      },
      {
        "line": [
          "1116 MEDICAL CAMPUS ROAD"
        ],
        "city": "HAGERSTOWN",
        "state": "MD",
        "postalCode": "21740-6710"
      },
      {
        "line": [
          "900 S. Caton Avenue"
        ],
        "city": "BALTIMORE",
        "state": "MD",
        "postalCode": "21229-5201"
      }
    ],
    "extension": [
      {
        "url": "https://fhir.athena.io/StructureDefinition/ah-practice",
        "valueReference": {
          "reference": "Organization/a-1.Practice-6814"
        }
      },
      {
        "url": "https://fhir.athena.io/StructureDefinition/ah-brand",
        "valueReference": {
          "reference": "Organization/a-6814.Brand-1"
        }
      }
    ]
  },
  "fullUrl": "urn:uuid:002e320f-2d99-5b51-a28a-ff7bf0af4311"
}