{
  "resource": {
    "resourceType": "Organization",
    "id": "dca00ab1-d7f2-5674-a201-62e30c65df61",
    "name": "PRO HEALTH NEW JERSEY",
    "endpoint": [
      {
        "reference": "Endpoint/27a4e967-47aa-5a9c-a572-b8297ee268a2"
      },
      {
        "reference": "Endpoint/a8307787-07d3-5654-9bbc-adea27c3a657"
      }
    ],
    "identifier": [
      {
        "system": "http://hl7.org/fhir/sid/us-npi",
        "value": "1477927754"
      }
    ],
    "address": [
      {
        "line": [
          "4318 Route 130N"
        ],
        "city": "WILLINGBORO",
        "state": "NJ",
        "postalCode": "08046-1427"
      },
      {
        "line": [
          "2880 Highway 35"
        ],
        "city": "HAZLET",
        "state": "NJ",
        "postalCode": "07730-1504"
      },
      {
        "line": [
          "811 Route 33"
        ],
        "city": "TRENTON",
        "state": "NJ",
        "postalCode": "08619-4411"
      },
      {
        "line": [
          "165 S BLACK HORSE PIKE"
        ],
        "city": "RUNNEMEDE",
        "state": "NJ",
        "postalCode": "08078-1906"
      },
      {
        "line": [
          "2322 ROUTE 38"
        ],
        "city": "CHERRY HILL",
        "state": "NJ",
        "postalCode": "08002-1852"
      },
      {
        "line": [
          "3403 S. DELSEA DRIVE"
        ],
        "city": "VINELAND",
        "state": "NJ",
        "postalCode": "08360-7449"
      },
      {
        "line": [
          "4074 US HIGHWAY 9"
        ],
        "city": "HOWELL",
        "state": "NJ",
        "postalCode": "07731-3315"
      },
      {
        "line": [
          "301 S Main Road"
        ],
        "city": "VINELAND",
        "state": "NJ",
        "postalCode": "08360-7897"
      },
      {
        "line": [
          "1919 NJ Route 35",
          "Suite 100"
        ],
        "city": "BELMAR",
        "state": "NJ",
        "postalCode": "07719-3512"
      },
      {
        "line": [
          "875 Mantua Pike",
          "Suite B"
        ],
        "city": "WOODBURY",
        "state": "NJ",
        "postalCode": "08096-3337"
      },
      {
        "line": [
          "1680 N Olden Ave"
        ],
        "city": "TRENTON",
        "state": "NJ",
        "postalCode": "08638-3209"
      },
      {
        "line": [
          "251 North Broadway"
        ],
        "city": "PENNSVILLE",
        "state": "NJ",
        "postalCode": "08070-1200"
      },
      {
        "line": [
          "1210 Route 130N",
          "Suite 1438"
        ],
        "city": "RIVERTON",
        "state": "NJ",
        "postalCode": "08077-3046"
      },
      {
        "line": [
          "2 South Black Horse Pike"
        ],
        "city": "MOUNT EPHRAIM",
        "state": "NJ",
        "postalCode": "08059-1307"
      }
    ],
    "extension": [
      {
        "url": "https://fhir.athena.io/StructureDefinition/ah-practice",
        "valueReference": {
          "reference": "Organization/a-1.Practice-3908"
        }
      },
      {
        "url": "https://fhir.athena.io/StructureDefinition/ah-brand",
        "valueReference": {
          "reference": "Organization/a-3908.Brand-1"
        }
      }
    ]
  },
  "fullUrl": "urn:uuid:dca00ab1-d7f2-5674-a201-62e30c65df61"
}