{
  "resource": {
    "resourceType": "Organization",
    "id": "165824cd-a4fa-5975-aded-d98ad5a98fd5",
    "name": "Texas Regional Clinic",
    "endpoint": [
      {
        "reference": "Endpoint/27a4e967-47aa-5a9c-a572-b8297ee268a2"
      },
      {
        "reference": "Endpoint/e8f1f984-3b1c-59cc-a358-c9f6b16da261"
      }
    ],
    "identifier": [
      {
        "system": "http://hl7.org/fhir/sid/us-npi",
        "value": "1467011643"
      }
    ],
    "address": [
      {
        "line": [
          "9230 KATY FWY STE 601"
        ],
        "city": "HOUSTON",
        "state": "TX",
        "postalCode": "77055-7469"
      },
      {
        "line": [
          "6565 FANNIN ST"
        ],
        "city": "HOUSTON",
        "state": "TX",
        "postalCode": "77030-2703"
      },
      {
        "line": [
          "3070 COLLEGE ST STE 200"
        ],
        "city": "BEAUMONT",
        "state": "TX",
        "postalCode": "77701-4688"
      },
      {
        "line": [
          "8301 KATY FWY STE 101"
        ],
        "city": "HOUSTON",
        "state": "TX",
        "postalCode": "77024-1945"
      },
      {
        "line": [
          "1631 NORTH LOOP W STE 300"
        ],
        "city": "HOUSTON",
        "state": "TX",
        "postalCode": "77008-1528"
      },
      {
        "line": [
          "24429 TOMBALL PKWY"
        ],
        "city": "TOMBALL",
        "state": "TX",
        "postalCode": "77375-8214"
      },
      {
        "line": [
          "3070 COLLEGE ST STE 300"
        ],
        "city": "BEAUMONT",
        "state": "TX",
        "postalCode": "77701-4667"
      },
      {
        "line": [
          "1635 NORTH LOOP W"
        ],
        "city": "HOUSTON",
        "state": "TX",
        "postalCode": "77008-1532"
      },
      {
        "line": [
          "18500 KATY FWY"
        ],
        "city": "HOUSTON",
        "state": "TX",
        "postalCode": "77094-1110"
      },
      {
        "line": [
          "1900 NORTH LOOP W STE 600"
        ],
        "city": "HOUSTON",
        "state": "TX",
        "postalCode": "77018-8121"
      },
      {
        "line": [
          "9180 KATY FWY # 250"
        ],
        "city": "HOUSTON",
        "state": "TX",
        "postalCode": "77055-7454"
      },
      {
        "line": [
          "1313 HERMANN DR"
        ],
        "city": "HOUSTON",
        "state": "TX",
        "postalCode": "77004-7005"
      },
      {
        "line": [
          "25440 INTERSTATE 45"
        ],
        "city": "SPRING",
        "state": "TX",
        "postalCode": "77386-1343"
      },
      {
        "line": [
          "921 GESSNER RD"
        ],
        "city": "HOUSTON",
        "state": "TX",
        "postalCode": "77024-2501"
      },
      {
        "line": [
          "3400 I-30 FRONTAGE ROAD",
          "STE.300"
        ],
        "city": "MESQUITE",
        "state": "TX",
        "postalCode": "75150-5150"
      },
      {
        "line": [
          "710 CYPRESS CREEK PKWY"
        ],
        "city": "HOUSTON",
        "state": "TX",
        "postalCode": "77090-3402"
      },
      {
        "line": [
          "1475 FM 1960 BYPASS RD E"
        ],
        "city": "HUMBLE",
        "state": "TX",
        "postalCode": "77338-3909"
      },
      {
        "line": [
          "18951 N MEMORIAL DR"
        ],
        "city": "HUMBLE",
        "state": "TX",
        "postalCode": "77338-4217"
      },
      {
        "line": [
          "300 KINGWOOD MEDICAL DR"
        ],
        "city": "KINGWOOD",
        "state": "TX",
        "postalCode": "77339-6400"
      },
      {
        "line": [
          "1900 NORTH LOOP W STE 670"
        ],
        "city": "HOUSTON",
        "state": "TX",
        "postalCode": "77018-8119"
      },
      {
        "line": [
          "1317 LAKE POINTE PKWY"
        ],
        "city": "SUGAR LAND",
        "state": "TX",
        "postalCode": "77478-3997"
      },
      {
        "line": [
          "8301 Katy Fwy.",
          "Suite 101"
        ],
        "city": "HOUSTON",
        "state": "TX",
        "postalCode": "77024-1944"
      },
      {
        "line": [
          "6655 TRAVIS ST STE 200"
        ],
        "city": "HOUSTON",
        "state": "TX",
        "postalCode": "77030-1343"
      },
      {
        "line": [
          "12141 RICHMOND AVE"
        ],
        "city": "HOUSTON",
        "state": "TX",
        "postalCode": "77082-2408"
      },
      {
        "line": [
          "6500 SIERRA DR",
          "STE 170"
        ],
        "city": "IRVING",
        "state": "TX",
        "postalCode": "75039-2480"
      },
      {
        "line": [
          "6025 METROPOLITAN DR STE 290"
        ],
        "city": "BEAUMONT",
        "state": "TX",
        "postalCode": "77706-2409"
      },
      {
        "line": [
          "1401 ST JOSEPH PKWY"
        ],
        "city": "HOUSTON",
        "state": "TX",
        "postalCode": "77002-8301"
      },
      {
        "line": [
          "25510 INTERSTATE 45 STE 101"
        ],
        "city": "SPRING",
        "state": "TX",
        "postalCode": "77386-1375"
      },
      {
        "line": [
          "6025 METROPOLITAN DR"
        ],
        "city": "BEAUMONT",
        "state": "TX",
        "postalCode": "77706-2407"
      },
      {
        "line": [
          "6755 PHELAN BLVD STE 46"
        ],
        "city": "BEAUMONT",
        "state": "TX",
        "postalCode": "77706-6077"
      },
      {
        "line": [
          "5410 WEST LOOP S"
        ],
        "city": "BELLAIRE",
        "state": "TX",
        "postalCode": "77401-2103"
      },
      {
        "line": [
          "9090 GAYLORD DR"
        ],
        "city": "HOUSTON",
        "state": "TX",
        "postalCode": "77024-2966"
      }
    ],
    "extension": [
      {
        "url": "https://fhir.athena.io/StructureDefinition/ah-practice",
        "valueReference": {
          "reference": "Organization/a-1.Practice-25596"
        }
      },
      {
        "url": "https://fhir.athena.io/StructureDefinition/ah-brand",
        "valueReference": {
          "reference": "Organization/a-25596.Brand-1"
        }
      }
    ]
  },
  "fullUrl": "urn:uuid:165824cd-a4fa-5975-aded-d98ad5a98fd5"
}