{
  "resource": {
    "resourceType": "Organization",
    "id": "33f91264-cb9d-5821-9493-4463880fea47",
    "name": "Rosh MFM",
    "endpoint": [
      {
        "reference": "Endpoint/27a4e967-47aa-5a9c-a572-b8297ee268a2"
      },
      {
        "reference": "Endpoint/85bd2955-5d93-5ce4-a60f-25a48603d001"
      }
    ],
    "identifier": [
      {
        "system": "http://hl7.org/fhir/sid/us-npi",
        "value": "1306217971"
      },
      {
        "system": "http://hl7.org/fhir/sid/us-npi",
        "value": "1063710390"
      },
      {
        "system": "http://hl7.org/fhir/sid/us-npi",
        "value": "1669708582"
      }
    ],
    "address": [
      {
        "line": [
          "213 MADISON AVE",
          "SUITE 1A"
        ],
        "city": "NEW YORK",
        "state": "NY",
        "postalCode": "10016-3814"
      },
      {
        "line": [
          "971 US-202"
        ],
        "city": "SOMERVILLE",
        "state": "NJ",
        "postalCode": "08876-3757"
      },
      {
        "line": [
          "445 PARK AVE"
        ],
        "city": "BROOKLYN",
        "state": "NY",
        "postalCode": "11205-2735"
      },
      {
        "line": [
          "7203 13TH AVE"
        ],
        "city": "BROOKLYN",
        "state": "NY",
        "postalCode": "11228-2051"
      },
      {
        "line": [
          "354 BROAD ST"
        ],
        "city": "EATONTOWN",
        "state": "NJ",
        "postalCode": "07724-2329"
      },
      {
        "line": [
          "554 FIFTH AVE"
        ],
        "city": "NEW YORK",
        "state": "NY",
        "postalCode": "10036-5004"
      },
      {
        "line": [
          "17 SYLVAN ST",
          "SUITE 201"
        ],
        "city": "RUTHERFORD",
        "state": "NJ",
        "postalCode": "07070-2037"
      },
      {
        "line": [
          "3907 PRINCE ST",
          "SUITE 3H"
        ],
        "city": "FLUSHING",
        "state": "NY",
        "postalCode": "11354-5357"
      },
      {
        "line": [
          "2080 HIGHWAY 35 1"
        ],
        "city": "HOLMDEL",
        "state": "NJ",
        "postalCode": "07733-1090"
      },
      {
        "line": [
          "397 HALEDON AVE"
        ],
        "city": "HALEDON",
        "state": "NJ",
        "postalCode": "07508-1551"
      },
      {
        "line": [
          "877 STEWART AVE",
          "SUITE 9"
        ],
        "city": "GARDEN CITY",
        "state": "NY",
        "postalCode": "11530-4803"
      },
      {
        "line": [
          "225 BROADWAY",
          "SUITE 901"
        ],
        "city": "NEW YORK",
        "state": "NY",
        "postalCode": "10007-3001"
      },
      {
        "line": [
          "465 MOUNT PROSPECT AVE"
        ],
        "city": "NEWARK",
        "state": "NJ",
        "postalCode": "07104-2907"
      },
      {
        "line": [
          "3185 JOHN F. KENNEDY BLVD"
        ],
        "city": "JERSEY CITY",
        "state": "NJ",
        "postalCode": "07306-3415"
      },
      {
        "line": [
          "343 EAST 30TH ST",
          "LOBBY"
        ],
        "city": "NEW YORK",
        "state": "NY",
        "postalCode": "10016-6417"
      },
      {
        "line": [
          "233 WILLIS AVE"
        ],
        "city": "MINEOLA",
        "state": "NY",
        "postalCode": "11501-2432"
      },
      {
        "line": [
          "831 TENNENT RD"
        ],
        "city": "ENGLISHTOWN",
        "state": "NJ",
        "postalCode": "07726-8288"
      },
      {
        "line": [
          "21 EAST PARK PL"
        ],
        "city": "RUTHERFORD",
        "state": "NJ",
        "postalCode": "07070-2313"
      },
      {
        "line": [
          "2603 DEKALB PIKE"
        ],
        "city": "NORRISTOWN",
        "state": "PA",
        "postalCode": "19401-9999"
      },
      {
        "line": [
          "521 NEWMAN SPRINGS RD",
          "SUITE 12"
        ],
        "city": "LINCROFT",
        "state": "NJ",
        "postalCode": "07738-1463"
      },
      {
        "line": [
          "345 E 37TH ST#311"
        ],
        "city": "NEW YORK",
        "state": "NY",
        "postalCode": "10016-9999"
      },
      {
        "line": [
          "2 SEARS DR",
          "SUITE 104"
        ],
        "city": "PARAMUS",
        "state": "NJ",
        "postalCode": "07652-3539"
      },
      {
        "line": [
          "301 BEECH ST"
        ],
        "city": "HACKENSACK",
        "state": "NJ",
        "postalCode": "07601-2114"
      },
      {
        "line": [
          "401 S VAN BRUNT ST",
          "SUITE 405"
        ],
        "city": "ENGLEWOOD",
        "state": "NJ",
        "postalCode": "07631-4604"
      },
      {
        "line": [
          "331 SUMMIT AVE"
        ],
        "city": "HACKENSACK",
        "state": "NJ",
        "postalCode": "07601-1429"
      },
      {
        "line": [
          "200 Sheffield St",
          "SUITE 313"
        ],
        "city": "MOUNTAINSIDE",
        "state": "NJ",
        "postalCode": "07092-9999"
      },
      {
        "line": [
          "35 JOURNAL SQUARE",
          "SUITE 822"
        ],
        "city": "JERSEY CITY",
        "state": "NJ",
        "postalCode": "07306-4007"
      },
      {
        "line": [
          "568 BAY RIDGE PKWY"
        ],
        "city": "BROOKLYN",
        "state": "NY",
        "postalCode": "11209-3310"
      },
      {
        "line": [
          "214 STATE ST",
          "SUITE 23"
        ],
        "city": "HACKENSACK",
        "state": "NJ",
        "postalCode": "07601-5500"
      },
      {
        "line": [
          "200 Sheffield St",
          "Suite 313"
        ],
        "city": "MOUNTAINSIDE",
        "state": "NJ",
        "postalCode": "07092-9999"
      },
      {
        "line": [
          "100 EAST 77TH ST"
        ],
        "city": "NEW YORK",
        "state": "NY",
        "postalCode": "10075-1850"
      },
      {
        "line": [
          "37-51 91ST ST"
        ],
        "city": "JACKSON HEIGHTS",
        "state": "NY",
        "postalCode": "11372-7927"
      },
      {
        "line": [
          "150 OVERLOOK AVE"
        ],
        "city": "HACKENSACK",
        "state": "NJ",
        "postalCode": "07601-2206"
      },
      {
        "line": [
          "38-08 UNION ST",
          "SUITE 3G"
        ],
        "city": "FLUSHING",
        "state": "NY",
        "postalCode": "11354-5543"
      },
      {
        "line": [
          "1300 UNION TURNPIKE"
        ],
        "city": "NEW HYDE PARK",
        "state": "NY",
        "postalCode": "11040-1760"
      },
      {
        "line": [
          "185 JOHN F. KENNEDY BLVD"
        ],
        "city": "JERSEY CITY",
        "state": "NJ",
        "postalCode": "07306-3415"
      },
      {
        "line": [
          "24 STELTON RD"
        ],
        "city": "PISCATAWAY",
        "state": "NJ",
        "postalCode": "08854-2662"
      },
      {
        "line": [
          "985 PAULISON AVE"
        ],
        "city": "CLIFTON",
        "state": "NJ",
        "postalCode": "07011-3629"
      },
      {
        "line": [
          "60 WEST 68TH ST",
          "SUITE 1A"
        ],
        "city": "NEW YORK",
        "state": "NY",
        "postalCode": "10023-6020"
      },
      {
        "line": [
          "115 EAST 67TH ST.",
          "SUITE 1A"
        ],
        "city": "NEW YORK",
        "state": "NY",
        "postalCode": "10065-5990"
      },
      {
        "line": [
          "445 PARK AVE"
        ],
        "city": "BROOKLYN",
        "state": "NY",
        "postalCode": "11205-9999"
      },
      {
        "line": [
          "110 EAST 40TH ST",
          "SUITE 801"
        ],
        "city": "NEW YORK",
        "state": "NY",
        "postalCode": "10016-1801"
      },
      {
        "line": [
          "143-16 SANFORD AVE"
        ],
        "city": "FLUSHING",
        "state": "NY",
        "postalCode": "11355-2044"
      },
      {
        "line": [
          "903 LEXINGTON AVE",
          "Suite 1A"
        ],
        "city": "NEW YORK",
        "state": "NY",
        "postalCode": "10065-5987"
      },
      {
        "line": [
          "1775 RICHMOND AVE"
        ],
        "city": "STATEN ISLAND",
        "state": "NY",
        "postalCode": "10314-3907"
      },
      {
        "line": [
          "22 SYLVAN ST",
          "SUITE 300"
        ],
        "city": "RUTHERFORD",
        "state": "NJ",
        "postalCode": "07070-2087"
      },
      {
        "line": [
          "10031 4TH AVE",
          "SUITE 1E"
        ],
        "city": "BROOKLYN",
        "state": "NY",
        "postalCode": "11209-8335"
      },
      {
        "line": [
          "69-15 YELLOWSTONE BLVD",
          "SUITE 3"
        ],
        "city": "FOREST HILLS",
        "state": "NY",
        "postalCode": "11375-9406"
      },
      {
        "line": [
          "903 LEXINGTON AVE",
          "SUITE 1A"
        ],
        "city": "NEW YORK",
        "state": "NY",
        "postalCode": "10065-5987"
      },
      {
        "line": [
          "1945 US-22"
        ],
        "city": "UNION",
        "state": "NJ",
        "postalCode": "07083-8317"
      },
      {
        "line": [
          "50 CHESTNUT RIDGE RD SUITE 210"
        ],
        "city": "MONTVALE",
        "state": "NJ",
        "postalCode": "07645-1841"
      },
      {
        "line": [
          "115 E 67th"
        ],
        "city": "NEW YORK",
        "state": "NY",
        "postalCode": "10065-5990"
      },
      {
        "line": [
          "115 PLYMOUTH ROAD",
          "C1 SUITE 5"
        ],
        "city": "PLYMOUTH MEETING",
        "state": "PA",
        "postalCode": "19462-1407"
      },
      {
        "line": [
          "140 GRAND AVE"
        ],
        "city": "ENGLEWOOD",
        "state": "NJ",
        "postalCode": "07631-6581"
      },
      {
        "line": [
          "68-52 FRESH POND RD"
        ],
        "city": "RIDGEWOOD",
        "state": "NY",
        "postalCode": "11385-5230"
      },
      {
        "line": [
          "1300 UNION TURNPIKE",
          "SUITE 206"
        ],
        "city": "NEW HYDE PARK",
        "state": "NY",
        "postalCode": "11040-1760"
      },
      {
        "line": [
          "554 5th Ave",
          "4 TH FLOOR"
        ],
        "city": "NEW YORK",
        "state": "NY",
        "postalCode": "10036-5004"
      },
      {
        "line": [
          "16 POCONO RD",
          "SUITE 105"
        ],
        "city": "DENVILLE",
        "state": "NJ",
        "postalCode": "07834-2901"
      },
      {
        "line": [
          "213 MADISON AVE STE 1A"
        ],
        "city": "NEW YORK",
        "state": "NY",
        "postalCode": "10016-3814"
      },
      {
        "line": [
          "432 NY-52"
        ],
        "city": "WOODBOURNE",
        "state": "NY",
        "postalCode": "12788-9999"
      },
      {
        "line": [
          "501 STATE ROUTE 208"
        ],
        "city": "MONROE",
        "state": "NY",
        "postalCode": "10950-1611"
      },
      {
        "line": [
          "140 GRAND AVE",
          "SUITE A"
        ],
        "city": "ENGLEWOOD",
        "state": "NJ",
        "postalCode": "07631-6581"
      },
      {
        "line": [
          "115 EAST 57TH ST",
          "suite 420 & 430,"
        ],
        "city": "NEW YORK",
        "state": "NY",
        "postalCode": "10022-2049"
      },
      {
        "line": [
          "2080 HIGHWAY 35 S"
        ],
        "city": "HOLMDEL",
        "state": "NJ",
        "postalCode": "07733-1090"
      }
    ],
    "extension": [
      {
        "url": "https://fhir.athena.io/StructureDefinition/ah-practice",
        "valueReference": {
          "reference": "Organization/a-1.Practice-21664"
        }
      },
      {
        "url": "https://fhir.athena.io/StructureDefinition/ah-brand",
        "valueReference": {
          "reference": "Organization/a-21664.Brand-1"
        }
      }
    ]
  },
  "fullUrl": "urn:uuid:33f91264-cb9d-5821-9493-4463880fea47"
}