{
  "resource": {
    "resourceType": "Organization",
    "id": "cbce7786-38cf-571a-8e09-c8ab45a745dc",
    "name": "Ascension Medical Group Saint Thomas",
    "endpoint": [
      {
        "reference": "Endpoint/27a4e967-47aa-5a9c-a572-b8297ee268a2"
      },
      {
        "reference": "Endpoint/f67628aa-42b5-5e0f-a003-f23e4861bd7b"
      }
    ],
    "identifier": [
      {
        "system": "http://hl7.org/fhir/sid/us-npi",
        "value": "1437194669"
      },
      {
        "system": "http://hl7.org/fhir/sid/us-npi",
        "value": "1902043433"
      },
      {
        "system": "http://hl7.org/fhir/sid/us-npi",
        "value": "1396798302"
      },
      {
        "system": "http://hl7.org/fhir/sid/us-npi",
        "value": "1881981033"
      },
      {
        "system": "http://hl7.org/fhir/sid/us-npi",
        "value": "1598929135"
      },
      {
        "system": "http://hl7.org/fhir/sid/us-npi",
        "value": "1033294673"
      },
      {
        "system": "http://hl7.org/fhir/sid/us-npi",
        "value": "1972193191"
      },
      {
        "system": "http://hl7.org/fhir/sid/us-npi",
        "value": "1063002202"
      },
      {
        "system": "http://hl7.org/fhir/sid/us-npi",
        "value": "1992397152"
      },
      {
        "system": "http://hl7.org/fhir/sid/us-npi",
        "value": "1437749678"
      }
    ],
    "address": [
      {
        "line": [
          "4230 Harding Road Suite 900"
        ],
        "city": "NASHVILLE",
        "state": "TN",
        "postalCode": "37205-4900"
      },
      {
        "line": [
          "114 Saundersville Rd"
        ],
        "city": "Hendersonville",
        "state": "TN",
        "postalCode": "37075-2482"
      },
      {
        "line": [
          "6130 Nolensville Pike"
        ],
        "city": "NASHVILLE",
        "state": "TN",
        "postalCode": "37211-6183"
      },
      {
        "line": [
          "417 Sewell Dr"
        ],
        "city": "SPARTA",
        "state": "TN",
        "postalCode": "38583-1223"
      },
      {
        "line": [
          "1700 MEDICAL CENTER PKWY"
        ],
        "city": "MURFREESBORO",
        "state": "TN",
        "postalCode": "37129-2245"
      },
      {
        "line": [
          "300 20th Ave N",
          "Suite G2"
        ],
        "city": "Nashville",
        "state": "TN",
        "postalCode": "37203-2132"
      },
      {
        "line": [
          "1645 SOUTH MAIN STREET"
        ],
        "city": "CROSSVILLE",
        "state": "TN",
        "postalCode": "38555-2908"
      },
      {
        "line": [
          "435 SEWELL ROAD"
        ],
        "city": "COOKEVILLE",
        "state": "TN",
        "postalCode": "38501-1710"
      },
      {
        "line": [
          "300 20th Ave North Ste 405"
        ],
        "city": "NASHVILLE",
        "state": "TN",
        "postalCode": "37203-2131"
      },
      {
        "line": [
          "300 20th Ave. N. 9th Floor"
        ],
        "city": "NASHVILLE",
        "state": "TN",
        "postalCode": "37203-5600"
      },
      {
        "line": [
          "120 Walnut Commons Ln, Suite D"
        ],
        "city": "COOKEVILLE",
        "state": "TN",
        "postalCode": "38501-6037"
      },
      {
        "line": [
          "1020 N HIGHLAND STE A"
        ],
        "city": "MURFREESBORO",
        "state": "TN",
        "postalCode": "37130-2494"
      },
      {
        "line": [
          "1589 Sparta Rd",
          "Suite 205"
        ],
        "city": "McMinnville",
        "state": "TN",
        "postalCode": "37110-1332"
      },
      {
        "line": [
          "3301 Aspen Grove Dr Ste 101"
        ],
        "city": "FRANKLIN",
        "state": "TN",
        "postalCode": "37067-2903"
      },
      {
        "line": [
          "2835 Highway 231 North"
        ],
        "city": "Shelbyville",
        "state": "TN",
        "postalCode": "37160-7327"
      },
      {
        "line": [
          "518 WEST MAIN ST, STE B"
        ],
        "city": "SMITHVILLE",
        "state": "TN",
        "postalCode": "37166-1138"
      },
      {
        "line": [
          "120 WALNUT COMMONS LN, STE C"
        ],
        "city": "COOKEVILLE",
        "state": "TN",
        "postalCode": "38501-6037"
      },
      {
        "line": [
          "411 SEWELL ROAD"
        ],
        "city": "SPARTA",
        "state": "TN",
        "postalCode": "38583-1223"
      },
      {
        "line": [
          "1800 Medical Center Pkwy, Suite 120"
        ],
        "city": "MURFREESBORO",
        "state": "TN",
        "postalCode": "37129-2568"
      },
      {
        "line": [
          "120 Walnut Commons Ln Suite B"
        ],
        "city": "COOKEVILLE",
        "state": "TN",
        "postalCode": "38501-6037"
      },
      {
        "line": [
          "108 Providence Trail, Suite 100"
        ],
        "city": "MOUNT JULIET",
        "state": "TN",
        "postalCode": "37122-6386"
      },
      {
        "line": [
          "518 WEST MAIN ST"
        ],
        "city": "SMITHVILLE",
        "state": "TN",
        "postalCode": "37166-1100"
      },
      {
        "line": [
          "4323 Carothers Parkway, Ste 308"
        ],
        "city": "FRANKLIN",
        "state": "TN",
        "postalCode": "37067-5918"
      },
      {
        "line": [
          "222 22nd Ave N",
          "Suite 501"
        ],
        "city": "Nashville",
        "state": "TN",
        "postalCode": "37203-1871"
      },
      {
        "line": [],
        "city": "NASHVILLE",
        "state": "TN",
        "postalCode": "37228-1330"
      },
      {
        "line": [
          "735 McFarland Street"
        ],
        "city": "MORRISTOWN",
        "state": "TN",
        "postalCode": "37814-3977"
      },
      {
        "line": [
          "401 SEWELL DRIVE"
        ],
        "city": "SPARTA",
        "state": "TN",
        "postalCode": "38583-0001"
      },
      {
        "line": [
          "225 N Willow Ave"
        ],
        "city": "Cookeville",
        "state": "TN",
        "postalCode": "38501-2335"
      },
      {
        "line": [
          "300 20th Ave N, Suite 403"
        ],
        "city": "NASHVILLE",
        "state": "TN",
        "postalCode": "37203-2173"
      },
      {
        "line": [
          "300 20th Ave North",
          "8th Fl"
        ],
        "city": "NASHVILLE",
        "state": "TN",
        "postalCode": "37203-5600"
      },
      {
        "line": [
          "300 20th Ave North"
        ],
        "city": "NASHVILLE",
        "state": "TN",
        "postalCode": "37203-2131"
      },
      {
        "line": [
          "2650 N. Mt. Juliet Rd"
        ],
        "city": "MOUNT JULIET",
        "state": "TN",
        "postalCode": "37122-8015"
      },
      {
        "line": [
          "1700 Medical Center Parkway"
        ],
        "city": "MURFREESBORO",
        "state": "TN",
        "postalCode": "37129-2245"
      },
      {
        "line": [
          "300 20th Avenue N, Suite 403"
        ],
        "city": "NASHVILLE",
        "state": "TN",
        "postalCode": "37203-2131"
      },
      {
        "line": [
          "120 WALNUT COMMONS LN, STE D"
        ],
        "city": "COOKEVILLE",
        "state": "TN",
        "postalCode": "38501-4243"
      },
      {
        "line": [
          "268 Veterans Blvd"
        ],
        "city": "MURFREESBORO",
        "state": "TN",
        "postalCode": "37128-6431"
      },
      {
        "line": [
          "322 Kennedy St"
        ],
        "city": "Lawrenceburg",
        "state": "TN",
        "postalCode": "38464-2122"
      },
      {
        "line": [
          "652 NORTH CEDAR AVENUE"
        ],
        "city": "COOKEVILLE",
        "state": "TN",
        "postalCode": "38501-1710"
      },
      {
        "line": [
          "131 French Landing Dr"
        ],
        "city": "NASHVILLE",
        "state": "TN",
        "postalCode": "37228-1511"
      },
      {
        "line": [
          "300 20TH AVE N  STE 403"
        ],
        "city": "NASHVILLE",
        "state": "TN",
        "postalCode": "37203-2173"
      },
      {
        "line": [
          "1040 N James Campbell Blvd",
          "Suite 101"
        ],
        "city": "Columbia",
        "state": "TN",
        "postalCode": "38401-2758"
      },
      {
        "line": [
          "220 CUMBERLAND BND"
        ],
        "city": "NASHVILLE",
        "state": "TN",
        "postalCode": "37228-1804"
      },
      {
        "line": [
          "2001 Woodmont Blvd"
        ],
        "city": "NASHVILLE",
        "state": "TN",
        "postalCode": "37215-1588"
      },
      {
        "line": [
          "4230 HARDING PK, STE 901"
        ],
        "city": "NASHVILLE",
        "state": "TN",
        "postalCode": "37205-2149"
      },
      {
        "line": [
          "110 St Blaise Road"
        ],
        "city": "GALLATIN",
        "state": "TN",
        "postalCode": "37066-3089"
      },
      {
        "line": [
          "2319 Rudolphtown Rd Suite A"
        ],
        "city": "CLARKSVILLE",
        "state": "TN",
        "postalCode": "37043-2382"
      },
      {
        "line": [
          "1800 Medical Ctr Pkwy",
          "Suite 410"
        ],
        "city": "Murfreesboro",
        "state": "TN",
        "postalCode": "37129-3182"
      },
      {
        "line": [
          "131 French Landing Dr"
        ],
        "city": "Nashville",
        "state": "TN",
        "postalCode": "37228-1511"
      },
      {
        "line": [
          "502 N Garden St",
          "Suite 107"
        ],
        "city": "Columbia",
        "state": "TN",
        "postalCode": "38402-3237"
      },
      {
        "line": [
          "4220 Harding Rd",
          "Suite 500"
        ],
        "city": "NASHVILLE",
        "state": "TN",
        "postalCode": "37205-2005"
      },
      {
        "line": [
          "324 Doolittle Rd"
        ],
        "city": "WOODBURY",
        "state": "TN",
        "postalCode": "37190-1139"
      },
      {
        "line": [
          "5073 Main St",
          "Suite 200"
        ],
        "city": "Spring Hill",
        "state": "TN",
        "postalCode": "37174-2738"
      },
      {
        "line": [
          "4230 Harding Rd",
          "Suite 530"
        ],
        "city": "Nashville",
        "state": "TN",
        "postalCode": "37205-2094"
      },
      {
        "line": [
          "300 20th Ave N"
        ],
        "city": "NASHVILLE",
        "state": "TN",
        "postalCode": "37203-2131"
      },
      {
        "line": [
          "4230 Harding Road Suite 535"
        ],
        "city": "Nashville",
        "state": "TN",
        "postalCode": "37205-2018"
      },
      {
        "line": [
          "417 Sewell Drive"
        ],
        "city": "Sparta",
        "state": "TN",
        "postalCode": "38583-0001"
      },
      {
        "line": [
          "300 20th Ave N",
          "Suite G8"
        ],
        "city": "NASHVILLE",
        "state": "TN",
        "postalCode": "37203-2131"
      },
      {
        "line": [
          "4230 Harding Rd",
          "Suite 530"
        ],
        "city": "NASHVILLE",
        "state": "TN",
        "postalCode": "37203-2131"
      },
      {
        "line": [
          "647 Dunlop Lane Suite 200"
        ],
        "city": "CLARKSVILLE",
        "state": "TN",
        "postalCode": "37040-5165"
      },
      {
        "line": [
          "927 N James Campbell Blvd",
          "Suite 105"
        ],
        "city": "Columbia",
        "state": "TN",
        "postalCode": "38401-2753"
      },
      {
        "line": [
          "4323 Carothers Pkwy Ste 303"
        ],
        "city": "FRANKLIN",
        "state": "TN",
        "postalCode": "37067-5918"
      },
      {
        "line": [
          "35 TAYLOR AVE., STE 103"
        ],
        "city": "CROSSVILLE",
        "state": "TN",
        "postalCode": "38555-4526"
      },
      {
        "line": [
          "518 West Main St, Suite B"
        ],
        "city": "SMITHVILLE",
        "state": "TN",
        "postalCode": "37166-1100"
      },
      {
        "line": [
          "1909 Mallory Ln"
        ],
        "city": "Franklin",
        "state": "TN",
        "postalCode": "37067-2830"
      },
      {
        "line": [
          "1040 N James Campbell Blvd Ste 101"
        ],
        "city": "COLUMBIA",
        "state": "TN",
        "postalCode": "38401-2758"
      },
      {
        "line": [
          "2004 Hayes Street, Suite 140"
        ],
        "city": "NASHVILLE",
        "state": "TN",
        "postalCode": "37203-2648"
      },
      {
        "line": [
          "300 20TH AVE NORTH STE 604"
        ],
        "city": "NASHVILLE",
        "state": "TN",
        "postalCode": "37203-2115"
      },
      {
        "line": [
          "300 20th Ave N",
          "Ste G8"
        ],
        "city": "NASHVILLE",
        "state": "TN",
        "postalCode": "37203-2225"
      },
      {
        "line": [
          "2000 Church Street"
        ],
        "city": "NASHVILLE",
        "state": "TN",
        "postalCode": "37236-0001"
      },
      {
        "line": [
          "1559 SPARTA ST"
        ],
        "city": "MCMINNVILLE",
        "state": "TN",
        "postalCode": "37110-1316"
      },
      {
        "line": [
          "200 Stone Crest Blvd"
        ],
        "city": "Smyrna",
        "state": "TN",
        "postalCode": "37167-6810"
      },
      {
        "line": [
          "120 WALNUT COMMONS, STE C"
        ],
        "city": "COOKEVILLE",
        "state": "TN",
        "postalCode": "38501-6035"
      },
      {
        "line": [
          "1911 State Street"
        ],
        "city": "NASHVILLE",
        "state": "TN",
        "postalCode": "37203-2209"
      },
      {
        "line": [
          "2835 Hwy 231 North"
        ],
        "city": "Shelbyville",
        "state": "TN",
        "postalCode": "37160-7327"
      },
      {
        "line": [
          "1040 N James Campbell Blvd",
          "Suite 101"
        ],
        "city": "COLUMBIA",
        "state": "TN",
        "postalCode": "38401-2758"
      },
      {
        "line": [
          "2011 Murphy Ave Ste 301"
        ],
        "city": "NASHVILLE",
        "state": "TN",
        "postalCode": "37203-2023"
      }
    ],
    "extension": [
      {
        "url": "https://fhir.athena.io/StructureDefinition/ah-practice",
        "valueReference": {
          "reference": "Organization/a-1.Practice-7654"
        }
      },
      {
        "url": "https://fhir.athena.io/StructureDefinition/ah-brand",
        "valueReference": {
          "reference": "Organization/a-7654.Brand-1"
        }
      }
    ]
  },
  "fullUrl": "urn:uuid:cbce7786-38cf-571a-8e09-c8ab45a745dc"
}