{
  "resource": {
    "resourceType": "Organization",
    "id": "6b9784a3-8b68-523b-b4b7-c7a990144e3d",
    "name": "MINT STL",
    "endpoint": [
      {
        "reference": "Endpoint/27a4e967-47aa-5a9c-a572-b8297ee268a2"
      },
      {
        "reference": "Endpoint/1ea848fc-6198-56de-ac7e-b94a9da3327c"
      }
    ],
    "identifier": [
      {
        "system": "http://hl7.org/fhir/sid/us-npi",
        "value": "1588146211"
      }
    ],
    "address": [
      {
        "line": [
          "7068 S Outer Rd 364"
        ],
        "city": "O FALLON",
        "state": "MO",
        "postalCode": "63368-7757"
      },
      {
        "line": [
          "1 MERAMEC BLUFFS DR"
        ],
        "city": "BALLWIN",
        "state": "MO",
        "postalCode": "63021-3309"
      },
      {
        "line": [
          "4359 TAFT AVE"
        ],
        "city": "SAINT LOUIS",
        "state": "MO",
        "postalCode": "63116-1533"
      },
      {
        "line": [
          "4960 LACLEDE AVE"
        ],
        "city": "SAINT LOUIS",
        "state": "MO",
        "postalCode": "63108-1404"
      },
      {
        "line": [
          "3500 CENTURY DR"
        ],
        "city": "GRANITE CITY",
        "state": "IL",
        "postalCode": "62040-2166"
      },
      {
        "line": [
          "3421 Gasconade St"
        ],
        "city": "SAINT LOUIS",
        "state": "MO",
        "postalCode": "63118-4201"
      },
      {
        "line": [
          "850 Country Manor Lane"
        ],
        "city": "SAINT LOUIS",
        "state": "MO",
        "postalCode": "63141-6651"
      },
      {
        "line": [
          "12855 North Forty drive",
          "suite 205"
        ],
        "city": "SAINT LOUIS",
        "state": "MO",
        "postalCode": "63141-8705"
      },
      {
        "line": [
          "13700 Old Halls Ferry Rd"
        ],
        "city": "FLORISSANT",
        "state": "MO",
        "postalCode": "63033-4109"
      },
      {
        "line": [
          "12855 N 40 DR STE 205"
        ],
        "city": "SAINT LOUIS",
        "state": "MO",
        "postalCode": "63141-8670"
      },
      {
        "line": [
          "3333 BROWN RD"
        ],
        "city": "SAINT LOUIS",
        "state": "MO",
        "postalCode": "63114-4327"
      },
      {
        "line": [
          "12855 North Forty Dr",
          "STE 205"
        ],
        "city": "SAINT LOUIS",
        "state": "MO",
        "postalCode": "63141-8705"
      },
      {
        "line": [
          "800 CHAMBERS RD"
        ],
        "city": "SAINT LOUIS",
        "state": "MO",
        "postalCode": "63135-2133"
      },
      {
        "line": [
          "2115 Kappel Ave"
        ],
        "city": "SAINT LOUIS",
        "state": "MO",
        "postalCode": "63136-4115"
      },
      {
        "line": [
          "3645 Cook"
        ],
        "city": "SAINT LOUIS",
        "state": "MO",
        "postalCode": "63113-3801"
      },
      {
        "line": [
          "2415 N Kingshighway Blvd"
        ],
        "city": "SAINT LOUIS",
        "state": "MO",
        "postalCode": "63113-1109"
      },
      {
        "line": [
          "13550 SOUTH OUTER 40 RD"
        ],
        "city": "CHESTERFIELD",
        "state": "MO",
        "postalCode": "63017-5812"
      },
      {
        "line": [
          "9730 S WESTERN AVE"
        ],
        "city": "EVERGREEN PARK",
        "state": "IL",
        "postalCode": "60805-2814"
      },
      {
        "line": [
          "13303 TESSON FERRY RD"
        ],
        "city": "SAINT LOUIS",
        "state": "MO",
        "postalCode": "63128-4062"
      },
      {
        "line": [
          "401 Mar-Le Dr"
        ],
        "city": "WENTZVILLE",
        "state": "MO",
        "postalCode": "63385-1647"
      },
      {
        "line": [
          ": 9350 Green Park Rd,"
        ],
        "city": "SAINT LOUIS",
        "state": "MO",
        "postalCode": "63123-7211"
      },
      {
        "line": [
          "12855 N 40 Dr Ste 205",
          "Ste 205 North Tower"
        ],
        "city": "SAINT LOUIS",
        "state": "MO",
        "postalCode": "63141-8670"
      },
      {
        "line": [
          "560 Corisande Hills Rd"
        ],
        "city": "FENTON",
        "state": "MO",
        "postalCode": "63026-5613"
      },
      {
        "line": [
          "4401 N Hanley Rd"
        ],
        "city": "SAINT LOUIS",
        "state": "MO",
        "postalCode": "63134-2710"
      },
      {
        "line": [
          "1800 1st Capitol Dr"
        ],
        "city": "SAINT CHARLES",
        "state": "MO",
        "postalCode": "63301-1646"
      },
      {
        "line": [
          "4401 Parker Rd"
        ],
        "city": "FLORISSANT",
        "state": "MO",
        "postalCode": "63033-4266"
      },
      {
        "line": [
          "1201 GARDEN PLAZA DR"
        ],
        "city": "FLORISSANT",
        "state": "MO",
        "postalCode": "63033-2230"
      },
      {
        "line": [
          "5500 S Broadway"
        ],
        "city": "SAINT LOUIS",
        "state": "MO",
        "postalCode": "63111-2025"
      },
      {
        "line": [
          "6543 CHIPPEWA ST"
        ],
        "city": "SAINT LOUIS",
        "state": "MO",
        "postalCode": "63109-4114"
      },
      {
        "line": [
          "1 ARBOR TER"
        ],
        "city": "FENTON",
        "state": "MO",
        "postalCode": "63026-3900"
      },
      {
        "line": [
          "1127 TIMBER RUN DR"
        ],
        "city": "SAINT LOUIS",
        "state": "MO",
        "postalCode": "63146-4482"
      },
      {
        "line": [
          "4962 Mattis Rd"
        ],
        "city": "SAINT LOUIS",
        "state": "MO",
        "postalCode": "63128-5386"
      },
      {
        "line": [
          "111 FLORISSANT OAKS SHOP CTR"
        ],
        "city": "FLORISSANT",
        "state": "MO",
        "postalCode": "63031-3933"
      },
      {
        "line": [
          "5300 BUTLER HILL RD"
        ],
        "city": "SAINT LOUIS",
        "state": "MO",
        "postalCode": "63128-4152"
      },
      {
        "line": [
          "230 SPENCER RD"
        ],
        "city": "SAINT PETERS",
        "state": "MO",
        "postalCode": "63376-2425"
      },
      {
        "line": [
          "4335 W PINE BLVD"
        ],
        "city": "SAINT LOUIS",
        "state": "MO",
        "postalCode": "63108-2205"
      },
      {
        "line": [
          "313 AUGUSTINE RD"
        ],
        "city": "EUREKA",
        "state": "MO",
        "postalCode": "63025-1935"
      },
      {
        "line": [
          "3 PARK PL STE A"
        ],
        "city": "BELLEVILLE",
        "state": "IL",
        "postalCode": "62226-2965"
      },
      {
        "line": [
          "1301 PARTRIDGE AVE"
        ],
        "city": "SAINT LOUIS",
        "state": "MO",
        "postalCode": "63130-1944"
      },
      {
        "line": [
          "1 PERRYMAN ST"
        ],
        "city": "LEBANON",
        "state": "IL",
        "postalCode": "62254-1356"
      },
      {
        "line": [
          "5000 S Broadway"
        ],
        "city": "SAINT LOUIS",
        "state": "MO",
        "postalCode": "63111-2015"
      },
      {
        "line": [
          "600 Breeze Park Dr"
        ],
        "city": "SAINT CHARLES",
        "state": "MO",
        "postalCode": "63304-9139"
      },
      {
        "line": [
          "610 Prigge Rd"
        ],
        "city": "SAINT LOUIS",
        "state": "MO",
        "postalCode": "63138-3543"
      },
      {
        "line": [
          "1020 Woods Mill Rd, Town and Country"
        ],
        "city": "SAINT LOUIS",
        "state": "MO",
        "postalCode": "63107-5917"
      },
      {
        "line": [
          "3 Park Pl Suite A"
        ],
        "city": "BELLEVILLE",
        "state": "IL",
        "postalCode": "62226-2965"
      },
      {
        "line": [
          "500 CAYCE ST"
        ],
        "city": "FARMINGTON",
        "state": "MO",
        "postalCode": "63640-2910"
      },
      {
        "line": [
          "400 E HILLVIEW AVE"
        ],
        "city": "GREENVILLE",
        "state": "IL",
        "postalCode": "62246-2607"
      },
      {
        "line": [
          "400 SUMMERVILLE BLVD"
        ],
        "city": "EUREKA",
        "state": "MO",
        "postalCode": "63025-2316"
      },
      {
        "line": [
          "723 S LACLEDE STATION RD"
        ],
        "city": "SAINT LOUIS",
        "state": "MO",
        "postalCode": "63119-4911"
      },
      {
        "line": [
          "312 SOLLEY DR"
        ],
        "city": "BALLWIN",
        "state": "MO",
        "postalCode": "63021-5248"
      },
      {
        "line": [
          "2 Nazareth Ln"
        ],
        "city": "SAINT LOUIS",
        "state": "MO",
        "postalCode": "63129-7600"
      },
      {
        "line": [
          "3933 S Broadway"
        ],
        "city": "SAINT LOUIS",
        "state": "MO",
        "postalCode": "63118-4601"
      },
      {
        "line": [
          "3535 JEFFERSON AVENUE"
        ],
        "city": "SAINT LOUIS",
        "state": "MO",
        "postalCode": "63118-3930"
      },
      {
        "line": [
          "322 Old State Rd",
          "APT 317"
        ],
        "city": "BALLWIN",
        "state": "MO",
        "postalCode": "63021-5917"
      },
      {
        "line": [
          "12855 N 40 DR"
        ],
        "city": "SAINT LOUIS",
        "state": "MO",
        "postalCode": "63141-8622"
      },
      {
        "line": [
          "2614 Utah Street"
        ],
        "city": "SAINT LOUIS",
        "state": "MO",
        "postalCode": "63118-3103"
      },
      {
        "line": [
          "37 N CLARK AVE"
        ],
        "city": "SAINT LOUIS",
        "state": "MO",
        "postalCode": "63135-2323"
      },
      {
        "line": [
          "3409 MISSOURI AVE"
        ],
        "city": "SAINT LOUIS",
        "state": "MO",
        "postalCode": "63118-3236"
      },
      {
        "line": [
          "27 Reinke Rd"
        ],
        "city": "Ellisville",
        "state": "MO",
        "postalCode": "63021-4700"
      },
      {
        "line": [
          "500 West Pine St."
        ],
        "city": "FARMINGTON",
        "state": "MO",
        "postalCode": "63640-1439"
      },
      {
        "line": [
          "13190 Outer forty Rd"
        ],
        "city": "CHESTERFIELD",
        "state": "MO",
        "postalCode": "63017-5917"
      },
      {
        "line": [
          "11400 MEHL AVE"
        ],
        "city": "FLORISSANT",
        "state": "MO",
        "postalCode": "63033-7204"
      },
      {
        "line": [
          "2920 Fee Fee Rd"
        ],
        "city": "MARYLAND HEIGHTS",
        "state": "MO",
        "postalCode": "63043-1915"
      },
      {
        "line": [
          "1028 SOUTH KIRKWOOD RD"
        ],
        "city": "SAINT LOUIS",
        "state": "MO",
        "postalCode": "63122-7222"
      },
      {
        "line": [
          "2509 FRANK WATSON PKWY"
        ],
        "city": "HIGHLAND",
        "state": "IL",
        "postalCode": "62249-0029"
      },
      {
        "line": [
          "6637 BERTHOLD AVE"
        ],
        "city": "SAINT LOUIS",
        "state": "MO",
        "postalCode": "63139-3318"
      },
      {
        "line": [
          "1501 CHARBONIER RD"
        ],
        "city": "FLORISSANT",
        "state": "MO",
        "postalCode": "63031-5308"
      },
      {
        "line": [
          "13460 MANCHESTER RD"
        ],
        "city": "SAINT LOUIS",
        "state": "MO",
        "postalCode": "63131-1734"
      },
      {
        "line": [
          "9916 REAVIS RD"
        ],
        "city": "SAINT LOUIS",
        "state": "MO",
        "postalCode": "63123-5314"
      },
      {
        "line": [
          "1550 Villa Dr."
        ],
        "city": "DE SOTO",
        "state": "MO",
        "postalCode": "63020-2586"
      },
      {
        "line": [
          "4585 WASHINGTON ST",
          "STE A1"
        ],
        "city": "FLORISSANT",
        "state": "MO",
        "postalCode": "63033-5858"
      },
      {
        "line": [
          "100 ROSEWOOD VILLAGE DR"
        ],
        "city": "BELLEVILLE",
        "state": "IL",
        "postalCode": "62226-2301"
      },
      {
        "line": [
          "15197 CLAYTON RD"
        ],
        "city": "CHESTERFIELD",
        "state": "MO",
        "postalCode": "63017-7048"
      },
      {
        "line": [
          "783 WEBER RD"
        ],
        "city": "FARMINGTON",
        "state": "MO",
        "postalCode": "63640-3318"
      },
      {
        "line": [
          "777 S.New Ballas Rd.",
          "Ste 212-W"
        ],
        "city": "SAINT LOUIS",
        "state": "MO",
        "postalCode": "63141-8791"
      },
      {
        "line": [
          "4624 Lansdowne Ave,"
        ],
        "city": "SAINT LOUIS",
        "state": "MO",
        "postalCode": "63136-1523"
      },
      {
        "line": [
          "9353 S Broadway"
        ],
        "city": "SAINT LOUIS",
        "state": "MO",
        "postalCode": "63125-1600"
      },
      {
        "line": [
          "14855 N Outer 40 Rd"
        ],
        "city": "CHESTERFIELD",
        "state": "MO",
        "postalCode": "63017-2026"
      },
      {
        "line": [
          "13887 PROGRESS DR"
        ],
        "city": "BREESE",
        "state": "IL",
        "postalCode": "62230-3661"
      },
      {
        "line": [
          "1025 CHESTERFIELD POINTE PKWY"
        ],
        "city": "CHESTERFIELD",
        "state": "MO",
        "postalCode": "63017-1957"
      },
      {
        "line": [
          "2 Annable Circle"
        ],
        "city": "EAST SAINT LOUIS",
        "state": "IL",
        "postalCode": "62206-2204"
      },
      {
        "line": [
          "10341 MANCHESTER RD"
        ],
        "city": "SAINT LOUIS",
        "state": "MO",
        "postalCode": "63122-1520"
      },
      {
        "line": [
          "3060 Ashby Rd"
        ],
        "city": "SAINT LOUIS",
        "state": "MO",
        "postalCode": "63114-1342"
      },
      {
        "line": [
          "1827 HIGHWAY B"
        ],
        "city": "ELSBERRY",
        "state": "MO",
        "postalCode": "63343-3126"
      },
      {
        "line": [
          "507 West Pine St."
        ],
        "city": "FARMINGTON",
        "state": "MO",
        "postalCode": "63640-1439"
      },
      {
        "line": [
          "894 Leland Ave"
        ],
        "city": "SAINT LOUIS",
        "state": "MO",
        "postalCode": "63130-3239"
      },
      {
        "line": [
          "3225 N Florissant Ave"
        ],
        "city": "SAINT LOUIS",
        "state": "MO",
        "postalCode": "63107-3521"
      },
      {
        "line": [
          "3900 STEARNS AVE"
        ],
        "city": "GRANITE CITY",
        "state": "IL",
        "postalCode": "62040-4154"
      },
      {
        "line": [
          "250 New Florissant Rd South"
        ],
        "city": "FLORISSANT",
        "state": "MO",
        "postalCode": "63031-6716"
      },
      {
        "line": [
          "2002 Boardwalk Pl Dr"
        ],
        "city": "O FALLON",
        "state": "MO",
        "postalCode": "63368-1500"
      }
    ],
    "extension": [
      {
        "url": "https://fhir.athena.io/StructureDefinition/ah-practice",
        "valueReference": {
          "reference": "Organization/a-1.Practice-19245"
        }
      },
      {
        "url": "https://fhir.athena.io/StructureDefinition/ah-brand",
        "valueReference": {
          "reference": "Organization/a-19245.Brand-1"
        }
      }
    ]
  },
  "fullUrl": "urn:uuid:6b9784a3-8b68-523b-b4b7-c7a990144e3d"
}