{
  "resource": {
    "resourceType": "Organization",
    "id": "21a6ddf9-44ef-5703-844c-da97a34c8230",
    "name": "StrideWoundCare",
    "endpoint": [
      {
        "reference": "Endpoint/27a4e967-47aa-5a9c-a572-b8297ee268a2"
      },
      {
        "reference": "Endpoint/53f95588-c9fa-5ea0-a2dc-1c25d5d26788"
      }
    ],
    "identifier": [
      {
        "system": "http://hl7.org/fhir/sid/us-npi",
        "value": "1649501347"
      },
      {
        "system": "http://hl7.org/fhir/sid/us-npi",
        "value": "1750814737"
      }
    ],
    "address": [
      {
        "line": [
          "14655 Preston Rd"
        ],
        "city": "DALLAS",
        "state": "TX",
        "postalCode": "75254-7805"
      },
      {
        "line": [
          "200 COUNTRY BROOK DR"
        ],
        "city": "KELLER",
        "state": "TX",
        "postalCode": "76248-2125"
      },
      {
        "line": [
          "1080 W ROUND GROVE RD"
        ],
        "city": "LEWISVILLE",
        "state": "TX",
        "postalCode": "75067-7990"
      },
      {
        "line": [
          "4104 W ARKANSAS LN"
        ],
        "city": "ARLINGTON",
        "state": "TX",
        "postalCode": "76016-1491"
      },
      {
        "line": [
          "7750 Lyndon B Johnson Frwy"
        ],
        "city": "DALLAS",
        "state": "TX",
        "postalCode": "75251-1287"
      },
      {
        "line": [
          "1295 Kinwest Pkwy"
        ],
        "city": "IRVING",
        "state": "TX",
        "postalCode": "75063-3560"
      },
      {
        "line": [
          "2425 Texas Dr"
        ],
        "city": "IRVING",
        "state": "TX",
        "postalCode": "75062-7027"
      },
      {
        "line": [
          "711 Matador Lane"
        ],
        "city": "MESQUITE",
        "state": "TX",
        "postalCode": "75149-8830"
      },
      {
        "line": [
          "500 S Beach St"
        ],
        "city": "FORT WORTH",
        "state": "TX",
        "postalCode": "76105-1104"
      },
      {
        "line": [
          "3922 SIMPSON STREET"
        ],
        "city": "DALLAS",
        "state": "TX",
        "postalCode": "75246-1709"
      },
      {
        "line": [
          "4800 W PARKER RD"
        ],
        "city": "PLANO",
        "state": "TX",
        "postalCode": "75093-1937"
      },
      {
        "line": [
          "400 W Arbrook Blvd"
        ],
        "city": "ARLINGTON",
        "state": "TX",
        "postalCode": "76014-3180"
      },
      {
        "line": [
          "200 Keller Smithfield Rd S"
        ],
        "city": "KELLER",
        "state": "TX",
        "postalCode": "76248-2188"
      },
      {
        "line": [
          "915 N FIELDER RD"
        ],
        "city": "ARLINGTON",
        "state": "TX",
        "postalCode": "76012-3147"
      },
      {
        "line": [
          "2601 TANDY AVE"
        ],
        "city": "FORT WORTH",
        "state": "TX",
        "postalCode": "76103-2552"
      },
      {
        "line": [
          "965 N Gardenridge Blvd"
        ],
        "city": "LEWISVILLE",
        "state": "TX",
        "postalCode": "75077-2871"
      },
      {
        "line": [
          "2500 Windhaven Parkway"
        ],
        "city": "THE COLONY",
        "state": "TX",
        "postalCode": "75056-5824"
      },
      {
        "line": [
          "5100 RANDOL MILL RD"
        ],
        "city": "FORT WORTH",
        "state": "TX",
        "postalCode": "76112-1553"
      },
      {
        "line": [
          "2231 US HIGHWAY 80 E"
        ],
        "city": "MESQUITE",
        "state": "TX",
        "postalCode": "75150-5510"
      },
      {
        "line": [
          "2851 ORCHID DR"
        ],
        "city": "MCKINNEY",
        "state": "TX",
        "postalCode": "75072-4091"
      },
      {
        "line": [
          "8080 State Highway 121",
          "Suite 200"
        ],
        "city": "MCKINNEY",
        "state": "TX",
        "postalCode": "75070-2902"
      },
      {
        "line": [
          "4441 Long Prairie Road",
          "Suite 400"
        ],
        "city": "FLOWER MOUND",
        "state": "TX",
        "postalCode": "75028-5410"
      },
      {
        "line": [
          "5515 GLEN LAKES DR"
        ],
        "city": "DALLAS",
        "state": "TX",
        "postalCode": "75231-4309"
      },
      {
        "line": [
          "7904 CHIESA RD"
        ],
        "city": "ROWLETT",
        "state": "TX",
        "postalCode": "75089-4562"
      },
      {
        "line": [
          "540 E POLO RD"
        ],
        "city": "GRAND PRAIRIE",
        "state": "TX",
        "postalCode": "75052-3503"
      },
      {
        "line": [
          "5114 MCKINNEY AVE"
        ],
        "city": "DALLAS",
        "state": "TX",
        "postalCode": "75205-3327"
      },
      {
        "line": [
          "2522 FORT WORTH AVE"
        ],
        "city": "DALLAS",
        "state": "TX",
        "postalCode": "75211-1703"
      },
      {
        "line": [
          "4220 Cotton Gin Rd"
        ],
        "city": "FRISCO",
        "state": "TX",
        "postalCode": "75034-1180"
      },
      {
        "line": [
          "8533 Brewer Blvd"
        ],
        "city": "FORT WORTH",
        "state": "TX",
        "postalCode": "76123-2273"
      },
      {
        "line": [
          "1530 E SANDY LAKE RD"
        ],
        "city": "COPPELL",
        "state": "TX",
        "postalCode": "75019-3105"
      },
      {
        "line": [
          "20000 FIDDLERS GREEN RD"
        ],
        "city": "FRISCO",
        "state": "TX",
        "postalCode": "75036-9205"
      },
      {
        "line": [
          "5850 Ohio Dr"
        ],
        "city": "FRISCO",
        "state": "TX",
        "postalCode": "75035-7096"
      },
      {
        "line": [
          "7865 OAKMONT BLVD"
        ],
        "city": "FORT WORTH",
        "state": "TX",
        "postalCode": "76132-4204"
      },
      {
        "line": [
          "1010 EMERALD ISLE DR"
        ],
        "city": "DALLAS",
        "state": "TX",
        "postalCode": "75218-3980"
      },
      {
        "line": [
          "1350 E LOOKOUT DR"
        ],
        "city": "RICHARDSON",
        "state": "TX",
        "postalCode": "75082-4106"
      },
      {
        "line": [
          "4109 WESTRIDGE AVE"
        ],
        "city": "FORT WORTH",
        "state": "TX",
        "postalCode": "76116-7410"
      },
      {
        "line": [
          "8014 INWOOD RD"
        ],
        "city": "DALLAS",
        "state": "TX",
        "postalCode": "75209-3336"
      },
      {
        "line": [
          "2680 LEGACY DR"
        ],
        "city": "FRISCO",
        "state": "TX",
        "postalCode": "75034-6064"
      },
      {
        "line": [
          "602 E BELT LINE RD"
        ],
        "city": "CEDAR HILL",
        "state": "TX",
        "postalCode": "75104-2260"
      },
      {
        "line": [
          "6201 PLAZA PKWY"
        ],
        "city": "FORT WORTH",
        "state": "TX",
        "postalCode": "76116-2012"
      },
      {
        "line": [
          "300 N Highland Ave",
          "Suite 365"
        ],
        "city": "SHERMAN",
        "state": "TX",
        "postalCode": "75092-7393"
      },
      {
        "line": [
          "3120 W Southlake Blvd",
          "Suite 120"
        ],
        "city": "SOUTHLAKE",
        "state": "TX",
        "postalCode": "76092-6783"
      },
      {
        "line": [
          "4906 MILLER RD"
        ],
        "city": "ROWLETT",
        "state": "TX",
        "postalCode": "75088-5801"
      },
      {
        "line": [
          "820 N BRITAIN RD"
        ],
        "city": "IRVING",
        "state": "TX",
        "postalCode": "75061-7689"
      },
      {
        "line": [
          "6410 Old Orchard Dr"
        ],
        "city": "PLANO",
        "state": "TX",
        "postalCode": "75023-4130"
      },
      {
        "line": [
          "999 RAINTREE CIR"
        ],
        "city": "ALLEN",
        "state": "TX",
        "postalCode": "75013-5984"
      },
      {
        "line": [
          "3281 LONG PRAIRIE RD"
        ],
        "city": "FLOWER MOUND",
        "state": "TX",
        "postalCode": "75022-2707"
      },
      {
        "line": [
          "2308 Highway 121"
        ],
        "city": "BEDFORD",
        "state": "TX",
        "postalCode": "76021-5903"
      },
      {
        "line": [
          "1997 FOREST RIDGE DR"
        ],
        "city": "BEDFORD",
        "state": "TX",
        "postalCode": "76021-1825"
      },
      {
        "line": [
          "1501 W Campbell Rd"
        ],
        "city": "GARLAND",
        "state": "TX",
        "postalCode": "75044-2303"
      },
      {
        "line": [
          "2525 N Hinkle Dr"
        ],
        "city": "DENTON",
        "state": "TX",
        "postalCode": "76201-0763"
      },
      {
        "line": [
          "8600 N Riverside Dr"
        ],
        "city": "Fort Worth",
        "state": "TX",
        "postalCode": "76244-9634"
      },
      {
        "line": [
          "3636 TEASLEY LN"
        ],
        "city": "DENTON",
        "state": "TX",
        "postalCode": "76210-8470"
      },
      {
        "line": [
          "720 Creek Valley Ct"
        ],
        "city": "ALLEN",
        "state": "TX",
        "postalCode": "75002-5294"
      },
      {
        "line": [
          "5217 Village Creek Dr"
        ],
        "city": "PLANO",
        "state": "TX",
        "postalCode": "75093-4416"
      },
      {
        "line": [
          "8703 DAVIS BLVD"
        ],
        "city": "KELLER",
        "state": "TX",
        "postalCode": "76248-0309"
      },
      {
        "line": [
          "5521 Village Creek Dr"
        ],
        "city": "PLANO",
        "state": "TX",
        "postalCode": "75093-4829"
      },
      {
        "line": [
          "17051 DALLAS PKWY",
          "SUITE 220"
        ],
        "city": "ADDISON",
        "state": "TX",
        "postalCode": "75001-7109"
      },
      {
        "line": [
          "1800 KING ARTHUR BLVD"
        ],
        "city": "CARROLLTON",
        "state": "TX",
        "postalCode": "75010-2003"
      },
      {
        "line": [
          "2828 Nature Way",
          "Apt C Rm 15"
        ],
        "city": "FRISCO",
        "state": "TX",
        "postalCode": "75033-3287"
      },
      {
        "line": [
          "3401 Amador Dr"
        ],
        "city": "FORT WORTH",
        "state": "TX",
        "postalCode": "76177-2227"
      },
      {
        "line": [
          "675 Rapp Rd"
        ],
        "city": "KELLER",
        "state": "TX",
        "postalCode": "76248-3035"
      },
      {
        "line": [
          "4441 LONG PRAIRIE ROAD",
          "SUITE 400"
        ],
        "city": "FLOWER MOUND",
        "state": "TX",
        "postalCode": "75028-5410"
      },
      {
        "line": [
          "3800 Central Dr"
        ],
        "city": "BEDFORD",
        "state": "TX",
        "postalCode": "76021-2683"
      },
      {
        "line": [
          "1720 N Plano Rd"
        ],
        "city": "RICHARDSON",
        "state": "TX",
        "postalCode": "75081-1903"
      },
      {
        "line": [
          "2215 Rockbrook Dr"
        ],
        "city": "LEWISVILLE",
        "state": "TX",
        "postalCode": "75067-8317"
      },
      {
        "line": [
          "301 TC LUPTON BLVD"
        ],
        "city": "SUNNYVALE",
        "state": "TX",
        "postalCode": "75182-6216"
      },
      {
        "line": [
          "1650 S STONEBRIDGE DR"
        ],
        "city": "MCKINNEY",
        "state": "TX",
        "postalCode": "75072-5612"
      },
      {
        "line": [
          "400 Highland Dr"
        ],
        "city": "LEWISVILLE",
        "state": "TX",
        "postalCode": "75067-3871"
      },
      {
        "line": [
          "3900 RANCH RD"
        ],
        "city": "SACHSE",
        "state": "TX",
        "postalCode": "75048-2102"
      },
      {
        "line": [
          "8130 MEADOW RD"
        ],
        "city": "DALLAS",
        "state": "TX",
        "postalCode": "75231-3462"
      },
      {
        "line": [
          "601 HOWE RD"
        ],
        "city": "ROANOKE",
        "state": "TX",
        "postalCode": "76262-2119"
      },
      {
        "line": [
          "9966 LEGACY DR"
        ],
        "city": "FRISCO",
        "state": "TX",
        "postalCode": "75033-6732"
      },
      {
        "line": [
          "7450 Stonebrook Pkwy"
        ],
        "city": "FRISCO",
        "state": "TX",
        "postalCode": "75034-5749"
      },
      {
        "line": [
          "169 Lake Park Rd"
        ],
        "city": "LEWISVILLE",
        "state": "TX",
        "postalCode": "75057-2803"
      },
      {
        "line": [
          "2815 Medlin Dr"
        ],
        "city": "ARLINGTON",
        "state": "TX",
        "postalCode": "76015-2329"
      },
      {
        "line": [
          "2501 HERITAGE AVE"
        ],
        "city": "GRAPEVINE",
        "state": "TX",
        "postalCode": "76051-7037"
      },
      {
        "line": [
          "3494 KINGBRIDGE ST"
        ],
        "city": "DALLAS",
        "state": "TX",
        "postalCode": "75212-2409"
      },
      {
        "line": [
          "12400 Coit Rd",
          "Suite 505"
        ],
        "city": "DALLAS",
        "state": "TX",
        "postalCode": "75251-2038"
      },
      {
        "line": [
          "4141 LONG PRAIRIE RD"
        ],
        "city": "FLOWER MOUND",
        "state": "TX",
        "postalCode": "75028-1506"
      },
      {
        "line": [
          "9009 WHITE ROCK TRL"
        ],
        "city": "DALLAS",
        "state": "TX",
        "postalCode": "75238-3347"
      },
      {
        "line": [
          "2701 Alma Rd"
        ],
        "city": "McKinney",
        "state": "TX",
        "postalCode": "75072-6173"
      },
      {
        "line": [
          "110 BARNETT DR"
        ],
        "city": "LEWISVILLE",
        "state": "TX",
        "postalCode": "75077-3176"
      },
      {
        "line": [
          "3400 Interstate Highway 30",
          "Suite 180"
        ],
        "city": "MESQUITE",
        "state": "TX",
        "postalCode": "75150-2601"
      },
      {
        "line": [
          "4546 BUNKER HILL RD"
        ],
        "city": "SACHSE",
        "state": "TX",
        "postalCode": "75048-4317"
      },
      {
        "line": [
          "514 CENTRAL PARK DR"
        ],
        "city": "ARLINGTON",
        "state": "TX",
        "postalCode": "76014-2070"
      },
      {
        "line": [
          "6301 OVERTON RIDGE BLVD"
        ],
        "city": "FORT WORTH",
        "state": "TX",
        "postalCode": "76132-3283"
      },
      {
        "line": [
          "3344 Forest Lane"
        ],
        "city": "DALLAS",
        "state": "TX",
        "postalCode": "75234-7793"
      },
      {
        "line": [
          "2660 Timber Ridge Dr"
        ],
        "city": "FRISCO",
        "state": "TX",
        "postalCode": "75034-5222"
      },
      {
        "line": [
          "5000 MEADOW LAKES DR"
        ],
        "city": "NORTH RICHLAND HILLS",
        "state": "TX",
        "postalCode": "76180-7870"
      },
      {
        "line": [
          "10588 LEGACY DR"
        ],
        "city": "FRISCO",
        "state": "TX",
        "postalCode": "75033-6516"
      },
      {
        "line": [
          "101 Watermere Dr"
        ],
        "city": "SOUTHLAKE",
        "state": "TX",
        "postalCode": "76092-8116"
      },
      {
        "line": [
          "8502 EDGEMERE RD"
        ],
        "city": "DALLAS",
        "state": "TX",
        "postalCode": "75225-3523"
      },
      {
        "line": [
          "2000 W AUDIE MURPHY PKWY"
        ],
        "city": "FARMERSVILLE",
        "state": "TX",
        "postalCode": "75442-3427"
      },
      {
        "line": [
          "920 STOCKTON DR"
        ],
        "city": "ALLEN",
        "state": "TX",
        "postalCode": "75013-6144"
      },
      {
        "line": [
          "304 W FM 544"
        ],
        "city": "PLANO",
        "state": "TX",
        "postalCode": "75094-4531"
      },
      {
        "line": [
          "4501 SILVER SAGE DR"
        ],
        "city": "FORT WORTH",
        "state": "TX",
        "postalCode": "76137-5825"
      },
      {
        "line": [
          "3901 Kirkpatrick Ln"
        ],
        "city": "FLOWER MOUND",
        "state": "TX",
        "postalCode": "75028-2005"
      },
      {
        "line": [
          "9271 White Rock Trail"
        ],
        "city": "DALLAS",
        "state": "TX",
        "postalCode": "75238-2552"
      },
      {
        "line": [
          "2125 Brinker Rd"
        ],
        "city": "DENTON",
        "state": "TX",
        "postalCode": "76208-6997"
      },
      {
        "line": [
          "3421 STORY RD W"
        ],
        "city": "IRVING",
        "state": "TX",
        "postalCode": "75038-3571"
      },
      {
        "line": [
          "1245 Colonel Dr"
        ],
        "city": "GARLAND",
        "state": "TX",
        "postalCode": "75043-1303"
      },
      {
        "line": [
          "4205 W NORTHWEST HWY"
        ],
        "city": "DALLAS",
        "state": "TX",
        "postalCode": "75220-7802"
      },
      {
        "line": [
          "410 BUCKINGHAM RD"
        ],
        "city": "RICHARDSON",
        "state": "TX",
        "postalCode": "75081-5704"
      }
    ],
    "extension": [
      {
        "url": "https://fhir.athena.io/StructureDefinition/ah-practice",
        "valueReference": {
          "reference": "Organization/a-1.Practice-2477"
        }
      },
      {
        "url": "https://fhir.athena.io/StructureDefinition/ah-brand",
        "valueReference": {
          "reference": "Organization/a-2477.Brand-23"
        }
      }
    ]
  },
  "fullUrl": "urn:uuid:21a6ddf9-44ef-5703-844c-da97a34c8230"
}