{
  "resource": {
    "resourceType": "Organization",
    "id": "944de28c-21bf-542d-bda4-a790b5505896",
    "name": "Kidney and Hypertension Specialists",
    "endpoint": [
      {
        "reference": "Endpoint/27a4e967-47aa-5a9c-a572-b8297ee268a2"
      },
      {
        "reference": "Endpoint/102c0353-b075-5f4c-90f0-0a97695b09db"
      }
    ],
    "identifier": [
      {
        "system": "http://hl7.org/fhir/sid/us-npi",
        "value": "1235285776"
      }
    ],
    "address": [
      {
        "line": [
          "800 MEADOWS RD"
        ],
        "city": "BOCA RATON",
        "state": "FL",
        "postalCode": "33428-2304"
      },
      {
        "line": [
          "1500 GATEWAY BLVD",
          "STE 198"
        ],
        "city": "BOYNTON BEACH",
        "state": "FL",
        "postalCode": "33426-7233"
      },
      {
        "line": [
          "1500 GATEWAY BLVD STE 194"
        ],
        "city": "BOYNTON BEACH",
        "state": "FL",
        "postalCode": "33426-7233"
      },
      {
        "line": [
          "2655 W ATLANTIC AVE"
        ],
        "city": "DELRAY BEACH",
        "state": "FL",
        "postalCode": "33445-4400"
      },
      {
        "line": [
          "2815 S SEACREST BLVD"
        ],
        "city": "BOYNTON BEACH",
        "state": "FL",
        "postalCode": "33435-7969"
      },
      {
        "line": [
          "5352 LINTON BLVD DELRAY"
        ],
        "city": "DELRAY BEACH",
        "state": "FL",
        "postalCode": "33484-6514"
      },
      {
        "line": [
          "1905 CLINT MOORE RD"
        ],
        "city": "BOCA RATON",
        "state": "FL",
        "postalCode": "33496-2658"
      },
      {
        "line": [
          "15300 JOG RD",
          "UNITE 104-106"
        ],
        "city": "DELRAY BEACH",
        "state": "FL",
        "postalCode": "33446-2164"
      },
      {
        "line": [
          "9945 CENTRAL PARK BLVD N"
        ],
        "city": "BOCA RATON",
        "state": "FL",
        "postalCode": "33428-1745"
      },
      {
        "line": [
          "5210 LINTON BLVD STE 105"
        ],
        "city": "DELRAY BEACH",
        "state": "FL",
        "postalCode": "33484-6537"
      }
    ],
    "extension": [
      {
        "url": "https://fhir.athena.io/StructureDefinition/ah-practice",
        "valueReference": {
          "reference": "Organization/a-1.Practice-25118"
        }
      },
      {
        "url": "https://fhir.athena.io/StructureDefinition/ah-brand",
        "valueReference": {
          "reference": "Organization/a-25118.Brand-1"
        }
      }
    ]
  },
  "fullUrl": "urn:uuid:944de28c-21bf-542d-bda4-a790b5505896"
}