{
  "resource": {
    "resourceType": "Organization",
    "id": "c029553b-4df0-56b5-b465-a7443553027a",
    "name": "AllianceHealth Medical Group Deaconess",
    "endpoint": [
      {
        "reference": "Endpoint/27a4e967-47aa-5a9c-a572-b8297ee268a2"
      },
      {
        "reference": "Endpoint/bf9debcd-4b84-5c05-a224-9da88c33f9fb"
      }
    ],
    "identifier": [
      {
        "system": "http://hl7.org/fhir/sid/us-npi",
        "value": "1427017862"
      },
      {
        "system": "http://hl7.org/fhir/sid/us-npi",
        "value": "1750518601"
      }
    ],
    "address": [
      {
        "line": [
          "3300 NW EXPRESSWAY"
        ],
        "city": "OKLAHOMA CITY",
        "state": "OK",
        "postalCode": "73112-4418"
      },
      {
        "line": [
          "3300 NW EXPRESSWAY ST"
        ],
        "city": "OKLAHOMA CITY",
        "state": "OK",
        "postalCode": "73112-4481"
      },
      {
        "line": [
          "900 17th Street"
        ],
        "city": "WOODWARD",
        "state": "OK",
        "postalCode": "73801-2448"
      },
      {
        "line": [
          "5501 N PORTLAND AVE"
        ],
        "city": "OKLAHOMA CITY",
        "state": "OK",
        "postalCode": "73112-2074"
      },
      {
        "line": [
          "5501 N Portland Ave"
        ],
        "city": "OKLAHOMA CITY",
        "state": "OK",
        "postalCode": "73112-2047"
      },
      {
        "line": [
          "1407 N Robinson Avenue"
        ],
        "city": "OKLAHOMA CITY",
        "state": "OK",
        "postalCode": "73103-4823"
      },
      {
        "line": [
          "5200 E I240 Service Road"
        ],
        "city": "OKLAHOMA CITY",
        "state": "OK",
        "postalCode": "73135-2607"
      },
      {
        "line": [
          "500 S 9TH"
        ],
        "city": "KINGFISHER",
        "state": "OK",
        "postalCode": "73750-3528"
      },
      {
        "line": [
          "5501 N Portland Ave."
        ],
        "city": "OKLAHOMA CITY",
        "state": "OK",
        "postalCode": "73112-2074"
      },
      {
        "line": [
          "4300 W MEMORIAL RD"
        ],
        "city": "OKLAHOMA CITY",
        "state": "OK",
        "postalCode": "73120-8304"
      },
      {
        "line": [
          "1102 MacArthur"
        ],
        "city": "SHAWNEE",
        "state": "OK",
        "postalCode": "74804-1743"
      },
      {
        "line": [
          "3524 NW 56th St."
        ],
        "city": "OKLAHOMA CITY",
        "state": "OK",
        "postalCode": "73112-4518"
      },
      {
        "line": [
          "2129 SW 59TH Street"
        ],
        "city": "OKLAHOMA CITY",
        "state": "OK",
        "postalCode": "73119-7024"
      },
      {
        "line": [
          "4300 W MEMORIAL ROAD"
        ],
        "city": "OKLAHOMA CITY",
        "state": "OK",
        "postalCode": "73120-8304"
      },
      {
        "line": [
          "5200 East I-240 Highway"
        ],
        "city": "OKLAHOMA CITY",
        "state": "OK",
        "postalCode": "73135-2610"
      },
      {
        "line": [
          "5701 N Portland Avenue, Ste. 220"
        ],
        "city": "OKLAHOMA CITY",
        "state": "OK",
        "postalCode": "73112-1670"
      },
      {
        "line": [
          "900 17TH St."
        ],
        "city": "WOODWARD",
        "state": "OK",
        "postalCode": "73801-2448"
      },
      {
        "line": [
          "1900 N 14th Street"
        ],
        "city": "PONCA CITY",
        "state": "OK",
        "postalCode": "74601-2035"
      },
      {
        "line": [
          "5501 N Portland Avenue"
        ],
        "city": "OKLAHOMA CITY",
        "state": "OK",
        "postalCode": "73112-2074"
      },
      {
        "line": [
          "4200 W Memorial Road"
        ],
        "city": "OKLAHOMA CITY",
        "state": "OK",
        "postalCode": "73120-2121"
      },
      {
        "line": [
          "4200 W Memorial Road"
        ],
        "city": "OKLAHOMA CITY",
        "state": "OK",
        "postalCode": "73112-2121"
      },
      {
        "line": [
          "3433 NW 56TH STREET"
        ],
        "city": "OKLAHOMA CITY",
        "state": "OK",
        "postalCode": "73112-4455"
      },
      {
        "line": [
          "3300 NW EXPRESSWAY ST"
        ],
        "city": "OKLAHOMA CITY",
        "state": "OK",
        "postalCode": "73112-4418"
      },
      {
        "line": [
          "3300 NW EXPRESS WAY ST"
        ],
        "city": "OKLAHOMA CITY",
        "state": "OK",
        "postalCode": "73112-4418"
      },
      {
        "line": [
          "2601 Spencer Rd."
        ],
        "city": "SPENCER",
        "state": "OK",
        "postalCode": "73084-3649"
      },
      {
        "line": [
          "5501 N Portland Ave"
        ],
        "city": "OKLAHOMA CITY",
        "state": "OK",
        "postalCode": "73112-2074"
      },
      {
        "line": [
          "2129 SW 59th Street"
        ],
        "city": "OKLAHOMA CITY",
        "state": "OK",
        "postalCode": "73119-7024"
      },
      {
        "line": [
          "2401 W Wrangler Blvd"
        ],
        "city": "SEMINOLE",
        "state": "OK",
        "postalCode": "74868-1917"
      },
      {
        "line": [
          "13313 N MERIDIAN AVE BUILD B"
        ],
        "city": "OKLAHOMA CITY",
        "state": "OK",
        "postalCode": "73120-8316"
      },
      {
        "line": [
          "5501 N PORTLAND"
        ],
        "city": "OKLAHOMA CITY",
        "state": "OK",
        "postalCode": "73112-2074"
      },
      {
        "line": [
          "100 N 30th Street"
        ],
        "city": "CLINTON",
        "state": "OK",
        "postalCode": "73601-3117"
      },
      {
        "line": [
          "3300 NW Expressway"
        ],
        "city": "OKLAHOMA CITY",
        "state": "OK",
        "postalCode": "73112-4418"
      },
      {
        "line": [
          "205 South Broadway Avenue"
        ],
        "city": "HINTON",
        "state": "OK",
        "postalCode": "73047-9483"
      },
      {
        "line": [
          "1000 N LEE AVENUE"
        ],
        "city": "OKLAHOMA CITY",
        "state": "OK",
        "postalCode": "73102-1036"
      },
      {
        "line": [
          "4300 W Memorial Road"
        ],
        "city": "OKLAHOMA CITY",
        "state": "OK",
        "postalCode": "73120-8304"
      },
      {
        "line": [
          "3524 NW 56th Street"
        ],
        "city": "OKLAHOMA CITY",
        "state": "OK",
        "postalCode": "73112-4518"
      }
    ],
    "extension": [
      {
        "url": "https://fhir.athena.io/StructureDefinition/ah-practice",
        "valueReference": {
          "reference": "Organization/a-1.Practice-1889"
        }
      },
      {
        "url": "https://fhir.athena.io/StructureDefinition/ah-brand",
        "valueReference": {
          "reference": "Organization/a-1889.Brand-1"
        }
      }
    ]
  },
  "fullUrl": "urn:uuid:c029553b-4df0-56b5-b465-a7443553027a"
}