{
  "resource": {
    "resourceType": "Organization",
    "id": "d9aa894a-acfc-5d58-8eb0-62dee39e659f",
    "name": "YMCA of Greater Fort Wayne",
    "endpoint": [
      {
        "reference": "Endpoint/27a4e967-47aa-5a9c-a572-b8297ee268a2"
      },
      {
        "reference": "Endpoint/abb5f7d5-468e-5806-be46-fb2282afef02"
      }
    ],
    "identifier": [
      {
        "system": "http://hl7.org/fhir/sid/us-npi",
        "value": "1659827533"
      }
    ],
    "address": [
      {
        "line": [
          "10001 Dawsons Creek Blvd"
        ],
        "city": "FORT WAYNE",
        "state": "IN",
        "postalCode": "46825-1957"
      },
      {
        "line": [
          "2323 Bowser Ave."
        ],
        "city": "FORT WAYNE",
        "state": "IN",
        "postalCode": "46803-3540"
      },
      {
        "line": [
          "9609 Ardmore Avenue"
        ],
        "city": "FORT WAYNE",
        "state": "IN",
        "postalCode": "46809-9625"
      },
      {
        "line": [
          "10313 Aboite Center Rd"
        ],
        "city": "FORT WAYNE",
        "state": "IN",
        "postalCode": "46804-5435"
      },
      {
        "line": [
          "1020 Barr St"
        ],
        "city": "FORT WAYNE",
        "state": "IN",
        "postalCode": "46802-3106"
      },
      {
        "line": [
          "500 E Harcourt Rd"
        ],
        "city": "ANGOLA",
        "state": "IN",
        "postalCode": "46703-7590"
      },
      {
        "line": [
          "950 E Van Buren St"
        ],
        "city": "COLUMBIA CITY",
        "state": "IN",
        "postalCode": "46725-1917"
      },
      {
        "line": [
          "401 Sawyer Road"
        ],
        "city": "KENDALLVILLE",
        "state": "IN",
        "postalCode": "46755-2568"
      },
      {
        "line": [
          "1305 Mariners Drive"
        ],
        "city": "WARSAW",
        "state": "IN",
        "postalCode": "46582-7145"
      },
      {
        "line": [
          "5680 YMCA Park Drive West"
        ],
        "city": "FORT WAYNE",
        "state": "IN",
        "postalCode": "46835-3280"
      },
      {
        "line": [
          "347 W Berry St Suite 500"
        ],
        "city": "FORT WAYNE",
        "state": "IN",
        "postalCode": "46802-3106"
      },
      {
        "line": [
          "550 W. Dustman Rd"
        ],
        "city": "BLUFFTON",
        "state": "IN",
        "postalCode": "46714-1173"
      }
    ],
    "extension": [
      {
        "url": "https://fhir.athena.io/StructureDefinition/ah-practice",
        "valueReference": {
          "reference": "Organization/a-1.Practice-14268"
        }
      },
      {
        "url": "https://fhir.athena.io/StructureDefinition/ah-brand",
        "valueReference": {
          "reference": "Organization/a-14268.Brand-1"
        }
      }
    ]
  },
  "fullUrl": "urn:uuid:d9aa894a-acfc-5d58-8eb0-62dee39e659f"
}