{
  "resource": {
    "resourceType": "Organization",
    "id": "851c826d-e273-5ba5-bef2-bcd555eb0c57",
    "name": "Innovative Wound Soutions",
    "endpoint": [
      {
        "reference": "Endpoint/27a4e967-47aa-5a9c-a572-b8297ee268a2"
      },
      {
        "reference": "Endpoint/10933abe-7846-54e5-9a64-0f120b9990bc"
      }
    ],
    "identifier": [
      {
        "system": "http://hl7.org/fhir/sid/us-npi",
        "value": "1649038910"
      }
    ],
    "address": [
      {
        "line": [
          "9045 W ATHENS ST"
        ],
        "city": "PEORIA",
        "state": "AZ",
        "postalCode": "85382-8155"
      },
      {
        "line": [
          "5900 S GILBERT RD"
        ],
        "city": "CHANDLER",
        "state": "AZ",
        "postalCode": "85249-5633"
      },
      {
        "line": [
          "3014 E INDIAN SCHOOL RD"
        ],
        "city": "PHOENIX",
        "state": "AZ",
        "postalCode": "85016-6887"
      },
      {
        "line": [
          "1560 BROADWAY",
          "STE 1600"
        ],
        "city": "DENVER",
        "state": "CO",
        "postalCode": "80202-5160"
      },
      {
        "line": [
          "444 S COLONIA AVE"
        ],
        "city": "TUCSON",
        "state": "AZ",
        "postalCode": "85711-4514"
      },
      {
        "line": [
          "2800 W RAY RD"
        ],
        "city": "CHANDLER",
        "state": "AZ",
        "postalCode": "85224-3492"
      },
      {
        "line": [
          "9185 E DESERT COVE AVE"
        ],
        "city": "SCOTTSDALE",
        "state": "AZ",
        "postalCode": "85260-6258"
      },
      {
        "line": [
          "2221 N ROSEMONT BLVD"
        ],
        "city": "TUCSON",
        "state": "AZ",
        "postalCode": "85712-2113"
      },
      {
        "line": [
          "5250 West Dove Centre Road"
        ],
        "city": "MARANA",
        "state": "AZ",
        "postalCode": "85658-5159"
      },
      {
        "line": [
          "12301 N CAMINO DEL PLATA"
        ],
        "city": "TUCSON",
        "state": "AZ",
        "postalCode": "85755-2063"
      },
      {
        "line": [
          "7325 E PRINCESS BLVD"
        ],
        "city": "SCOTTSDALE",
        "state": "AZ",
        "postalCode": "85255-5991"
      },
      {
        "line": [
          "7201 W CAMINO SAN XAVIER"
        ],
        "city": "GLENDALE",
        "state": "AZ",
        "postalCode": "85308-3798"
      },
      {
        "line": [
          "6001 E THOMAS RD"
        ],
        "city": "SCOTTSDALE",
        "state": "AZ",
        "postalCode": "85251-7511"
      },
      {
        "line": [
          "14581 W PARKWOOD DR"
        ],
        "city": "SURPRISE",
        "state": "AZ",
        "postalCode": "85374-3600"
      },
      {
        "line": [
          "14810 N 52ND ST"
        ],
        "city": "SCOTTSDALE",
        "state": "AZ",
        "postalCode": "85254-2302"
      },
      {
        "line": [
          "6741 W CREST LN"
        ],
        "city": "GLENDALE",
        "state": "AZ",
        "postalCode": "85310-5215"
      },
      {
        "line": [
          "8468 E SPEEDWAY BLVD"
        ],
        "city": "TUCSON",
        "state": "AZ",
        "postalCode": "85710-3353"
      },
      {
        "line": [
          "8319 E HAZELWOOD ST"
        ],
        "city": "SCOTTSDALE",
        "state": "AZ",
        "postalCode": "85251-1751"
      },
      {
        "line": [
          "3701 N SWAN RD"
        ],
        "city": "TUCSON",
        "state": "AZ",
        "postalCode": "85718-6968"
      },
      {
        "line": [
          "14500 N Frank Lloyd Wright Blvd,"
        ],
        "city": "WIKIEUP",
        "state": "AZ",
        "postalCode": "85360-8834"
      },
      {
        "line": [
          "11250 N 92ND ST"
        ],
        "city": "SCOTTSDALE",
        "state": "AZ",
        "postalCode": "85260-6148"
      },
      {
        "line": [
          "860 DOUGHERTY ST"
        ],
        "city": "PRESCOTT",
        "state": "AZ",
        "postalCode": "86305-1841"
      },
      {
        "line": [
          "5020 E GLENN ST"
        ],
        "city": "TUCSON",
        "state": "AZ",
        "postalCode": "85712-1214"
      },
      {
        "line": [
          "15833 CLUBHOUSE DR"
        ],
        "city": "GOODYEAR",
        "state": "AZ",
        "postalCode": "85395-6494"
      },
      {
        "line": [
          "6480 S ALAMEDA RD"
        ],
        "city": "GOLD CANYON",
        "state": "AZ",
        "postalCode": "85118-6888"
      },
      {
        "line": [
          "3951 N VIEWPOINT DR"
        ],
        "city": "PRESCOTT VALLEY",
        "state": "AZ",
        "postalCode": "86314-2689"
      },
      {
        "line": [
          "2800 W ROSE CANYON CIR"
        ],
        "city": "PHOENIX",
        "state": "AZ",
        "postalCode": "85086-2412"
      },
      {
        "line": [
          "5501 E WOODRIDGE DR"
        ],
        "city": "SCOTTSDALE",
        "state": "AZ",
        "postalCode": "85254-5867"
      },
      {
        "line": [
          "3720 E UTOPIA RD"
        ],
        "city": "PHOENIX",
        "state": "AZ",
        "postalCode": "85050-3911"
      },
      {
        "line": [
          "9257 W UNION HILLS DR"
        ],
        "city": "PEORIA",
        "state": "AZ",
        "postalCode": "85382-8179"
      }
    ],
    "extension": [
      {
        "url": "https://fhir.athena.io/StructureDefinition/ah-practice",
        "valueReference": {
          "reference": "Organization/a-1.Practice-31166"
        }
      },
      {
        "url": "https://fhir.athena.io/StructureDefinition/ah-brand",
        "valueReference": {
          "reference": "Organization/a-31166.Brand-1"
        }
      }
    ]
  },
  "fullUrl": "urn:uuid:851c826d-e273-5ba5-bef2-bcd555eb0c57"
}