{
  "resource": {
    "resourceType": "Organization",
    "id": "5a1835d5-1516-502c-a35f-dba9ab890f65",
    "name": "Solutions Medical Providers",
    "endpoint": [
      {
        "reference": "Endpoint/27a4e967-47aa-5a9c-a572-b8297ee268a2"
      },
      {
        "reference": "Endpoint/85b2916b-e42e-58fc-a15b-ebcaf7c58e75"
      }
    ],
    "identifier": [
      {
        "system": "http://hl7.org/fhir/sid/us-npi",
        "value": "1043817323"
      }
    ],
    "address": [
      {
        "line": [
          "1500 Calvary Curch Road Feastus"
        ],
        "city": "FESTUS",
        "state": "MO",
        "postalCode": "63028-4125"
      },
      {
        "line": [
          "2001 N Kingshighway"
        ],
        "city": "CAPE GIRARDEAU",
        "state": "MO",
        "postalCode": "63701-2127"
      },
      {
        "line": [
          "783 Weber Rd"
        ],
        "city": "FARMINGTON",
        "state": "MO",
        "postalCode": "63640-3318"
      },
      {
        "line": [
          "1003 S Cedar St"
        ],
        "city": "BELTON",
        "state": "MO",
        "postalCode": "64012-3703"
      },
      {
        "line": [
          "202 S West St"
        ],
        "city": "CONCORDIA",
        "state": "MO",
        "postalCode": "64020-9643"
      },
      {
        "line": [
          "100 WOODLAND MNR"
        ],
        "city": "ARNOLD",
        "state": "MO",
        "postalCode": "63010-2030"
      },
      {
        "line": [
          "5408 S Broadway St"
        ],
        "city": "SAINT LOUIS",
        "state": "MO",
        "postalCode": "63111-2023"
      },
      {
        "line": [
          "10 Lake Manor",
          "BONNE TERRE"
        ],
        "city": "BONNE TERRE",
        "state": "MO",
        "postalCode": "63628-1820"
      },
      {
        "line": [
          "1500 Calvary Church Rd"
        ],
        "city": "FESTUS",
        "state": "MO",
        "postalCode": "63028-4125"
      },
      {
        "line": [
          "430 N West St"
        ],
        "city": "PERRYVILLE",
        "state": "MO",
        "postalCode": "63775-1359"
      },
      {
        "line": [
          "313 AUGUSTINE RD"
        ],
        "city": "EUREKA",
        "state": "MO",
        "postalCode": "63025-1935"
      },
      {
        "line": [
          "1349 US Highway 61"
        ],
        "city": "FESTUS",
        "state": "MO",
        "postalCode": "63028-4107"
      },
      {
        "line": [
          "800 CHAMBERS RD"
        ],
        "city": "SAINT LOUIS",
        "state": "MO",
        "postalCode": "63135-2133"
      },
      {
        "line": [
          "10 Lake Manor"
        ],
        "city": "BONNE TERRE",
        "state": "MO",
        "postalCode": "63628-1820"
      },
      {
        "line": [
          "12827 STATE ROAD TT"
        ],
        "city": "FESTUS",
        "state": "MO",
        "postalCode": "63028-4351"
      },
      {
        "line": [
          "10 Lake Drive"
        ],
        "city": "BONNE TERRE",
        "state": "MO",
        "postalCode": "63628-1820"
      },
      {
        "line": [
          "1205 S MOUNT AUBURN RD"
        ],
        "city": "CAPE GIRARDEAU",
        "state": "MO",
        "postalCode": "63703-6581"
      },
      {
        "line": [
          "3201 PARKWOOD LN"
        ],
        "city": "MARYLAND HEIGHTS",
        "state": "MO",
        "postalCode": "63043-1334"
      },
      {
        "line": [
          "202 West Street"
        ],
        "city": "CONCORDIA",
        "state": "MO",
        "postalCode": "64020-9643"
      },
      {
        "line": [
          "1100 Progress Parkway"
        ],
        "city": "SAINTE GENEVIEVE",
        "state": "MO",
        "postalCode": "63670-9232"
      },
      {
        "line": [
          "1003 Cedar St"
        ],
        "city": "BELTON",
        "state": "MO",
        "postalCode": "64012-3703"
      }
    ],
    "extension": [
      {
        "url": "https://fhir.athena.io/StructureDefinition/ah-practice",
        "valueReference": {
          "reference": "Organization/a-1.Practice-32597"
        }
      },
      {
        "url": "https://fhir.athena.io/StructureDefinition/ah-brand",
        "valueReference": {
          "reference": "Organization/a-32597.Brand-1"
        }
      }
    ]
  },
  "fullUrl": "urn:uuid:5a1835d5-1516-502c-a35f-dba9ab890f65"
}