{
  "resource": {
    "resourceType": "Organization",
    "id": "00afb37c-b032-5811-8f19-1c54cabb785b",
    "name": "Women's Health of the Emerald Coast",
    "endpoint": [
      {
        "reference": "Endpoint/27a4e967-47aa-5a9c-a572-b8297ee268a2"
      },
      {
        "reference": "Endpoint/ced4ef15-255d-5262-aed5-e24a18c4a43e"
      }
    ],
    "identifier": [
      {
        "system": "http://hl7.org/fhir/sid/us-npi",
        "value": "1306382551"
      }
    ],
    "address": [
      {
        "line": [
          "2190 HIGHWAY 85 N"
        ],
        "city": "NICEVILLE",
        "state": "FL",
        "postalCode": "32578-1045"
      },
      {
        "line": [
          "4495 FURLING LN"
        ],
        "city": "DESTIN",
        "state": "FL",
        "postalCode": "32541-5423"
      },
      {
        "line": [
          "4495 FURLING LN STE 210"
        ],
        "city": "DESTIN",
        "state": "FL",
        "postalCode": "32541-3254"
      },
      {
        "line": [
          "1000 Mar Walt Dr"
        ],
        "city": "FORT WALTON BEACH",
        "state": "FL",
        "postalCode": "32547-6708"
      },
      {
        "line": [
          "1000 Mar-Walt Drive"
        ],
        "city": "FORT WALTON BEACH",
        "state": "FL",
        "postalCode": "32547-1032"
      },
      {
        "line": [
          "1225 Airport Rd"
        ],
        "city": "DESTIN",
        "state": "FL",
        "postalCode": "32541-2909"
      },
      {
        "line": [
          "7800 US HWY 98"
        ],
        "city": "MIRAMAR BEACH",
        "state": "FL",
        "postalCode": "32550-7228"
      },
      {
        "line": [
          "7800 US HWY 98 W"
        ],
        "city": "MIRAMAR BEACH",
        "state": "FL",
        "postalCode": "32550-7228"
      }
    ],
    "extension": [
      {
        "url": "https://fhir.athena.io/StructureDefinition/ah-practice",
        "valueReference": {
          "reference": "Organization/a-1.Practice-23217"
        }
      },
      {
        "url": "https://fhir.athena.io/StructureDefinition/ah-brand",
        "valueReference": {
          "reference": "Organization/a-23217.Brand-1"
        }
      }
    ]
  },
  "fullUrl": "urn:uuid:00afb37c-b032-5811-8f19-1c54cabb785b"
}