{
  "resource": {
    "resourceType": "Organization",
    "id": "10e25e07-f12a-5114-bfbc-ec1207935f41",
    "name": "Dell Children's Medical Group Gastroenterology Department",
    "endpoint": [
      {
        "reference": "Endpoint/27a4e967-47aa-5a9c-a572-b8297ee268a2"
      },
      {
        "reference": "Endpoint/9cc18d86-9cfd-51f4-8362-613d94d57769"
      }
    ],
    "identifier": [
      {
        "system": "http://hl7.org/fhir/sid/us-npi",
        "value": "1790103869"
      },
      {
        "system": "http://hl7.org/fhir/sid/us-npi",
        "value": "1326072943"
      }
    ],
    "address": [
      {
        "line": [
          "9010 N Lake Creek Pkwy",
          "BLDG 2 Suite 200"
        ],
        "city": "AUSTIN",
        "state": "TX",
        "postalCode": "78717-6217"
      },
      {
        "line": [
          "1301 Barbara Jordan Blvd",
          "STE 401"
        ],
        "city": "AUSTIN",
        "state": "TX",
        "postalCode": "78723-3078"
      },
      {
        "line": [
          "1602 Rock Prarie Rd Suite 1100"
        ],
        "city": "COLLEGE STATION",
        "state": "TX",
        "postalCode": "77845-8306"
      },
      {
        "line": [
          "4910 Mueller Blvd, Ste 300"
        ],
        "city": "AUSTIN",
        "state": "TX",
        "postalCode": "78723-3079"
      },
      {
        "line": [
          "5103 Kyle Center Dr Ste 104"
        ],
        "city": "Kyle",
        "state": "TX",
        "postalCode": "78640-6164"
      },
      {
        "line": [
          "6101 Woodway Dr"
        ],
        "city": "Woodway",
        "state": "TX",
        "postalCode": "76712-6111"
      },
      {
        "line": [
          "4112 Links Ln Ste 200"
        ],
        "city": "Round Rock",
        "state": "TX",
        "postalCode": "78664-3903"
      },
      {
        "line": [
          "1301 Barbara Jordan Blvd Ste 200"
        ],
        "city": "Austin",
        "state": "TX",
        "postalCode": "78723-3078"
      },
      {
        "line": [
          "225 E Beauregard"
        ],
        "city": "San Angelo",
        "state": "TX",
        "postalCode": "76903-5920"
      },
      {
        "line": [
          "5301 B Davis LN",
          "BLDG B200"
        ],
        "city": "AUSTIN",
        "state": "TX",
        "postalCode": "78749-4073"
      },
      {
        "line": [
          "1000 Hesters Crossing Rd"
        ],
        "city": "Round Rock",
        "state": "TX",
        "postalCode": "78681-8020"
      }
    ],
    "extension": [
      {
        "url": "https://fhir.athena.io/StructureDefinition/ah-practice",
        "valueReference": {
          "reference": "Organization/a-1.Practice-8363"
        }
      },
      {
        "url": "https://fhir.athena.io/StructureDefinition/ah-brand",
        "valueReference": {
          "reference": "Organization/a-8363.Brand-1"
        }
      }
    ]
  },
  "fullUrl": "urn:uuid:10e25e07-f12a-5114-bfbc-ec1207935f41"
}