{
  "resource": {
    "resourceType": "Organization",
    "id": "3ea922fd-5a47-54ac-8b58-b87dc30fe7eb",
    "name": "MOBILE NP LLC",
    "endpoint": [
      {
        "reference": "Endpoint/27a4e967-47aa-5a9c-a572-b8297ee268a2"
      },
      {
        "reference": "Endpoint/1638f0a5-a88f-5206-b127-b0cf14d397df"
      }
    ],
    "identifier": [
      {
        "system": "http://hl7.org/fhir/sid/us-npi",
        "value": "1548612799"
      }
    ],
    "address": [
      {
        "line": [
          "4101 CHELMONT LANE"
        ],
        "city": "BOWIE",
        "state": "MD",
        "postalCode": "20715-1328"
      },
      {
        "line": [
          "6526 GREENMOUNT DRIVE"
        ],
        "city": "ELKRIDGE",
        "state": "MD",
        "postalCode": "21075-5953"
      },
      {
        "line": [
          "4205 PENHURST AVENUE"
        ],
        "city": "BALTIMORE",
        "state": "MD",
        "postalCode": "21215-4835"
      },
      {
        "line": [
          "1128 NORTH CALHOUN STREET"
        ],
        "city": "BALTIMORE",
        "state": "MD",
        "postalCode": "21217-2601"
      },
      {
        "line": [
          "9420 RIDGEVIEW DRIVE"
        ],
        "city": "COLUMBIA",
        "state": "MD",
        "postalCode": "21046-1957"
      },
      {
        "line": [
          "12820 EASTERN AVENUE"
        ],
        "city": "MIDDLE RIVER",
        "state": "MD",
        "postalCode": "21220-1250"
      },
      {
        "line": [
          "8707 TRUMPS MILL ROAD"
        ],
        "city": "ROSEDALE",
        "state": "MD",
        "postalCode": "21237-3808"
      },
      {
        "line": [
          "12620 KAVANAUGH LANE"
        ],
        "city": "BOWIE",
        "state": "MD",
        "postalCode": "20715-2817"
      },
      {
        "line": [
          "5426 CLOVER ROAD"
        ],
        "city": "BALTIMORE",
        "state": "MD",
        "postalCode": "21215-4714"
      },
      {
        "line": [
          "204 PELICAN DRIVE"
        ],
        "city": "GLEN BURNIE",
        "state": "MD",
        "postalCode": "21060-6352"
      },
      {
        "line": [
          "3207 MARQUIS DRIVE"
        ],
        "city": "FORT WASHINGTON",
        "state": "MD",
        "postalCode": "20744-2073"
      },
      {
        "line": [
          "3802 VISER COURT"
        ],
        "city": "BOWIE",
        "state": "MD",
        "postalCode": "20715-3025"
      },
      {
        "line": [
          "3523 GLENMORE AVENUE"
        ],
        "city": "BALTIMORE",
        "state": "MD",
        "postalCode": "21206-2318"
      },
      {
        "line": [
          "1604 BROWNS ROAD"
        ],
        "city": "ESSEX",
        "state": "MD",
        "postalCode": "21221-3030"
      },
      {
        "line": [
          "509 WALKER AVENUS"
        ],
        "city": "BALTIMORE",
        "state": "MD",
        "postalCode": "21212-2624"
      },
      {
        "line": [
          "1714 EAST 33RD STREET"
        ],
        "city": "BALTIMORE",
        "state": "MD",
        "postalCode": "21218-3710"
      },
      {
        "line": [
          "5323 WESLEY AVENUE"
        ],
        "city": "GWYNN OAK",
        "state": "MD",
        "postalCode": "21207-8194"
      },
      {
        "line": [
          "3909 71ST AVENUE"
        ],
        "city": "HYATTSVILLE",
        "state": "MD",
        "postalCode": "20784-2617"
      },
      {
        "line": [
          "3927 MCDONOGH RD"
        ],
        "city": "RANDALLSTOWN",
        "state": "MD",
        "postalCode": "21133-3633"
      },
      {
        "line": [
          "910 PARK TERRACE"
        ],
        "city": "FORT WASHINGTON",
        "state": "MD",
        "postalCode": "20744-6514"
      },
      {
        "line": [
          "3621 GIBBONS AVENUE"
        ],
        "city": "BALTIMORE",
        "state": "MD",
        "postalCode": "21214-2724"
      },
      {
        "line": [
          "3104 LUMAR DRIVE"
        ],
        "city": "FORT WASHINGTON",
        "state": "MD",
        "postalCode": "20744-2065"
      },
      {
        "line": [
          "3126 GLENDALE AVENUE"
        ],
        "city": "PARKVILLE",
        "state": "MD",
        "postalCode": "21234-7133"
      },
      {
        "line": [
          "1514 KINGSGATE STREET"
        ],
        "city": "BOWIE",
        "state": "MD",
        "postalCode": "20721-2033"
      },
      {
        "line": [
          "5213 WINDSOR MILL ROAD"
        ],
        "city": "GWYNN OAK",
        "state": "MD",
        "postalCode": "21207-6658"
      },
      {
        "line": [
          "2455 BALTIMORE BLVD"
        ],
        "city": "FINKSBURG",
        "state": "MD",
        "postalCode": "21048-1727"
      },
      {
        "line": [
          "305 NORTH ROLLING ROAD"
        ],
        "city": "CATONSVILLE",
        "state": "MD",
        "postalCode": "21228-4255"
      },
      {
        "line": [
          "6511 ROSEMONT AVENUE"
        ],
        "city": "BALTIMORE",
        "state": "MD",
        "postalCode": "21206-2318"
      },
      {
        "line": [
          "13300 OVERBROOK  LANE"
        ],
        "city": "BOWIE",
        "state": "MD",
        "postalCode": "20715-1155"
      },
      {
        "line": [
          "4012 SPRINGDALE AVENUE"
        ],
        "city": "GWYNN OAK",
        "state": "MD",
        "postalCode": "21207-7510"
      },
      {
        "line": [
          "3711 PINEWOOD AVENUE"
        ],
        "city": "BALTIMORE",
        "state": "MD",
        "postalCode": "21206-2318"
      },
      {
        "line": [
          "951 NORTH MARLYN AVENUE"
        ],
        "city": "ESSEX",
        "state": "MD",
        "postalCode": "21221-2146"
      },
      {
        "line": [
          "12508 HEMM PLACE"
        ],
        "city": "BOWIE",
        "state": "MD",
        "postalCode": "20716-1120"
      },
      {
        "line": [
          "12619 KAVANAUGH LANE"
        ],
        "city": "BOWIE",
        "state": "MD",
        "postalCode": "20715-2816"
      },
      {
        "line": [
          "8705 TRUMPS MILL ROAD"
        ],
        "city": "ROSEDALE",
        "state": "MD",
        "postalCode": "21237-3808"
      },
      {
        "line": [
          "802 MAGO VISTA ROAD"
        ],
        "city": "ARNOLD",
        "state": "MD",
        "postalCode": "21012-1140"
      },
      {
        "line": [
          "3603 GLENMORE AVENUE"
        ],
        "city": "BALTIMORE",
        "state": "MD",
        "postalCode": "21206-2318"
      },
      {
        "line": [
          "10238 OLD FORT ROAD"
        ],
        "city": "FORT WASHINGTON",
        "state": "MD",
        "postalCode": "20744-4049"
      }
    ],
    "extension": [
      {
        "url": "https://fhir.athena.io/StructureDefinition/ah-practice",
        "valueReference": {
          "reference": "Organization/a-1.Practice-17506"
        }
      },
      {
        "url": "https://fhir.athena.io/StructureDefinition/ah-brand",
        "valueReference": {
          "reference": "Organization/a-17506.Brand-1"
        }
      }
    ]
  },
  "fullUrl": "urn:uuid:3ea922fd-5a47-54ac-8b58-b87dc30fe7eb"
}