{
  "resource": {
    "resourceType": "Organization",
    "id": "d00a57d4-6492-5451-bb7e-a8a9a8add96d",
    "name": "BOCA RATON OUTPATIENT SURGERY AND LASER CENTER",
    "endpoint": [
      {
        "reference": "Endpoint/27a4e967-47aa-5a9c-a572-b8297ee268a2"
      },
      {
        "reference": "Endpoint/eccc5b67-79b0-5b2e-bbbb-476c6ec4255a"
      }
    ],
    "identifier": [
      {
        "system": "http://hl7.org/fhir/sid/us-npi",
        "value": "1508133711"
      }
    ],
    "address": [
      {
        "line": [
          "1411 N Flagler Drive",
          "Suite 5300"
        ],
        "city": "WEST PALM BEACH",
        "state": "FL",
        "postalCode": "33401-3415"
      },
      {
        "line": [
          "5350 W. Atlantic Avenue",
          "Suite 102"
        ],
        "city": "DELRAY BEACH",
        "state": "FL",
        "postalCode": "33484-8112"
      },
      {
        "line": [
          "1411 N. FLAGLER DRIVE",
          "SUITE 5300"
        ],
        "city": "WEST PALM BEACH",
        "state": "FL",
        "postalCode": "33401-3415"
      },
      {
        "line": [
          "2055 MILITARY TRAIL",
          "SUITE 210"
        ],
        "city": "JUPITER",
        "state": "FL",
        "postalCode": "33458-7801"
      },
      {
        "line": [
          "1411 N. Flagler Drive",
          "Ste 5300"
        ],
        "city": "WEST PALM BEACH",
        "state": "FL",
        "postalCode": "33401-3415"
      },
      {
        "line": [
          "3399 PGA Blvd, Suite 230"
        ],
        "city": "PALM BEACH GARDENS",
        "state": "FL",
        "postalCode": "33410-2804"
      },
      {
        "line": [
          "2055 Military Trail",
          "Suite 210"
        ],
        "city": "JUPITER",
        "state": "FL",
        "postalCode": "33458-7830"
      },
      {
        "line": [],
        "city": "WEST PALM BEACH",
        "state": "FL",
        "postalCode": "33401-3415"
      },
      {
        "line": [
          "3399 PGA BLVD",
          "SUITE 230"
        ],
        "city": "PALM BEACH GARDENS",
        "state": "FL",
        "postalCode": "33410-2804"
      },
      {
        "line": [
          "16313 S. MILITARY TRAIL"
        ],
        "city": "DELRAY BEACH",
        "state": "FL",
        "postalCode": "33484-6628"
      },
      {
        "line": [
          "3399 PGA BLVD"
        ],
        "city": "PALM BEACH GARDENS",
        "state": "FL",
        "postalCode": "33410-2819"
      }
    ],
    "extension": [
      {
        "url": "https://fhir.athena.io/StructureDefinition/ah-practice",
        "valueReference": {
          "reference": "Organization/a-1.Practice-3510"
        }
      },
      {
        "url": "https://fhir.athena.io/StructureDefinition/ah-brand",
        "valueReference": {
          "reference": "Organization/a-3510.Brand-1"
        }
      }
    ]
  },
  "fullUrl": "urn:uuid:d00a57d4-6492-5451-bb7e-a8a9a8add96d"
}