{
  "resource": {
    "resourceType": "Organization",
    "id": "e012f499-f33e-5fd8-912b-a4a0088acc2e",
    "name": "YMCA of South Palm Beach County",
    "endpoint": [
      {
        "reference": "Endpoint/27a4e967-47aa-5a9c-a572-b8297ee268a2"
      },
      {
        "reference": "Endpoint/abb5f7d5-468e-5806-be46-fb2282afef02"
      }
    ],
    "identifier": [
      {
        "system": "http://hl7.org/fhir/sid/us-npi",
        "value": "1316496292"
      }
    ],
    "address": [
      {
        "line": [
          "1302 Southwest 30th Street"
        ],
        "city": "BOYNTON BEACH",
        "state": "FL",
        "postalCode": "33426-9018"
      },
      {
        "line": [
          "501 Swain Boulevard"
        ],
        "city": "LAKE WORTH",
        "state": "FL",
        "postalCode": "33463-5678"
      },
      {
        "line": [
          "2775 Homewood Road"
        ],
        "city": "WEST PALM BEACH",
        "state": "FL",
        "postalCode": "33406-3107"
      },
      {
        "line": [
          "1515 West Palmetto Park Rd"
        ],
        "city": "BOCA RATON",
        "state": "FL",
        "postalCode": "33486-3307"
      },
      {
        "line": [
          "2085 South Congress Avenue"
        ],
        "city": "WEST PALM BEACH",
        "state": "FL",
        "postalCode": "33406-7601"
      },
      {
        "line": [
          "125 SE 2nd Avenue"
        ],
        "city": "DEERFIELD BEACH",
        "state": "FL",
        "postalCode": "33441-0123"
      },
      {
        "line": [
          "6631 Palmetto Cir S"
        ],
        "city": "BOCA RATON",
        "state": "FL",
        "postalCode": "33433-3549"
      },
      {
        "line": [
          "901 Peninsula Corporate Circle"
        ],
        "city": "BOCA RATON",
        "state": "FL",
        "postalCode": "33487-1339"
      },
      {
        "line": [
          "4800 Linton Boulevard",
          "F-107"
        ],
        "city": "DELRAY BEACH",
        "state": "FL",
        "postalCode": "33445-6584"
      },
      {
        "line": [
          "9600 S Military Tr"
        ],
        "city": "BOYNTON BEACH",
        "state": "FL",
        "postalCode": "33436-3213"
      },
      {
        "line": [
          "3300 Forest Hill Boulevard"
        ],
        "city": "WEST PALM BEACH",
        "state": "FL",
        "postalCode": "33406-5813"
      },
      {
        "line": [
          "1901 Northwest 16th Street"
        ],
        "city": "BELLE GLADE",
        "state": "FL",
        "postalCode": "33430-1201"
      }
    ],
    "extension": [
      {
        "url": "https://fhir.athena.io/StructureDefinition/ah-practice",
        "valueReference": {
          "reference": "Organization/a-1.Practice-14268"
        }
      },
      {
        "url": "https://fhir.athena.io/StructureDefinition/ah-brand",
        "valueReference": {
          "reference": "Organization/a-14268.Brand-1"
        }
      }
    ]
  },
  "fullUrl": "urn:uuid:e012f499-f33e-5fd8-912b-a4a0088acc2e"
}