{
  "resource": {
    "resourceType": "Organization",
    "id": "f6f79594-16e6-5a76-b462-e87df21ac43f",
    "name": "YMCA of Greater Tulsa Oklahoma",
    "endpoint": [
      {
        "reference": "Endpoint/27a4e967-47aa-5a9c-a572-b8297ee268a2"
      },
      {
        "reference": "Endpoint/abb5f7d5-468e-5806-be46-fb2282afef02"
      }
    ],
    "identifier": [
      {
        "system": "http://hl7.org/fhir/sid/us-npi",
        "value": "1790234821"
      }
    ],
    "address": [
      {
        "line": [
          "8501 S Garnett"
        ],
        "city": "BROKEN ARROW",
        "state": "OK",
        "postalCode": "74012-8861"
      },
      {
        "line": [
          "420 S Main St., Ste 200"
        ],
        "city": "TULSA",
        "state": "OK",
        "postalCode": "74103-3689"
      },
      {
        "line": [
          "7910 E 134th St S"
        ],
        "city": "BIXBY",
        "state": "OK",
        "postalCode": "74008-3180"
      },
      {
        "line": [
          "4777 South 129th East Ave"
        ],
        "city": "TULSA",
        "state": "OK",
        "postalCode": "74134-7005"
      },
      {
        "line": [
          "5400 S Olympia Ave"
        ],
        "city": "TULSA",
        "state": "OK",
        "postalCode": "74107-6006"
      },
      {
        "line": [
          "418 S. Main St."
        ],
        "city": "TULSA",
        "state": "OK",
        "postalCode": "74103-5033"
      },
      {
        "line": [
          "8300 N Owasso Expy"
        ],
        "city": "OWASSO",
        "state": "OK",
        "postalCode": "74055-2621"
      },
      {
        "line": [
          "1120 E Pine St"
        ],
        "city": "TULSA",
        "state": "OK",
        "postalCode": "74106-4959"
      }
    ],
    "extension": [
      {
        "url": "https://fhir.athena.io/StructureDefinition/ah-practice",
        "valueReference": {
          "reference": "Organization/a-1.Practice-14268"
        }
      },
      {
        "url": "https://fhir.athena.io/StructureDefinition/ah-brand",
        "valueReference": {
          "reference": "Organization/a-14268.Brand-1"
        }
      }
    ]
  },
  "fullUrl": "urn:uuid:f6f79594-16e6-5a76-b462-e87df21ac43f"
}