{
  "resource": {
    "resourceType": "Organization",
    "id": "40b21a02-4851-5f7a-b135-e863a9348879",
    "name": "A Nurses Touch Adult Family Home",
    "endpoint": [
      {
        "reference": "Endpoint/27a4e967-47aa-5a9c-a572-b8297ee268a2"
      },
      {
        "reference": "Endpoint/6f88698a-7593-509c-8623-c3b82091601b"
      }
    ],
    "identifier": [
      {
        "system": "http://hl7.org/fhir/sid/us-npi",
        "value": "1215450697"
      }
    ],
    "address": [
      {
        "line": [
          "9706 E Morgan Rd"
        ],
        "city": "SPOKANE",
        "state": "WA",
        "postalCode": "99217-9821"
      },
      {
        "line": [
          "2308 E 61st Avenue"
        ],
        "city": "SPOKANE",
        "state": "WA",
        "postalCode": "99223-6906"
      },
      {
        "line": [
          "2821 N PARK RD"
        ],
        "city": "SPOKANE",
        "state": "WA",
        "postalCode": "99212-1505"
      },
      {
        "line": [
          "10513 EAST 8TH AVENUE"
        ],
        "city": "SPOKANE",
        "state": "WA",
        "postalCode": "99206-5151"
      },
      {
        "line": [
          "521 NORTH ARGONNE RD STE B101"
        ],
        "city": "SPOKANE",
        "state": "WA",
        "postalCode": "99212-2877"
      },
      {
        "line": [
          "23025 BROADWAY AVENUE"
        ],
        "city": "LIBERTY LAKE",
        "state": "WA",
        "postalCode": "99019-7505"
      },
      {
        "line": [
          "11423 E 10TH AVE"
        ],
        "city": "SPOKANE",
        "state": "WA",
        "postalCode": "99206-2830"
      },
      {
        "line": [
          "10823 E 16th Ave"
        ],
        "city": "SPOKANE",
        "state": "WA",
        "postalCode": "99206-2311"
      },
      {
        "line": [
          "9106 N Dorset Rd"
        ],
        "city": "SPOKANE",
        "state": "WA",
        "postalCode": "99208-5304"
      },
      {
        "line": [
          "9606 N Ridgecrest Drive"
        ],
        "city": "SPOKANE",
        "state": "WA",
        "postalCode": "99208-9998"
      },
      {
        "line": [
          "521 N Argonne Rd"
        ],
        "city": "SPOKANE",
        "state": "WA",
        "postalCode": "99212-2877"
      },
      {
        "line": [
          "1421 S. Chronicle Rd"
        ],
        "city": "SPOKANE",
        "state": "WA",
        "postalCode": "99212-2877"
      },
      {
        "line": [
          "211 N BOWDISH RD"
        ],
        "city": "SPOKANE VALLEY",
        "state": "WA",
        "postalCode": "99026-5107"
      },
      {
        "line": [
          "521 North Argonne Road Suite B 101"
        ],
        "city": "SPOKANE",
        "state": "WA",
        "postalCode": "99212-2877"
      },
      {
        "line": [
          "3825 W Broad Ave"
        ],
        "city": "SPOKANE",
        "state": "WA",
        "postalCode": "99205-6119"
      },
      {
        "line": [
          "3116 S BOWDISH RD"
        ],
        "city": "SPOKANE Valley",
        "state": "WA",
        "postalCode": "99206-5937"
      },
      {
        "line": [
          "6603 E 15th Ave"
        ],
        "city": "SPOKANE",
        "state": "WA",
        "postalCode": "99212-0129"
      },
      {
        "line": [
          "4918 E 6th Ave"
        ],
        "city": "SPOKANE",
        "state": "WA",
        "postalCode": "99212-0317"
      },
      {
        "line": [
          "3807 S MERCY DR"
        ],
        "city": "SPOKANE",
        "state": "WA",
        "postalCode": "99206-9517"
      },
      {
        "line": [
          "2821 N Park Rd"
        ],
        "city": "SPOKANE",
        "state": "WA",
        "postalCode": "99212-2877"
      },
      {
        "line": [
          "3905 E 18th Ave"
        ],
        "city": "SPOKANE",
        "state": "WA",
        "postalCode": "99223-5323"
      },
      {
        "line": [
          "1911 S McDonalds Rd."
        ],
        "city": "SPOKANE VALLEY",
        "state": "WA",
        "postalCode": "99216-2515"
      },
      {
        "line": [
          "16110 N GLENEDEN DR"
        ],
        "city": "SPOKANE",
        "state": "WA",
        "postalCode": "99208-8313"
      },
      {
        "line": [
          "7122 E 12th Avenue"
        ],
        "city": "SPOKANE",
        "state": "WA",
        "postalCode": "99212-2877"
      },
      {
        "line": [
          "11004 E 21ST AVE"
        ],
        "city": "SPOKANE VALLEY",
        "state": "WA",
        "postalCode": "99206-2311"
      },
      {
        "line": [
          "1307 S Center Dr"
        ],
        "city": "SPOKANE",
        "state": "WA",
        "postalCode": "99212-2877"
      },
      {
        "line": [
          "8315 N COLTON PLACE"
        ],
        "city": "SPOKANE",
        "state": "WA",
        "postalCode": "99208-5874"
      },
      {
        "line": [
          "9003/5 E Main Avenue"
        ],
        "city": "SPOKANE",
        "state": "WA",
        "postalCode": "99212-2877"
      },
      {
        "line": [
          "4212 W WEILE AVE"
        ],
        "city": "SPOKANE",
        "state": "WA",
        "postalCode": "99208-5057"
      },
      {
        "line": [
          "11011 E 6th Ave"
        ],
        "city": "SPOKANE",
        "state": "WA",
        "postalCode": "99206-2800"
      },
      {
        "line": [
          "9808 E 9TH AVE"
        ],
        "city": "SPOKANE VALLEY",
        "state": "WA",
        "postalCode": "99209-6943"
      },
      {
        "line": [
          "5920 W Lonewolf Avenue"
        ],
        "city": "SPOKANE",
        "state": "WA",
        "postalCode": "99208-5304"
      },
      {
        "line": [
          "4819 Rosewood Avenue"
        ],
        "city": "SPOKANE",
        "state": "WA",
        "postalCode": "99208-4607"
      },
      {
        "line": [
          "8104 E indiana"
        ],
        "city": "SPOKANE",
        "state": "WA",
        "postalCode": "99212-2877"
      },
      {
        "line": [
          "5608 N DRUMHELLER ST"
        ],
        "city": "SPOKANE",
        "state": "WA",
        "postalCode": "99205-7511"
      },
      {
        "line": [
          "5916 S Moran Drive"
        ],
        "city": "SPOKANE",
        "state": "WA",
        "postalCode": "99223-7132"
      },
      {
        "line": [
          "10518 N RUSSETT DR"
        ],
        "city": "SPOKANE",
        "state": "WA",
        "postalCode": "99208-5304"
      },
      {
        "line": [
          "601 S PARK RD"
        ],
        "city": "SPOKANE",
        "state": "WA",
        "postalCode": "99212-0593"
      },
      {
        "line": [
          "7107 NCampbell"
        ],
        "city": "OTIS ORCHARDS",
        "state": "WA",
        "postalCode": "99027-9297"
      },
      {
        "line": [
          "11311 E 10th Avenue"
        ],
        "city": "SPOKANE",
        "state": "WA",
        "postalCode": "99206-5151"
      },
      {
        "line": [
          "2025 S Blake Road"
        ],
        "city": "SPOKANE",
        "state": "WA",
        "postalCode": "99216-0414"
      },
      {
        "line": [
          "15305 N Hunters Pointe Rd"
        ],
        "city": "MEAD",
        "state": "WA",
        "postalCode": "99021-9998"
      },
      {
        "line": [
          "5111 N Washington Street"
        ],
        "city": "SPOKANE",
        "state": "WA",
        "postalCode": "99205-9998"
      },
      {
        "line": [
          "1421 S Chronicle Rd"
        ],
        "city": "SPOKANE",
        "state": "WA",
        "postalCode": "99212-3403"
      }
    ],
    "extension": [
      {
        "url": "https://fhir.athena.io/StructureDefinition/ah-practice",
        "valueReference": {
          "reference": "Organization/a-1.Practice-16384"
        }
      },
      {
        "url": "https://fhir.athena.io/StructureDefinition/ah-brand",
        "valueReference": {
          "reference": "Organization/a-16384.Brand-1"
        }
      }
    ]
  },
  "fullUrl": "urn:uuid:40b21a02-4851-5f7a-b135-e863a9348879"
}