{
  "resource": {
    "resourceType": "Organization",
    "id": "e402d673-dec2-5182-a68c-75860f98091f",
    "name": "IPW Thiensville Family Health Care",
    "endpoint": [
      {
        "reference": "Endpoint/27a4e967-47aa-5a9c-a572-b8297ee268a2"
      },
      {
        "reference": "Endpoint/ca769832-edc4-5915-953d-e5382872a368"
      }
    ],
    "identifier": [
      {
        "system": "http://hl7.org/fhir/sid/us-npi",
        "value": "1871975920"
      }
    ],
    "address": [
      {
        "line": [
          "N112W12850 Mequon Road"
        ],
        "city": "GERMANTOWN",
        "state": "WI",
        "postalCode": "53022-3624"
      },
      {
        "line": [
          "5850 N. Lydell Road"
        ],
        "city": "Whitefish Bay",
        "state": "WI",
        "postalCode": "53217-4506"
      },
      {
        "line": [
          "213 W. Alta Loma Circle"
        ],
        "city": "THIENSVILLE",
        "state": "WI",
        "postalCode": "53092-1719"
      },
      {
        "line": [
          "10995 N. Market Street"
        ],
        "city": "MEQUON",
        "state": "WI",
        "postalCode": "53092-4952"
      },
      {
        "line": [
          "10995 N Market Street"
        ],
        "city": "MEQUON",
        "state": "WI",
        "postalCode": "53092-4952"
      },
      {
        "line": [
          "11340 N. Cedarburg Road"
        ],
        "city": "MEQUON",
        "state": "WI",
        "postalCode": "53092-1931"
      },
      {
        "line": [
          "9301 N. 76th Street"
        ],
        "city": "MILWAUKEE",
        "state": "WI",
        "postalCode": "53223-1074"
      },
      {
        "line": [
          "136 N. Main Street, Suite 201"
        ],
        "city": "THIENSVILLE",
        "state": "WI",
        "postalCode": "53092-1606"
      },
      {
        "line": [
          "N27W5707 Lincoln Blvd"
        ],
        "city": "CEDARBURG",
        "state": "WI",
        "postalCode": "53012-2852"
      },
      {
        "line": [
          "13111 N. Port Washington Road"
        ],
        "city": "MEQUON",
        "state": "WI",
        "postalCode": "53097-2416"
      },
      {
        "line": [
          "12600 N. Port Washington Road"
        ],
        "city": "MEQUON",
        "state": "WI",
        "postalCode": "53092-3469"
      },
      {
        "line": [
          "200 N. Main Street"
        ],
        "city": "MEQUON",
        "state": "WI",
        "postalCode": "53092-1618"
      },
      {
        "line": [
          "2145 W. Hemlock Rd"
        ],
        "city": "Glendale",
        "state": "WI",
        "postalCode": "53209-2139"
      }
    ],
    "extension": [
      {
        "url": "https://fhir.athena.io/StructureDefinition/ah-practice",
        "valueReference": {
          "reference": "Organization/a-1.Practice-18758"
        }
      },
      {
        "url": "https://fhir.athena.io/StructureDefinition/ah-brand",
        "valueReference": {
          "reference": "Organization/a-18758.Brand-6"
        }
      }
    ]
  },
  "fullUrl": "urn:uuid:e402d673-dec2-5182-a68c-75860f98091f"
}