{
  "resource": {
    "resourceType": "Organization",
    "id": "916bbc46-1355-5531-8180-2aa34659c9e0",
    "name": "840 W. Irving Park Rd.",
    "endpoint": [
      {
        "reference": "Endpoint/27a4e967-47aa-5a9c-a572-b8297ee268a2"
      },
      {
        "reference": "Endpoint/c8535f89-3b3a-51cf-be3f-a893e03f254a"
      }
    ],
    "identifier": [
      {
        "system": "http://hl7.org/fhir/sid/us-npi",
        "value": "1619258118"
      }
    ],
    "address": [
      {
        "line": [
          "8425 N. Waukegan Rd"
        ],
        "city": "MORTON GROVE",
        "state": "IL",
        "postalCode": "60053-2202"
      },
      {
        "line": [
          "850 W Irving Park Rd"
        ],
        "city": "CHICAGO",
        "state": "IL",
        "postalCode": "60613-3099"
      },
      {
        "line": [
          "2753 n hampden ct",
          "c/o The Grove of Lincoln Park"
        ],
        "city": "CHICAGO",
        "state": "IL",
        "postalCode": "60614-1612"
      },
      {
        "line": [
          "263 Skokie Boulevard"
        ],
        "city": "NORTHBROOK",
        "state": "IL",
        "postalCode": "60062-1611"
      },
      {
        "line": [],
        "city": "CHICAGO",
        "state": "IL",
        "postalCode": "60613-3011"
      },
      {
        "line": [
          "7350 N. Sheridan Road"
        ],
        "city": "CHICAGO",
        "state": "IL",
        "postalCode": "60626-2017"
      },
      {
        "line": [
          "127 W Diversey Ave",
          "c/0 Elmbrook Healthcare & Rehabilitation Centre"
        ],
        "city": "ELMHURST",
        "state": "IL",
        "postalCode": "60126-1101"
      },
      {
        "line": [
          "1725 S. Wabash Avenue"
        ],
        "city": "CHICAGO",
        "state": "IL",
        "postalCode": "60616-1219"
      },
      {
        "line": [
          "1601 North Farnsworth Ave"
        ],
        "city": "AURORA",
        "state": "IL",
        "postalCode": "60505-1509"
      },
      {
        "line": [
          "2773 Skokie Valley Rd"
        ],
        "city": "HIGHLAND PARK",
        "state": "IL",
        "postalCode": "60035-1042"
      }
    ],
    "extension": [
      {
        "url": "https://fhir.athena.io/StructureDefinition/ah-practice",
        "valueReference": {
          "reference": "Organization/a-1.Practice-3770"
        }
      },
      {
        "url": "https://fhir.athena.io/StructureDefinition/ah-brand",
        "valueReference": {
          "reference": "Organization/a-3770.Brand-1"
        }
      }
    ]
  },
  "fullUrl": "urn:uuid:916bbc46-1355-5531-8180-2aa34659c9e0"
}