{
  "resource": {
    "resourceType": "Organization",
    "id": "430c1861-c89b-520f-8e71-6cf206fefc5d",
    "name": "Westchester Medical Advanced Physician Services",
    "endpoint": [
      {
        "reference": "Endpoint/27a4e967-47aa-5a9c-a572-b8297ee268a2"
      },
      {
        "reference": "Endpoint/bb8ef500-2cc9-5937-946d-3068be218954"
      }
    ],
    "identifier": [
      {
        "system": "http://hl7.org/fhir/sid/us-npi",
        "value": "1912131392"
      }
    ],
    "address": [
      {
        "line": [
          "19 Bradhurst ave",
          "Suite 1300N"
        ],
        "city": "HAWTHORNE",
        "state": "NY",
        "postalCode": "10532-2140"
      },
      {
        "line": [],
        "city": "POUGHKEEPSIE",
        "state": "NY",
        "postalCode": "12603-1399"
      },
      {
        "line": [],
        "city": "MIDDLETOWN",
        "state": "NY",
        "postalCode": "10940-4133"
      },
      {
        "line": [
          "19 Bradhurst Avenue"
        ],
        "city": "HAWTHORNE",
        "state": "NY",
        "postalCode": "10532-2115"
      },
      {
        "line": [],
        "city": "HAWTHORNE",
        "state": "NY",
        "postalCode": "10532-2140"
      },
      {
        "line": [],
        "city": "WHITE PLAINS",
        "state": "NY",
        "postalCode": "10601-2227"
      },
      {
        "line": [],
        "city": "STAMFORD",
        "state": "CT",
        "postalCode": "06902-0001"
      },
      {
        "line": [],
        "city": "MOUNT VERNON",
        "state": "NY",
        "postalCode": "10550-3007"
      },
      {
        "line": [
          "15 Oval Connector",
          "Elmwood Hall, Room 202"
        ],
        "city": "VALHALLA",
        "state": "NY",
        "postalCode": "10595-1532"
      }
    ],
    "extension": [
      {
        "url": "https://fhir.athena.io/StructureDefinition/ah-practice",
        "valueReference": {
          "reference": "Organization/a-1.Practice-8980"
        }
      },
      {
        "url": "https://fhir.athena.io/StructureDefinition/ah-brand",
        "valueReference": {
          "reference": "Organization/a-8980.Brand-4"
        }
      }
    ]
  },
  "fullUrl": "urn:uuid:430c1861-c89b-520f-8e71-6cf206fefc5d"
}