{
  "resource": {
    "resourceType": "Organization",
    "id": "1da8e88b-226c-5bfe-a375-df98c42ba4a4",
    "name": "Bayshore Podiatry",
    "endpoint": [
      {
        "reference": "Endpoint/27a4e967-47aa-5a9c-a572-b8297ee268a2"
      },
      {
        "reference": "Endpoint/2f66239e-63c5-5bcc-bc42-5b41768599b8"
      }
    ],
    "identifier": [
      {
        "system": "http://hl7.org/fhir/sid/us-npi",
        "value": "1285739854"
      }
    ],
    "address": [
      {
        "line": [
          "210 S CARANCAHUA",
          "SUITE 303"
        ],
        "city": "CORPUS CHRISTI",
        "state": "TX",
        "postalCode": "78401-3040"
      },
      {
        "line": [
          "313 first street"
        ],
        "city": "ALICE",
        "state": "TX",
        "postalCode": "78332-4836"
      },
      {
        "line": [
          "2020 n. johnson"
        ],
        "city": "ALICE",
        "state": "TX",
        "postalCode": "78332-2988"
      },
      {
        "line": [
          "830 w king ave"
        ],
        "city": "KINGSVILLE",
        "state": "TX",
        "postalCode": "78363-4943"
      },
      {
        "line": [
          "3221 holly rd"
        ],
        "city": "CORPUS CHRISTI",
        "state": "TX",
        "postalCode": "78415-3216"
      },
      {
        "line": [
          "518 main street suite c"
        ],
        "city": "ROBSTOWN",
        "state": "TX",
        "postalCode": "78380-3247"
      },
      {
        "line": [
          "604 W BROADWAY"
        ],
        "city": "PORTLAND",
        "state": "TX",
        "postalCode": "78374-2231"
      },
      {
        "line": [
          "1881 south reynolds]",
          "suite B"
        ],
        "city": "CORPUS CHRISTI",
        "state": "TX",
        "postalCode": "78413-3842"
      },
      {
        "line": [
          "7426 s. staples",
          "suite 209"
        ],
        "city": "CORPUS CHRISTI",
        "state": "TX",
        "postalCode": "78413-5531"
      },
      {
        "line": [
          "5926 SOUTH STAPLES SUITE B1"
        ],
        "city": "CORPUS CHRISTI",
        "state": "TX",
        "postalCode": "78413-3800"
      },
      {
        "line": [
          "1006 e 6th street"
        ],
        "city": "ALICE",
        "state": "TX",
        "postalCode": "78332-4656"
      },
      {
        "line": [
          "6200 SARATOGA BLVD BLD 2 STE 104"
        ],
        "city": "CORPUS CHRISTI",
        "state": "TX",
        "postalCode": "78414-3421"
      },
      {
        "line": [
          "2600 lakeview dr",
          "suite 2c"
        ],
        "city": "ROCKPORT",
        "state": "TX",
        "postalCode": "78382-3639"
      },
      {
        "line": [
          "114 W RAILROAD AVE"
        ],
        "city": "BENAVIDES",
        "state": "TX",
        "postalCode": "78341-0041"
      },
      {
        "line": [
          "1521 w market",
          "ste g"
        ],
        "city": "ROCKPORT",
        "state": "TX",
        "postalCode": "78382-6221"
      },
      {
        "line": [
          "5926 south staples",
          "suite c2"
        ],
        "city": "CORPUS CHRISTI",
        "state": "TX",
        "postalCode": "78413-3843"
      },
      {
        "line": [
          "601 east main st"
        ],
        "city": "ALICE",
        "state": "TX",
        "postalCode": "78332-4972"
      },
      {
        "line": [
          "5842 south Staples"
        ],
        "city": "CORPUS CHRISTI",
        "state": "TX",
        "postalCode": "78413-3705"
      },
      {
        "line": [
          "325 north washington street"
        ],
        "city": "BEEVILLE",
        "state": "TX",
        "postalCode": "78102-4512"
      },
      {
        "line": [
          "1101 3rd street"
        ],
        "city": "CORPUS CHRISTI",
        "state": "TX",
        "postalCode": "78404-9998"
      },
      {
        "line": [
          "345 south water street"
        ],
        "city": "CORPUS CHRISTI",
        "state": "TX",
        "postalCode": "78401-9998"
      },
      {
        "line": [
          "5110 wilkinson dr ste 108"
        ],
        "city": "CORPUS CHRISTI",
        "state": "TX",
        "postalCode": "78415-3004"
      },
      {
        "line": [
          "4444 corona st",
          "suite 120"
        ],
        "city": "CORPUS CHRISTI",
        "state": "TX",
        "postalCode": "78411-4321"
      },
      {
        "line": [
          "5656 south staples suite 202"
        ],
        "city": "CORPUS CHRISTI",
        "state": "TX",
        "postalCode": "78411-4655"
      },
      {
        "line": [
          "719 north upper broadway",
          "suite 100"
        ],
        "city": "CORPUS CHRISTI",
        "state": "TX",
        "postalCode": "78401-1901"
      },
      {
        "line": [
          "6529 ample arbor ct"
        ],
        "city": "CORPUS CHRISTI",
        "state": "TX",
        "postalCode": "78412-4858"
      },
      {
        "line": [
          "4122 WEBER RD STE B"
        ],
        "city": "CORPUS CHRISTI",
        "state": "TX",
        "postalCode": "78411-3141"
      },
      {
        "line": [
          "4444 corona street suite 205"
        ],
        "city": "CORPUS CHRISTI",
        "state": "TX",
        "postalCode": "78411-4325"
      },
      {
        "line": [
          "3546 south alameda"
        ],
        "city": "CORPUS CHRISTI",
        "state": "TX",
        "postalCode": "78411-1722"
      },
      {
        "line": [
          "101 n upper broadway"
        ],
        "city": "CORPUS CHRISTI",
        "state": "TX",
        "postalCode": "78401-2756"
      },
      {
        "line": [
          "1481 south flournoy",
          "suite 125"
        ],
        "city": "ALICE",
        "state": "TX",
        "postalCode": "78332-4276"
      },
      {
        "line": [
          "308 e 2nd street",
          "suite d"
        ],
        "city": "ALICE",
        "state": "TX",
        "postalCode": "78332-4533"
      },
      {
        "line": [
          "4444 corona drive, suite 211"
        ],
        "city": "CORPUS CHRISTI",
        "state": "TX",
        "postalCode": "78411-4323"
      },
      {
        "line": [
          "5633 S STAPLES, STE",
          "200"
        ],
        "city": "CORPUS CHRISTI",
        "state": "TX",
        "postalCode": "78411-4646"
      },
      {
        "line": [
          "207 east king street"
        ],
        "city": "KINGSVILLE",
        "state": "TX",
        "postalCode": "78363-5575"
      },
      {
        "line": [
          "313 E first st."
        ],
        "city": "ALICE",
        "state": "TX",
        "postalCode": "78332-4836"
      },
      {
        "line": [
          "13330 leopard st"
        ],
        "city": "CORPUS CHRISTI",
        "state": "TX",
        "postalCode": "78410-4400"
      },
      {
        "line": [
          "119  w railroad",
          "po box 510"
        ],
        "city": "BENAVIDES",
        "state": "TX",
        "postalCode": "78341-0510"
      },
      {
        "line": [
          "6262 weber road"
        ],
        "city": "CORPUS CHRISTI",
        "state": "TX",
        "postalCode": "78413-4006"
      }
    ],
    "extension": [
      {
        "url": "https://fhir.athena.io/StructureDefinition/ah-practice",
        "valueReference": {
          "reference": "Organization/a-1.Practice-2929"
        }
      },
      {
        "url": "https://fhir.athena.io/StructureDefinition/ah-brand",
        "valueReference": {
          "reference": "Organization/a-2929.Brand-1"
        }
      }
    ]
  },
  "fullUrl": "urn:uuid:1da8e88b-226c-5bfe-a375-df98c42ba4a4"
}