{
  "resource": {
    "resourceType": "Organization",
    "id": "9b803205-009f-5fb0-8637-53454de8bf74",
    "name": "Cardiovascular Institute of Central Florida",
    "endpoint": [
      {
        "reference": "Endpoint/27a4e967-47aa-5a9c-a572-b8297ee268a2"
      },
      {
        "reference": "Endpoint/d93e4ebb-1665-5d48-aefb-8dd05f1ff054"
      }
    ],
    "identifier": [
      {
        "system": "http://hl7.org/fhir/sid/us-npi",
        "value": "1679666598"
      }
    ],
    "address": [
      {
        "line": [
          "2111 SW 20TH PL"
        ],
        "city": "OCALA",
        "state": "FL",
        "postalCode": "34471-7734"
      },
      {
        "line": [
          "6555 SW Hwy 200"
        ],
        "city": "OCALA",
        "state": "FL",
        "postalCode": "34476-5575"
      },
      {
        "line": [
          "121 Lagrande Blvd",
          "Ste A"
        ],
        "city": "LADY LAKE",
        "state": "FL",
        "postalCode": "32159-1342"
      },
      {
        "line": [
          "1000 WATERMAN WAY"
        ],
        "city": "TAVARES",
        "state": "FL",
        "postalCode": "32778-5266"
      },
      {
        "line": [
          "1431 SW 1ST AVE"
        ],
        "city": "OCALA",
        "state": "FL",
        "postalCode": "34471-6500"
      },
      {
        "line": [
          "600 E DIXIE AVE"
        ],
        "city": "LEESBURG",
        "state": "FL",
        "postalCode": "34748-5925"
      },
      {
        "line": [
          "2105 SW 20th Pl"
        ],
        "city": "OCALA",
        "state": "FL",
        "postalCode": "34471-7734"
      },
      {
        "line": [
          "6511 SW HWY 200"
        ],
        "city": "OCALA",
        "state": "FL",
        "postalCode": "34476-5575"
      },
      {
        "line": [
          "1825 SALK AVE"
        ],
        "city": "TAVARES",
        "state": "FL",
        "postalCode": "32778-4311"
      },
      {
        "line": [
          "4901 INTERNATIONAL PKWY STE 1031"
        ],
        "city": "SANFORD",
        "state": "FL",
        "postalCode": "32771-8603"
      }
    ],
    "extension": [
      {
        "url": "https://fhir.athena.io/StructureDefinition/ah-practice",
        "valueReference": {
          "reference": "Organization/a-1.Practice-29679"
        }
      },
      {
        "url": "https://fhir.athena.io/StructureDefinition/ah-brand",
        "valueReference": {
          "reference": "Organization/a-29679.Brand-2"
        }
      }
    ]
  },
  "fullUrl": "urn:uuid:9b803205-009f-5fb0-8637-53454de8bf74"
}