{
  "resource": {
    "resourceType": "Organization",
    "id": "eb7f635e-6385-55f8-b85f-575c10728814",
    "name": "Dr. Ramil Jumao-as",
    "endpoint": [
      {
        "reference": "Endpoint/27a4e967-47aa-5a9c-a572-b8297ee268a2"
      },
      {
        "reference": "Endpoint/17089b46-fe30-5006-b586-c8d83671144e"
      }
    ],
    "identifier": [
      {
        "system": "http://hl7.org/fhir/sid/us-npi",
        "value": "1215206776"
      },
      {
        "system": "http://hl7.org/fhir/sid/us-npi",
        "value": "1396073029"
      }
    ],
    "address": [
      {
        "line": [
          "8700 Post Oak Ln"
        ],
        "city": "SAN ANTONIO",
        "state": "TX",
        "postalCode": "78217-5134"
      },
      {
        "line": [
          "96 Windmill Rd"
        ],
        "city": "SAN ANTONIO",
        "state": "TX",
        "postalCode": "78231-1545"
      },
      {
        "line": [
          "3220 N Loop 1604 W"
        ],
        "city": "SAN ANTONIO",
        "state": "TX",
        "postalCode": "78231-4401"
      },
      {
        "line": [
          "10910 Town Center Dr."
        ],
        "city": "SAN ANTONIO",
        "state": "TX",
        "postalCode": "78251-3245"
      },
      {
        "line": [
          "5001 Schertz Parkway"
        ],
        "city": "SCHERTZ",
        "state": "TX",
        "postalCode": "78154-1478"
      },
      {
        "line": [
          "11349 Alamo Ranch Pkwy"
        ],
        "city": "SAN ANTONIO",
        "state": "TX",
        "postalCode": "78253-6485"
      },
      {
        "line": [
          "11212 STATE HWY 151"
        ],
        "city": "SAN ANTONIO",
        "state": "TX",
        "postalCode": "78251-4219"
      },
      {
        "line": [
          "10410 PARRIGIN RD"
        ],
        "city": "HELOTES",
        "state": "TX",
        "postalCode": "78023-4283"
      },
      {
        "line": [
          "2739 Cembalo Blvd"
        ],
        "city": "SAN ANTONIO",
        "state": "TX",
        "postalCode": "78230-3011"
      },
      {
        "line": [
          "4315 Rogers Rd"
        ],
        "city": "SAN ANTONIO",
        "state": "TX",
        "postalCode": "78251-3692"
      },
      {
        "line": [
          "15430 Huebner Road"
        ],
        "city": "SAN ANTONIO",
        "state": "TX",
        "postalCode": "78248-0989"
      },
      {
        "line": [
          "10107 Military Dr. W"
        ],
        "city": "SAN ANTONIO",
        "state": "TX",
        "postalCode": "78251-1906"
      },
      {
        "line": [
          "5050 Timberhill"
        ],
        "city": "SAN ANTONIO",
        "state": "TX",
        "postalCode": "78238-3542"
      },
      {
        "line": [
          "5034 Newforest St"
        ],
        "city": "SAN ANTONIO",
        "state": "TX",
        "postalCode": "78229-5459"
      },
      {
        "line": [
          "9738 Westover Hills Blvd"
        ],
        "city": "SAN ANTONIO",
        "state": "TX",
        "postalCode": "78251-4583"
      },
      {
        "line": [
          "3303 Rogers Rd",
          "Suite 120"
        ],
        "city": "SAN ANTONIO",
        "state": "TX",
        "postalCode": "78251-3688"
      },
      {
        "line": [
          "1618 S. St. Mary's"
        ],
        "city": "SAN ANTONIO",
        "state": "TX",
        "postalCode": "78210-1634"
      },
      {
        "line": [
          "5962 Danny Kaye Dr."
        ],
        "city": "SAN ANTONIO",
        "state": "TX",
        "postalCode": "78240-5221"
      },
      {
        "line": [
          "19638 Stone Oak"
        ],
        "city": "SAN ANTONIO",
        "state": "TX",
        "postalCode": "78258-3279"
      },
      {
        "line": [
          "10323 State Hwy 151"
        ],
        "city": "SAN ANTONIO",
        "state": "TX",
        "postalCode": "78251-4219"
      },
      {
        "line": [
          "6538 Echert Rd"
        ],
        "city": "SAN ANTONIO",
        "state": "TX",
        "postalCode": "78240-2634"
      },
      {
        "line": [
          "2300 FM 3009"
        ],
        "city": "SCHERTZ",
        "state": "TX",
        "postalCode": "78154-2785"
      },
      {
        "line": [
          "11212 State Hwy 151"
        ],
        "city": "SAN ANTONIO",
        "state": "TX",
        "postalCode": "78251-4219"
      }
    ],
    "extension": [
      {
        "url": "https://fhir.athena.io/StructureDefinition/ah-practice",
        "valueReference": {
          "reference": "Organization/a-1.Practice-12706"
        }
      },
      {
        "url": "https://fhir.athena.io/StructureDefinition/ah-brand",
        "valueReference": {
          "reference": "Organization/a-12706.Brand-1"
        }
      }
    ]
  },
  "fullUrl": "urn:uuid:eb7f635e-6385-55f8-b85f-575c10728814"
}