{
  "resource": {
    "resourceType": "Organization",
    "id": "8b28357e-9640-539e-b6e9-e053ae85cda3",
    "name": "Texas Specialty Physicians",
    "endpoint": [
      {
        "reference": "Endpoint/27a4e967-47aa-5a9c-a572-b8297ee268a2"
      },
      {
        "reference": "Endpoint/ff450ebd-1f65-51c0-b9be-1b3e71d032e9"
      }
    ],
    "identifier": [
      {
        "system": "http://hl7.org/fhir/sid/us-npi",
        "value": "1558521179"
      }
    ],
    "address": [
      {
        "line": [
          "2212 West Reagan Street"
        ],
        "city": "PALESTINE",
        "state": "TX",
        "postalCode": "75801-2222"
      },
      {
        "line": [
          "2900 S Loop 256"
        ],
        "city": "PALESTINE",
        "state": "TX",
        "postalCode": "75801-6958"
      },
      {
        "line": [
          "514 South Bonham Ste D"
        ],
        "city": "MEXIA",
        "state": "TX",
        "postalCode": "76667-3664"
      },
      {
        "line": [
          "2300 S. Oak Grove Rd"
        ],
        "city": "ENNIS",
        "state": "TX",
        "postalCode": "75119-6841"
      },
      {
        "line": [
          "4002 South Loop 256"
        ],
        "city": "PALESTINE",
        "state": "TX",
        "postalCode": "75801-2825"
      },
      {
        "line": [
          "1625 West Spring"
        ],
        "city": "PALESTINE",
        "state": "TX",
        "postalCode": "75801-7943"
      },
      {
        "line": [
          "2201 W Lampasas St"
        ],
        "city": "ENNIS",
        "state": "TX",
        "postalCode": "75119-5644"
      },
      {
        "line": [
          "2265 South Sycamore"
        ],
        "city": "PALESTINE",
        "state": "TX",
        "postalCode": "75801-4774"
      },
      {
        "line": [
          "2404 North SH 155"
        ],
        "city": "PALESTINE",
        "state": "TX",
        "postalCode": "75801-8524"
      },
      {
        "line": [
          "2700 E. Broad Street"
        ],
        "city": "MANSFIELD",
        "state": "TX",
        "postalCode": "76063-0719"
      },
      {
        "line": [
          "30 VARIAH ST"
        ],
        "city": "PALESTINE",
        "state": "TX",
        "postalCode": "75801-4011"
      },
      {
        "line": [
          "101 Trinity Court"
        ],
        "city": "PALESTINE",
        "state": "TX",
        "postalCode": "75801-6978"
      }
    ],
    "extension": [
      {
        "url": "https://fhir.athena.io/StructureDefinition/ah-practice",
        "valueReference": {
          "reference": "Organization/a-1.Practice-20210"
        }
      },
      {
        "url": "https://fhir.athena.io/StructureDefinition/ah-brand",
        "valueReference": {
          "reference": "Organization/a-20210.Brand-2"
        }
      }
    ]
  },
  "fullUrl": "urn:uuid:8b28357e-9640-539e-b6e9-e053ae85cda3"
}