{
  "resource": {
    "resourceType": "Organization",
    "id": "76ad97a4-8669-59c2-b148-b2c7447fd4e1",
    "name": "Paris Foot and Ankle Clinic",
    "endpoint": [
      {
        "reference": "Endpoint/27a4e967-47aa-5a9c-a572-b8297ee268a2"
      },
      {
        "reference": "Endpoint/dfc9387d-992d-504c-8e82-3baaea72f651"
      }
    ],
    "identifier": [
      {
        "system": "http://hl7.org/fhir/sid/us-npi",
        "value": "1154805950"
      }
    ],
    "address": [
      {
        "line": [
          "1055 Clarksville Street",
          "Suite 160"
        ],
        "city": "PARIS",
        "state": "TX",
        "postalCode": "75460-6085"
      },
      {
        "line": [
          "750 N COLLEGIATE"
        ],
        "city": "PARIS",
        "state": "TX",
        "postalCode": "75460-3465"
      },
      {
        "line": [
          "2905 PINE MILL RD"
        ],
        "city": "PARIS",
        "state": "TX",
        "postalCode": "75460-3469"
      },
      {
        "line": [
          "520 8TH ST SE"
        ],
        "city": "PARIS",
        "state": "TX",
        "postalCode": "75460-7330"
      },
      {
        "line": [
          "865 DESHONG DRIVE"
        ],
        "city": "PARIS",
        "state": "TX",
        "postalCode": "75460-9313"
      },
      {
        "line": [
          "1055 CLARKSVILLE STREET STE. 160"
        ],
        "city": "PARIS",
        "state": "TX",
        "postalCode": "75460-6085"
      },
      {
        "line": [
          "115 NE 27TH ST"
        ],
        "city": "PARIS",
        "state": "TX",
        "postalCode": "75460-1444"
      },
      {
        "line": [
          "4530 LAMAR AVENUE"
        ],
        "city": "PARIS",
        "state": "TX",
        "postalCode": "75460-5119"
      },
      {
        "line": [
          "2990 PINE MILL ROAD"
        ],
        "city": "PARIS",
        "state": "TX",
        "postalCode": "75460-3448"
      },
      {
        "line": [
          "865 DESHONG DRIVE"
        ],
        "city": "PARIS",
        "state": "TX",
        "postalCode": "75460-6313"
      }
    ],
    "extension": [
      {
        "url": "https://fhir.athena.io/StructureDefinition/ah-practice",
        "valueReference": {
          "reference": "Organization/a-1.Practice-18635"
        }
      },
      {
        "url": "https://fhir.athena.io/StructureDefinition/ah-brand",
        "valueReference": {
          "reference": "Organization/a-18635.Brand-1"
        }
      }
    ]
  },
  "fullUrl": "urn:uuid:76ad97a4-8669-59c2-b148-b2c7447fd4e1"
}