{
  "resource": {
    "resourceType": "Organization",
    "id": "40c960a3-060a-5b96-86c6-edbf923f898c",
    "name": "BOTHELL",
    "endpoint": [
      {
        "reference": "Endpoint/27a4e967-47aa-5a9c-a572-b8297ee268a2"
      },
      {
        "reference": "Endpoint/182baebf-694b-5891-9347-e8201d565994"
      }
    ],
    "identifier": [
      {
        "system": "http://hl7.org/fhir/sid/us-npi",
        "value": "1255409371"
      },
      {
        "system": "http://hl7.org/fhir/sid/us-npi",
        "value": "1659707602"
      },
      {
        "system": "http://hl7.org/fhir/sid/us-npi",
        "value": "1952739500"
      },
      {
        "system": "http://hl7.org/fhir/sid/us-npi",
        "value": "1316284300"
      },
      {
        "system": "http://hl7.org/fhir/sid/us-npi",
        "value": "1750707154"
      },
      {
        "system": "http://hl7.org/fhir/sid/us-npi",
        "value": "1275943508"
      }
    ],
    "address": [
      {
        "line": [
          "13500 N Gayton Road"
        ],
        "city": "HENRICO",
        "state": "VA",
        "postalCode": "23233-7012"
      },
      {
        "line": [
          "13901 COALFIELD COMMONS PLACE MILLWORKS BUILDING 5",
          "MILLWORKS BUILDING 5"
        ],
        "city": "MIDLOTHIAN",
        "state": "VA",
        "postalCode": "23114-1216"
      },
      {
        "line": [
          "3535 Ashton Woods Dr, Suite 207A"
        ],
        "city": "ATLANTA",
        "state": "GA",
        "postalCode": "30319-2201"
      },
      {
        "line": [
          "3400 HAYDENPARK LN STE 300"
        ],
        "city": "HENRICO",
        "state": "VA",
        "postalCode": "23233-7867"
      },
      {
        "line": [
          "7218 Park Heights Avenue"
        ],
        "city": "Baltimore",
        "state": "MD",
        "postalCode": "21208-5474"
      },
      {
        "line": [
          "11611 ROBIOUS RD"
        ],
        "city": "MIDLOTHIAN",
        "state": "VA",
        "postalCode": "23113-2349"
      },
      {
        "line": [
          "1900 Lauderdale Drive"
        ],
        "city": "RICHMOND",
        "state": "VA",
        "postalCode": "23238-3933"
      },
      {
        "line": [
          "13901 COALFIELD COMMONS PL STE 201"
        ],
        "city": "MIDLOTHIAN",
        "state": "VA",
        "postalCode": "23114-1219"
      },
      {
        "line": [
          "7323 Boulders View Lane"
        ],
        "city": "RICHMOND",
        "state": "VA",
        "postalCode": "23225-4953"
      },
      {
        "line": [
          "12401 Gayton Road"
        ],
        "city": "Richmond",
        "state": "VA",
        "postalCode": "23238-2291"
      },
      {
        "line": [
          "124 VERDAE BLVD",
          "STE 204"
        ],
        "city": "GREENVILLE",
        "state": "SC",
        "postalCode": "29607-3844"
      },
      {
        "line": [
          "20 E Burke Avenue"
        ],
        "city": "TOWSON",
        "state": "MD",
        "postalCode": "21286-1112"
      },
      {
        "line": [
          "4116 Fitzhugh Avenue"
        ],
        "city": "RICHMOND",
        "state": "VA",
        "postalCode": "23230-3827"
      },
      {
        "line": [
          "6862 ELM ST STE 700"
        ],
        "city": "MC LEAN",
        "state": "VA",
        "postalCode": "22101-3862"
      },
      {
        "line": [
          "9801 Harmony Woods Way"
        ],
        "city": "HENRICO",
        "state": "VA",
        "postalCode": "23233-3005"
      },
      {
        "line": [
          "4204 Old Milford Mill Road"
        ],
        "city": "Baltimore",
        "state": "MD",
        "postalCode": "21208-6031"
      },
      {
        "line": [
          "3400 Haydenpark Lane",
          "Suite 300"
        ],
        "city": "HENRICO",
        "state": "VA",
        "postalCode": "23233-7867"
      },
      {
        "line": [
          "4589 Lifestyle Lane"
        ],
        "city": "MIDLOTHIAN",
        "state": "VA",
        "postalCode": "23112-4807"
      },
      {
        "line": [
          "1600 John Rolfe Parkway"
        ],
        "city": "HENRICO",
        "state": "VA",
        "postalCode": "23238-8110"
      },
      {
        "line": [
          "4204 Old Milford Mill Rd"
        ],
        "city": "PIKESVILLE",
        "state": "MD",
        "postalCode": "21208-6031"
      },
      {
        "line": [
          "9106 Pine View LN"
        ],
        "city": "CLINTON",
        "state": "MD",
        "postalCode": "20735-3298"
      },
      {
        "line": [
          "1840 Reisterstown Rd"
        ],
        "city": "PIKESVILLE",
        "state": "MD",
        "postalCode": "21208-1305"
      },
      {
        "line": [
          "46531 Harry Byrd Hwy"
        ],
        "city": "STERLING",
        "state": "VA",
        "postalCode": "20164-3555"
      },
      {
        "line": [],
        "city": "OWINGS MILLS",
        "state": "MD",
        "postalCode": "21117-5623"
      },
      {
        "line": [
          "5601 Margaret Wallace Road"
        ],
        "city": "MATTHEWS",
        "state": "NC",
        "postalCode": "28105-2119"
      },
      {
        "line": [
          "7300 Forest Avenue"
        ],
        "city": "RICHMOND",
        "state": "VA",
        "postalCode": "23226-3735"
      },
      {
        "line": [
          "6862 Elm Street, Ste 700"
        ],
        "city": "MC LEAN",
        "state": "VA",
        "postalCode": "22101-3862"
      },
      {
        "line": [
          "2420 Pemberton Road"
        ],
        "city": "RICHMOND",
        "state": "VA",
        "postalCode": "23233-2006"
      },
      {
        "line": [
          "4511 Robosson Rd"
        ],
        "city": "RANDALLSTOWN",
        "state": "MD",
        "postalCode": "21133-1018"
      },
      {
        "line": [
          "10043 Midlothian Trnpk"
        ],
        "city": "RICHMOND",
        "state": "VA",
        "postalCode": "23235-4856"
      },
      {
        "line": [
          "1504 Santa Rosa, Ste 114"
        ],
        "city": "RICHMOND",
        "state": "VA",
        "postalCode": "23229-5109"
      },
      {
        "line": [
          "11 E Augusta Place"
        ],
        "city": "GREENVILLE",
        "state": "SC",
        "postalCode": "29605-1755"
      },
      {
        "line": [
          "13901 Coalfield Commons Place",
          "Millworks Building 5, Ste 201"
        ],
        "city": "Midlothian",
        "state": "VA",
        "postalCode": "23114-1216"
      },
      {
        "line": [
          "3806 COLLIER RD"
        ],
        "city": "RANDALLSTOWN",
        "state": "MD",
        "postalCode": "21133-3306"
      },
      {
        "line": [
          "4204 Old Milford Mill Road"
        ],
        "city": "PIKESVILLE",
        "state": "MD",
        "postalCode": "21208-6031"
      },
      {
        "line": [
          "8720 Emge Rd"
        ],
        "city": "PARKVILLE",
        "state": "MD",
        "postalCode": "21234-3504"
      },
      {
        "line": [],
        "city": "SAINT CHARLES",
        "state": "IL",
        "postalCode": "60175-4827"
      },
      {
        "line": [
          "1240 ASHFORD CENTER PKWY"
        ],
        "city": "ATLANTA",
        "state": "GA",
        "postalCode": "30338-2673"
      },
      {
        "line": [
          "8911 Reisterstown Road"
        ],
        "city": "PIKESVILLE",
        "state": "MD",
        "postalCode": "21208-1072"
      },
      {
        "line": [
          "585 Southlake Blvd, Ste B"
        ],
        "city": "RICHMOND",
        "state": "VA",
        "postalCode": "23236-3198"
      },
      {
        "line": [
          "850 E Butler Road"
        ],
        "city": "GREENVILLE",
        "state": "SC",
        "postalCode": "29607-5842"
      },
      {
        "line": [
          "3800 Old Court Road"
        ],
        "city": "PIKESVILLE",
        "state": "MD",
        "postalCode": "21208-3810"
      },
      {
        "line": [
          "2300 Cedarfield Pkwy"
        ],
        "city": "Richmond",
        "state": "VA",
        "postalCode": "23233-1936"
      },
      {
        "line": [
          "20 Hawthorne Park Court"
        ],
        "city": "GREENVILLE",
        "state": "SC",
        "postalCode": "29615-3194"
      },
      {
        "line": [
          "8315 Turning Leaf Lane"
        ],
        "city": "MC LEAN",
        "state": "VA",
        "postalCode": "22102-2615"
      },
      {
        "line": [],
        "city": "MC LEAN",
        "state": "VA",
        "postalCode": "22101-3862"
      },
      {
        "line": [
          "755 Mt Vernon Highway",
          "Suite 110"
        ],
        "city": "Sandy Springs",
        "state": "GA",
        "postalCode": "30328-4274"
      },
      {
        "line": [
          "7232 German Hill Rd"
        ],
        "city": "DUNDALK",
        "state": "MD",
        "postalCode": "21222-1260"
      },
      {
        "line": [
          "14399 N GAYTON RD"
        ],
        "city": "GLEN ALLEN",
        "state": "VA",
        "postalCode": "23059-5974"
      },
      {
        "line": [
          "1 Hoke Smith Blvd"
        ],
        "city": "GREENVILLE",
        "state": "SC",
        "postalCode": "29615-5308"
      },
      {
        "line": [
          "8832 Walther Blvd"
        ],
        "city": "PARKVILLE",
        "state": "MD",
        "postalCode": "21234-9020"
      },
      {
        "line": [
          "4730 Atrium Court"
        ],
        "city": "OWINGS MILLS",
        "state": "MD",
        "postalCode": "21117-3556"
      },
      {
        "line": [
          "755 MOUNT VERNON HWY NE STE 110"
        ],
        "city": "Sandy Springs",
        "state": "GA",
        "postalCode": "30328-4276"
      },
      {
        "line": [
          "7001 Forest Avenue",
          "Suite 302"
        ],
        "city": "RICHMOND",
        "state": "VA",
        "postalCode": "23230-1706"
      },
      {
        "line": [
          "2151 Chain Bridge Rd."
        ],
        "city": "VIENNA",
        "state": "VA",
        "postalCode": "22182-3734"
      },
      {
        "line": [
          "4196-A Innslake Drive"
        ],
        "city": "GLEN ALLEN",
        "state": "VA",
        "postalCode": "23060-3344"
      },
      {
        "line": [
          "1700 Woodholme Ave"
        ],
        "city": "PIKESVILLE",
        "state": "MD",
        "postalCode": "21208-2893"
      },
      {
        "line": [
          "400 Georgia Court"
        ],
        "city": "TOWSON",
        "state": "MD",
        "postalCode": "21204-4310"
      },
      {
        "line": [
          "9100 Bon Air Crossing Drive"
        ],
        "city": "RICHMOND",
        "state": "VA",
        "postalCode": "23235-4970"
      },
      {
        "line": [
          "1719 Bellevue Avenue"
        ],
        "city": "RICHMOND",
        "state": "VA",
        "postalCode": "23227-3901"
      },
      {
        "line": [
          "3000 Skipwith Road"
        ],
        "city": "HENRICO",
        "state": "VA",
        "postalCode": "23294-4144"
      },
      {
        "line": [
          "2300 Cedarfield Pkwy"
        ],
        "city": "RICHMOND",
        "state": "VA",
        "postalCode": "23233-1936"
      },
      {
        "line": [
          "7001 Forest Avenue, Ste 302"
        ],
        "city": "RICHMOND",
        "state": "VA",
        "postalCode": "23230-1726"
      },
      {
        "line": [
          "1600 Westbrook Avenue",
          "Suite 134"
        ],
        "city": "RICHMOND",
        "state": "VA",
        "postalCode": "23227-3324"
      },
      {
        "line": [
          "8919 Park Road"
        ],
        "city": "CHARLOTTE",
        "state": "NC",
        "postalCode": "28210-9600"
      },
      {
        "line": [
          "9 Park Center Court, Ste 200"
        ],
        "city": "OWINGS MILLS",
        "state": "MD",
        "postalCode": "21117-5623"
      },
      {
        "line": [
          "1606 Santa Rosa Road, Suite 109"
        ],
        "city": "RICHMOND",
        "state": "VA",
        "postalCode": "23229-5001"
      },
      {
        "line": [
          "2950 Old Alabama Rd"
        ],
        "city": "ALPHARETTA",
        "state": "GA",
        "postalCode": "30022-8595"
      },
      {
        "line": [
          "8909 REISTERSTOWN RD"
        ],
        "city": "PIKESVILLE",
        "state": "MD",
        "postalCode": "21208-1015"
      },
      {
        "line": [
          "6800 Lucy Corr Blvd"
        ],
        "city": "CHESTERFIELD",
        "state": "VA",
        "postalCode": "23832-6657"
      },
      {
        "line": [
          "9 PARK CENTER CT STE 200"
        ],
        "city": "OWINGS MILLS",
        "state": "MD",
        "postalCode": "21117-5623"
      },
      {
        "line": [
          "7218 Park Heights Ave"
        ],
        "city": "PIKESVILLE",
        "state": "MD",
        "postalCode": "21208-5474"
      },
      {
        "line": [
          "14016 Turnberry Lane"
        ],
        "city": "MIDLOTHIAN",
        "state": "VA",
        "postalCode": "23113-6423"
      },
      {
        "line": [
          "2422 Pemberton Road"
        ],
        "city": "HENRICO",
        "state": "VA",
        "postalCode": "23233-2028"
      },
      {
        "line": [
          "7001 FOREST AVE STE 302"
        ],
        "city": "RICHMOND",
        "state": "VA",
        "postalCode": "23230-1726"
      },
      {
        "line": [
          "8911 Reistertown Road"
        ],
        "city": "PIKESVILLE",
        "state": "MD",
        "postalCode": "21208-1072"
      },
      {
        "line": [
          "109 Bentz Road"
        ],
        "city": "PIEDMONT",
        "state": "SC",
        "postalCode": "29673-1412"
      }
    ],
    "extension": [
      {
        "url": "https://fhir.athena.io/StructureDefinition/ah-practice",
        "valueReference": {
          "reference": "Organization/a-1.Practice-2180"
        }
      },
      {
        "url": "https://fhir.athena.io/StructureDefinition/ah-brand",
        "valueReference": {
          "reference": "Organization/a-2180.Brand-1"
        }
      }
    ]
  },
  "fullUrl": "urn:uuid:40c960a3-060a-5b96-86c6-edbf923f898c"
}