{
  "resource": {
    "resourceType": "Organization",
    "id": "47cf988c-6af2-5377-8b4b-7430d16bcd80",
    "name": "STEWARD CARNEY HOSPITAL",
    "endpoint": [
      {
        "reference": "Endpoint/27a4e967-47aa-5a9c-a572-b8297ee268a2"
      },
      {
        "reference": "Endpoint/d7af1806-e8de-59b5-aef2-a76f2c6b6988"
      }
    ],
    "identifier": [
      {
        "system": "http://hl7.org/fhir/sid/us-npi",
        "value": "1629398219"
      },
      {
        "system": "http://hl7.org/fhir/sid/us-npi",
        "value": "1821349317"
      }
    ],
    "address": [
      {
        "line": [
          "2100 DORCHESTER AVE"
        ],
        "city": "DORCHESTER CENTER",
        "state": "MA",
        "postalCode": "02124-5615"
      },
      {
        "line": [
          "2100 DORCHESTER AVE"
        ],
        "city": "BOSTON",
        "state": "MA",
        "postalCode": "02124-5615"
      },
      {
        "line": [
          "2100 DORCHESTER AVE, SUITE 209"
        ],
        "city": "DORCHESTER CENTER",
        "state": "MA",
        "postalCode": "02124-5615"
      },
      {
        "line": [
          "2100 DORCESTER AVE"
        ],
        "city": "BOSTON",
        "state": "MA",
        "postalCode": "02124-5615"
      },
      {
        "line": [
          "2100 DORCHESTER AVE"
        ],
        "city": "DORCHESTER CENTER",
        "state": "MA",
        "postalCode": "02124-5616"
      },
      {
        "line": [
          "2100 DORCHESTER AVE",
          "CARNEY ACC"
        ],
        "city": "BOSTON",
        "state": "MA",
        "postalCode": "02124-5615"
      },
      {
        "line": [
          "2100 DORCHESTER center"
        ],
        "city": "DORCHESTER",
        "state": "MA",
        "postalCode": "02124-5615"
      },
      {
        "line": [
          "400 WASHINGTON ST SUITE 206"
        ],
        "city": "BRAINTREE",
        "state": "MA",
        "postalCode": "02184-4769"
      },
      {
        "line": [
          "2100 DORCHESTER AVENUE"
        ],
        "city": "DORCHESTER CENTER",
        "state": "MA",
        "postalCode": "02124-5615"
      }
    ],
    "extension": [
      {
        "url": "https://fhir.athena.io/StructureDefinition/ah-practice",
        "valueReference": {
          "reference": "Organization/a-1.Practice-2017"
        }
      },
      {
        "url": "https://fhir.athena.io/StructureDefinition/ah-brand",
        "valueReference": {
          "reference": "Organization/a-2017.Brand-9"
        }
      }
    ]
  },
  "fullUrl": "urn:uuid:47cf988c-6af2-5377-8b4b-7430d16bcd80"
}