{
  "resource": {
    "resourceType": "Organization",
    "id": "8c36d0c4-2b5a-5e14-9a4e-f548efeb06f8",
    "name": "Daytona Beach Nephrology",
    "endpoint": [
      {
        "reference": "Endpoint/27a4e967-47aa-5a9c-a572-b8297ee268a2"
      },
      {
        "reference": "Endpoint/a184c193-969d-5b96-be2a-2a7f6a69f866"
      }
    ],
    "identifier": [
      {
        "system": "http://hl7.org/fhir/sid/us-npi",
        "value": "1376193029"
      }
    ],
    "address": [
      {
        "line": [
          "335 Clyde Morris Blvd.",
          "Suite 260"
        ],
        "city": "ORMOND BEACH",
        "state": "FL",
        "postalCode": "32174-3181"
      },
      {
        "line": [
          "60 Memorial Parkway"
        ],
        "city": "PALM COAST",
        "state": "FL",
        "postalCode": "32164-5980"
      },
      {
        "line": [
          "3997 S Nova Rd"
        ],
        "city": "PORT ORANGE",
        "state": "FL",
        "postalCode": "32127-9296"
      },
      {
        "line": [
          "60 Memorial Medical Parkway"
        ],
        "city": "PALM COAST",
        "state": "FL",
        "postalCode": "32164-5980"
      },
      {
        "line": [
          "420 S Nova Rd",
          "Ste 7"
        ],
        "city": "ORMOND BEACH",
        "state": "FL",
        "postalCode": "32174-0411"
      },
      {
        "line": [
          "80 Pinnacles Dr",
          "Ste 1000"
        ],
        "city": "PALM COAST",
        "state": "FL",
        "postalCode": "32164-2916"
      },
      {
        "line": [
          "578 Health Blvd"
        ],
        "city": "DAYTONA BEACH",
        "state": "FL",
        "postalCode": "32114-1492"
      },
      {
        "line": [
          "720 N Clyde Morris Blvd"
        ],
        "city": "DAYTONA BEACH",
        "state": "FL",
        "postalCode": "32114-1604"
      },
      {
        "line": [
          "13 Kingswood Dr",
          "Ste A"
        ],
        "city": "PALM COAST",
        "state": "FL",
        "postalCode": "32137-4614"
      },
      {
        "line": [
          "301 Memorial Medical Parkway"
        ],
        "city": "DAYTONA BEACH",
        "state": "FL",
        "postalCode": "32117-5167"
      },
      {
        "line": [
          "515 Palm Coast Pkwy SW"
        ],
        "city": "PALM COAST",
        "state": "FL",
        "postalCode": "32137-4739"
      },
      {
        "line": [
          "303 N Clyde Morris Blvd"
        ],
        "city": "DAYTONA BEACH",
        "state": "FL",
        "postalCode": "32114-2709"
      },
      {
        "line": [
          "1801 S Nova Rd",
          "Ste 306"
        ],
        "city": "DAYTONA BEACH",
        "state": "FL",
        "postalCode": "32119-1731"
      }
    ],
    "extension": [
      {
        "url": "https://fhir.athena.io/StructureDefinition/ah-practice",
        "valueReference": {
          "reference": "Organization/a-1.Practice-20431"
        }
      },
      {
        "url": "https://fhir.athena.io/StructureDefinition/ah-brand",
        "valueReference": {
          "reference": "Organization/a-20431.Brand-1"
        }
      }
    ]
  },
  "fullUrl": "urn:uuid:8c36d0c4-2b5a-5e14-9a4e-f548efeb06f8"
}