{
  "resource": {
    "resourceType": "Organization",
    "id": "15601031-141a-56e0-be72-aa7c8034075a",
    "name": "BAYCARE ALLIANT HOSPITAL",
    "endpoint": [
      {
        "reference": "Endpoint/27a4e967-47aa-5a9c-a572-b8297ee268a2"
      },
      {
        "reference": "Endpoint/b2bc8a2a-5b7f-5692-a12f-03fc8537cebe"
      }
    ],
    "identifier": [
      {
        "system": "http://hl7.org/fhir/sid/us-npi",
        "value": "1801839691"
      }
    ],
    "address": [
      {
        "line": [
          "455 PINELLAS ST"
        ],
        "city": "CLEARWATER",
        "state": "FL",
        "postalCode": "33756-3354"
      },
      {
        "line": [],
        "city": "SAFETY HARBOR",
        "state": "FL",
        "postalCode": "34695-6602"
      },
      {
        "line": [
          "601 MAIN STREET"
        ],
        "city": "DUNEDIN",
        "state": "FL",
        "postalCode": "34698-5848"
      },
      {
        "line": [],
        "city": "SAFETY HARBOR",
        "state": "FL",
        "postalCode": "34695-6605"
      },
      {
        "line": [
          "8215 STATE ROAD 54",
          "BLDG 3 STE 2"
        ],
        "city": "NEW PORT RICHEY",
        "state": "FL",
        "postalCode": "34655-3016"
      },
      {
        "line": [
          "2051 WEST BAY DR"
        ],
        "city": "LARGO",
        "state": "FL",
        "postalCode": "33770-1924"
      },
      {
        "line": [
          "2051 WEST BAY DRIVE"
        ],
        "city": "LARGO",
        "state": "FL",
        "postalCode": "33770-1924"
      },
      {
        "line": [
          "901 CLEARWA NTER LARGO RD"
        ],
        "city": "LARGO",
        "state": "FL",
        "postalCode": "33770-4126"
      },
      {
        "line": [
          "1840 MEASE DRIVE",
          "SUITE 319"
        ],
        "city": "SAFETY HARBOR",
        "state": "FL",
        "postalCode": "34695-6605"
      }
    ],
    "extension": [
      {
        "url": "https://fhir.athena.io/StructureDefinition/ah-practice",
        "valueReference": {
          "reference": "Organization/a-1.Practice-1331"
        }
      },
      {
        "url": "https://fhir.athena.io/StructureDefinition/ah-brand",
        "valueReference": {
          "reference": "Organization/a-1331.Brand-1"
        }
      }
    ]
  },
  "fullUrl": "urn:uuid:15601031-141a-56e0-be72-aa7c8034075a"
}