{
  "resource": {
    "resourceType": "Organization",
    "id": "4e19a343-695e-5120-8e99-efbcad8e553a",
    "name": "!!**{{CONFIDENTIAL}}**!!",
    "endpoint": [
      {
        "reference": "Endpoint/27a4e967-47aa-5a9c-a572-b8297ee268a2"
      },
      {
        "reference": "Endpoint/2bd35d61-d2df-55ef-8c44-087294f2c048"
      }
    ],
    "identifier": [
      {
        "system": "http://hl7.org/fhir/sid/us-npi",
        "value": "1669923538"
      },
      {
        "system": "http://hl7.org/fhir/sid/us-npi",
        "value": "1043567456"
      },
      {
        "system": "http://hl7.org/fhir/sid/us-npi",
        "value": "1114277050"
      },
      {
        "system": "http://hl7.org/fhir/sid/us-npi",
        "value": "1750892188"
      },
      {
        "system": "http://hl7.org/fhir/sid/us-npi",
        "value": "1194073486"
      },
      {
        "system": "http://hl7.org/fhir/sid/us-npi",
        "value": "1871041335"
      },
      {
        "system": "http://hl7.org/fhir/sid/us-npi",
        "value": "1669422432"
      },
      {
        "system": "http://hl7.org/fhir/sid/us-npi",
        "value": "1164557237"
      },
      {
        "system": "http://hl7.org/fhir/sid/us-npi",
        "value": "1811366248"
      },
      {
        "system": "http://hl7.org/fhir/sid/us-npi",
        "value": "1609386978"
      },
      {
        "system": "http://hl7.org/fhir/sid/us-npi",
        "value": "1992144273"
      },
      {
        "system": "http://hl7.org/fhir/sid/us-npi",
        "value": "1356304547"
      },
      {
        "system": "http://hl7.org/fhir/sid/us-npi",
        "value": "1649610445"
      },
      {
        "system": "http://hl7.org/fhir/sid/us-npi",
        "value": "1104292168"
      },
      {
        "system": "http://hl7.org/fhir/sid/us-npi",
        "value": "1326434846"
      },
      {
        "system": "http://hl7.org/fhir/sid/us-npi",
        "value": "1619464369"
      },
      {
        "system": "http://hl7.org/fhir/sid/us-npi",
        "value": "1619348844"
      },
      {
        "system": "http://hl7.org/fhir/sid/us-npi",
        "value": "1912258492"
      },
      {
        "system": "http://hl7.org/fhir/sid/us-npi",
        "value": "1790033082"
      },
      {
        "system": "http://hl7.org/fhir/sid/us-npi",
        "value": "1073944658"
      },
      {
        "system": "http://hl7.org/fhir/sid/us-npi",
        "value": "1124005061"
      },
      {
        "system": "http://hl7.org/fhir/sid/us-npi",
        "value": "1861831323"
      },
      {
        "system": "http://hl7.org/fhir/sid/us-npi",
        "value": "1770917577"
      },
      {
        "system": "http://hl7.org/fhir/sid/us-npi",
        "value": "1194339309"
      },
      {
        "system": "http://hl7.org/fhir/sid/us-npi",
        "value": "1104177674"
      },
      {
        "system": "http://hl7.org/fhir/sid/us-npi",
        "value": "1619103041"
      },
      {
        "system": "http://hl7.org/fhir/sid/us-npi",
        "value": "1538555891"
      },
      {
        "system": "http://hl7.org/fhir/sid/us-npi",
        "value": "1194111468"
      },
      {
        "system": "http://hl7.org/fhir/sid/us-npi",
        "value": "1164809802"
      },
      {
        "system": "http://hl7.org/fhir/sid/us-npi",
        "value": "1073562641"
      },
      {
        "system": "http://hl7.org/fhir/sid/us-npi",
        "value": "1548609092"
      },
      {
        "system": "http://hl7.org/fhir/sid/us-npi",
        "value": "1053821363"
      },
      {
        "system": "http://hl7.org/fhir/sid/us-npi",
        "value": "1558752824"
      },
      {
        "system": "http://hl7.org/fhir/sid/us-npi",
        "value": "1356780639"
      },
      {
        "system": "http://hl7.org/fhir/sid/us-npi",
        "value": "1346636792"
      },
      {
        "system": "http://hl7.org/fhir/sid/us-npi",
        "value": "1669868931"
      },
      {
        "system": "http://hl7.org/fhir/sid/us-npi",
        "value": "1689921082"
      },
      {
        "system": "http://hl7.org/fhir/sid/us-npi",
        "value": "1093765869"
      },
      {
        "system": "http://hl7.org/fhir/sid/us-npi",
        "value": "1740310663"
      },
      {
        "system": "http://hl7.org/fhir/sid/us-npi",
        "value": "1396096863"
      },
      {
        "system": "http://hl7.org/fhir/sid/us-npi",
        "value": "1912932526"
      },
      {
        "system": "http://hl7.org/fhir/sid/us-npi",
        "value": "1619316999"
      },
      {
        "system": "http://hl7.org/fhir/sid/us-npi",
        "value": "1962912261"
      },
      {
        "system": "http://hl7.org/fhir/sid/us-npi",
        "value": "1851767818"
      },
      {
        "system": "http://hl7.org/fhir/sid/us-npi",
        "value": "1043686553"
      },
      {
        "system": "http://hl7.org/fhir/sid/us-npi",
        "value": "1578811857"
      },
      {
        "system": "http://hl7.org/fhir/sid/us-npi",
        "value": "1558563734"
      },
      {
        "system": "http://hl7.org/fhir/sid/us-npi",
        "value": "1275271611"
      },
      {
        "system": "http://hl7.org/fhir/sid/us-npi",
        "value": "1700252764"
      },
      {
        "system": "http://hl7.org/fhir/sid/us-npi",
        "value": "1821349309"
      },
      {
        "system": "http://hl7.org/fhir/sid/us-npi",
        "value": "1164653457"
      },
      {
        "system": "http://hl7.org/fhir/sid/us-npi",
        "value": "1063764348"
      },
      {
        "system": "http://hl7.org/fhir/sid/us-npi",
        "value": "1871003178"
      },
      {
        "system": "http://hl7.org/fhir/sid/us-npi",
        "value": "1790110047"
      },
      {
        "system": "http://hl7.org/fhir/sid/us-npi",
        "value": "1912392358"
      },
      {
        "system": "http://hl7.org/fhir/sid/us-npi",
        "value": "1538711452"
      },
      {
        "system": "http://hl7.org/fhir/sid/us-npi",
        "value": "1891241030"
      },
      {
        "system": "http://hl7.org/fhir/sid/us-npi",
        "value": "1447699723"
      },
      {
        "system": "http://hl7.org/fhir/sid/us-npi",
        "value": "1609042266"
      },
      {
        "system": "http://hl7.org/fhir/sid/us-npi",
        "value": "1487145769"
      },
      {
        "system": "http://hl7.org/fhir/sid/us-npi",
        "value": "1649610437"
      },
      {
        "system": "http://hl7.org/fhir/sid/us-npi",
        "value": "1992755789"
      },
      {
        "system": "http://hl7.org/fhir/sid/us-npi",
        "value": "1063048189"
      },
      {
        "system": "http://hl7.org/fhir/sid/us-npi",
        "value": "1194191676"
      },
      {
        "system": "http://hl7.org/fhir/sid/us-npi",
        "value": "1104175058"
      },
      {
        "system": "http://hl7.org/fhir/sid/us-npi",
        "value": "1699024547"
      },
      {
        "system": "http://hl7.org/fhir/sid/us-npi",
        "value": "1710539630"
      },
      {
        "system": "http://hl7.org/fhir/sid/us-npi",
        "value": "1003256801"
      },
      {
        "system": "http://hl7.org/fhir/sid/us-npi",
        "value": "1134538762"
      },
      {
        "system": "http://hl7.org/fhir/sid/us-npi",
        "value": "1386083673"
      },
      {
        "system": "http://hl7.org/fhir/sid/us-npi",
        "value": "1477992915"
      },
      {
        "system": "http://hl7.org/fhir/sid/us-npi",
        "value": "1255507810"
      },
      {
        "system": "http://hl7.org/fhir/sid/us-npi",
        "value": "1992754592"
      },
      {
        "system": "http://hl7.org/fhir/sid/us-npi",
        "value": "1053742668"
      },
      {
        "system": "http://hl7.org/fhir/sid/us-npi",
        "value": "1841666807"
      },
      {
        "system": "http://hl7.org/fhir/sid/us-npi",
        "value": "1063808418"
      },
      {
        "system": "http://hl7.org/fhir/sid/us-npi",
        "value": "1851787121"
      }
    ],
    "address": [
      {
        "line": [
          "431 CASS RD"
        ],
        "city": "SLATYFORK",
        "state": "WV",
        "postalCode": "26291-9014"
      },
      {
        "line": [
          "228 KANAWHA AVENUE"
        ],
        "city": "BURNSVILLE",
        "state": "WV",
        "postalCode": "26335-0288"
      },
      {
        "line": [
          "100 PICKENS RD"
        ],
        "city": "HELVETIA",
        "state": "WV",
        "postalCode": "26224-0027"
      },
      {
        "line": [
          "78 QUEENS ALLEY RD"
        ],
        "city": "ROCK CAVE",
        "state": "WV",
        "postalCode": "26234-5890"
      },
      {
        "line": [
          "113 5TH STREET",
          "BOX 52 S"
        ],
        "city": "GASSAWAY",
        "state": "WV",
        "postalCode": "26624-1224"
      },
      {
        "line": [
          "38 EAST LYNDON STREET"
        ],
        "city": "LUMBERPORT",
        "state": "WV",
        "postalCode": "26386-8322"
      },
      {
        "line": [
          "1400 N 19TH ST"
        ],
        "city": "CLARKSBURG",
        "state": "WV",
        "postalCode": "26301-1644"
      },
      {
        "line": [
          "601 JOHNSON AVE"
        ],
        "city": "BRIDGEPORT",
        "state": "WV",
        "postalCode": "26330-1311"
      },
      {
        "line": [
          "1 MOUNTAINEER DR"
        ],
        "city": "CLARKSBURG",
        "state": "WV",
        "postalCode": "26301-5511"
      },
      {
        "line": [
          "65 Professional Pl."
        ],
        "city": "BRIDGEPORT",
        "state": "WV",
        "postalCode": "26330-1889"
      },
      {
        "line": [
          "65 PROFESSIONAL PL"
        ],
        "city": "BRIDGEPORT",
        "state": "WV",
        "postalCode": "26330-0258"
      },
      {
        "line": [
          "100 MARKET PL"
        ],
        "city": "BRIDGEPORT",
        "state": "WV",
        "postalCode": "26330-9168"
      },
      {
        "line": [
          "926A 5TH AVENUE"
        ],
        "city": "MARLINTON",
        "state": "WV",
        "postalCode": "24954-1209"
      },
      {
        "line": [
          "16 COLLEGE AVENUE"
        ],
        "city": "BUCKHANNON",
        "state": "WV",
        "postalCode": "26201-2628"
      },
      {
        "line": [
          "236 CHURCH STREET"
        ],
        "city": "CLAY",
        "state": "WV",
        "postalCode": "25043-9412"
      },
      {
        "line": [
          "5917 POTOMAC HIGHLANDS TRAIL"
        ],
        "city": "GREEN BANK",
        "state": "WV",
        "postalCode": "24944-9703"
      },
      {
        "line": [
          "78 Queens Alley Rd"
        ],
        "city": "ROCK CAVE",
        "state": "WV",
        "postalCode": "26234-0217"
      },
      {
        "line": [
          "168 CHURCH STREET"
        ],
        "city": "CLAY",
        "state": "WV",
        "postalCode": "25043-9420"
      },
      {
        "line": [
          "821 THIRD AVENUE"
        ],
        "city": "MARLINTON",
        "state": "WV",
        "postalCode": "24954-9743"
      },
      {
        "line": [
          "200 TETRICK ROAD"
        ],
        "city": "SHINNSTON",
        "state": "WV",
        "postalCode": "26431-9704"
      },
      {
        "line": [
          "358 COURT AVENUE"
        ],
        "city": "WESTON",
        "state": "WV",
        "postalCode": "26452-2008"
      },
      {
        "line": [
          "501 BOMONT RD"
        ],
        "city": "BOMONT",
        "state": "WV",
        "postalCode": "25030-9666"
      },
      {
        "line": [
          "515 JOHNSON AVE"
        ],
        "city": "BRIDGEPORT",
        "state": "WV",
        "postalCode": "26330-1311"
      },
      {
        "line": [
          "78 Queens Ally Rd"
        ],
        "city": "ROCK CAVE",
        "state": "WV",
        "postalCode": "26234-0217"
      },
      {
        "line": [
          "RT 2 BOX 525"
        ],
        "city": "MARLINTON",
        "state": "WV",
        "postalCode": "24954-9609"
      },
      {
        "line": [
          "413 JOHNSON AVENUE"
        ],
        "city": "BRIDGEPORT",
        "state": "WV",
        "postalCode": "26330-1309"
      },
      {
        "line": [
          "273 EDUCATION WAY"
        ],
        "city": "SALEM",
        "state": "WV",
        "postalCode": "26426-9703"
      },
      {
        "line": [
          "1176 OIL CREEK ROAD"
        ],
        "city": "WALKERSVILLE",
        "state": "WV",
        "postalCode": "26447-8263"
      },
      {
        "line": [
          "100 LIZEMORE LIONS ROAD"
        ],
        "city": "LIZEMORES",
        "state": "WV",
        "postalCode": "25125-0070"
      },
      {
        "line": [
          "273 SKIDMORE LANE"
        ],
        "city": "SUTTON",
        "state": "WV",
        "postalCode": "26601-9272"
      },
      {
        "line": [
          "1040 WILSONBURG RD"
        ],
        "city": "CLARKSBURG",
        "state": "WV",
        "postalCode": "26301-9420"
      },
      {
        "line": [
          "78 QUEENS ALLEY ROAD"
        ],
        "city": "ROCK CAVE",
        "state": "WV",
        "postalCode": "26234-0217"
      },
      {
        "line": [
          "55 LITTLE BIRCH ROAD"
        ],
        "city": "SUTTON",
        "state": "WV",
        "postalCode": "26601-9469"
      },
      {
        "line": [
          "100 CARTER BRAXTON DRIVE"
        ],
        "city": "SUTTON",
        "state": "WV",
        "postalCode": "26601-9768"
      },
      {
        "line": [
          "200 JERRY BURTON DR"
        ],
        "city": "SUTTON",
        "state": "WV",
        "postalCode": "26601-9768"
      },
      {
        "line": [
          "3073 HAWK HIGHWAY"
        ],
        "city": "LOST CREEK",
        "state": "WV",
        "postalCode": "26385-9707"
      },
      {
        "line": [
          "1 EAGLE WAY"
        ],
        "city": "CLARKSBURG",
        "state": "WV",
        "postalCode": "26301-9784"
      },
      {
        "line": [
          "443 LEE AVENUE"
        ],
        "city": "CLARKSBURG",
        "state": "WV",
        "postalCode": "26301-3648"
      },
      {
        "line": [
          "700 OAKMOUND ROAD"
        ],
        "city": "CLARKSBURG",
        "state": "WV",
        "postalCode": "26301-9398"
      },
      {
        "line": [
          "HC 61, BOX 14"
        ],
        "city": "FRAMETOWN",
        "state": "WV",
        "postalCode": "26623-9401"
      },
      {
        "line": [
          "271 WARRIOR WAY"
        ],
        "city": "DUNMORE",
        "state": "WV",
        "postalCode": "24934-9708"
      },
      {
        "line": [
          "37 West Main Street"
        ],
        "city": "BUCKHANNON",
        "state": "WV",
        "postalCode": "26201-2235"
      },
      {
        "line": [
          "1302 BUCKHANNON PIKE"
        ],
        "city": "CLARKSBURG",
        "state": "WV",
        "postalCode": "26301-4406"
      },
      {
        "line": [
          "553 Route 20 South Rd"
        ],
        "city": "BUCKHANNON",
        "state": "WV",
        "postalCode": "26201-8830"
      },
      {
        "line": [
          "208 KIDD AVE"
        ],
        "city": "STONEWOOD",
        "state": "WV",
        "postalCode": "26301-4833"
      },
      {
        "line": [
          "6404 Potomac Highlands Trail"
        ],
        "city": "GREEN BANK",
        "state": "WV",
        "postalCode": "24944-0085"
      },
      {
        "line": [
          "59 COLLEGE AVENUE"
        ],
        "city": "BUCKHANNON",
        "state": "WV",
        "postalCode": "26201-2600"
      },
      {
        "line": [
          "167 GAWTHROP RD"
        ],
        "city": "BUCKHANNON",
        "state": "WV",
        "postalCode": "26201-3927"
      },
      {
        "line": [
          "4 Northridge Drive Ste 118"
        ],
        "city": "BUCKHANNON",
        "state": "WV",
        "postalCode": "26201-8484"
      },
      {
        "line": [
          "797 CLINIC ROAD"
        ],
        "city": "IVYDALE",
        "state": "WV",
        "postalCode": "25113-8263"
      },
      {
        "line": [
          "77 W MAIN ST"
        ],
        "city": "BUCKHANNON",
        "state": "WV",
        "postalCode": "26201-2236"
      },
      {
        "line": [
          "78 JERRY TOTH DRIVE"
        ],
        "city": "SHINNSTON",
        "state": "WV",
        "postalCode": "26431-8502"
      },
      {
        "line": [
          "266 SKIDMORE LANE"
        ],
        "city": "SUTTON",
        "state": "WV",
        "postalCode": "26601-9271"
      },
      {
        "line": [
          "2 MOUNTAINEER DRIVE"
        ],
        "city": "CLARKSBURG",
        "state": "WV",
        "postalCode": "26301-5511"
      },
      {
        "line": [
          "6536 MAIN ST."
        ],
        "city": "JANE LEW",
        "state": "WV",
        "postalCode": "26378-8505"
      },
      {
        "line": [
          "4498 Potomac Highlands Trail"
        ],
        "city": "GREENBANK",
        "state": "WV",
        "postalCode": "24944-0085"
      },
      {
        "line": [
          "509 BERLIN ROAD"
        ],
        "city": "WESTON",
        "state": "WV",
        "postalCode": "26452-8323"
      },
      {
        "line": [
          "12292 RT 20 SOUTH RD"
        ],
        "city": "ROCK CAVE",
        "state": "WV",
        "postalCode": "26234-5808"
      },
      {
        "line": [
          "50 B U DRIVE"
        ],
        "city": "BUCKHANNON",
        "state": "WV",
        "postalCode": "26201-2628"
      },
      {
        "line": [
          "235 SKIDMORE LN"
        ],
        "city": "SUTTON",
        "state": "WV",
        "postalCode": "26601-9272"
      },
      {
        "line": [
          "133 STAUNTON DR"
        ],
        "city": "WESTON",
        "state": "WV",
        "postalCode": "26452-5604"
      },
      {
        "line": [
          "149 STAUNTON DRIVE"
        ],
        "city": "WESTON",
        "state": "WV",
        "postalCode": "26452-5604"
      },
      {
        "line": [
          "7576 SENECA TRAIL",
          "P.O. Box 509"
        ],
        "city": "HILLSBORO",
        "state": "WV",
        "postalCode": "24946-7576"
      },
      {
        "line": [
          "597 LIBERTY STREET"
        ],
        "city": "WEST MILFORD",
        "state": "WV",
        "postalCode": "26451-0218"
      },
      {
        "line": [
          "142 FLATWOODS CORNER RD"
        ],
        "city": "FLATWOODS",
        "state": "WV",
        "postalCode": "26621-0142"
      },
      {
        "line": [
          "288 N. HILL ROAD"
        ],
        "city": "SUTTON",
        "state": "WV",
        "postalCode": "26601-1225"
      },
      {
        "line": [
          "59 OSSIA ROAD"
        ],
        "city": "DUCK",
        "state": "WV",
        "postalCode": "25063-8500"
      },
      {
        "line": [
          "226 SCHOOL STREET"
        ],
        "city": "WEST MILFORD",
        "state": "WV",
        "postalCode": "26451-9700"
      },
      {
        "line": [
          "RR 2 BOX 305"
        ],
        "city": "FRENCH CREEK",
        "state": "WV",
        "postalCode": "26218-9667"
      },
      {
        "line": [
          "3003 HAWK HIGHWAY"
        ],
        "city": "LOST CREEK",
        "state": "WV",
        "postalCode": "26385-9707"
      },
      {
        "line": [
          "591 KAPPA SIGMA PI DR"
        ],
        "city": "CLARKSBURG",
        "state": "WV",
        "postalCode": "26301-7674"
      },
      {
        "line": [
          "1 PANTHER DRIVE"
        ],
        "city": "CLAY",
        "state": "WV",
        "postalCode": "25043-0729"
      },
      {
        "line": [
          "122 CENTER STREET"
        ],
        "city": "CLAY",
        "state": "WV",
        "postalCode": "25043-7046"
      },
      {
        "line": [
          "250 WORTHINGTON DRIVE"
        ],
        "city": "BRIDGEPORT",
        "state": "WV",
        "postalCode": "26330-1449"
      },
      {
        "line": [
          "1349 SHINNSTON PIKE"
        ],
        "city": "CLARKSBURG",
        "state": "WV",
        "postalCode": "26301-6307"
      }
    ],
    "extension": [
      {
        "url": "https://fhir.athena.io/StructureDefinition/ah-practice",
        "valueReference": {
          "reference": "Organization/a-1.Practice-4803"
        }
      },
      {
        "url": "https://fhir.athena.io/StructureDefinition/ah-brand",
        "valueReference": {
          "reference": "Organization/a-4803.Brand-1"
        }
      }
    ]
  },
  "fullUrl": "urn:uuid:4e19a343-695e-5120-8e99-efbcad8e553a"
}