{
  "resource": {
    "resourceType": "Organization",
    "id": "b682b6ad-128e-54b9-8673-795848ad078d",
    "name": "Mobile Medical",
    "endpoint": [
      {
        "reference": "Endpoint/27a4e967-47aa-5a9c-a572-b8297ee268a2"
      },
      {
        "reference": "Endpoint/21f40fc9-ce0a-5e6b-adec-0793b1033451"
      }
    ],
    "identifier": [
      {
        "system": "http://hl7.org/fhir/sid/us-npi",
        "value": "1528480811"
      }
    ],
    "address": [
      {
        "line": [
          "3317 SE 18TH ST"
        ],
        "city": "OKLAHOMA CITY",
        "state": "OK",
        "postalCode": "73115-1413"
      },
      {
        "line": [
          "1025 SWAN DR"
        ],
        "city": "BARTLESVILLE",
        "state": "OK",
        "postalCode": "74006-5039"
      },
      {
        "line": [
          "101 W HEFNER RD"
        ],
        "city": "OKLAHOMA CITY",
        "state": "OK",
        "postalCode": "73114-6631"
      },
      {
        "line": [
          "3751 Eagle Cliff Dr"
        ],
        "city": "NORMAN",
        "state": "OK",
        "postalCode": "73072-8328"
      },
      {
        "line": [
          "1001 S BRYANT AVE"
        ],
        "city": "EDMOND",
        "state": "OK",
        "postalCode": "73034-5745"
      },
      {
        "line": [
          "4025 Apple Valley Drive"
        ],
        "city": "OKLAHOMA CITY",
        "state": "OK",
        "postalCode": "73120-8530"
      },
      {
        "line": [
          "301 S OAKWOOD RD"
        ],
        "city": "ENID",
        "state": "OK",
        "postalCode": "73703-4918"
      },
      {
        "line": [
          "205 N PARK AVE"
        ],
        "city": "SHAWNEE",
        "state": "OK",
        "postalCode": "74801-6866"
      },
      {
        "line": [
          "1129 Cameo Dr"
        ],
        "city": "YUKON",
        "state": "OK",
        "postalCode": "73099-5149"
      },
      {
        "line": [
          "8528 SW 74th St"
        ],
        "city": "OKLAHOMA CITY",
        "state": "OK",
        "postalCode": "73169-1202"
      },
      {
        "line": [
          "2800 SW 131st St"
        ],
        "city": "OKLAHOMA CITY",
        "state": "OK",
        "postalCode": "73170-9002"
      },
      {
        "line": [
          "1050 RAMBLING OAKS DR"
        ],
        "city": "NORMAN",
        "state": "OK",
        "postalCode": "73072-4195"
      },
      {
        "line": [
          "17701 N Western Ave"
        ],
        "city": "EDMOND",
        "state": "OK",
        "postalCode": "73013-6242"
      },
      {
        "line": [
          "8231 South Mingo Rd"
        ],
        "city": "TULSA",
        "state": "OK",
        "postalCode": "74133-4549"
      },
      {
        "line": [
          "1407 Mississippi Ave"
        ],
        "city": "CHICKASHA",
        "state": "OK",
        "postalCode": "73018-6617"
      },
      {
        "line": [
          "9999 E 121ST ST S"
        ],
        "city": "BIXBY",
        "state": "OK",
        "postalCode": "74008-2551"
      },
      {
        "line": [
          "2309 E ANNA ST"
        ],
        "city": "CUSHING",
        "state": "OK",
        "postalCode": "74023-9401"
      },
      {
        "line": [
          "1501 N Monte Vista"
        ],
        "city": "ADA",
        "state": "OK",
        "postalCode": "74820-7713"
      },
      {
        "line": [
          "1111 24th Ave SW"
        ],
        "city": "NORMAN",
        "state": "OK",
        "postalCode": "73069-3951"
      },
      {
        "line": [
          "3625 N. Hwy 81"
        ],
        "city": "DUNCAN",
        "state": "OK",
        "postalCode": "73533-9388"
      },
      {
        "line": [
          "8205 E 22ND ST"
        ],
        "city": "TULSA",
        "state": "OK",
        "postalCode": "74129-2839"
      },
      {
        "line": [
          "12000 N MacArthur Blvd"
        ],
        "city": "OKLAHOMA CITY",
        "state": "OK",
        "postalCode": "73162-1809"
      },
      {
        "line": [
          "800 S Canadian Trails Dr"
        ],
        "city": "NORMAN",
        "state": "OK",
        "postalCode": "73072-7627"
      },
      {
        "line": [
          "2500 N Glade Ave"
        ],
        "city": "BETHANY",
        "state": "OK",
        "postalCode": "73008-5618"
      },
      {
        "line": [
          "2709 E DANFORTH RD"
        ],
        "city": "EDMOND",
        "state": "OK",
        "postalCode": "73034-6712"
      },
      {
        "line": [
          "28530 E 141st S"
        ],
        "city": "COWETA",
        "state": "OK",
        "postalCode": "74429-7617"
      },
      {
        "line": [
          "1310 Knox Rd"
        ],
        "city": "ARDMORE",
        "state": "OK",
        "postalCode": "73401-1015"
      },
      {
        "line": [
          "1725 Southwest Blvd"
        ],
        "city": "TULSA",
        "state": "OK",
        "postalCode": "74107-1700"
      },
      {
        "line": [
          "7707 W BRITTON RD"
        ],
        "city": "OKLAHOMA CITY",
        "state": "OK",
        "postalCode": "73132-1512"
      },
      {
        "line": [
          "2333 MANCHESTER DR"
        ],
        "city": "OKLAHOMA CITY",
        "state": "OK",
        "postalCode": "73120-3778"
      },
      {
        "line": [
          "1400 East McElroy Road"
        ],
        "city": "STILLWATER",
        "state": "OK",
        "postalCode": "74075-7327"
      },
      {
        "line": [
          "619 South Division St"
        ],
        "city": "SAPULPA",
        "state": "OK",
        "postalCode": "74066-4550"
      },
      {
        "line": [
          "8555 S LEWIS AVE"
        ],
        "city": "TULSA",
        "state": "OK",
        "postalCode": "74137-1218"
      },
      {
        "line": [
          "5301 N. Meridian Avenue"
        ],
        "city": "OKLAHOMA CITY",
        "state": "OK",
        "postalCode": "73112-2191"
      },
      {
        "line": [
          "5271 S Lewis Ave"
        ],
        "city": "TULSA",
        "state": "OK",
        "postalCode": "74105-5271"
      },
      {
        "line": [
          "2901 SE 22nd St"
        ],
        "city": "OKLAHOMA CITY",
        "state": "OK",
        "postalCode": "73129-8413"
      },
      {
        "line": [
          "1017 W STATE HIGHWAY 152"
        ],
        "city": "MUSTANG",
        "state": "OK",
        "postalCode": "73064-2310"
      },
      {
        "line": [
          "105 E Bass Ave"
        ],
        "city": "YUKON",
        "state": "OK",
        "postalCode": "73099-4047"
      },
      {
        "line": [
          "3501 OAKRIDGE DR"
        ],
        "city": "ADA",
        "state": "OK",
        "postalCode": "74820-9701"
      },
      {
        "line": [
          "1130 E INDEPENDENCE ST"
        ],
        "city": "SHAWNEE",
        "state": "OK",
        "postalCode": "74804-4175"
      },
      {
        "line": [
          "1501 S MAIN ST"
        ],
        "city": "STILLWATER",
        "state": "OK",
        "postalCode": "74074-7966"
      },
      {
        "line": [
          "1225 S CLEVELAND ST"
        ],
        "city": "ENID",
        "state": "OK",
        "postalCode": "73703-6744"
      },
      {
        "line": [
          "10601 WINDWAY AVE"
        ],
        "city": "OKLAHOMA CITY",
        "state": "OK",
        "postalCode": "73162-8003"
      },
      {
        "line": [
          "1711 9th Ave NW"
        ],
        "city": "ARDMORE",
        "state": "OK",
        "postalCode": "73401-2316"
      },
      {
        "line": [
          "1200 Cameo Drive"
        ],
        "city": "YUKON",
        "state": "OK",
        "postalCode": "73099-4047"
      },
      {
        "line": [
          "12570 S Vancouver Ave"
        ],
        "city": "GLENPOOL",
        "state": "OK",
        "postalCode": "74033-5600"
      },
      {
        "line": [
          "1919 NW 142ND ST"
        ],
        "city": "OKLAHOMA CITY",
        "state": "OK",
        "postalCode": "73134-6194"
      },
      {
        "line": [
          "13501 North Bryant Ave"
        ],
        "city": "EDMOND",
        "state": "OK",
        "postalCode": "73013-6242"
      },
      {
        "line": [
          "7345 S 99th E Ave"
        ],
        "city": "TULSA",
        "state": "OK",
        "postalCode": "74133-1001"
      },
      {
        "line": [
          "2121 North Post Rd"
        ],
        "city": "OKLAHOMA CITY",
        "state": "OK",
        "postalCode": "73141-4223"
      },
      {
        "line": [
          "9025 NW Expressway"
        ],
        "city": "YUKON",
        "state": "OK",
        "postalCode": "73099-8374"
      },
      {
        "line": [
          "1307 Mississippi Ave"
        ],
        "city": "CHICKASHA",
        "state": "OK",
        "postalCode": "73018-6615"
      },
      {
        "line": [
          "2130 S 85th East Ave"
        ],
        "city": "TULSA",
        "state": "OK",
        "postalCode": "74129-3066"
      },
      {
        "line": [
          "2720 SW J Ave"
        ],
        "city": "LAWTON",
        "state": "OK",
        "postalCode": "73505-7959"
      },
      {
        "line": [
          "12928 N MAY AVE"
        ],
        "city": "OKLAHOMA CITY",
        "state": "OK",
        "postalCode": "73120-0817"
      },
      {
        "line": [
          "1401 Sw 89th Street"
        ],
        "city": "OKLAHOMA CITY",
        "state": "OK",
        "postalCode": "73159-6334"
      },
      {
        "line": [
          "18380 Bluejay St"
        ],
        "city": "HARRAH",
        "state": "OK",
        "postalCode": "73045-8538"
      },
      {
        "line": [
          "740 NW 122nd St"
        ],
        "city": "OKLAHOMA CITY",
        "state": "OK",
        "postalCode": "73114-7420"
      },
      {
        "line": [
          "111 N 9TH ST"
        ],
        "city": "MARLOW",
        "state": "OK",
        "postalCode": "73055-2415"
      },
      {
        "line": [
          "1500 W 6TH ST"
        ],
        "city": "OKMULGEE",
        "state": "OK",
        "postalCode": "74447-4259"
      },
      {
        "line": [
          "9524 East 71st Street"
        ],
        "city": "TULSA",
        "state": "OK",
        "postalCode": "74133-5255"
      },
      {
        "line": [
          "3107 Tinker Diagonal"
        ],
        "city": "OKLAHOMA CITY",
        "state": "OK",
        "postalCode": "73115-1016"
      },
      {
        "line": [
          "10401 VINEYARD BLVD"
        ],
        "city": "OKLAHOMA CITY",
        "state": "OK",
        "postalCode": "73120-3781"
      },
      {
        "line": [
          "1515 NE 48th Street"
        ],
        "city": "OKLAHOMA CITY",
        "state": "OK",
        "postalCode": "73111-6043"
      },
      {
        "line": [
          "5801 N OAKWOOD RD"
        ],
        "city": "ENID",
        "state": "OK",
        "postalCode": "73703-9344"
      },
      {
        "line": [
          "821 N FOREMAN ST"
        ],
        "city": "VINITA",
        "state": "OK",
        "postalCode": "74301-1434"
      },
      {
        "line": [
          "8300 N May Ave"
        ],
        "city": "OKLAHOMA CITY",
        "state": "OK",
        "postalCode": "73120-4500"
      },
      {
        "line": [
          "6333 S 91 St"
        ],
        "city": "TULSA",
        "state": "OK",
        "postalCode": "74133-6347"
      },
      {
        "line": [
          "6501 LYREWOOD LANE"
        ],
        "city": "OKLAHOMA CITY",
        "state": "OK",
        "postalCode": "73132-7000"
      },
      {
        "line": [
          "3020 E 6TH AVE"
        ],
        "city": "STILLWATER",
        "state": "OK",
        "postalCode": "74074-6514"
      },
      {
        "line": [
          "4613 Tinker Diagonal Street"
        ],
        "city": "OKLAHOMA CITY",
        "state": "OK",
        "postalCode": "73115-3977"
      },
      {
        "line": [
          "2633 SE Mission Dr"
        ],
        "city": "BARTLESVILLE",
        "state": "OK",
        "postalCode": "74006-7561"
      },
      {
        "line": [
          "901 SE 3rd Street"
        ],
        "city": "BARTLESVILLE",
        "state": "OK",
        "postalCode": "74003-4227"
      },
      {
        "line": [
          "325 Enz Dr"
        ],
        "city": "EDMOND",
        "state": "OK",
        "postalCode": "73034-4476"
      },
      {
        "line": [
          "415 Chisholm Trail Pkwy"
        ],
        "city": "DUNCAN",
        "state": "OK",
        "postalCode": "73533-2201"
      },
      {
        "line": [
          "700 COTTAGE PARK CIR"
        ],
        "city": "GUTHRIE",
        "state": "OK",
        "postalCode": "73044-7975"
      },
      {
        "line": [
          "823 S Range Rd"
        ],
        "city": "STILLWATER",
        "state": "OK",
        "postalCode": "74074-1925"
      },
      {
        "line": [
          "7501 W Britton Rd"
        ],
        "city": "OKLAHOMA CITY",
        "state": "OK",
        "postalCode": "73132-1602"
      },
      {
        "line": [
          "2500 SW 89th St"
        ],
        "city": "OKLAHOMA CITY",
        "state": "OK",
        "postalCode": "73159-6354"
      },
      {
        "line": [
          "3201 Kity CT"
        ],
        "city": "OKLAHOMA CITY",
        "state": "OK",
        "postalCode": "73121-3201"
      },
      {
        "line": [
          "4402 S 129th W Ave"
        ],
        "city": "SAND SPRINGS",
        "state": "OK",
        "postalCode": "74063-2203"
      },
      {
        "line": [
          "13000 N MAY AVE"
        ],
        "city": "OKLAHOMA CITY",
        "state": "OK",
        "postalCode": "73120-0829"
      },
      {
        "line": [
          "14701 East 86th St N"
        ],
        "city": "OWASSO",
        "state": "OK",
        "postalCode": "74055-8474"
      },
      {
        "line": [
          "2500 Meadowood Blvd"
        ],
        "city": "NORMAN",
        "state": "OK",
        "postalCode": "73071-4703"
      },
      {
        "line": [
          "1100 S Kelly Ave"
        ],
        "city": "EDMOND",
        "state": "OK",
        "postalCode": "73003-6035"
      },
      {
        "line": [
          "3711 Elpizo Circle"
        ],
        "city": "SPENCER",
        "state": "OK",
        "postalCode": "73084-2117"
      },
      {
        "line": [
          "9720 Stacy Ct"
        ],
        "city": "OKLAHOMA CITY",
        "state": "OK",
        "postalCode": "73162-5595"
      },
      {
        "line": [
          "4202 S LA MESA DR"
        ],
        "city": "ENID",
        "state": "OK",
        "postalCode": "73703-4737"
      },
      {
        "line": [
          "200 E CARL ALBERT PKWY STE 2"
        ],
        "city": "MCALESTER",
        "state": "OK",
        "postalCode": "74501-5033"
      },
      {
        "line": [
          "1000 SW 38th St"
        ],
        "city": "OKLAHOMA CITY",
        "state": "OK",
        "postalCode": "73109-3206"
      },
      {
        "line": [
          "2601 S Elm Pl"
        ],
        "city": "BROKEN ARROW",
        "state": "OK",
        "postalCode": "74012-7883"
      },
      {
        "line": [
          "525 E Main St"
        ],
        "city": "OKLAHOMA CITY",
        "state": "OK",
        "postalCode": "73160-5946"
      },
      {
        "line": [
          "2696 Summers Ave"
        ],
        "city": "HARRAH",
        "state": "OK",
        "postalCode": "73045-9413"
      },
      {
        "line": [
          "1801 north Choctaw Road"
        ],
        "city": "CHOCTAW",
        "state": "OK",
        "postalCode": "73020-8084"
      },
      {
        "line": [
          "2801 Shortgrass Rd"
        ],
        "city": "EDMOND",
        "state": "OK",
        "postalCode": "73003-3198"
      },
      {
        "line": [
          "20 E 9TH ST"
        ],
        "city": "SHAWNEE",
        "state": "OK",
        "postalCode": "74801-6909"
      },
      {
        "line": [
          "3230 E SHAWNEE RD"
        ],
        "city": "MUSKOGEE",
        "state": "OK",
        "postalCode": "74403-1813"
      },
      {
        "line": [
          "111 South Ash Street"
        ],
        "city": "GUTHRIE",
        "state": "OK",
        "postalCode": "73044-4935"
      },
      {
        "line": [
          "3308 SW 44th St"
        ],
        "city": "OKLAHOMA CITY",
        "state": "OK",
        "postalCode": "73119-4347"
      },
      {
        "line": [
          "11113 E 103RD ST N"
        ],
        "city": "OWASSO",
        "state": "OK",
        "postalCode": "74055-5731"
      },
      {
        "line": [
          "2900 N CHOCTAW RD"
        ],
        "city": "CHOCTAW",
        "state": "OK",
        "postalCode": "73020-8574"
      },
      {
        "line": [
          "913 NW 12th Street"
        ],
        "city": "OKLAHOMA CITY",
        "state": "OK",
        "postalCode": "73106-6841"
      },
      {
        "line": [
          "1207 W Cherokee St"
        ],
        "city": "LINDSAY",
        "state": "OK",
        "postalCode": "73052-5109"
      },
      {
        "line": [
          "501 E Robinson St"
        ],
        "city": "NORMAN",
        "state": "OK",
        "postalCode": "73071-6614"
      },
      {
        "line": [
          "1601 SW 119th St"
        ],
        "city": "OKLAHOMA CITY",
        "state": "OK",
        "postalCode": "73170-4902"
      },
      {
        "line": [
          "1500 N SANTA FE AVE"
        ],
        "city": "EDMOND",
        "state": "OK",
        "postalCode": "73003-3639"
      },
      {
        "line": [
          "294 E Pebble creek terrace"
        ],
        "city": "MUSTANG",
        "state": "OK",
        "postalCode": "73064-4270"
      },
      {
        "line": [
          "3317 SE 18th ST"
        ],
        "city": "DEL CITY",
        "state": "OK",
        "postalCode": "73115-1413"
      },
      {
        "line": [
          "625 Chisholm Trail Parkway"
        ],
        "city": "DUNCAN",
        "state": "OK",
        "postalCode": "73533-2299"
      },
      {
        "line": [
          "615 W BLUERIDGE DR"
        ],
        "city": "OKLAHOMA CITY",
        "state": "OK",
        "postalCode": "73110-1241"
      },
      {
        "line": [
          "1316 Ne 12th St"
        ],
        "city": "OKLAHOMA CITY",
        "state": "OK",
        "postalCode": "73117-3977"
      },
      {
        "line": [
          "1905 N Bryan Ave"
        ],
        "city": "SHAWNEE",
        "state": "OK",
        "postalCode": "74804-3350"
      },
      {
        "line": [
          "909 Brandywine Ln"
        ],
        "city": "NORMAN",
        "state": "OK",
        "postalCode": "73071-3163"
      },
      {
        "line": [
          "9201 NE 16th St"
        ],
        "city": "OKLAHOMA CITY",
        "state": "OK",
        "postalCode": "73130-1107"
      },
      {
        "line": [
          "30 Dooley Farms Ln"
        ],
        "city": "EDMOND",
        "state": "OK",
        "postalCode": "73003-4916"
      },
      {
        "line": [
          "2001 North Country club Rd"
        ],
        "city": "ADA",
        "state": "OK",
        "postalCode": "74820-1874"
      },
      {
        "line": [
          "601 N WAVERLY ST"
        ],
        "city": "PONCA CITY",
        "state": "OK",
        "postalCode": "74601-5708"
      },
      {
        "line": [
          "4101 N Council Rd"
        ],
        "city": "BETHANY",
        "state": "OK",
        "postalCode": "73008-3108"
      },
      {
        "line": [
          "300 ENZ DR"
        ],
        "city": "EDMOND",
        "state": "OK",
        "postalCode": "73034-4437"
      },
      {
        "line": [
          "719 S Jim Thorpe Blvd"
        ],
        "city": "PRAGUE",
        "state": "OK",
        "postalCode": "74864-3505"
      },
      {
        "line": [
          "1917 NE 20TH ST"
        ],
        "city": "OKLAHOMA CITY",
        "state": "OK",
        "postalCode": "73111-2427"
      },
      {
        "line": [
          "11320 N Council Road"
        ],
        "city": "OKLAHOMA CITY",
        "state": "OK",
        "postalCode": "73162-4912"
      },
      {
        "line": [
          "650 S Memorial Dr"
        ],
        "city": "TULSA",
        "state": "OK",
        "postalCode": "74112-2217"
      },
      {
        "line": [
          "4301 South Bryant Ave"
        ],
        "city": "OKLAHOMA CITY",
        "state": "OK",
        "postalCode": "73115-1939"
      },
      {
        "line": [
          "3317 SE 18th St"
        ],
        "city": "Del City",
        "state": "OK",
        "postalCode": "73115-1413"
      },
      {
        "line": [
          "1400 NW 115th St"
        ],
        "city": "OKLAHOMA CITY",
        "state": "OK",
        "postalCode": "73114-8034"
      },
      {
        "line": [
          "1213 NW 122nd Street"
        ],
        "city": "OKLAHOMA CITY",
        "state": "OK",
        "postalCode": "73114-7000"
      },
      {
        "line": [
          "5020 SE 44TH ST"
        ],
        "city": "OKLAHOMA CITY",
        "state": "OK",
        "postalCode": "73135-4004"
      },
      {
        "line": [
          "428 N Willowood Dr"
        ],
        "city": "YUKON",
        "state": "OK",
        "postalCode": "73099-6580"
      },
      {
        "line": [
          "8205 E 22nd"
        ],
        "city": "TULSA",
        "state": "OK",
        "postalCode": "74129-2839"
      },
      {
        "line": [
          "600 Adair BLVD"
        ],
        "city": "OKLAHOMA CITY",
        "state": "OK",
        "postalCode": "73110-2930"
      },
      {
        "line": [
          "5601 N Washington St"
        ],
        "city": "STILLWATER",
        "state": "OK",
        "postalCode": "74075-1256"
      },
      {
        "line": [
          "444 W Latimer St"
        ],
        "city": "TULSA",
        "state": "OK",
        "postalCode": "74106-5101"
      },
      {
        "line": [
          "5527 south 74th East Ave"
        ],
        "city": "TULSA",
        "state": "OK",
        "postalCode": "74145-7762"
      },
      {
        "line": [
          "10802 E 81st Street"
        ],
        "city": "TULSA",
        "state": "OK",
        "postalCode": "74133-8600"
      },
      {
        "line": [
          "915 W Plato Rd"
        ],
        "city": "DUNCAN",
        "state": "OK",
        "postalCode": "73533-3387"
      },
      {
        "line": [
          "11510 SE 15TH ST"
        ],
        "city": "OKLAHOMA CITY",
        "state": "OK",
        "postalCode": "73130-7803"
      },
      {
        "line": [
          "2450 N Stone Ridge Dr"
        ],
        "city": "BROKEN ARROW",
        "state": "OK",
        "postalCode": "74012-2749"
      },
      {
        "line": [
          "500 N Dawson St"
        ],
        "city": "MEEKER",
        "state": "OK",
        "postalCode": "74855-9508"
      },
      {
        "line": [
          "1225 Lakeshore Dr"
        ],
        "city": "EDMOND",
        "state": "OK",
        "postalCode": "73013-6242"
      },
      {
        "line": [
          "1301 NW 178th St"
        ],
        "city": "EDMOND",
        "state": "OK",
        "postalCode": "73012-4258"
      },
      {
        "line": [
          "6800 S Granite Ave"
        ],
        "city": "TULSA",
        "state": "OK",
        "postalCode": "74136-7039"
      },
      {
        "line": [
          "1840 BELLEFONTAINE ST"
        ],
        "city": "NEWCASTLE",
        "state": "OK",
        "postalCode": "73065-0137"
      },
      {
        "line": [
          "900 Vandement Ave"
        ],
        "city": "YUKON",
        "state": "OK",
        "postalCode": "73099-4915"
      },
      {
        "line": [
          "18001 E 51st St"
        ],
        "city": "TULSA",
        "state": "OK",
        "postalCode": "74134-7362"
      },
      {
        "line": [
          "410 MAYA CT"
        ],
        "city": "PURCELL",
        "state": "OK",
        "postalCode": "73080-1609"
      },
      {
        "line": [
          "1500 NW 148TH ST"
        ],
        "city": "EDMOND",
        "state": "OK",
        "postalCode": "73013-1587"
      },
      {
        "line": [
          "3610 SE HUNTINGTON CIR"
        ],
        "city": "LAWTON",
        "state": "OK",
        "postalCode": "73501-8445"
      },
      {
        "line": [
          "17110 E 51st St."
        ],
        "city": "BROKEN ARROW",
        "state": "OK",
        "postalCode": "74012-9279"
      },
      {
        "line": [
          "811 W ELK AVE"
        ],
        "city": "DUNCAN",
        "state": "OK",
        "postalCode": "73533-3865"
      },
      {
        "line": [
          "7507 S Ross Ave"
        ],
        "city": "OKLAHOMA CITY",
        "state": "OK",
        "postalCode": "73159-4660"
      },
      {
        "line": [
          "5420 SE Adams Blvd."
        ],
        "city": "BARTLESVILLE",
        "state": "OK",
        "postalCode": "74006-8874"
      },
      {
        "line": [
          "436 NW 12th St"
        ],
        "city": "OKLAHOMA CITY",
        "state": "OK",
        "postalCode": "73103-3707"
      },
      {
        "line": [
          "10801 S. May Ave"
        ],
        "city": "OKLAHOMA CITY",
        "state": "OK",
        "postalCode": "73170-2614"
      },
      {
        "line": [
          "789 Country Grove Dr"
        ],
        "city": "SHAWNEE",
        "state": "OK",
        "postalCode": "74804-1404"
      },
      {
        "line": [
          "110 MORNINGSIDE DR"
        ],
        "city": "CHICKASHA",
        "state": "OK",
        "postalCode": "73018-7119"
      },
      {
        "line": [
          "7902 S Mingo Rd"
        ],
        "city": "TULSA",
        "state": "OK",
        "postalCode": "74133-3349"
      },
      {
        "line": [
          "1225 N Kate Ave"
        ],
        "city": "OKLAHOMA CITY",
        "state": "OK",
        "postalCode": "73117-2068"
      },
      {
        "line": [
          "3825 NW 19th St"
        ],
        "city": "OKLAHOMA CITY",
        "state": "OK",
        "postalCode": "73107-3700"
      },
      {
        "line": [
          "4203 S 109th E Ave"
        ],
        "city": "TULSA",
        "state": "OK",
        "postalCode": "74146-3900"
      },
      {
        "line": [
          "1060 Rambling Oaks Dr"
        ],
        "city": "NORMAN",
        "state": "OK",
        "postalCode": "73072-4187"
      },
      {
        "line": [
          "301 Triad Village Dr"
        ],
        "city": "NORMAN",
        "state": "OK",
        "postalCode": "73071-2898"
      },
      {
        "line": [
          "9211 Lake Hefner Pkwy"
        ],
        "city": "OKLAHOMA CITY",
        "state": "OK",
        "postalCode": "73120-6509"
      },
      {
        "line": [
          "300 Hadwiger Ln"
        ],
        "city": "EDMOND",
        "state": "OK",
        "postalCode": "73034-3655"
      },
      {
        "line": [
          "750 Canadian Trails Dr"
        ],
        "city": "NORMAN",
        "state": "OK",
        "postalCode": "73072-7640"
      },
      {
        "line": [
          "3801 NW 19th Street"
        ],
        "city": "OKLAHOMA CITY",
        "state": "OK",
        "postalCode": "73107-3750"
      },
      {
        "line": [
          "13000 N May Ave"
        ],
        "city": "OKLAHOMA CITY",
        "state": "OK",
        "postalCode": "73120-0829"
      },
      {
        "line": [
          "1001 Leisure Lane"
        ],
        "city": "BARTLESVILLE",
        "state": "OK",
        "postalCode": "74006-7987"
      },
      {
        "line": [
          "125 S CZECH HALL RD"
        ],
        "city": "YUKON",
        "state": "OK",
        "postalCode": "73099-7981"
      },
      {
        "line": [
          "311 LAKEVIEW DR"
        ],
        "city": "ENID",
        "state": "OK",
        "postalCode": "73701-6414"
      },
      {
        "line": [
          "405 S 29th St"
        ],
        "city": "CHICKASHA",
        "state": "OK",
        "postalCode": "73018-2501"
      },
      {
        "line": [
          "7220 S Yale Ave"
        ],
        "city": "TULSA",
        "state": "OK",
        "postalCode": "74136-6348"
      },
      {
        "line": [
          "1805 South 29th St"
        ],
        "city": "CHICKASHA",
        "state": "OK",
        "postalCode": "73018-6027"
      },
      {
        "line": [
          "1335 East Ayers"
        ],
        "city": "EDMOND",
        "state": "OK",
        "postalCode": "73034-5690"
      },
      {
        "line": [
          "3800 S POST RD"
        ],
        "city": "GUTHRIE",
        "state": "OK",
        "postalCode": "73044-9076"
      },
      {
        "line": [
          "301 W Wade St"
        ],
        "city": "EL RENO",
        "state": "OK",
        "postalCode": "73036-3642"
      },
      {
        "line": [
          "2207 W WRANGLER BLVD"
        ],
        "city": "SEMINOLE",
        "state": "OK",
        "postalCode": "74868-2046"
      },
      {
        "line": [
          "921 COTTAGE PARK CIR"
        ],
        "city": "MCALESTER",
        "state": "OK",
        "postalCode": "74501-4948"
      },
      {
        "line": [
          "2803 24TH AVE NW"
        ],
        "city": "NORMAN",
        "state": "OK",
        "postalCode": "73069-6717"
      },
      {
        "line": [
          "2801 SHORTGRASS RD"
        ],
        "city": "EDMOND",
        "state": "OK",
        "postalCode": "73003-3198"
      },
      {
        "line": [
          "1501 Grace Point Dr"
        ],
        "city": "OKLAHOMA CITY",
        "state": "OK",
        "postalCode": "73170-6007"
      },
      {
        "line": [
          "2501 S 9TH ST"
        ],
        "city": "CHICKASHA",
        "state": "OK",
        "postalCode": "73018-6751"
      },
      {
        "line": [
          "301 N Eastern Ave"
        ],
        "city": "Moore",
        "state": "OK",
        "postalCode": "73160-6902"
      },
      {
        "line": [
          "802 WINDSONG WAY"
        ],
        "city": "MCALESTER",
        "state": "OK",
        "postalCode": "74501-6336"
      },
      {
        "line": [
          "959 SW 107th St"
        ],
        "city": "OKLAHOMA CITY",
        "state": "OK",
        "postalCode": "73170-5241"
      },
      {
        "line": [
          "1017 W State Hwy 152"
        ],
        "city": "MUSTANG",
        "state": "OK",
        "postalCode": "73064-1513"
      },
      {
        "line": [
          "1301 Northcliff Ave"
        ],
        "city": "NORMAN",
        "state": "OK",
        "postalCode": "73071-7458"
      },
      {
        "line": [
          "530 S LINWOOD AVE"
        ],
        "city": "CUSHING",
        "state": "OK",
        "postalCode": "74023-4644"
      },
      {
        "line": [
          "1002 Leisure Lane"
        ],
        "city": "BARTLESVILLE",
        "state": "OK",
        "postalCode": "74006-7988"
      },
      {
        "line": [
          "116 W DANFORTH RD"
        ],
        "city": "EDMOND",
        "state": "OK",
        "postalCode": "73003-5280"
      },
      {
        "line": [
          "1500 BRADLEY AVE"
        ],
        "city": "PONCA CITY",
        "state": "OK",
        "postalCode": "74604-2524"
      },
      {
        "line": [
          "135 NW 9th Street"
        ],
        "city": "OKLAHOMA CITY",
        "state": "OK",
        "postalCode": "73102-5835"
      },
      {
        "line": [
          "1515 ELK CIRCLE"
        ],
        "city": "NORMAN",
        "state": "OK",
        "postalCode": "73071-3236"
      },
      {
        "line": [
          "4304 W. Houston St"
        ],
        "city": "BROKEN ARROW",
        "state": "OK",
        "postalCode": "74012-4519"
      },
      {
        "line": [
          "3708 S Douglas Ave"
        ],
        "city": "OKLAHOMA CITY",
        "state": "OK",
        "postalCode": "73109-3268"
      },
      {
        "line": [
          "1220 E ELECTRIC AVE"
        ],
        "city": "MCALESTER",
        "state": "OK",
        "postalCode": "74501-3832"
      },
      {
        "line": [
          "5415 S. Shartel"
        ],
        "city": "OKLAHOMA CITY",
        "state": "OK",
        "postalCode": "73109-4844"
      },
      {
        "line": [
          "1515 Kingsridge Rd"
        ],
        "city": "OKLAHOMA CITY",
        "state": "OK",
        "postalCode": "73170-4475"
      },
      {
        "line": [
          "2401 TEE CIR STE 103"
        ],
        "city": "NORMAN",
        "state": "OK",
        "postalCode": "73069-6207"
      },
      {
        "line": [
          "7900 MID AMERICA BLVD"
        ],
        "city": "OKLAHOMA CITY",
        "state": "OK",
        "postalCode": "73135-6609"
      },
      {
        "line": [
          "7535 West Hefner Rd"
        ],
        "city": "OKLAHOMA CITY",
        "state": "OK",
        "postalCode": "73162-4462"
      },
      {
        "line": [
          "3540 NW 56th St"
        ],
        "city": "OKLAHOMA CITY",
        "state": "OK",
        "postalCode": "73112-4523"
      },
      {
        "line": [
          "12807 E 86th Pl N"
        ],
        "city": "OWASSO",
        "state": "OK",
        "postalCode": "74055-2590"
      },
      {
        "line": [
          "12401 Trail Oaks Dr"
        ],
        "city": "OKLAHOMA CITY",
        "state": "OK",
        "postalCode": "73120-1701"
      },
      {
        "line": [
          "4403 12TH AVE SE"
        ],
        "city": "NORMAN",
        "state": "OK",
        "postalCode": "73072-8350"
      },
      {
        "line": [
          "14300 North Portland Ave"
        ],
        "city": "OKLAHOMA CITY",
        "state": "OK",
        "postalCode": "73134-4030"
      },
      {
        "line": [
          "11300 Surrey Hills Blvd"
        ],
        "city": "YUKON",
        "state": "OK",
        "postalCode": "73099-8911"
      },
      {
        "line": [
          "9014 E 31ST ST"
        ],
        "city": "TULSA",
        "state": "OK",
        "postalCode": "74145-1716"
      },
      {
        "line": [
          "5020 SE 44th St"
        ],
        "city": "OKLAHOMA CITY",
        "state": "OK",
        "postalCode": "73135-4004"
      },
      {
        "line": [
          "2709 E Danforth Rd"
        ],
        "city": "EDMOND",
        "state": "OK",
        "postalCode": "73034-6712"
      },
      {
        "line": [
          "1314 N GARLAND RD APT 105"
        ],
        "city": "ENID",
        "state": "OK",
        "postalCode": "73703-2762"
      },
      {
        "line": [
          "4502 W RANDOLPH AVE"
        ],
        "city": "ENID",
        "state": "OK",
        "postalCode": "73703-3471"
      },
      {
        "line": [
          "1045 N YALE AVE"
        ],
        "city": "TULSA",
        "state": "OK",
        "postalCode": "74115-6453"
      },
      {
        "line": [
          "10201 S Yale Ave"
        ],
        "city": "TULSA",
        "state": "OK",
        "postalCode": "74137-6015"
      },
      {
        "line": [
          "1905 N BRYAN AVE"
        ],
        "city": "SHAWNEE",
        "state": "OK",
        "postalCode": "74804-3308"
      },
      {
        "line": [
          "2435 NW 122nd St."
        ],
        "city": "OKLAHOMA CITY",
        "state": "OK",
        "postalCode": "73120-8424"
      },
      {
        "line": [
          "823 S RANGE RD"
        ],
        "city": "STILLWATER",
        "state": "OK",
        "postalCode": "74074-1925"
      },
      {
        "line": [
          "4001 South Aspen Avenue"
        ],
        "city": "BROKEN ARROW",
        "state": "OK",
        "postalCode": "74011-1465"
      },
      {
        "line": [
          "20102 E Admiral Place"
        ],
        "city": "TULSA",
        "state": "OK",
        "postalCode": "74105-3237"
      },
      {
        "line": [
          "10221 EAST 34TH STREET"
        ],
        "city": "TULSA",
        "state": "OK",
        "postalCode": "74146-1526"
      },
      {
        "line": [
          "14901 N PENNSYLVANIA AVE"
        ],
        "city": "OKLAHOMA CITY",
        "state": "OK",
        "postalCode": "73134-6069"
      },
      {
        "line": [
          "2000 W WARNER AVE"
        ],
        "city": "GUTHRIE",
        "state": "OK",
        "postalCode": "73044-2177"
      },
      {
        "line": [
          "1404 NW 122ND ST"
        ],
        "city": "OKLAHOMA CITY",
        "state": "OK",
        "postalCode": "73114-8052"
      },
      {
        "line": [
          "2616 TURNER ST"
        ],
        "city": "PONCA CITY",
        "state": "OK",
        "postalCode": "74604-2200"
      },
      {
        "line": [
          "1201 S WHEATRIDGE RD"
        ],
        "city": "ENID",
        "state": "OK",
        "postalCode": "73703-6086"
      },
      {
        "line": [
          "7300 E 121ST PL S"
        ],
        "city": "BIXBY",
        "state": "OK",
        "postalCode": "74008-5875"
      },
      {
        "line": [
          "2901 OAK TREE AVE"
        ],
        "city": "NORMAN",
        "state": "OK",
        "postalCode": "73072-8200"
      },
      {
        "line": [
          "7821 East 76th Street"
        ],
        "city": "TULSA",
        "state": "OK",
        "postalCode": "74133-3680"
      },
      {
        "line": [
          "2101 S Harvey Ave"
        ],
        "city": "OKLAHOMA CITY",
        "state": "OK",
        "postalCode": "73109-5960"
      },
      {
        "line": [
          "1500 E VAN BUREN AVE"
        ],
        "city": "MCALESTER",
        "state": "OK",
        "postalCode": "74501-4274"
      },
      {
        "line": [
          "2501 Ashton Place"
        ],
        "city": "EL RENO",
        "state": "OK",
        "postalCode": "73036-2502"
      },
      {
        "line": [
          "500 Adair Blvd"
        ],
        "city": "OKLAHOMA CITY",
        "state": "OK",
        "postalCode": "73110-2916"
      },
      {
        "line": [
          "1001 S BELMONT AVE"
        ],
        "city": "OKMULGEE",
        "state": "OK",
        "postalCode": "74447-6300"
      },
      {
        "line": [
          "2100 NE 140th  St"
        ],
        "city": "EDMOND",
        "state": "OK",
        "postalCode": "73013-5539"
      },
      {
        "line": [
          "504 W Arkansas Ave"
        ],
        "city": "CHICKASHA",
        "state": "OK",
        "postalCode": "73018-4410"
      },
      {
        "line": [
          "817 SW 59th St"
        ],
        "city": "OKLAHOMA CITY",
        "state": "OK",
        "postalCode": "73109-4833"
      },
      {
        "line": [
          "901 N Elgin Ave"
        ],
        "city": "TULSA",
        "state": "OK",
        "postalCode": "74106-5703"
      },
      {
        "line": [
          "6302 SW Lee Blvd"
        ],
        "city": "LAWTON",
        "state": "OK",
        "postalCode": "73505-9103"
      },
      {
        "line": [
          "5211 S Lewis Ave"
        ],
        "city": "TULSA",
        "state": "OK",
        "postalCode": "74105-6556"
      },
      {
        "line": [
          "3856 N Kelley Ave"
        ],
        "city": "OKLAHOMA CITY",
        "state": "OK",
        "postalCode": "73111-5159"
      },
      {
        "line": [
          "1320 Classen Drive"
        ],
        "city": "OKLAHOMA CITY",
        "state": "OK",
        "postalCode": "73103-2417"
      },
      {
        "line": [
          "1815 E. Skelly Dr"
        ],
        "city": "TULSA",
        "state": "OK",
        "postalCode": "74105-5919"
      },
      {
        "line": [
          "14201 N Kentucky Ave"
        ],
        "city": "OKLAHOMA CITY",
        "state": "OK",
        "postalCode": "73134-3427"
      },
      {
        "line": [
          "3704 Asbury Ave"
        ],
        "city": "BETHANY",
        "state": "OK",
        "postalCode": "73008-6229"
      },
      {
        "line": [
          "8501 N GEORGIA"
        ],
        "city": "OKLAHOMA CITY",
        "state": "OK",
        "postalCode": "73114-9998"
      },
      {
        "line": [
          "5721 South Lewis Avenue"
        ],
        "city": "TULSA",
        "state": "OK",
        "postalCode": "74105-7129"
      },
      {
        "line": [
          "3102 East Apache Street"
        ],
        "city": "TULSA",
        "state": "OK",
        "postalCode": "74110-2322"
      },
      {
        "line": [
          "700 N Berry Rd"
        ],
        "city": "NORMAN",
        "state": "OK",
        "postalCode": "73069-7562"
      },
      {
        "line": [
          "510 E Pleasant Hill Dr"
        ],
        "city": "GUTHRIE",
        "state": "OK",
        "postalCode": "73044-3004"
      },
      {
        "line": [
          "7401 Riverside Parkway"
        ],
        "city": "TULSA",
        "state": "OK",
        "postalCode": "74136-5044"
      },
      {
        "line": [
          "523 North 22nd Street"
        ],
        "city": "COLLINSVILLE",
        "state": "OK",
        "postalCode": "74021-1651"
      },
      {
        "line": [
          "800 S. Kelly Ave."
        ],
        "city": "EDMOND",
        "state": "OK",
        "postalCode": "73003-5684"
      },
      {
        "line": [
          "2707 Harper Street"
        ],
        "city": "CHOCTAW",
        "state": "OK",
        "postalCode": "73020-8666"
      },
      {
        "line": [
          "12424 E. 75th St N"
        ],
        "city": "OWASSO",
        "state": "OK",
        "postalCode": "74055-4045"
      },
      {
        "line": [
          "2500 N Broadway"
        ],
        "city": "EDMOND",
        "state": "OK",
        "postalCode": "73034-6851"
      },
      {
        "line": [
          "409 NW 11th Street"
        ],
        "city": "OKLAHOMA CITY",
        "state": "OK",
        "postalCode": "73103-3915"
      },
      {
        "line": [
          "701 W 71st St"
        ],
        "city": "TULSA",
        "state": "OK",
        "postalCode": "74132-1821"
      },
      {
        "line": [
          "6920 SW Lee Blvd"
        ],
        "city": "LAWTON",
        "state": "OK",
        "postalCode": "73505-9104"
      },
      {
        "line": [
          "14721 N SANTA FE AVE"
        ],
        "city": "EDMOND",
        "state": "OK",
        "postalCode": "73013-3436"
      },
      {
        "line": [
          "15401 N Pennsylvania Ave"
        ],
        "city": "EDMOND",
        "state": "OK",
        "postalCode": "73013-1514"
      },
      {
        "line": [
          "400 N Trade Center Terrace"
        ],
        "city": "MUSTANG",
        "state": "OK",
        "postalCode": "73064-4417"
      },
      {
        "line": [
          "5505 W. 19th Ave"
        ],
        "city": "STILLWATER",
        "state": "OK",
        "postalCode": "74074-1323"
      },
      {
        "line": [
          "807 S LOWRY ST"
        ],
        "city": "STILLWATER",
        "state": "OK",
        "postalCode": "74074-4707"
      },
      {
        "line": [
          "2100 36th Ave NW"
        ],
        "city": "NORMAN",
        "state": "OK",
        "postalCode": "73072-3500"
      },
      {
        "line": [
          "13701 South Sante Fe Ave"
        ],
        "city": "EDMOND",
        "state": "OK",
        "postalCode": "73025-1723"
      },
      {
        "line": [
          "611 S COUNTRY CLUB RD"
        ],
        "city": "MUSKOGEE",
        "state": "OK",
        "postalCode": "74403-6222"
      },
      {
        "line": [
          "300 NW 12th St"
        ],
        "city": "OKLAHOMA CITY",
        "state": "OK",
        "postalCode": "73103-3726"
      },
      {
        "line": [
          "106 Taft Dr"
        ],
        "city": "CHICKASHA",
        "state": "OK",
        "postalCode": "73018-6740"
      },
      {
        "line": [
          "2500 N BROADWAY"
        ],
        "city": "EDMOND",
        "state": "OK",
        "postalCode": "73034-4133"
      },
      {
        "line": [
          "8222 S Yale Ave"
        ],
        "city": "TULSA",
        "state": "OK",
        "postalCode": "74137-2246"
      },
      {
        "line": [
          "2325 SW 59th St"
        ],
        "city": "OKLAHOMA CITY",
        "state": "OK",
        "postalCode": "73119-6802"
      },
      {
        "line": [
          "1400 W. Woodson St"
        ],
        "city": "EL RENO",
        "state": "OK",
        "postalCode": "73036-2205"
      },
      {
        "line": [
          "801 S Stadium Dr"
        ],
        "city": "ADA",
        "state": "OK",
        "postalCode": "74820-8400"
      },
      {
        "line": [
          "151 E Plantation Terr"
        ],
        "city": "MUSTANG",
        "state": "OK",
        "postalCode": "73064-4955"
      },
      {
        "line": [
          "12310 S Western Ave"
        ],
        "city": "OKLAHOMA CITY",
        "state": "OK",
        "postalCode": "73170-5973"
      },
      {
        "line": [
          "3737 N COLLEGE AVE"
        ],
        "city": "BETHANY",
        "state": "OK",
        "postalCode": "73008-3380"
      },
      {
        "line": [
          "2621 S ELM PL"
        ],
        "city": "BROKEN ARROW",
        "state": "OK",
        "postalCode": "74012-7869"
      },
      {
        "line": [
          "1600 W WILLOW RD"
        ],
        "city": "ENID",
        "state": "OK",
        "postalCode": "73703-2437"
      }
    ],
    "extension": [
      {
        "url": "https://fhir.athena.io/StructureDefinition/ah-practice",
        "valueReference": {
          "reference": "Organization/a-1.Practice-19281"
        }
      },
      {
        "url": "https://fhir.athena.io/StructureDefinition/ah-brand",
        "valueReference": {
          "reference": "Organization/a-19281.Brand-2"
        }
      }
    ]
  },
  "fullUrl": "urn:uuid:b682b6ad-128e-54b9-8673-795848ad078d"
}