{
  "resource": {
    "resourceType": "Organization",
    "id": "6ec8eb7f-184a-5f05-848e-392109f09848",
    "name": "Mount Carmel Heart and Vascular Center",
    "endpoint": [
      {
        "reference": "Endpoint/27a4e967-47aa-5a9c-a572-b8297ee268a2"
      },
      {
        "reference": "Endpoint/3c5d93b4-0410-5d8f-ab0c-f5b50749feda"
      }
    ],
    "identifier": [
      {
        "system": "http://hl7.org/fhir/sid/us-npi",
        "value": "1134154750"
      }
    ],
    "address": [
      {
        "line": [
          "5825 Westbourne Ave"
        ],
        "city": "COLUMBUS",
        "state": "OH",
        "postalCode": "43213-1459"
      },
      {
        "line": [
          "4176 Kelnor Drive"
        ],
        "city": "GROVE CITY",
        "state": "OH",
        "postalCode": "43123-2959"
      },
      {
        "line": [
          "7901 Diley Road Suite 140"
        ],
        "city": "Canal Winchester",
        "state": "OH",
        "postalCode": "43110-9612"
      },
      {
        "line": [
          "275 Taylor Station Road"
        ],
        "city": "COLUMBUS",
        "state": "OH",
        "postalCode": "43213-2927"
      },
      {
        "line": [
          "136 East High St"
        ],
        "city": "LONDON",
        "state": "OH",
        "postalCode": "43140-1229"
      },
      {
        "line": [
          "5300 North Meadows Drive",
          "Building 1 Suite 280"
        ],
        "city": "GROVE CITY",
        "state": "OH",
        "postalCode": "43123-2546"
      },
      {
        "line": [
          "85 McNaughten Road Suite 110"
        ],
        "city": "COLUMBUS",
        "state": "OH",
        "postalCode": "43213-5111"
      },
      {
        "line": [
          "775 West Broad Street Suite 200"
        ],
        "city": "COLUMBUS",
        "state": "OH",
        "postalCode": "43222-1510"
      },
      {
        "line": [
          "136 East Hight Street"
        ],
        "city": "LONDON",
        "state": "OH",
        "postalCode": "43140-9328"
      },
      {
        "line": [
          "1510 Columbus Ave Medical Arts",
          "Building 2 Suite 230"
        ],
        "city": "WASHINGTON COURT HOUSE",
        "state": "OH",
        "postalCode": "43160-1767"
      },
      {
        "line": [
          "7901 Diley Road Suite 140"
        ],
        "city": "CANAL WINCHESTER",
        "state": "OH",
        "postalCode": "43110-9612"
      },
      {
        "line": [
          "4674 Britton Parkway Suite 2000"
        ],
        "city": "HILLIARD",
        "state": "OH",
        "postalCode": "43026-9637"
      },
      {
        "line": [
          "210 N Main Street"
        ],
        "city": "LONDON",
        "state": "OH",
        "postalCode": "43140-1115"
      },
      {
        "line": [
          "477 Cooper Road  Suite 200"
        ],
        "city": "WESTERVILLE",
        "state": "OH",
        "postalCode": "43081-6045"
      },
      {
        "line": [
          "85 McNaughten Road Suite 200 & 300"
        ],
        "city": "COLUMBUS",
        "state": "OH",
        "postalCode": "43213-5111"
      },
      {
        "line": [
          "750 Mt Carmel Mall",
          "Suite 240"
        ],
        "city": "COLUMBUS",
        "state": "OH",
        "postalCode": "43222-1537"
      },
      {
        "line": [
          "150 Taylor Station Road",
          "Suite 360"
        ],
        "city": "COLUMBUS",
        "state": "OH",
        "postalCode": "43213-1539"
      },
      {
        "line": [
          "7100 Graphics Way"
        ],
        "city": "LEWIS CENTER",
        "state": "OH",
        "postalCode": "43035-8114"
      },
      {
        "line": [
          "1430 Columbus Ave"
        ],
        "city": "WASHINGTON COURT HOUSE",
        "state": "OH",
        "postalCode": "43160-1703"
      },
      {
        "line": [
          "7901 Diley Road"
        ],
        "city": "CANAL WINCHESTER",
        "state": "OH",
        "postalCode": "43110-1539"
      },
      {
        "line": [
          "1945 Newark Granville Road"
        ],
        "city": "COLUMBUS",
        "state": "OH",
        "postalCode": "43209-9169"
      },
      {
        "line": [
          "500 S Cleveland Ave"
        ],
        "city": "WESTERVILLE",
        "state": "OH",
        "postalCode": "43081-8971"
      },
      {
        "line": [
          "1945 Newark Granville Road"
        ],
        "city": "Granville",
        "state": "OH",
        "postalCode": "43023-9169"
      },
      {
        "line": [
          "477 Cooper Road Suite 200"
        ],
        "city": "WESTERVILLE",
        "state": "OH",
        "postalCode": "43081-8054"
      },
      {
        "line": [
          "477 Cooper Road, suite 200"
        ],
        "city": "WESTERVILLE",
        "state": "OH",
        "postalCode": "43081-6045"
      },
      {
        "line": [
          "5300 North Meadows Drive",
          "Building 1 Suite 200"
        ],
        "city": "GROVE CITY",
        "state": "OH",
        "postalCode": "43123-2546"
      },
      {
        "line": [
          "7100 Graphics Way Suite 2400"
        ],
        "city": "LEWIS CENTER",
        "state": "OH",
        "postalCode": "43035-1122"
      },
      {
        "line": [
          "85 McNaughtin Road Suite 110"
        ],
        "city": "COLUMBUS",
        "state": "OH",
        "postalCode": "43213-5111"
      },
      {
        "line": [
          "6001 East Broad Street"
        ],
        "city": "COLUMBUS",
        "state": "OH",
        "postalCode": "43213-1502"
      },
      {
        "line": [
          "5350 North Meadows Drive"
        ],
        "city": "GROVE CITY",
        "state": "OH",
        "postalCode": "43123-2546"
      },
      {
        "line": [
          "5825 Westbourne Ave"
        ],
        "city": "Columbus",
        "state": "OH",
        "postalCode": "43213-1459"
      },
      {
        "line": [
          "745 West State Suite 750"
        ],
        "city": "COLUMBUS",
        "state": "OH",
        "postalCode": "43222-1508"
      },
      {
        "line": [
          "745 West State Street Suite 750"
        ],
        "city": "COLUMBUS",
        "state": "OH",
        "postalCode": "43222-1515"
      },
      {
        "line": [
          "1330 Coshocton Road"
        ],
        "city": "MOUNT VERNON",
        "state": "OH",
        "postalCode": "43050-1440"
      },
      {
        "line": [
          "477 Cooper Road Suite 200"
        ],
        "city": "WESTERVILLE",
        "state": "OH",
        "postalCode": "43081-6045"
      },
      {
        "line": [
          "85 McNaughten Road Suite 110"
        ],
        "city": "Columbus",
        "state": "OH",
        "postalCode": "43213-5111"
      },
      {
        "line": [
          "793 West State Street"
        ],
        "city": "COLUMBUS",
        "state": "OH",
        "postalCode": "43222-1551"
      },
      {
        "line": [
          "6670 Perimeter Dr. Suite 100"
        ],
        "city": "Dublin",
        "state": "OH",
        "postalCode": "43016-8046"
      }
    ],
    "extension": [
      {
        "url": "https://fhir.athena.io/StructureDefinition/ah-practice",
        "valueReference": {
          "reference": "Organization/a-1.Practice-11128"
        }
      },
      {
        "url": "https://fhir.athena.io/StructureDefinition/ah-brand",
        "valueReference": {
          "reference": "Organization/a-11128.Brand-1"
        }
      }
    ]
  },
  "fullUrl": "urn:uuid:6ec8eb7f-184a-5f05-848e-392109f09848"
}