{
  "resource": {
    "resourceType": "Organization",
    "id": "7c0ee3e7-805e-5537-aa9e-b6402a7af6a3",
    "name": "ADVANCED ORTHOPAEDICS OF READING",
    "endpoint": [
      {
        "reference": "Endpoint/27a4e967-47aa-5a9c-a572-b8297ee268a2"
      },
      {
        "reference": "Endpoint/ba47ccc4-2985-558c-9a2b-633a9b43f930"
      }
    ],
    "identifier": [
      {
        "system": "http://hl7.org/fhir/sid/us-npi",
        "value": "1255666012"
      },
      {
        "system": "http://hl7.org/fhir/sid/us-npi",
        "value": "1386961555"
      }
    ],
    "address": [
      {
        "line": [
          "2752 CENTURY BLVD"
        ],
        "city": "WYOMISSING",
        "state": "PA",
        "postalCode": "19610-3345"
      },
      {
        "line": [
          "2211 QUARRY DRIVE",
          "SUITE E52"
        ],
        "city": "READING",
        "state": "PA",
        "postalCode": "19609-1161"
      },
      {
        "line": [
          "2500 BERNVILLE ROAD"
        ],
        "city": "READING",
        "state": "PA",
        "postalCode": "19605-9453"
      },
      {
        "line": [
          "6TH AND SPRUCE ST"
        ],
        "city": "WEST READING",
        "state": "PA",
        "postalCode": "19612-6052"
      },
      {
        "line": [
          "S 4TH AVE & SPRUCE AVE"
        ],
        "city": "WEST READING",
        "state": "PA",
        "postalCode": "19611-1320"
      },
      {
        "line": [
          "2603 KAISER BLVD"
        ],
        "city": "WYOMISSING",
        "state": "PA",
        "postalCode": "19610-3341"
      },
      {
        "line": [
          "225 EVERGREEN ROAD"
        ],
        "city": "POTTSTOWN",
        "state": "PA",
        "postalCode": "19464-3143"
      },
      {
        "line": [
          "6TH & SPRUCE ST"
        ],
        "city": "WEST READING",
        "state": "PA",
        "postalCode": "19612-6052"
      },
      {
        "line": [
          "1280 BROADCASTING ROAD"
        ],
        "city": "WYOMISSING",
        "state": "PA",
        "postalCode": "19610-3203"
      }
    ],
    "extension": [
      {
        "url": "https://fhir.athena.io/StructureDefinition/ah-practice",
        "valueReference": {
          "reference": "Organization/a-1.Practice-2277"
        }
      },
      {
        "url": "https://fhir.athena.io/StructureDefinition/ah-brand",
        "valueReference": {
          "reference": "Organization/a-2277.Brand-1"
        }
      }
    ]
  },
  "fullUrl": "urn:uuid:7c0ee3e7-805e-5537-aa9e-b6402a7af6a3"
}