{
  "resource": {
    "resourceType": "Organization",
    "id": "a46e08dc-beb4-58b6-95a0-4de5a22d1e16",
    "name": "Children's Care Central",
    "endpoint": [
      {
        "reference": "Endpoint/27a4e967-47aa-5a9c-a572-b8297ee268a2"
      },
      {
        "reference": "Endpoint/fcc8a71e-5920-52df-8bd2-c9280407e9e5"
      }
    ],
    "identifier": [
      {
        "system": "http://hl7.org/fhir/sid/us-npi",
        "value": "1609827211"
      }
    ],
    "address": [
      {
        "line": [
          "1845 VETERANS PARK DR"
        ],
        "city": "NAPLES",
        "state": "FL",
        "postalCode": "34109-0493"
      },
      {
        "line": [
          "9160 GALLERIA CT"
        ],
        "city": "NAPLES",
        "state": "FL",
        "postalCode": "34109-4343"
      },
      {
        "line": [
          "12655 Collier Blvd"
        ],
        "city": "NAPLES",
        "state": "FL",
        "postalCode": "34116-4005"
      },
      {
        "line": [
          "125 BOSTON AVE"
        ],
        "city": "IMMOKALEE",
        "state": "FL",
        "postalCode": "34142-4017"
      },
      {
        "line": [
          "1920 MANATEE RD"
        ],
        "city": "NAPLES",
        "state": "FL",
        "postalCode": "34114-8340"
      },
      {
        "line": [
          "1454 Madison Avenue"
        ],
        "city": "IMMOKALEE",
        "state": "FL",
        "postalCode": "34142-2200"
      },
      {
        "line": [
          "1454 MADISON AVE W",
          "UNIT 3"
        ],
        "city": "IMMOKALEE",
        "state": "FL",
        "postalCode": "34142-2200"
      },
      {
        "line": [
          "8455 RATTLESNAKE HAMMOCK RD",
          "STE CH-105"
        ],
        "city": "NAPLES",
        "state": "FL",
        "postalCode": "34114-3638"
      },
      {
        "line": [
          "1454 Madison Ave W"
        ],
        "city": "IMMOKALEE",
        "state": "FL",
        "postalCode": "34142-2200"
      },
      {
        "line": [
          "1454 Madison Ave"
        ],
        "city": "NAPLES",
        "state": "FL",
        "postalCode": "34105-1303"
      },
      {
        "line": [
          "12655 COLLIER BLVD"
        ],
        "city": "NAPLES",
        "state": "FL",
        "postalCode": "34116-4005"
      },
      {
        "line": [
          "1454 MADISON AVE W"
        ],
        "city": "IMMOKALEE",
        "state": "FL",
        "postalCode": "34142-2200"
      },
      {
        "line": [
          "1454 Madison Ave"
        ],
        "city": "IMMOKALEE",
        "state": "FL",
        "postalCode": "34142-2200"
      }
    ],
    "extension": [
      {
        "url": "https://fhir.athena.io/StructureDefinition/ah-practice",
        "valueReference": {
          "reference": "Organization/a-1.Practice-10865"
        }
      },
      {
        "url": "https://fhir.athena.io/StructureDefinition/ah-brand",
        "valueReference": {
          "reference": "Organization/a-10865.Brand-1"
        }
      }
    ]
  },
  "fullUrl": "urn:uuid:a46e08dc-beb4-58b6-95a0-4de5a22d1e16"
}