{
  "resource": {
    "resourceType": "Organization",
    "id": "099a753e-8ff1-596e-b871-2bc545ac8be9",
    "name": "Acuity Specialty Hospital",
    "endpoint": [
      {
        "reference": "Endpoint/27a4e967-47aa-5a9c-a572-b8297ee268a2"
      },
      {
        "reference": "Endpoint/697be51b-4740-5a05-bf93-f4f4b4de0bbb"
      }
    ],
    "identifier": [
      {
        "system": "http://hl7.org/fhir/sid/us-npi",
        "value": "1265571863"
      },
      {
        "system": "http://hl7.org/fhir/sid/us-npi",
        "value": "1659516375"
      }
    ],
    "address": [
      {
        "line": [
          "2211 EMMONS AVE"
        ],
        "city": "BROOKLYN",
        "state": "NY",
        "postalCode": "11235-2727"
      },
      {
        "line": [
          "401 N MIDDLETOWN RD STE 273"
        ],
        "city": "PEARL RIVER",
        "state": "NY",
        "postalCode": "10965-1298"
      },
      {
        "line": [
          "401 N Middletown road"
        ],
        "city": "PEARL RIVER",
        "state": "NY",
        "postalCode": "10965-1298"
      },
      {
        "line": [
          "4238 Bronx Boulevard"
        ],
        "city": "BRONX",
        "state": "NY",
        "postalCode": "10466-2670"
      },
      {
        "line": [
          "4 E 88th Street",
          "STE 1A"
        ],
        "city": "NEW YORK",
        "state": "NY",
        "postalCode": "10128-0509"
      },
      {
        "line": [
          "20 HAGEN DR",
          "STE 330"
        ],
        "city": "ROCHESTER",
        "state": "NY",
        "postalCode": "14625-2664"
      },
      {
        "line": [
          "1101 NOTT ST"
        ],
        "city": "SCHENECTADY",
        "state": "NY",
        "postalCode": "12308-2425"
      },
      {
        "line": [
          "401 N MIDDLETOWN RD # B205 STE 273"
        ],
        "city": "PEARL RIVER",
        "state": "NY",
        "postalCode": "10965-1298"
      },
      {
        "line": [
          "29A Jericho TPKE"
        ],
        "city": "JERICHO",
        "state": "NY",
        "postalCode": "11753-1001"
      },
      {
        "line": [
          "7916 37TH AVE"
        ],
        "city": "JACKSON HEIGHTS",
        "state": "NY",
        "postalCode": "11372-6748"
      },
      {
        "line": [
          "6010 BAY PKWY STE 801"
        ],
        "city": "BROOKLYN",
        "state": "NY",
        "postalCode": "11204-6080"
      },
      {
        "line": [
          "975 Route 45"
        ],
        "city": "POMONA",
        "state": "NY",
        "postalCode": "10970-3517"
      },
      {
        "line": [
          "100 E 77TH ST"
        ],
        "city": "NEW YORK",
        "state": "NY",
        "postalCode": "10075-1850"
      },
      {
        "line": [
          "233 E SHORE RD STE 101"
        ],
        "city": "GREAT NECK",
        "state": "NY",
        "postalCode": "11023-2433"
      },
      {
        "line": [
          "136 Sagamore Rd"
        ],
        "city": "TUCKAHOE",
        "state": "NY",
        "postalCode": "10707-4009"
      },
      {
        "line": [
          "30 E 60TH ST"
        ],
        "city": "NEW YORK",
        "state": "NY",
        "postalCode": "10022-1008"
      },
      {
        "line": [
          "43 NEW SCOTLAND AVE"
        ],
        "city": "ALBANY",
        "state": "NY",
        "postalCode": "12208-3412"
      },
      {
        "line": [
          "47 NEW SCOTLAND AVE"
        ],
        "city": "ALBANY",
        "state": "NY",
        "postalCode": "12208-3412"
      },
      {
        "line": [
          "1488 Wantagh Avenue"
        ],
        "city": "WANTAGH",
        "state": "NY",
        "postalCode": "11793-2204"
      },
      {
        "line": [
          "7400 18th Ave"
        ],
        "city": "BROOKLYN",
        "state": "NY",
        "postalCode": "11204-5612"
      },
      {
        "line": [
          "315 S MANNING BLVD"
        ],
        "city": "ALBANY",
        "state": "NY",
        "postalCode": "12208-1707"
      },
      {
        "line": [
          "2840 KNAPP ST"
        ],
        "city": "BROOKLYN",
        "state": "NY",
        "postalCode": "11235-1112"
      },
      {
        "line": [
          "2211 Emmons Ave #A"
        ],
        "city": "BROOKLYN",
        "state": "NY",
        "postalCode": "11234-2727"
      },
      {
        "line": [
          "187 Veterans"
        ],
        "city": "MASSAPEQUA",
        "state": "NY",
        "postalCode": "11758-4982"
      },
      {
        "line": [
          "401 N Middletown road",
          "Suite 273"
        ],
        "city": "PEARL RIVER",
        "state": "NY",
        "postalCode": "10965-1298"
      },
      {
        "line": [
          "4902 QUEENS BLVD",
          "# B1"
        ],
        "city": "WOODSIDE",
        "state": "NY",
        "postalCode": "11377-4444"
      },
      {
        "line": [
          "619 W 54Th street #8"
        ],
        "city": "NEW YORK",
        "state": "NY",
        "postalCode": "10019-3545"
      },
      {
        "line": [
          "266 W 145TH ST"
        ],
        "city": "NEW YORK",
        "state": "NY",
        "postalCode": "10039-4104"
      },
      {
        "line": [
          "23520 147TH AVE"
        ],
        "city": "ROSEDALE",
        "state": "NY",
        "postalCode": "11422-3226"
      }
    ],
    "extension": [
      {
        "url": "https://fhir.athena.io/StructureDefinition/ah-practice",
        "valueReference": {
          "reference": "Organization/a-1.Practice-24721"
        }
      },
      {
        "url": "https://fhir.athena.io/StructureDefinition/ah-brand",
        "valueReference": {
          "reference": "Organization/a-24721.Brand-2"
        }
      }
    ]
  },
  "fullUrl": "urn:uuid:099a753e-8ff1-596e-b871-2bc545ac8be9"
}