{
  "resource": {
    "resourceType": "Organization",
    "id": "6efa6c52-02ce-5352-925e-7722c582236d",
    "name": "AMETHYST MEDICAL GROUP, INC",
    "endpoint": [
      {
        "reference": "Endpoint/27a4e967-47aa-5a9c-a572-b8297ee268a2"
      },
      {
        "reference": "Endpoint/f85eb7f7-3ae7-5f70-a67a-1fea87c40ddb"
      }
    ],
    "identifier": [
      {
        "system": "http://hl7.org/fhir/sid/us-npi",
        "value": "1194836338"
      }
    ],
    "address": [
      {
        "line": [
          "316 Olympic Way"
        ],
        "city": "Grass Valley",
        "state": "CA",
        "postalCode": "95945-5727"
      },
      {
        "line": [
          "415 SIERRA COLLEGE DRIVE"
        ],
        "city": "GRASS VALLEY",
        "state": "CA",
        "postalCode": "95945-5764"
      },
      {
        "line": [
          "155 GLASSON WAY"
        ],
        "city": "GRASS VALLEY",
        "state": "CA",
        "postalCode": "95945-5723"
      },
      {
        "line": [
          "107 CATHERINE LANE"
        ],
        "city": "GRASS VALLEY",
        "state": "CA",
        "postalCode": "95945-5705"
      },
      {
        "line": [
          "123 MARGARET LN STE C2"
        ],
        "city": "GRASS VALLEY",
        "state": "CA",
        "postalCode": "95945-5268"
      },
      {
        "line": [
          "12399 NEVADA CITY HIGHWAY"
        ],
        "city": "GRASS VALLEY",
        "state": "CA",
        "postalCode": "95945-7705"
      },
      {
        "line": [
          "150 SUTTON WAY"
        ],
        "city": "GRASS VALLEY",
        "state": "CA",
        "postalCode": "95945-4178"
      },
      {
        "line": [
          "625 ESKATON CIRCLE"
        ],
        "city": "GRASS VALLEY",
        "state": "CA",
        "postalCode": "95945-5727"
      },
      {
        "line": [
          "12382 Cascade Way"
        ],
        "city": "NEVADA CITY",
        "state": "CA",
        "postalCode": "95959-3564"
      },
      {
        "line": [
          "121 DORSEY DR"
        ],
        "city": "GRASS VALLEY",
        "state": "CA",
        "postalCode": "95945-5201"
      },
      {
        "line": [
          "123 Margaret Lane",
          "SUITE C2"
        ],
        "city": "Grass Valley",
        "state": "CA",
        "postalCode": "95959-3043"
      },
      {
        "line": [
          "389 JOERSCHKE DR"
        ],
        "city": "GRASS VALLEY",
        "state": "CA",
        "postalCode": "95945-5288"
      },
      {
        "line": [
          "155 GLASSON WY"
        ],
        "city": "GRASS VALLEY",
        "state": "CA",
        "postalCode": "95945-5723"
      },
      {
        "line": [
          "355 JOERSCHKE DRIVE"
        ],
        "city": "GRASS VALLEY",
        "state": "CA",
        "postalCode": "95945-5288"
      },
      {
        "line": [
          "123 Margaret Lane C2"
        ],
        "city": "GRASS VALLEY",
        "state": "CA",
        "postalCode": "95945-5268"
      },
      {
        "line": [
          "11026 ROUGH & READY HWY"
        ],
        "city": "GRASS VALLEY",
        "state": "CA",
        "postalCode": "95945-8530"
      },
      {
        "line": [
          "396 Dorsey Drive"
        ],
        "city": "GRASS VALLEY",
        "state": "CA",
        "postalCode": "95945-5368"
      },
      {
        "line": [
          "396 DORSEY DRIVE"
        ],
        "city": "GRASS VALLEY",
        "state": "CA",
        "postalCode": "95945-5368"
      }
    ],
    "extension": [
      {
        "url": "https://fhir.athena.io/StructureDefinition/ah-practice",
        "valueReference": {
          "reference": "Organization/a-1.Practice-974"
        }
      },
      {
        "url": "https://fhir.athena.io/StructureDefinition/ah-brand",
        "valueReference": {
          "reference": "Organization/a-974.Brand-1"
        }
      }
    ]
  },
  "fullUrl": "urn:uuid:6efa6c52-02ce-5352-925e-7722c582236d"
}