{
  "resource": {
    "resourceType": "Organization",
    "id": "48fc2d34-941d-53d9-9c10-70a347f4b0e4",
    "name": "ECLIPSE PAIN AND RECOVERY",
    "endpoint": [
      {
        "reference": "Endpoint/27a4e967-47aa-5a9c-a572-b8297ee268a2"
      },
      {
        "reference": "Endpoint/39c4dde7-382a-530d-9b34-c7c9941f7ad2"
      }
    ],
    "identifier": [
      {
        "system": "http://hl7.org/fhir/sid/us-npi",
        "value": "1710551585"
      }
    ],
    "address": [
      {
        "line": [
          "1011 14TH AVE NW"
        ],
        "city": "ARDMORE",
        "state": "OK",
        "postalCode": "73401-1828"
      },
      {
        "line": [
          "3100 PETERS COLONY RD"
        ],
        "city": "FLOWER MOUND",
        "state": "TX",
        "postalCode": "75022-2949"
      },
      {
        "line": [
          "50 Indian Dr"
        ],
        "city": "WAXAHACHIE",
        "state": "TX",
        "postalCode": "75165-0000"
      },
      {
        "line": [
          "1434 W US HIGHWAY 287 BYP STE 100",
          "Suite 100"
        ],
        "city": "WAXAHACHIE",
        "state": "TX",
        "postalCode": "75165-5007"
      },
      {
        "line": [
          "1006 LEGACY RANCH DR SUITE 104"
        ],
        "city": "WAXAHACHIE",
        "state": "TX",
        "postalCode": "75165-9999"
      },
      {
        "line": [
          "1324 Brown St",
          "#600"
        ],
        "city": "WAXAHACHIE",
        "state": "TX",
        "postalCode": "75165-1426"
      },
      {
        "line": [
          "1006 LEGACY RANCH RD STE 104"
        ],
        "city": "WAXAHACHIE",
        "state": "TX",
        "postalCode": "75165-1293"
      },
      {
        "line": [
          "2301 MARSH LN"
        ],
        "city": "PLANO",
        "state": "TX",
        "postalCode": "75093-8497"
      },
      {
        "line": [
          "1001 YORK DR"
        ],
        "city": "DESOTO",
        "state": "TX",
        "postalCode": "75115-2083"
      },
      {
        "line": [
          "267 N State Hwy 360"
        ],
        "city": "MANSFIELD",
        "state": "TX",
        "postalCode": "76063-9151"
      }
    ],
    "extension": [
      {
        "url": "https://fhir.athena.io/StructureDefinition/ah-practice",
        "valueReference": {
          "reference": "Organization/a-1.Practice-22507"
        }
      },
      {
        "url": "https://fhir.athena.io/StructureDefinition/ah-brand",
        "valueReference": {
          "reference": "Organization/a-22507.Brand-1"
        }
      }
    ]
  },
  "fullUrl": "urn:uuid:48fc2d34-941d-53d9-9c10-70a347f4b0e4"
}