{
  "resource": {
    "resourceType": "Organization",
    "id": "c9445f55-10c9-5267-968c-59ce316b4f38",
    "name": "ATHENA TRAINING",
    "endpoint": [
      {
        "reference": "Endpoint/27a4e967-47aa-5a9c-a572-b8297ee268a2"
      },
      {
        "reference": "Endpoint/79dce611-05be-5a0b-9cae-ea9a003cc940"
      }
    ],
    "identifier": [
      {
        "system": "http://hl7.org/fhir/sid/us-npi",
        "value": "1558411934"
      }
    ],
    "address": [
      {
        "line": [
          "FHH"
        ],
        "city": "FREDERICK",
        "state": "MD",
        "postalCode": "21701-4506"
      },
      {
        "line": [
          "77 THOMAS JOHNSON DR STE H"
        ],
        "city": "FREDERICK",
        "state": "MD",
        "postalCode": "21702-4893"
      },
      {
        "line": [
          "26005 RIDGE RD"
        ],
        "city": "DAMASCUS",
        "state": "MD",
        "postalCode": "20872-1899"
      },
      {
        "line": [
          "26005 Ridge Road",
          "Suite 200"
        ],
        "city": "DAMASCUS",
        "state": "MD",
        "postalCode": "20872-1892"
      },
      {
        "line": [
          "26005 RIDGE ROAD"
        ],
        "city": "DAMASCUS",
        "state": "MD",
        "postalCode": "20872-1892"
      },
      {
        "line": [
          "26005 Ridge Rd",
          "Suite 200"
        ],
        "city": "DAMASCUS",
        "state": "MD",
        "postalCode": "20872-1111"
      },
      {
        "line": [
          "ADVANTIA"
        ],
        "city": "FREDERICK",
        "state": "MD",
        "postalCode": "21701-1234"
      },
      {
        "line": [
          "26005 RIDGE ROAD"
        ],
        "city": "DAMASCUS",
        "state": "MD",
        "postalCode": "20872-1899"
      },
      {
        "line": [
          "26005 Ridge Road"
        ],
        "city": "DAMASCUS",
        "state": "MD",
        "postalCode": "20872-1899"
      },
      {
        "line": [
          "SURG BLOCK - SGAH",
          "9901 Medical Center Drive"
        ],
        "city": "ROCKVILLE",
        "state": "MD",
        "postalCode": "20850-3357"
      },
      {
        "line": [
          "77 Thomas Johnson Drive",
          "Suite J"
        ],
        "city": "FREDERICK",
        "state": "MD",
        "postalCode": "21702-4892"
      },
      {
        "line": [
          "26005 Ridge Rd",
          "Suite 200"
        ],
        "city": "DAMASCUS",
        "state": "MD",
        "postalCode": "20872-1234"
      },
      {
        "line": [
          "SGAH"
        ],
        "city": "FREDERICK",
        "state": "MD",
        "postalCode": "21701-1234"
      },
      {
        "line": [
          "555 Quince Orchard Road",
          "Suite 410"
        ],
        "city": "GAITHERSBURG",
        "state": "MD",
        "postalCode": "20878-1437"
      },
      {
        "line": [
          "11921 ROCKVILLE PIKE",
          "STE 400"
        ],
        "city": "ROCKVILLE",
        "state": "MD",
        "postalCode": "20852-2757"
      }
    ],
    "extension": [
      {
        "url": "https://fhir.athena.io/StructureDefinition/ah-practice",
        "valueReference": {
          "reference": "Organization/a-1.Practice-17360"
        }
      },
      {
        "url": "https://fhir.athena.io/StructureDefinition/ah-brand",
        "valueReference": {
          "reference": "Organization/a-17360.Brand-2"
        }
      }
    ]
  },
  "fullUrl": "urn:uuid:c9445f55-10c9-5267-968c-59ce316b4f38"
}