{
  "resource": {
    "resourceType": "Organization",
    "id": "79c776d8-d035-5423-9cd7-50fe93f46ce9",
    "name": "Flowers Hospital Physicians",
    "endpoint": [
      {
        "reference": "Endpoint/27a4e967-47aa-5a9c-a572-b8297ee268a2"
      },
      {
        "reference": "Endpoint/8400a602-c0f6-52bc-a875-d3722e7bbc94"
      }
    ],
    "identifier": [
      {
        "system": "http://hl7.org/fhir/sid/us-npi",
        "value": "1972283828"
      }
    ],
    "address": [
      {
        "line": [
          "27103 PACIFIC TERRACE DRIVE"
        ],
        "city": "MISSION VIEJO",
        "state": "CA",
        "postalCode": "92692-5103"
      },
      {
        "line": [
          "27103 PACIFIC TERRACE DR"
        ],
        "city": "MISSION VIEJO",
        "state": "CA",
        "postalCode": "92692-5013"
      },
      {
        "line": [
          "9 LAKEWOOD RETREAT"
        ],
        "city": "SAVANNAH",
        "state": "GA",
        "postalCode": "31411-2539"
      },
      {
        "line": [
          "400 N EDWARDS ST"
        ],
        "city": "ENTERPRISE",
        "state": "AL",
        "postalCode": "36330-2510"
      },
      {
        "line": [
          "1248 S HARBOR CITY BLVD"
        ],
        "city": "MELBOURNE",
        "state": "FL",
        "postalCode": "32901-3242"
      },
      {
        "line": [
          "223 24TH ST"
        ],
        "city": "SANTA MONICA",
        "state": "CA",
        "postalCode": "90402-2515"
      },
      {
        "line": [
          "74 FORSTER AVE"
        ],
        "city": "MOUNT VERNON",
        "state": "NY",
        "postalCode": "10552-3409"
      },
      {
        "line": [
          "4370 W MAIN ST"
        ],
        "city": "DOTHAN",
        "state": "AL",
        "postalCode": "36305-1056"
      }
    ],
    "extension": [
      {
        "url": "https://fhir.athena.io/StructureDefinition/ah-practice",
        "valueReference": {
          "reference": "Organization/a-1.Practice-3326"
        }
      },
      {
        "url": "https://fhir.athena.io/StructureDefinition/ah-brand",
        "valueReference": {
          "reference": "Organization/a-3326.Brand-4"
        }
      }
    ]
  },
  "fullUrl": "urn:uuid:79c776d8-d035-5423-9cd7-50fe93f46ce9"
}