{
  "resource": {
    "resourceType": "Organization",
    "id": "dda5ee90-d05e-5bd7-a31a-dc4b0856770d",
    "name": "Pediatric Neurology Therapeutics",
    "endpoint": [
      {
        "reference": "Endpoint/27a4e967-47aa-5a9c-a572-b8297ee268a2"
      },
      {
        "reference": "Endpoint/6927b629-02c1-5040-b4f8-28057826efe8"
      }
    ],
    "identifier": [
      {
        "system": "http://hl7.org/fhir/sid/us-npi",
        "value": "1801288535"
      },
      {
        "system": "http://hl7.org/fhir/sid/us-npi",
        "value": "1619554680"
      },
      {
        "system": "http://hl7.org/fhir/sid/us-npi",
        "value": "1053481929"
      },
      {
        "system": "http://hl7.org/fhir/sid/us-npi",
        "value": "1518085539"
      },
      {
        "system": "http://hl7.org/fhir/sid/us-npi",
        "value": "1104589365"
      }
    ],
    "address": [
      {
        "line": [
          "611 N Brand Blvd",
          "ste 100"
        ],
        "city": "SAN DIEGO",
        "state": "CA",
        "postalCode": "92103-1221"
      },
      {
        "line": [
          "345 N MAIN ST STE 260"
        ],
        "city": "WEST HARTFORD",
        "state": "CT",
        "postalCode": "06117-2508"
      },
      {
        "line": [
          "126 MONROE TPKE STE 210"
        ],
        "city": "TRUMBULL",
        "state": "CT",
        "postalCode": "06611-1300"
      },
      {
        "line": [
          "859 WILLARD ST STE 400"
        ],
        "city": "QUINCY",
        "state": "MA",
        "postalCode": "02169-7469"
      },
      {
        "line": [
          "7525 Metropolitan Drive",
          "Suite 300-302"
        ],
        "city": "SAN DIEGO",
        "state": "CA",
        "postalCode": "92108-4404"
      },
      {
        "line": [
          "30131 TOWN CENTER DR STE 135"
        ],
        "city": "LAGUNA NIGUEL",
        "state": "CA",
        "postalCode": "92677-2010"
      },
      {
        "line": [
          "120 N OAK ST"
        ],
        "city": "HINSDALE",
        "state": "IL",
        "postalCode": "60521-3829"
      },
      {
        "line": [
          "67 S BEDFORD ST STE 101W"
        ],
        "city": "BURLINGTON",
        "state": "MA",
        "postalCode": "01803-5152"
      },
      {
        "line": [
          "910 BOSTON TPKE STE 3"
        ],
        "city": "SHREWSBURY",
        "state": "MA",
        "postalCode": "01545-3396"
      },
      {
        "line": [
          "6160 CORNERSTONE CT E STE 100"
        ],
        "city": "SAN DIEGO",
        "state": "CA",
        "postalCode": "92121-3724"
      },
      {
        "line": [
          "2255 Enterprise Dr"
        ],
        "city": "westchester",
        "state": "IL",
        "postalCode": "60454-5812"
      },
      {
        "line": [
          "4055 TECHNOLOGY FOREST BLVD STE 100"
        ],
        "city": "SPRING",
        "state": "TX",
        "postalCode": "77381-2008"
      },
      {
        "line": [
          "4000 CENTRE GREEN WAY STE 180"
        ],
        "city": "CARY",
        "state": "NC",
        "postalCode": "27513-5786"
      },
      {
        "line": [
          "2625 Townsgate Rd",
          "ste 102"
        ],
        "city": "WESTLAKE VILLAGE",
        "state": "CA",
        "postalCode": "91361-5751"
      },
      {
        "line": [
          "2244 W 95TH ST STE 102"
        ],
        "city": "NAPERVILLE",
        "state": "IL",
        "postalCode": "60564-7902"
      },
      {
        "line": [
          "6160 Cornerstone Ct E Ste 100"
        ],
        "city": "SAN DIEGO",
        "state": "CA",
        "postalCode": "92121-3724"
      },
      {
        "line": [
          "5085 W Park Blvd",
          "Ste 300"
        ],
        "city": "PLANO",
        "state": "TX",
        "postalCode": "75093-2000"
      },
      {
        "line": [
          "95 Eastern Ave STE 8"
        ],
        "city": "DEDHAM",
        "state": "MA",
        "postalCode": "02026-4582"
      },
      {
        "line": [
          "2255 Enterprise Dr",
          "ste 5501"
        ],
        "city": "westchester",
        "state": "IL",
        "postalCode": "60454-5812"
      },
      {
        "line": [
          "95 Eastern Ave STe 8"
        ],
        "city": "DEDHAM",
        "state": "MA",
        "postalCode": "02026-4582"
      },
      {
        "line": [
          "4848 E Cactus Rd",
          "STE 940"
        ],
        "city": "SCOTTSDALE",
        "state": "AZ",
        "postalCode": "85254-4164"
      },
      {
        "line": [
          "6800 JERICHO TPKE"
        ],
        "city": "SYOSSET",
        "state": "NY",
        "postalCode": "11791-4436"
      },
      {
        "line": [
          "4848 E CACTUS RD STE 940"
        ],
        "city": "SCOTTSDALE",
        "state": "AZ",
        "postalCode": "85254-4164"
      },
      {
        "line": [
          "5870 EL CAMINO REAL",
          "Ste 101"
        ],
        "city": "CARLSBAD",
        "state": "CA",
        "postalCode": "92008-8816"
      },
      {
        "line": [
          "5870 EL CAMINO REAL",
          "ste 101"
        ],
        "city": "CARLSBAD",
        "state": "CA",
        "postalCode": "92008-8810"
      },
      {
        "line": [
          "6047 TYVOLA GLEN CIR"
        ],
        "city": "CHARLOTTE",
        "state": "NC",
        "postalCode": "28217-6431"
      },
      {
        "line": [
          "7525 Metropolitan Drive",
          "Suite 302"
        ],
        "city": "SAN DIEGO",
        "state": "CA",
        "postalCode": "92108-4404"
      },
      {
        "line": [
          "7525 Metropolitan Drive"
        ],
        "city": "SAN DIEGO",
        "state": "CA",
        "postalCode": "92108-4404"
      },
      {
        "line": [
          "2500 REDHILL AVE STE 100"
        ],
        "city": "SANTA ANA",
        "state": "CA",
        "postalCode": "92705-5518"
      },
      {
        "line": [
          "21515 Hawthorne Blvd"
        ],
        "city": "TORRANCE",
        "state": "CA",
        "postalCode": "90503-6624"
      },
      {
        "line": [
          "133 E BRUSH HILL RD"
        ],
        "city": "ELMHURST",
        "state": "IL",
        "postalCode": "60126-5659"
      },
      {
        "line": [
          "611 N Brand Blvd",
          "ste 100"
        ],
        "city": "GLENDALE",
        "state": "CA",
        "postalCode": "91203-1221"
      },
      {
        "line": [
          "9 CENTENNIAL DR",
          "SUITE 202"
        ],
        "city": "PEABODY",
        "state": "MA",
        "postalCode": "01960-7939"
      },
      {
        "line": [
          "84 MYRON ST"
        ],
        "city": "WEST SPRINGFIELD",
        "state": "MA",
        "postalCode": "01089-1496"
      },
      {
        "line": [
          "3815 HIGHLAND AVE"
        ],
        "city": "DOWNERS GROVE",
        "state": "IL",
        "postalCode": "60515-1500"
      },
      {
        "line": [
          "35 COPPS HILL RD STE 6"
        ],
        "city": "RIDGEFIELD",
        "state": "CT",
        "postalCode": "06877-4041"
      },
      {
        "line": [
          "2255 Enterprise Dr",
          "STE 5501"
        ],
        "city": "OAK LAWN",
        "state": "IL",
        "postalCode": "60454-5812"
      },
      {
        "line": [
          "2255 Enterprise Dr",
          "ste 5501"
        ],
        "city": "WESTCHESTER",
        "state": "IL",
        "postalCode": "60154-5812"
      },
      {
        "line": [
          "801 S WASHINGTON ST"
        ],
        "city": "NAPERVILLE",
        "state": "IL",
        "postalCode": "60540-7430"
      },
      {
        "line": [
          "4000 Civic Center Dr"
        ],
        "city": "SAN RAFAEL",
        "state": "CA",
        "postalCode": "94903-4129"
      },
      {
        "line": [
          "830 MORRIS TPKE STE 429"
        ],
        "city": "SHORT HILLS",
        "state": "NJ",
        "postalCode": "07078-2620"
      },
      {
        "line": [
          "2255 ENTERPRISE DR",
          "ste 5501"
        ],
        "city": "WESTCHESTER",
        "state": "IL",
        "postalCode": "60154-5812"
      },
      {
        "line": [
          "1320 WILLOW PASS RD STE 600"
        ],
        "city": "CONCORD",
        "state": "CA",
        "postalCode": "94520-5292"
      },
      {
        "line": [
          "67A Mountain Boulevard Ext. 2nd Floor, Unit C"
        ],
        "city": "WARREN",
        "state": "NJ",
        "postalCode": "07059-5138"
      },
      {
        "line": [
          "2625 Townsgate Rd"
        ],
        "city": "WESTLAKE VILLAGE",
        "state": "CA",
        "postalCode": "91361-5751"
      },
      {
        "line": [
          "5085 W PARK BLVD STE 300"
        ],
        "city": "PLANO",
        "state": "TX",
        "postalCode": "75093-2000"
      }
    ],
    "extension": [
      {
        "url": "https://fhir.athena.io/StructureDefinition/ah-practice",
        "valueReference": {
          "reference": "Organization/a-1.Practice-14973"
        }
      },
      {
        "url": "https://fhir.athena.io/StructureDefinition/ah-brand",
        "valueReference": {
          "reference": "Organization/a-14973.Brand-8"
        }
      }
    ]
  },
  "fullUrl": "urn:uuid:dda5ee90-d05e-5bd7-a31a-dc4b0856770d"
}