{
  "resource": {
    "resourceType": "Organization",
    "id": "cf338688-2dc9-5770-8fa9-9893a2572762",
    "name": "Brazos Dialysis Rosenberg",
    "endpoint": [
      {
        "reference": "Endpoint/27a4e967-47aa-5a9c-a572-b8297ee268a2"
      },
      {
        "reference": "Endpoint/e0206574-02c9-5f04-970c-b0ead9474a16"
      }
    ],
    "identifier": [
      {
        "system": "http://hl7.org/fhir/sid/us-npi",
        "value": "1740601244"
      }
    ],
    "address": [
      {
        "line": [
          "7600 Beechnut St"
        ],
        "city": "HOUSTON",
        "state": "TX",
        "postalCode": "77074-4302"
      },
      {
        "line": [
          "6886 S HWY 6"
        ],
        "city": "HOUSTON",
        "state": "TX",
        "postalCode": "77083-3302"
      },
      {
        "line": [
          "1730 B F Terry Blvd",
          "#1120"
        ],
        "city": "ROSENBERG",
        "state": "TX",
        "postalCode": "77471-8733"
      },
      {
        "line": [
          "7622 branford place"
        ],
        "city": "SUGAR LAND",
        "state": "TX",
        "postalCode": "77479-3759"
      },
      {
        "line": [
          "145 PROMENADE WAY STE 5"
        ],
        "city": "SUGAR LAND",
        "state": "TX",
        "postalCode": "77479-7225"
      },
      {
        "line": [
          "7505 Main St , Ste 120"
        ],
        "city": "HOUSTON",
        "state": "TX",
        "postalCode": "77030-4523"
      },
      {
        "line": [
          "11929 West Airport Blvd Suite 100"
        ],
        "city": "STAFFORD",
        "state": "TX",
        "postalCode": "77477-2451"
      },
      {
        "line": [
          "145 Promenade Way",
          "suite 310"
        ],
        "city": "SUGAR LAND",
        "state": "TX",
        "postalCode": "77479-0001"
      },
      {
        "line": [
          "13311 PIKE RD STE E"
        ],
        "city": "STAFFORD",
        "state": "TX",
        "postalCode": "77477-3923"
      },
      {
        "line": [
          "2222 greenhouse rd"
        ],
        "city": "HOUSTON",
        "state": "TX",
        "postalCode": "77084-7287"
      },
      {
        "line": [
          "8700 S Gessner Rd Ste 300"
        ],
        "city": "HOUSTON",
        "state": "TX",
        "postalCode": "77074-2916"
      },
      {
        "line": [
          "8181 N Stadium Drive #201"
        ],
        "city": "HOUSTON",
        "state": "TX",
        "postalCode": "77054-1846"
      },
      {
        "line": [
          "5603 Highway 6"
        ],
        "city": "MISSOURI CITY",
        "state": "TX",
        "postalCode": "77459-4189"
      },
      {
        "line": [
          "14800 Westheimer Rd Ste A",
          "null"
        ],
        "city": "HOUSTON",
        "state": "TX",
        "postalCode": "77082-1675"
      },
      {
        "line": [
          "103 W Ahldag Ave St"
        ],
        "city": "WHARTON",
        "state": "TX",
        "postalCode": "77488-2407"
      },
      {
        "line": [
          "4675 SWEETWATER BLVD B"
        ],
        "city": "SUGAR LAND",
        "state": "TX",
        "postalCode": "77479-3012"
      },
      {
        "line": [
          "1445 NORTH LOOP WEST"
        ],
        "city": "HOUSTON",
        "state": "TX",
        "postalCode": "77008-1861"
      },
      {
        "line": [
          "6514 US-90 ALT # 103"
        ],
        "city": "SUGAR LAND",
        "state": "TX",
        "postalCode": "77498-2538"
      },
      {
        "line": [
          "14412 Bellaire Blvd"
        ],
        "city": "HOUSTON",
        "state": "TX",
        "postalCode": "77083-7520"
      },
      {
        "line": [
          "13444 Southwest Freeway",
          "suite 1A"
        ],
        "city": "SUGAR LAND",
        "state": "TX",
        "postalCode": "77478-4054"
      },
      {
        "line": [
          "4751 W Fuqua St"
        ],
        "city": "HOUSTON",
        "state": "TX",
        "postalCode": "77045-6104"
      },
      {
        "line": [
          "12220 Murphy Rd Suite R"
        ],
        "city": "STAFFORD",
        "state": "TX",
        "postalCode": "77477-2410"
      },
      {
        "line": [
          "5200 VIRGINIA WAY"
        ],
        "city": "BRENTWOOD",
        "state": "TN",
        "postalCode": "37027-7569"
      },
      {
        "line": [
          "4675 Sweet water Blvd",
          "Suite B"
        ],
        "city": "SUGAR LAND",
        "state": "TX",
        "postalCode": "77479-3012"
      },
      {
        "line": [
          "5672 Hwy 6"
        ],
        "city": "MISSOURI CITY",
        "state": "TX",
        "postalCode": "77459-4188"
      },
      {
        "line": [
          "5314 Dashwood Dr"
        ],
        "city": "HOUSTON",
        "state": "TX",
        "postalCode": "77081-4603"
      },
      {
        "line": [
          "8520 south braeswood blvd"
        ],
        "city": "HOUSTON",
        "state": "TX",
        "postalCode": "77071-1108"
      },
      {
        "line": [
          "12919 Southwest Fwy",
          "#138"
        ],
        "city": "STAFFORD",
        "state": "TX",
        "postalCode": "77477-4122"
      },
      {
        "line": [
          "2733 1st St"
        ],
        "city": "ROSENBERG",
        "state": "TX",
        "postalCode": "77471-5803"
      },
      {
        "line": [
          "1480 KATY FLEWELLEN RD"
        ],
        "city": "KATY",
        "state": "TX",
        "postalCode": "77494-6349"
      },
      {
        "line": [
          "27720a TX-249,"
        ],
        "city": "TOMBALL",
        "state": "TX",
        "postalCode": "77375-6472"
      },
      {
        "line": [
          "11353 Sugar Park Ln"
        ],
        "city": "SUGAR LAND",
        "state": "TX",
        "postalCode": "77478-3845"
      },
      {
        "line": [
          "5920 Renwick Dr Ste A"
        ],
        "city": "HOUSTON",
        "state": "TX",
        "postalCode": "77081-0004"
      },
      {
        "line": [
          "1107 Soldiers Field Dr."
        ],
        "city": "SUGAR LAND",
        "state": "TX",
        "postalCode": "77479-4002"
      },
      {
        "line": [
          "12141 Richmond Ave"
        ],
        "city": "HOUSTON",
        "state": "TX",
        "postalCode": "77082-2408"
      },
      {
        "line": [
          "16035 LEXINGTON BLVD"
        ],
        "city": "SUGAR LAND",
        "state": "TX",
        "postalCode": "77479-2316"
      },
      {
        "line": [
          "7746 hwy 6 suite c"
        ],
        "city": "MISSOURI CITY",
        "state": "TX",
        "postalCode": "77459-4780"
      },
      {
        "line": [
          "9340 Hwy 6 , Ste 400"
        ],
        "city": "MISSOURI CITY",
        "state": "TX",
        "postalCode": "77459-5132"
      },
      {
        "line": [
          "1400 Creek way dr",
          "suite 211"
        ],
        "city": "SUGAR LAND",
        "state": "TX",
        "postalCode": "77478-4072"
      },
      {
        "line": [
          "9223 Broadway St Suite 109"
        ],
        "city": "PEARLAND",
        "state": "TX",
        "postalCode": "77584-9759"
      },
      {
        "line": [
          "12606 WESTPARK DR"
        ],
        "city": "HOUSTON",
        "state": "TX",
        "postalCode": "77082-5526"
      },
      {
        "line": [
          "15200 Southwest Fwy",
          "Suite 310"
        ],
        "city": "SUGAR LAND",
        "state": "TX",
        "postalCode": "77478-3864"
      },
      {
        "line": [
          "1705 Jackson St"
        ],
        "city": "RICHMOND",
        "state": "TX",
        "postalCode": "77469-3246"
      },
      {
        "line": [
          "16545 SOUTHWEST FWY"
        ],
        "city": "SUGAR LAND",
        "state": "TX",
        "postalCode": "77479-2891"
      },
      {
        "line": [
          "1107 SOLDIERS FIELD DR"
        ],
        "city": "SUGAR LAND",
        "state": "TX",
        "postalCode": "77479-4002"
      },
      {
        "line": [
          "3819 CARTWRIGHT RD"
        ],
        "city": "MISSOURI CITY",
        "state": "TX",
        "postalCode": "77459-2443"
      },
      {
        "line": [
          "4743 LEXINGTON BLVD"
        ],
        "city": "MISSOURI CITY",
        "state": "TX",
        "postalCode": "77459-2825"
      }
    ],
    "extension": [
      {
        "url": "https://fhir.athena.io/StructureDefinition/ah-practice",
        "valueReference": {
          "reference": "Organization/a-1.Practice-11569"
        }
      },
      {
        "url": "https://fhir.athena.io/StructureDefinition/ah-brand",
        "valueReference": {
          "reference": "Organization/a-11569.Brand-1"
        }
      }
    ]
  },
  "fullUrl": "urn:uuid:cf338688-2dc9-5770-8fa9-9893a2572762"
}