{
  "resource": {
    "resourceType": "Organization",
    "id": "f4cc45a3-4989-55ca-a1a9-0093d4b0f64b",
    "name": "MEDEXPRESS URGENT CARE ILLINOIS P.C.",
    "endpoint": [
      {
        "reference": "Endpoint/27a4e967-47aa-5a9c-a572-b8297ee268a2"
      },
      {
        "reference": "Endpoint/f7a3c55b-ea0a-5f28-91a8-da2e4cfed902"
      }
    ],
    "identifier": [
      {
        "system": "http://hl7.org/fhir/sid/us-npi",
        "value": "1033574256"
      }
    ],
    "address": [
      {
        "line": [
          "2524 N. Illinois ST"
        ],
        "city": "Swansea",
        "state": "IL",
        "postalCode": "62226-2353"
      },
      {
        "line": [
          "804 S Route 59",
          "Suite 110"
        ],
        "city": "NAPERVILLE",
        "state": "IL",
        "postalCode": "60540-9112"
      },
      {
        "line": [
          "226 S Randall Rd"
        ],
        "city": "ALGONQUIN",
        "state": "IL",
        "postalCode": "60102-9775"
      },
      {
        "line": [
          "601 E Roosevelt Road"
        ],
        "city": "LOMBARD",
        "state": "IL",
        "postalCode": "60148-4740"
      },
      {
        "line": [
          "326 N 24th Street"
        ],
        "city": "QUINCY",
        "state": "IL",
        "postalCode": "62301-3140"
      },
      {
        "line": [
          "515 Belt Line Road"
        ],
        "city": "COLLINSVILLE",
        "state": "IL",
        "postalCode": "62234-4411"
      },
      {
        "line": [
          "1711 W Highway 50"
        ],
        "city": "O FALLON",
        "state": "IL",
        "postalCode": "62269-1681"
      },
      {
        "line": [
          "1560 75th Street"
        ],
        "city": "DOWNERS GROVE",
        "state": "IL",
        "postalCode": "60516-6207"
      },
      {
        "line": [
          "2524 N. ILLINOIS ST"
        ],
        "city": "SWANSEA",
        "state": "IL",
        "postalCode": "62226-2353"
      }
    ],
    "extension": [
      {
        "url": "https://fhir.athena.io/StructureDefinition/ah-practice",
        "valueReference": {
          "reference": "Organization/a-1.Practice-3908"
        }
      },
      {
        "url": "https://fhir.athena.io/StructureDefinition/ah-brand",
        "valueReference": {
          "reference": "Organization/a-3908.Brand-1"
        }
      }
    ]
  },
  "fullUrl": "urn:uuid:f4cc45a3-4989-55ca-a1a9-0093d4b0f64b"
}