{
  "resource": {
    "resourceType": "Organization",
    "id": "f756f325-3655-570a-964b-8f4ce841377d",
    "name": "YMCA of Greater Dayton",
    "endpoint": [
      {
        "reference": "Endpoint/27a4e967-47aa-5a9c-a572-b8297ee268a2"
      },
      {
        "reference": "Endpoint/abb5f7d5-468e-5806-be46-fb2282afef02"
      }
    ],
    "identifier": [
      {
        "system": "http://hl7.org/fhir/sid/us-npi",
        "value": "1366999518"
      }
    ],
    "address": [
      {
        "line": [
          "4545 Marshall Rd"
        ],
        "city": "DAYTON",
        "state": "OH",
        "postalCode": "45429-5716"
      },
      {
        "line": [
          "900 S Alex Rd"
        ],
        "city": "DAYTON",
        "state": "OH",
        "postalCode": "45449-2108"
      },
      {
        "line": [
          "300 S Central Ave"
        ],
        "city": "FAIRBORN",
        "state": "OH",
        "postalCode": "45324-4721"
      },
      {
        "line": [
          "316 N Wilkinson St"
        ],
        "city": "DAYTON",
        "state": "OH",
        "postalCode": "45402-3060"
      },
      {
        "line": [
          "3535 Pentagon Blvd."
        ],
        "city": "DAYTON",
        "state": "OH",
        "postalCode": "45431-1705"
      },
      {
        "line": [
          "1141 N. Monroe Dr"
        ],
        "city": "XENIA",
        "state": "OH",
        "postalCode": "45385-1234"
      },
      {
        "line": [
          "450 Washington-Jackson Rd"
        ],
        "city": "EATON",
        "state": "OH",
        "postalCode": "45320-0301"
      },
      {
        "line": [
          "118 W. 1st Street Suite 300"
        ],
        "city": "DAYTON",
        "state": "OH",
        "postalCode": "45402-1107"
      },
      {
        "line": [
          "300 South Limestone Street"
        ],
        "city": "SPRINGFIELD",
        "state": "OH",
        "postalCode": "45505-1070"
      },
      {
        "line": [
          "88 Remick Blvd"
        ],
        "city": "SPRINGBORO",
        "state": "OH",
        "postalCode": "45066-9168"
      },
      {
        "line": [
          "7251 Shull Rd"
        ],
        "city": "DAYTON",
        "state": "OH",
        "postalCode": "45424-1234"
      },
      {
        "line": [
          "5252 Salem Ave"
        ],
        "city": "DAYTON",
        "state": "OH",
        "postalCode": "45426-1234"
      },
      {
        "line": [
          "1200 W National Rd"
        ],
        "city": "CLAYTON",
        "state": "OH",
        "postalCode": "45315-9504"
      },
      {
        "line": [
          "1699 Deerfield Road"
        ],
        "city": "LEBANON",
        "state": "OH",
        "postalCode": "45036-9215"
      },
      {
        "line": [
          "135 E Church St"
        ],
        "city": "XENIA",
        "state": "OH",
        "postalCode": "45385-3003"
      },
      {
        "line": [
          "506 Main Street"
        ],
        "city": "DAYTON",
        "state": "OH",
        "postalCode": "45426-1234"
      }
    ],
    "extension": [
      {
        "url": "https://fhir.athena.io/StructureDefinition/ah-practice",
        "valueReference": {
          "reference": "Organization/a-1.Practice-14268"
        }
      },
      {
        "url": "https://fhir.athena.io/StructureDefinition/ah-brand",
        "valueReference": {
          "reference": "Organization/a-14268.Brand-1"
        }
      }
    ]
  },
  "fullUrl": "urn:uuid:f756f325-3655-570a-964b-8f4ce841377d"
}