{
  "resource": {
    "resourceType": "Organization",
    "id": "91d3fcf2-b956-5b53-b1c8-0ad0bcdc7603",
    "name": "THE KIDNEY INSTITUTE",
    "endpoint": [
      {
        "reference": "Endpoint/27a4e967-47aa-5a9c-a572-b8297ee268a2"
      },
      {
        "reference": "Endpoint/25145071-8ff0-51f5-9055-3e522fefa8a5"
      }
    ],
    "identifier": [
      {
        "system": "http://hl7.org/fhir/sid/us-npi",
        "value": "1437104429"
      }
    ],
    "address": [
      {
        "line": [
          "303 HOLLOW TREE LN"
        ],
        "city": "HOUSTON",
        "state": "TX",
        "postalCode": "77090-2803"
      },
      {
        "line": [
          "18220 STATE HIGHWAY 249"
        ],
        "city": "HOUSTON",
        "state": "TX",
        "postalCode": "77070-4347"
      },
      {
        "line": [
          "2254 HOLCOMBE BLVD"
        ],
        "city": "HOUSTON",
        "state": "TX",
        "postalCode": "77030-4224"
      },
      {
        "line": [
          "6445 MAIN ST # 26"
        ],
        "city": "HOUSTON",
        "state": "TX",
        "postalCode": "77030-1502"
      },
      {
        "line": [
          "6441 MAIN ST"
        ],
        "city": "HOUSTON",
        "state": "TX",
        "postalCode": "77030-1502"
      },
      {
        "line": [
          "5435 ALDINE MAIL ROUTE RD"
        ],
        "city": "HOUSTON",
        "state": "TX",
        "postalCode": "77039-4921"
      },
      {
        "line": [
          "155 SCHOOL ST STE 220"
        ],
        "city": "TOMBALL",
        "state": "TX",
        "postalCode": "77375-5382"
      },
      {
        "line": [
          "540 INTERSTATE 45 S STE A"
        ],
        "city": "HUNTSVILLE",
        "state": "TX",
        "postalCode": "77340-5721"
      },
      {
        "line": [
          "12120 Jones Rd , Ste G"
        ],
        "city": "HOUSTON",
        "state": "TX",
        "postalCode": "77070-5280"
      },
      {
        "line": [
          "10655 Eastex Freeway"
        ],
        "city": "HOUSTON",
        "state": "TX",
        "postalCode": "77093-4323"
      },
      {
        "line": [
          "9200 PINECROFT DR STE 100"
        ],
        "city": "SPRING",
        "state": "TX",
        "postalCode": "77380-3284"
      },
      {
        "line": [
          "8925 HIGHWAY 6 N STE 100"
        ],
        "city": "HOUSTON",
        "state": "TX",
        "postalCode": "77095-3396"
      },
      {
        "line": [
          "20435 CYPRESSWOOD DR"
        ],
        "city": "CYPRESS",
        "state": "TX",
        "postalCode": "77433-5846"
      },
      {
        "line": [
          "607 Timberdale Ln , Ste 100"
        ],
        "city": "HOUSTON",
        "state": "TX",
        "postalCode": "77090-3043"
      },
      {
        "line": [
          "1445 NORTH LOOP W STE 720"
        ],
        "city": "HOUSTON",
        "state": "TX",
        "postalCode": "77008-1676"
      },
      {
        "line": [
          "3203 FM 1960 RD W"
        ],
        "city": "HOUSTON",
        "state": "TX",
        "postalCode": "77068-3107"
      },
      {
        "line": [
          "12823 CAPRICORN ST"
        ],
        "city": "STAFFORD",
        "state": "TX",
        "postalCode": "77477-3914"
      },
      {
        "line": [
          "7272 N Shepherd Dr , Bldg B"
        ],
        "city": "HOUSTON",
        "state": "TX",
        "postalCode": "77091-2435"
      },
      {
        "line": [
          "8621 Fulton St"
        ],
        "city": "HOUSTON",
        "state": "TX",
        "postalCode": "77002-2021"
      },
      {
        "line": [
          "17200 ST LUKES WAY"
        ],
        "city": "THE WOODLANDS",
        "state": "TX",
        "postalCode": "77384-8007"
      },
      {
        "line": [
          "6560 FANNIN ST STE 1824"
        ],
        "city": "HOUSTON",
        "state": "TX",
        "postalCode": "77030-2735"
      },
      {
        "line": [
          "22999 HIGHWAY 59 N"
        ],
        "city": "KINGWOOD",
        "state": "TX",
        "postalCode": "77339-4412"
      },
      {
        "line": [
          "14700 FM 2100 RD"
        ],
        "city": "CROSBY",
        "state": "TX",
        "postalCode": "77532-9161"
      },
      {
        "line": [
          "27720a Tomball Pkwy"
        ],
        "city": "TOMBALL",
        "state": "TX",
        "postalCode": "77375-6472"
      },
      {
        "line": [
          "10505 JONES RD"
        ],
        "city": "HOUSTON",
        "state": "TX",
        "postalCode": "77065-4211"
      },
      {
        "line": [
          "324 FM 1960 RD STE 104"
        ],
        "city": "HOUSTON",
        "state": "TX",
        "postalCode": "77073-1887"
      },
      {
        "line": [
          "9110 Jones Rd , Ste 104"
        ],
        "city": "HOUSTON",
        "state": "TX",
        "postalCode": "77065-3964"
      },
      {
        "line": [
          "17191 St Luke's Way Ste 100"
        ],
        "city": "CONROE",
        "state": "TX",
        "postalCode": "77384-8043"
      },
      {
        "line": [
          "20320 Northwest Fwy , Ste 100"
        ],
        "city": "HOUSTON",
        "state": "TX",
        "postalCode": "77065-5643"
      },
      {
        "line": [
          "16750 RED OAK DR"
        ],
        "city": "HOUSTON",
        "state": "TX",
        "postalCode": "77090-2543"
      },
      {
        "line": [
          "21216 NORTHWEST FWY STE 280"
        ],
        "city": "CYPRESS",
        "state": "TX",
        "postalCode": "77429-0017"
      },
      {
        "line": [
          "26865 INTERSTATE 45 STE 100"
        ],
        "city": "SPRING",
        "state": "TX",
        "postalCode": "77380-4256"
      },
      {
        "line": [
          "455 SCHOOL ST STE 27"
        ],
        "city": "TOMBALL",
        "state": "TX",
        "postalCode": "77375-4595"
      },
      {
        "line": [
          "2817 MILLER RANCH RD STE 333"
        ],
        "city": "PEARLAND",
        "state": "TX",
        "postalCode": "77584-9722"
      },
      {
        "line": [
          "1644 RESEARCH FOREST DR, SUITE 150"
        ],
        "city": "SHENANDOAH",
        "state": "TX",
        "postalCode": "77381-4396"
      },
      {
        "line": [
          "1700 ROMANO PARK LN"
        ],
        "city": "HOUSTON",
        "state": "TX",
        "postalCode": "77090-2349"
      },
      {
        "line": [
          "6626 Antoine Dr"
        ],
        "city": "HOUSTON",
        "state": "TX",
        "postalCode": "77091-1206"
      },
      {
        "line": [
          "12430 State Highway 249 Ste H"
        ],
        "city": "HOUSTON",
        "state": "TX",
        "postalCode": "77086-3339"
      },
      {
        "line": [
          "10425 HUFFMEISTER RD STE 250"
        ],
        "city": "HOUSTON",
        "state": "TX",
        "postalCode": "77065-3430"
      },
      {
        "line": [
          "6720 Bertner Ave MC2114C"
        ],
        "city": "HOUSTON",
        "state": "TX",
        "postalCode": "77030-2604"
      },
      {
        "line": [
          "1900 NORTH LOOP W STE 200"
        ],
        "city": "HOUSTON",
        "state": "TX",
        "postalCode": "77018-8117"
      },
      {
        "line": [
          "24500 NORTHWEST FWY",
          "STE 110"
        ],
        "city": "CYPRESS",
        "state": "TX",
        "postalCode": "77429-2199"
      },
      {
        "line": [
          "710 CYPRESS CREEK PKWY"
        ],
        "city": "HOUSTON",
        "state": "TX",
        "postalCode": "77090-3402"
      },
      {
        "line": [
          "11297 FALLBROOK DR"
        ],
        "city": "HOUSTON",
        "state": "TX",
        "postalCode": "77065-4230"
      },
      {
        "line": [
          "11321 Fallbrook Dr"
        ],
        "city": "HOUSTON",
        "state": "TX",
        "postalCode": "77065-4232"
      },
      {
        "line": [
          "16910 Mathis Church Rd"
        ],
        "city": "HOUSTON",
        "state": "TX",
        "postalCode": "77090-3710"
      },
      {
        "line": [
          "13325 HARGRAVE RD STE 265"
        ],
        "city": "HOUSTON",
        "state": "TX",
        "postalCode": "77070-1190"
      },
      {
        "line": [
          "17201 INTERSTATE 45 S"
        ],
        "city": "CONROE",
        "state": "TX",
        "postalCode": "77385-3311"
      },
      {
        "line": [
          "123 Vision Park"
        ],
        "city": "SHENANDOAH",
        "state": "TX",
        "postalCode": "77384-3001"
      },
      {
        "line": [
          "2001 W 34TH ST"
        ],
        "city": "HOUSTON",
        "state": "TX",
        "postalCode": "77018-6108"
      },
      {
        "line": [
          "205 Hollow Tree Ln"
        ],
        "city": "HOUSTON",
        "state": "TX",
        "postalCode": "77090-2801"
      },
      {
        "line": [
          "11403 REGENCY GREEN DR"
        ],
        "city": "CYPRESS",
        "state": "TX",
        "postalCode": "77429-4706"
      },
      {
        "line": [
          "13311 PIKE RD"
        ],
        "city": "STAFFORD",
        "state": "TX",
        "postalCode": "77477-5111"
      },
      {
        "line": [
          "8515 FANNIN ST STE 190"
        ],
        "city": "HOUSTON",
        "state": "TX",
        "postalCode": "77054-4813"
      },
      {
        "line": [
          "72 Cypress Creek Pkwy"
        ],
        "city": "HOUSTON",
        "state": "TX",
        "postalCode": "77090-3531"
      },
      {
        "line": [
          "5230 FM 2920 RD"
        ],
        "city": "SPRING",
        "state": "TX",
        "postalCode": "77388-3003"
      },
      {
        "line": [
          "250 SCHOOL ST"
        ],
        "city": "TOMBALL",
        "state": "TX",
        "postalCode": "77375-4701"
      },
      {
        "line": [
          "2950 Fm 2920 Rd , Ste 100"
        ],
        "city": "SPRING",
        "state": "TX",
        "postalCode": "77388-3698"
      },
      {
        "line": [
          "605 HOLDERRIETH BLVD"
        ],
        "city": "TOMBALL",
        "state": "TX",
        "postalCode": "77375-6445"
      },
      {
        "line": [
          "2130 W Holcombe"
        ],
        "city": "HOUSTON",
        "state": "TX",
        "postalCode": "77030-3306"
      },
      {
        "line": [
          "9449 GROGANS MILL RD"
        ],
        "city": "SPRING",
        "state": "TX",
        "postalCode": "77380-3623"
      },
      {
        "line": [
          "27172 INTERSTATE 45 N"
        ],
        "city": "CONROE",
        "state": "TX",
        "postalCode": "77385-8719"
      },
      {
        "line": [
          "20180 CHASEWOOD PARK DR"
        ],
        "city": "HOUSTON",
        "state": "TX",
        "postalCode": "77070-1436"
      },
      {
        "line": [
          "13730 ALICE RD STE D"
        ],
        "city": "TOMBALL",
        "state": "TX",
        "postalCode": "77377-6364"
      },
      {
        "line": [
          "26321 NORTHWEST FWY STE 300"
        ],
        "city": "CYPRESS",
        "state": "TX",
        "postalCode": "77429-5766"
      },
      {
        "line": [
          "14512 Lee Rd"
        ],
        "city": "HUMBLE",
        "state": "TX",
        "postalCode": "77396-3425"
      },
      {
        "line": [
          "380 W Little York Rd"
        ],
        "city": "HOUSTON",
        "state": "TX",
        "postalCode": "77076-1303"
      },
      {
        "line": [
          "117 VISION PARK BLVD"
        ],
        "city": "CONROE",
        "state": "TX",
        "postalCode": "77384-3001"
      },
      {
        "line": [
          "102 VINTAGE PARK BLVD STE A BLDG L"
        ],
        "city": "HOUSTON",
        "state": "TX",
        "postalCode": "77070-4080"
      },
      {
        "line": [
          "235 Fm 1960 Rd W Ste 235C"
        ],
        "city": "HOUSTON",
        "state": "TX",
        "postalCode": "77090-3515"
      },
      {
        "line": [
          "2255 E MOSSY OAKS RD"
        ],
        "city": "SPRING",
        "state": "TX",
        "postalCode": "77389-1811"
      },
      {
        "line": [
          "15103 Mason Rd , Ste D-5"
        ],
        "city": "CYPRESS",
        "state": "TX",
        "postalCode": "77433-6755"
      },
      {
        "line": [
          "6565 Fannin St"
        ],
        "city": "HOUSTON",
        "state": "TX",
        "postalCode": "77030-2703"
      },
      {
        "line": [
          "9767 FM 1960 BYPASS RD W"
        ],
        "city": "HUMBLE",
        "state": "TX",
        "postalCode": "77338-4067"
      },
      {
        "line": [
          "2453 S BRAESWOOD BLVD STE 100"
        ],
        "city": "HOUSTON",
        "state": "TX",
        "postalCode": "77030-4305"
      },
      {
        "line": [
          "17400 ST LUKES WAY"
        ],
        "city": "THE WOODLANDS",
        "state": "TX",
        "postalCode": "77384-8036"
      },
      {
        "line": [
          "4400-a North Freeway Ste 100"
        ],
        "city": "HOUSTON",
        "state": "TX",
        "postalCode": "77022-3614"
      },
      {
        "line": [
          "7112 STUEBNER AIRLINE RD"
        ],
        "city": "HOUSTON",
        "state": "TX",
        "postalCode": "77091-2408"
      },
      {
        "line": [
          "6565 FANNIN ST"
        ],
        "city": "HOUSTON",
        "state": "TX",
        "postalCode": "77030-2703"
      },
      {
        "line": [
          "8787 Fallbrook Dr"
        ],
        "city": "HOUSTON",
        "state": "TX",
        "postalCode": "77064-3318"
      },
      {
        "line": [
          "13031 WORTHAM CENTER DR"
        ],
        "city": "HOUSTON",
        "state": "TX",
        "postalCode": "77065-5662"
      },
      {
        "line": [
          "200 S Rivershire Dr Ste 100"
        ],
        "city": "CONROE",
        "state": "TX",
        "postalCode": "77304-2976"
      },
      {
        "line": [
          "20171 CHASEWOOD PARK DR"
        ],
        "city": "HOUSTON",
        "state": "TX",
        "postalCode": "77070-1437"
      },
      {
        "line": [
          "18550 INTERSTATE 45 S"
        ],
        "city": "CONROE",
        "state": "TX",
        "postalCode": "77384-4119"
      },
      {
        "line": [
          "6720 BERTNER AVE"
        ],
        "city": "HOUSTON",
        "state": "TX",
        "postalCode": "77030-2604"
      },
      {
        "line": [
          "24730 STATE HIGHWAY 249 STE A"
        ],
        "city": "TOMBALL",
        "state": "TX",
        "postalCode": "77375-7726"
      },
      {
        "line": [
          "9350 Kirby Dr , Ste 110"
        ],
        "city": "HOUSTON",
        "state": "TX",
        "postalCode": "77054-2528"
      },
      {
        "line": [
          "21216 NORTHWEST FWY STE 320"
        ],
        "city": "CYPRESS",
        "state": "TX",
        "postalCode": "77429-4698"
      },
      {
        "line": [
          "1644 RESEARCH FOREST DR STE 150"
        ],
        "city": "SPRING",
        "state": "TX",
        "postalCode": "77381-4396"
      },
      {
        "line": [
          "9716 Jensen Dr"
        ],
        "city": "HOUSTON",
        "state": "TX",
        "postalCode": "77093-6302"
      },
      {
        "line": [
          "8181 N STADIUM DR"
        ],
        "city": "HOUSTON",
        "state": "TX",
        "postalCode": "77054-1846"
      },
      {
        "line": [
          "4427 Fm 1960 Rd W"
        ],
        "city": "HOUSTON",
        "state": "TX",
        "postalCode": "77068-3409"
      },
      {
        "line": [
          "20025 Chasewood Park Dr"
        ],
        "city": "HOUSTON",
        "state": "TX",
        "postalCode": "77070-1465"
      },
      {
        "line": [
          "9301 Pinecroft Dr , Ste 130"
        ],
        "city": "SPRING",
        "state": "TX",
        "postalCode": "77380-3178"
      }
    ],
    "extension": [
      {
        "url": "https://fhir.athena.io/StructureDefinition/ah-practice",
        "valueReference": {
          "reference": "Organization/a-1.Practice-19285"
        }
      },
      {
        "url": "https://fhir.athena.io/StructureDefinition/ah-brand",
        "valueReference": {
          "reference": "Organization/a-19285.Brand-4"
        }
      }
    ]
  },
  "fullUrl": "urn:uuid:91d3fcf2-b956-5b53-b1c8-0ad0bcdc7603"
}