{
  "resource": {
    "resourceType": "Organization",
    "id": "64d372f1-d6eb-55b1-9248-b9f7a5cd25de",
    "name": "WOMEN'S CENTER FOR UROGYNECOLOGY, OFFICE OF DR. HASHEMI",
    "endpoint": [
      {
        "reference": "Endpoint/27a4e967-47aa-5a9c-a572-b8297ee268a2"
      },
      {
        "reference": "Endpoint/b98d6e3e-2a4a-5cdc-8843-4bd2f0a61963"
      }
    ],
    "identifier": [
      {
        "system": "http://hl7.org/fhir/sid/us-npi",
        "value": "1720520141"
      }
    ],
    "address": [
      {
        "line": [
          "1798 N. GAREY AVENUE"
        ],
        "city": "POMONA",
        "state": "CA",
        "postalCode": "91767-2918"
      },
      {
        "line": [
          "17100 EUCLID"
        ],
        "city": "FOUNTAIN VALLEY",
        "state": "CA",
        "postalCode": "92708-4004"
      },
      {
        "line": [
          "1100 WEST STEWART DRIVE"
        ],
        "city": "ORANGE",
        "state": "CA",
        "postalCode": "92868-3891"
      },
      {
        "line": [
          "18111 Brookhurst St."
        ],
        "city": "FOUNTAIN VALLEY",
        "state": "CA",
        "postalCode": "92708-6728"
      },
      {
        "line": [
          "17100 EUCLID ST"
        ],
        "city": "FOUNTAIN VALLEY",
        "state": "CA",
        "postalCode": "92708-4004"
      },
      {
        "line": [
          "1000 WEST LA VETA"
        ],
        "city": "ORANGE",
        "state": "CA",
        "postalCode": "92868-4304"
      },
      {
        "line": [
          "1301 NORTH ROSE DRIVE"
        ],
        "city": "PLACENTIA",
        "state": "CA",
        "postalCode": "92870-3899"
      },
      {
        "line": [
          "ONE HOAG DRIVE"
        ],
        "city": "NEWPORT BEACH",
        "state": "CA",
        "postalCode": "92663-4162"
      },
      {
        "line": [
          "7677 CENTER AVE. SUITE 104"
        ],
        "city": "HUNTINGTON BEACH",
        "state": "CA",
        "postalCode": "92647-3030"
      },
      {
        "line": [
          "1910 ROYALTY DRIVE",
          "SUITE 312"
        ],
        "city": "POMONA",
        "state": "CA",
        "postalCode": "91767-3021"
      },
      {
        "line": [
          "520 Superior Avenue",
          "SUITE 200"
        ],
        "city": "NEWPORT BEACH",
        "state": "CA",
        "postalCode": "92663-3642"
      }
    ],
    "extension": [
      {
        "url": "https://fhir.athena.io/StructureDefinition/ah-practice",
        "valueReference": {
          "reference": "Organization/a-1.Practice-21472"
        }
      },
      {
        "url": "https://fhir.athena.io/StructureDefinition/ah-brand",
        "valueReference": {
          "reference": "Organization/a-21472.Brand-1"
        }
      }
    ]
  },
  "fullUrl": "urn:uuid:64d372f1-d6eb-55b1-9248-b9f7a5cd25de"
}