{
  "resource": {
    "resourceType": "Organization",
    "id": "a92fd3b1-c401-5a01-9f7f-83dddeac0d66",
    "name": "A O FOX Nursing Home",
    "endpoint": [
      {
        "reference": "Endpoint/27a4e967-47aa-5a9c-a572-b8297ee268a2"
      },
      {
        "reference": "Endpoint/e4fe96c6-f72f-5da7-8b4b-04e6c3f56c6c"
      }
    ],
    "identifier": [
      {
        "system": "http://hl7.org/fhir/sid/us-npi",
        "value": "1174035612"
      },
      {
        "system": "http://hl7.org/fhir/sid/us-npi",
        "value": "1588101745"
      },
      {
        "system": "http://hl7.org/fhir/sid/us-npi",
        "value": "1164076683"
      },
      {
        "system": "http://hl7.org/fhir/sid/us-npi",
        "value": "1720581473"
      },
      {
        "system": "http://hl7.org/fhir/sid/us-npi",
        "value": "1629698766"
      },
      {
        "system": "http://hl7.org/fhir/sid/us-npi",
        "value": "1659982551"
      },
      {
        "system": "http://hl7.org/fhir/sid/us-npi",
        "value": "1558874586"
      },
      {
        "system": "http://hl7.org/fhir/sid/us-npi",
        "value": "1083036651"
      },
      {
        "system": "http://hl7.org/fhir/sid/us-npi",
        "value": "1194223933"
      },
      {
        "system": "http://hl7.org/fhir/sid/us-npi",
        "value": "1588152649"
      },
      {
        "system": "http://hl7.org/fhir/sid/us-npi",
        "value": "1932728334"
      },
      {
        "system": "http://hl7.org/fhir/sid/us-npi",
        "value": "1902418007"
      },
      {
        "system": "http://hl7.org/fhir/sid/us-npi",
        "value": "1801399522"
      },
      {
        "system": "http://hl7.org/fhir/sid/us-npi",
        "value": "1407461080"
      }
    ],
    "address": [
      {
        "line": [
          "3128 BOX ELDER DRIVE CHEYENNE"
        ],
        "city": "CHEYENNE",
        "state": "WY",
        "postalCode": "82001-5808"
      },
      {
        "line": [
          "50 LANGMAID LN"
        ],
        "city": "BRADFORD",
        "state": "PA",
        "postalCode": "16701-3930"
      },
      {
        "line": [
          "2025 DESOTO ST"
        ],
        "city": "SHREVEPORT",
        "state": "LA",
        "postalCode": "71103-4717"
      },
      {
        "line": [
          "101 E WASHINGTON ST"
        ],
        "city": "SHENANDOAH",
        "state": "PA",
        "postalCode": "17976-1701"
      },
      {
        "line": [
          "3958 D BROWN PARK DR"
        ],
        "city": "HILLIARD",
        "state": "OH",
        "postalCode": "43026-1160"
      },
      {
        "line": [
          "41 HIGHLAND AVE"
        ],
        "city": "WINCHESTER",
        "state": "MA",
        "postalCode": "01890-1446"
      },
      {
        "line": [
          "901 45TH STREET"
        ],
        "city": "WEST PALM BEACH",
        "state": "FL",
        "postalCode": "33407-2413"
      },
      {
        "line": [
          "400 W WASHINGTON AVE"
        ],
        "city": "CHRISMAN",
        "state": "IL",
        "postalCode": "61924-1038"
      },
      {
        "line": [
          "1301 N ROSE DR"
        ],
        "city": "PLACENTIA",
        "state": "CA",
        "postalCode": "92870-3802"
      },
      {
        "line": [
          "122 12TH STREET EXT"
        ],
        "city": "PRINCETON",
        "state": "WV",
        "postalCode": "24740-2352"
      },
      {
        "line": [
          "900 EAST NINTH ST"
        ],
        "city": "METROPOLIS",
        "state": "IL",
        "postalCode": "62960-0843"
      },
      {
        "line": [
          "2800 10TH AVE N"
        ],
        "city": "BILLINGS",
        "state": "MT",
        "postalCode": "59101-0703"
      },
      {
        "line": [
          "3700 Highway 79"
        ],
        "city": "HOMER",
        "state": "LA",
        "postalCode": "71040-5144"
      },
      {
        "line": [
          "1154 ROUTE 30"
        ],
        "city": "TOWNSHEND",
        "state": "VT",
        "postalCode": "05353-9999"
      },
      {
        "line": [
          "1333 SOUTHVIEW DR"
        ],
        "city": "BLUEFIELD",
        "state": "WV",
        "postalCode": "24701-4317"
      },
      {
        "line": [
          "1000 W MORENO ST"
        ],
        "city": "PENSACOLA",
        "state": "FL",
        "postalCode": "32501-2316"
      },
      {
        "line": [
          "700 E BRIGHTON AVE"
        ],
        "city": "SYRACUSE",
        "state": "NY",
        "postalCode": "13205-2201"
      },
      {
        "line": [
          "700 S BLISS AVE"
        ],
        "city": "DUMAS",
        "state": "TX",
        "postalCode": "79029-4448"
      },
      {
        "line": [
          "400 29TH ST NE PUYALLUP, WA 98372"
        ],
        "city": "PUYALLUP",
        "state": "WA",
        "postalCode": "98372-6774"
      },
      {
        "line": [
          "200 E HARRISON ST"
        ],
        "city": "MEMPHIS",
        "state": "TX",
        "postalCode": "79245-4214"
      },
      {
        "line": [
          "2003 KOOTENAI HEALTH WAY"
        ],
        "city": "COEUR D ALENE",
        "state": "ID",
        "postalCode": "83814-6051"
      },
      {
        "line": [
          "15205 TRADITIONS LAKE PARKWAY"
        ],
        "city": "EDMOND",
        "state": "OK",
        "postalCode": "73013-1198"
      },
      {
        "line": [
          "900 EAST NINTH ST",
          "PO BOX 843"
        ],
        "city": "METROPOLIS",
        "state": "IL",
        "postalCode": "62960-0843"
      },
      {
        "line": [
          "2005 E 2700 S STE 200"
        ],
        "city": "SALT LAKE CITY",
        "state": "UT",
        "postalCode": "84109-1766"
      },
      {
        "line": [
          "111 RIVERS EDGE DR"
        ],
        "city": "MATAMORAS",
        "state": "PA",
        "postalCode": "18336-2057"
      },
      {
        "line": [
          "400 LOCUST ST, STE 400"
        ],
        "city": "DES MOINES",
        "state": "IA",
        "postalCode": "50309-2352"
      },
      {
        "line": [
          "1821 GROVE STREET MARYSVILLE, WA"
        ],
        "city": "MARYSVILLE",
        "state": "WA",
        "postalCode": "98270-4329"
      },
      {
        "line": [
          "1453 E BERT KOUNS INDUSTRIAL LOOP"
        ],
        "city": "SHREVEPORT",
        "state": "LA",
        "postalCode": "71105-6800"
      },
      {
        "line": [
          "8 DOCTORS LN"
        ],
        "city": "MACOMB",
        "state": "IL",
        "postalCode": "61455-3310"
      },
      {
        "line": [
          "1011 14TH AVE NW"
        ],
        "city": "ARDMORE",
        "state": "OK",
        "postalCode": "73401-1828"
      },
      {
        "line": [
          "814 W SOUTH AVE"
        ],
        "city": "MARYVILLE",
        "state": "MO",
        "postalCode": "64468-2772"
      },
      {
        "line": [
          "1275 MARVIN HANCOCK DR"
        ],
        "city": "JASPER",
        "state": "TX",
        "postalCode": "75951-4935"
      },
      {
        "line": [
          "3512 Coolidge Road East Lansing, MI"
        ],
        "city": "EAST LANSING",
        "state": "MI",
        "postalCode": "48823-6376"
      },
      {
        "line": [
          "1004 E CENTENNIAL DR"
        ],
        "city": "PITTSBURG",
        "state": "KS",
        "postalCode": "66762-6565"
      },
      {
        "line": [
          "10560 APPLEWOOD RD"
        ],
        "city": "SISTER BAY",
        "state": "WI",
        "postalCode": "54234-9005"
      },
      {
        "line": [
          "751 KEARNEY ST"
        ],
        "city": "PORT TOWNSEND",
        "state": "WA",
        "postalCode": "98368-8307"
      },
      {
        "line": [
          "1019 WICKER ST"
        ],
        "city": "TICONDEROGA",
        "state": "NY",
        "postalCode": "12883-1039"
      },
      {
        "line": [
          "6401 PATTERSON PKWY"
        ],
        "city": "ARKANSAS CITY",
        "state": "KS",
        "postalCode": "67005-5701"
      },
      {
        "line": [
          "6025 METROPOLITAN DR"
        ],
        "city": "BEAUMONT",
        "state": "TX",
        "postalCode": "77706-2407"
      },
      {
        "line": [
          "1200 BIRCHWOOD AVE"
        ],
        "city": "BELLINGHAM",
        "state": "WA",
        "postalCode": "98225-1302"
      },
      {
        "line": [
          "9879 KY-122"
        ],
        "city": "MC DOWELL",
        "state": "KY",
        "postalCode": "41647-0247"
      },
      {
        "line": [
          "240 HOSPITAL RD"
        ],
        "city": "WHITESBURG",
        "state": "KY",
        "postalCode": "41858-7627"
      },
      {
        "line": [
          "1462 West State Route 20 Sedro"
        ],
        "city": "SEDRO WOOLLEY",
        "state": "WA",
        "postalCode": "98284-4322"
      },
      {
        "line": [
          "770 TANGLEFOOT LN"
        ],
        "city": "BETTENDORF",
        "state": "IA",
        "postalCode": "52722-1608"
      },
      {
        "line": [
          "105 E COLLEGE DR"
        ],
        "city": "COLBY",
        "state": "KS",
        "postalCode": "67701-3701"
      },
      {
        "line": [
          "301 North Saint Peter Street"
        ],
        "city": "STANTON",
        "state": "TX",
        "postalCode": "79782-5095"
      },
      {
        "line": [
          "455 SAINT MICHAELS DR"
        ],
        "city": "SANTA FE",
        "state": "NM",
        "postalCode": "87505-7601"
      },
      {
        "line": [
          "1001 PENNSYLVANIA AVE"
        ],
        "city": "OTTUMWA",
        "state": "IA",
        "postalCode": "52501-6427"
      },
      {
        "line": [
          "11135 FLORIDA BLVD"
        ],
        "city": "BATON ROUGE",
        "state": "LA",
        "postalCode": "70815-2013"
      },
      {
        "line": [
          "302 W MCNEESE ST"
        ],
        "city": "LAKE CHARLES",
        "state": "LA",
        "postalCode": "70605-5604"
      },
      {
        "line": [
          "9333 SW 152ND ST"
        ],
        "city": "MIAMI",
        "state": "FL",
        "postalCode": "33157-1778"
      },
      {
        "line": [
          "4800 48TH ST"
        ],
        "city": "VALLEY",
        "state": "AL",
        "postalCode": "36854-3666"
      },
      {
        "line": [
          "260 HOSPITAL DR"
        ],
        "city": "SOUTH WILLIAMSON",
        "state": "KY",
        "postalCode": "41503-4072"
      },
      {
        "line": [
          "4800 BEAR ROAD"
        ],
        "city": "LIVERPOOL",
        "state": "NY",
        "postalCode": "13088-4604"
      },
      {
        "line": [
          "123 Main st"
        ],
        "city": "RICHMOND",
        "state": "TX",
        "postalCode": "77406-1009"
      },
      {
        "line": [
          "107 E LONE PINE DR"
        ],
        "city": "PAYSON",
        "state": "AZ",
        "postalCode": "85541-5558"
      },
      {
        "line": [
          "2001 DOCTORS DR"
        ],
        "city": "SPRINGHILL",
        "state": "LA",
        "postalCode": "71075-4526"
      },
      {
        "line": [
          "1875 US HIGHWAY 259 S"
        ],
        "city": "HENDERSON",
        "state": "TX",
        "postalCode": "75654-6705"
      },
      {
        "line": [
          "1325 SAGE ST"
        ],
        "city": "ROCK SPRINGS",
        "state": "WY",
        "postalCode": "82901-7478"
      },
      {
        "line": [
          "524 DOCTOR MICHAEL DEBAKEY DR"
        ],
        "city": "LAKE CHARLES",
        "state": "LA",
        "postalCode": "70601-5725"
      },
      {
        "line": [
          "1115 CAPITOLA RD"
        ],
        "city": "SANTA CRUZ",
        "state": "CA",
        "postalCode": "95062-2844"
      },
      {
        "line": [
          "4800 S CROATAN HWY"
        ],
        "city": "NAGS HEAD",
        "state": "NC",
        "postalCode": "27959-9704"
      },
      {
        "line": [
          "2450 S 19TH AVE"
        ],
        "city": "YUMA",
        "state": "AZ",
        "postalCode": "85364-6919"
      },
      {
        "line": [
          "7501 Wallace Blvd",
          "Ste 200"
        ],
        "city": "AMARILLO",
        "state": "TX",
        "postalCode": "79124-2150"
      },
      {
        "line": [
          "128 STATE ST # 3"
        ],
        "city": "AUGUSTA",
        "state": "ME",
        "postalCode": "04330-5630"
      },
      {
        "line": [
          "2101 SW 21ST ST"
        ],
        "city": "TOPEKA",
        "state": "KS",
        "postalCode": "66604-3174"
      },
      {
        "line": [
          "1901 MediPark Dr",
          "Ste 2058"
        ],
        "city": "AMARILLO",
        "state": "TX",
        "postalCode": "79106-2109"
      },
      {
        "line": [
          "250 BROWNS HILL CT"
        ],
        "city": "MIDLOTHIAN",
        "state": "VA",
        "postalCode": "23114-9510"
      },
      {
        "line": [
          "921 S ORCHARD ST, STE G"
        ],
        "city": "BOISE",
        "state": "ID",
        "postalCode": "83705-1992"
      },
      {
        "line": [
          "201 E MAIN DR"
        ],
        "city": "EL PASO",
        "state": "TX",
        "postalCode": "79901-1340"
      },
      {
        "line": [
          "2531 Viking Dr"
        ],
        "city": "BOSSIER CITY",
        "state": "LA",
        "postalCode": "71111-2103"
      },
      {
        "line": [
          "262 LEROY GEORGE DR"
        ],
        "city": "CLYDE",
        "state": "NC",
        "postalCode": "28721-7430"
      },
      {
        "line": [
          "1515 E OCEAN AVE"
        ],
        "city": "LOMPOC",
        "state": "CA",
        "postalCode": "93436-7092"
      },
      {
        "line": [
          "600 Robinwood Drive Robinson, IL 62454"
        ],
        "city": "ROBINSON",
        "state": "IL",
        "postalCode": "62454-3220"
      },
      {
        "line": [
          "1801 W 3RD ST"
        ],
        "city": "ELK CITY",
        "state": "OK",
        "postalCode": "73644-5145"
      },
      {
        "line": [
          "3300 S FM 1788"
        ],
        "city": "MIDLAND",
        "state": "TX",
        "postalCode": "79706-2601"
      },
      {
        "line": [
          "8570 Martin Way East Lacey, WA"
        ],
        "city": "OLYMPIA",
        "state": "WA",
        "postalCode": "98512-0410"
      },
      {
        "line": [
          "300 GOOD SAMARITAN DR"
        ],
        "city": "MOUNTAIN HOME",
        "state": "AR",
        "postalCode": "72653-5813"
      },
      {
        "line": [
          "7700 E ARAPAHOE RD",
          "STE 220"
        ],
        "city": "ENGLEWOOD",
        "state": "CO",
        "postalCode": "80112-1266"
      },
      {
        "line": [
          "2 N Jackson St",
          "Ste 605"
        ],
        "city": "MONTGOMERY",
        "state": "AL",
        "postalCode": "36104-3821"
      },
      {
        "line": [
          "9221 CRAWFORDSVILLE RD"
        ],
        "city": "INDIANAPOLIS",
        "state": "IN",
        "postalCode": "46234-1521"
      },
      {
        "line": [
          "600 S 2ND ST STE 404"
        ],
        "city": "SPRINGFIELD",
        "state": "IL",
        "postalCode": "62704-2542"
      },
      {
        "line": [
          "1420 BLANKENSHIP DR"
        ],
        "city": "DERIDDER",
        "state": "LA",
        "postalCode": "70634-4604"
      },
      {
        "line": [
          "375 N WALL ST"
        ],
        "city": "KANKAKEE",
        "state": "IL",
        "postalCode": "60901-3483"
      },
      {
        "line": [
          "420 ALBERTSON PKWY"
        ],
        "city": "BROUSSARD",
        "state": "LA",
        "postalCode": "70518-4968"
      },
      {
        "line": [
          "500 CHERRY ST"
        ],
        "city": "BLUEFIELD",
        "state": "WV",
        "postalCode": "24701-3306"
      },
      {
        "line": [
          "1130 MONACO CT"
        ],
        "city": "STOCKTON",
        "state": "CA",
        "postalCode": "95207-6704"
      },
      {
        "line": [
          "2801 NW 79TH AVE"
        ],
        "city": "MIAMI",
        "state": "FL",
        "postalCode": "33122-1174"
      },
      {
        "line": [
          "100 MEDICAL CENTER DR"
        ],
        "city": "HAZARD",
        "state": "KY",
        "postalCode": "41701-9421"
      },
      {
        "line": [
          "299 E RIVER RD"
        ],
        "city": "OSWEGO",
        "state": "NY",
        "postalCode": "13126-6400"
      },
      {
        "line": [
          "1188 BISHOP ST STE 2212"
        ],
        "city": "HONOLULU",
        "state": "HI",
        "postalCode": "96813-3309"
      },
      {
        "line": [
          "2621 N BOLTON AVE"
        ],
        "city": "ALEXANDRIA",
        "state": "LA",
        "postalCode": "71303-4506"
      },
      {
        "line": [
          "192 VILLAGE DR"
        ],
        "city": "JACKSONVILLE",
        "state": "NC",
        "postalCode": "28546-7238"
      },
      {
        "line": [
          "115 N CALHOUN ST, STE 4"
        ],
        "city": "TALLAHASSEE",
        "state": "FL",
        "postalCode": "32301-1568"
      },
      {
        "line": [
          "7308 FLEMING AVE"
        ],
        "city": "AMARILLO",
        "state": "TX",
        "postalCode": "79106-1829"
      },
      {
        "line": [
          "376 N WALL ST"
        ],
        "city": "KANKAKEE",
        "state": "IL",
        "postalCode": "60901-3483"
      },
      {
        "line": [
          "315 Oak Street"
        ],
        "city": "LIVINGSTON",
        "state": "TN",
        "postalCode": "38570-1728"
      },
      {
        "line": [
          "128 CAPITOL ST"
        ],
        "city": "CHARLESTON",
        "state": "WV",
        "postalCode": "25301-2610"
      },
      {
        "line": [
          "625 JAMES TRIMBLE BLVD"
        ],
        "city": "PAINTSVILLE",
        "state": "KY",
        "postalCode": "41240-1055"
      },
      {
        "line": [
          "434 MONROE AVE"
        ],
        "city": "HORNELL",
        "state": "NY",
        "postalCode": "14843-2236"
      },
      {
        "line": [
          "4303 STEVENSON BLVD"
        ],
        "city": "FREMONT",
        "state": "CA",
        "postalCode": "94538-2645"
      },
      {
        "line": [
          "1 BETHESDA DR"
        ],
        "city": "HORNELL",
        "state": "NY",
        "postalCode": "14843-1048"
      },
      {
        "line": [
          "1215 TWIN LAKES DR"
        ],
        "city": "LITTLE ROCK",
        "state": "AR",
        "postalCode": "72205-6768"
      },
      {
        "line": [
          "3201 W STATE HIGHWAY 22"
        ],
        "city": "CORSICANA",
        "state": "TX",
        "postalCode": "75110-2450"
      },
      {
        "line": [
          "1405 W GRAND AVE"
        ],
        "city": "CAMERON",
        "state": "MO",
        "postalCode": "64429-1118"
      },
      {
        "line": [
          "8835 AMERICAN WAY"
        ],
        "city": "ENGLEWOOD",
        "state": "CO",
        "postalCode": "80112-7056"
      },
      {
        "line": [
          "112 SKI BOWL RD"
        ],
        "city": "NORTH CREEK",
        "state": "NY",
        "postalCode": "12853-2607"
      },
      {
        "line": [
          "10 EAST 40TH STREET, FL 10"
        ],
        "city": "NEW YORK",
        "state": "NY",
        "postalCode": "10016-0201"
      },
      {
        "line": [
          "222 JEFFERSON BLVD"
        ],
        "city": "WARWICK",
        "state": "RI",
        "postalCode": "02888-3847"
      },
      {
        "line": [
          "474 STATE HIGHWAY 282"
        ],
        "city": "CLANCY",
        "state": "MT",
        "postalCode": "59634-9519"
      },
      {
        "line": [
          "333 N SANTA ROSA"
        ],
        "city": "SAN ANTONIO",
        "state": "TX",
        "postalCode": "78207-3108"
      },
      {
        "line": [
          "901 S WHITNEY WAY"
        ],
        "city": "MADISON",
        "state": "WI",
        "postalCode": "53711-2553"
      },
      {
        "line": [
          "3500 MERCERVILLE QUAKERBRIDGE RD",
          "STE 105"
        ],
        "city": "TRENTON",
        "state": "NJ",
        "postalCode": "08619-1206"
      },
      {
        "line": [
          "4225 Woods Pl"
        ],
        "city": "ABILENE",
        "state": "TX",
        "postalCode": "79602-7991"
      },
      {
        "line": [
          "7501 Wallace Blvd"
        ],
        "city": "AMARILLO",
        "state": "TX",
        "postalCode": "79124-2150"
      },
      {
        "line": [
          "403 E 1ST ST"
        ],
        "city": "DIXON",
        "state": "IL",
        "postalCode": "61021-3116"
      },
      {
        "line": [
          "323 E HAWKINS PKWY"
        ],
        "city": "LONGVIEW",
        "state": "TX",
        "postalCode": "75605-8153"
      },
      {
        "line": [
          "1780 BARNES BLVD SW"
        ],
        "city": "TUMWATER",
        "state": "WA",
        "postalCode": "98512-0410"
      },
      {
        "line": [
          "309 NW 9TH AVE"
        ],
        "city": "ALEDO",
        "state": "IL",
        "postalCode": "61231-1330"
      },
      {
        "line": [
          "1310 PALUXY RD"
        ],
        "city": "GRANBURY",
        "state": "TX",
        "postalCode": "76048-5655"
      },
      {
        "line": [
          "326 N MADISON AVE"
        ],
        "city": "PIERRE",
        "state": "SD",
        "postalCode": "57501-2629"
      },
      {
        "line": [
          "5601 S 59TH ST, STE C"
        ],
        "city": "LINCOLN",
        "state": "NE",
        "postalCode": "68516-2340"
      },
      {
        "line": [
          "1601 W 11TH PL"
        ],
        "city": "BIG SPRING",
        "state": "TX",
        "postalCode": "79720-4114"
      },
      {
        "line": [
          "401 9TH ST"
        ],
        "city": "LACON",
        "state": "IL",
        "postalCode": "61540-1140"
      },
      {
        "line": [
          "118 CHURCH ST"
        ],
        "city": "SULPHUR SPRINGS",
        "state": "TX",
        "postalCode": "75482-2602"
      },
      {
        "line": [
          "808 N CURTIS RD"
        ],
        "city": "BOISE",
        "state": "ID",
        "postalCode": "83706-1306"
      },
      {
        "line": [
          "1301 WONDER WORLD DR"
        ],
        "city": "SAN MARCOS",
        "state": "TX",
        "postalCode": "78666-7533"
      },
      {
        "line": [
          "3500 QUAKERBRIDGE RD, STE 105"
        ],
        "city": "HAMILTON",
        "state": "NJ",
        "postalCode": "08619-1206"
      },
      {
        "line": [
          "476 LIBERTY RD"
        ],
        "city": "WEST LIBERTY",
        "state": "KY",
        "postalCode": "41472-2049"
      },
      {
        "line": [
          "2830 CALDER ST"
        ],
        "city": "BEAUMONT",
        "state": "TX",
        "postalCode": "77702-1809"
      },
      {
        "line": [
          "1500 SOUTH VIRGINIA STREET"
        ],
        "city": "ATOKA",
        "state": "OK",
        "postalCode": "74525-3246"
      },
      {
        "line": [
          "535 S AUSTIN RD"
        ],
        "city": "EAGLE LAKE",
        "state": "TX",
        "postalCode": "77434-3001"
      },
      {
        "line": [
          "248 E CAPITOL ST, STE 840"
        ],
        "city": "JACKSON",
        "state": "MS",
        "postalCode": "39201-2505"
      },
      {
        "line": [
          "1775 THOMPSON RD"
        ],
        "city": "COOS BAY",
        "state": "OR",
        "postalCode": "97420-2125"
      },
      {
        "line": [
          "29 W HIGH ST"
        ],
        "city": "EAST HAMPTON",
        "state": "CT",
        "postalCode": "06424-1024"
      },
      {
        "line": [
          "1310 HEATHER DR"
        ],
        "city": "OPELOUSAS",
        "state": "LA",
        "postalCode": "70570-7714"
      },
      {
        "line": [
          "212 S TRYON ST STE 1000"
        ],
        "city": "CHARLOTTE",
        "state": "NC",
        "postalCode": "28281-0001"
      },
      {
        "line": [
          "1102 CONSTITUTION AVE"
        ],
        "city": "MERIDIAN",
        "state": "MS",
        "postalCode": "39301-4001"
      },
      {
        "line": [
          "2 OFFICE PARK COURT, STE 103"
        ],
        "city": "COLUMBIA",
        "state": "SC",
        "postalCode": "29223-5948"
      },
      {
        "line": [
          "302 N LAST CHANCE GULCH, STE 403"
        ],
        "city": "HELENA",
        "state": "MT",
        "postalCode": "59601-5028"
      },
      {
        "line": [
          "801 5TH ST"
        ],
        "city": "SIOUX CITY",
        "state": "IA",
        "postalCode": "51101-1326"
      },
      {
        "line": [
          "1325 J STREET, STE 1550"
        ],
        "city": "SACRAMENTO",
        "state": "CA",
        "postalCode": "95814-2976"
      },
      {
        "line": [
          "11203 MAIN ST"
        ],
        "city": "MARTIN",
        "state": "KY",
        "postalCode": "41649-7999"
      },
      {
        "line": [
          "315 Oak Street Livingston, TN 38570 United States"
        ],
        "city": "LIVINGSTON",
        "state": "TN",
        "postalCode": "38570-1234"
      },
      {
        "line": [
          "5000 Kentucky Rte 321"
        ],
        "city": "PRESTONSBURG",
        "state": "KY",
        "postalCode": "41653-9213"
      },
      {
        "line": [
          "300 WERNER ST"
        ],
        "city": "HOT SPRINGS NATIONAL PARK",
        "state": "AR",
        "postalCode": "71913-6406"
      },
      {
        "line": [
          "901 Hwy 8 East"
        ],
        "city": "CLEVELAND",
        "state": "MS",
        "postalCode": "38732-1234"
      },
      {
        "line": [
          "2408 Broadway Everett"
        ],
        "city": "COUPEVILLE",
        "state": "WA",
        "postalCode": "98239-3427"
      },
      {
        "line": [
          "1612 S HENDERSON BLVD"
        ],
        "city": "KILGORE",
        "state": "TX",
        "postalCode": "75662-3518"
      },
      {
        "line": [
          "130 KATE IRELAND DR"
        ],
        "city": "HYDEN",
        "state": "KY",
        "postalCode": "41749-9071"
      },
      {
        "line": [
          "8 BUSHEY BLVD"
        ],
        "city": "PLATTSBURGH",
        "state": "NY",
        "postalCode": "12901-3761"
      },
      {
        "line": [
          "81 BALL PARK RD"
        ],
        "city": "HARLAN",
        "state": "KY",
        "postalCode": "40831-1701"
      },
      {
        "line": [
          "1920 THOMES AVENUE, STE 610"
        ],
        "city": "CHEYENNE",
        "state": "WY",
        "postalCode": "82001-3548"
      },
      {
        "line": [
          "3402 S 19TH ST"
        ],
        "city": "TACOMA",
        "state": "WA",
        "postalCode": "98405-2487"
      },
      {
        "line": [
          "600 NORTH 2ND ST"
        ],
        "city": "HARRISBURG",
        "state": "PA",
        "postalCode": "17101-1092"
      },
      {
        "line": [
          "850 NEW BURTON RD STE 201"
        ],
        "city": "DOVER",
        "state": "DE",
        "postalCode": "19904-5786"
      },
      {
        "line": [
          "15062 County Rd"
        ],
        "city": "TYLER",
        "state": "TX",
        "postalCode": "75704-7516"
      },
      {
        "line": [
          "1260 WILLIAMS WAY"
        ],
        "city": "YUBA CITY",
        "state": "CA",
        "postalCode": "95991-2400"
      },
      {
        "line": [
          "16561 US HWY 10"
        ],
        "city": "LAKE PARK",
        "state": "MN",
        "postalCode": "56654-9302"
      },
      {
        "line": [
          "828 LANE ALLEN RD STE 219"
        ],
        "city": "LEXINGTON",
        "state": "KY",
        "postalCode": "40504-3659"
      },
      {
        "line": [
          "206 S 10TH AVE"
        ],
        "city": "YAKIMA",
        "state": "WA",
        "postalCode": "98902-3321"
      },
      {
        "line": [
          "1407 N WHISENANT DR"
        ],
        "city": "DUNCAN",
        "state": "OK",
        "postalCode": "73533-1650"
      },
      {
        "line": [
          "92 WAINWRIGHT DR"
        ],
        "city": "WALLA WALLA",
        "state": "WA",
        "postalCode": "99362-3975"
      },
      {
        "line": [
          "25 HIGHLAND AVE"
        ],
        "city": "NEWBURYPORT",
        "state": "MA",
        "postalCode": "01950-3867"
      },
      {
        "line": [
          "2500 Highway 305 South McCamey"
        ],
        "city": "MC CAMEY",
        "state": "TX",
        "postalCode": "79752-1200"
      },
      {
        "line": [
          "3251 NETTIE ST"
        ],
        "city": "BUTTE",
        "state": "MT",
        "postalCode": "59701-6531"
      },
      {
        "line": [
          "63 PLEASANT ST"
        ],
        "city": "CONCORD",
        "state": "NH",
        "postalCode": "03301-3947"
      },
      {
        "line": [
          "1097 NORTHWEST BLVD"
        ],
        "city": "FRANKLIN",
        "state": "LA",
        "postalCode": "70538-3407"
      },
      {
        "line": [
          "4202 Princeton St"
        ],
        "city": "LUBBOCK",
        "state": "TX",
        "postalCode": "79415-1308"
      },
      {
        "line": [
          "365 S BROADVIEW ST"
        ],
        "city": "CAPE GIRARDEAU",
        "state": "MO",
        "postalCode": "63703-5761"
      },
      {
        "line": [
          "650 LAKE RD"
        ],
        "city": "ATWOOD",
        "state": "KS",
        "postalCode": "67730-1535"
      },
      {
        "line": [
          "1509 South Palestine Street"
        ],
        "city": "ATHENS",
        "state": "TX",
        "postalCode": "75751-1233"
      },
      {
        "line": [
          "300 W CLARENDON AVE STE 240"
        ],
        "city": "PHOENIX",
        "state": "AZ",
        "postalCode": "85013-3479"
      },
      {
        "line": [
          "15062 County Rd"
        ],
        "city": "TYLER",
        "state": "TX",
        "postalCode": "75704-3717"
      },
      {
        "line": [
          "1012 MARQUEZ PL UNIT 106B"
        ],
        "city": "SANTA FE",
        "state": "NM",
        "postalCode": "87505-1833"
      },
      {
        "line": [
          "11503 NW MILITARY HWY STE 122"
        ],
        "city": "SAN ANTONIO",
        "state": "TX",
        "postalCode": "78231-1896"
      },
      {
        "line": [
          "45 SCHOOL ST STE 202"
        ],
        "city": "BOSTON",
        "state": "MA",
        "postalCode": "02108-3206"
      },
      {
        "line": [
          "3085 MOUNTAINWOOD CIR"
        ],
        "city": "JUNEAU",
        "state": "AK",
        "postalCode": "99801-9624"
      },
      {
        "line": [
          "607 E BRONSON RD"
        ],
        "city": "SEYMOUR",
        "state": "WI",
        "postalCode": "54165-1040"
      },
      {
        "line": [
          "120 E HARRIS AVE STE 410"
        ],
        "city": "SAN ANGELO",
        "state": "TX",
        "postalCode": "76903-5904"
      },
      {
        "line": [
          "1434 E SONTERRA BLVD STE 101"
        ],
        "city": "SAN ANTONIO",
        "state": "TX",
        "postalCode": "78258-4972"
      },
      {
        "line": [
          "2616 W 3rd St"
        ],
        "city": "MOUNT CARMEL",
        "state": "PA",
        "postalCode": "17851-0001"
      },
      {
        "line": [
          "800 E DAWSON ST"
        ],
        "city": "TYLER",
        "state": "TX",
        "postalCode": "75701-2036"
      },
      {
        "line": [
          "1 HOSPITAL DR"
        ],
        "city": "LEWISBURG",
        "state": "PA",
        "postalCode": "17837-9350"
      },
      {
        "line": [
          "992 DAVIDSON DR STE B"
        ],
        "city": "NASHVILLE",
        "state": "TN",
        "postalCode": "37205-1051"
      },
      {
        "line": [
          "1 SAINT VINCENT CIR"
        ],
        "city": "LITTLE ROCK",
        "state": "AR",
        "postalCode": "72205-5405"
      },
      {
        "line": [
          "229 BROOKWOOD DR #14"
        ],
        "city": "SOUTH LYON",
        "state": "MI",
        "postalCode": "48178-1858"
      },
      {
        "line": [
          "3600 CUMBERLAND AVE"
        ],
        "city": "MIDDLESBORO",
        "state": "KY",
        "postalCode": "40965-2614"
      },
      {
        "line": [
          "1305 NOTTINGHAM RD"
        ],
        "city": "JAMESVILLE",
        "state": "NY",
        "postalCode": "13078-8803"
      },
      {
        "line": [
          "3203 South Main Street"
        ],
        "city": "LINDALE",
        "state": "TX",
        "postalCode": "75771-1234"
      },
      {
        "line": [
          "160 NW 170TH ST"
        ],
        "city": "MIAMI",
        "state": "FL",
        "postalCode": "33169-5521"
      },
      {
        "line": [
          "3230 CHURCH ST"
        ],
        "city": "VALATIE",
        "state": "NY",
        "postalCode": "12184-2303"
      },
      {
        "line": [
          "3360 Burns Road"
        ],
        "city": "PALM BEACH GARDENS",
        "state": "FL",
        "postalCode": "33410-4304"
      },
      {
        "line": [
          "9666 OLIVE BLVD STE 690"
        ],
        "city": "SAINT LOUIS",
        "state": "MO",
        "postalCode": "63132-3026"
      },
      {
        "line": [
          "2805 NE 129TH ST"
        ],
        "city": "VANCOUVER",
        "state": "WA",
        "postalCode": "98686-3324"
      },
      {
        "line": [
          "3867 PLAZA TOWER DR, FL1"
        ],
        "city": "BATON ROUGE",
        "state": "LA",
        "postalCode": "70816-4378"
      },
      {
        "line": [
          "149 LAFAYETTE AVENUE"
        ],
        "city": "TAMAQUA",
        "state": "PA",
        "postalCode": "18252-4619"
      },
      {
        "line": [
          "3 SAINT ANTHONY ST"
        ],
        "city": "AUBURN",
        "state": "NY",
        "postalCode": "13021-4525"
      },
      {
        "line": [
          "18780 Interstate 20"
        ],
        "city": "CANTON",
        "state": "TX",
        "postalCode": "75103-1234"
      },
      {
        "line": [
          "5460 MELTZER CT"
        ],
        "city": "CICERO",
        "state": "NY",
        "postalCode": "13039-9430"
      },
      {
        "line": [
          "14600 St. Stephens Ave. PO Box"
        ],
        "city": "CHATOM",
        "state": "AL",
        "postalCode": "36518-1234"
      },
      {
        "line": [
          "1501 SKYLINE DR"
        ],
        "city": "MONTEREY",
        "state": "CA",
        "postalCode": "93940-4110"
      },
      {
        "line": [
          "80 HOSPITAL DR"
        ],
        "city": "BARBOURVILLE",
        "state": "KY",
        "postalCode": "40906-7363"
      },
      {
        "line": [
          "702 WEST CUMBERLAND"
        ],
        "city": "ALTAMONT",
        "state": "IL",
        "postalCode": "62411-1053"
      },
      {
        "line": [
          "200 N 3RD ST"
        ],
        "city": "DARDANELLE",
        "state": "AR",
        "postalCode": "72834-3802"
      }
    ],
    "extension": [
      {
        "url": "https://fhir.athena.io/StructureDefinition/ah-practice",
        "valueReference": {
          "reference": "Organization/a-1.Practice-24287"
        }
      },
      {
        "url": "https://fhir.athena.io/StructureDefinition/ah-brand",
        "valueReference": {
          "reference": "Organization/a-24287.Brand-1"
        }
      }
    ]
  },
  "fullUrl": "urn:uuid:a92fd3b1-c401-5a01-9f7f-83dddeac0d66"
}