{
  "resource": {
    "resourceType": "Organization",
    "id": "35968556-3811-5779-88c4-b729ca126767",
    "name": "YMCA of Metropolitan Chattanooga",
    "endpoint": [
      {
        "reference": "Endpoint/27a4e967-47aa-5a9c-a572-b8297ee268a2"
      },
      {
        "reference": "Endpoint/abb5f7d5-468e-5806-be46-fb2282afef02"
      }
    ],
    "identifier": [
      {
        "system": "http://hl7.org/fhir/sid/us-npi",
        "value": "1568919538"
      }
    ],
    "address": [
      {
        "line": [
          "220 Urbane Rd NE"
        ],
        "city": "CLEVELAND",
        "state": "TN",
        "postalCode": "37312-4757"
      },
      {
        "line": [
          "301 W. 6th Street"
        ],
        "city": "CHATTANOOGA",
        "state": "TN",
        "postalCode": "37402-3112"
      },
      {
        "line": [
          "111 YMCA Drive"
        ],
        "city": "OCOEE",
        "state": "TN",
        "postalCode": "37361-3809"
      },
      {
        "line": [
          "7430 Shallowford Rd"
        ],
        "city": "CHATTANOOGA",
        "state": "TN",
        "postalCode": "37421-2628"
      },
      {
        "line": [
          "1201 Poplar St"
        ],
        "city": "CHATTANOOGA",
        "state": "TN",
        "postalCode": "37402-3804"
      },
      {
        "line": [
          "4080 Jenkins Rd"
        ],
        "city": "CHATTANOOGA",
        "state": "TN",
        "postalCode": "37421-1174"
      },
      {
        "line": [
          "301 W. 6th St"
        ],
        "city": "CHATTANOOGA",
        "state": "TN",
        "postalCode": "37402-5347"
      },
      {
        "line": [
          "4138 Hixson Pike"
        ],
        "city": "CHATTANOOGA",
        "state": "TN",
        "postalCode": "37415-3112"
      },
      {
        "line": [
          "232 Fourth Ave",
          "6"
        ],
        "city": "DAYTON",
        "state": "TN",
        "postalCode": "37321-1365"
      },
      {
        "line": [
          "301 W. Sixth Street"
        ],
        "city": "CHATTANOOGA",
        "state": "TN",
        "postalCode": "37402-3112"
      },
      {
        "line": [
          "1 fountain sq"
        ],
        "city": "CHATTANOOGA",
        "state": "TN",
        "postalCode": "37402-1234"
      },
      {
        "line": [
          "301 Manufacturers Rd"
        ],
        "city": "CHATTANOOGA",
        "state": "TN",
        "postalCode": "37405-3299"
      },
      {
        "line": [
          "2700 34th St."
        ],
        "city": "CHATTANOOGA",
        "state": "TN",
        "postalCode": "37407-1800"
      }
    ],
    "extension": [
      {
        "url": "https://fhir.athena.io/StructureDefinition/ah-practice",
        "valueReference": {
          "reference": "Organization/a-1.Practice-14268"
        }
      },
      {
        "url": "https://fhir.athena.io/StructureDefinition/ah-brand",
        "valueReference": {
          "reference": "Organization/a-14268.Brand-1"
        }
      }
    ]
  },
  "fullUrl": "urn:uuid:35968556-3811-5779-88c4-b729ca126767"
}