{
  "resource": {
    "resourceType": "Organization",
    "id": "85627678-eac7-509d-b205-9c5ede4bcc2d",
    "name": "Audiology",
    "endpoint": [
      {
        "reference": "Endpoint/27a4e967-47aa-5a9c-a572-b8297ee268a2"
      },
      {
        "reference": "Endpoint/88059896-1551-5e27-87a2-252ac8423df6"
      }
    ],
    "identifier": [
      {
        "system": "http://hl7.org/fhir/sid/us-npi",
        "value": "1285131144"
      },
      {
        "system": "http://hl7.org/fhir/sid/us-npi",
        "value": "1104904143"
      }
    ],
    "address": [
      {
        "line": [
          "1400 HOSPITAL DR"
        ],
        "city": "HURRICANE",
        "state": "WV",
        "postalCode": "25526-9202"
      },
      {
        "line": [
          "3200 MACCORKLE AVE SE"
        ],
        "city": "CHARLESTON",
        "state": "WV",
        "postalCode": "25304-1227"
      },
      {
        "line": [
          "800 PENNSYLVANIA AVENUE"
        ],
        "city": "CHARLESTON",
        "state": "WV",
        "postalCode": "25302-3351"
      },
      {
        "line": [
          "1311 VIRGINIA ST E"
        ],
        "city": "CHARLESTON",
        "state": "WV",
        "postalCode": "25301-3011"
      },
      {
        "line": [
          "9",
          "courtney drive"
        ],
        "city": "CHARLESTON",
        "state": "WV",
        "postalCode": "25304-2699"
      },
      {
        "line": [
          "424 DIVISION ST"
        ],
        "city": "SOUTH CHARLESTON",
        "state": "WV",
        "postalCode": "25309-1400"
      },
      {
        "line": [
          "9 COURTNEY DR"
        ],
        "city": "CHARLESTON",
        "state": "WV",
        "postalCode": "25304-2699"
      },
      {
        "line": [
          "501 MORRIS ST"
        ],
        "city": "CHARLESTON",
        "state": "WV",
        "postalCode": "25301-1326"
      }
    ],
    "extension": [
      {
        "url": "https://fhir.athena.io/StructureDefinition/ah-practice",
        "valueReference": {
          "reference": "Organization/a-1.Practice-17503"
        }
      },
      {
        "url": "https://fhir.athena.io/StructureDefinition/ah-brand",
        "valueReference": {
          "reference": "Organization/a-17503.Brand-1"
        }
      }
    ]
  },
  "fullUrl": "urn:uuid:85627678-eac7-509d-b205-9c5ede4bcc2d"
}