{
  "resource": {
    "resourceType": "Organization",
    "id": "cf473a35-9fbe-5492-9fb6-553a97bb2a42",
    "name": "AMITA Vaccine Clinic",
    "endpoint": [
      {
        "reference": "Endpoint/27a4e967-47aa-5a9c-a572-b8297ee268a2"
      },
      {
        "reference": "Endpoint/e6ea019e-1ccb-59cf-8356-ac9fe2d1e0b9"
      }
    ],
    "identifier": [
      {
        "system": "http://hl7.org/fhir/sid/us-npi",
        "value": "1588775647"
      }
    ],
    "address": [
      {
        "line": [
          "625 W Adams St"
        ],
        "city": "CHICAGO",
        "state": "IL",
        "postalCode": "60661-3603"
      },
      {
        "line": [
          "2900 N. Lake Shore Drive"
        ],
        "city": "CHICAGO",
        "state": "IL",
        "postalCode": "60657-5640"
      },
      {
        "line": [
          "120 N. Oak Street"
        ],
        "city": "HINSDALE",
        "state": "IL",
        "postalCode": "60521-3829"
      },
      {
        "line": [
          "6W 631 91st Street"
        ],
        "city": "WILLOWBROOK",
        "state": "IL",
        "postalCode": "60527-6379"
      },
      {
        "line": [
          "501 College Ave"
        ],
        "city": "WHEATON",
        "state": "IL",
        "postalCode": "60187-9936"
      },
      {
        "line": [
          "240 Hawthorne Blvd"
        ],
        "city": "GLEN ELLYN",
        "state": "IL",
        "postalCode": "60137-4038"
      },
      {
        "line": [
          "5101 S. Willow Springs Road"
        ],
        "city": "LA GRANGE",
        "state": "IL",
        "postalCode": "60525-2600"
      },
      {
        "line": [
          "77 N. Airlite Street"
        ],
        "city": "ELGIN",
        "state": "IL",
        "postalCode": "60123-4912"
      },
      {
        "line": [
          "1000 Bilter Road"
        ],
        "city": "AURORA",
        "state": "IL",
        "postalCode": "60502-4766"
      },
      {
        "line": [
          "1041 W Stearns Rd"
        ],
        "city": "BARTLETT",
        "state": "IL",
        "postalCode": "60103-4509"
      },
      {
        "line": [
          "800 Biesterfield Road"
        ],
        "city": "ELK GROVE VILLAGE",
        "state": "IL",
        "postalCode": "60007-3361"
      },
      {
        "line": [
          "333 N. Madison Street"
        ],
        "city": "JOLIET",
        "state": "IL",
        "postalCode": "60435-8200"
      },
      {
        "line": [
          "7503 Cermak Rd"
        ],
        "city": "RIVERSIDE",
        "state": "IL",
        "postalCode": "60546-1405"
      },
      {
        "line": [
          "2270 W Higgins Rd, Hoffman Estates"
        ],
        "city": "HOFFMAN ESTATES",
        "state": "IL",
        "postalCode": "60169-9999"
      },
      {
        "line": [
          "5747 Dempster St"
        ],
        "city": "MORTON GROVE",
        "state": "IL",
        "postalCode": "60053-3056"
      },
      {
        "line": [
          "1431 No. Claremont 1st floor"
        ],
        "city": "CHICAGO",
        "state": "IL",
        "postalCode": "60622-3043"
      },
      {
        "line": [
          "500 Remington Blvd"
        ],
        "city": "BOLINGBROOK",
        "state": "IL",
        "postalCode": "60440-4906"
      },
      {
        "line": [
          "1555 Barrington Road"
        ],
        "city": "HOFFMAN ESTATES",
        "state": "IL",
        "postalCode": "60169-1019"
      },
      {
        "line": [
          "1754 W Golf Road"
        ],
        "city": "MOUNT PROSPECT",
        "state": "IL",
        "postalCode": "60056-4071"
      },
      {
        "line": [
          "1000 W North Ave"
        ],
        "city": "CHICAGO",
        "state": "IL",
        "postalCode": "60614-2544"
      },
      {
        "line": [
          "500 W. Court Street"
        ],
        "city": "KANKAKEE",
        "state": "IL",
        "postalCode": "60901-3661"
      },
      {
        "line": [
          "751 N STATE ST"
        ],
        "city": "CHICAGO",
        "state": "IL",
        "postalCode": "60654-3835"
      },
      {
        "line": [
          "355 Ridge Ave."
        ],
        "city": "EVANSTON",
        "state": "IL",
        "postalCode": "60202-3328"
      },
      {
        "line": [
          "2145 N HALSTED ST"
        ],
        "city": "CHICAGO",
        "state": "IL",
        "postalCode": "60614-4366"
      },
      {
        "line": [
          "701 Winthrop Avenue"
        ],
        "city": "GLENDALE HEIGHTS",
        "state": "IL",
        "postalCode": "60139-1405"
      },
      {
        "line": [
          "1480 Larkin Avenue"
        ],
        "city": "ELGIN",
        "state": "IL",
        "postalCode": "60123-5123"
      },
      {
        "line": [
          "465 Crossroads"
        ],
        "city": "BOLINGBROOK",
        "state": "IL",
        "postalCode": "60440-4937"
      },
      {
        "line": [
          "1400 E. Golf Road"
        ],
        "city": "DES PLAINES",
        "state": "IL",
        "postalCode": "60016-1236"
      },
      {
        "line": [
          "1325 N. Highland Avenue"
        ],
        "city": "AURORA",
        "state": "IL",
        "postalCode": "60506-1449"
      },
      {
        "line": [
          "7435 W. Talcott Avenue"
        ],
        "city": "CHICAGO",
        "state": "IL",
        "postalCode": "60631-3707"
      }
    ],
    "extension": [
      {
        "url": "https://fhir.athena.io/StructureDefinition/ah-practice",
        "valueReference": {
          "reference": "Organization/a-1.Practice-380"
        }
      },
      {
        "url": "https://fhir.athena.io/StructureDefinition/ah-brand",
        "valueReference": {
          "reference": "Organization/a-380.Brand-1"
        }
      }
    ]
  },
  "fullUrl": "urn:uuid:cf473a35-9fbe-5492-9fb6-553a97bb2a42"
}