{
  "resource": {
    "resourceType": "Organization",
    "id": "79b92bc9-be92-5f8b-96d5-be15f6f2033e",
    "name": "Paley Institute",
    "endpoint": [
      {
        "reference": "Endpoint/27a4e967-47aa-5a9c-a572-b8297ee268a2"
      },
      {
        "reference": "Endpoint/e3743e1c-7b73-5dd0-9c5f-e7ebc0303276"
      }
    ],
    "identifier": [
      {
        "system": "http://hl7.org/fhir/sid/us-npi",
        "value": "1912266420"
      }
    ],
    "address": [
      {
        "line": [
          "10101 Forest Hill BLVD"
        ],
        "city": "WELLINGTON",
        "state": "FL",
        "postalCode": "33414-6103"
      },
      {
        "line": [
          "1210 South Old Dixie Highway"
        ],
        "city": "JUPITER",
        "state": "FL",
        "postalCode": "33458-7205"
      },
      {
        "line": [
          "1411 N Flagler Dr",
          "Suite 5000"
        ],
        "city": "WEST PALM BEACH",
        "state": "FL",
        "postalCode": "33401-3410"
      },
      {
        "line": [
          "5000 W Oakland Park Blvd"
        ],
        "city": "FORT LAUDERDALE",
        "state": "FL",
        "postalCode": "33313-1503"
      },
      {
        "line": [
          "601 East Rollins St"
        ],
        "city": "ORLANDO",
        "state": "FL",
        "postalCode": "32803-1248"
      },
      {
        "line": [
          "800 Meadows Rd"
        ],
        "city": "BOCA RATON",
        "state": "FL",
        "postalCode": "33486-2304"
      },
      {
        "line": [
          "5325 Greenwood Avenue",
          "Suite 301"
        ],
        "city": "WEST PALM BEACH",
        "state": "FL",
        "postalCode": "33407-2452"
      },
      {
        "line": [
          "111 Broadway",
          "2nd Floor"
        ],
        "city": "NEW YORK",
        "state": "NY",
        "postalCode": "10006-1995"
      },
      {
        "line": [
          "6853 SW 18th St",
          "Suite M111"
        ],
        "city": "BOCA RATON",
        "state": "FL",
        "postalCode": "33433-7056"
      },
      {
        "line": [
          "21644 State Road 7"
        ],
        "city": "BOCA RATON",
        "state": "FL",
        "postalCode": "33428-1842"
      }
    ],
    "extension": [
      {
        "url": "https://fhir.athena.io/StructureDefinition/ah-practice",
        "valueReference": {
          "reference": "Organization/a-1.Practice-13023"
        }
      },
      {
        "url": "https://fhir.athena.io/StructureDefinition/ah-brand",
        "valueReference": {
          "reference": "Organization/a-13023.Brand-2"
        }
      }
    ]
  },
  "fullUrl": "urn:uuid:79b92bc9-be92-5f8b-96d5-be15f6f2033e"
}