{
  "resource": {
    "resourceType": "Organization",
    "id": "ba3b75c6-7b5e-5745-9282-fdbec72f4145",
    "name": "Indus Cardio - Pomona",
    "endpoint": [
      {
        "reference": "Endpoint/27a4e967-47aa-5a9c-a572-b8297ee268a2"
      },
      {
        "reference": "Endpoint/dd567f7c-a9b2-54ab-a2a9-b38804453325"
      }
    ],
    "identifier": [
      {
        "system": "http://hl7.org/fhir/sid/us-npi",
        "value": "1508907874"
      },
      {
        "system": "http://hl7.org/fhir/sid/us-npi",
        "value": "1619528460"
      }
    ],
    "address": [
      {
        "line": [
          "2472 FORBES AVE"
        ],
        "city": "CLAREMONT",
        "state": "CA",
        "postalCode": "91711-1717"
      },
      {
        "line": [
          "725 S ORANGE AVE"
        ],
        "city": "WEST COVINA",
        "state": "CA",
        "postalCode": "91790-2614"
      },
      {
        "line": [
          "4853 MORENO ST \t"
        ],
        "city": "MONTCLAIR",
        "state": "CA",
        "postalCode": "91763-1419"
      },
      {
        "line": [
          "333 N Sunset Ave"
        ],
        "city": "WEST COVINA",
        "state": "CA",
        "postalCode": "91790-1651"
      },
      {
        "line": [
          "5451 WALNUT AVE"
        ],
        "city": "CHINO",
        "state": "CA",
        "postalCode": "91710-2609"
      },
      {
        "line": [
          "5000 SAN BERNARDINO ST"
        ],
        "city": "MONTCLAIR",
        "state": "CA",
        "postalCode": "91763-2326"
      },
      {
        "line": [
          "4950 SAN BERNARDINO ST STE 202"
        ],
        "city": "MONTCLAIR",
        "state": "CA",
        "postalCode": "91763-2328"
      },
      {
        "line": [
          "1030 W.WARNER AVE"
        ],
        "city": "SANTA ANA",
        "state": "CA",
        "postalCode": "92707-3147"
      },
      {
        "line": [
          "867 E 11TH ST"
        ],
        "city": "UPLAND",
        "state": "CA",
        "postalCode": "91786-4867"
      },
      {
        "line": [
          "401 W ADA AVE"
        ],
        "city": "GLENDORA",
        "state": "CA",
        "postalCode": "91741-4241"
      },
      {
        "line": [
          "5043 N PECK RD"
        ],
        "city": "EL MONTE",
        "state": "CA",
        "postalCode": "91732-1423"
      },
      {
        "line": [
          "5119 BANDERA ST"
        ],
        "city": "MONTCLAIR",
        "state": "CA",
        "postalCode": "91763-4410"
      },
      {
        "line": [
          "3961 WALNUT AVE"
        ],
        "city": "CHINO",
        "state": "CA",
        "postalCode": "91710-2148"
      },
      {
        "line": [
          "9333 La Mesa Dr"
        ],
        "city": "RANCHO CUCAMONGA",
        "state": "CA",
        "postalCode": "91701-5805"
      },
      {
        "line": [
          "800 E 5TH ST"
        ],
        "city": "ONTARIO",
        "state": "CA",
        "postalCode": "91764-2490"
      },
      {
        "line": [
          "5900 BROCKTON"
        ],
        "city": "RIVERSIDE",
        "state": "CA",
        "postalCode": "92506-1862"
      },
      {
        "line": [
          "1550 N PARK AVE"
        ],
        "city": "POMONA",
        "state": "CA",
        "postalCode": "91768-1834"
      },
      {
        "line": [
          "1798 N GAREY AVE"
        ],
        "city": "POMONA",
        "state": "CA",
        "postalCode": "91767-2918"
      },
      {
        "line": [
          "255 E BONITA AVE"
        ],
        "city": "POMONA",
        "state": "CA",
        "postalCode": "91767-1923"
      },
      {
        "line": [
          "999 SAN BERNARDINO RD"
        ],
        "city": "UPLAND",
        "state": "CA",
        "postalCode": "91786-4920"
      },
      {
        "line": [
          "14148 FRANCISQUITO AVE"
        ],
        "city": "BALDWIN PARK",
        "state": "CA",
        "postalCode": "91706-6120"
      },
      {
        "line": [
          "FIDELITY HEALTHCARE CENTER"
        ],
        "city": "EL MONTE",
        "state": "CA",
        "postalCode": "91731-1412"
      },
      {
        "line": [
          "210 W SAN BERNARDINO RD"
        ],
        "city": "COVINA",
        "state": "CA",
        "postalCode": "91723-1515"
      },
      {
        "line": [
          "3959 WALNUT AVE"
        ],
        "city": "CHINO",
        "state": "CA",
        "postalCode": "91710-2148"
      },
      {
        "line": [
          "219 E FOOTHILL BLVD"
        ],
        "city": "POMONA",
        "state": "CA",
        "postalCode": "91767-1403"
      },
      {
        "line": [
          "1115 S SUNSET AVE"
        ],
        "city": "WEST COVINA",
        "state": "CA",
        "postalCode": "91790-3940"
      },
      {
        "line": [
          "1350 W COVINA BLVD"
        ],
        "city": "SAN DIMAS",
        "state": "CA",
        "postalCode": "91773-3245"
      },
      {
        "line": [
          "6920 FREMONT AVE"
        ],
        "city": "MONTCLAIR",
        "state": "CA",
        "postalCode": "91763-4410"
      },
      {
        "line": [
          "1350 W. COVINA BLVD"
        ],
        "city": "SAN DIMAS",
        "state": "CA",
        "postalCode": "91773-3245"
      },
      {
        "line": [
          "2705 MOUNTAIN VIEW DRIVE"
        ],
        "city": "LA VERNE",
        "state": "CA",
        "postalCode": "91750-4313"
      },
      {
        "line": [
          "250 W ARTESIA ST"
        ],
        "city": "POMONA",
        "state": "CA",
        "postalCode": "91768-1807"
      },
      {
        "line": [
          "1221 E ARROW HWY"
        ],
        "city": "UPLAND",
        "state": "CA",
        "postalCode": "91786-4911"
      },
      {
        "line": [
          "2740N Garey Ave Suite 100"
        ],
        "city": "POMONA",
        "state": "CA",
        "postalCode": "91767-1800"
      },
      {
        "line": [
          "1805 MEDICAL CENTER DR"
        ],
        "city": "SAN BERNARDINO",
        "state": "CA",
        "postalCode": "92411-1217"
      },
      {
        "line": [
          "1661 South Euclid Avenue"
        ],
        "city": "ONTARIO",
        "state": "CA",
        "postalCode": "91762-5826"
      },
      {
        "line": [
          "5000 San Bernardino St"
        ],
        "city": "MONTCLAIR",
        "state": "CA",
        "postalCode": "91763-2326"
      },
      {
        "line": [
          "1532 San Bernardino Ave"
        ],
        "city": "POMONA",
        "state": "CA",
        "postalCode": "91767-3028"
      },
      {
        "line": [
          "1291 LOMA SOLA AVE \t"
        ],
        "city": "UPLAND",
        "state": "CA",
        "postalCode": "91786-2846"
      },
      {
        "line": [
          "867 E. 11th STREET"
        ],
        "city": "UPLAND",
        "state": "CA",
        "postalCode": "91786-4867"
      },
      {
        "line": [
          "5454 WALNUT AVE"
        ],
        "city": "CHINO",
        "state": "CA",
        "postalCode": "91710-2600"
      },
      {
        "line": [
          "215 W PERAL ST"
        ],
        "city": "POMONA",
        "state": "CA",
        "postalCode": "91768-3114"
      },
      {
        "line": [
          "805 W. ARROW HIGHWAY"
        ],
        "city": "GLENDORA",
        "state": "CA",
        "postalCode": "91740-5413"
      },
      {
        "line": [
          "800 E 5th St"
        ],
        "city": "ONTARIO",
        "state": "CA",
        "postalCode": "91764-2432"
      },
      {
        "line": [
          "14318 OHIO ST"
        ],
        "city": "BALDWIN PARK",
        "state": "CA",
        "postalCode": "91706-2553"
      },
      {
        "line": [
          "590 S INDIAN HILL BLVD"
        ],
        "city": "LOS ANGELES",
        "state": "CA",
        "postalCode": "90056-1292"
      },
      {
        "line": [
          "621 N MAIN ST"
        ],
        "city": "POMONA",
        "state": "CA",
        "postalCode": "91768-4410"
      },
      {
        "line": [
          "2740 North Garey Suite 100"
        ],
        "city": "POMONA",
        "state": "CA",
        "postalCode": "91767-1800"
      },
      {
        "line": [
          "2489 MESA TERRACE AVE \t"
        ],
        "city": "UPLAND",
        "state": "CA",
        "postalCode": "91784-1078"
      },
      {
        "line": [
          "2740 N GAREY AVE STE 100"
        ],
        "city": "POMONA",
        "state": "CA",
        "postalCode": "91767-1800"
      },
      {
        "line": [
          "590 S INDIAN HILL BLVD"
        ],
        "city": "CLAREMONT",
        "state": "CA",
        "postalCode": "91711-5212"
      },
      {
        "line": [
          "550 N MONTEREY AVE"
        ],
        "city": "ONTARIO",
        "state": "CA",
        "postalCode": "91764-3318"
      },
      {
        "line": [
          "150 W Route 66"
        ],
        "city": "GLENDORA",
        "state": "CA",
        "postalCode": "91740-6207"
      },
      {
        "line": [
          "2101 N WATERMAN AVE"
        ],
        "city": "SAN BERNARDINO",
        "state": "CA",
        "postalCode": "92404-4836"
      },
      {
        "line": [
          "1318 W HARVARD PLACE \t"
        ],
        "city": "ONTARIO",
        "state": "CA",
        "postalCode": "91762-1721"
      },
      {
        "line": [
          "1495 W CAMERON AVE"
        ],
        "city": "WEST COVINA",
        "state": "CA",
        "postalCode": "91790-2710"
      },
      {
        "line": [
          "1033 E ARROW HWY"
        ],
        "city": "GLENDORA",
        "state": "CA",
        "postalCode": "91740-6110"
      },
      {
        "line": [
          "900 E. Harrison Ave"
        ],
        "city": "POMONA",
        "state": "CA",
        "postalCode": "91767-2075"
      },
      {
        "line": [
          "261 W BADILLO ST"
        ],
        "city": "COVINA",
        "state": "CA",
        "postalCode": "91723-1907"
      },
      {
        "line": [
          "1234 San Bernardino"
        ],
        "city": "POMONA",
        "state": "CA",
        "postalCode": "91767-3559"
      },
      {
        "line": [
          "535 E BONITA AVE"
        ],
        "city": "SAN DIMAS",
        "state": "CA",
        "postalCode": "91773-3124"
      },
      {
        "line": [
          "10841 WHITE OAK AVE"
        ],
        "city": "RANCHO CUCAMONGA",
        "state": "CA",
        "postalCode": "91730-3811"
      },
      {
        "line": [
          "1740 SAN DIMAS AVE"
        ],
        "city": "SAN DIMAS",
        "state": "CA",
        "postalCode": "91773-5108"
      },
      {
        "line": [
          "2740 N GAREY AVE STE 100 STE A2"
        ],
        "city": "POMONA",
        "state": "CA",
        "postalCode": "91767-1800"
      },
      {
        "line": [
          "315 YORKTOWN CT \t"
        ],
        "city": "UPLAND",
        "state": "CA",
        "postalCode": "91784-1640"
      },
      {
        "line": [
          "638 EAST COLORADO AVE"
        ],
        "city": "GLENDORA",
        "state": "CA",
        "postalCode": "91740-4422"
      },
      {
        "line": [
          "1890 ARROW RTE"
        ],
        "city": "UPLAND",
        "state": "CA",
        "postalCode": "91786-4250"
      },
      {
        "line": [
          "862 23RD ST \t"
        ],
        "city": "UPLAND",
        "state": "CA",
        "postalCode": "91784-1214"
      },
      {
        "line": [
          "130 GENOA WAY \t"
        ],
        "city": "UPLAND",
        "state": "CA",
        "postalCode": "91786-6151"
      },
      {
        "line": [
          "933 E DEODAR ST"
        ],
        "city": "ONTARIO",
        "state": "CA",
        "postalCode": "91764-1309"
      },
      {
        "line": [
          "845 NORTH LARK ELLEN"
        ],
        "city": "WEST COVINA",
        "state": "CA",
        "postalCode": "91791-1009"
      },
      {
        "line": [
          "919 N SUNSET AVE"
        ],
        "city": "WEST COVINA",
        "state": "CA",
        "postalCode": "91790-1244"
      },
      {
        "line": [
          "435 E Gladstone St"
        ],
        "city": "GLENDORA",
        "state": "CA",
        "postalCode": "91740-5159"
      },
      {
        "line": [
          "721 W. HARRISON AVE"
        ],
        "city": "CLAREMONT",
        "state": "CA",
        "postalCode": "91711-4539"
      },
      {
        "line": [
          "401 W Ada Ave"
        ],
        "city": "GLENDORA",
        "state": "CA",
        "postalCode": "91741-4241"
      },
      {
        "line": [
          "5290 JONES AVE \t"
        ],
        "city": "RIVERSIDE",
        "state": "CA",
        "postalCode": "92505-1306"
      },
      {
        "line": [
          "150 W RTE 66"
        ],
        "city": "GLENDORA",
        "state": "CA",
        "postalCode": "91740-6268"
      },
      {
        "line": [
          "2600 A ST"
        ],
        "city": "LA VERNE",
        "state": "CA",
        "postalCode": "91750-4303"
      },
      {
        "line": [
          "1335 N Waterman Ave"
        ],
        "city": "SAN BERNARDINO",
        "state": "CA",
        "postalCode": "92404-5375"
      },
      {
        "line": [
          "2740 N. GAREY AVE, STE 100"
        ],
        "city": "POMONA",
        "state": "CA",
        "postalCode": "91767-1800"
      }
    ],
    "extension": [
      {
        "url": "https://fhir.athena.io/StructureDefinition/ah-practice",
        "valueReference": {
          "reference": "Organization/a-1.Practice-23222"
        }
      },
      {
        "url": "https://fhir.athena.io/StructureDefinition/ah-brand",
        "valueReference": {
          "reference": "Organization/a-23222.Brand-1"
        }
      }
    ]
  },
  "fullUrl": "urn:uuid:ba3b75c6-7b5e-5745-9282-fdbec72f4145"
}