{
  "resource": {
    "resourceType": "Organization",
    "id": "9151aeed-95a2-5d86-abf3-955e8b7e406c",
    "name": "Greenhouse Mental Healthcare",
    "endpoint": [
      {
        "reference": "Endpoint/27a4e967-47aa-5a9c-a572-b8297ee268a2"
      },
      {
        "reference": "Endpoint/ae73dc51-301c-53f3-82c7-9c4cec0a1b7d"
      }
    ],
    "identifier": [
      {
        "system": "http://hl7.org/fhir/sid/us-npi",
        "value": "1558316463"
      }
    ],
    "address": [
      {
        "line": [
          "326 Country Club Drive"
        ],
        "city": "New Albany",
        "state": "IN",
        "postalCode": "47150-4618"
      },
      {
        "line": [
          "2926 N Capitol Ave"
        ],
        "city": "INDIANAPOLIS",
        "state": "IN",
        "postalCode": "46208-5131"
      },
      {
        "line": [
          "2500 Iowa Avenue"
        ],
        "city": "Connersville",
        "state": "IN",
        "postalCode": "47331-2404"
      },
      {
        "line": [
          "10307 East County Road 100 North"
        ],
        "city": "Avon",
        "state": "IN",
        "postalCode": "46234-1250"
      },
      {
        "line": [
          "8601 SHELBY ST"
        ],
        "city": "INDIANAPOLIS",
        "state": "IN",
        "postalCode": "46227-6596"
      },
      {
        "line": [
          "1651 N Campbell St"
        ],
        "city": "Indianapolis",
        "state": "IN",
        "postalCode": "46218-5122"
      },
      {
        "line": [
          "3640 Central Ave"
        ],
        "city": "INDIANAPOLIS",
        "state": "IN",
        "postalCode": "46205-3659"
      },
      {
        "line": [
          "1809 N Madison Ave"
        ],
        "city": "ANDERSON",
        "state": "IN",
        "postalCode": "46011-2145"
      },
      {
        "line": [
          "725 N BELL TRACE CIR"
        ],
        "city": "BLOOMINGTON",
        "state": "IN",
        "postalCode": "47408-4408"
      },
      {
        "line": [
          "1745 East 67th St"
        ],
        "city": "Anderson",
        "state": "IN",
        "postalCode": "46013-9202"
      },
      {
        "line": [
          "515 Greene Blvd"
        ],
        "city": "Greenville",
        "state": "KY",
        "postalCode": "42345-1409"
      },
      {
        "line": [
          "5155 Pennwood Dr"
        ],
        "city": "Indianapolis",
        "state": "IN",
        "postalCode": "46205-1585"
      },
      {
        "line": [
          "1900 Randallia Drive"
        ],
        "city": "Fort Wayne",
        "state": "IN",
        "postalCode": "46805-4632"
      },
      {
        "line": [
          "4400 Glen Este-Withamsville Rd"
        ],
        "city": "CINCINNATI",
        "state": "OH",
        "postalCode": "45245-1306"
      },
      {
        "line": [
          "2026 E 54th St"
        ],
        "city": "Indianapolis",
        "state": "IN",
        "postalCode": "46220-3490"
      },
      {
        "line": [
          "10460 Progress Way"
        ],
        "city": "HARRISON",
        "state": "OH",
        "postalCode": "45030-1646"
      },
      {
        "line": [
          "1217 US 62 E"
        ],
        "city": "Cynthianan",
        "state": "KY",
        "postalCode": "41031-6701"
      },
      {
        "line": [
          "5700 Wilkie Drive"
        ],
        "city": "Fort Wayne",
        "state": "IN",
        "postalCode": "46804-1662"
      },
      {
        "line": [
          "1250 W 146th Street"
        ],
        "city": "Carmel",
        "state": "IN",
        "postalCode": "46074-9787"
      },
      {
        "line": [
          "1111 Church Ave"
        ],
        "city": "JASPER",
        "state": "IN",
        "postalCode": "47546-3761"
      },
      {
        "line": [
          "4255 Medwell Dr"
        ],
        "city": "NEWBURGH",
        "state": "IN",
        "postalCode": "47630-2528"
      },
      {
        "line": [
          "801 N Huntington Ave"
        ],
        "city": "Warren",
        "state": "IN",
        "postalCode": "46792-9402"
      },
      {
        "line": [
          "801 E Illinois"
        ],
        "city": "Petersburg",
        "state": "IN",
        "postalCode": "47567-8026"
      },
      {
        "line": [
          "2501 Friendship Blvd"
        ],
        "city": "Kokomo",
        "state": "IN",
        "postalCode": "46901-4199"
      },
      {
        "line": [
          "509 North Carrier St"
        ],
        "city": "Morganfield",
        "state": "KY",
        "postalCode": "42437-1201"
      },
      {
        "line": [
          "901 Blankenbaker Parkway"
        ],
        "city": "LOUISVILLE",
        "state": "KY",
        "postalCode": "40243-1884"
      },
      {
        "line": [
          "1925 Reeves Road"
        ],
        "city": "PLAINFIELD",
        "state": "IN",
        "postalCode": "46168-5501"
      },
      {
        "line": [
          "586 Eastern Blvd"
        ],
        "city": "Clarksville",
        "state": "IN",
        "postalCode": "47129-2452"
      },
      {
        "line": [
          "102 Pocahontas Trail"
        ],
        "city": "Georgetown",
        "state": "KY",
        "postalCode": "40324-1123"
      },
      {
        "line": [
          "850 Ash Street"
        ],
        "city": "HUNTINGTON",
        "state": "IN",
        "postalCode": "46750-4103"
      },
      {
        "line": [
          "11050 Presbyterian Dr"
        ],
        "city": "Indianapolis",
        "state": "IN",
        "postalCode": "46236-2982"
      },
      {
        "line": [
          "10312 Allisonville Road"
        ],
        "city": "Fishers",
        "state": "IN",
        "postalCode": "46038-2635"
      },
      {
        "line": [
          "2216 N Riley Hwy"
        ],
        "city": "Shelbyville",
        "state": "IN",
        "postalCode": "46176-9311"
      },
      {
        "line": [
          "4120 Wooded Acre Lane"
        ],
        "city": "Louisville",
        "state": "KY",
        "postalCode": "40245-2938"
      },
      {
        "line": [
          "1719 S Elm St"
        ],
        "city": "Crawfordsville",
        "state": "IN",
        "postalCode": "47933-3796"
      },
      {
        "line": [
          "108 South Miller St"
        ],
        "city": "Cynthiana",
        "state": "KY",
        "postalCode": "41031-1601"
      },
      {
        "line": [
          "1029 E 5Th St"
        ],
        "city": "Connersville",
        "state": "IN",
        "postalCode": "47331-3301"
      },
      {
        "line": [
          "9730 Prairie Lakes Blvd E"
        ],
        "city": "Noblesville",
        "state": "IN",
        "postalCode": "46060-4766"
      },
      {
        "line": [
          "2070 Chester Blvd"
        ],
        "city": "Richmond",
        "state": "IN",
        "postalCode": "47374-1215"
      },
      {
        "line": [
          "1034 Crown Pointe Blvd"
        ],
        "city": "Greensburg",
        "state": "IN",
        "postalCode": "47240-7979"
      },
      {
        "line": [
          "2630 South Keystone Ave"
        ],
        "city": "Indianapolis",
        "state": "IN",
        "postalCode": "46203-5563"
      },
      {
        "line": [
          "5011 Kessler Boulevard East"
        ],
        "city": "Indianapolis",
        "state": "IN",
        "postalCode": "46220-6328"
      },
      {
        "line": [
          "715 N Mill Street"
        ],
        "city": "Hartford City",
        "state": "IN",
        "postalCode": "47348-1834"
      },
      {
        "line": [
          "220 Masonic Home Drive"
        ],
        "city": "MASONIC HOME",
        "state": "KY",
        "postalCode": "40041-9027"
      },
      {
        "line": [
          "1023 N 20th Street"
        ],
        "city": "New Castle",
        "state": "IN",
        "postalCode": "47362-4002"
      },
      {
        "line": [
          "1285 Fairfax Manor Dr"
        ],
        "city": "Carmel",
        "state": "IN",
        "postalCode": "46032-4450"
      },
      {
        "line": [
          "167 Cr W 240 S"
        ],
        "city": "LAFAYETTE",
        "state": "IN",
        "postalCode": "47909-6300"
      },
      {
        "line": [
          "3625 Fern Valley Road"
        ],
        "city": "Louisville",
        "state": "KY",
        "postalCode": "40219-1916"
      },
      {
        "line": [
          "6831 North Chestnut Street"
        ],
        "city": "RAVENNA",
        "state": "OH",
        "postalCode": "44266-3929"
      },
      {
        "line": [
          "401 East 20Th Street"
        ],
        "city": "Covington",
        "state": "KY",
        "postalCode": "41014-1583"
      },
      {
        "line": [
          "8021 Christian Ct"
        ],
        "city": "LOUISVILLE",
        "state": "KY",
        "postalCode": "40222-9050"
      },
      {
        "line": [
          "3154 S State Road 135"
        ],
        "city": "Greenwood",
        "state": "IN",
        "postalCode": "46143-9609"
      },
      {
        "line": [
          "811 E Baseline Rd"
        ],
        "city": "EVANSVILLE",
        "state": "IN",
        "postalCode": "47725-9340"
      },
      {
        "line": [
          "251 Hwy 66"
        ],
        "city": "New Harmony",
        "state": "IN",
        "postalCode": "47631-9075"
      },
      {
        "line": [
          "517 Concord Road"
        ],
        "city": "Crawfordsville",
        "state": "IN",
        "postalCode": "47933-9002"
      },
      {
        "line": [
          "701 Henry St"
        ],
        "city": "North Vernon",
        "state": "IN",
        "postalCode": "47265-1095"
      },
      {
        "line": [
          "1251 East Main St"
        ],
        "city": "Ashland",
        "state": "OH",
        "postalCode": "44805-2810"
      },
      {
        "line": [
          "75 S Milford Dr"
        ],
        "city": "FRANKLIN",
        "state": "IN",
        "postalCode": "46131-9337"
      },
      {
        "line": [
          "297 S 100 E"
        ],
        "city": "Washington",
        "state": "IN",
        "postalCode": "47501-8007"
      },
      {
        "line": [
          "5900 Hunting Rd"
        ],
        "city": "LOUISVILLE",
        "state": "KY",
        "postalCode": "40222-6355"
      },
      {
        "line": [
          "1201 Woodcreek Drive"
        ],
        "city": "LA GRANGE",
        "state": "KY",
        "postalCode": "40031-9000"
      },
      {
        "line": [
          "1564 S University Blvd"
        ],
        "city": "UPLAND",
        "state": "IN",
        "postalCode": "46989-9199"
      },
      {
        "line": [
          "11870 Sandy Dr"
        ],
        "city": "Zionsville",
        "state": "IN",
        "postalCode": "46077-3927"
      },
      {
        "line": [
          "205 5th St"
        ],
        "city": "CARROLLTON",
        "state": "KY",
        "postalCode": "41008-1121"
      },
      {
        "line": [
          "9000 Keystone Crossing"
        ],
        "city": "Indianpolis",
        "state": "IN",
        "postalCode": "46240-2118"
      },
      {
        "line": [
          "12021 Northface Drive"
        ],
        "city": "NOBLESVILLE",
        "state": "IN",
        "postalCode": "46060-9412"
      },
      {
        "line": [
          "11851 Cumberland Rd"
        ],
        "city": "FISHERS",
        "state": "IN",
        "postalCode": "46037-8273"
      },
      {
        "line": [
          "4915 Charlestown Rd"
        ],
        "city": "NEW ALBANY",
        "state": "IN",
        "postalCode": "47150-9426"
      },
      {
        "line": [
          "520 W 9th St"
        ],
        "city": "Jasper",
        "state": "IN",
        "postalCode": "47546-2711"
      },
      {
        "line": [
          "10460 PROGRESS WAY"
        ],
        "city": "HARRISON",
        "state": "OH",
        "postalCode": "45030-0001"
      },
      {
        "line": [
          "118 Medical Dr"
        ],
        "city": "CARMEL",
        "state": "IN",
        "postalCode": "46032-3323"
      },
      {
        "line": [
          "5430 W Us 40"
        ],
        "city": "Greenfield",
        "state": "IN",
        "postalCode": "46140-8803"
      },
      {
        "line": [
          "6510 US 31 South"
        ],
        "city": "Indianapolis",
        "state": "IN",
        "postalCode": "46227-2280"
      },
      {
        "line": [
          "1750 Lindberg Road"
        ],
        "city": "West Lafayette",
        "state": "IN",
        "postalCode": "47906-4956"
      },
      {
        "line": [
          "1290 Fairchild Ave"
        ],
        "city": "Kent",
        "state": "OH",
        "postalCode": "44240-1814"
      },
      {
        "line": [
          "55 E Willow Street"
        ],
        "city": "Nashville",
        "state": "IN",
        "postalCode": "47448-7013"
      },
      {
        "line": [
          "1630 S. County Farm Road"
        ],
        "city": "WARSAW",
        "state": "IN",
        "postalCode": "46580-8248"
      },
      {
        "line": [
          "421 West Main St"
        ],
        "city": "FRANKFORT",
        "state": "KY",
        "postalCode": "40601-1729"
      },
      {
        "line": [
          "120 S. Hubbards Lane"
        ],
        "city": "Louisville",
        "state": "KY",
        "postalCode": "40207-3993"
      },
      {
        "line": [
          "937 Fry Rd"
        ],
        "city": "Greenwood",
        "state": "IN",
        "postalCode": "46142-1820"
      },
      {
        "line": [
          "501 North 2Nd Street"
        ],
        "city": "LOVELAND",
        "state": "OH",
        "postalCode": "45140-6667"
      },
      {
        "line": [
          "269 Meadowview Drive"
        ],
        "city": "Peru",
        "state": "IN",
        "postalCode": "46970-8896"
      },
      {
        "line": [
          "981 Beechwood Ave"
        ],
        "city": "Middletown",
        "state": "IN",
        "postalCode": "47356-9358"
      },
      {
        "line": [
          "2741 N Salisbury St"
        ],
        "city": "West Lafayette",
        "state": "IN",
        "postalCode": "47906-1431"
      },
      {
        "line": [
          "11570 E 126th Street"
        ],
        "city": "FISHERS",
        "state": "IN",
        "postalCode": "46037-9592"
      },
      {
        "line": [
          "1118 West Cross St."
        ],
        "city": "ANDERSON",
        "state": "IN",
        "postalCode": "46011-9530"
      },
      {
        "line": [
          "1215 North Elm Street"
        ],
        "city": "Three Rivers",
        "state": "MI",
        "postalCode": "49093-1388"
      },
      {
        "line": [
          "120 Lamotte Dr"
        ],
        "city": "Hilton Head",
        "state": "SC",
        "postalCode": "29926-2792"
      },
      {
        "line": [
          "505 N Gavin St"
        ],
        "city": "Muncie",
        "state": "IN",
        "postalCode": "47303-4167"
      },
      {
        "line": [
          "269 Meadowview Drive"
        ],
        "city": "Peru",
        "state": "IN",
        "postalCode": "46970-8996"
      },
      {
        "line": [
          "2344 Amsterdam Road"
        ],
        "city": "Villa Hills",
        "state": "KY",
        "postalCode": "41017-3712"
      },
      {
        "line": [
          "98 ADAMS ST"
        ],
        "city": "NEW CASTLE",
        "state": "KY",
        "postalCode": "40050-3089"
      },
      {
        "line": [
          "2444 South State Rd 135"
        ],
        "city": "GREENWOOD",
        "state": "IN",
        "postalCode": "46143-9446"
      },
      {
        "line": [
          "181 Campus Dr"
        ],
        "city": "LAWRENCEBURG",
        "state": "IN",
        "postalCode": "47025-1387"
      },
      {
        "line": [
          "110 Beverly Dr"
        ],
        "city": "CHESTERTON",
        "state": "IN",
        "postalCode": "46304-9368"
      },
      {
        "line": [
          "4100 N Morrison Rd"
        ],
        "city": "MUNCIE",
        "state": "IN",
        "postalCode": "47304-6043"
      },
      {
        "line": [
          "1694 Troy Road"
        ],
        "city": "Washington",
        "state": "IN",
        "postalCode": "47501-8216"
      },
      {
        "line": [
          "9701 Whipps Mill Rd."
        ],
        "city": "LOUISVILLE",
        "state": "KY",
        "postalCode": "40223-1103"
      },
      {
        "line": [
          "4300 W GOELLER BLVD"
        ],
        "city": "COLUMBUS",
        "state": "IN",
        "postalCode": "47201-8050"
      },
      {
        "line": [
          "120 E Miller Drive"
        ],
        "city": "Bloomington",
        "state": "IN",
        "postalCode": "47401-6538"
      },
      {
        "line": [
          "240 Beechmont Dr"
        ],
        "city": "CORYDON",
        "state": "IN",
        "postalCode": "47112-1718"
      },
      {
        "line": [
          "300 Plaza Drive"
        ],
        "city": "Cold Spring",
        "state": "KY",
        "postalCode": "41076-2168"
      },
      {
        "line": [
          "2140 W 86Th St"
        ],
        "city": "Indianapolis",
        "state": "IN",
        "postalCode": "46260-1904"
      },
      {
        "line": [
          "2225 Shelby Street"
        ],
        "city": "Indianpolis",
        "state": "IN",
        "postalCode": "46203-4260"
      },
      {
        "line": [
          "5202 St. Joe Road"
        ],
        "city": "FORT WAYNE",
        "state": "IN",
        "postalCode": "46835-3380"
      },
      {
        "line": [
          "601 E Race St"
        ],
        "city": "ODON",
        "state": "IN",
        "postalCode": "47562-1425"
      },
      {
        "line": [
          "800 St Joseph Dr"
        ],
        "city": "KOKOMO",
        "state": "IN",
        "postalCode": "46901-1983"
      },
      {
        "line": [
          "45 Beachway Dr"
        ],
        "city": "INDIANAPOLIS",
        "state": "IN",
        "postalCode": "46224-8501"
      },
      {
        "line": [
          "401 SE Sixth St"
        ],
        "city": "Evansville",
        "state": "IN",
        "postalCode": "47713-1215"
      },
      {
        "line": [
          "9600 East 146th Street"
        ],
        "city": "Noblesville",
        "state": "IN",
        "postalCode": "46060-4990"
      },
      {
        "line": [
          "2905 W Sycamore St"
        ],
        "city": "Kokomo",
        "state": "IN",
        "postalCode": "46901-4078"
      },
      {
        "line": [
          "1301 Myers Road"
        ],
        "city": "Celina",
        "state": "OH",
        "postalCode": "45822-4114"
      },
      {
        "line": [
          "675 S Ford Rd"
        ],
        "city": "Zionsville",
        "state": "IN",
        "postalCode": "46077-2051"
      },
      {
        "line": [
          "302 North Johnson Road"
        ],
        "city": "Mooresville",
        "state": "IN",
        "postalCode": "46158-5504"
      },
      {
        "line": [
          "1500 Grant St"
        ],
        "city": "Huntington",
        "state": "IN",
        "postalCode": "46750-3122"
      },
      {
        "line": [
          "Highway 165 West"
        ],
        "city": "Owensville",
        "state": "IN",
        "postalCode": "47665-8734"
      },
      {
        "line": [
          "620 Valley College Dr"
        ],
        "city": "LOUISVILLE",
        "state": "KY",
        "postalCode": "40272-2794"
      },
      {
        "line": [
          "3016 Portage Ave"
        ],
        "city": "South Bend",
        "state": "IN",
        "postalCode": "46628-3501"
      },
      {
        "line": [
          "1335 S Guilford Road"
        ],
        "city": "Carmel",
        "state": "IN",
        "postalCode": "46032-2999"
      },
      {
        "line": [
          "8400 Clearvista Pl"
        ],
        "city": "Indianapolis",
        "state": "IN",
        "postalCode": "46256-3700"
      },
      {
        "line": [
          "800 Ambrose Dr"
        ],
        "city": "DELPHOS",
        "state": "OH",
        "postalCode": "45833-9146"
      },
      {
        "line": [
          "5909 Lute Road"
        ],
        "city": "Portage",
        "state": "IN",
        "postalCode": "46368-4824"
      },
      {
        "line": [
          "100 W Ramsey"
        ],
        "city": "Dawson Springs",
        "state": "KY",
        "postalCode": "42408-1739"
      },
      {
        "line": [
          "1200 Whitlatch Way"
        ],
        "city": "Milan",
        "state": "IN",
        "postalCode": "47031-8362"
      },
      {
        "line": [
          "3525 E Hanna Ave"
        ],
        "city": "Indianapolis",
        "state": "IN",
        "postalCode": "46237-1230"
      },
      {
        "line": [
          "1667 Sheridan Rd"
        ],
        "city": "Noblesville",
        "state": "IN",
        "postalCode": "46060-8723"
      },
      {
        "line": [
          "351 N Allen Chapel Road"
        ],
        "city": "Kendallville",
        "state": "IN",
        "postalCode": "46755-3034"
      },
      {
        "line": [
          "6990 East County Road 100 North"
        ],
        "city": "Avon",
        "state": "IN",
        "postalCode": "46123-9711"
      },
      {
        "line": [
          "3100 Shawnee Dr S"
        ],
        "city": "Bedford",
        "state": "IN",
        "postalCode": "47421-5287"
      },
      {
        "line": [
          "44 Chateau Blvd"
        ],
        "city": "Batesville",
        "state": "IN",
        "postalCode": "47006-5744"
      },
      {
        "line": [
          "3114 E 46th Street"
        ],
        "city": "Indianapolis",
        "state": "IN",
        "postalCode": "46205-2413"
      },
      {
        "line": [
          "6311 W CR 900 N"
        ],
        "city": "McCordsville",
        "state": "IN",
        "postalCode": "46055-9647"
      },
      {
        "line": [
          "100 Windsor Path"
        ],
        "city": "GEORGETOWN",
        "state": "KY",
        "postalCode": "40324-9617"
      },
      {
        "line": [
          "4725 S Colonial Oaks Drive"
        ],
        "city": "Marion",
        "state": "IN",
        "postalCode": "46953-5341"
      },
      {
        "line": [
          "200 Hamlet Hills Drive"
        ],
        "city": "CHAGRIN FALLS",
        "state": "OH",
        "postalCode": "44022-2870"
      },
      {
        "line": [
          "2330 Smith Road"
        ],
        "city": "Akron",
        "state": "OH",
        "postalCode": "44333-2927"
      },
      {
        "line": [
          "7125 S. Hanna St."
        ],
        "city": "FORT WAYNE",
        "state": "IN",
        "postalCode": "46816-1166"
      },
      {
        "line": [
          "1496 N Gardner St"
        ],
        "city": "SCOTTSBURG",
        "state": "IN",
        "postalCode": "47170-7751"
      },
      {
        "line": [
          "1630 S County Farm Rd"
        ],
        "city": "WARSAW",
        "state": "IN",
        "postalCode": "46580-8248"
      },
      {
        "line": [
          "3101 N Hurstbourne Pkwy"
        ],
        "city": "Louisville",
        "state": "KY",
        "postalCode": "40241-2208"
      },
      {
        "line": [
          "10451 Linn Station Road"
        ],
        "city": "Louisville",
        "state": "KY",
        "postalCode": "40223-3835"
      },
      {
        "line": [
          "11530 HERRICK LN"
        ],
        "city": "LOUISVILLE",
        "state": "KY",
        "postalCode": "40243-1375"
      },
      {
        "line": [
          "6311 W CR 900 N"
        ],
        "city": "McCordsville",
        "state": "IN",
        "postalCode": "46055-9367"
      },
      {
        "line": [
          "1420 E Main Street"
        ],
        "city": "New Albany",
        "state": "IN",
        "postalCode": "47150-5789"
      },
      {
        "line": [
          "6700 Overlook Dr"
        ],
        "city": "LOUISVILLE",
        "state": "KY",
        "postalCode": "40241-6583"
      },
      {
        "line": [
          "3811 Parnell Ave"
        ],
        "city": "FORT WAYNE",
        "state": "IN",
        "postalCode": "46805-1409"
      },
      {
        "line": [
          "8480 Craig Street"
        ],
        "city": "Indianapolis",
        "state": "IN",
        "postalCode": "46250-4745"
      },
      {
        "line": [
          "2400 Chateau Dr"
        ],
        "city": "Muncie",
        "state": "IN",
        "postalCode": "47303-1900"
      },
      {
        "line": [
          "811 E Baseline Rd"
        ],
        "city": "Evansville",
        "state": "IN",
        "postalCode": "47725-9340"
      },
      {
        "line": [
          "831 Swope Street"
        ],
        "city": "Greenfield",
        "state": "IN",
        "postalCode": "46140-7431"
      },
      {
        "line": [
          "11725 Madison Pike"
        ],
        "city": "Independence",
        "state": "KY",
        "postalCode": "41051-8637"
      },
      {
        "line": [
          "522 Western Avenue"
        ],
        "city": "St Henry",
        "state": "OH",
        "postalCode": "45883-9777"
      },
      {
        "line": [
          "1251 W 96Th St"
        ],
        "city": "Indianapolis",
        "state": "IN",
        "postalCode": "46260-1181"
      },
      {
        "line": [
          "817 Whitlock Avenue"
        ],
        "city": "Crawfordsville",
        "state": "IN",
        "postalCode": "47933-1499"
      },
      {
        "line": [
          "2420 E 4rd St"
        ],
        "city": "Owensboro",
        "state": "KY",
        "postalCode": "42301-1854"
      },
      {
        "line": [
          "125 W Margaret Ave"
        ],
        "city": "Terre Haute",
        "state": "IN",
        "postalCode": "47802-3799"
      },
      {
        "line": [
          "200 26th St"
        ],
        "city": "Logansport",
        "state": "IN",
        "postalCode": "46947-2063"
      },
      {
        "line": [
          "501 N 17th Ave"
        ],
        "city": "Beech Grove",
        "state": "IN",
        "postalCode": "46107-1169"
      },
      {
        "line": [
          "403 Bielby Rd"
        ],
        "city": "LAWRENCEBURG",
        "state": "IN",
        "postalCode": "47025-1003"
      },
      {
        "line": [
          "1924 Wellesley Blvd"
        ],
        "city": "INDIANAPOLIS",
        "state": "IN",
        "postalCode": "46219-2404"
      },
      {
        "line": [
          "112 Dover Drive"
        ],
        "city": "Georgetown",
        "state": "KY",
        "postalCode": "40324-9741"
      },
      {
        "line": [
          "8505 Woodfield Crossing Blvd"
        ],
        "city": "Indianapolis",
        "state": "IN",
        "postalCode": "46240-4309"
      },
      {
        "line": [
          "2 Chase Park"
        ],
        "city": "Logansport",
        "state": "IN",
        "postalCode": "46947-1668"
      },
      {
        "line": [
          "1701 Mcdowell Rd"
        ],
        "city": "Evansville",
        "state": "IN",
        "postalCode": "47712-5431"
      },
      {
        "line": [
          "2200 South Dixon Road"
        ],
        "city": "Kokomo",
        "state": "IN",
        "postalCode": "46902-6406"
      },
      {
        "line": [
          "1123 N Edmondson Ave"
        ],
        "city": "Indianapolis",
        "state": "IN",
        "postalCode": "46219-3566"
      },
      {
        "line": [
          "305 E North St"
        ],
        "city": "Boonville",
        "state": "IN",
        "postalCode": "47601-1357"
      },
      {
        "line": [
          "1255 Demaree Road"
        ],
        "city": "Greenwood",
        "state": "IN",
        "postalCode": "46143-9518"
      },
      {
        "line": [
          "1700 I St"
        ],
        "city": "LaPorte",
        "state": "IN",
        "postalCode": "46350-7550"
      },
      {
        "line": [
          "2500 North Elm St"
        ],
        "city": "Henderson",
        "state": "KY",
        "postalCode": "42420-2005"
      },
      {
        "line": [
          "868 S Washington St"
        ],
        "city": "Morristown",
        "state": "IN",
        "postalCode": "46161-9633"
      },
      {
        "line": [
          "3177 Meridian Parke Dr"
        ],
        "city": "Greenwood",
        "state": "IN",
        "postalCode": "46142-9629"
      },
      {
        "line": [
          "937 E 186Th Street"
        ],
        "city": "Westfield",
        "state": "IN",
        "postalCode": "46074-7827"
      },
      {
        "line": [
          "6901 Carslaw Court"
        ],
        "city": "PROSPECT",
        "state": "KY",
        "postalCode": "40059-8358"
      },
      {
        "line": [
          "1051 Cumberland Ave"
        ],
        "city": "West Lafayette",
        "state": "IN",
        "postalCode": "47906-1447"
      },
      {
        "line": [
          "12999 N Pennsylvania St"
        ],
        "city": "Carmel",
        "state": "IN",
        "postalCode": "46032-5477"
      },
      {
        "line": [
          "313 Main Street"
        ],
        "city": "Fordsville",
        "state": "KY",
        "postalCode": "42343-9763"
      },
      {
        "line": [
          "2335 N Madison Ave"
        ],
        "city": "Anderson",
        "state": "IN",
        "postalCode": "46011-9591"
      },
      {
        "line": [
          "8683 Clearcreek Franklin Rd"
        ],
        "city": "Springboro",
        "state": "OH",
        "postalCode": "45066-9824"
      },
      {
        "line": [
          "13600 LaGrange Rd"
        ],
        "city": "Louisville",
        "state": "KY",
        "postalCode": "40245-2940"
      },
      {
        "line": [
          "404 W Willow Rd"
        ],
        "city": "Dale",
        "state": "IN",
        "postalCode": "47523-8947"
      },
      {
        "line": [
          "200 Brookside Drive"
        ],
        "city": "LOUISVILLE",
        "state": "KY",
        "postalCode": "40243-1277"
      },
      {
        "line": [
          "2200 Stony Brook Dr"
        ],
        "city": "LOUISVILLE",
        "state": "KY",
        "postalCode": "40220-4014"
      },
      {
        "line": [
          "524 W  53rd Steet"
        ],
        "city": "Anderson",
        "state": "IN",
        "postalCode": "46013-1323"
      },
      {
        "line": [
          "600 West National Road"
        ],
        "city": "Englewood",
        "state": "OH",
        "postalCode": "45322-1469"
      },
      {
        "line": [
          "8405 Clearvista Place"
        ],
        "city": "INDIANAPOLIS",
        "state": "IN",
        "postalCode": "46256-3737"
      },
      {
        "line": [
          "2460 GLEBE ST"
        ],
        "city": "CARMEL",
        "state": "IN",
        "postalCode": "46032-7154"
      },
      {
        "line": [
          "100 Shelby Station Dr"
        ],
        "city": "LOUISVILLE",
        "state": "KY",
        "postalCode": "40245-4182"
      },
      {
        "line": [
          "259 E Harrison Street"
        ],
        "city": "Mooresville",
        "state": "IN",
        "postalCode": "46158-1647"
      },
      {
        "line": [
          "11851 Cumberland Rd"
        ],
        "city": "Fishers",
        "state": "IN",
        "postalCode": "46037-8273"
      },
      {
        "line": [
          "5226 E  82nd"
        ],
        "city": "Indianapolis",
        "state": "IN",
        "postalCode": "46250-1628"
      },
      {
        "line": [
          "123 Way"
        ],
        "city": "NOBLESVILLE",
        "state": "IN",
        "postalCode": "46060-9412"
      },
      {
        "line": [
          "11563 W 300 S"
        ],
        "city": "Dunkirk",
        "state": "IN",
        "postalCode": "47336-9044"
      },
      {
        "line": [
          "616 Green House Way"
        ],
        "city": "Carmel",
        "state": "IN",
        "postalCode": "46302-3178"
      },
      {
        "line": [
          "2402 South Street"
        ],
        "city": "Lafayette",
        "state": "IN",
        "postalCode": "47904-3063"
      },
      {
        "line": [
          "1315 KitchenAid Way"
        ],
        "city": "Greenville",
        "state": "OH",
        "postalCode": "45331-1394"
      },
      {
        "line": [
          "800 Ambrose Dr"
        ],
        "city": "Delphos",
        "state": "OH",
        "postalCode": "45833-9146"
      },
      {
        "line": [
          "650 Fairway Dr"
        ],
        "city": "EVANSVILLE",
        "state": "IN",
        "postalCode": "47710-3306"
      },
      {
        "line": [
          "9796 E 131st St"
        ],
        "city": "Fishers",
        "state": "IN",
        "postalCode": "46038-3601"
      },
      {
        "line": [
          "317 Oddville Ave"
        ],
        "city": "Cynthiana",
        "state": "KY",
        "postalCode": "41031-1142"
      },
      {
        "line": [
          "8549 S. MADISON AVENUE"
        ],
        "city": "INDIANAPOLIS",
        "state": "IN",
        "postalCode": "46227-6153"
      },
      {
        "line": [
          "505 South Chillicothe Rd"
        ],
        "city": "Aurora",
        "state": "OH",
        "postalCode": "44202-6537"
      },
      {
        "line": [
          "1345 N MADISON AVE"
        ],
        "city": "ANDERSON",
        "state": "IN",
        "postalCode": "46011-1215"
      },
      {
        "line": [
          "7160 Dallas Parkway"
        ],
        "city": "Danville",
        "state": "IN",
        "postalCode": "46122-1948"
      },
      {
        "line": [
          "295 Village Lane"
        ],
        "city": "Greenwood",
        "state": "IN",
        "postalCode": "46143-2440"
      },
      {
        "line": [
          "303 North Hurstbourne Parkway"
        ],
        "city": "HAMILTON",
        "state": "OH",
        "postalCode": "45011-3564"
      },
      {
        "line": [
          "7504 Westport Road"
        ],
        "city": "Louisville",
        "state": "KY",
        "postalCode": "40222-4180"
      },
      {
        "line": [
          "9745 Olympia Drive"
        ],
        "city": "Fishers",
        "state": "IN",
        "postalCode": "46037-9226"
      },
      {
        "line": [
          "2 East Tilden"
        ],
        "city": "Brownsburg",
        "state": "IN",
        "postalCode": "46112-1648"
      },
      {
        "line": [
          "2770 S Adams Rd"
        ],
        "city": "Bloomington",
        "state": "IN",
        "postalCode": "47403-3242"
      },
      {
        "line": [
          "7900 RHODE ISLAND ST"
        ],
        "city": "MERRILLVILLE",
        "state": "IN",
        "postalCode": "46410-5666"
      },
      {
        "line": [
          "2510 Vienna Pkwy"
        ],
        "city": "DAYTON",
        "state": "OH",
        "postalCode": "45459-1486"
      },
      {
        "line": [
          "400 W Seventh St"
        ],
        "city": "NORTH MANCHESTER",
        "state": "IN",
        "postalCode": "46962-1199"
      },
      {
        "line": [
          "3518 S  Lafountain St"
        ],
        "city": "Kokomo",
        "state": "IN",
        "postalCode": "46902-3803"
      },
      {
        "line": [
          "20 John Kissinger Drive"
        ],
        "city": "Wabash",
        "state": "IN",
        "postalCode": "46992-1648"
      },
      {
        "line": [
          "7235 Riverwalk Way North"
        ],
        "city": "Noblesville",
        "state": "IN",
        "postalCode": "46062-7001"
      },
      {
        "line": [
          "4010 S Ironwood Dr"
        ],
        "city": "South Bend",
        "state": "IN",
        "postalCode": "46614-2200"
      },
      {
        "line": [
          "250 Shenandoah Drive"
        ],
        "city": "LAFAYETTE",
        "state": "IN",
        "postalCode": "47905-5927"
      },
      {
        "line": [
          "2002 West 86th Street"
        ],
        "city": "Indianapolis",
        "state": "IN",
        "postalCode": "46260-1903"
      },
      {
        "line": [
          "3600 E Bristol St."
        ],
        "city": "ELKHART",
        "state": "IN",
        "postalCode": "46514-4471"
      },
      {
        "line": [
          "7145 E 21ST ST"
        ],
        "city": "INDIANAPOLIS",
        "state": "IN",
        "postalCode": "46219-1715"
      },
      {
        "line": [
          "3802 Klondike Lane"
        ],
        "city": "Louisville",
        "state": "KY",
        "postalCode": "40218-1715"
      },
      {
        "line": [
          "1400 Medical Park Drive"
        ],
        "city": "Fort Wayne",
        "state": "IN",
        "postalCode": "46825-5832"
      },
      {
        "line": [
          "9700 Stonestreet Road"
        ],
        "city": "Louisville",
        "state": "KY",
        "postalCode": "40272-2884"
      },
      {
        "line": [
          "6996 S Us 421"
        ],
        "city": "Versailles",
        "state": "IN",
        "postalCode": "47042-9390"
      },
      {
        "line": [
          "2582 Cerulean Road"
        ],
        "city": "Cadiz",
        "state": "KY",
        "postalCode": "42211-9605"
      },
      {
        "line": [
          "150 Cornwall Dr"
        ],
        "city": "Madisonville",
        "state": "KY",
        "postalCode": "42431-8781"
      },
      {
        "line": [
          "1205 N 14Th St"
        ],
        "city": "Lafayette",
        "state": "IN",
        "postalCode": "47904-2024"
      },
      {
        "line": [
          "11351 Lafayette Plain City Rd"
        ],
        "city": "Plain City",
        "state": "OH",
        "postalCode": "43064-8519"
      },
      {
        "line": [
          "334 S Cherry Street"
        ],
        "city": "Westfield",
        "state": "IN",
        "postalCode": "46074-9085"
      },
      {
        "line": [
          "1900 Jeanwood Dr"
        ],
        "city": "ELKHART",
        "state": "IN",
        "postalCode": "46514-4769"
      },
      {
        "line": [
          "7843 W Jefferson Blvd"
        ],
        "city": "FORT WAYNE",
        "state": "IN",
        "postalCode": "46804-4137"
      },
      {
        "line": [
          "421 W Main st"
        ],
        "city": "FRANKFORT",
        "state": "KY",
        "postalCode": "40601-1815"
      },
      {
        "line": [
          "1903 Union Street"
        ],
        "city": "Lafayette",
        "state": "IN",
        "postalCode": "47904-2627"
      },
      {
        "line": [
          "1500 Pride Ave"
        ],
        "city": "Madisonville",
        "state": "KY",
        "postalCode": "42431-9157"
      },
      {
        "line": [
          "3001 N Hurstbourne Pkwy"
        ],
        "city": "LOUISVILLE",
        "state": "KY",
        "postalCode": "40241-2209"
      },
      {
        "line": [
          "2201 Cason St"
        ],
        "city": "Lafayette",
        "state": "IN",
        "postalCode": "47904-2613"
      },
      {
        "line": [
          "2010 N Capitol Ave"
        ],
        "city": "Indianapolis",
        "state": "IN",
        "postalCode": "46202-1222"
      },
      {
        "line": [
          "210 STATE HIGHWAY 43"
        ],
        "city": "SPENCER",
        "state": "IN",
        "postalCode": "47460-6725"
      },
      {
        "line": [
          "1143 23Rd St"
        ],
        "city": "Tell City",
        "state": "IN",
        "postalCode": "47586-2562"
      },
      {
        "line": [
          "2460 Glebe St"
        ],
        "city": "Carmel",
        "state": "IN",
        "postalCode": "46032-7154"
      },
      {
        "line": [
          "950 Highpoint Drive"
        ],
        "city": "Hopkinsville",
        "state": "KY",
        "postalCode": "42240-2570"
      },
      {
        "line": [
          "10000 COLUMBIA AVE"
        ],
        "city": "MUNSTER",
        "state": "IN",
        "postalCode": "46321-4041"
      },
      {
        "line": [
          "1635 N Arlington Avenue"
        ],
        "city": "Indianapolis",
        "state": "IN",
        "postalCode": "46218-5181"
      },
      {
        "line": [
          "8809 Madison Avenue"
        ],
        "city": "Indianapolis",
        "state": "IN",
        "postalCode": "46227-6465"
      },
      {
        "line": [
          "14901 Carey Rd"
        ],
        "city": "Carmel",
        "state": "IN",
        "postalCode": "46033-6000"
      },
      {
        "line": [
          "401 E 20th Street"
        ],
        "city": "Covington",
        "state": "KY",
        "postalCode": "41014-1583"
      },
      {
        "line": [
          "530 W Tanglewood Ln"
        ],
        "city": "Mishawaka",
        "state": "IN",
        "postalCode": "46545-2627"
      },
      {
        "line": [
          "8810 Colby Blvd"
        ],
        "city": "INDIANAPOLIS",
        "state": "IN",
        "postalCode": "46268-1399"
      },
      {
        "line": [
          "3851 N River Rd"
        ],
        "city": "Lafayette",
        "state": "IN",
        "postalCode": "47906-3762"
      },
      {
        "line": [
          "6510 US 31 South"
        ],
        "city": "Indianapolis",
        "state": "IN",
        "postalCode": "46227-2288"
      },
      {
        "line": [
          "517 N Little League Blvd"
        ],
        "city": "Clarksville",
        "state": "IN",
        "postalCode": "47129-6629"
      },
      {
        "line": [
          "25 East County Road 300 South"
        ],
        "city": "New Castle",
        "state": "IN",
        "postalCode": "47362-9624"
      },
      {
        "line": [
          "3518 SHELBY ST"
        ],
        "city": "INDIANAPOLIS",
        "state": "IN",
        "postalCode": "46227-3226"
      },
      {
        "line": [
          "622 Center St"
        ],
        "city": "Ashland",
        "state": "OH",
        "postalCode": "44805-3343"
      },
      {
        "line": [
          "5600 E 16TH ST"
        ],
        "city": "INDIANAPOLIS",
        "state": "IN",
        "postalCode": "46218-5012"
      },
      {
        "line": [
          "107 Boyles Drive"
        ],
        "city": "Russellville",
        "state": "KY",
        "postalCode": "42276-8838"
      },
      {
        "line": [
          "603 Saint Joseph Drive"
        ],
        "city": "Kokomo",
        "state": "IN",
        "postalCode": "46901-4189"
      },
      {
        "line": [
          "6701 S Anthony Blvd"
        ],
        "city": "Fort Wayne",
        "state": "IN",
        "postalCode": "46816-2012"
      },
      {
        "line": [
          "255 Meadow Dr"
        ],
        "city": "Danville",
        "state": "IN",
        "postalCode": "46122-1415"
      },
      {
        "line": [
          "1285 W Jefferson St"
        ],
        "city": "FRANKLIN",
        "state": "IN",
        "postalCode": "46131-9048"
      },
      {
        "line": [
          "2601 Covington Commons Dr"
        ],
        "city": "Fort Wayne",
        "state": "IN",
        "postalCode": "46804-7333"
      },
      {
        "line": [
          "7133 Meadow Trail"
        ],
        "city": "Brownsburg",
        "state": "IN",
        "postalCode": "46112-1388"
      },
      {
        "line": [
          "2510 VIENNA PKWY"
        ],
        "city": "DAYTON",
        "state": "OH",
        "postalCode": "45459-1486"
      },
      {
        "line": [
          "900 South A Street"
        ],
        "city": "Richmond",
        "state": "IN",
        "postalCode": "47374-5558"
      },
      {
        "line": [
          "0548 S 100 W"
        ],
        "city": "Hartford City",
        "state": "IN",
        "postalCode": "47348-9507"
      },
      {
        "line": [
          "2410 E Mcgalliard Rd"
        ],
        "city": "MUNCIE",
        "state": "IN",
        "postalCode": "47303-3436"
      },
      {
        "line": [
          "1750 S Creasy Ln"
        ],
        "city": "Lafayette",
        "state": "IN",
        "postalCode": "47905-4911"
      },
      {
        "line": [
          "150 Beechmont Dr"
        ],
        "city": "CORYDON",
        "state": "IN",
        "postalCode": "47112-1717"
      },
      {
        "line": [
          "12130 OLD MERIDIAN SR"
        ],
        "city": "CARMEL",
        "state": "IN",
        "postalCode": "46032-8787"
      },
      {
        "line": [
          "910 W Walnut Street"
        ],
        "city": "Albany",
        "state": "IN",
        "postalCode": "47320-1530"
      },
      {
        "line": [
          "607 Virginia Ave"
        ],
        "city": "MADISON",
        "state": "IN",
        "postalCode": "47250-3847"
      },
      {
        "line": [
          "3043 North Lintel Drive"
        ],
        "city": "Bloomington",
        "state": "IN",
        "postalCode": "47404-8945"
      },
      {
        "line": [
          "7770 Burr Street"
        ],
        "city": "SCHERERVILLE",
        "state": "IN",
        "postalCode": "46375-3567"
      },
      {
        "line": [
          "101 Hawkins St"
        ],
        "city": "LAWRENCEBURG",
        "state": "KY",
        "postalCode": "40342-1213"
      },
      {
        "line": [
          "1850 West Matador St"
        ],
        "city": "PERU",
        "state": "IN",
        "postalCode": "46970-3711"
      },
      {
        "line": [
          "3895 S Keystone Ave"
        ],
        "city": "INDIANAPOLIS",
        "state": "IN",
        "postalCode": "46227-3540"
      },
      {
        "line": [
          "1176 KINGWOOD DR"
        ],
        "city": "AVON",
        "state": "IN",
        "postalCode": "46123-5501"
      },
      {
        "line": [
          "325 Lincoln Way"
        ],
        "city": "BARDSTOWN",
        "state": "KY",
        "postalCode": "40004-2003"
      },
      {
        "line": [
          "8616 W 10th Street"
        ],
        "city": "Indianapolis",
        "state": "IN",
        "postalCode": "46234-2167"
      },
      {
        "line": [
          "1409 North Ewing St"
        ],
        "city": "SEYMOUR",
        "state": "IN",
        "postalCode": "47274-1118"
      },
      {
        "line": [
          "319 E  12th St"
        ],
        "city": "Anderson",
        "state": "IN",
        "postalCode": "46016-1756"
      },
      {
        "line": [
          "12336 West Highway 42"
        ],
        "city": "Goshen",
        "state": "KY",
        "postalCode": "40026-9794"
      },
      {
        "line": [
          "4650 East Galbraith Road"
        ],
        "city": "CINCINNATI",
        "state": "OH",
        "postalCode": "45236-2792"
      },
      {
        "line": [
          "182 S County Road 550 E"
        ],
        "city": "AVON",
        "state": "IN",
        "postalCode": "46123-7057"
      },
      {
        "line": [
          "640 Jericho Rd"
        ],
        "city": "LA GRANGE",
        "state": "KY",
        "postalCode": "40031-1238"
      },
      {
        "line": [
          "2695 Shelden St."
        ],
        "city": "WARSAW",
        "state": "IN",
        "postalCode": "46580-6544"
      },
      {
        "line": [
          "213 Water Street"
        ],
        "city": "Dawson Springs",
        "state": "KY",
        "postalCode": "42408-1727"
      },
      {
        "line": [
          "7525 Rosegate Dr"
        ],
        "city": "Indianapolis",
        "state": "IN",
        "postalCode": "46237-8353"
      },
      {
        "line": [
          "2727 Crownpointe Cir"
        ],
        "city": "Anderson",
        "state": "IN",
        "postalCode": "46012-3264"
      },
      {
        "line": [
          "714 S Eickhoff Rd"
        ],
        "city": "Evansville",
        "state": "IN",
        "postalCode": "47712-9006"
      },
      {
        "line": [
          "60583 State Route 7"
        ],
        "city": "SHADYSIDE",
        "state": "OH",
        "postalCode": "43947-9704"
      },
      {
        "line": [
          "4515 22nd StNW"
        ],
        "city": "CANTON",
        "state": "OH",
        "postalCode": "44708-1573"
      },
      {
        "line": [
          "1010 Hornaday Rd"
        ],
        "city": "BROWNSBURG",
        "state": "IN",
        "postalCode": "46112-1972"
      },
      {
        "line": [
          "370 E Main St"
        ],
        "city": "Rossville",
        "state": "IN",
        "postalCode": "46065-9495"
      },
      {
        "line": [
          "2050 Chester Blvd"
        ],
        "city": "Richmond",
        "state": "IN",
        "postalCode": "47374-1215"
      },
      {
        "line": [
          "1473 E McKay Rd"
        ],
        "city": "Shelbyville",
        "state": "IN",
        "postalCode": "46176-8749"
      },
      {
        "line": [
          "333 E. Washington Blvd."
        ],
        "city": "FORT WAYNE",
        "state": "IN",
        "postalCode": "46802-3134"
      },
      {
        "line": [
          "2750 West Fair Avenue"
        ],
        "city": "LANCASTER",
        "state": "OH",
        "postalCode": "43130-9500"
      },
      {
        "line": [
          "809 W Freeman Street"
        ],
        "city": "Frankfort",
        "state": "IN",
        "postalCode": "46041-2944"
      },
      {
        "line": [
          "7988 North Michigan Road"
        ],
        "city": "Indianapolis",
        "state": "IN",
        "postalCode": "46268-1997"
      },
      {
        "line": [
          "1065 Parkway Street"
        ],
        "city": "BERNE",
        "state": "IN",
        "postalCode": "46711-2366"
      },
      {
        "line": [
          "806 S Buckeye St"
        ],
        "city": "Osgood",
        "state": "IN",
        "postalCode": "47037-1332"
      },
      {
        "line": [
          "900 Provident Dr"
        ],
        "city": "WARSAW",
        "state": "IN",
        "postalCode": "46580-3252"
      },
      {
        "line": [
          "3802 Sare Rd"
        ],
        "city": "BLOOMINGTON",
        "state": "IN",
        "postalCode": "47401-4794"
      },
      {
        "line": [
          "8181 Harcourt Rd"
        ],
        "city": "Indianapolis",
        "state": "IN",
        "postalCode": "46260-2578"
      },
      {
        "line": [
          "6370 Robin Run W"
        ],
        "city": "INDIANAPOLIS",
        "state": "IN",
        "postalCode": "46268-4051"
      },
      {
        "line": [
          "3154 S SR 135"
        ],
        "city": "Greenwood",
        "state": "IN",
        "postalCode": "46143-9609"
      },
      {
        "line": [
          "408 S. Washington St."
        ],
        "city": "KOKOMO",
        "state": "IN",
        "postalCode": "46901-5344"
      },
      {
        "line": [
          "7125 S Hanna St"
        ],
        "city": "Fort Wayne",
        "state": "IN",
        "postalCode": "46816-1166"
      },
      {
        "line": [
          "1435 Christian Blvd"
        ],
        "city": "Franklin",
        "state": "IN",
        "postalCode": "46131-7211"
      },
      {
        "line": [
          "776 N UNION ST"
        ],
        "city": "WESTFIELD",
        "state": "IN",
        "postalCode": "46074-9421"
      },
      {
        "line": [
          "119 EAST SANDERS LANE"
        ],
        "city": "MOUNT WASHINGTON",
        "state": "KY",
        "postalCode": "40047-7557"
      },
      {
        "line": [
          "433 FLOYD DR"
        ],
        "city": "CARROLLTON",
        "state": "KY",
        "postalCode": "41008-8255"
      },
      {
        "line": [
          "139 Pearl Street"
        ],
        "city": "Auburn",
        "state": "KY",
        "postalCode": "42206-5121"
      },
      {
        "line": [
          "689 Pro Med Lane"
        ],
        "city": "Carmel",
        "state": "IN",
        "postalCode": "46032-5397"
      },
      {
        "line": [
          "5865 Sugar Ln"
        ],
        "city": "PLAINFIELD",
        "state": "IN",
        "postalCode": "46168-8328"
      },
      {
        "line": [
          "1801 North Broadway St."
        ],
        "city": "Indianapolis",
        "state": "IN",
        "postalCode": "46202-1772"
      },
      {
        "line": [
          "741 PARK EAST BLVD"
        ],
        "city": "Lafayette",
        "state": "IN",
        "postalCode": "47905-0797"
      },
      {
        "line": [
          "6491 Reading Rd"
        ],
        "city": "MASON",
        "state": "OH",
        "postalCode": "45040-3210"
      },
      {
        "line": [
          "4300 Glen Este-Withamsville Road"
        ],
        "city": "CINCINNATI",
        "state": "OH",
        "postalCode": "45245-1517"
      },
      {
        "line": [
          "2288 Nicholas Ct"
        ],
        "city": "Seymour",
        "state": "IN",
        "postalCode": "47274-7561"
      },
      {
        "line": [
          "300 Shawnee Dr"
        ],
        "city": "BEDFORD",
        "state": "IN",
        "postalCode": "47421-0001"
      },
      {
        "line": [
          "3025 West Sycamore Street"
        ],
        "city": "Kokomo",
        "state": "IN",
        "postalCode": "46901-4176"
      },
      {
        "line": [
          "524 Anderson Road"
        ],
        "city": "Chesterfield",
        "state": "IN",
        "postalCode": "46017-1514"
      },
      {
        "line": [
          "503 Otis R Bowen Dr"
        ],
        "city": "PEMBROKE",
        "state": "KY",
        "postalCode": "42266-9763"
      },
      {
        "line": [
          "8601 South Shelby Street"
        ],
        "city": "INDIANAPOLIS",
        "state": "IN",
        "postalCode": "46227-6596"
      },
      {
        "line": [
          "4501 Springdale Rd"
        ],
        "city": "LOUISVILLE",
        "state": "KY",
        "postalCode": "40241-6121"
      },
      {
        "line": [
          "5280 State Routes 62 & 68"
        ],
        "city": "RIPLEY",
        "state": "OH",
        "postalCode": "45167-8650"
      },
      {
        "line": [
          "101 W 87TH AVE"
        ],
        "city": "MERRILLVILLE",
        "state": "IN",
        "postalCode": "46410-6177"
      },
      {
        "line": [
          "4926 Sir Barton Way"
        ],
        "city": "Indianapolis",
        "state": "IN",
        "postalCode": "46237-9769"
      },
      {
        "line": [
          "830 Park East Blvd"
        ],
        "city": "LAFAYETTE",
        "state": "IN",
        "postalCode": "47905-0778"
      },
      {
        "line": [
          "7721 Battery Pointe Way"
        ],
        "city": "Indianapolis",
        "state": "IN",
        "postalCode": "46240-1393"
      },
      {
        "line": [
          "155 E Burks Dr"
        ],
        "city": "Bloomington",
        "state": "IN",
        "postalCode": "47401-8459"
      },
      {
        "line": [
          "1501 N  Meridian St"
        ],
        "city": "Indianapolis",
        "state": "IN",
        "postalCode": "46225-1819"
      },
      {
        "line": [
          "990 N 16Th St"
        ],
        "city": "New Castle",
        "state": "IN",
        "postalCode": "47362-4317"
      },
      {
        "line": [
          "200 Meadow Lake Dr"
        ],
        "city": "Mooresville",
        "state": "IN",
        "postalCode": "46158-1837"
      },
      {
        "line": [
          "2500 W Kilgore Ave"
        ],
        "city": "Muncie",
        "state": "IN",
        "postalCode": "47304-4898"
      },
      {
        "line": [
          "2200 West White River Blvd"
        ],
        "city": "MUNCIE",
        "state": "IN",
        "postalCode": "47303-5242"
      },
      {
        "line": [
          "2000 S Andrews Rd"
        ],
        "city": "Yorktown",
        "state": "IN",
        "postalCode": "47396-6812"
      },
      {
        "line": [
          "2494 N  Lebanon Street"
        ],
        "city": "Lebanon",
        "state": "IN",
        "postalCode": "46052-1111"
      },
      {
        "line": [
          "3400 W Community Dr"
        ],
        "city": "MUNCIE",
        "state": "IN",
        "postalCode": "47304-5459"
      },
      {
        "line": [
          "4550 Hills And Dales Road NW"
        ],
        "city": "CANTON",
        "state": "OH",
        "postalCode": "44708-1508"
      },
      {
        "line": [
          "6831 N Chestnut Street"
        ],
        "city": "Ravenna",
        "state": "OH",
        "postalCode": "44266-3929"
      },
      {
        "line": [
          "4600 W. Jackson St."
        ],
        "city": "MUNCIE",
        "state": "IN",
        "postalCode": "47303-4467"
      },
      {
        "line": [
          "1555 Commerce Street"
        ],
        "city": "Logansport",
        "state": "IN",
        "postalCode": "46947-1555"
      },
      {
        "line": [
          "1147 South Third Street"
        ],
        "city": "NILES",
        "state": "MI",
        "postalCode": "49120-3472"
      },
      {
        "line": [
          "1720 Alber St"
        ],
        "city": "Wabash",
        "state": "IN",
        "postalCode": "46992-1015"
      },
      {
        "line": [
          "1301 N Ritter Ave"
        ],
        "city": "Indianapolis",
        "state": "IN",
        "postalCode": "46219-3054"
      },
      {
        "line": [
          "6330 N Fir Rd"
        ],
        "city": "Granger",
        "state": "IN",
        "postalCode": "46530-4753"
      },
      {
        "line": [
          "230 Welcome Way Blvd."
        ],
        "city": "Indianapolis",
        "state": "IN",
        "postalCode": "46214-3085"
      },
      {
        "line": [
          "100 Bickford Ln"
        ],
        "city": "CRAWFORDSVILLE",
        "state": "IN",
        "postalCode": "47933-2186"
      },
      {
        "line": [
          "7355 SHADELAND STATION WAY"
        ],
        "city": "INDIANAPOLIS",
        "state": "IN",
        "postalCode": "46256-3971"
      },
      {
        "line": [
          "3731 Cook Road"
        ],
        "city": "Fort Wayne",
        "state": "IN",
        "postalCode": "46818-9662"
      },
      {
        "line": [
          "4111 Park Place Drive"
        ],
        "city": "Fort Wayne",
        "state": "IN",
        "postalCode": "46845-6002"
      },
      {
        "line": [
          "505 N Bradner Ave"
        ],
        "city": "Marion",
        "state": "IN",
        "postalCode": "46952-2449"
      },
      {
        "line": [
          "2320 SONORA DR"
        ],
        "city": "GROVE CITY",
        "state": "OH",
        "postalCode": "43123-2423"
      },
      {
        "line": [
          "614 West 14th Street"
        ],
        "city": "Marion",
        "state": "IN",
        "postalCode": "46953-2158"
      },
      {
        "line": [
          "1465 East Crossing Blvd"
        ],
        "city": "Terre Haute",
        "state": "IN",
        "postalCode": "47802-5315"
      },
      {
        "line": [
          "1375 S Grant Avenue"
        ],
        "city": "Crawfordsville",
        "state": "IN",
        "postalCode": "47933-3327"
      },
      {
        "line": [
          "1316 N TIBBS AVE"
        ],
        "city": "INDIANAPOLIS",
        "state": "IN",
        "postalCode": "46222-3024"
      },
      {
        "line": [
          "8549 N Meridian Street"
        ],
        "city": "Indianapolis",
        "state": "IN",
        "postalCode": "46260-2329"
      },
      {
        "line": [
          "851 Kimsey Ln"
        ],
        "city": "Henderson",
        "state": "KY",
        "postalCode": "42420-2665"
      },
      {
        "line": [
          "8135 Beechmont Ave"
        ],
        "city": "CINCINNATI",
        "state": "OH",
        "postalCode": "45255-6138"
      },
      {
        "line": [
          "7515 Winchester Rd"
        ],
        "city": "FORT WAYNE",
        "state": "IN",
        "postalCode": "46819-2257"
      },
      {
        "line": [
          "6830 Overlook Drive"
        ],
        "city": "Louisville",
        "state": "KY",
        "postalCode": "40241-6579"
      },
      {
        "line": [
          "901 Blankenbaker Pkwy"
        ],
        "city": "LOUISVILLE",
        "state": "KY",
        "postalCode": "40243-1884"
      },
      {
        "line": [
          "500 North Glenn Avenue"
        ],
        "city": "WASHINGTON COURT HOUSE",
        "state": "OH",
        "postalCode": "43160-2713"
      },
      {
        "line": [
          "800 Highland Ave"
        ],
        "city": "Covington",
        "state": "KY",
        "postalCode": "41011-4001"
      },
      {
        "line": [
          "6800 Central Boulevard"
        ],
        "city": "Zionsville",
        "state": "IN",
        "postalCode": "46077-7676"
      },
      {
        "line": [
          "4375 Union Road"
        ],
        "city": "FRANKLIN",
        "state": "OH",
        "postalCode": "45005-5241"
      },
      {
        "line": [
          "148 Allen D"
        ],
        "city": "SHELBYVILLE",
        "state": "KY",
        "postalCode": "40065-8791"
      },
      {
        "line": [
          "36 Valley Dr"
        ],
        "city": "Lawrenceburg",
        "state": "IN",
        "postalCode": "47025-1084"
      },
      {
        "line": [
          "1400 Commerce Parkway"
        ],
        "city": "Franklin",
        "state": "IN",
        "postalCode": "46131-6963"
      },
      {
        "line": [
          "1302 N Lesley Ave"
        ],
        "city": "Indianapolis",
        "state": "IN",
        "postalCode": "46219-3144"
      },
      {
        "line": [
          "7843 W. Jefferson Blvd."
        ],
        "city": "FORT WAYNE",
        "state": "IN",
        "postalCode": "46804-4137"
      },
      {
        "line": [
          "4557 Quick Road"
        ],
        "city": "Peninsula",
        "state": "OH",
        "postalCode": "44264-9794"
      },
      {
        "line": [
          "10799 Alliance Dr"
        ],
        "city": "Camby",
        "state": "IN",
        "postalCode": "46113-8909"
      },
      {
        "line": [
          "4248 Macon Ave"
        ],
        "city": "Huber Heights",
        "state": "OH",
        "postalCode": "45424-5956"
      },
      {
        "line": [
          "726 E Main St Ste F205"
        ],
        "city": "LEBANON",
        "state": "OH",
        "postalCode": "45036-1900"
      },
      {
        "line": [
          "4851 Tincher Rd"
        ],
        "city": "INDIANAPOLIS",
        "state": "IN",
        "postalCode": "46221-3780"
      },
      {
        "line": [
          "1590 West Timberview Drive"
        ],
        "city": "Marion",
        "state": "IN",
        "postalCode": "46952-1657"
      },
      {
        "line": [
          "4730 E State Blvd"
        ],
        "city": "FORT WAYNE",
        "state": "IN",
        "postalCode": "46815-6975"
      },
      {
        "line": [
          "523 E Washington Street"
        ],
        "city": "GEORGETOWN",
        "state": "KY",
        "postalCode": "40324-1748"
      },
      {
        "line": [
          "1200 Talisman Drive"
        ],
        "city": "North Augusta",
        "state": "SC",
        "postalCode": "29841-4032"
      },
      {
        "line": [
          "1250 W 146th Street"
        ],
        "city": "Carmel",
        "state": "IN",
        "postalCode": "46074-9870"
      },
      {
        "line": [
          "1042 Oak Dr"
        ],
        "city": "Richmond",
        "state": "IN",
        "postalCode": "47374-1916"
      },
      {
        "line": [
          "8139 Beechmont Avenue"
        ],
        "city": "CINCINNATI",
        "state": "OH",
        "postalCode": "45255-3152"
      },
      {
        "line": [
          "627 E North St"
        ],
        "city": "Gas City",
        "state": "IN",
        "postalCode": "46933-1235"
      },
      {
        "line": [
          "12950 Tablick Street"
        ],
        "city": "Fishers",
        "state": "IN",
        "postalCode": "46037-6400"
      },
      {
        "line": [
          "419 NORTH SEMINARY ST"
        ],
        "city": "Madisonville",
        "state": "KY",
        "postalCode": "42431-1515"
      },
      {
        "line": [
          "1345 N Madison Ave"
        ],
        "city": "Anderson",
        "state": "IN",
        "postalCode": "46011-1215"
      },
      {
        "line": [
          "5005 HIGBEE AVE NW"
        ],
        "city": "CANTON",
        "state": "OH",
        "postalCode": "44718-2521"
      },
      {
        "line": [
          "1380 E COUNTY LINE RD"
        ],
        "city": "INDIANAPOLIS",
        "state": "IN",
        "postalCode": "46227-0962"
      },
      {
        "line": [
          "340 E 18th St"
        ],
        "city": "Rochester",
        "state": "IN",
        "postalCode": "46975-2228"
      },
      {
        "line": [
          "1900 College Ave"
        ],
        "city": "Vincennes",
        "state": "IN",
        "postalCode": "47591-5663"
      },
      {
        "line": [
          "8 Hampton Lake Drive"
        ],
        "city": "Bluffton",
        "state": "SC",
        "postalCode": "29910-9568"
      },
      {
        "line": [
          "156 Haven Hill Road"
        ],
        "city": "SHELBYVILLE",
        "state": "KY",
        "postalCode": "40065-8752"
      },
      {
        "line": [
          "7630 E 86Th St"
        ],
        "city": "Indianapolis",
        "state": "IN",
        "postalCode": "46256-1212"
      },
      {
        "line": [
          "5364 Green Meadow Road"
        ],
        "city": "Kalamazoo",
        "state": "MI",
        "postalCode": "49009-1266"
      },
      {
        "line": [
          "12315 Pennsylvania Street"
        ],
        "city": "Carmel",
        "state": "IN",
        "postalCode": "46032-6601"
      },
      {
        "line": [
          "100 Independence Parkway"
        ],
        "city": "HARTFORD CITY",
        "state": "IN",
        "postalCode": "47348-1379"
      },
      {
        "line": [
          "160 N Middle School Rd"
        ],
        "city": "Winchester",
        "state": "IN",
        "postalCode": "47394-8102"
      },
      {
        "line": [
          "8442 Dixie Hightway"
        ],
        "city": "LOUISVILLE",
        "state": "KY",
        "postalCode": "40258-1140"
      },
      {
        "line": [
          "901 Blankenbaker Pkwy"
        ],
        "city": "Louisville",
        "state": "KY",
        "postalCode": "40243-1884"
      },
      {
        "line": [
          "225 Gaslite Lane"
        ],
        "city": "Greenfield",
        "state": "IN",
        "postalCode": "46140-1012"
      },
      {
        "line": [
          "7960 Shadeland Avenue North"
        ],
        "city": "Indianapolis",
        "state": "IN",
        "postalCode": "46250-2081"
      },
      {
        "line": [
          "700 Mason Headley Road"
        ],
        "city": "Lexington",
        "state": "KY",
        "postalCode": "40504-2326"
      },
      {
        "line": [
          "9300 Civic Way"
        ],
        "city": "PROSPECT",
        "state": "KY",
        "postalCode": "40059-6619"
      },
      {
        "line": [
          "204 W Main Street"
        ],
        "city": "New London",
        "state": "OH",
        "postalCode": "44851-1070"
      },
      {
        "line": [
          "1029 East 5th Street"
        ],
        "city": "Connersville",
        "state": "IN",
        "postalCode": "47331-3301"
      },
      {
        "line": [
          "3876 Turkeyfoot Road"
        ],
        "city": "Elsmere",
        "state": "KY",
        "postalCode": "41018-2838"
      },
      {
        "line": [
          "3801 Old Bruceville Rd Box 136"
        ],
        "city": "Vincennes",
        "state": "IN",
        "postalCode": "47591-3889"
      },
      {
        "line": [
          "3855 Fishcreek Road"
        ],
        "city": "STOW",
        "state": "OH",
        "postalCode": "44224-4305"
      },
      {
        "line": [
          "2725 Lake Circle Dr"
        ],
        "city": "Indianapolis",
        "state": "IN",
        "postalCode": "46268-4931"
      },
      {
        "line": [
          "1350 N Todd Drive"
        ],
        "city": "Scottsburg",
        "state": "IN",
        "postalCode": "47170-7755"
      },
      {
        "line": [
          "6415 Calm River Way"
        ],
        "city": "Louisville",
        "state": "KY",
        "postalCode": "40299-3250"
      },
      {
        "line": [
          "300 J H Walker Dr"
        ],
        "city": "Pendleton",
        "state": "IN",
        "postalCode": "46064-8730"
      },
      {
        "line": [
          "1821 Lindberg Road"
        ],
        "city": "ANDERSON",
        "state": "IN",
        "postalCode": "46012-2711"
      },
      {
        "line": [
          "1 Sisters of Porvidence"
        ],
        "city": "Saint Mary of the Woods",
        "state": "IN",
        "postalCode": "47876-1002"
      },
      {
        "line": [
          "12315 Pennsylvania Street"
        ],
        "city": "CARMEL",
        "state": "IN",
        "postalCode": "46032-6601"
      },
      {
        "line": [
          "2002 Albany St"
        ],
        "city": "BEECH GROVE",
        "state": "IN",
        "postalCode": "46107-1408"
      },
      {
        "line": [
          "300 23RD ST NE"
        ],
        "city": "MASSILLON",
        "state": "OH",
        "postalCode": "44646-4988"
      },
      {
        "line": [
          "3021 Stella Drive"
        ],
        "city": "GREENWOOD",
        "state": "IN",
        "postalCode": "46143-8502"
      },
      {
        "line": [
          "4180 Sage Bluff Crossing"
        ],
        "city": "Fort Wayne",
        "state": "IN",
        "postalCode": "46804-2363"
      },
      {
        "line": [
          "500 Meridian Hills Drive"
        ],
        "city": "LOUISVILLE",
        "state": "KY",
        "postalCode": "40243-2234"
      },
      {
        "line": [
          "28 West 12th Street"
        ],
        "city": "Anderson",
        "state": "IN",
        "postalCode": "46016-2059"
      },
      {
        "line": [
          "203 Sparks Ave"
        ],
        "city": "Jeffersonville",
        "state": "IN",
        "postalCode": "47130-3732"
      },
      {
        "line": [
          "8905 Evergreen Avenue"
        ],
        "city": "Indianapolis",
        "state": "IN",
        "postalCode": "46240-2000"
      },
      {
        "line": [
          "2330 Straight Line Pike"
        ],
        "city": "Richmond",
        "state": "IN",
        "postalCode": "47374-7295"
      },
      {
        "line": [
          "725 Bell Trace Cir"
        ],
        "city": "BLOOMINGTON",
        "state": "IN",
        "postalCode": "47408-4408"
      },
      {
        "line": [
          "4012 S. Mann Rd"
        ],
        "city": "INDIANAPOLIS",
        "state": "IN",
        "postalCode": "46221-2588"
      },
      {
        "line": [
          "10307 East County Road 100 North"
        ],
        "city": "Avon",
        "state": "IN",
        "postalCode": "46123-2733"
      },
      {
        "line": [
          "4102 Shore Drive"
        ],
        "city": "Indianapolis",
        "state": "IN",
        "postalCode": "46254-2608"
      },
      {
        "line": [
          "2860 Churchman Ave"
        ],
        "city": "Indianapolis",
        "state": "IN",
        "postalCode": "46203-4619"
      },
      {
        "line": [
          "7001 Hoover Rd"
        ],
        "city": "INDIANAPOLIS",
        "state": "IN",
        "postalCode": "46260-4169"
      },
      {
        "line": [
          "741 Park East Blvd"
        ],
        "city": "Lafayette",
        "state": "IN",
        "postalCode": "47905-0798"
      },
      {
        "line": [
          "800 Becks Knob Road"
        ],
        "city": "LANCASTER",
        "state": "OH",
        "postalCode": "43130-8802"
      },
      {
        "line": [
          "6006 Brandy Chase Cove"
        ],
        "city": "FORT WAYNE",
        "state": "IN",
        "postalCode": "46815-7601"
      },
      {
        "line": [
          "395 8Th Avenue"
        ],
        "city": "Terre Haute",
        "state": "IN",
        "postalCode": "47804-4064"
      },
      {
        "line": [
          "630 Viox Drive"
        ],
        "city": "Erlanger",
        "state": "KY",
        "postalCode": "41018-3402"
      },
      {
        "line": [
          "11011 Village Square Lane"
        ],
        "city": "FISHERS",
        "state": "IN",
        "postalCode": "46038-4559"
      },
      {
        "line": [
          "300 E Washington Blvd"
        ],
        "city": "Fort Wayne",
        "state": "IN",
        "postalCode": "46802-3124"
      },
      {
        "line": [
          "4572 STATE RD"
        ],
        "city": "PENINSULA",
        "state": "OH",
        "postalCode": "44264-9799"
      },
      {
        "line": [
          "4519 E 82nd St"
        ],
        "city": "Indianapolis",
        "state": "IN",
        "postalCode": "46250-4241"
      },
      {
        "line": [
          "2701 Magnolia Springs Dr"
        ],
        "city": "Lexington",
        "state": "KY",
        "postalCode": "40511-1198"
      },
      {
        "line": [
          "13390 N Illinois Street"
        ],
        "city": "CARMEL",
        "state": "IN",
        "postalCode": "46032-3143"
      },
      {
        "line": [
          "2494 N. Lebanon Street"
        ],
        "city": "Lebanon",
        "state": "IN",
        "postalCode": "46052-1111"
      },
      {
        "line": [
          "612 E 11th St"
        ],
        "city": "Rushville",
        "state": "IN",
        "postalCode": "46173-1319"
      },
      {
        "line": [
          "222 S  25th Street"
        ],
        "city": "Terre Haute",
        "state": "IN",
        "postalCode": "47803-1800"
      },
      {
        "line": [
          "500 Williams St"
        ],
        "city": "Angola",
        "state": "IN",
        "postalCode": "46703-1144"
      },
      {
        "line": [
          "525 E Thompson Rd"
        ],
        "city": "Indianapolis",
        "state": "IN",
        "postalCode": "46227-1626"
      },
      {
        "line": [
          "505 N Main St"
        ],
        "city": "WALDRON",
        "state": "IN",
        "postalCode": "46182-9791"
      },
      {
        "line": [
          "1010 RICHWOOD WAY"
        ],
        "city": "LA GRANGE",
        "state": "KY",
        "postalCode": "40031-7919"
      },
      {
        "line": [
          "74 Mack Walters Road"
        ],
        "city": "SHELBYVILLE",
        "state": "KY",
        "postalCode": "40065-1738"
      },
      {
        "line": [
          "745 N Swope St"
        ],
        "city": "Greenfield",
        "state": "IN",
        "postalCode": "46140-1332"
      },
      {
        "line": [
          "937 East Park Avenue"
        ],
        "city": "Columbiana",
        "state": "OH",
        "postalCode": "44408-1451"
      },
      {
        "line": [
          "8212 N Main St"
        ],
        "city": "Dayton",
        "state": "OH",
        "postalCode": "45415-1641"
      },
      {
        "line": [
          "205 Marine Drive"
        ],
        "city": "Anderson",
        "state": "IN",
        "postalCode": "46016-5937"
      },
      {
        "line": [
          "7476 W Lane Rd"
        ],
        "city": "McCordsville",
        "state": "IN",
        "postalCode": "46055-9506"
      },
      {
        "line": [
          "101 N Cleveland Massillon Road"
        ],
        "city": "AKRON",
        "state": "OH",
        "postalCode": "44333-2422"
      }
    ],
    "extension": [
      {
        "url": "https://fhir.athena.io/StructureDefinition/ah-practice",
        "valueReference": {
          "reference": "Organization/a-1.Practice-21833"
        }
      },
      {
        "url": "https://fhir.athena.io/StructureDefinition/ah-brand",
        "valueReference": {
          "reference": "Organization/a-21833.Brand-1"
        }
      }
    ]
  },
  "fullUrl": "urn:uuid:9151aeed-95a2-5d86-abf3-955e8b7e406c"
}