{
  "resource": {
    "resourceType": "Organization",
    "id": "12395638-7482-50da-b6f6-8a7a0b58bd91",
    "name": "HEALTH FIRST MEDICAL CENTER",
    "endpoint": [
      {
        "reference": "Endpoint/27a4e967-47aa-5a9c-a572-b8297ee268a2"
      },
      {
        "reference": "Endpoint/b76bab2a-855f-5dd8-8d1b-08383e8928e4"
      }
    ],
    "identifier": [
      {
        "system": "http://hl7.org/fhir/sid/us-npi",
        "value": "1760940316"
      }
    ],
    "address": [
      {
        "line": [
          "350 COUNTY LINE RD W"
        ],
        "city": "WESTERVILLE",
        "state": "OH",
        "postalCode": "43082-8103"
      },
      {
        "line": [
          "212 FAIRVIEW ST"
        ],
        "city": "CENTERBURG",
        "state": "OH",
        "postalCode": "43011-8314"
      },
      {
        "line": [
          "144 E BROAD STREET"
        ],
        "city": "PATASKALA",
        "state": "OH",
        "postalCode": "43062-7536"
      },
      {
        "line": [
          "383 W COSHOCTON ST"
        ],
        "city": "JOHNSTOWN",
        "state": "OH",
        "postalCode": "43031-1112"
      },
      {
        "line": [
          "5919 BLUE STAR DR"
        ],
        "city": "GROVE CITY",
        "state": "OH",
        "postalCode": "43123-7688"
      },
      {
        "line": [
          "433 OBETZ RD"
        ],
        "city": "COLUMBUS",
        "state": "OH",
        "postalCode": "43207-4098"
      },
      {
        "line": [
          "314 AGLER RD"
        ],
        "city": "COLUMBUS",
        "state": "OH",
        "postalCode": "43230-2546"
      },
      {
        "line": [
          "433 OBETZ ROAD"
        ],
        "city": "COLUMBUS",
        "state": "OH",
        "postalCode": "43207-4098"
      },
      {
        "line": [
          "748 Taylor Rd."
        ],
        "city": "COLUMBUS",
        "state": "OH",
        "postalCode": "43230-3766"
      },
      {
        "line": [
          "603 DILEY ROAD"
        ],
        "city": "PICKERINGTON",
        "state": "OH",
        "postalCode": "43147-9939"
      },
      {
        "line": [
          "5500 N MEADOWS DR STE 210"
        ],
        "city": "GROVE CITY",
        "state": "OH",
        "postalCode": "43123-7688"
      },
      {
        "line": [
          "5919 BLUE STAR DR"
        ],
        "city": "GROVE CITY",
        "state": "OH",
        "postalCode": "43123-7595"
      },
      {
        "line": [
          "603 DILEY RD"
        ],
        "city": "PICKERINGTON",
        "state": "OH",
        "postalCode": "43147-9939"
      },
      {
        "line": [
          "5800 FOREST HILLS BLVD"
        ],
        "city": "COLUMBUS",
        "state": "OH",
        "postalCode": "43231-6916"
      },
      {
        "line": [
          "7400 HAZELTON ETNA RD SW"
        ],
        "city": "PATASKALA",
        "state": "OH",
        "postalCode": "43062-9403"
      },
      {
        "line": [
          "5969 E BROAD ST"
        ],
        "city": "COLUMBUS",
        "state": "OH",
        "postalCode": "43213-1546"
      },
      {
        "line": [
          "212 FAIRVIEW STREET"
        ],
        "city": "CENTERBURG",
        "state": "OH",
        "postalCode": "43011-8314"
      },
      {
        "line": [
          "7320 SMITHS MILL RD"
        ],
        "city": "NEW ALBANY",
        "state": "OH",
        "postalCode": "43054-7685"
      },
      {
        "line": [
          "4531 COLUMBUS RD"
        ],
        "city": "CENTERBURG",
        "state": "OH",
        "postalCode": "43011-9401"
      },
      {
        "line": [
          "6800 GENDER RD"
        ],
        "city": "CANAL WINCHESTER",
        "state": "OH",
        "postalCode": "43110-8232"
      },
      {
        "line": [
          "630 S Sunbury Road"
        ],
        "city": "WESTERVILLE",
        "state": "OH",
        "postalCode": "43081-9998"
      },
      {
        "line": [
          "1800 Riverside Dr."
        ],
        "city": "COLUMBUS",
        "state": "OH",
        "postalCode": "43212-1855"
      },
      {
        "line": [
          "4531 Columbus Rd"
        ],
        "city": "CENTERBURG",
        "state": "OH",
        "postalCode": "43011-9998"
      },
      {
        "line": [
          "5691 THOMPSON RD"
        ],
        "city": "COLUMBUS",
        "state": "OH",
        "postalCode": "43230-1345"
      },
      {
        "line": [
          "350 COUNTY LINE RD. W."
        ],
        "city": "WESTERVILLE",
        "state": "OH",
        "postalCode": "43082-8103"
      },
      {
        "line": [
          "144 E BROAD ST"
        ],
        "city": "PATASKALA",
        "state": "OH",
        "postalCode": "43062-7536"
      },
      {
        "line": [
          "383 W COSHOCTON ROAD"
        ],
        "city": "JOHNSTOWN",
        "state": "OH",
        "postalCode": "43031-1112"
      },
      {
        "line": [
          "4959 MEDFIELD WAY"
        ],
        "city": "COLUMBUS",
        "state": "OH",
        "postalCode": "43228-1653"
      }
    ],
    "extension": [
      {
        "url": "https://fhir.athena.io/StructureDefinition/ah-practice",
        "valueReference": {
          "reference": "Organization/a-1.Practice-26301"
        }
      },
      {
        "url": "https://fhir.athena.io/StructureDefinition/ah-brand",
        "valueReference": {
          "reference": "Organization/a-26301.Brand-1"
        }
      }
    ]
  },
  "fullUrl": "urn:uuid:12395638-7482-50da-b6f6-8a7a0b58bd91"
}