{
  "resource": {
    "resourceType": "Organization",
    "id": "72f8c4b3-d2f0-5124-90b4-b3c09efcca93",
    "name": "Preval Health Care-home based primary care",
    "endpoint": [
      {
        "reference": "Endpoint/27a4e967-47aa-5a9c-a572-b8297ee268a2"
      },
      {
        "reference": "Endpoint/d8226144-f915-52ae-967b-49adee7b6f74"
      }
    ],
    "identifier": [
      {
        "system": "http://hl7.org/fhir/sid/us-npi",
        "value": "1558086330"
      }
    ],
    "address": [
      {
        "line": [
          "13823 LOREE LN"
        ],
        "city": "ROCKVILLE",
        "state": "MD",
        "postalCode": "20853-2036"
      },
      {
        "line": [
          "14514 HOMECREST RD"
        ],
        "city": "SILVER SPRING",
        "state": "MD",
        "postalCode": "20906-1808"
      },
      {
        "line": [
          "14109 BURNING BUSH LN"
        ],
        "city": "SILVER SPRING",
        "state": "MD",
        "postalCode": "20906-2327"
      },
      {
        "line": [
          "2305 FALLING CREEK RD"
        ],
        "city": "SILVER SPRING",
        "state": "MD",
        "postalCode": "20904-5208"
      },
      {
        "line": [
          "16700 BATCHELLORS FOREST RD"
        ],
        "city": "OLNEY",
        "state": "MD",
        "postalCode": "20832-2703"
      },
      {
        "line": [
          "1701 Yale Place"
        ],
        "city": "ROCKVILLE",
        "state": "MD",
        "postalCode": "20850-1548"
      },
      {
        "line": [
          "19738 CRESTED IRIS WAY"
        ],
        "city": "MONTGOMERY VILLAGE",
        "state": "MD",
        "postalCode": "20886-1037"
      },
      {
        "line": [
          "2601 BRIGGS CHANEY RD"
        ],
        "city": "SILVER SPRING",
        "state": "MD",
        "postalCode": "20905-4509"
      },
      {
        "line": [
          "10501 BIT AND SPUR LN"
        ],
        "city": "POTOMAC",
        "state": "MD",
        "postalCode": "20854-1563"
      },
      {
        "line": [
          "2839 AQUARIUS AVE"
        ],
        "city": "SILVER SPRING",
        "state": "MD",
        "postalCode": "20906-1812"
      },
      {
        "line": [
          "2908 CABIN CREEK DR"
        ],
        "city": "BURTONSVILLE",
        "state": "MD",
        "postalCode": "20866-1839"
      },
      {
        "line": [
          "4101 BEL PRE RD"
        ],
        "city": "ROCKVILLE",
        "state": "MD",
        "postalCode": "20853-2002"
      },
      {
        "line": [
          "1822 ARCOLA AVE"
        ],
        "city": "SILVER SPRING",
        "state": "MD",
        "postalCode": "20902-2831"
      },
      {
        "line": [
          "711 LAMBERTON DR"
        ],
        "city": "SILVER SPRING",
        "state": "MD",
        "postalCode": "20902-3036"
      },
      {
        "line": [
          "22150 NEW HAMPSHIRE AVE"
        ],
        "city": "BROOKEVILLE",
        "state": "MD",
        "postalCode": "20833-1825"
      },
      {
        "line": [
          "20900 NEW HAMPSHIRE AVE"
        ],
        "city": "BROOKEVILLE",
        "state": "MD",
        "postalCode": "20833-1900"
      },
      {
        "line": [
          "4110 HEATHFIELD RD"
        ],
        "city": "ROCKVILLE",
        "state": "MD",
        "postalCode": "20853-2036"
      },
      {
        "line": [
          "2832 AQUARIUS AVE"
        ],
        "city": "SILVER SPRING",
        "state": "MD",
        "postalCode": "20906-1811"
      },
      {
        "line": [
          "18110 PRINCE PHILIP DR,"
        ],
        "city": "OLNEY",
        "state": "MD",
        "postalCode": "20832-1515"
      },
      {
        "line": [
          "14400 HOMECREST RD"
        ],
        "city": "SILVER SPRING",
        "state": "MD",
        "postalCode": "20906-1871"
      },
      {
        "line": [
          "2908 Cabin Creek Dr"
        ],
        "city": "BURTONSVILLE",
        "state": "MD",
        "postalCode": "20866-1839"
      },
      {
        "line": [
          "18106 CASHELL RD"
        ],
        "city": "ROCKVILLE",
        "state": "MD",
        "postalCode": "20853-1031"
      },
      {
        "line": [
          "14533 BARKWOOD DR"
        ],
        "city": "ROCKVILLE",
        "state": "MD",
        "postalCode": "20853-2316"
      },
      {
        "line": [
          "301 S HORNERS LN"
        ],
        "city": "ROCKVILLE",
        "state": "MD",
        "postalCode": "20850-1548"
      },
      {
        "line": [
          "13700 PARKLAND DR"
        ],
        "city": "ROCKVILLE",
        "state": "MD",
        "postalCode": "20853-2036"
      },
      {
        "line": [
          "1117 ARCOLA AVE"
        ],
        "city": "SILVER SPRING",
        "state": "MD",
        "postalCode": "20902-3405"
      },
      {
        "line": [
          "3200 Buscleton LN"
        ],
        "city": "SILVER SPRING",
        "state": "MD",
        "postalCode": "20906-3057"
      },
      {
        "line": [
          "515 APPLE GROVE RD"
        ],
        "city": "SILVER SPRING",
        "state": "MD",
        "postalCode": "20904-2748"
      },
      {
        "line": [
          "26209 JOHNSON DR"
        ],
        "city": "DAMASCUS",
        "state": "MD",
        "postalCode": "20872-1609"
      },
      {
        "line": [
          "1338 CROCKETT LN"
        ],
        "city": "SILVER SPRING",
        "state": "MD",
        "postalCode": "20904-6655"
      },
      {
        "line": [
          "13201 PARTRIDGE DR"
        ],
        "city": "SILVER SPRING",
        "state": "MD",
        "postalCode": "20904-1333"
      },
      {
        "line": [
          "2807 HOMECREST CIR"
        ],
        "city": "SILVER SPRING",
        "state": "MD",
        "postalCode": "20906-1819"
      },
      {
        "line": [
          "2500 BRIGGS CHANEY RD"
        ],
        "city": "SILVER SPRING",
        "state": "MD",
        "postalCode": "20905-4505"
      },
      {
        "line": [
          "3032 SHANANDALE DR"
        ],
        "city": "SILVER SPRING",
        "state": "MD",
        "postalCode": "20904-1823"
      },
      {
        "line": [
          "4414 RENN ST"
        ],
        "city": "ROCKVILLE",
        "state": "MD",
        "postalCode": "20853-2036"
      },
      {
        "line": [
          "6108 GRANBY RD"
        ],
        "city": "DERWOOD",
        "state": "MD",
        "postalCode": "20855-1474"
      },
      {
        "line": [
          "13104 HATHAWAY DR"
        ],
        "city": "SILVER SPRING",
        "state": "MD",
        "postalCode": "20906-3726"
      },
      {
        "line": [
          "2505 BROWN FARM CT"
        ],
        "city": "BROOKEVILLE",
        "state": "MD",
        "postalCode": "20833-1804"
      },
      {
        "line": [
          "3005 BONVIEW LN"
        ],
        "city": "SILVER SPRING",
        "state": "MD",
        "postalCode": "20906-5335"
      }
    ],
    "extension": [
      {
        "url": "https://fhir.athena.io/StructureDefinition/ah-practice",
        "valueReference": {
          "reference": "Organization/a-1.Practice-27703"
        }
      },
      {
        "url": "https://fhir.athena.io/StructureDefinition/ah-brand",
        "valueReference": {
          "reference": "Organization/a-27703.Brand-1"
        }
      }
    ]
  },
  "fullUrl": "urn:uuid:72f8c4b3-d2f0-5124-90b4-b3c09efcca93"
}