{
  "resource": {
    "resourceType": "Organization",
    "id": "03cec529-3ff4-523b-bfb2-a5174531fd11",
    "name": "Baptist Medical Network",
    "endpoint": [
      {
        "reference": "Endpoint/27a4e967-47aa-5a9c-a572-b8297ee268a2"
      },
      {
        "reference": "Endpoint/ed1a93da-a3d8-5680-acd6-1ca1e7fd39c9"
      }
    ],
    "identifier": [
      {
        "system": "http://hl7.org/fhir/sid/us-npi",
        "value": "1447524392"
      },
      {
        "system": "http://hl7.org/fhir/sid/us-npi",
        "value": "1598958431"
      }
    ],
    "address": [
      {
        "line": [
          "20171 Chasewood Park Dr"
        ],
        "city": "HOUSTON",
        "state": "TX",
        "postalCode": "77070-1437"
      },
      {
        "line": [
          "1475 Farm to Market 1960 Bypass Road East"
        ],
        "city": "HUMBLE",
        "state": "TX",
        "postalCode": "77338-3909"
      },
      {
        "line": [
          "16906 Southwest Frwy",
          "Suite 70"
        ],
        "city": "SUGAR LAND",
        "state": "TX",
        "postalCode": "77479-2530"
      },
      {
        "line": [
          "2255 E Mossy Oaks Rd"
        ],
        "city": "SPRING",
        "state": "TX",
        "postalCode": "77389-1811"
      },
      {
        "line": [
          "17080 Red Oak Dr"
        ],
        "city": "HOUSTON",
        "state": "TX",
        "postalCode": "77090-2602"
      },
      {
        "line": [
          "300 Kingwood Medical Drive"
        ],
        "city": "KINGWOOD",
        "state": "TX",
        "postalCode": "77339-6400"
      },
      {
        "line": [
          "9250 Pinecroft Drive"
        ],
        "city": "Shenandoah",
        "state": "TX",
        "postalCode": "77380-3218"
      },
      {
        "line": [
          "1705 Jackson St"
        ],
        "city": "RICHMOND",
        "state": "TX",
        "postalCode": "77469-3246"
      },
      {
        "line": [
          "16655 Southwest Fwy"
        ],
        "city": "SUGAR LAND",
        "state": "TX",
        "postalCode": "77479-2339"
      },
      {
        "line": [
          "17200 St Lukes Way"
        ],
        "city": "CONROE",
        "state": "TX",
        "postalCode": "77384-8007"
      },
      {
        "line": [
          "4200 Twelve Oaks Dr"
        ],
        "city": "HOUSTON",
        "state": "TX",
        "postalCode": "77027-6812"
      },
      {
        "line": [
          "18220 State Highway 249"
        ],
        "city": "HOUSTON",
        "state": "TX",
        "postalCode": "77070-4347"
      },
      {
        "line": [
          "21720 Kingsland Blvd",
          "Suite 101"
        ],
        "city": "KATY",
        "state": "TX",
        "postalCode": "77450-2551"
      },
      {
        "line": [
          "9200 Pinecroft Drive",
          "Suite 200"
        ],
        "city": "SPRING",
        "state": "TX",
        "postalCode": "77380-3279"
      },
      {
        "line": [
          "504 Medical Center Blvd."
        ],
        "city": "CONROE",
        "state": "TX",
        "postalCode": "77304-2808"
      },
      {
        "line": [
          "21155 Southwest Freeway"
        ],
        "city": "RICHMOND",
        "state": "TX",
        "postalCode": "77469-7101"
      },
      {
        "line": [
          "4126 Southwest Freeway",
          "Suite 200"
        ],
        "city": "HOUSTON",
        "state": "TX",
        "postalCode": "77027-7316"
      },
      {
        "line": [
          "921 Gessner Rd"
        ],
        "city": "HOUSTON",
        "state": "TX",
        "postalCode": "77024-2501"
      },
      {
        "line": [
          "605 Holderrieth Boulevard"
        ],
        "city": "TOMBALL",
        "state": "TX",
        "postalCode": "77375-6445"
      },
      {
        "line": [
          "22999 US Highway 59 North"
        ],
        "city": "KINGWOOD",
        "state": "TX",
        "postalCode": "77339-4412"
      },
      {
        "line": [
          "1517 Thompson Rd",
          "Suite 100"
        ],
        "city": "RICHMOND",
        "state": "TX",
        "postalCode": "77469-4932"
      },
      {
        "line": [
          "710 Cypress Creek Parkway"
        ],
        "city": "HOUSTON",
        "state": "TX",
        "postalCode": "77090-3496"
      },
      {
        "line": [
          "17400 St Lukes Way"
        ],
        "city": "CONROE",
        "state": "TX",
        "postalCode": "77384-8007"
      },
      {
        "line": [
          "22003 Southwest Fwy"
        ],
        "city": "RICHMOND",
        "state": "TX",
        "postalCode": "77469-7003"
      },
      {
        "line": [
          "16655 Southwest Fwy"
        ],
        "city": "SUGAR LAND",
        "state": "TX",
        "postalCode": "77479-2329"
      },
      {
        "line": [
          "6011 W. Sam Houston Pkwy"
        ],
        "city": "HOUSTON",
        "state": "TX",
        "postalCode": "77072-1646"
      },
      {
        "line": [
          "9250 PINECROFT DR"
        ],
        "city": "Shenandoah",
        "state": "TX",
        "postalCode": "77380-3218"
      },
      {
        "line": [
          "25440 Interstate 45 North"
        ],
        "city": "SPRING",
        "state": "TX",
        "postalCode": "77386-1343"
      },
      {
        "line": [
          "17500 West Grand Parkway South"
        ],
        "city": "SUGAR LAND",
        "state": "TX",
        "postalCode": "77479-2562"
      },
      {
        "line": [
          "7830 West Grand Parkway South",
          "Ste 150"
        ],
        "city": "RICHMOND",
        "state": "TX",
        "postalCode": "77406-5819"
      },
      {
        "line": [
          "6655 Travis Street",
          "Suite 200"
        ],
        "city": "HOUSTON",
        "state": "TX",
        "postalCode": "77030-1343"
      },
      {
        "line": [
          "23920 Katy Frwy",
          "Suite 200"
        ],
        "city": "KATY",
        "state": "TX",
        "postalCode": "77494-0881"
      },
      {
        "line": [
          "17510 West Grand Pkwy",
          "Suite 200"
        ],
        "city": "SUGAR LAND",
        "state": "TX",
        "postalCode": "77479-2647"
      },
      {
        "line": [
          "20823 Park Row Dr.",
          "Suite A"
        ],
        "city": "KATY",
        "state": "TX",
        "postalCode": "77449-5015"
      },
      {
        "line": [
          "24727 Tomball Pkwy",
          "Suite 100"
        ],
        "city": "TOMBALL",
        "state": "TX",
        "postalCode": "77375-0001"
      }
    ],
    "extension": [
      {
        "url": "https://fhir.athena.io/StructureDefinition/ah-practice",
        "valueReference": {
          "reference": "Organization/a-1.Practice-1438"
        }
      },
      {
        "url": "https://fhir.athena.io/StructureDefinition/ah-brand",
        "valueReference": {
          "reference": "Organization/a-1438.Brand-1"
        }
      }
    ]
  },
  "fullUrl": "urn:uuid:03cec529-3ff4-523b-bfb2-a5174531fd11"
}