{
  "resource": {
    "resourceType": "Organization",
    "id": "3ba34d94-e17d-5ac2-92ef-04b8b26a96ca",
    "name": "N/A",
    "endpoint": [
      {
        "reference": "Endpoint/27a4e967-47aa-5a9c-a572-b8297ee268a2"
      },
      {
        "reference": "Endpoint/5b9579ad-104d-5251-a27e-72a50a776b49"
      }
    ],
    "identifier": [
      {
        "system": "http://hl7.org/fhir/sid/us-npi",
        "value": "1811122880"
      }
    ],
    "address": [
      {
        "line": [
          "6825 DAVIS BLVD"
        ],
        "city": "NAPLES",
        "state": "FL",
        "postalCode": "34104-5322"
      },
      {
        "line": [
          "1250 SOUTH 18TH ST"
        ],
        "city": "FERNANDINA BEACH",
        "state": "FL",
        "postalCode": "32034-3098"
      },
      {
        "line": [
          "1540 6TH ST NW"
        ],
        "city": "WINTER HAVEN",
        "state": "FL",
        "postalCode": "33881-2368"
      },
      {
        "line": [
          "255 CITRUS TOWER BLVD",
          "STE 100"
        ],
        "city": "CLERMONT",
        "state": "FL",
        "postalCode": "34711-1906"
      },
      {
        "line": [
          "6235 HOFFMAN ST"
        ],
        "city": "NORTH PORT",
        "state": "FL",
        "postalCode": "34287-2285"
      },
      {
        "line": [
          "1 TAMPA GENERAL CIRCLE"
        ],
        "city": "TAMPA",
        "state": "FL",
        "postalCode": "33606-3571"
      },
      {
        "line": [
          "700 MedicalCT E"
        ],
        "city": "INVERNESS",
        "state": "FL",
        "postalCode": "34452-4706"
      },
      {
        "line": [
          "6000 49TH ST N"
        ],
        "city": "SAINT PETERSBURG",
        "state": "FL",
        "postalCode": "33709-2114"
      },
      {
        "line": [
          "1711 N Croft ave"
        ],
        "city": "INVERNESS",
        "state": "FL",
        "postalCode": "34453-3832"
      },
      {
        "line": [
          "26563 SANDHILL BLVD"
        ],
        "city": "PUNTA GORDA",
        "state": "FL",
        "postalCode": "33983-6310"
      },
      {
        "line": [
          "200 AVENUE F NE"
        ],
        "city": "WINTER HAVEN",
        "state": "FL",
        "postalCode": "33881-4131"
      },
      {
        "line": [
          "14750 NEW HOPE CENTER LOOP"
        ],
        "city": "FORT MYERS",
        "state": "FL",
        "postalCode": "33912-4700"
      },
      {
        "line": [
          "2470 Bloomingdale Ave Ste 260"
        ],
        "city": "VALRICO",
        "state": "FL",
        "postalCode": "33596-6403"
      },
      {
        "line": [
          "1510 CYPRESS GARDENS BLVD"
        ],
        "city": "WINTER HAVEN",
        "state": "FL",
        "postalCode": "33884-1976"
      },
      {
        "line": [
          "3050 CHAMPION RING ROAD"
        ],
        "city": "FORT MYERS",
        "state": "FL",
        "postalCode": "33905-5599"
      },
      {
        "line": [
          "7669 CALISTOBLE LOOP"
        ],
        "city": "FORT MYERS",
        "state": "FL",
        "postalCode": "33907-8527"
      },
      {
        "line": [
          "100 Glenview Pl"
        ],
        "city": "NAPLES",
        "state": "FL",
        "postalCode": "34108-3137"
      },
      {
        "line": [
          "1625 LIME ST"
        ],
        "city": "FERNANDINA BEACH",
        "state": "FL",
        "postalCode": "32034-3017"
      },
      {
        "line": [
          "2675 WINKLER AVE",
          "SUITE 490"
        ],
        "city": "FORT MYERS",
        "state": "FL",
        "postalCode": "33901-9330"
      },
      {
        "line": [
          "21298 OLEAN BLVD"
        ],
        "city": "PORT CHARLOTTE",
        "state": "FL",
        "postalCode": "33952-6705"
      },
      {
        "line": [
          "1084 GOODLETTE RD"
        ],
        "city": "NAPLES",
        "state": "FL",
        "postalCode": "34102-5449"
      },
      {
        "line": [
          "5701 S Pleasant Grove RD"
        ],
        "city": "INVERNESS",
        "state": "FL",
        "postalCode": "34452-4607"
      },
      {
        "line": [
          "925 South River Rd"
        ],
        "city": "ENGLEWOOD",
        "state": "FL",
        "postalCode": "34223-3909"
      },
      {
        "line": [
          "1561 WEST FAIRBANKS AVE"
        ],
        "city": "WINTER PARK",
        "state": "FL",
        "postalCode": "32789-4678"
      },
      {
        "line": [
          "95146 HENDRICKS RD"
        ],
        "city": "FERNANDINA BEACH",
        "state": "FL",
        "postalCode": "32034-1474"
      },
      {
        "line": [
          "1240 PINEBROOK RD"
        ],
        "city": "VENICE",
        "state": "FL",
        "postalCode": "34285-6421"
      },
      {
        "line": [
          "830 N. SHORE DR NE"
        ],
        "city": "SAINT PETERSBURG",
        "state": "FL",
        "postalCode": "33701-2028"
      },
      {
        "line": [
          "3495 HOFFMAN ST"
        ],
        "city": "PENNEY FARMS",
        "state": "FL",
        "postalCode": "32079-0555"
      },
      {
        "line": [
          "304 S Citrus Ave"
        ],
        "city": "INVERNESS",
        "state": "FL",
        "postalCode": "34452-4706"
      },
      {
        "line": [
          "850 111TH AVE N"
        ],
        "city": "NAPLES",
        "state": "FL",
        "postalCode": "34108-1803"
      },
      {
        "line": [
          "701 OVERLOOK DR"
        ],
        "city": "WINTER HAVEN",
        "state": "FL",
        "postalCode": "33884-1671"
      },
      {
        "line": [
          "124 W Norvell Bryant"
        ],
        "city": "HERNANDO",
        "state": "FL",
        "postalCode": "34442-5105"
      },
      {
        "line": [
          "1600 CENTER ROAD"
        ],
        "city": "VENICE",
        "state": "FL",
        "postalCode": "34292-3841"
      },
      {
        "line": [
          "4900 S SUMTER BLVD"
        ],
        "city": "NORTH PORT",
        "state": "FL",
        "postalCode": "34287-2917"
      },
      {
        "line": [
          "1250 TAMIAMI TRL N STE 305"
        ],
        "city": "NAPLES",
        "state": "FL",
        "postalCode": "34102-5267"
      },
      {
        "line": [
          "1730 NE Pine Island Rd"
        ],
        "city": "CAPE CORAL",
        "state": "FL",
        "postalCode": "33909-1734"
      },
      {
        "line": [
          "970 CYPRESS VILLAGE BLVD"
        ],
        "city": "SUN CITY CENTER",
        "state": "FL",
        "postalCode": "33573-6830"
      },
      {
        "line": [
          "1622 SILVER STREET"
        ],
        "city": "JACKSONVILLE",
        "state": "FL",
        "postalCode": "32206-4446"
      },
      {
        "line": [
          "3434 HANCOCK BRIDGE P"
        ],
        "city": "NORTH FORT MYERS",
        "state": "FL",
        "postalCode": "33903-7099"
      },
      {
        "line": [
          "611 TURNER CAMP RD"
        ],
        "city": "INVERNESS",
        "state": "FL",
        "postalCode": "34453-1462"
      },
      {
        "line": [
          "280 PINE ST"
        ],
        "city": "ENGLEWOOD",
        "state": "FL",
        "postalCode": "34223-3948"
      },
      {
        "line": [
          "8104 TUTTLE AVE"
        ],
        "city": "SARASOTA",
        "state": "FL",
        "postalCode": "34243-2885"
      },
      {
        "line": [
          "3325 W Jerwayne Lane"
        ],
        "city": "LECANTO",
        "state": "FL",
        "postalCode": "34461-8536"
      },
      {
        "line": [
          "1285 CREEKSIDE BLVD"
        ],
        "city": "NAPLES",
        "state": "FL",
        "postalCode": "34109-0590"
      },
      {
        "line": [
          "2333 N Brentwood Circle"
        ],
        "city": "LECANTO",
        "state": "FL",
        "postalCode": "34461-8536"
      },
      {
        "line": [
          "136 NE 12TH AVE"
        ],
        "city": "CRYSTAL RIVER",
        "state": "FL",
        "postalCode": "34429-4553"
      },
      {
        "line": [
          "1627 E 8TH ST"
        ],
        "city": "JACKSONVILLE",
        "state": "FL",
        "postalCode": "32206-5407"
      },
      {
        "line": [
          "200 Nassau North"
        ],
        "city": "VENICE",
        "state": "FL",
        "postalCode": "34285-1772"
      },
      {
        "line": [
          "2450 Maitland Center Parkway"
        ],
        "city": "MAITLAND",
        "state": "FL",
        "postalCode": "32751-4140"
      },
      {
        "line": [
          "1745 Forest Drive"
        ],
        "city": "INVERNESS",
        "state": "FL",
        "postalCode": "34453-3832"
      },
      {
        "line": [
          "14305 Collier Blvd"
        ],
        "city": "NAPLES",
        "state": "FL",
        "postalCode": "34119-9589"
      }
    ],
    "extension": [
      {
        "url": "https://fhir.athena.io/StructureDefinition/ah-practice",
        "valueReference": {
          "reference": "Organization/a-1.Practice-4290"
        }
      },
      {
        "url": "https://fhir.athena.io/StructureDefinition/ah-brand",
        "valueReference": {
          "reference": "Organization/a-4290.Brand-1"
        }
      }
    ]
  },
  "fullUrl": "urn:uuid:3ba34d94-e17d-5ac2-92ef-04b8b26a96ca"
}