{
  "resource": {
    "resourceType": "Organization",
    "id": "555efc79-0bf6-5ac4-b692-74b7a6bbc4eb",
    "name": "Upperline Health Alabama",
    "endpoint": [
      {
        "reference": "Endpoint/27a4e967-47aa-5a9c-a572-b8297ee268a2"
      },
      {
        "reference": "Endpoint/ff9909c1-cb8e-5805-aadb-c0060a6cf655"
      }
    ],
    "identifier": [
      {
        "system": "http://hl7.org/fhir/sid/us-npi",
        "value": "1538686498"
      }
    ],
    "address": [
      {
        "line": [
          "700 W MARKET ST"
        ],
        "city": "ATHENS",
        "state": "AL",
        "postalCode": "35611-2457"
      },
      {
        "line": [
          "470 Taylor Rd"
        ],
        "city": "MONTGOMERY",
        "state": "AL",
        "postalCode": "36117-3563"
      },
      {
        "line": [
          "2116 CHAPEL HILL RD"
        ],
        "city": "BIRMINGHAM",
        "state": "AL",
        "postalCode": "35216-5106"
      },
      {
        "line": [
          "810 St. Vincent's Drive"
        ],
        "city": "BIRMINGHAM",
        "state": "AL",
        "postalCode": "35205-1601"
      },
      {
        "line": [
          "400 Taylor Rd"
        ],
        "city": "MONTGOMERY",
        "state": "AL",
        "postalCode": "36117-3512"
      },
      {
        "line": [
          "7191 Cahaba Valley Rd",
          "Suite 110"
        ],
        "city": "BIRMINGHAM",
        "state": "AL",
        "postalCode": "35242-6461"
      },
      {
        "line": [
          "150 Gilbreath Dr"
        ],
        "city": "ONEONTA",
        "state": "AL",
        "postalCode": "35121-2827"
      },
      {
        "line": [
          "7063 VETERANS PKWY"
        ],
        "city": "PELL CITY",
        "state": "AL",
        "postalCode": "35125-5114"
      },
      {
        "line": [
          "2057 Valleydale Road",
          "Suite 109"
        ],
        "city": "BIRMINGHAM",
        "state": "AL",
        "postalCode": "35244-2707"
      },
      {
        "line": [
          "130 SEASONS WAY"
        ],
        "city": "TALLADEGA",
        "state": "AL",
        "postalCode": "35160-2802"
      },
      {
        "line": [
          "3740 EAGLE DR"
        ],
        "city": "TRUSSVILLE",
        "state": "AL",
        "postalCode": "35173-6308"
      },
      {
        "line": [
          "2010 BROOKWOOD MEDICAL CENTER DRIVE"
        ],
        "city": "BIRMINGHAM",
        "state": "AL",
        "postalCode": "35209-6804"
      },
      {
        "line": [
          "11260 COUNTY LINE RD"
        ],
        "city": "MADISON",
        "state": "AL",
        "postalCode": "35756-2012"
      },
      {
        "line": [
          "810 SAINT VINCENTS DRIVE",
          "SUITE 200"
        ],
        "city": "BIRMINGHAM",
        "state": "AL",
        "postalCode": "35205-1620"
      },
      {
        "line": [
          "124 S MEMORIAL DR"
        ],
        "city": "PRATTVILLE",
        "state": "AL",
        "postalCode": "36067-3619"
      },
      {
        "line": [
          "1010 1st Street North"
        ],
        "city": "ALABASTER",
        "state": "AL",
        "postalCode": "35007-8608"
      },
      {
        "line": [
          "2385 DOLLY RIDGE RD"
        ],
        "city": "BIRMINGHAM",
        "state": "AL",
        "postalCode": "35243-1923"
      },
      {
        "line": [
          "7295 COPPERFIELD DRIVE"
        ],
        "city": "MONTGOMERY",
        "state": "AL",
        "postalCode": "36117-7106"
      },
      {
        "line": [
          "1558 E Trinity Blvd"
        ],
        "city": "MONTGOMERY",
        "state": "AL",
        "postalCode": "36106-3609"
      },
      {
        "line": [
          "733 Mary Vann Lane"
        ],
        "city": "BIRMINGHAM",
        "state": "AL",
        "postalCode": "35215-5046"
      },
      {
        "line": [
          "810 ST. VINCENT'S DRIVE"
        ],
        "city": "BIRMINGHAM",
        "state": "AL",
        "postalCode": "35205-1601"
      },
      {
        "line": [
          "420 Dean Lane"
        ],
        "city": "GARDENDALE",
        "state": "AL",
        "postalCode": "35071-2763"
      },
      {
        "line": [
          "5511 Highway 280, Suite 118"
        ],
        "city": "BIRMINGHAM",
        "state": "AL",
        "postalCode": "35242-1505"
      },
      {
        "line": [
          "1907 W SYCAMORE ST"
        ],
        "city": "KOKOMO",
        "state": "IN",
        "postalCode": "46901-4197"
      },
      {
        "line": [
          "121 BROOKRIDGE DR"
        ],
        "city": "MADISON",
        "state": "AL",
        "postalCode": "35758-7590"
      },
      {
        "line": [
          "6316 Piccadilly Square",
          "Suite A"
        ],
        "city": "MOBILE",
        "state": "AL",
        "postalCode": "36609-5143"
      },
      {
        "line": [
          "1725 PINE STREET"
        ],
        "city": "MONTGOMERY",
        "state": "AL",
        "postalCode": "36106-1109"
      },
      {
        "line": [
          "4109 Cogswell Avenue"
        ],
        "city": "PELL CITY",
        "state": "AL",
        "postalCode": "35125-2607"
      },
      {
        "line": [
          "2720 UNIVERSITY BLVD"
        ],
        "city": "BIRMINGHAM",
        "state": "AL",
        "postalCode": "35233-3408"
      },
      {
        "line": [
          "2551 EASTCHASE LN"
        ],
        "city": "MONTGOMERY",
        "state": "AL",
        "postalCode": "36117-7133"
      },
      {
        "line": [
          "1775 Halcyon Blvd."
        ],
        "city": "MONTGOMERY",
        "state": "AL",
        "postalCode": "36117-3487"
      },
      {
        "line": [
          "1041 BALCH RD STE 320"
        ],
        "city": "MADISON",
        "state": "AL",
        "postalCode": "35758-8822"
      },
      {
        "line": [
          "3920 Antionette Drive"
        ],
        "city": "MONTGOMERY",
        "state": "AL",
        "postalCode": "36111-2722"
      },
      {
        "line": [
          "200 ONE NINETEEN BLVD"
        ],
        "city": "BIRMINGHAM",
        "state": "AL",
        "postalCode": "35242-7236"
      },
      {
        "line": [
          "1976 Gadsden Hwy",
          "Suite 101"
        ],
        "city": "BIRMINGHAM",
        "state": "AL",
        "postalCode": "35235-3266"
      }
    ],
    "extension": [
      {
        "url": "https://fhir.athena.io/StructureDefinition/ah-practice",
        "valueReference": {
          "reference": "Organization/a-1.Practice-4399"
        }
      },
      {
        "url": "https://fhir.athena.io/StructureDefinition/ah-brand",
        "valueReference": {
          "reference": "Organization/a-4399.Brand-1"
        }
      }
    ]
  },
  "fullUrl": "urn:uuid:555efc79-0bf6-5ac4-b692-74b7a6bbc4eb"
}