{
  "resource": {
    "resourceType": "Organization",
    "id": "c692cb1d-0aca-58c4-9d2c-7a56e4caf61a",
    "name": "Adult Medicine at DePaul Center",
    "endpoint": [
      {
        "reference": "Endpoint/27a4e967-47aa-5a9c-a572-b8297ee268a2"
      },
      {
        "reference": "Endpoint/c3359be5-f4e0-571d-9d0c-30aade0a285b"
      }
    ],
    "identifier": [
      {
        "system": "http://hl7.org/fhir/sid/us-npi",
        "value": "1497791297"
      },
      {
        "system": "http://hl7.org/fhir/sid/us-npi",
        "value": "1881929669"
      },
      {
        "system": "http://hl7.org/fhir/sid/us-npi",
        "value": "1194944207"
      },
      {
        "system": "http://hl7.org/fhir/sid/us-npi",
        "value": "1669462420"
      },
      {
        "system": "http://hl7.org/fhir/sid/us-npi",
        "value": "1801274634"
      }
    ],
    "address": [
      {
        "line": [
          "645 Main Street"
        ],
        "city": "PATERSON",
        "state": "NJ",
        "postalCode": "07503-3028"
      },
      {
        "line": [
          "703 Main Street"
        ],
        "city": "PATERSON",
        "state": "NJ",
        "postalCode": "07503-2621"
      },
      {
        "line": [
          "1225 McBride Ave, Suite 220"
        ],
        "city": "Woodland Park",
        "state": "NJ",
        "postalCode": "07424-9991"
      },
      {
        "line": [
          "703 Main Street",
          "SJRMC,   Building 400"
        ],
        "city": "PATERSON",
        "state": "NJ",
        "postalCode": "07503-2621"
      },
      {
        "line": [
          "234 Hamburg Turnpike, Suite 202",
          "SJWH"
        ],
        "city": "WAYNE",
        "state": "NJ",
        "postalCode": "07470-2149"
      },
      {
        "line": [
          "SJRMC"
        ],
        "city": "PATERSON",
        "state": "NJ",
        "postalCode": "07503-0001"
      },
      {
        "line": [
          "516 Hamburg Turnpike",
          "SJRMC, Suite 11"
        ],
        "city": "WAYNE",
        "state": "NJ",
        "postalCode": "07470-2063"
      },
      {
        "line": [
          "130 Terhune Drive"
        ],
        "city": "WAYNE",
        "state": "NJ",
        "postalCode": "07470-7140"
      },
      {
        "line": [
          "224 Hamburg Tpk"
        ],
        "city": "WAYNE",
        "state": "NJ",
        "postalCode": "07470-2149"
      },
      {
        "line": [
          "289 Market Street"
        ],
        "city": "SADDLE BROOK",
        "state": "NJ",
        "postalCode": "07663-6048"
      },
      {
        "line": [
          "1225 MCBRIDE AVE, SUITE 220"
        ],
        "city": "WOODLAND PARK",
        "state": "NJ",
        "postalCode": "07424-0681"
      },
      {
        "line": [
          "88 Park Avenue"
        ],
        "city": "MONTCLAIR",
        "state": "NJ",
        "postalCode": "07042-5915"
      },
      {
        "line": [
          "1120 Alps Road"
        ],
        "city": "WAYNE",
        "state": "NJ",
        "postalCode": "07470-3704"
      }
    ],
    "extension": [
      {
        "url": "https://fhir.athena.io/StructureDefinition/ah-practice",
        "valueReference": {
          "reference": "Organization/a-1.Practice-461"
        }
      },
      {
        "url": "https://fhir.athena.io/StructureDefinition/ah-brand",
        "valueReference": {
          "reference": "Organization/a-461.Brand-1"
        }
      }
    ]
  },
  "fullUrl": "urn:uuid:c692cb1d-0aca-58c4-9d2c-7a56e4caf61a"
}