{
  "resource": {
    "resourceType": "Organization",
    "id": "4e1bc8ca-12ed-570f-bf92-b060366f5081",
    "name": "IOP Behavioral",
    "endpoint": [
      {
        "reference": "Endpoint/27a4e967-47aa-5a9c-a572-b8297ee268a2"
      },
      {
        "reference": "Endpoint/0403903d-48be-5536-88e3-e61681fe4468"
      }
    ],
    "identifier": [
      {
        "system": "http://hl7.org/fhir/sid/us-npi",
        "value": "1295739548"
      },
      {
        "system": "http://hl7.org/fhir/sid/us-npi",
        "value": "1265467195"
      },
      {
        "system": "http://hl7.org/fhir/sid/us-npi",
        "value": "1629433784"
      }
    ],
    "address": [
      {
        "line": [
          "1201 RIcker Dr"
        ],
        "city": "SALEM",
        "state": "IL",
        "postalCode": "62881-4263"
      },
      {
        "line": [
          "1201 Ricker Road"
        ],
        "city": "SALEM",
        "state": "IL",
        "postalCode": "62881-4263"
      },
      {
        "line": [
          "1201 Ricker Rd"
        ],
        "city": "SALEM",
        "state": "IL",
        "postalCode": "62881-4263"
      },
      {
        "line": [
          "1201 Ricker Drive"
        ],
        "city": "SALEM",
        "state": "IL",
        "postalCode": "62881-4263"
      },
      {
        "line": [
          "1201 Ricker Dr"
        ],
        "city": "SALEM",
        "state": "IL",
        "postalCode": "62881-4263"
      },
      {
        "line": [
          "8 Doctors Park Rd",
          "Crossroads Community Hospital"
        ],
        "city": "MOUNT VERNON",
        "state": "IL",
        "postalCode": "62864-2402"
      },
      {
        "line": [
          "1 Good Samaritan Way",
          "Good Samaritan"
        ],
        "city": "MOUNT VERNON",
        "state": "IL",
        "postalCode": "62864-2402"
      },
      {
        "line": [
          "3333 W DEYOUNG ST"
        ],
        "city": "MARION",
        "state": "IL",
        "postalCode": "62959-5884"
      },
      {
        "line": [
          "400 N Pleasant Ave",
          "St. Mary's Hospital"
        ],
        "city": "CENTRALIA",
        "state": "IL",
        "postalCode": "62801-3056"
      }
    ],
    "extension": [
      {
        "url": "https://fhir.athena.io/StructureDefinition/ah-practice",
        "valueReference": {
          "reference": "Organization/a-1.Practice-13311"
        }
      },
      {
        "url": "https://fhir.athena.io/StructureDefinition/ah-brand",
        "valueReference": {
          "reference": "Organization/a-13311.Brand-1"
        }
      }
    ]
  },
  "fullUrl": "urn:uuid:4e1bc8ca-12ed-570f-bf92-b060366f5081"
}