{
  "resource": {
    "resourceType": "Organization",
    "id": "32b2acab-98c3-5698-8f6d-5ee5ddc9b3ff",
    "name": "Ashland City - DME - HCO",
    "endpoint": [
      {
        "reference": "Endpoint/27a4e967-47aa-5a9c-a572-b8297ee268a2"
      },
      {
        "reference": "Endpoint/b136fc43-e97b-554e-b959-d574e9ea2140"
      }
    ],
    "identifier": [
      {
        "system": "http://hl7.org/fhir/sid/us-npi",
        "value": "1710065735"
      },
      {
        "system": "http://hl7.org/fhir/sid/us-npi",
        "value": "1912084187"
      },
      {
        "system": "http://hl7.org/fhir/sid/us-npi",
        "value": "1437584299"
      },
      {
        "system": "http://hl7.org/fhir/sid/us-npi",
        "value": "1083078711"
      },
      {
        "system": "http://hl7.org/fhir/sid/us-npi",
        "value": "1124554068"
      },
      {
        "system": "http://hl7.org/fhir/sid/us-npi",
        "value": "1659443828"
      },
      {
        "system": "http://hl7.org/fhir/sid/us-npi",
        "value": "1164500088"
      },
      {
        "system": "http://hl7.org/fhir/sid/us-npi",
        "value": "1972681294"
      },
      {
        "system": "http://hl7.org/fhir/sid/us-npi",
        "value": "1972577351"
      },
      {
        "system": "http://hl7.org/fhir/sid/us-npi",
        "value": "1174600332"
      }
    ],
    "address": [
      {
        "line": [
          "555 Hartsville Pike"
        ],
        "city": "GALLATIN",
        "state": "TN",
        "postalCode": "37066-2400"
      },
      {
        "line": [
          "9160 CAROTHERS PKWY",
          "STE 100"
        ],
        "city": "FRANKLIN",
        "state": "TN",
        "postalCode": "37067-6689"
      },
      {
        "line": [
          "6262 Veterans Pkwy"
        ],
        "city": "COLUMBUS",
        "state": "GA",
        "postalCode": "31909-3540"
      },
      {
        "line": [
          "100 NORTHCREST DR STE 221",
          "Building 200"
        ],
        "city": "SPRINGFIELD",
        "state": "TN",
        "postalCode": "37172-3927"
      },
      {
        "line": [
          "313 North Main Street",
          "Suite 2"
        ],
        "city": "ASHLAND CITY",
        "state": "TN",
        "postalCode": "37015-1347"
      },
      {
        "line": [
          "1321 Murfreesboro Rd",
          "Suite 510"
        ],
        "city": "NASHVILLE",
        "state": "TN",
        "postalCode": "37217-2655"
      },
      {
        "line": [
          "100 COVEY DR STE 103"
        ],
        "city": "FRANKLIN",
        "state": "TN",
        "postalCode": "37067-5603"
      },
      {
        "line": [
          "394 Harding Place",
          "Suite 100"
        ],
        "city": "NASHVILLE",
        "state": "TN",
        "postalCode": "37211-3947"
      },
      {
        "line": [
          "1411 W Baddour Pkwy"
        ],
        "city": "LEBANON",
        "state": "TN",
        "postalCode": "37087-2513"
      },
      {
        "line": [
          "Perimeter Medical Center - Antioch",
          "3320 PERIMETER HILL DR"
        ],
        "city": "NASHVILLE",
        "state": "TN",
        "postalCode": "37211-4123"
      },
      {
        "line": [
          "5655 Frist Blvd"
        ],
        "city": "HERMITAGE",
        "state": "TN",
        "postalCode": "37076-2053"
      },
      {
        "line": [
          "660 S MOUNT JULIET RD STE 211"
        ],
        "city": "MOUNT JULIET",
        "state": "TN",
        "postalCode": "37122-3973"
      },
      {
        "line": [
          "1001 HEALTH PARK DR",
          "STE 101"
        ],
        "city": "BRENTWOOD",
        "state": "TN",
        "postalCode": "37027-5804"
      }
    ],
    "extension": [
      {
        "url": "https://fhir.athena.io/StructureDefinition/ah-practice",
        "valueReference": {
          "reference": "Organization/a-1.Practice-321"
        }
      },
      {
        "url": "https://fhir.athena.io/StructureDefinition/ah-brand",
        "valueReference": {
          "reference": "Organization/a-321.Brand-1"
        }
      }
    ]
  },
  "fullUrl": "urn:uuid:32b2acab-98c3-5698-8f6d-5ee5ddc9b3ff"
}