{
  "resource": {
    "resourceType": "Organization",
    "id": "b4196ad0-bc12-562c-a260-fea4bab48175",
    "name": "SELECT PSYCHIATRIC MANAGEMENT GROUP",
    "endpoint": [
      {
        "reference": "Endpoint/27a4e967-47aa-5a9c-a572-b8297ee268a2"
      },
      {
        "reference": "Endpoint/791b6ffe-8bb6-56bb-ab3e-306fa6ae8259"
      }
    ],
    "identifier": [
      {
        "system": "http://hl7.org/fhir/sid/us-npi",
        "value": "1427345131"
      }
    ],
    "address": [
      {
        "line": [
          "100 Dr Warren Tuttle Dr"
        ],
        "city": "HARRISBURG",
        "state": "IL",
        "postalCode": "62946-7128"
      },
      {
        "line": [
          "100 Doctor Warren Tuttle Dr."
        ],
        "city": "HARRISBURG",
        "state": "IL",
        "postalCode": "62946-2718"
      },
      {
        "line": [
          "201 S. 14th Street"
        ],
        "city": "HERRIN",
        "state": "IL",
        "postalCode": "62948-3631"
      },
      {
        "line": [
          "2 S. Hospital Dr."
        ],
        "city": "MURPHYSBORO",
        "state": "IL",
        "postalCode": "62966-3333"
      },
      {
        "line": [
          "2 S HOSPITAL DR"
        ],
        "city": "MURPHYSBORO",
        "state": "IL",
        "postalCode": "62966-3333"
      },
      {
        "line": [
          "112 AIRWAY DR"
        ],
        "city": "MARION",
        "state": "IL",
        "postalCode": "62959-0430"
      },
      {
        "line": [
          "100 DR WARREN TUTTLE DR"
        ],
        "city": "HARRISBURG",
        "state": "IL",
        "postalCode": "62946-7218"
      },
      {
        "line": [
          "PO BOX 429"
        ],
        "city": "MC LEANSBORO",
        "state": "IL",
        "postalCode": "62859-0429"
      },
      {
        "line": [
          "405 W. Jackson St"
        ],
        "city": "CARBONDALE",
        "state": "IL",
        "postalCode": "62901-1462"
      },
      {
        "line": [
          "PO BOX 429"
        ],
        "city": "MC LEANSBORO",
        "state": "IL",
        "postalCode": "62859-1213"
      },
      {
        "line": [
          "900 N WASHINGTON ST"
        ],
        "city": "DU QUOIN",
        "state": "IL",
        "postalCode": "62832-1233"
      },
      {
        "line": [
          "405 W JACKSON ST"
        ],
        "city": "CARBONDALE",
        "state": "IL",
        "postalCode": "62901-1462"
      },
      {
        "line": [
          "201 S 14TH ST"
        ],
        "city": "HERRIN",
        "state": "IL",
        "postalCode": "62948-3631"
      },
      {
        "line": [
          "517 N MAIN ST"
        ],
        "city": "ANNA",
        "state": "IL",
        "postalCode": "62906-1668"
      }
    ],
    "extension": [
      {
        "url": "https://fhir.athena.io/StructureDefinition/ah-practice",
        "valueReference": {
          "reference": "Organization/a-1.Practice-13017"
        }
      },
      {
        "url": "https://fhir.athena.io/StructureDefinition/ah-brand",
        "valueReference": {
          "reference": "Organization/a-13017.Brand-1"
        }
      }
    ]
  },
  "fullUrl": "urn:uuid:b4196ad0-bc12-562c-a260-fea4bab48175"
}