{
  "resource": {
    "resourceType": "Organization",
    "id": "52f879a9-b12c-5a20-8d07-75772703d148",
    "name": "Marano Eye Care",
    "endpoint": [
      {
        "reference": "Endpoint/27a4e967-47aa-5a9c-a572-b8297ee268a2"
      },
      {
        "reference": "Endpoint/dd2bb8e9-be40-5369-97ae-3465e8a23a03"
      }
    ],
    "identifier": [
      {
        "system": "http://hl7.org/fhir/sid/us-npi",
        "value": "1578722534"
      }
    ],
    "address": [
      {
        "line": [
          "100 MADISON AVE"
        ],
        "city": "MORRISTOWN",
        "state": "NJ",
        "postalCode": "07960-6136"
      },
      {
        "line": [
          "200 S ORANGE AVE STE 209"
        ],
        "city": "LIVINGSTON",
        "state": "NJ",
        "postalCode": "07039-5817"
      },
      {
        "line": [
          "306 DR. MARTIN LUTHER KING BLVD",
          "5TH FLOOR"
        ],
        "city": "NEWARK",
        "state": "NJ",
        "postalCode": "07102-3028"
      },
      {
        "line": [
          "61 MAIN ST"
        ],
        "city": "WEST ORANGE",
        "state": "NJ",
        "postalCode": "07052-5352"
      },
      {
        "line": [
          "14 RIDGEDALE AVENUE"
        ],
        "city": "CEDAR KNOLLS",
        "state": "NJ",
        "postalCode": "07927-1106"
      },
      {
        "line": [
          "94 OLD SHORT HILLS ROAD"
        ],
        "city": "LIVINGSTON",
        "state": "NJ",
        "postalCode": "07039-5817"
      },
      {
        "line": [
          "306 MARTIN LUTHER KIND BLVD"
        ],
        "city": "NEWARK",
        "state": "NJ",
        "postalCode": "07102-2011"
      },
      {
        "line": [
          "200 SOUTH ORANGE AVENUE"
        ],
        "city": "LIVINGSTON",
        "state": "NJ",
        "postalCode": "07039-5817"
      },
      {
        "line": [
          "306 DR. MARTIN LUTHER KING BLVD."
        ],
        "city": "NEWARK",
        "state": "NJ",
        "postalCode": "07102-2011"
      },
      {
        "line": [
          "16 POCONO ROAD",
          "SUITE 301"
        ],
        "city": "DENVILLE",
        "state": "NJ",
        "postalCode": "07834-2908"
      }
    ],
    "extension": [
      {
        "url": "https://fhir.athena.io/StructureDefinition/ah-practice",
        "valueReference": {
          "reference": "Organization/a-1.Practice-19841"
        }
      },
      {
        "url": "https://fhir.athena.io/StructureDefinition/ah-brand",
        "valueReference": {
          "reference": "Organization/a-19841.Brand-1"
        }
      }
    ]
  },
  "fullUrl": "urn:uuid:52f879a9-b12c-5a20-8d07-75772703d148"
}