{
  "resource": {
    "resourceType": "Organization",
    "id": "37a23d52-c0b8-52d7-ae1f-64631e3bbdd2",
    "name": "Laredo Physician Associates",
    "endpoint": [
      {
        "reference": "Endpoint/27a4e967-47aa-5a9c-a572-b8297ee268a2"
      },
      {
        "reference": "Endpoint/44a1a781-ab57-51fb-9667-16d7c47f94b9"
      }
    ],
    "identifier": [
      {
        "system": "http://hl7.org/fhir/sid/us-npi",
        "value": "1881656247"
      },
      {
        "system": "http://hl7.org/fhir/sid/us-npi",
        "value": "1215999511"
      },
      {
        "system": "http://hl7.org/fhir/sid/us-npi",
        "value": "1962602300"
      },
      {
        "system": "http://hl7.org/fhir/sid/us-npi",
        "value": "1215348487"
      },
      {
        "system": "http://hl7.org/fhir/sid/us-npi",
        "value": "1750302923"
      },
      {
        "system": "http://hl7.org/fhir/sid/us-npi",
        "value": "1669801585"
      },
      {
        "system": "http://hl7.org/fhir/sid/us-npi",
        "value": "1730484031"
      },
      {
        "system": "http://hl7.org/fhir/sid/us-npi",
        "value": "1649232984"
      },
      {
        "system": "http://hl7.org/fhir/sid/us-npi",
        "value": "1053373951"
      },
      {
        "system": "http://hl7.org/fhir/sid/us-npi",
        "value": "1124080320"
      }
    ],
    "address": [
      {
        "line": [
          "1700 E Saunders St"
        ],
        "city": "LAREDO",
        "state": "TX",
        "postalCode": "78041-5474"
      },
      {
        "line": [
          "1710 E Saunders Suite B260"
        ],
        "city": "LAREDO",
        "state": "TX",
        "postalCode": "78041-5528"
      },
      {
        "line": [
          "4151 JAIME ZAPATA MEMORIAL HWY STE 101B"
        ],
        "city": "LAREDO",
        "state": "TX",
        "postalCode": "78043-4741"
      },
      {
        "line": [
          "4151 JAIME ZAPATA MEMROIAL HWY STE 101B"
        ],
        "city": "LAREDO",
        "state": "TX",
        "postalCode": "78043-4741"
      },
      {
        "line": [
          "1119 FENWICK DR STE 204"
        ],
        "city": "LAREDO",
        "state": "TX",
        "postalCode": "78041-2971"
      },
      {
        "line": [
          "10700 MCPHERSON RD"
        ],
        "city": "LAREDO",
        "state": "TX",
        "postalCode": "78045-6268"
      },
      {
        "line": [
          "1710 E SAUNDERS ST STE 385"
        ],
        "city": "LAREDO",
        "state": "TX",
        "postalCode": "78041-5443"
      },
      {
        "line": [
          "1700 E SAUNDERS ST"
        ],
        "city": "LAREDO",
        "state": "TX",
        "postalCode": "78041-5474"
      },
      {
        "line": [
          "1710 E SAUNDERS ST STE B260"
        ],
        "city": "LAREDO",
        "state": "TX",
        "postalCode": "78041-5528"
      },
      {
        "line": [
          "1011 Main St"
        ],
        "city": "SPRING HILL",
        "state": "TN",
        "postalCode": "37174-4531"
      },
      {
        "line": [
          "4000 MERIDIAN"
        ],
        "city": "FRANKLIN",
        "state": "TN",
        "postalCode": "37067-6352"
      },
      {
        "line": [
          "1710 E SAUNDERS ST STE B460"
        ],
        "city": "LAREDO",
        "state": "TX",
        "postalCode": "78041-5454"
      }
    ],
    "extension": [
      {
        "url": "https://fhir.athena.io/StructureDefinition/ah-practice",
        "valueReference": {
          "reference": "Organization/a-1.Practice-1902"
        }
      },
      {
        "url": "https://fhir.athena.io/StructureDefinition/ah-brand",
        "valueReference": {
          "reference": "Organization/a-1902.Brand-12"
        }
      }
    ]
  },
  "fullUrl": "urn:uuid:37a23d52-c0b8-52d7-ae1f-64631e3bbdd2"
}