{
  "resource": {
    "resourceType": "Organization",
    "id": "35ea07d0-cde1-504a-ad61-cb4746a71016",
    "name": "Paris Foot and Ankle",
    "endpoint": [
      {
        "reference": "Endpoint/27a4e967-47aa-5a9c-a572-b8297ee268a2"
      },
      {
        "reference": "Endpoint/40d2b408-7225-5a63-85d1-10fd0570e424"
      }
    ],
    "identifier": [
      {
        "system": "http://hl7.org/fhir/sid/us-npi",
        "value": "1750814737"
      },
      {
        "system": "http://hl7.org/fhir/sid/us-npi",
        "value": "1649501347"
      }
    ],
    "address": [
      {
        "line": [
          "4530 Lamar Ave"
        ],
        "city": "PARIS",
        "state": "TX",
        "postalCode": "75460-5119"
      },
      {
        "line": [
          "750 N Collegiate"
        ],
        "city": "PARIS",
        "state": "TX",
        "postalCode": "75460-3465"
      },
      {
        "line": [
          "115 AIRPORT RD"
        ],
        "city": "SULPHUR SPRINGS",
        "state": "TX",
        "postalCode": "75482-2105"
      },
      {
        "line": [
          "865 Deshong Dr"
        ],
        "city": "PARIS",
        "state": "TX",
        "postalCode": "75460-9313"
      },
      {
        "line": [
          "105 MEDICAL PLAZA",
          "Ste 3"
        ],
        "city": "SULPHUR SPRINGS",
        "state": "TX",
        "postalCode": "75482-2136"
      },
      {
        "line": [
          "1055 Clarksville St",
          "Ste 160"
        ],
        "city": "PARIS",
        "state": "TX",
        "postalCode": "75460-6085"
      },
      {
        "line": [
          "115 NE 27th St"
        ],
        "city": "PARIS",
        "state": "TX",
        "postalCode": "75460-1444"
      },
      {
        "line": [
          "2990 Pine Mill Rd"
        ],
        "city": "PARIS",
        "state": "TX",
        "postalCode": "75460-3448"
      },
      {
        "line": [
          "2905 Pine Mill Rd"
        ],
        "city": "PARIS",
        "state": "TX",
        "postalCode": "75460-3469"
      }
    ],
    "extension": [
      {
        "url": "https://fhir.athena.io/StructureDefinition/ah-practice",
        "valueReference": {
          "reference": "Organization/a-1.Practice-2477"
        }
      },
      {
        "url": "https://fhir.athena.io/StructureDefinition/ah-brand",
        "valueReference": {
          "reference": "Organization/a-2477.Brand-26"
        }
      }
    ]
  },
  "fullUrl": "urn:uuid:35ea07d0-cde1-504a-ad61-cb4746a71016"
}