{
  "resource": {
    "resourceType": "Organization",
    "id": "2640407f-9b5d-54c3-bc00-96d4a517a67f",
    "name": "ATHENS MEDICAL TESTING LLC",
    "endpoint": [
      {
        "reference": "Endpoint/27a4e967-47aa-5a9c-a572-b8297ee268a2"
      },
      {
        "reference": "Endpoint/cad854fa-c7ea-57d4-9e1f-3406a162bccc"
      }
    ],
    "identifier": [
      {
        "system": "http://hl7.org/fhir/sid/us-npi",
        "value": "1316282700"
      }
    ],
    "address": [
      {
        "line": [
          "856 South Riverside Drive"
        ],
        "city": "MCCONNELSVILLE",
        "state": "OH",
        "postalCode": "43756-9102"
      },
      {
        "line": [
          "20017 ST. RT. 93 S"
        ],
        "city": "LOGAN",
        "state": "OH",
        "postalCode": "43138-8781"
      },
      {
        "line": [
          "5176 Washington Road"
        ],
        "city": "ALBANY",
        "state": "OH",
        "postalCode": "45710-9400"
      },
      {
        "line": [
          "501 Pinecrest Drive"
        ],
        "city": "BEVERLY",
        "state": "OH",
        "postalCode": "45715-8909"
      },
      {
        "line": [
          "25675 Main St"
        ],
        "city": "COOLVILLE",
        "state": "OH",
        "postalCode": "45723-9647"
      },
      {
        "line": [
          "51 E 4th Street"
        ],
        "city": "THE PLAINS",
        "state": "OH",
        "postalCode": "45780-1346"
      },
      {
        "line": [
          "1915 Hill Street"
        ],
        "city": "BELPRE",
        "state": "OH",
        "postalCode": "45714-1240"
      },
      {
        "line": [
          "1950 mount saint mary drive"
        ],
        "city": "NELSONVILLE",
        "state": "OH",
        "postalCode": "45764-1280"
      },
      {
        "line": [
          "38500 St Rt 160"
        ],
        "city": "HAMDEN",
        "state": "OH",
        "postalCode": "45634-8805"
      },
      {
        "line": [
          "141 Columbus Road"
        ],
        "city": "ATHENS",
        "state": "OH",
        "postalCode": "45701-1315"
      }
    ],
    "extension": [
      {
        "url": "https://fhir.athena.io/StructureDefinition/ah-practice",
        "valueReference": {
          "reference": "Organization/a-1.Practice-6149"
        }
      },
      {
        "url": "https://fhir.athena.io/StructureDefinition/ah-brand",
        "valueReference": {
          "reference": "Organization/a-6149.Brand-1"
        }
      }
    ]
  },
  "fullUrl": "urn:uuid:2640407f-9b5d-54c3-bc00-96d4a517a67f"
}