{
  "resource": {
    "resourceType": "Organization",
    "id": "e4fb302c-3ef2-51a2-95e3-1559ab56dcef",
    "name": "Medical Group",
    "endpoint": [
      {
        "reference": "Endpoint/27a4e967-47aa-5a9c-a572-b8297ee268a2"
      },
      {
        "reference": "Endpoint/4216da8e-c4e0-576f-bb06-8a6542531241"
      }
    ],
    "identifier": [
      {
        "system": "http://hl7.org/fhir/sid/us-npi",
        "value": "1588775647"
      }
    ],
    "address": [
      {
        "line": [
          "5101 SOUTH WILLOW SPRINGS RD"
        ],
        "city": "LA GRANGE",
        "state": "IL",
        "postalCode": "60525-2600"
      },
      {
        "line": [],
        "city": "ELK GROVE VILLAGE",
        "state": "IL",
        "postalCode": "60007-3361"
      },
      {
        "line": [],
        "city": "HOFFMAN ESTATES",
        "state": "IL",
        "postalCode": "60169-1019"
      },
      {
        "line": [
          "500 REMINGTON BLVD"
        ],
        "city": "BOLINGBROOK",
        "state": "IL",
        "postalCode": "60440-4906"
      },
      {
        "line": [
          "908 N. Elm St.",
          "Suite 309"
        ],
        "city": "HINSDALE",
        "state": "IL",
        "postalCode": "60521-3625"
      },
      {
        "line": [
          "120 NORTH OAK STREET"
        ],
        "city": "HINSDALE",
        "state": "IL",
        "postalCode": "60521-3829"
      },
      {
        "line": [
          "1555 N BARRINGTON RD"
        ],
        "city": "HOFFMAN ESTATES",
        "state": "IL",
        "postalCode": "60169-1019"
      },
      {
        "line": [
          "301 Madison St.",
          "Suite 307"
        ],
        "city": "JOLIET",
        "state": "IL",
        "postalCode": "60435-6665"
      },
      {
        "line": [
          "12151 Regency Parkway"
        ],
        "city": "HUNTLEY",
        "state": "IL",
        "postalCode": "60142-7644"
      },
      {
        "line": [
          "1555 Barrington Rd"
        ],
        "city": "HOFFMAN ESTATES",
        "state": "IL",
        "postalCode": "60169-1019"
      }
    ],
    "extension": [
      {
        "url": "https://fhir.athena.io/StructureDefinition/ah-practice",
        "valueReference": {
          "reference": "Organization/a-1.Practice-380"
        }
      },
      {
        "url": "https://fhir.athena.io/StructureDefinition/ah-brand",
        "valueReference": {
          "reference": "Organization/a-380.Brand-1"
        }
      }
    ]
  },
  "fullUrl": "urn:uuid:e4fb302c-3ef2-51a2-95e3-1559ab56dcef"
}