{
  "resource": {
    "resourceType": "Organization",
    "id": "b06f8cc0-0ec2-59a4-b04c-e643c0d9ab46",
    "name": "Frederick Dennis",
    "endpoint": [
      {
        "reference": "Endpoint/27a4e967-47aa-5a9c-a572-b8297ee268a2"
      },
      {
        "reference": "Endpoint/e39e50ca-4a14-58c1-b06b-a586e006cc32"
      }
    ],
    "identifier": [
      {
        "system": "http://hl7.org/fhir/sid/us-npi",
        "value": "1922108315"
      }
    ],
    "address": [
      {
        "line": [
          "28 Laurel lane",
          "Po Box 247"
        ],
        "city": "ALBRIGHTSVILLE",
        "state": "PA",
        "postalCode": "18210-0247"
      },
      {
        "line": [
          "11 Blue Spruce Rd"
        ],
        "city": "ALBRIGHTSVILLE",
        "state": "PA",
        "postalCode": "18210-0316"
      },
      {
        "line": [
          "108 Chetco Road"
        ],
        "city": "ALBRIGHTSVILLE",
        "state": "PA",
        "postalCode": "18210-7720"
      },
      {
        "line": [
          "HC-1 Box 45"
        ],
        "city": "ALBRIGHTSVILLE",
        "state": "PA",
        "postalCode": "18210-0045"
      },
      {
        "line": [
          "47 Teddyuscung Trail",
          "po box 624"
        ],
        "city": "ALBRIGHTSVILLE",
        "state": "PA",
        "postalCode": "18210-0624"
      },
      {
        "line": [
          "516 Old Stage Rd"
        ],
        "city": "ALBRIGHTSVILLE",
        "state": "PA",
        "postalCode": "18210-0033"
      },
      {
        "line": [
          "12 Autumn Lane"
        ],
        "city": "JIM THORPE",
        "state": "PA",
        "postalCode": "18229-2700"
      },
      {
        "line": [
          "8 Snow Way"
        ],
        "city": "ALBRIGHTSVILLE",
        "state": "PA",
        "postalCode": "18210-3330"
      },
      {
        "line": [
          "120 Klock Road",
          "PO Box 605"
        ],
        "city": "BLAKESLEE",
        "state": "PA",
        "postalCode": "18610-0605"
      },
      {
        "line": [
          "37 Algonkin Drive"
        ],
        "city": "JIM THORPE",
        "state": "PA",
        "postalCode": "18229-3722"
      },
      {
        "line": [
          "HC 1 Box 58"
        ],
        "city": "ALBRIGHTSVILLE",
        "state": "PA",
        "postalCode": "18210-9679"
      }
    ],
    "extension": [
      {
        "url": "https://fhir.athena.io/StructureDefinition/ah-practice",
        "valueReference": {
          "reference": "Organization/a-1.Practice-3473"
        }
      },
      {
        "url": "https://fhir.athena.io/StructureDefinition/ah-brand",
        "valueReference": {
          "reference": "Organization/a-3473.Brand-1"
        }
      }
    ]
  },
  "fullUrl": "urn:uuid:b06f8cc0-0ec2-59a4-b04c-e643c0d9ab46"
}