{
  "resource": {
    "resourceType": "Organization",
    "id": "5a069215-172a-580c-8017-7cd0698a86d4",
    "name": "Tim Martin, MD",
    "endpoint": [
      {
        "reference": "Endpoint/27a4e967-47aa-5a9c-a572-b8297ee268a2"
      },
      {
        "reference": "Endpoint/00e1aa54-e4dd-5288-91bb-177573ddd1ab"
      }
    ],
    "identifier": [
      {
        "system": "http://hl7.org/fhir/sid/us-npi",
        "value": "1578932109"
      }
    ],
    "address": [
      {
        "line": [
          "2110-B N WILLIS ST"
        ],
        "city": "ABILENE",
        "state": "TX",
        "postalCode": "79603-4352"
      },
      {
        "line": [
          "2110 N Willis St STE B"
        ],
        "city": "ABILENE",
        "state": "TX",
        "postalCode": "79603-4350"
      },
      {
        "line": [
          "5250 US - 277"
        ],
        "city": "ABILENE",
        "state": "TX",
        "postalCode": "79605-4547"
      },
      {
        "line": [
          "2110 N WILLIS ST STE B"
        ],
        "city": "ABILENE",
        "state": "TX",
        "postalCode": "79603-4359"
      },
      {
        "line": [
          "3202 S Willis St."
        ],
        "city": "ABILENE",
        "state": "TX",
        "postalCode": "79605-6650"
      },
      {
        "line": [
          "3202 S WILLIS ST"
        ],
        "city": "ABILENE",
        "state": "TX",
        "postalCode": "79605-6650"
      },
      {
        "line": [
          "2722 Old Anson Road"
        ],
        "city": "ABILENE",
        "state": "TX",
        "postalCode": "79603-1834"
      },
      {
        "line": [
          "224 E 6TH ST"
        ],
        "city": "BAIRD",
        "state": "TX",
        "postalCode": "79504-3606"
      },
      {
        "line": [
          "1751 N. 15th St."
        ],
        "city": "ABILENE",
        "state": "TX",
        "postalCode": "79603-4430"
      },
      {
        "line": [
          "1690 N. Treadway Blvd"
        ],
        "city": "ABILENE",
        "state": "TX",
        "postalCode": "79601-3051"
      }
    ],
    "extension": [
      {
        "url": "https://fhir.athena.io/StructureDefinition/ah-practice",
        "valueReference": {
          "reference": "Organization/a-1.Practice-15227"
        }
      },
      {
        "url": "https://fhir.athena.io/StructureDefinition/ah-brand",
        "valueReference": {
          "reference": "Organization/a-15227.Brand-1"
        }
      }
    ]
  },
  "fullUrl": "urn:uuid:5a069215-172a-580c-8017-7cd0698a86d4"
}