{
  "resource": {
    "resourceType": "Organization",
    "id": "857c86da-79c1-529d-99be-6ebdc93d4259",
    "name": "Pediatric Cardiology of Southeastern Michigan",
    "endpoint": [
      {
        "reference": "Endpoint/27a4e967-47aa-5a9c-a572-b8297ee268a2"
      },
      {
        "reference": "Endpoint/0080e5ae-d078-5aef-a02e-4de6143c7e11"
      }
    ],
    "identifier": [
      {
        "system": "http://hl7.org/fhir/sid/us-npi",
        "value": "1801453287"
      }
    ],
    "address": [
      {
        "line": [
          "1000 HARRINGTON BLVD"
        ],
        "city": "MOUNT CLEMENS",
        "state": "MI",
        "postalCode": "48043-2920"
      },
      {
        "line": [
          "1030 HARRINGTON BLVD., STE 101"
        ],
        "city": "MOUNT CLEMENS",
        "state": "MI",
        "postalCode": "48043-2967"
      },
      {
        "line": [
          "47601 GRAND RIVER AVE"
        ],
        "city": "NOVI",
        "state": "MI",
        "postalCode": "48374-1233"
      },
      {
        "line": [
          "16001 WEST NINE MILE ROAD"
        ],
        "city": "SOUTHFIELD",
        "state": "MI",
        "postalCode": "48075-4818"
      },
      {
        "line": [
          "44201 DEQUINDRE ROAD"
        ],
        "city": "TROY",
        "state": "MI",
        "postalCode": "48085-1117"
      },
      {
        "line": [
          "28050 GRAND RIVER AVE"
        ],
        "city": "FARMINGTON",
        "state": "MI",
        "postalCode": "48336-5919"
      },
      {
        "line": [
          "26850 PROVIDENCE PKWY., STE 420"
        ],
        "city": "NOVI",
        "state": "MI",
        "postalCode": "48374-1213"
      },
      {
        "line": [
          "2950 E WATTLES RD",
          "Suite 100"
        ],
        "city": "TROY",
        "state": "MI",
        "postalCode": "48085-7008"
      },
      {
        "line": [
          "H18101 OAKWOOD BLVD"
        ],
        "city": "DEARBORN",
        "state": "MI",
        "postalCode": "48124-4089"
      },
      {
        "line": [
          "18181 OAKWOOD BLVD., STE 205"
        ],
        "city": "DEARBORN",
        "state": "MI",
        "postalCode": "48124-5032"
      },
      {
        "line": [
          "3901 BEAUBIEN BOULEVARD"
        ],
        "city": "DETROIT",
        "state": "MI",
        "postalCode": "48201-2119"
      },
      {
        "line": [
          "2333 BIDDLE AVE"
        ],
        "city": "WYANDOTTE",
        "state": "MI",
        "postalCode": "48192-4668"
      },
      {
        "line": [
          "8382 HOLLY RD",
          "SUITE 2"
        ],
        "city": "GRAND BLANC",
        "state": "MI",
        "postalCode": "48439-1971"
      },
      {
        "line": [
          "701 S LINCOLN ST"
        ],
        "city": "BAY CITY",
        "state": "MI",
        "postalCode": "48708-7412"
      },
      {
        "line": [
          "1375 n main street"
        ],
        "city": "LAPEER",
        "state": "MI",
        "postalCode": "48446-9313"
      },
      {
        "line": [
          "44405 WOODWARD AVE"
        ],
        "city": "PONTIAC",
        "state": "MI",
        "postalCode": "48341-5023"
      },
      {
        "line": [
          "2950 E WATTLES RD NUMBER 100"
        ],
        "city": "TROY",
        "state": "MI",
        "postalCode": "48085-7008"
      },
      {
        "line": [
          "6245 INSKTER ROAD"
        ],
        "city": "GARDEN CITY",
        "state": "MI",
        "postalCode": "48135-4001"
      }
    ],
    "extension": [
      {
        "url": "https://fhir.athena.io/StructureDefinition/ah-practice",
        "valueReference": {
          "reference": "Organization/a-1.Practice-19784"
        }
      },
      {
        "url": "https://fhir.athena.io/StructureDefinition/ah-brand",
        "valueReference": {
          "reference": "Organization/a-19784.Brand-1"
        }
      }
    ]
  },
  "fullUrl": "urn:uuid:857c86da-79c1-529d-99be-6ebdc93d4259"
}