{
  "resource": {
    "resourceType": "Organization",
    "id": "19615561-1bb6-55c9-b033-ac10f27ef577",
    "name": "St. Joe's Medical Group",
    "endpoint": [
      {
        "reference": "Endpoint/27a4e967-47aa-5a9c-a572-b8297ee268a2"
      },
      {
        "reference": "Endpoint/882c4e02-5f6f-5f23-994a-50f190396e83"
      }
    ],
    "identifier": [
      {
        "system": "http://hl7.org/fhir/sid/us-npi",
        "value": "1366644551"
      },
      {
        "system": "http://hl7.org/fhir/sid/us-npi",
        "value": "1346284684"
      },
      {
        "system": "http://hl7.org/fhir/sid/us-npi",
        "value": "1568630077"
      },
      {
        "system": "http://hl7.org/fhir/sid/us-npi",
        "value": "1689061467"
      },
      {
        "system": "http://hl7.org/fhir/sid/us-npi",
        "value": "1164961579"
      },
      {
        "system": "http://hl7.org/fhir/sid/us-npi",
        "value": "1225467814"
      },
      {
        "system": "http://hl7.org/fhir/sid/us-npi",
        "value": "1447335690"
      },
      {
        "system": "http://hl7.org/fhir/sid/us-npi",
        "value": "1700048360"
      },
      {
        "system": "http://hl7.org/fhir/sid/us-npi",
        "value": "1124198551"
      },
      {
        "system": "http://hl7.org/fhir/sid/us-npi",
        "value": "1235278714"
      },
      {
        "system": "http://hl7.org/fhir/sid/us-npi",
        "value": "1730511775"
      },
      {
        "system": "http://hl7.org/fhir/sid/us-npi",
        "value": "1689061426"
      },
      {
        "system": "http://hl7.org/fhir/sid/us-npi",
        "value": "1245771583"
      },
      {
        "system": "http://hl7.org/fhir/sid/us-npi",
        "value": "1689986218"
      }
    ],
    "address": [
      {
        "line": [
          "4400 Highland Rd"
        ],
        "city": "WATERFORD",
        "state": "MI",
        "postalCode": "48328-1222"
      },
      {
        "line": [
          "3602 W. 13 Mile Rd"
        ],
        "city": "ROYAL OAK",
        "state": "MI",
        "postalCode": "48073-6713"
      },
      {
        "line": [
          "6071 West Outer Dr"
        ],
        "city": "DETROIT",
        "state": "MI",
        "postalCode": "48235-2624"
      },
      {
        "line": [
          "775 S. Main St."
        ],
        "city": "CHELSEA",
        "state": "MI",
        "postalCode": "48118-1383"
      },
      {
        "line": [
          "36475 Five Mile Road"
        ],
        "city": "LIVONIA",
        "state": "MI",
        "postalCode": "48154-1971"
      },
      {
        "line": [
          "14555 Levan",
          "Suite 116"
        ],
        "city": "LIVONIA",
        "state": "MI",
        "postalCode": "48154-5085"
      },
      {
        "line": [
          "4201 St Antione St"
        ],
        "city": "DETROIT",
        "state": "MI",
        "postalCode": "48201-2153"
      },
      {
        "line": [
          "4350 Jackson Road Suite 350"
        ],
        "city": "ANN ARBOR",
        "state": "MI",
        "postalCode": "48103-1889"
      },
      {
        "line": [
          "14555 LEVAN"
        ],
        "city": "LIVONIA",
        "state": "MI",
        "postalCode": "48154-1971"
      },
      {
        "line": [
          "1 William Carls Dr"
        ],
        "city": "COMMERCE TOWNSHIP",
        "state": "MI",
        "postalCode": "48382-2201"
      },
      {
        "line": [
          "44428 WOODWARD AVE"
        ],
        "city": "PONTIAC",
        "state": "MI",
        "postalCode": "48341-5023"
      },
      {
        "line": [
          "20206 Farmington Rd"
        ],
        "city": "LIVONIA",
        "state": "MI",
        "postalCode": "48152-1412"
      },
      {
        "line": [
          "44405 Woodward"
        ],
        "city": "PONTIAC",
        "state": "MI",
        "postalCode": "48341-5023"
      },
      {
        "line": [
          "3601 W. 13 Mile Rd"
        ],
        "city": "ROYAL OAK",
        "state": "MI",
        "postalCode": "48073-6712"
      },
      {
        "line": [
          "3095 E. Walton Blvd"
        ],
        "city": "AUBURN HILLS",
        "state": "MI",
        "postalCode": "48326-2370"
      },
      {
        "line": [
          "5301 Huron River Dr."
        ],
        "city": "YPSILANTI",
        "state": "MI",
        "postalCode": "48197-1051"
      },
      {
        "line": [
          "44555 Woodward Ave."
        ],
        "city": "PONTIAC",
        "state": "MI",
        "postalCode": "48341-5032"
      },
      {
        "line": [
          "32932 Warren Road Suite 100"
        ],
        "city": "WESTLAND",
        "state": "MI",
        "postalCode": "48185-3095"
      },
      {
        "line": [
          "44555 Woodward Ave Ste 105"
        ],
        "city": "PONTIAC",
        "state": "MI",
        "postalCode": "48341-5032"
      },
      {
        "line": [
          "1600 S. Canton Center Rd"
        ],
        "city": "CANTON",
        "state": "MI",
        "postalCode": "48188-1992"
      },
      {
        "line": [
          "775 S Main"
        ],
        "city": "CHELSEA",
        "state": "MI",
        "postalCode": "48118-1383"
      },
      {
        "line": [
          "36475 Five Mile Rd"
        ],
        "city": "LIVONIA",
        "state": "MI",
        "postalCode": "48154-1971"
      },
      {
        "line": [
          "1515 COMMERCE PARK DR"
        ],
        "city": "CHELSEA",
        "state": "MI",
        "postalCode": "48118-1399"
      },
      {
        "line": [
          "440 Russell St."
        ],
        "city": "SALINE",
        "state": "MI",
        "postalCode": "48176-1105"
      },
      {
        "line": [
          "5701 Bow Pointe Drive",
          "Suite 305"
        ],
        "city": "CLARKSTON",
        "state": "MI",
        "postalCode": "48346-2078"
      },
      {
        "line": [
          "37595 Seven Mile Road Suite 230"
        ],
        "city": "LIVONIA",
        "state": "MI",
        "postalCode": "48152-1003"
      },
      {
        "line": [
          "320 Town Center Blvd"
        ],
        "city": "WHITE LAKE",
        "state": "MI",
        "postalCode": "48386-0001"
      },
      {
        "line": [
          "44555 Woodward Ave Suite 505"
        ],
        "city": "PONTIAC",
        "state": "MI",
        "postalCode": "48341-5032"
      },
      {
        "line": [
          "3603 W. 13 Mile Rd"
        ],
        "city": "ROYAL OAK",
        "state": "MI",
        "postalCode": "48073-6714"
      },
      {
        "line": [
          "36476 Five Mile Road"
        ],
        "city": "LIVONIA",
        "state": "MI",
        "postalCode": "48154-1972"
      }
    ],
    "extension": [
      {
        "url": "https://fhir.athena.io/StructureDefinition/ah-practice",
        "valueReference": {
          "reference": "Organization/a-1.Practice-16197"
        }
      },
      {
        "url": "https://fhir.athena.io/StructureDefinition/ah-brand",
        "valueReference": {
          "reference": "Organization/a-16197.Brand-2"
        }
      }
    ]
  },
  "fullUrl": "urn:uuid:19615561-1bb6-55c9-b033-ac10f27ef577"
}