{
  "resource": {
    "resourceType": "Organization",
    "id": "d7fa97e0-9b8b-5662-bb03-87e69760f10c",
    "name": "Littleton Family Medicine",
    "endpoint": [
      {
        "reference": "Endpoint/27a4e967-47aa-5a9c-a572-b8297ee268a2"
      },
      {
        "reference": "Endpoint/304f312f-f027-575f-a594-cd1d7060bd8d"
      }
    ],
    "identifier": [
      {
        "system": "http://hl7.org/fhir/sid/us-npi",
        "value": "1669888764"
      },
      {
        "system": "http://hl7.org/fhir/sid/us-npi",
        "value": "1386854354"
      }
    ],
    "address": [
      {
        "line": [
          "3701 S CLARKSON ST # ST200"
        ],
        "city": "ENGLEWOOD",
        "state": "CO",
        "postalCode": "80113-3958"
      },
      {
        "line": [
          "3601 S CLARKSON ST",
          "STE 100"
        ],
        "city": "ENGLEWOOD",
        "state": "CO",
        "postalCode": "80113-3945"
      },
      {
        "line": [
          "1555 s Wadsworth blvd"
        ],
        "city": "DENVER",
        "state": "CO",
        "postalCode": "80232-6832"
      },
      {
        "line": [
          "842 N SUMMIT BLVD",
          "# 15"
        ],
        "city": "FRISCO",
        "state": "CO",
        "postalCode": "80443-5959"
      },
      {
        "line": [
          "8853 FOX DR",
          "STE 200"
        ],
        "city": "DENVER",
        "state": "CO",
        "postalCode": "80260-6864"
      },
      {
        "line": [
          "1555 S WADSWORTH BLVD"
        ],
        "city": "DENVER",
        "state": "CO",
        "postalCode": "80232-6832"
      },
      {
        "line": [
          "1214 S SHERIDAN BLVD"
        ],
        "city": "DENVER",
        "state": "CO",
        "postalCode": "80232-8022"
      },
      {
        "line": [
          "2997 Broadmoor Valley Rd"
        ],
        "city": "COLORADO SPRINGS",
        "state": "CO",
        "postalCode": "80906-4405"
      },
      {
        "line": [
          "1860 E EGBERT ST",
          "STE 100"
        ],
        "city": "BRIGHTON",
        "state": "CO",
        "postalCode": "80601-2404"
      }
    ],
    "extension": [
      {
        "url": "https://fhir.athena.io/StructureDefinition/ah-practice",
        "valueReference": {
          "reference": "Organization/a-1.Practice-14209"
        }
      },
      {
        "url": "https://fhir.athena.io/StructureDefinition/ah-brand",
        "valueReference": {
          "reference": "Organization/a-14209.Brand-2"
        }
      }
    ]
  },
  "fullUrl": "urn:uuid:d7fa97e0-9b8b-5662-bb03-87e69760f10c"
}