{
  "resource": {
    "resourceType": "Organization",
    "id": "785e0dca-8858-54fa-b27a-4c66417044aa",
    "name": "HarmonyCares Medical Group",
    "endpoint": [
      {
        "reference": "Endpoint/27a4e967-47aa-5a9c-a572-b8297ee268a2"
      },
      {
        "reference": "Endpoint/e454181c-68a3-513d-9128-5061450cf670"
      }
    ],
    "identifier": [
      {
        "system": "http://hl7.org/fhir/sid/us-npi",
        "value": "1053356162"
      },
      {
        "system": "http://hl7.org/fhir/sid/us-npi",
        "value": "1598093718"
      },
      {
        "system": "http://hl7.org/fhir/sid/us-npi",
        "value": "1427120336"
      },
      {
        "system": "http://hl7.org/fhir/sid/us-npi",
        "value": "1821101809"
      },
      {
        "system": "http://hl7.org/fhir/sid/us-npi",
        "value": "1164149365"
      },
      {
        "system": "http://hl7.org/fhir/sid/us-npi",
        "value": "1871666784"
      },
      {
        "system": "http://hl7.org/fhir/sid/us-npi",
        "value": "1659484657"
      },
      {
        "system": "http://hl7.org/fhir/sid/us-npi",
        "value": "1497700397"
      },
      {
        "system": "http://hl7.org/fhir/sid/us-npi",
        "value": "1770107302"
      },
      {
        "system": "http://hl7.org/fhir/sid/us-npi",
        "value": "1093117574"
      },
      {
        "system": "http://hl7.org/fhir/sid/us-npi",
        "value": "1386256881"
      },
      {
        "system": "http://hl7.org/fhir/sid/us-npi",
        "value": "1942531769"
      },
      {
        "system": "http://hl7.org/fhir/sid/us-npi",
        "value": "1174925663"
      },
      {
        "system": "http://hl7.org/fhir/sid/us-npi",
        "value": "1265713077"
      },
      {
        "system": "http://hl7.org/fhir/sid/us-npi",
        "value": "1639318520"
      },
      {
        "system": "http://hl7.org/fhir/sid/us-npi",
        "value": "1598089104"
      },
      {
        "system": "http://hl7.org/fhir/sid/us-npi",
        "value": "1336153295"
      },
      {
        "system": "http://hl7.org/fhir/sid/us-npi",
        "value": "1376871947"
      },
      {
        "system": "http://hl7.org/fhir/sid/us-npi",
        "value": "1366768160"
      },
      {
        "system": "http://hl7.org/fhir/sid/us-npi",
        "value": "1235299926"
      },
      {
        "system": "http://hl7.org/fhir/sid/us-npi",
        "value": "1346254281"
      },
      {
        "system": "http://hl7.org/fhir/sid/us-npi",
        "value": "1578969705"
      },
      {
        "system": "http://hl7.org/fhir/sid/us-npi",
        "value": "1679510499"
      },
      {
        "system": "http://hl7.org/fhir/sid/us-npi",
        "value": "1457399065"
      },
      {
        "system": "http://hl7.org/fhir/sid/us-npi",
        "value": "1174561575"
      },
      {
        "system": "http://hl7.org/fhir/sid/us-npi",
        "value": "1093753907"
      },
      {
        "system": "http://hl7.org/fhir/sid/us-npi",
        "value": "1508815358"
      },
      {
        "system": "http://hl7.org/fhir/sid/us-npi",
        "value": "1861898090"
      },
      {
        "system": "http://hl7.org/fhir/sid/us-npi",
        "value": "1669178448"
      },
      {
        "system": "http://hl7.org/fhir/sid/us-npi",
        "value": "1356048573"
      },
      {
        "system": "http://hl7.org/fhir/sid/us-npi",
        "value": "1750787982"
      },
      {
        "system": "http://hl7.org/fhir/sid/us-npi",
        "value": "1487051231"
      }
    ],
    "address": [
      {
        "line": [
          "7251 ENGLE RD",
          "STE 402"
        ],
        "city": "Middleburg Heights",
        "state": "OH",
        "postalCode": "44130-3400"
      },
      {
        "line": [
          "4444 W BRISTOL RD",
          "STE 330"
        ],
        "city": "FLINT",
        "state": "MI",
        "postalCode": "48507-3159"
      },
      {
        "line": [
          "6225 Brandon Ave",
          "Ste 365"
        ],
        "city": "SPRINGFIELD",
        "state": "VA",
        "postalCode": "22150-2526"
      },
      {
        "line": [
          "500 Kirts Boulevard",
          "Suite 200"
        ],
        "city": "Troy",
        "state": "MI",
        "postalCode": "48084-4140"
      },
      {
        "line": [
          "1372 Peachtree St Ne",
          "Ste 100"
        ],
        "city": "Atlanta",
        "state": "GA",
        "postalCode": "30309-3203"
      },
      {
        "line": [
          "9001 North Wesleyan Road",
          "Suite 100"
        ],
        "city": "Indianapolis",
        "state": "IN",
        "postalCode": "46268-1176"
      },
      {
        "line": [
          "4545 Fuller Dr",
          "Ste 325"
        ],
        "city": "IRVING",
        "state": "TX",
        "postalCode": "75038-6530"
      },
      {
        "line": [
          "500 Kirts Blvd",
          "Ste 200"
        ],
        "city": "Troy",
        "state": "MI",
        "postalCode": "48084-4140"
      },
      {
        "line": [
          "8588 Katy Fwy",
          "Ste 226A"
        ],
        "city": "HOUSTON",
        "state": "TX",
        "postalCode": "77024-1829"
      },
      {
        "line": [
          "3710 Corporex Dr",
          "Suite 210"
        ],
        "city": "TAMPA",
        "state": "FL",
        "postalCode": "33619-1160"
      },
      {
        "line": [
          "2514  South 102nd Street",
          "Suite 160"
        ],
        "city": "West Allis",
        "state": "WI",
        "postalCode": "53227-2147"
      },
      {
        "line": [
          "355 E CAMPUS VIEW BLVD",
          "STE 180"
        ],
        "city": "COLUMBUS",
        "state": "OH",
        "postalCode": "43235-5680"
      },
      {
        "line": [
          "2600 Lake Lucien Dr",
          "Ste 112"
        ],
        "city": "Maitland",
        "state": "FL",
        "postalCode": "32751-7233"
      },
      {
        "line": [
          "3081 Commerce Dr",
          "Ste 100"
        ],
        "city": "Fort Gratiot",
        "state": "MI",
        "postalCode": "48059-3868"
      },
      {
        "line": [
          "7206 Market St",
          "Ste A"
        ],
        "city": "BOARDMAN",
        "state": "OH",
        "postalCode": "44512-4562"
      },
      {
        "line": [
          "606 Oakesdale Ave SW",
          "Ste C200"
        ],
        "city": "Renton",
        "state": "WA",
        "postalCode": "98057-5227"
      },
      {
        "line": [
          "2452 SIR BARTON WAY",
          "STE 303"
        ],
        "city": "LEXINGTON",
        "state": "KY",
        "postalCode": "40509-2826"
      },
      {
        "line": [
          "3033 Kettering Blvd",
          "Ste 100"
        ],
        "city": "MORAINE",
        "state": "OH",
        "postalCode": "45439-1948"
      },
      {
        "line": [
          "5401 Fallowater Ln",
          "Ste E"
        ],
        "city": "ROANOKE",
        "state": "VA",
        "postalCode": "24018-0949"
      },
      {
        "line": [
          "2725 Airview Blvd",
          "Ste 105"
        ],
        "city": "PORTAGE",
        "state": "MI",
        "postalCode": "49002-1086"
      },
      {
        "line": [
          "2205 Jolly Rd",
          "Ste B"
        ],
        "city": "Okemos",
        "state": "MI",
        "postalCode": "48864-3983"
      },
      {
        "line": [
          "1484 Straits Dr",
          "Ste 5"
        ],
        "city": "Bay City",
        "state": "MI",
        "postalCode": "48706-8718"
      },
      {
        "line": [
          "263 McLaws Circle",
          "Suite 105"
        ],
        "city": "Williamsburg",
        "state": "VA",
        "postalCode": "23185-5674"
      },
      {
        "line": [
          "1055 WESTLAKES DR",
          "STE 3152"
        ],
        "city": "BERWYN",
        "state": "PA",
        "postalCode": "19312-2410"
      },
      {
        "line": [
          "11835 QUEENS BLVD",
          "STE 400"
        ],
        "city": "FOREST HILLS",
        "state": "NY",
        "postalCode": "11375-7211"
      },
      {
        "line": [
          "3710 Corporex Dr",
          "Suite 210"
        ],
        "city": "TAMPA",
        "state": "FL",
        "postalCode": "33619-0160"
      },
      {
        "line": [
          "1055 Westlakes Dr",
          "Regus 3rd FL # 3152"
        ],
        "city": "BERWYN",
        "state": "PA",
        "postalCode": "19312-2410"
      },
      {
        "line": [
          "4348 Southpoint Blvd",
          "Ste 100"
        ],
        "city": "Jacksonville",
        "state": "FL",
        "postalCode": "32216-0903"
      },
      {
        "line": [
          "1400 Hooper Avenue",
          "2nd Floor"
        ],
        "city": "Toms River",
        "state": "NJ",
        "postalCode": "08753-2981"
      },
      {
        "line": [
          "606 OAKESDALE AVE SW",
          "STE C200"
        ],
        "city": "RENTON",
        "state": "WA",
        "postalCode": "98057-5227"
      },
      {
        "line": [
          "5414 FREDERICKSBURG RD",
          "STE 100A"
        ],
        "city": "SAN ANTONIO",
        "state": "TX",
        "postalCode": "78229-3641"
      },
      {
        "line": [
          "236 Clearfield Ave",
          "Ste 215"
        ],
        "city": "Virginia Beach",
        "state": "VA",
        "postalCode": "23462-1893"
      },
      {
        "line": [
          "3333 Deposit Dr NE",
          "Ste 240"
        ],
        "city": "GRAND RAPIDS",
        "state": "MI",
        "postalCode": "49546-1453"
      },
      {
        "line": [
          "1000 Burr Ridge Pkwy",
          "Ste 201"
        ],
        "city": "Burr Ridge",
        "state": "IL",
        "postalCode": "60527-0864"
      },
      {
        "line": [
          "1194 Oak Valley Dr",
          "Ste 80B"
        ],
        "city": "Ann Arbor",
        "state": "MI",
        "postalCode": "48108-8942"
      },
      {
        "line": [
          "2725 Airview Blvd",
          "Ste 105"
        ],
        "city": "PORTAGE",
        "state": "MI",
        "postalCode": "49002-1084"
      },
      {
        "line": [
          "7800 Shoal Creek Blvd",
          "Ste 118W"
        ],
        "city": "AUSTIN",
        "state": "TX",
        "postalCode": "78757-1040"
      },
      {
        "line": [
          "1 RIVERFRONT PLZ",
          "STE 300"
        ],
        "city": "NEWARK",
        "state": "NJ",
        "postalCode": "07102-5412"
      },
      {
        "line": [
          "5151 Flynn Pkwy",
          "Ste 312"
        ],
        "city": "CORPUS CHRISTI",
        "state": "TX",
        "postalCode": "78411-4372"
      },
      {
        "line": [
          "100 Duffy Avenue",
          "Ste 510"
        ],
        "city": "HICKSVILLE",
        "state": "NY",
        "postalCode": "11801-3636"
      },
      {
        "line": [
          "4545 FULLER Drive",
          "Suite 325"
        ],
        "city": "IRVING",
        "state": "TX",
        "postalCode": "75038-6530"
      },
      {
        "line": [
          "1000 BURR RIDGE PKWY",
          "STE 201"
        ],
        "city": "BURR RIDGE",
        "state": "IL",
        "postalCode": "60527-0864"
      },
      {
        "line": [
          "13555 Bishops Ct",
          "Ste 315"
        ],
        "city": "BROOKFIELD",
        "state": "WI",
        "postalCode": "53005-6224"
      },
      {
        "line": [
          "7229 Forest Ave",
          "Ste 111"
        ],
        "city": "Richmond",
        "state": "VA",
        "postalCode": "23226-3765"
      },
      {
        "line": [
          "2725 Airview Blvd",
          "Ste105"
        ],
        "city": "PORTAGE",
        "state": "MI",
        "postalCode": "49002-1086"
      },
      {
        "line": [
          "5401 Fallowater Ln",
          "Ste E"
        ],
        "city": "Roanoke",
        "state": "VA",
        "postalCode": "24018-0949"
      },
      {
        "line": [
          "5838 W Brick Rd",
          "Ste 106"
        ],
        "city": "South Bend",
        "state": "IN",
        "postalCode": "46628-8420"
      },
      {
        "line": [
          "5838 W BRICK RD STE 106",
          "Suite 106"
        ],
        "city": "SOUTH BEND",
        "state": "IN",
        "postalCode": "46628-8420"
      },
      {
        "line": [
          "7800 Shoal Creek Blvd",
          "Ste 118W"
        ],
        "city": "Austin",
        "state": "TX",
        "postalCode": "78757-1040"
      },
      {
        "line": [
          "236 Clearfield Ave",
          "Suite 215"
        ],
        "city": "VIRGINIA BEACH",
        "state": "VA",
        "postalCode": "23462-1893"
      },
      {
        "line": [
          "4435 Aicholtz Rd",
          "Ste 400"
        ],
        "city": "CINCINNATI",
        "state": "OH",
        "postalCode": "45245-1691"
      },
      {
        "line": [
          "5151 Flynn Pkwy",
          "Ste 312"
        ],
        "city": "Corpus Christi",
        "state": "TX",
        "postalCode": "78411-4372"
      },
      {
        "line": [
          "5838 W Brick Road",
          "Suite 106"
        ],
        "city": "South Bend",
        "state": "IN",
        "postalCode": "46628-8420"
      },
      {
        "line": [
          "5414  FREDERICKSBURG RD",
          "STE 100A"
        ],
        "city": "SAN ANTONIO",
        "state": "TX",
        "postalCode": "78229-3641"
      },
      {
        "line": [
          "4348 Southpoint Boulevard",
          "Suite 100"
        ],
        "city": "Jacksonville",
        "state": "FL",
        "postalCode": "32216-0903"
      },
      {
        "line": [
          "5838 W Brick Road",
          "Suite 106"
        ],
        "city": "SOUTH BEND",
        "state": "IN",
        "postalCode": "46628-8420"
      },
      {
        "line": [
          "2452 Sir Barton Way",
          "Ste 303"
        ],
        "city": "Lexington",
        "state": "KY",
        "postalCode": "40509-2826"
      },
      {
        "line": [
          "8588 Katy Fwy",
          "Ste 226A"
        ],
        "city": "Houston",
        "state": "TX",
        "postalCode": "77024-1829"
      },
      {
        "line": [
          "3333 Deposit Dr NE",
          "Ste 240"
        ],
        "city": "Grand Rapids",
        "state": "MI",
        "postalCode": "49546-1453"
      }
    ],
    "extension": [
      {
        "url": "https://fhir.athena.io/StructureDefinition/ah-practice",
        "valueReference": {
          "reference": "Organization/a-1.Practice-32913"
        }
      },
      {
        "url": "https://fhir.athena.io/StructureDefinition/ah-brand",
        "valueReference": {
          "reference": "Organization/a-32913.Brand-1"
        }
      }
    ]
  },
  "fullUrl": "urn:uuid:785e0dca-8858-54fa-b27a-4c66417044aa"
}