{
  "resource": {
    "resourceType": "Organization",
    "id": "eeb5edef-8f0c-5a13-a08f-536356113eeb",
    "name": "Psychiatry Wellness Center",
    "endpoint": [
      {
        "reference": "Endpoint/27a4e967-47aa-5a9c-a572-b8297ee268a2"
      },
      {
        "reference": "Endpoint/41da394f-b52f-546b-b7a7-a8b1d8a85532"
      }
    ],
    "identifier": [
      {
        "system": "http://hl7.org/fhir/sid/us-npi",
        "value": "1295374452"
      },
      {
        "system": "http://hl7.org/fhir/sid/us-npi",
        "value": "1386271849"
      }
    ],
    "address": [
      {
        "line": [
          "6801 LAKE WORTH ROAD",
          "SUITE 213-214"
        ],
        "city": "LAKE WORTH",
        "state": "FL",
        "postalCode": "33467-2955"
      },
      {
        "line": [
          "6801 LAKE WORTH ROAD",
          "SUITE 213-214"
        ],
        "city": "Greenacres",
        "state": "FL",
        "postalCode": "33467-2955"
      },
      {
        "line": [
          "1501 BROADWAY FL 12"
        ],
        "city": "NEW YORK",
        "state": "NY",
        "postalCode": "10036-5505"
      },
      {
        "line": [
          "6801 LAKE WORTH ROAD"
        ],
        "city": "LAKE WORTH",
        "state": "FL",
        "postalCode": "33467-2955"
      },
      {
        "line": [
          "1615 S CONGRESS AVE STE 163"
        ],
        "city": "DELRAY BEACH",
        "state": "FL",
        "postalCode": "33445-6326"
      },
      {
        "line": [
          "6801 LAKE WORTH RD"
        ],
        "city": "LAKE WORTH",
        "state": "FL",
        "postalCode": "33467-2955"
      },
      {
        "line": [
          "6801 LAKE WORTH RD # 213-214",
          "Ste. 214"
        ],
        "city": "Greenacres",
        "state": "FL",
        "postalCode": "33467-2955"
      },
      {
        "line": [
          "715 PEACHTREE ST NE"
        ],
        "city": "ATLANTA",
        "state": "GA",
        "postalCode": "30308-2177"
      },
      {
        "line": [
          "6801 LAKE WORTH RD STE 213-214"
        ],
        "city": "GREENACRES",
        "state": "FL",
        "postalCode": "33467-2955"
      }
    ],
    "extension": [
      {
        "url": "https://fhir.athena.io/StructureDefinition/ah-practice",
        "valueReference": {
          "reference": "Organization/a-1.Practice-22901"
        }
      },
      {
        "url": "https://fhir.athena.io/StructureDefinition/ah-brand",
        "valueReference": {
          "reference": "Organization/a-22901.Brand-1"
        }
      }
    ]
  },
  "fullUrl": "urn:uuid:eeb5edef-8f0c-5a13-a08f-536356113eeb"
}