{
  "resource": {
    "resourceType": "Organization",
    "id": "cd253f58-d26d-5a3b-bef0-92366f274d20",
    "name": "Austin Metropolitan YMCA",
    "endpoint": [
      {
        "reference": "Endpoint/27a4e967-47aa-5a9c-a572-b8297ee268a2"
      },
      {
        "reference": "Endpoint/abb5f7d5-468e-5806-be46-fb2282afef02"
      }
    ],
    "identifier": [
      {
        "system": "http://hl7.org/fhir/sid/us-npi",
        "value": "1548717531"
      }
    ],
    "address": [
      {
        "line": [
          "3208 Red River Suite 200"
        ],
        "city": "AUSTIN",
        "state": "TX",
        "postalCode": "78705-2650"
      },
      {
        "line": [
          "1100 W Cesar Chavez st"
        ],
        "city": "AUSTIN",
        "state": "TX",
        "postalCode": "78703-4603"
      },
      {
        "line": [
          "6219 Oakclaire Dr"
        ],
        "city": "AUSTIN",
        "state": "TX",
        "postalCode": "78735-8600"
      },
      {
        "line": [
          "5807 McNeil Dr"
        ],
        "city": "AUSTIN",
        "state": "TX",
        "postalCode": "78729-6904"
      },
      {
        "line": [
          "465 Buda Sportsplex Dr"
        ],
        "city": "BUDA",
        "state": "TX",
        "postalCode": "78610-3449"
      },
      {
        "line": [
          "1112 Main Street"
        ],
        "city": "BASTROP",
        "state": "TX",
        "postalCode": "78602-3219"
      },
      {
        "line": [
          "3208 Red River St."
        ],
        "city": "AUSTIN",
        "state": "TX",
        "postalCode": "78705-2650"
      },
      {
        "line": [
          "27216 Ranch Rd 12"
        ],
        "city": "DRIPPING SPRINGS",
        "state": "TX",
        "postalCode": "78620-5226"
      },
      {
        "line": [
          "5315 Ed Bluestein Blvd"
        ],
        "city": "AUSTIN",
        "state": "TX",
        "postalCode": "78723-5609"
      },
      {
        "line": [
          "1000 W Rundberg Ln."
        ],
        "city": "AUSTIN",
        "state": "TX",
        "postalCode": "78758-6741"
      }
    ],
    "extension": [
      {
        "url": "https://fhir.athena.io/StructureDefinition/ah-practice",
        "valueReference": {
          "reference": "Organization/a-1.Practice-14268"
        }
      },
      {
        "url": "https://fhir.athena.io/StructureDefinition/ah-brand",
        "valueReference": {
          "reference": "Organization/a-14268.Brand-1"
        }
      }
    ]
  },
  "fullUrl": "urn:uuid:cd253f58-d26d-5a3b-bef0-92366f274d20"
}