{
  "resource": {
    "resourceType": "Organization",
    "id": "17f048c0-862c-53dd-8819-0066ad430ee7",
    "name": "ALICIA S. KANHAI D.P.M., P.A.",
    "endpoint": [
      {
        "reference": "Endpoint/27a4e967-47aa-5a9c-a572-b8297ee268a2"
      },
      {
        "reference": "Endpoint/b8cd36b9-eb14-5855-b3ca-5e7a833b9170"
      }
    ],
    "identifier": [
      {
        "system": "http://hl7.org/fhir/sid/us-npi",
        "value": "1477864874"
      }
    ],
    "address": [
      {
        "line": [
          "4160 North Armenia Avenue"
        ],
        "city": "tampa",
        "state": "FL",
        "postalCode": "33607-6453"
      },
      {
        "line": [
          "3355 W BEARSS AVENUE"
        ],
        "city": "TAMPA",
        "state": "FL",
        "postalCode": "33618-9998"
      },
      {
        "line": [
          "5209 Landsman Avenue"
        ],
        "city": "TAMPA",
        "state": "FL",
        "postalCode": "33625-3344"
      },
      {
        "line": [
          "3355 W BEARSS AVE"
        ],
        "city": "TAMPA",
        "state": "FL",
        "postalCode": "33618-2100"
      },
      {
        "line": [
          "14706 Egret place"
        ],
        "city": "TAMPA",
        "state": "FL",
        "postalCode": "33625-1906"
      },
      {
        "line": [
          "1502 Bryan Rd,"
        ],
        "city": "BRANDON",
        "state": "FL",
        "postalCode": "33511-6835"
      },
      {
        "line": [
          "8416 BARRETT PLACE"
        ],
        "city": "TAMPA",
        "state": "FL",
        "postalCode": "33617-6900"
      },
      {
        "line": [
          "704 EAST 120TH AVENUE"
        ],
        "city": "TAMPA",
        "state": "FL",
        "postalCode": "33612-5308"
      },
      {
        "line": [
          "16001 Lakeshore Villas Drive"
        ],
        "city": "TAMPA",
        "state": "FL",
        "postalCode": "33613-1336"
      },
      {
        "line": [
          "1917 West Mohawk Avenue"
        ],
        "city": "TAMPA",
        "state": "FL",
        "postalCode": "33603-1214"
      },
      {
        "line": [
          "2602 WEST COMANCHE AVENUE"
        ],
        "city": "TAMPA",
        "state": "FL",
        "postalCode": "33614-6175"
      },
      {
        "line": [
          "2203 SHERMONT PL"
        ],
        "city": "BRANDON",
        "state": "FL",
        "postalCode": "33511-6935"
      },
      {
        "line": [
          "3720 WEST BAY TO BAY BLVD"
        ],
        "city": "TAMPA",
        "state": "FL",
        "postalCode": "33629-6912"
      },
      {
        "line": [
          "4501 NORTH JAMAICA STREET"
        ],
        "city": "TAMPA",
        "state": "FL",
        "postalCode": "33614-6625"
      },
      {
        "line": [
          "2006 W Barclay Rd"
        ],
        "city": "Tampa",
        "state": "FL",
        "postalCode": "33612-7544"
      },
      {
        "line": [
          "1407 E HOLLAND AVE"
        ],
        "city": "TAMPA",
        "state": "FL",
        "postalCode": "33612-6913"
      },
      {
        "line": [
          "6217 PALMVIEW CT\t"
        ],
        "city": "TAMPA",
        "state": "FL",
        "postalCode": "33625-5633"
      },
      {
        "line": [
          "7509 CANAL BLVD"
        ],
        "city": "TAMPA",
        "state": "FL",
        "postalCode": "33615-5605"
      },
      {
        "line": [
          "1317 WEST RAMBLA STREET"
        ],
        "city": "TAMPA",
        "state": "FL",
        "postalCode": "33612-7737"
      },
      {
        "line": [
          "8111 NORTH OLA AVENUE"
        ],
        "city": "TAMPA",
        "state": "FL",
        "postalCode": "33604-2923"
      },
      {
        "line": [
          "4710 North Habana Avenue",
          "Suite 200"
        ],
        "city": "TAMPA",
        "state": "FL",
        "postalCode": "33614-7161"
      },
      {
        "line": [
          "5813 LAKE BEND AVENUE"
        ],
        "city": "TAMPA",
        "state": "FL",
        "postalCode": "33614-5936"
      },
      {
        "line": [
          "10236 NORTH VALLE DRIVE"
        ],
        "city": "TAMPA",
        "state": "FL",
        "postalCode": "33612-6571"
      },
      {
        "line": [
          "6015 NORTH HIMES AVENUE"
        ],
        "city": "TAMPA",
        "state": "FL",
        "postalCode": "33614-5739"
      },
      {
        "line": [
          "3204 WEST LEROY STREET"
        ],
        "city": "TAMPA",
        "state": "FL",
        "postalCode": "33607-1126"
      },
      {
        "line": [
          "2626 W Bearss Avenue"
        ],
        "city": "TAMPA",
        "state": "FL",
        "postalCode": "33618-1933"
      },
      {
        "line": [
          "8530 TIDEWATER TRL"
        ],
        "city": "TAMPA",
        "state": "FL",
        "postalCode": "33619-4953"
      },
      {
        "line": [
          "3415 W IVY STREET"
        ],
        "city": "TAMPA",
        "state": "FL",
        "postalCode": "33607-1526"
      },
      {
        "line": [
          "8812 BAYAUD DRIVE"
        ],
        "city": "TAMPA",
        "state": "FL",
        "postalCode": "33626-2901"
      },
      {
        "line": [
          "8008 W POCHAHONTAS AVENUE"
        ],
        "city": "TAMPA",
        "state": "FL",
        "postalCode": "33615-2912"
      },
      {
        "line": [
          "18600 Highwoods Preserve Parkway"
        ],
        "city": "TAMPA",
        "state": "FL",
        "postalCode": "33647-1719"
      },
      {
        "line": [
          "4203  W Ohio Ave"
        ],
        "city": "TAMPA",
        "state": "FL",
        "postalCode": "33614-7825"
      },
      {
        "line": [
          "11008 AIRVIEW DR"
        ],
        "city": "TAMPA",
        "state": "FL",
        "postalCode": "33625-4963"
      },
      {
        "line": [
          "8301 NORTH GOMEZ AVENUE"
        ],
        "city": "TAMPA",
        "state": "FL",
        "postalCode": "33614-2814"
      },
      {
        "line": [
          "11407 LARKWOOD WAY"
        ],
        "city": "TAMPA",
        "state": "FL",
        "postalCode": "33625-5608"
      },
      {
        "line": [
          "8521 WEST HANNA AVENUE"
        ],
        "city": "TAMPA",
        "state": "FL",
        "postalCode": "33615-3243"
      }
    ],
    "extension": [
      {
        "url": "https://fhir.athena.io/StructureDefinition/ah-practice",
        "valueReference": {
          "reference": "Organization/a-1.Practice-5809"
        }
      },
      {
        "url": "https://fhir.athena.io/StructureDefinition/ah-brand",
        "valueReference": {
          "reference": "Organization/a-5809.Brand-1"
        }
      }
    ]
  },
  "fullUrl": "urn:uuid:17f048c0-862c-53dd-8819-0066ad430ee7"
}