{
  "resource": {
    "resourceType": "Organization",
    "id": "6859f26d-6980-5f6e-ae11-9c771524fb58",
    "name": "Exemplar Care",
    "endpoint": [
      {
        "reference": "Endpoint/27a4e967-47aa-5a9c-a572-b8297ee268a2"
      },
      {
        "reference": "Endpoint/fc49f819-4b1f-5d85-baaf-bf5fd7cc2d48"
      }
    ],
    "identifier": [
      {
        "system": "http://hl7.org/fhir/sid/us-npi",
        "value": "1780270652"
      }
    ],
    "address": [
      {
        "line": [
          "2791 HEARTLAND DR"
        ],
        "city": "CORALVILLE",
        "state": "IA",
        "postalCode": "52241-2983"
      },
      {
        "line": [
          "5701 S CORPORATE PL STE 2"
        ],
        "city": "SIOUX FALLS",
        "state": "SD",
        "postalCode": "57108-5166"
      },
      {
        "line": [
          "930 VIKING ROAD"
        ],
        "city": "CEDAR FALLS",
        "state": "IA",
        "postalCode": "50613-9520"
      },
      {
        "line": [
          "4255 ELMORE AVE"
        ],
        "city": "DAVENPORT",
        "state": "IA",
        "postalCode": "52807-2625"
      },
      {
        "line": [
          "7300 WESTOWN PKWY STE 330"
        ],
        "city": "WEST DES MOINES",
        "state": "IA",
        "postalCode": "50266-2527"
      },
      {
        "line": [
          "10810 FARNAM DR STE 110"
        ],
        "city": "OMAHA",
        "state": "NE",
        "postalCode": "68154-3257"
      },
      {
        "line": [
          "6615 W 135TH ST"
        ],
        "city": "OVERLAND PARK",
        "state": "KS",
        "postalCode": "66223-7898"
      },
      {
        "line": [
          "3490 NE RALPH POWELL RD STE B"
        ],
        "city": "LEES SUMMIT",
        "state": "MO",
        "postalCode": "64064-2377"
      },
      {
        "line": [
          "7321 PLAZA CT"
        ],
        "city": "LINCOLN",
        "state": "NE",
        "postalCode": "68516-5426"
      },
      {
        "line": [
          "3900 FOUNTAINS BLVD NE STE 102"
        ],
        "city": "CEDAR RAPIDS",
        "state": "IA",
        "postalCode": "52411-6610"
      }
    ],
    "extension": [
      {
        "url": "https://fhir.athena.io/StructureDefinition/ah-practice",
        "valueReference": {
          "reference": "Organization/a-1.Practice-25062"
        }
      },
      {
        "url": "https://fhir.athena.io/StructureDefinition/ah-brand",
        "valueReference": {
          "reference": "Organization/a-25062.Brand-1"
        }
      }
    ]
  },
  "fullUrl": "urn:uuid:6859f26d-6980-5f6e-ae11-9c771524fb58"
}