{
  "resource": {
    "resourceType": "Organization",
    "id": "35ad8e6b-c8e3-5ff0-9743-96fbfbcea9ca",
    "name": "Marksville Family Care Center",
    "endpoint": [
      {
        "reference": "Endpoint/27a4e967-47aa-5a9c-a572-b8297ee268a2"
      },
      {
        "reference": "Endpoint/e9040a92-477a-50d5-9c43-5786aa828679"
      }
    ],
    "identifier": [
      {
        "system": "http://hl7.org/fhir/sid/us-npi",
        "value": "1669150876"
      },
      {
        "system": "http://hl7.org/fhir/sid/us-npi",
        "value": "1912598418"
      },
      {
        "system": "http://hl7.org/fhir/sid/us-npi",
        "value": "1447841945"
      },
      {
        "system": "http://hl7.org/fhir/sid/us-npi",
        "value": "1962924928"
      },
      {
        "system": "http://hl7.org/fhir/sid/us-npi",
        "value": "1679134407"
      },
      {
        "system": "http://hl7.org/fhir/sid/us-npi",
        "value": "1538750039"
      }
    ],
    "address": [
      {
        "line": [
          "5541 Hwy 1"
        ],
        "city": "MARKSVILLE",
        "state": "LA",
        "postalCode": "71351-4711"
      },
      {
        "line": [
          "3366 HIGHWAY 107"
        ],
        "city": "EFFIE",
        "state": "LA",
        "postalCode": "71331-1729"
      },
      {
        "line": [
          "5303 HIGHWAY 115"
        ],
        "city": "BUNKIE",
        "state": "LA",
        "postalCode": "71322-4301"
      },
      {
        "line": [
          "4137 E SCHOOL ST"
        ],
        "city": "HESSMER",
        "state": "LA",
        "postalCode": "71341-4033"
      },
      {
        "line": [
          "549 NORWOOD ST"
        ],
        "city": "SIMMESPORT",
        "state": "LA",
        "postalCode": "71369-2702"
      },
      {
        "line": [
          "287 MAIN ST"
        ],
        "city": "MOREAUVILLE",
        "state": "LA",
        "postalCode": "71355-2500"
      },
      {
        "line": [
          "150 SCHOOL LOOP RD"
        ],
        "city": "PLAUCHEVILLE",
        "state": "LA",
        "postalCode": "71362-2208"
      },
      {
        "line": [
          "430 W WADDIL ST"
        ],
        "city": "MARKSVILLE",
        "state": "LA",
        "postalCode": "71351-2620"
      },
      {
        "line": [
          "435 EVERGREEN ST"
        ],
        "city": "BUNKIE",
        "state": "LA",
        "postalCode": "71322-3901"
      },
      {
        "line": [
          "311 PERSHING AVE"
        ],
        "city": "BUNKIE",
        "state": "LA",
        "postalCode": "71322-2707"
      },
      {
        "line": [
          "407 W Bontempt St"
        ],
        "city": "MARKSVILLE",
        "state": "LA",
        "postalCode": "71351-4711"
      },
      {
        "line": [
          "950 LEMOINE ST"
        ],
        "city": "COTTONPORT",
        "state": "LA",
        "postalCode": "71327-3400"
      }
    ],
    "extension": [
      {
        "url": "https://fhir.athena.io/StructureDefinition/ah-practice",
        "valueReference": {
          "reference": "Organization/a-1.Practice-30808"
        }
      },
      {
        "url": "https://fhir.athena.io/StructureDefinition/ah-brand",
        "valueReference": {
          "reference": "Organization/a-30808.Brand-1"
        }
      }
    ]
  },
  "fullUrl": "urn:uuid:35ad8e6b-c8e3-5ff0-9743-96fbfbcea9ca"
}