{
  "resource": {
    "resourceType": "Organization",
    "id": "a099a2da-fde8-5109-b1d3-0e996dd82463",
    "name": "Access Surgical",
    "endpoint": [
      {
        "reference": "Endpoint/27a4e967-47aa-5a9c-a572-b8297ee268a2"
      },
      {
        "reference": "Endpoint/7f5f004e-49eb-520b-970e-1320def1c1fd"
      }
    ],
    "identifier": [
      {
        "system": "http://hl7.org/fhir/sid/us-npi",
        "value": "1144077587"
      }
    ],
    "address": [
      {
        "line": [
          "927 CHURCHILL ST W"
        ],
        "city": "STILLWATER",
        "state": "MN",
        "postalCode": "55082-6605"
      },
      {
        "line": [
          "3300 OAKDALE AVE N"
        ],
        "city": "Robbinsdale",
        "state": "MN",
        "postalCode": "55422-2926"
      },
      {
        "line": [
          "570 ASBURY ST",
          "STE 208"
        ],
        "city": "SAINT PAUL",
        "state": "MN",
        "postalCode": "55104-3007"
      },
      {
        "line": [
          "640 JACKSON ST"
        ],
        "city": "SAINT PAUL",
        "state": "MN",
        "postalCode": "55101-2502"
      },
      {
        "line": [
          "1526 NORTHWAY DR"
        ],
        "city": "SAINT CLOUD",
        "state": "MN",
        "postalCode": "56303-1255"
      },
      {
        "line": [
          "9875 HOSPITAL DR"
        ],
        "city": "Maple Grove",
        "state": "MN",
        "postalCode": "55369-4648"
      },
      {
        "line": [
          "303 CATLIN ST"
        ],
        "city": "Buffalo",
        "state": "MN",
        "postalCode": "55313-1947"
      },
      {
        "line": [
          "4100 MINNESOTA DR",
          "STE 200"
        ],
        "city": "Edina",
        "state": "MN",
        "postalCode": "55435-5417"
      },
      {
        "line": [
          "2020 E 28TH ST STE 100"
        ],
        "city": "Minneapolis",
        "state": "MN",
        "postalCode": "55407-1453"
      },
      {
        "line": [
          "49725 Co Rd 83"
        ],
        "city": "Staples",
        "state": "MN",
        "postalCode": "56479-5280"
      },
      {
        "line": [
          "1155 E County Rd E"
        ],
        "city": "SAINT PAUL",
        "state": "MN",
        "postalCode": "55110-5110"
      },
      {
        "line": [
          "100 2ND ST S"
        ],
        "city": "SARTELL",
        "state": "MN",
        "postalCode": "56377-1977"
      },
      {
        "line": [
          "405 STAGELINE RD"
        ],
        "city": "HUDSON",
        "state": "WI",
        "postalCode": "54016-7848"
      },
      {
        "line": [
          "9855 HOSPITAL DR"
        ],
        "city": "Maple Grove",
        "state": "MN",
        "postalCode": "55369-4648"
      },
      {
        "line": [
          "435 PHALEN BLVD",
          "FL 4"
        ],
        "city": "SAINT PAUL",
        "state": "MN",
        "postalCode": "55130-5302"
      }
    ],
    "extension": [
      {
        "url": "https://fhir.athena.io/StructureDefinition/ah-practice",
        "valueReference": {
          "reference": "Organization/a-1.Practice-31542"
        }
      },
      {
        "url": "https://fhir.athena.io/StructureDefinition/ah-brand",
        "valueReference": {
          "reference": "Organization/a-31542.Brand-1"
        }
      }
    ]
  },
  "fullUrl": "urn:uuid:a099a2da-fde8-5109-b1d3-0e996dd82463"
}