{
  "resource": {
    "resourceType": "Organization",
    "id": "c97003fb-2356-57c1-a78c-b57c7ee071c3",
    "name": "Cardiovascular Consultants of Kansas, P.A.",
    "endpoint": [
      {
        "reference": "Endpoint/27a4e967-47aa-5a9c-a572-b8297ee268a2"
      },
      {
        "reference": "Endpoint/6bf111cb-3fc8-5610-b80b-2c56170efa1a"
      }
    ],
    "identifier": [
      {
        "system": "http://hl7.org/fhir/sid/us-npi",
        "value": "1265761829"
      },
      {
        "system": "http://hl7.org/fhir/sid/us-npi",
        "value": "1528389384"
      },
      {
        "system": "http://hl7.org/fhir/sid/us-npi",
        "value": "1861613598"
      },
      {
        "system": "http://hl7.org/fhir/sid/us-npi",
        "value": "1750623732"
      },
      {
        "system": "http://hl7.org/fhir/sid/us-npi",
        "value": "1598908402"
      },
      {
        "system": "http://hl7.org/fhir/sid/us-npi",
        "value": "1710917430"
      },
      {
        "system": "http://hl7.org/fhir/sid/us-npi",
        "value": "1528201514"
      },
      {
        "system": "http://hl7.org/fhir/sid/us-npi",
        "value": "1710472162"
      }
    ],
    "address": [
      {
        "line": [
          "721 W KANSAS AVE"
        ],
        "city": "GREENSBURG",
        "state": "KS",
        "postalCode": "67054-1633"
      },
      {
        "line": [
          "9350 E 35TH ST N STE 101"
        ],
        "city": "WICHITA",
        "state": "KS",
        "postalCode": "67226-2022"
      },
      {
        "line": [
          "100 W 16TH ST"
        ],
        "city": "EUREKA",
        "state": "KS",
        "postalCode": "67045-1064"
      },
      {
        "line": [
          "1527 MADISON ST"
        ],
        "city": "FREDONIA",
        "state": "KS",
        "postalCode": "66736-1751"
      },
      {
        "line": [
          "122 N MAIN ST"
        ],
        "city": "HILLSBORO",
        "state": "KS",
        "postalCode": "67063-1139"
      },
      {
        "line": [
          "1230 E. 6TH AVE STE 2A"
        ],
        "city": "WINFIELD",
        "state": "KS",
        "postalCode": "67156-2406"
      },
      {
        "line": [
          "420 COUNTRY CLUB RD"
        ],
        "city": "PRATT",
        "state": "KS",
        "postalCode": "67124-3125"
      },
      {
        "line": [
          "622 W 8TH ST"
        ],
        "city": "KINSLEY",
        "state": "KS",
        "postalCode": "67547-2329"
      },
      {
        "line": [
          "507 E 16TH ST STE 1"
        ],
        "city": "WELLINGTON",
        "state": "KS",
        "postalCode": "67152-2828"
      },
      {
        "line": [
          "1031 JACKSON STREET"
        ],
        "city": "GREAT BEND",
        "state": "KS",
        "postalCode": "67530-3644"
      },
      {
        "line": [
          "826 E MADISON AVE"
        ],
        "city": "IOLA",
        "state": "KS",
        "postalCode": "66749-3555"
      },
      {
        "line": [
          "100 WEST 16TH ST."
        ],
        "city": "EUREKA",
        "state": "KS",
        "postalCode": "67045-1047"
      },
      {
        "line": [
          "629 S PLUMMER AVE"
        ],
        "city": "CHANUTE",
        "state": "KS",
        "postalCode": "66720-1928"
      },
      {
        "line": [
          "415 S OSAGE ST"
        ],
        "city": "CALDWELL",
        "state": "KS",
        "postalCode": "67022-1650"
      },
      {
        "line": [
          "1002 S 4TH ST"
        ],
        "city": "KIOWA",
        "state": "KS",
        "postalCode": "67070-1825"
      },
      {
        "line": [
          "202 S FRISCO ST"
        ],
        "city": "COLDWATER",
        "state": "KS",
        "postalCode": "67029-9101"
      },
      {
        "line": [
          "750 W D AVE"
        ],
        "city": "KINGMAN",
        "state": "KS",
        "postalCode": "67068-1266"
      },
      {
        "line": [
          "810 W BRAMLEY ST"
        ],
        "city": "JETMORE",
        "state": "KS",
        "postalCode": "67854-9320"
      },
      {
        "line": [
          "1101 N ROCK RD"
        ],
        "city": "DERBY",
        "state": "KS",
        "postalCode": "67037-3705"
      },
      {
        "line": [
          "8200 W CENTRAL AVE STE 1"
        ],
        "city": "WICHITA",
        "state": "KS",
        "postalCode": "67212-3661"
      },
      {
        "line": [
          "710 N WALNUT ST"
        ],
        "city": "MEDICINE LODGE",
        "state": "KS",
        "postalCode": "67104-1019"
      },
      {
        "line": [
          "252 W 9TH ST"
        ],
        "city": "HOISINGTON",
        "state": "KS",
        "postalCode": "67544-1725"
      },
      {
        "line": [
          "8200 W CENTRAL AVE"
        ],
        "city": "WICHITA",
        "state": "KS",
        "postalCode": "67212-9503"
      },
      {
        "line": [
          "485 N KS HWY 2"
        ],
        "city": "ANTHONY",
        "state": "KS",
        "postalCode": "67003-2526"
      },
      {
        "line": [
          "401 W 7TH AVE"
        ],
        "city": "AUGUSTA",
        "state": "KS",
        "postalCode": "67010-1309"
      },
      {
        "line": [
          "720 W CENTRAL AVE STE 102"
        ],
        "city": "EL DORADO",
        "state": "KS",
        "postalCode": "67042-2112"
      },
      {
        "line": [
          "120 W ROSS BLVD"
        ],
        "city": "DODGE CITY",
        "state": "KS",
        "postalCode": "67801-2131"
      }
    ],
    "extension": [
      {
        "url": "https://fhir.athena.io/StructureDefinition/ah-practice",
        "valueReference": {
          "reference": "Organization/a-1.Practice-29422"
        }
      },
      {
        "url": "https://fhir.athena.io/StructureDefinition/ah-brand",
        "valueReference": {
          "reference": "Organization/a-29422.Brand-1"
        }
      }
    ]
  },
  "fullUrl": "urn:uuid:c97003fb-2356-57c1-a78c-b57c7ee071c3"
}