{
  "resource": {
    "resourceType": "Organization",
    "id": "32186e4f-1256-5e5c-8005-645c68c23e9a",
    "name": "Northwest Allied Physicians",
    "endpoint": [
      {
        "reference": "Endpoint/27a4e967-47aa-5a9c-a572-b8297ee268a2"
      },
      {
        "reference": "Endpoint/7cf0d54e-9117-5e4d-b3ba-dc452ec6c244"
      }
    ],
    "identifier": [
      {
        "system": "http://hl7.org/fhir/sid/us-npi",
        "value": "1003833179"
      },
      {
        "system": "http://hl7.org/fhir/sid/us-npi",
        "value": "1528683455"
      }
    ],
    "address": [
      {
        "line": [],
        "city": "TUCSON",
        "state": "AZ",
        "postalCode": "85741-3080"
      },
      {
        "line": [
          "6130 N LA CHOLLA BLVD STE 250"
        ],
        "city": "TUCSON",
        "state": "AZ",
        "postalCode": "85741-3698"
      },
      {
        "line": [
          "1551 E TANGERINE RD"
        ],
        "city": "TUCSON",
        "state": "AZ",
        "postalCode": "85755-6213"
      },
      {
        "line": [
          "16260 S RANCHO SAHUARITA BLVD"
        ],
        "city": "SAHUARITA",
        "state": "AZ",
        "postalCode": "85629-0047"
      },
      {
        "line": [
          "6200 N LA CHOLLA BLVD"
        ],
        "city": "TUCSON",
        "state": "AZ",
        "postalCode": "85741-3529"
      },
      {
        "line": [
          "2200 S HOUGHTON RD"
        ],
        "city": "TUCSON",
        "state": "AZ",
        "postalCode": "85748-7632"
      },
      {
        "line": [
          "4001 E SUNRISE DR STE 161"
        ],
        "city": "TUCSON",
        "state": "AZ",
        "postalCode": "85718-4327"
      },
      {
        "line": [
          "6130 N LA CHOLLA BLVD STE 200"
        ],
        "city": "TUCSON",
        "state": "AZ",
        "postalCode": "85741-3574"
      },
      {
        "line": [
          "7375 S HOUGHTON RD STE 115"
        ],
        "city": "TUCSON",
        "state": "AZ",
        "postalCode": "85747-9302"
      },
      {
        "line": [
          "6060 N FOUNTAIN PLAZA DR STE 270"
        ],
        "city": "TUCSON",
        "state": "AZ",
        "postalCode": "85704-7873"
      },
      {
        "line": [
          "10568 N ORACLE RD STE 110"
        ],
        "city": "TUCSON",
        "state": "AZ",
        "postalCode": "85737-9314"
      },
      {
        "line": [
          "6130 N LA CHOLLA BLVD STE 240"
        ],
        "city": "TUCSON",
        "state": "AZ",
        "postalCode": "85741-3698"
      },
      {
        "line": [
          "4001 Cane Ridge Parkway"
        ],
        "city": "ANTIOCH",
        "state": "TN",
        "postalCode": "37013-2971"
      },
      {
        "line": [
          "16260 S RANCHO SAHUARITA BLVD STE 230"
        ],
        "city": "SAHUARITA",
        "state": "AZ",
        "postalCode": "85629-0047"
      },
      {
        "line": [
          "10120 E OLD VAIL RD STE 150"
        ],
        "city": "TUCSON",
        "state": "AZ",
        "postalCode": "85747-9415"
      },
      {
        "line": [
          "6130 N LA CHOLLA BLVD STE 210"
        ],
        "city": "TUCSON",
        "state": "AZ",
        "postalCode": "85741-3574"
      },
      {
        "line": [
          "1880 E TANGERINE RD STE 100"
        ],
        "city": "TUCSON",
        "state": "AZ",
        "postalCode": "85755-6241"
      },
      {
        "line": [
          "16260 S RANCHO SAHUARITA BLVD STE 230"
        ],
        "city": "SAHUARITA",
        "state": "AZ",
        "postalCode": "85629-0747"
      },
      {
        "line": [
          "1951 W Grant Rd Ste 160"
        ],
        "city": "TUCSON",
        "state": "AZ",
        "postalCode": "85745-1173"
      },
      {
        "line": [
          "6060 N FOUNTAIN PLAZA DR STE 200"
        ],
        "city": "TUCSON",
        "state": "AZ",
        "postalCode": "85704-7872"
      },
      {
        "line": [
          "4001 E SUNRISE DR STE 181"
        ],
        "city": "TUCSON",
        "state": "AZ",
        "postalCode": "85718-4325"
      },
      {
        "line": [
          "1622 N Swan Rd"
        ],
        "city": "TUCSON",
        "state": "AZ",
        "postalCode": "85712-4047"
      },
      {
        "line": [
          "6320 N LA CHOLLA BLVD STE 340"
        ],
        "city": "TUCSON",
        "state": "AZ",
        "postalCode": "85741-3816"
      },
      {
        "line": [
          "2055 W HOSPITAL DR STE 205"
        ],
        "city": "TUCSON",
        "state": "AZ",
        "postalCode": "85704-7822"
      },
      {
        "line": [
          "16260 S RANCHO SAHUARITA BLVD",
          "STE 220"
        ],
        "city": "SAHUARITA",
        "state": "AZ",
        "postalCode": "85629-0047"
      },
      {
        "line": [
          "7725 N ORACLE RD STE 131"
        ],
        "city": "TUCSON",
        "state": "AZ",
        "postalCode": "85704-6987"
      },
      {
        "line": [
          "16260 S RANCHO SAHUARITA BLVD STE 200"
        ],
        "city": "SAHUARITA",
        "state": "AZ",
        "postalCode": "85629-0047"
      },
      {
        "line": [
          "1398 N WILMOT RD"
        ],
        "city": "TUCSON",
        "state": "AZ",
        "postalCode": "85712-5132"
      },
      {
        "line": [
          "6180 N CORONA RD",
          "Suite 103"
        ],
        "city": "TUCSON",
        "state": "AZ",
        "postalCode": "85704-1098"
      },
      {
        "line": [
          "6130 N LA CHOLLA BLVD STE 135A"
        ],
        "city": "TUCSON",
        "state": "AZ",
        "postalCode": "85741-3557"
      },
      {
        "line": [
          "6320 N LA CHOLLA BLVD STE 370"
        ],
        "city": "TUCSON",
        "state": "AZ",
        "postalCode": "85741-3828"
      },
      {
        "line": [
          "1011 Main Street"
        ],
        "city": "SPRING HILL",
        "state": "TN",
        "postalCode": "37174-4531"
      },
      {
        "line": [
          "4745 E CAMP LOWELL DR"
        ],
        "city": "TUCSON",
        "state": "AZ",
        "postalCode": "85712-1256"
      },
      {
        "line": [
          "6452 E CARONDELET DR STE 100"
        ],
        "city": "TUCSON",
        "state": "AZ",
        "postalCode": "85710-2262"
      },
      {
        "line": [],
        "city": "TUCSON",
        "state": "AZ",
        "postalCode": "85745-2288"
      },
      {
        "line": [],
        "city": "Marana",
        "state": "AZ",
        "postalCode": "85743-7373"
      },
      {
        "line": [
          "7885 N ORACLE RD"
        ],
        "city": "TUCSON",
        "state": "AZ",
        "postalCode": "85704-6348"
      },
      {
        "line": [
          "446 N CAMPBELL AVE"
        ],
        "city": "TUCSON",
        "state": "AZ",
        "postalCode": "85719-5660"
      },
      {
        "line": [
          "6303 E BROADWAY BLVD STE 161"
        ],
        "city": "TUCSON",
        "state": "AZ",
        "postalCode": "85710-3549"
      },
      {
        "line": [
          "2025 W ORANGE GROVE RD FL 2"
        ],
        "city": "TUCSON",
        "state": "AZ",
        "postalCode": "85704-1118"
      },
      {
        "line": [
          "1521 E TANGERINE RD STE 201"
        ],
        "city": "ORO VALLEY",
        "state": "AZ",
        "postalCode": "85755-6218"
      },
      {
        "line": [
          "6320 N LA CHOLLA BLVD STE 300"
        ],
        "city": "TUCSON",
        "state": "AZ",
        "postalCode": "85741-3552"
      },
      {
        "line": [
          "1871 W ORANGE GROVE RD STE 135"
        ],
        "city": "TUCSON",
        "state": "AZ",
        "postalCode": "85704-1289"
      },
      {
        "line": [
          "1521 E Tangerine Rd Ste 255"
        ],
        "city": "TUCSON",
        "state": "AZ",
        "postalCode": "85755-6219"
      }
    ],
    "extension": [
      {
        "url": "https://fhir.athena.io/StructureDefinition/ah-practice",
        "valueReference": {
          "reference": "Organization/a-1.Practice-1576"
        }
      },
      {
        "url": "https://fhir.athena.io/StructureDefinition/ah-brand",
        "valueReference": {
          "reference": "Organization/a-1576.Brand-1"
        }
      }
    ]
  },
  "fullUrl": "urn:uuid:32186e4f-1256-5e5c-8005-645c68c23e9a"
}