{
  "resource": {
    "resourceType": "Organization",
    "id": "6e75bbad-2e62-583c-8c5a-4f2edf657786",
    "name": "You and Your Family Health Family Care",
    "endpoint": [
      {
        "reference": "Endpoint/27a4e967-47aa-5a9c-a572-b8297ee268a2"
      },
      {
        "reference": "Endpoint/687a2497-38c0-5c49-834d-202f740eaa75"
      }
    ],
    "identifier": [
      {
        "system": "http://hl7.org/fhir/sid/us-npi",
        "value": "1972696011"
      }
    ],
    "address": [
      {
        "line": [
          "8442 ARBOURS LAKE DRIVE"
        ],
        "city": "LEESBURG",
        "state": "FL",
        "postalCode": "34788-4599"
      },
      {
        "line": [
          "411 WEST WOODWARD"
        ],
        "city": "EUSTIS",
        "state": "FL",
        "postalCode": "32726-4599"
      },
      {
        "line": [
          "15000 US HWY 441"
        ],
        "city": "EUSTIS",
        "state": "FL",
        "postalCode": "32726-4599"
      },
      {
        "line": [
          "6767 ROUND LAKE ROAD"
        ],
        "city": "MT DORA",
        "state": "FL",
        "postalCode": "32757-9435"
      },
      {
        "line": [
          "2232 DORA AVENUE"
        ],
        "city": "TAVARES",
        "state": "FL",
        "postalCode": "32778-5428"
      },
      {
        "line": [
          "300 BROOKFIELD AVENUE"
        ],
        "city": "MT DORA",
        "state": "FL",
        "postalCode": "32757-9435"
      },
      {
        "line": [
          "1840 CLASSIQUE LN"
        ],
        "city": "TAVARES",
        "state": "FL",
        "postalCode": "32778-5289"
      },
      {
        "line": [
          "36120 HUFF ROAD"
        ],
        "city": "EUSTIS",
        "state": "FL",
        "postalCode": "32736-5548"
      },
      {
        "line": [
          "2810 RULEME STREET"
        ],
        "city": "EUSTIS",
        "state": "FL",
        "postalCode": "32726-4599"
      },
      {
        "line": [
          "3050 BROWN AVENUE"
        ],
        "city": "MOUNT DORA",
        "state": "FL",
        "postalCode": "32757-9435"
      },
      {
        "line": [
          "1840 Classique Lane"
        ],
        "city": "TAVARES",
        "state": "FL",
        "postalCode": "32778-5268"
      },
      {
        "line": [
          "1000 WATERMAN WAY"
        ],
        "city": "TAVARES",
        "state": "FL",
        "postalCode": "32778-5266"
      },
      {
        "line": [
          "225 Sunnyside Drive"
        ],
        "city": "LEESBURG",
        "state": "FL",
        "postalCode": "34748-5528"
      },
      {
        "line": [
          "1840 CLASSIQUE LN"
        ],
        "city": "TAVARES",
        "state": "FL",
        "postalCode": "32778-5748"
      },
      {
        "line": [
          "1840 CLASSIQUE LANE"
        ],
        "city": "TAVARES",
        "state": "FL",
        "postalCode": "32778-5428"
      },
      {
        "line": [
          "301 SOUTH BAY STREET"
        ],
        "city": "EUSTIS",
        "state": "FL",
        "postalCode": "32726-4599"
      },
      {
        "line": [
          "1211 EAST CAROLINE STREET"
        ],
        "city": "TAVARES",
        "state": "FL",
        "postalCode": "32778-1548"
      }
    ],
    "extension": [
      {
        "url": "https://fhir.athena.io/StructureDefinition/ah-practice",
        "valueReference": {
          "reference": "Organization/a-1.Practice-17743"
        }
      },
      {
        "url": "https://fhir.athena.io/StructureDefinition/ah-brand",
        "valueReference": {
          "reference": "Organization/a-17743.Brand-1"
        }
      }
    ]
  },
  "fullUrl": "urn:uuid:6e75bbad-2e62-583c-8c5a-4f2edf657786"
}