{
  "resource": {
    "resourceType": "Organization",
    "id": "b5718737-49e6-5587-bc84-f753d6ed7527",
    "name": "Mount Carmel Central Ohio Neurological Surgeons",
    "endpoint": [
      {
        "reference": "Endpoint/27a4e967-47aa-5a9c-a572-b8297ee268a2"
      },
      {
        "reference": "Endpoint/3c5d93b4-0410-5d8f-ab0c-f5b50749feda"
      }
    ],
    "identifier": [
      {
        "system": "http://hl7.org/fhir/sid/us-npi",
        "value": "1134154750"
      }
    ],
    "address": [
      {
        "line": [
          "1204 Greene St"
        ],
        "city": "MARIETTA",
        "state": "OH",
        "postalCode": "45750-9503"
      },
      {
        "line": [
          "100 Coleman Crossing Blvd",
          "2nd Floor"
        ],
        "city": "MARYSVILLE",
        "state": "OH",
        "postalCode": "43040-1646"
      },
      {
        "line": [
          "1176 E. Home Rd"
        ],
        "city": "SPRINGFIELD",
        "state": "OH",
        "postalCode": "45503-2708"
      },
      {
        "line": [
          "1069 Delaware Ave Suite 205B"
        ],
        "city": "MARION",
        "state": "OH",
        "postalCode": "43302-6288"
      },
      {
        "line": [
          "750 Mount Carmel Mall Suite 330"
        ],
        "city": "COLUMBUS",
        "state": "OH",
        "postalCode": "43222-1553"
      },
      {
        "line": [
          "5300 N Meadows Dr Bldg 1 Suite 140"
        ],
        "city": "GROVE CITY",
        "state": "OH",
        "postalCode": "43123-2546"
      },
      {
        "line": [
          "600 N Pickaway St Suite 107"
        ],
        "city": "CIRCLEVILLE",
        "state": "OH",
        "postalCode": "43113-1447"
      },
      {
        "line": [
          "1400 Brandywine Blvd"
        ],
        "city": "ZANESVILLE",
        "state": "OH",
        "postalCode": "43701-1083"
      },
      {
        "line": [
          "1533 Election House Rd"
        ],
        "city": "LANCASTER",
        "state": "OH",
        "postalCode": "43130-8186"
      },
      {
        "line": [
          "6 Medical Drive"
        ],
        "city": "CHILLICOTHE",
        "state": "OH",
        "postalCode": "45601-8603"
      },
      {
        "line": [
          "7100 Graphics Way Suite 2400"
        ],
        "city": "LEWIS CENTER",
        "state": "OH",
        "postalCode": "43035-1122"
      },
      {
        "line": [
          "955 Eastwind Drive"
        ],
        "city": "WESTERVILLE",
        "state": "OH",
        "postalCode": "43081-3376"
      },
      {
        "line": [
          "1945 Newark Granville Road"
        ],
        "city": "GRANVILLE",
        "state": "OH",
        "postalCode": "43023-1969"
      },
      {
        "line": [
          "955 Eastwind Drive Suite 150"
        ],
        "city": "WESTERVILLE",
        "state": "OH",
        "postalCode": "43081-3376"
      },
      {
        "line": [
          "11301 Upper Gilchrist Road"
        ],
        "city": "MOUNT VERNON",
        "state": "OH",
        "postalCode": "43050-8923"
      },
      {
        "line": [
          "249 Kenwood Drive"
        ],
        "city": "COSHOCTON",
        "state": "OH",
        "postalCode": "43812-1997"
      },
      {
        "line": [
          "1000 E. Broad St."
        ],
        "city": "COLUMBUS",
        "state": "OH",
        "postalCode": "43205-1318"
      },
      {
        "line": [
          "7901 Diley Road Suite 100"
        ],
        "city": "CANAL WINCHESTER",
        "state": "OH",
        "postalCode": "43110-9612"
      },
      {
        "line": [
          "1924 Tamarack Rd"
        ],
        "city": "NEWARK",
        "state": "OH",
        "postalCode": "43055-2303"
      },
      {
        "line": [
          "1450 Columbus Ave Ste 105"
        ],
        "city": "WASHINGTON COURT HOUSE",
        "state": "OH",
        "postalCode": "43160-3710"
      }
    ],
    "extension": [
      {
        "url": "https://fhir.athena.io/StructureDefinition/ah-practice",
        "valueReference": {
          "reference": "Organization/a-1.Practice-11128"
        }
      },
      {
        "url": "https://fhir.athena.io/StructureDefinition/ah-brand",
        "valueReference": {
          "reference": "Organization/a-11128.Brand-1"
        }
      }
    ]
  },
  "fullUrl": "urn:uuid:b5718737-49e6-5587-bc84-f753d6ed7527"
}