{
  "resource": {
    "resourceType": "Organization",
    "id": "b2085d0d-52ab-5e96-b467-3f7b16995574",
    "name": "WELLSPRING HEALTHCARE LLC",
    "endpoint": [
      {
        "reference": "Endpoint/27a4e967-47aa-5a9c-a572-b8297ee268a2"
      },
      {
        "reference": "Endpoint/678319d1-9b90-55d9-928a-dc40f83d92f4"
      }
    ],
    "identifier": [
      {
        "system": "http://hl7.org/fhir/sid/us-npi",
        "value": "1881363927"
      }
    ],
    "address": [
      {
        "line": [
          "705-B SE Melody Lane #184"
        ],
        "city": "LEES SUMMIT",
        "state": "MO",
        "postalCode": "64063-0001"
      },
      {
        "line": [
          "1501 SW 3rd St"
        ],
        "city": "LEES SUMMIT",
        "state": "MO",
        "postalCode": "64081-2424"
      },
      {
        "line": [
          "12700 ANTIOCH RD"
        ],
        "city": "OVERLAND PARK",
        "state": "KS",
        "postalCode": "66213-2724"
      },
      {
        "line": [
          "1003 S CEDAR ST"
        ],
        "city": "BELTON",
        "state": "MO",
        "postalCode": "64012-3703"
      },
      {
        "line": [
          "15600 WOODS CHAPEL RD"
        ],
        "city": "KANSAS CITY",
        "state": "MO",
        "postalCode": "64139-1354"
      },
      {
        "line": [
          "6124 Raytown Rd"
        ],
        "city": "KANSAS CITY",
        "state": "MO",
        "postalCode": "64133-4007"
      },
      {
        "line": [
          "1701 NW JEFFERSON ST"
        ],
        "city": "BLUE SPRINGS",
        "state": "MO",
        "postalCode": "64015-7229"
      },
      {
        "line": [
          "11661 GRANADA ST"
        ],
        "city": "LEAWOOD",
        "state": "KS",
        "postalCode": "66211-1455"
      },
      {
        "line": [
          "705B SE MELODY LN # 184"
        ],
        "city": "LEES SUMMIT",
        "state": "MO",
        "postalCode": "64063-4380"
      }
    ],
    "extension": [
      {
        "url": "https://fhir.athena.io/StructureDefinition/ah-practice",
        "valueReference": {
          "reference": "Organization/a-1.Practice-24823"
        }
      },
      {
        "url": "https://fhir.athena.io/StructureDefinition/ah-brand",
        "valueReference": {
          "reference": "Organization/a-24823.Brand-1"
        }
      }
    ]
  },
  "fullUrl": "urn:uuid:b2085d0d-52ab-5e96-b467-3f7b16995574"
}