{
  "resource": {
    "resourceType": "Organization",
    "id": "89f02548-9669-51c9-83c8-9c0acd245599",
    "name": "AIM Fast Sports",
    "endpoint": [
      {
        "reference": "Endpoint/27a4e967-47aa-5a9c-a572-b8297ee268a2"
      },
      {
        "reference": "Endpoint/2d0629b9-360f-536c-a00d-951f48d587b7"
      }
    ],
    "identifier": [
      {
        "system": "http://hl7.org/fhir/sid/us-npi",
        "value": "1659610699"
      },
      {
        "system": "http://hl7.org/fhir/sid/us-npi",
        "value": "1588606990"
      }
    ],
    "address": [
      {
        "line": [
          "9003 E Shea Blvd"
        ],
        "city": "SCOTTSDALE",
        "state": "AZ",
        "postalCode": "85260-7900"
      },
      {
        "line": [
          "3535 N Scottsdale Rd"
        ],
        "city": "SCOTTSDALE",
        "state": "AZ",
        "postalCode": "85251-5625"
      },
      {
        "line": [
          "8575 E Princess Dr. Suite 221"
        ],
        "city": "SCOTTSDALE",
        "state": "AZ",
        "postalCode": "85255-5441"
      },
      {
        "line": [
          "8575 E. Princess Drive, Ste 221"
        ],
        "city": "SCOTTSDALE",
        "state": "AZ",
        "postalCode": "85255-5441"
      },
      {
        "line": [
          "17500 N Perimeter Dr"
        ],
        "city": "SCOTTSDALE",
        "state": "AZ",
        "postalCode": "85255-5441"
      },
      {
        "line": [
          "20950 North Tatum Boulevard, Suite 170"
        ],
        "city": "PHOENIX",
        "state": "AZ",
        "postalCode": "85050-7259"
      },
      {
        "line": [
          "9007 E Shea Blvd Bldg A"
        ],
        "city": "SCOTTSDALE",
        "state": "AZ",
        "postalCode": "85260-7900"
      },
      {
        "line": [
          "7400 E Thompson Peak Pkwy"
        ],
        "city": "SCOTTSDALE",
        "state": "AZ",
        "postalCode": "85255-4109"
      },
      {
        "line": [
          "1114 South Higley Road, Suite 101-A"
        ],
        "city": "MESA",
        "state": "AZ",
        "postalCode": "85206-3000"
      },
      {
        "line": [
          "20940 N Tatum Blvd #100"
        ],
        "city": "PHOENIX",
        "state": "AZ",
        "postalCode": "85050-7259"
      },
      {
        "line": [
          "9377 E Bell Rd"
        ],
        "city": "SCOTTSDALE",
        "state": "AZ",
        "postalCode": "85260-1502"
      }
    ],
    "extension": [
      {
        "url": "https://fhir.athena.io/StructureDefinition/ah-practice",
        "valueReference": {
          "reference": "Organization/a-1.Practice-17008"
        }
      },
      {
        "url": "https://fhir.athena.io/StructureDefinition/ah-brand",
        "valueReference": {
          "reference": "Organization/a-17008.Brand-1"
        }
      }
    ]
  },
  "fullUrl": "urn:uuid:89f02548-9669-51c9-83c8-9c0acd245599"
}