{
  "resource": {
    "resourceType": "Organization",
    "id": "3d423d32-0f60-5061-b311-c942c116ea27",
    "name": "Highpoint Health Partners with Ascension Saint Thomas Sumner Regional",
    "endpoint": [
      {
        "reference": "Endpoint/27a4e967-47aa-5a9c-a572-b8297ee268a2"
      },
      {
        "reference": "Endpoint/32552cce-f39f-52e1-b121-21363bded00d"
      }
    ],
    "identifier": [
      {
        "system": "http://hl7.org/fhir/sid/us-npi",
        "value": "1457719064"
      },
      {
        "system": "http://hl7.org/fhir/sid/us-npi",
        "value": "1922310093"
      },
      {
        "system": "http://hl7.org/fhir/sid/us-npi",
        "value": "1750765434"
      },
      {
        "system": "http://hl7.org/fhir/sid/us-npi",
        "value": "1093251217"
      },
      {
        "system": "http://hl7.org/fhir/sid/us-npi",
        "value": "1730541145"
      },
      {
        "system": "http://hl7.org/fhir/sid/us-npi",
        "value": "1598290132"
      },
      {
        "system": "http://hl7.org/fhir/sid/us-npi",
        "value": "1083953848"
      },
      {
        "system": "http://hl7.org/fhir/sid/us-npi",
        "value": "1730637190"
      },
      {
        "system": "http://hl7.org/fhir/sid/us-npi",
        "value": "1871002055"
      },
      {
        "system": "http://hl7.org/fhir/sid/us-npi",
        "value": "1083097711"
      },
      {
        "system": "http://hl7.org/fhir/sid/us-npi",
        "value": "1043739287"
      },
      {
        "system": "http://hl7.org/fhir/sid/us-npi",
        "value": "1720572209"
      },
      {
        "system": "http://hl7.org/fhir/sid/us-npi",
        "value": "1124438601"
      },
      {
        "system": "http://hl7.org/fhir/sid/us-npi",
        "value": "1457745317"
      }
    ],
    "address": [
      {
        "line": [
          "555 HARTSVILLE PIKE"
        ],
        "city": "GALLATIN",
        "state": "TN",
        "postalCode": "37066-2400"
      },
      {
        "line": [
          "158 Hospital Dr"
        ],
        "city": "CARTHAGE",
        "state": "TN",
        "postalCode": "37030-1083"
      },
      {
        "line": [
          "500 CHURCH ST"
        ],
        "city": "HARTSVILLE",
        "state": "TN",
        "postalCode": "37074-1744"
      },
      {
        "line": [
          "555 Hartsville Pike"
        ],
        "city": "GALLATIN",
        "state": "TN",
        "postalCode": "37066-2400"
      },
      {
        "line": [
          "5655 FRIST BLVD"
        ],
        "city": "HERMITAGE",
        "state": "TN",
        "postalCode": "37076-2053"
      },
      {
        "line": [
          "158 HOSPITAL DR"
        ],
        "city": "CARTHAGE",
        "state": "TN",
        "postalCode": "37030-1083"
      },
      {
        "line": [
          "305 W LOCUST ST"
        ],
        "city": "LAFAYETTE",
        "state": "TN",
        "postalCode": "37083-1712"
      },
      {
        "line": [
          "305 W Locust St"
        ],
        "city": "LAFAYETTE",
        "state": "TN",
        "postalCode": "37083-1712"
      },
      {
        "line": [
          "101 PHYSICIANS WAY",
          "SUITE 114"
        ],
        "city": "LEBANON",
        "state": "TN",
        "postalCode": "37090-4135"
      },
      {
        "line": [
          "1411 W BADDOUR PKWY"
        ],
        "city": "LEBANON",
        "state": "TN",
        "postalCode": "37087-2513"
      },
      {
        "line": [
          "890 North Blue Jay Way"
        ],
        "city": "GALLATIN",
        "state": "TN",
        "postalCode": "37066-4559"
      },
      {
        "line": [
          "520 W MAIN ST"
        ],
        "city": "SMITHVILLE",
        "state": "TN",
        "postalCode": "37166-1138"
      },
      {
        "line": [
          "305 W Locust ST"
        ],
        "city": "LAFAYETTE",
        "state": "TN",
        "postalCode": "37083-1712"
      },
      {
        "line": [
          "131 HOSPITAL DRIVE"
        ],
        "city": "CARTHAGE",
        "state": "TN",
        "postalCode": "37030-1083"
      }
    ],
    "extension": [
      {
        "url": "https://fhir.athena.io/StructureDefinition/ah-practice",
        "valueReference": {
          "reference": "Organization/a-1.Practice-19363"
        }
      },
      {
        "url": "https://fhir.athena.io/StructureDefinition/ah-brand",
        "valueReference": {
          "reference": "Organization/a-19363.Brand-4"
        }
      }
    ]
  },
  "fullUrl": "urn:uuid:3d423d32-0f60-5061-b311-c942c116ea27"
}