{
  "resource": {
    "resourceType": "Organization",
    "id": "136e83af-eb1f-5849-a8fb-8bd07c88a9a6",
    "name": "RelievUS",
    "endpoint": [
      {
        "reference": "Endpoint/27a4e967-47aa-5a9c-a572-b8297ee268a2"
      },
      {
        "reference": "Endpoint/db20a66d-b7fd-5f8d-bcb5-cbf7f33b0936"
      }
    ],
    "identifier": [
      {
        "system": "http://hl7.org/fhir/sid/us-npi",
        "value": "1730359084"
      },
      {
        "system": "http://hl7.org/fhir/sid/us-npi",
        "value": "1679398903"
      }
    ],
    "address": [
      {
        "line": [
          "75 LINCOLN HWY"
        ],
        "city": "ISELIN",
        "state": "NJ",
        "postalCode": "08830-1533"
      },
      {
        "line": [
          "1215 HIGHWAY 70 STE 2000"
        ],
        "city": "LAKEWOOD",
        "state": "NJ",
        "postalCode": "08701-6958"
      },
      {
        "line": [
          "124 N NARBERTH AVE"
        ],
        "city": "NARBERTH",
        "state": "PA",
        "postalCode": "19072-2211"
      },
      {
        "line": [
          "1051 WEST SHERMAN AVENNUE"
        ],
        "city": "VINELAND",
        "state": "NJ",
        "postalCode": "08360-6931"
      },
      {
        "line": [
          "1400 MARLTON PIKE E"
        ],
        "city": "CHERRY HILL",
        "state": "NJ",
        "postalCode": "08034-2240"
      },
      {
        "line": [
          "715 FELLOWSHIP RD"
        ],
        "city": "MOUNT LAUREL",
        "state": "NJ",
        "postalCode": "08054-1052"
      },
      {
        "line": [
          "2301 HARRISBURG PIKE STE 201"
        ],
        "city": "LANCASTER",
        "state": "PA",
        "postalCode": "17601-2415"
      },
      {
        "line": [
          "1445 WHITEHORSE MERCERVILLE RD"
        ],
        "city": "TRENTON",
        "state": "NJ",
        "postalCode": "08619-3834"
      },
      {
        "line": [
          "1280 BROADCASTING RD"
        ],
        "city": "READING",
        "state": "PA",
        "postalCode": "19610-3203"
      },
      {
        "line": [
          "199 MULLICA HILL RD"
        ],
        "city": "MULLICA HILL",
        "state": "NJ",
        "postalCode": "08062-2655"
      },
      {
        "line": [
          "2200 W HAMILTON ST STE 209"
        ],
        "city": "ALLENTOWN",
        "state": "PA",
        "postalCode": "18104-6329"
      },
      {
        "line": [
          "2090 SPRINGDALE RD STE A"
        ],
        "city": "CHERRY HILL",
        "state": "NJ",
        "postalCode": "08003-2024"
      },
      {
        "line": [
          "142 MUNDY ST"
        ],
        "city": "WILKES BARRE",
        "state": "PA",
        "postalCode": "18702-6875"
      },
      {
        "line": [
          "1177 PA-315"
        ],
        "city": "WILKES BARRE",
        "state": "PA",
        "postalCode": "18702-9999"
      },
      {
        "line": [
          "1235 PENN AVE STE 100"
        ],
        "city": "READING",
        "state": "PA",
        "postalCode": "19610-2100"
      },
      {
        "line": [
          "130 GAITHER DR"
        ],
        "city": "MOUNT LAUREL",
        "state": "NJ",
        "postalCode": "08054-1715"
      },
      {
        "line": [
          "405 BETHEL RD"
        ],
        "city": "SOMERS POINT",
        "state": "NJ",
        "postalCode": "08244-2108"
      },
      {
        "line": [
          "750 MANTUA PIKE"
        ],
        "city": "WOODBURY HEIGHTS",
        "state": "NJ",
        "postalCode": "08097-1142"
      },
      {
        "line": [
          "556 EGG HARBOR RD"
        ],
        "city": "SEWELL",
        "state": "NJ",
        "postalCode": "08080-2326"
      },
      {
        "line": [
          "4979 OLD STREET RD"
        ],
        "city": "FEASTERVILLE TREVOSE",
        "state": "PA",
        "postalCode": "19053-6227"
      },
      {
        "line": [
          "2 8TH ST"
        ],
        "city": "HAMMONTON",
        "state": "NJ",
        "postalCode": "08037-3347"
      },
      {
        "line": [
          "1800 BYBERRY RD"
        ],
        "city": "HUNTINGDON VALLEY",
        "state": "PA",
        "postalCode": "19006-3518"
      },
      {
        "line": [
          "1100 NORTHBROOK DR STE 100"
        ],
        "city": "FEASTERVILLE TREVOSE",
        "state": "PA",
        "postalCode": "19053-8403"
      },
      {
        "line": [
          "2603 KEISER BLVD"
        ],
        "city": "READING",
        "state": "PA",
        "postalCode": "19610-3341"
      },
      {
        "line": [
          "336 SALEM WOODTOWN ROAD"
        ],
        "city": "SALEM",
        "state": "NJ",
        "postalCode": "08079-2027"
      },
      {
        "line": [
          "1617 JOHN F KENNEDY BLVD STE 1100"
        ],
        "city": "PHILADELPHIA",
        "state": "PA",
        "postalCode": "19103-1826"
      },
      {
        "line": [
          "600 S WHITE HORSE PIKE"
        ],
        "city": "HAMMONTON",
        "state": "NJ",
        "postalCode": "08037-9602"
      },
      {
        "line": [
          "2301 HARRISBURG PIKE STE 100"
        ],
        "city": "LANCASTER",
        "state": "PA",
        "postalCode": "17601-2415"
      }
    ],
    "extension": [
      {
        "url": "https://fhir.athena.io/StructureDefinition/ah-practice",
        "valueReference": {
          "reference": "Organization/a-1.Practice-11679"
        }
      },
      {
        "url": "https://fhir.athena.io/StructureDefinition/ah-brand",
        "valueReference": {
          "reference": "Organization/a-11679.Brand-5"
        }
      }
    ]
  },
  "fullUrl": "urn:uuid:136e83af-eb1f-5849-a8fb-8bd07c88a9a6"
}