{
  "resource": {
    "resourceType": "Organization",
    "id": "73976cf9-4f76-54b0-8c23-b0f3251b2b26",
    "name": "Wall Street Medical Group",
    "endpoint": [
      {
        "reference": "Endpoint/27a4e967-47aa-5a9c-a572-b8297ee268a2"
      },
      {
        "reference": "Endpoint/2e342995-c7b8-53d2-96ba-6bd22e2a2c4f"
      }
    ],
    "identifier": [
      {
        "system": "http://hl7.org/fhir/sid/us-npi",
        "value": "1871508614"
      },
      {
        "system": "http://hl7.org/fhir/sid/us-npi",
        "value": "1922337617"
      }
    ],
    "address": [
      {
        "line": [
          "101 Potter's Lane"
        ],
        "city": "CLARKSVILLE",
        "state": "IN",
        "postalCode": "47129-1017"
      },
      {
        "line": [
          "3625 St. Joseph Rd."
        ],
        "city": "NEW ALBANY",
        "state": "IN",
        "postalCode": "47150-9731"
      },
      {
        "line": [
          "443 Spring St",
          "Suite 201"
        ],
        "city": "JEFFERSONVILLE",
        "state": "IN",
        "postalCode": "47130-4494"
      },
      {
        "line": [
          "73 Quartermaster Court"
        ],
        "city": "JEFFERSONVILLE",
        "state": "IN",
        "postalCode": "47130-3623"
      },
      {
        "line": [
          "3928 Horne Ave"
        ],
        "city": "NEW ALBANY",
        "state": "IN",
        "postalCode": "47150-9999"
      },
      {
        "line": [
          "150 Beachmont Drive NE"
        ],
        "city": "CORYDON",
        "state": "IN",
        "postalCode": "47112-1717"
      },
      {
        "line": [
          "923 EASTERN STAR CT"
        ],
        "city": "LOUISVILLE",
        "state": "KY",
        "postalCode": "40204-2334"
      },
      {
        "line": [
          "1420 East Main Street"
        ],
        "city": "NEW ALBANY",
        "state": "IN",
        "postalCode": "47150-5730"
      },
      {
        "line": [
          "3104 Blackiston Blvd."
        ],
        "city": "NEW ALBANY",
        "state": "IN",
        "postalCode": "47150-9579"
      },
      {
        "line": [
          "1015 Magazine Street"
        ],
        "city": "LOUISVILLE",
        "state": "KY",
        "postalCode": "40203-2017"
      },
      {
        "line": [
          "443 Spring Street",
          "Suite 100"
        ],
        "city": "JEFFERSONVILLE",
        "state": "IN",
        "postalCode": "47130-4494"
      },
      {
        "line": [
          "945 S. 4th Street"
        ],
        "city": "LOUISVILLE",
        "state": "KY",
        "postalCode": "40203-3594"
      },
      {
        "line": [
          "960 S. 4th Street"
        ],
        "city": "LOUISVILLE",
        "state": "KY",
        "postalCode": "40203-3294"
      },
      {
        "line": [
          "1496 N. Gardner Street"
        ],
        "city": "SCOTTSBURG",
        "state": "IN",
        "postalCode": "47170-7751"
      },
      {
        "line": [
          "4915 Charlestown Road"
        ],
        "city": "NEW ALBANY",
        "state": "IN",
        "postalCode": "47150-9426"
      },
      {
        "line": [
          "950 Cross Avenue"
        ],
        "city": "MADISON",
        "state": "IN",
        "postalCode": "47250-2002"
      },
      {
        "line": [
          "2715 Charlestowns Roadq"
        ],
        "city": "JEFFERSONVILLE",
        "state": "IN",
        "postalCode": "47130-8163"
      },
      {
        "line": [
          "920 South 4th Street"
        ],
        "city": "LOUISVILLE",
        "state": "KY",
        "postalCode": "40203-3206"
      },
      {
        "line": [
          "586 Eastern Blvd."
        ],
        "city": "CLARKSVILLE",
        "state": "IN",
        "postalCode": "47129-2452"
      },
      {
        "line": [
          "2101 Broadway Street"
        ],
        "city": "CLARKSVILLE",
        "state": "IN",
        "postalCode": "47129-1017"
      }
    ],
    "extension": [
      {
        "url": "https://fhir.athena.io/StructureDefinition/ah-practice",
        "valueReference": {
          "reference": "Organization/a-1.Practice-8360"
        }
      },
      {
        "url": "https://fhir.athena.io/StructureDefinition/ah-brand",
        "valueReference": {
          "reference": "Organization/a-8360.Brand-1"
        }
      }
    ]
  },
  "fullUrl": "urn:uuid:73976cf9-4f76-54b0-8c23-b0f3251b2b26"
}