{
  "resource": {
    "resourceType": "Organization",
    "id": "7e051714-f994-5d26-ab50-19ba2b957430",
    "name": "ANGEL PERSONAL CARE HOME",
    "endpoint": [
      {
        "reference": "Endpoint/27a4e967-47aa-5a9c-a572-b8297ee268a2"
      },
      {
        "reference": "Endpoint/643f9a02-37ef-5952-a91f-a295aa4376a8"
      }
    ],
    "identifier": [
      {
        "system": "http://hl7.org/fhir/sid/us-npi",
        "value": "1053345025"
      }
    ],
    "address": [
      {
        "line": [
          "1130 Vonda Lane"
        ],
        "city": "MABLETON",
        "state": "GA",
        "postalCode": "30126-3024"
      },
      {
        "line": [
          "6859 Cavalier Court"
        ],
        "city": "STONE MOUNTAIN",
        "state": "GA",
        "postalCode": "30087-6332"
      },
      {
        "line": [
          "2724 Kelly Lake Road"
        ],
        "city": "DECATUR",
        "state": "GA",
        "postalCode": "30032-6419"
      },
      {
        "line": [
          "110 Gum Creek Rd"
        ],
        "city": "OXFORD",
        "state": "GA",
        "postalCode": "30054-4125"
      },
      {
        "line": [],
        "city": "STONE MOUNTAIN",
        "state": "GA",
        "postalCode": "30088-2634"
      },
      {
        "line": [
          "8835 NORTHCUTT ROAD"
        ],
        "city": "FAIRBURN",
        "state": "GA",
        "postalCode": "30213-2278"
      },
      {
        "line": [
          "145 Howard Lane"
        ],
        "city": "FAYETTEVILLE",
        "state": "GA",
        "postalCode": "30215-1848"
      },
      {
        "line": [
          "6920 W Fayetteville Rd"
        ],
        "city": "Riverdale",
        "state": "GA",
        "postalCode": "30296-2638"
      },
      {
        "line": [
          "335 Hammond Dr"
        ],
        "city": "ATLANTA",
        "state": "GA",
        "postalCode": "30328-5053"
      },
      {
        "line": [
          "3508 Kensington Rd"
        ],
        "city": "DECATUR",
        "state": "GA",
        "postalCode": "30032-1328"
      },
      {
        "line": [
          "1408 Spring Street SE"
        ],
        "city": "SMYRNA",
        "state": "GA",
        "postalCode": "30080-3639"
      },
      {
        "line": [
          "964 South Main Street"
        ],
        "city": "CONYERS",
        "state": "GA",
        "postalCode": "30012-4549"
      },
      {
        "line": [
          "2327 Young Road"
        ],
        "city": "STONE MOUNTAIN",
        "state": "GA",
        "postalCode": "30088-4111"
      }
    ],
    "extension": [
      {
        "url": "https://fhir.athena.io/StructureDefinition/ah-practice",
        "valueReference": {
          "reference": "Organization/a-1.Practice-5069"
        }
      },
      {
        "url": "https://fhir.athena.io/StructureDefinition/ah-brand",
        "valueReference": {
          "reference": "Organization/a-5069.Brand-1"
        }
      }
    ]
  },
  "fullUrl": "urn:uuid:7e051714-f994-5d26-ab50-19ba2b957430"
}