{
  "resource": {
    "resourceType": "Organization",
    "id": "93bdcc7b-3081-547f-8f50-09e20df0d473",
    "name": "Ascension Illinois Palliative Care",
    "endpoint": [
      {
        "reference": "Endpoint/27a4e967-47aa-5a9c-a572-b8297ee268a2"
      },
      {
        "reference": "Endpoint/5402d977-3532-5f7b-a326-419fe7d7e278"
      }
    ],
    "identifier": [
      {
        "system": "http://hl7.org/fhir/sid/us-npi",
        "value": "1275990061"
      }
    ],
    "address": [
      {
        "line": [
          "7350 N Sheridan Rd"
        ],
        "city": "CHICAGO",
        "state": "IL",
        "postalCode": "60626-2017"
      },
      {
        "line": [
          "825 CARILLON DR"
        ],
        "city": "BARTLETT",
        "state": "IL",
        "postalCode": "60103-4581"
      },
      {
        "line": [
          "315 NORTH LAGRANGE ROAD"
        ],
        "city": "LA GRANGE PARK",
        "state": "IL",
        "postalCode": "60526-1903"
      },
      {
        "line": [
          "7200 N Sheridan Road"
        ],
        "city": "CHICAGO",
        "state": "IL",
        "postalCode": "60626-2613"
      },
      {
        "line": [
          "401 W Lake St"
        ],
        "city": "MELROSE PARK",
        "state": "IL",
        "postalCode": "60164-2436"
      },
      {
        "line": [
          "700 N. McLean Blvd"
        ],
        "city": "SOUTH ELGIN",
        "state": "IL",
        "postalCode": "60177-1429"
      },
      {
        "line": [
          "512 E Ogden Avenue"
        ],
        "city": "WESTMONT",
        "state": "IL",
        "postalCode": "60559-1228"
      },
      {
        "line": [
          "900 S Rand Rd"
        ],
        "city": "LAKE ZURICH",
        "state": "IL",
        "postalCode": "60047-2450"
      },
      {
        "line": [
          "865 NORTH CASS AVE"
        ],
        "city": "WESTMONT",
        "state": "IL",
        "postalCode": "60559-6404"
      },
      {
        "line": [
          "400 N County Farm Rd."
        ],
        "city": "WHEATON",
        "state": "IL",
        "postalCode": "60187-3908"
      },
      {
        "line": [
          "820 Foster St"
        ],
        "city": "EVANSTON",
        "state": "IL",
        "postalCode": "60201-3212"
      },
      {
        "line": [
          "2330 W Galena Blvd"
        ],
        "city": "AURORA",
        "state": "IL",
        "postalCode": "60506-4246"
      },
      {
        "line": [
          "1515 W Ogden Ave"
        ],
        "city": "LA GRANGE PARK",
        "state": "IL",
        "postalCode": "60526-1721"
      },
      {
        "line": [
          "1525 Oxford Ln"
        ],
        "city": "NAPERVILLE",
        "state": "IL",
        "postalCode": "60565-1511"
      },
      {
        "line": [
          "1515 W FARGO AVE"
        ],
        "city": "CHICAGO",
        "state": "IL",
        "postalCode": "60626-1805"
      },
      {
        "line": [
          "825 Carillon Dr."
        ],
        "city": "BARTLETT",
        "state": "IL",
        "postalCode": "60103-4581"
      },
      {
        "line": [
          "421 N Lake St"
        ],
        "city": "AURORA",
        "state": "IL",
        "postalCode": "60506-4180"
      },
      {
        "line": [
          "335 ILLINOIS ST"
        ],
        "city": "CRYSTAL LAKE",
        "state": "IL",
        "postalCode": "60014-3618"
      },
      {
        "line": [
          "9615 North Knox Ave"
        ],
        "city": "SKOKIE",
        "state": "IL",
        "postalCode": "60076-1219"
      },
      {
        "line": [
          "50 S. Fairbank St."
        ],
        "city": "ADDISON",
        "state": "IL",
        "postalCode": "60101-3118"
      },
      {
        "line": [
          "2150 W Golf Rd."
        ],
        "city": "HOFFMAN ESTATES",
        "state": "IL",
        "postalCode": "60169-5604"
      },
      {
        "line": [
          "2150 W GOLF RD"
        ],
        "city": "HOFFMAN ESTATES",
        "state": "IL",
        "postalCode": "60169-5604"
      },
      {
        "line": [
          "180 S State St"
        ],
        "city": "ELGIN",
        "state": "IL",
        "postalCode": "60123-6429"
      },
      {
        "line": [
          "2242 N Kedzie Blvd"
        ],
        "city": "CHICAGO",
        "state": "IL",
        "postalCode": "60647-2504"
      },
      {
        "line": [
          "2255 Monarch Drive"
        ],
        "city": "NAPERVILLE",
        "state": "IL",
        "postalCode": "60563-4164"
      },
      {
        "line": [
          "420 N Wolf Rd"
        ],
        "city": "NORTHLAKE",
        "state": "IL",
        "postalCode": "60164-1670"
      },
      {
        "line": [
          "1991 Randi Dr"
        ],
        "city": "AURORA",
        "state": "IL",
        "postalCode": "60504-4757"
      },
      {
        "line": [
          "110 W Schaumburg Rd"
        ],
        "city": "STREAMWOOD",
        "state": "IL",
        "postalCode": "60107-1459"
      },
      {
        "line": [
          "908 W. Argyle St."
        ],
        "city": "CHICAGO",
        "state": "IL",
        "postalCode": "60640-3806"
      },
      {
        "line": [
          "1111 S Linneman Rd"
        ],
        "city": "MOUNT PROSPECT",
        "state": "IL",
        "postalCode": "60056-4128"
      },
      {
        "line": [
          "1314 Rowell Ave"
        ],
        "city": "JOLIET",
        "state": "IL",
        "postalCode": "60433-2866"
      },
      {
        "line": [
          "2308 N. Route 59"
        ],
        "city": "NAPERVILLE",
        "state": "IL",
        "postalCode": "60563-2061"
      },
      {
        "line": [
          "1301 Lee St."
        ],
        "city": "DES PLAINES",
        "state": "IL",
        "postalCode": "60018-1514"
      },
      {
        "line": [
          "3601 SOUTH HARLEM AVE"
        ],
        "city": "BERWYN",
        "state": "IL",
        "postalCode": "60402-3219"
      },
      {
        "line": [
          "4626 Old Orchard Rd."
        ],
        "city": "SKOKIE",
        "state": "IL",
        "postalCode": "60076-1009"
      },
      {
        "line": [
          "1666 Checker Rd."
        ],
        "city": "LAKE ZURICH",
        "state": "IL",
        "postalCode": "60047-5289"
      },
      {
        "line": [
          "10 N WASHINGTON ST"
        ],
        "city": "HINSDALE",
        "state": "IL",
        "postalCode": "60521-3462"
      },
      {
        "line": [
          "408 S Oak Park Ave."
        ],
        "city": "OAK PARK",
        "state": "IL",
        "postalCode": "60302-3872"
      },
      {
        "line": [
          "6101 SOUTH COUNTYLINE ROAD"
        ],
        "city": "WILLOWBROOK",
        "state": "IL",
        "postalCode": "60527-8132"
      },
      {
        "line": [
          "480 N Wolf Road"
        ],
        "city": "MELROSE PARK",
        "state": "IL",
        "postalCode": "60164-1369"
      },
      {
        "line": [
          "1760 Capital St."
        ],
        "city": "ELGIN",
        "state": "IL",
        "postalCode": "60124-7890"
      },
      {
        "line": [
          "7050 SOUTH MADISON"
        ],
        "city": "WILLOWBROOK",
        "state": "IL",
        "postalCode": "60527-5548"
      },
      {
        "line": [
          "6300 N California Ave"
        ],
        "city": "CHICAGO",
        "state": "IL",
        "postalCode": "60659-1702"
      },
      {
        "line": [
          "790 N. Plum Grove Rd."
        ],
        "city": "SCHAUMBURG",
        "state": "IL",
        "postalCode": "60173-4764"
      },
      {
        "line": [
          "815 Irving Park Rd."
        ],
        "city": "STREAMWOOD",
        "state": "IL",
        "postalCode": "60107-3073"
      },
      {
        "line": [
          "7000 Newark Road"
        ],
        "city": "NILES",
        "state": "IL",
        "postalCode": "60714-4577"
      },
      {
        "line": [
          "31 W Central Ave"
        ],
        "city": "ROSELLE",
        "state": "IL",
        "postalCode": "60172-1903"
      },
      {
        "line": [
          "4747 N Canfield Ave"
        ],
        "city": "HARWOOD HEIGHTS",
        "state": "IL",
        "postalCode": "60706-4480"
      },
      {
        "line": [
          "7001 Cullom Ave"
        ],
        "city": "HARWOOD HEIGHTS",
        "state": "IL",
        "postalCode": "60706-7100"
      },
      {
        "line": [
          "675 S. Roselle Rd"
        ],
        "city": "SCHAUMBURG",
        "state": "IL",
        "postalCode": "60193-3100"
      },
      {
        "line": [
          "4735 Willow Springs Rd"
        ],
        "city": "LA GRANGE",
        "state": "IL",
        "postalCode": "60525-6130"
      },
      {
        "line": [
          "5888 N Ridge Ave"
        ],
        "city": "CHICAGO",
        "state": "IL",
        "postalCode": "60660-3450"
      },
      {
        "line": [
          "306 N Larkin Ave"
        ],
        "city": "JOLIET",
        "state": "IL",
        "postalCode": "60435-6698"
      },
      {
        "line": [
          "2833 N Nordica Ave"
        ],
        "city": "CHICAGO",
        "state": "IL",
        "postalCode": "60634-4726"
      },
      {
        "line": [
          "800 BIESTERFIELD RD"
        ],
        "city": "ELK GROVE VILLAGE",
        "state": "IL",
        "postalCode": "60007-3362"
      },
      {
        "line": [
          "10300 SOUTHWEST HWY"
        ],
        "city": "CHICAGO RIDGE",
        "state": "IL",
        "postalCode": "60415-1426"
      },
      {
        "line": [
          "1725 S Wabash Ave"
        ],
        "city": "CHICAGO",
        "state": "IL",
        "postalCode": "60616-1219"
      },
      {
        "line": [
          "3450 Saratoga Ave"
        ],
        "city": "DOWNERS GROVE",
        "state": "IL",
        "postalCode": "60515-1141"
      },
      {
        "line": [
          "351 LILY CACHE LN"
        ],
        "city": "BOLINGBROOK",
        "state": "IL",
        "postalCode": "60440-3441"
      },
      {
        "line": [
          "1250 W. Central Rd."
        ],
        "city": "ARLINGTON HEIGHTS",
        "state": "IL",
        "postalCode": "60005-2489"
      },
      {
        "line": [
          "7262 W Peterson Ave"
        ],
        "city": "CHICAGO",
        "state": "IL",
        "postalCode": "60631-3626"
      },
      {
        "line": [
          "66 W OAK ST"
        ],
        "city": "CHICAGO",
        "state": "IL",
        "postalCode": "60610-7325"
      },
      {
        "line": [
          "2520 Gross Point Rd"
        ],
        "city": "EVANSTON",
        "state": "IL",
        "postalCode": "60201-4929"
      },
      {
        "line": [
          "120 DODGE AVE"
        ],
        "city": "EVANSTON",
        "state": "IL",
        "postalCode": "60202-3622"
      },
      {
        "line": [
          "8333 W Golf Rd."
        ],
        "city": "NILES",
        "state": "IL",
        "postalCode": "60714-1113"
      },
      {
        "line": [
          "2450 N CENTRAL AVE"
        ],
        "city": "CHICAGO",
        "state": "IL",
        "postalCode": "60639-1316"
      },
      {
        "line": [
          "275 S LASALLE ST"
        ],
        "city": "AURORA",
        "state": "IL",
        "postalCode": "60505-5841"
      },
      {
        "line": [
          "241 E. Lake St."
        ],
        "city": "BLOOMINGDALE",
        "state": "IL",
        "postalCode": "60108-1105"
      },
      {
        "line": [
          "1800 W Colonial Pkwy"
        ],
        "city": "PALATINE",
        "state": "IL",
        "postalCode": "60067-1216"
      },
      {
        "line": [
          "3000 MCCORMICK"
        ],
        "city": "BROOKFIELD",
        "state": "IL",
        "postalCode": "60513-1097"
      },
      {
        "line": [
          "535 S ELM ST"
        ],
        "city": "ITASCA",
        "state": "IL",
        "postalCode": "60143-2187"
      },
      {
        "line": [
          "730 W. Hintz Rd"
        ],
        "city": "WHEELING",
        "state": "IL",
        "postalCode": "60090-5501"
      },
      {
        "line": [
          "600 Dunham Rd."
        ],
        "city": "SAINT CHARLES",
        "state": "IL",
        "postalCode": "60174-7885"
      },
      {
        "line": [
          "1300 W Spring St."
        ],
        "city": "SOUTH ELGIN",
        "state": "IL",
        "postalCode": "60177-2972"
      },
      {
        "line": [
          "5336 N WESTERN AVE"
        ],
        "city": "CHICAGO",
        "state": "IL",
        "postalCode": "60625-2310"
      },
      {
        "line": [
          "2150 W Golf Rd"
        ],
        "city": "HOFFMAN ESTATES",
        "state": "IL",
        "postalCode": "60169-5604"
      },
      {
        "line": [
          "5061 N PULASKI RD"
        ],
        "city": "CHICAGO",
        "state": "IL",
        "postalCode": "60630-2706"
      },
      {
        "line": [
          "500 Asbury Ave"
        ],
        "city": "EVANSTON",
        "state": "IL",
        "postalCode": "60202-2724"
      },
      {
        "line": [
          "1515 Ogden Ave"
        ],
        "city": "LA GRANGE PARK",
        "state": "IL",
        "postalCode": "60526-1721"
      },
      {
        "line": [
          "4501 CONCORD LN"
        ],
        "city": "NORTHBROOK",
        "state": "IL",
        "postalCode": "60062-7163"
      },
      {
        "line": [
          "508 N McLean Blvd"
        ],
        "city": "ELGIN",
        "state": "IL",
        "postalCode": "60123-3253"
      },
      {
        "line": [
          "1221 E Golf Rd"
        ],
        "city": "DES PLAINES",
        "state": "IL",
        "postalCode": "60016-1213"
      },
      {
        "line": [
          "5801 SOUTH CASS AVE"
        ],
        "city": "WESTMONT",
        "state": "IL",
        "postalCode": "60559-2300"
      },
      {
        "line": [
          "2180 Manchester Rd."
        ],
        "city": "WHEATON",
        "state": "IL",
        "postalCode": "60187-4580"
      },
      {
        "line": [
          "215 55TH STREET"
        ],
        "city": "CLARENDON HILLS",
        "state": "IL",
        "postalCode": "60514-1578"
      },
      {
        "line": [
          "1426 W Birchwood"
        ],
        "city": "CHICAGO",
        "state": "IL",
        "postalCode": "60626-1807"
      },
      {
        "line": [
          "200 W Martin Ave"
        ],
        "city": "NAPERVILLE",
        "state": "IL",
        "postalCode": "60540-6516"
      },
      {
        "line": [
          "4900 N Bernard St"
        ],
        "city": "CHICAGO",
        "state": "IL",
        "postalCode": "60625-5146"
      },
      {
        "line": [
          "1750 Elmhurst Rd."
        ],
        "city": "DES PLAINES",
        "state": "IL",
        "postalCode": "60018-1862"
      },
      {
        "line": [
          "7000 N MCCORMICK BLVD"
        ],
        "city": "LINCOLNWOOD",
        "state": "IL",
        "postalCode": "60712-2726"
      },
      {
        "line": [
          "4225 Kirchoff Rd"
        ],
        "city": "ROLLING MEADOWS",
        "state": "IL",
        "postalCode": "60008-2005"
      },
      {
        "line": [
          "3800 N California Ave"
        ],
        "city": "CHICAGO",
        "state": "IL",
        "postalCode": "60618-3606"
      },
      {
        "line": [
          "3901 Glenview Rd"
        ],
        "city": "GLENVIEW",
        "state": "IL",
        "postalCode": "60025-2467"
      },
      {
        "line": [
          "6801 HIGHGROVE BLVD"
        ],
        "city": "WILLOWBROOK",
        "state": "IL",
        "postalCode": "60527-7585"
      },
      {
        "line": [
          "600 WEST OGDEN AVE"
        ],
        "city": "HINSDALE",
        "state": "IL",
        "postalCode": "60521-3158"
      },
      {
        "line": [
          "9777 N. Greenwood Ave"
        ],
        "city": "NILES",
        "state": "IL",
        "postalCode": "60714-1002"
      },
      {
        "line": [
          "1101 W. Bartlett Rd."
        ],
        "city": "BARTLETT",
        "state": "IL",
        "postalCode": "60103-1594"
      },
      {
        "line": [
          "8021 W 151ST STREET"
        ],
        "city": "ORLAND PARK",
        "state": "IL",
        "postalCode": "60462-2963"
      },
      {
        "line": [
          "11860 SW Hwy"
        ],
        "city": "PALOS HEIGHTS",
        "state": "IL",
        "postalCode": "60463-1036"
      },
      {
        "line": [
          "2355 Royal Blvd"
        ],
        "city": "ELGIN",
        "state": "IL",
        "postalCode": "60123-4716"
      },
      {
        "line": [
          "1511 Greenwood Rd"
        ],
        "city": "GLENVIEW",
        "state": "IL",
        "postalCode": "60026-1513"
      },
      {
        "line": [
          "215 BARTLETT RD"
        ],
        "city": "BARRINGTON",
        "state": "IL",
        "postalCode": "60010-9443"
      },
      {
        "line": [
          "7435 W Talcott Ave"
        ],
        "city": "CHICAGO",
        "state": "IL",
        "postalCode": "60631-3707"
      },
      {
        "line": [
          "610 PETERSON RD (HIGHWAY #137)"
        ],
        "city": "LIBERTYVILLE",
        "state": "IL",
        "postalCode": "60048-1014"
      },
      {
        "line": [
          "1700 E Lake Ave"
        ],
        "city": "GLENVIEW",
        "state": "IL",
        "postalCode": "60025-2000"
      },
      {
        "line": [
          "1425 W Estes Ave"
        ],
        "city": "CHICAGO",
        "state": "IL",
        "postalCode": "60626-2625"
      },
      {
        "line": [
          "1545 Barrington Rd"
        ],
        "city": "HOFFMAN ESTATES",
        "state": "IL",
        "postalCode": "60169-1018"
      },
      {
        "line": [
          "303 E Washington St"
        ],
        "city": "BENSENVILLE",
        "state": "IL",
        "postalCode": "60106-3515"
      },
      {
        "line": [
          "1400 Brookdale Rd."
        ],
        "city": "NAPERVILLE",
        "state": "IL",
        "postalCode": "60563-2126"
      },
      {
        "line": [
          "2355 ROYAL BLVD"
        ],
        "city": "ELGIN",
        "state": "IL",
        "postalCode": "60123-4716"
      },
      {
        "line": [
          "6930 W Touhy Avenue"
        ],
        "city": "NILES",
        "state": "IL",
        "postalCode": "60714-4522"
      },
      {
        "line": [
          "2960 N Lake Shore Drive"
        ],
        "city": "CHICAGO",
        "state": "IL",
        "postalCode": "60657-4945"
      },
      {
        "line": [
          "5101 SOUTH WILLOW SPRINGS RD"
        ],
        "city": "LA GRANGE",
        "state": "IL",
        "postalCode": "60525-2600"
      },
      {
        "line": [
          "815 E IRVING PARK RD"
        ],
        "city": "STREAMWOOD",
        "state": "IL",
        "postalCode": "60107-3073"
      },
      {
        "line": [
          "1750 ELMHURST RD"
        ],
        "city": "DES PLAINES",
        "state": "IL",
        "postalCode": "60018-1862"
      },
      {
        "line": [
          "270 Skokie Blvd"
        ],
        "city": "NORTHBROOK",
        "state": "IL",
        "postalCode": "60062-1612"
      },
      {
        "line": [
          "165 S Bloomingdale Rd"
        ],
        "city": "BLOOMINGDALE",
        "state": "IL",
        "postalCode": "60108-1434"
      },
      {
        "line": [
          "1651 W Lake St"
        ],
        "city": "ADDISON",
        "state": "IL",
        "postalCode": "60101-6708"
      },
      {
        "line": [
          "250 VILLAGE DR"
        ],
        "city": "DOWNERS GROVE",
        "state": "IL",
        "postalCode": "60516-3048"
      },
      {
        "line": [
          "7618 N Sheridan Rd"
        ],
        "city": "CHICAGO",
        "state": "IL",
        "postalCode": "60626-1499"
      },
      {
        "line": [
          "6300 Clarendon Hills Rd."
        ],
        "city": "WILLOWBROOK",
        "state": "IL",
        "postalCode": "60527-2133"
      },
      {
        "line": [
          "1571 OGDEN AVE"
        ],
        "city": "LA GRANGE PARK",
        "state": "IL",
        "postalCode": "60526-1723"
      },
      {
        "line": [
          "210 N Springfield Ave"
        ],
        "city": "JOLIET",
        "state": "IL",
        "postalCode": "60435-6589"
      },
      {
        "line": [
          "6016 N. Nina Ave."
        ],
        "city": "CHICAGO",
        "state": "IL",
        "postalCode": "60631-2439"
      },
      {
        "line": [
          "7370 W Talcott Avenue"
        ],
        "city": "CHICAGO",
        "state": "IL",
        "postalCode": "60631-3751"
      },
      {
        "line": [
          "1200 North Arlingtion Heights Rd."
        ],
        "city": "ARLINGTON HEIGHTS",
        "state": "IL",
        "postalCode": "60004-4741"
      },
      {
        "line": [
          "1635 Ardmore Ave"
        ],
        "city": "VILLA PARK",
        "state": "IL",
        "postalCode": "60181-3742"
      },
      {
        "line": [
          "720 RAYMOND DRIVE"
        ],
        "city": "NAPERVILLE",
        "state": "IL",
        "postalCode": "60563-9758"
      },
      {
        "line": [
          "7432 W TALCOTT AVE"
        ],
        "city": "CHICAGO",
        "state": "IL",
        "postalCode": "60631-3711"
      },
      {
        "line": [
          "5050 W Touhy"
        ],
        "city": "SKOKIE",
        "state": "IL",
        "postalCode": "60077-3542"
      },
      {
        "line": [
          "4225 KIRCHOFF RD"
        ],
        "city": "ROLLING MEADOWS",
        "state": "IL",
        "postalCode": "60008-2005"
      },
      {
        "line": [
          "1950 Larkin Ave"
        ],
        "city": "ELGIN",
        "state": "IL",
        "postalCode": "60123-5843"
      },
      {
        "line": [
          "1425 W ESTES AVE"
        ],
        "city": "CHICAGO",
        "state": "IL",
        "postalCode": "60712-4029"
      },
      {
        "line": [
          "14601 John Humphrey Dr."
        ],
        "city": "ORLAND PARK",
        "state": "IL",
        "postalCode": "60462-2641"
      },
      {
        "line": [
          "407 63rd St."
        ],
        "city": "WESTMONT",
        "state": "IL",
        "postalCode": "60559-2910"
      },
      {
        "line": [
          "1571 W. Ogden"
        ],
        "city": "LA GRANGE PARK",
        "state": "IL",
        "postalCode": "60526-1723"
      },
      {
        "line": [
          "1599 N Farnsworth Ave"
        ],
        "city": "AURORA",
        "state": "IL",
        "postalCode": "60505-1530"
      },
      {
        "line": [
          "80 W NORTHWEST HWY"
        ],
        "city": "PALATINE",
        "state": "IL",
        "postalCode": "60067-3582"
      },
      {
        "line": [
          "9300 Ballard Rd"
        ],
        "city": "DES PLAINES",
        "state": "IL",
        "postalCode": "60016-4904"
      },
      {
        "line": [
          "180 S. State St"
        ],
        "city": "ELGIN",
        "state": "IL",
        "postalCode": "60123-6429"
      },
      {
        "line": [
          "2901 S Wolf Rd"
        ],
        "city": "WESTCHESTER",
        "state": "IL",
        "postalCode": "60154-5623"
      },
      {
        "line": [
          "111 E Washington St."
        ],
        "city": "BENSENVILLE",
        "state": "IL",
        "postalCode": "60106-2674"
      },
      {
        "line": [
          "1991 Randi Dr."
        ],
        "city": "AURORA",
        "state": "IL",
        "postalCode": "60504-4757"
      },
      {
        "line": [
          "1001 N Greenwood Ave"
        ],
        "city": "PARK RIDGE",
        "state": "IL",
        "postalCode": "60068-2054"
      },
      {
        "line": [
          "1401 N California Ave"
        ],
        "city": "CHICAGO",
        "state": "IL",
        "postalCode": "60622-1602"
      },
      {
        "line": [
          "1940 Nerge Rd"
        ],
        "city": "ELK GROVE VILLAGE",
        "state": "IL",
        "postalCode": "60007-2972"
      },
      {
        "line": [
          "1366 W FULLERTON AVE"
        ],
        "city": "CHICAGO",
        "state": "IL",
        "postalCode": "60614-2129"
      },
      {
        "line": [
          "795 N Rand Rd"
        ],
        "city": "LAKE ZURICH",
        "state": "IL",
        "postalCode": "60047-2453"
      },
      {
        "line": [
          "500 Ashbury St"
        ],
        "city": "EVANSTON",
        "state": "IL",
        "postalCode": "60202-2724"
      },
      {
        "line": [
          "8700 31ST STREET"
        ],
        "city": "BROOKFIELD",
        "state": "IL",
        "postalCode": "60513-1000"
      },
      {
        "line": [
          "275 E. Army Trail Rd"
        ],
        "city": "BLOOMINGDALE",
        "state": "IL",
        "postalCode": "60108-2198"
      },
      {
        "line": [
          "5520 Lincoln Ave"
        ],
        "city": "MORTON GROVE",
        "state": "IL",
        "postalCode": "60053-3416"
      },
      {
        "line": [
          "555 McHenry Rd"
        ],
        "city": "WHEELING",
        "state": "IL",
        "postalCode": "60090-3856"
      },
      {
        "line": [
          "5831 N Northwest Hwy"
        ],
        "city": "CHICAGO",
        "state": "IL",
        "postalCode": "60631-2642"
      },
      {
        "line": [
          "350 W Schaumburg"
        ],
        "city": "SCHAUMBURG",
        "state": "IL",
        "postalCode": "60194-3400"
      },
      {
        "line": [
          "400 West Sullivan Road"
        ],
        "city": "AURORA",
        "state": "IL",
        "postalCode": "60506-1452"
      },
      {
        "line": [
          "6801 High Grove Blvd"
        ],
        "city": "WILLOWBROOK",
        "state": "IL",
        "postalCode": "60527-7585"
      },
      {
        "line": [
          "120 NORTH OAK STREET"
        ],
        "city": "HINSDALE",
        "state": "IL",
        "postalCode": "60521-3829"
      },
      {
        "line": [
          "1001 North Greenwood Ave"
        ],
        "city": "PARK RIDGE",
        "state": "IL",
        "postalCode": "60068-2054"
      },
      {
        "line": [
          "12450 Walker Rd"
        ],
        "city": "LEMONT",
        "state": "IL",
        "postalCode": "60439-9301"
      },
      {
        "line": [
          "1601 N Western Ave"
        ],
        "city": "PARK RIDGE",
        "state": "IL",
        "postalCode": "60068-1233"
      },
      {
        "line": [
          "6501 SOUTH CASS"
        ],
        "city": "WESTMONT",
        "state": "IL",
        "postalCode": "60559-3200"
      },
      {
        "line": [
          "1920 NERGE RD"
        ],
        "city": "ELK GROVE VILLAGE",
        "state": "IL",
        "postalCode": "60007-2972"
      },
      {
        "line": [
          "1801 35th Street"
        ],
        "city": "OAK BROOK",
        "state": "IL",
        "postalCode": "60523-2699"
      },
      {
        "line": [
          "6501 S. Cass Ave."
        ],
        "city": "WESTMONT",
        "state": "IL",
        "postalCode": "60559-3200"
      },
      {
        "line": [
          "1200 N Arlington Heights Rd."
        ],
        "city": "ARLINGTON HEIGHTS",
        "state": "IL",
        "postalCode": "60004-4741"
      },
      {
        "line": [
          "605 Edward Dr."
        ],
        "city": "ROMEOVILLE",
        "state": "IL",
        "postalCode": "60446-6507"
      },
      {
        "line": [
          "400 W Butterfield Rd"
        ],
        "city": "ELMHURST",
        "state": "IL",
        "postalCode": "60126-4983"
      },
      {
        "line": [
          "16W301 91st St."
        ],
        "city": "WILLOWBROOK",
        "state": "IL",
        "postalCode": "60527-6368"
      },
      {
        "line": [
          "300 N River Rd"
        ],
        "city": "DES PLAINES",
        "state": "IL",
        "postalCode": "60016-1211"
      },
      {
        "line": [
          "7350 N SHERIDAN RD"
        ],
        "city": "CHICAGO",
        "state": "IL",
        "postalCode": "60626-2017"
      },
      {
        "line": [
          "2330 Galena Blvd"
        ],
        "city": "AURORA",
        "state": "IL",
        "postalCode": "60506-4246"
      },
      {
        "line": [
          "276 E. Irving Park Rd."
        ],
        "city": "WOOD DALE",
        "state": "IL",
        "postalCode": "60191-2039"
      },
      {
        "line": [
          "311 Edgewater Dr"
        ],
        "city": "BLOOMINGDALE",
        "state": "IL",
        "postalCode": "60108-1979"
      },
      {
        "line": [
          "134 N MCLEAN BLVD"
        ],
        "city": "ELGIN",
        "state": "IL",
        "postalCode": "60123-5169"
      },
      {
        "line": [
          "6016 N. Nina Ave."
        ],
        "city": "CHICAGO",
        "state": "IL",
        "postalCode": "60631-2410"
      },
      {
        "line": [
          "1515 Barrington Rd"
        ],
        "city": "HOFFMAN ESTATES",
        "state": "IL",
        "postalCode": "60169-1000"
      },
      {
        "line": [
          "975 MARTHA STREET"
        ],
        "city": "ELK GROVE VILLAGE",
        "state": "IL",
        "postalCode": "60007-3414"
      },
      {
        "line": [
          "400 W Sullivan Rd."
        ],
        "city": "AURORA",
        "state": "IL",
        "postalCode": "60506-1452"
      },
      {
        "line": [
          "2451 W Touhy"
        ],
        "city": "CHICAGO",
        "state": "IL",
        "postalCode": "60645-3309"
      },
      {
        "line": [
          "2200 Golf Rd."
        ],
        "city": "GLENVIEW",
        "state": "IL",
        "postalCode": "60025-4903"
      },
      {
        "line": [
          "701 NORTH LAGRANGE ROAD"
        ],
        "city": "LA GRANGE PARK",
        "state": "IL",
        "postalCode": "60526-1520"
      },
      {
        "line": [
          "0N801 Friendship Way"
        ],
        "city": "GENEVA",
        "state": "IL",
        "postalCode": "60134-6202"
      },
      {
        "line": [
          "1347 CRYSTAL AVENUE"
        ],
        "city": "NAPERVILLE",
        "state": "IL",
        "postalCode": "60563-0149"
      },
      {
        "line": [
          "111 E WASHINGTON ST"
        ],
        "city": "BENSENVILLE",
        "state": "IL",
        "postalCode": "60106-2674"
      },
      {
        "line": [
          "7000 McCormick Blvd"
        ],
        "city": "LINCOLNWOOD",
        "state": "IL",
        "postalCode": "60712-2726"
      },
      {
        "line": [
          "555 McHenry Rd."
        ],
        "city": "WHEELING",
        "state": "IL",
        "postalCode": "60090-3856"
      },
      {
        "line": [
          "820 W Lawrence Ave"
        ],
        "city": "CHICAGO",
        "state": "IL",
        "postalCode": "60640-4213"
      },
      {
        "line": [
          "421 Doris"
        ],
        "city": "JOLIET",
        "state": "IL",
        "postalCode": "60433-2569"
      },
      {
        "line": [
          "4200 Lacey Rd."
        ],
        "city": "DOWNERS GROVE",
        "state": "IL",
        "postalCode": "60515-3473"
      },
      {
        "line": [
          "1250 West Central Road"
        ],
        "city": "ARLINGTON HEIGHTS",
        "state": "IL",
        "postalCode": "60005-2489"
      },
      {
        "line": [
          "1660 Oakton Pl"
        ],
        "city": "DES PLAINES",
        "state": "IL",
        "postalCode": "60018-2045"
      },
      {
        "line": [
          "9246 S ROBERTS RD"
        ],
        "city": "HICKORY HILLS",
        "state": "IL",
        "postalCode": "60457-2066"
      },
      {
        "line": [
          "1700 East Lake St."
        ],
        "city": "GLENVIEW",
        "state": "IL",
        "postalCode": "60025-2000"
      },
      {
        "line": [
          "800 w Oakton St."
        ],
        "city": "ARLINGTON HEIGHTS",
        "state": "IL",
        "postalCode": "60004-4602"
      },
      {
        "line": [
          "5645 W ADDISON ST"
        ],
        "city": "CHICAGO",
        "state": "IL",
        "postalCode": "60634-4403"
      },
      {
        "line": [
          "276 E. IRVING PARK RD"
        ],
        "city": "WOOD DALE",
        "state": "IL",
        "postalCode": "60191-2039"
      },
      {
        "line": [
          "200 MARTIN AVE"
        ],
        "city": "NAPERVILLE",
        "state": "IL",
        "postalCode": "60540-6516"
      },
      {
        "line": [
          "512 EAST OGDEN AVENUE"
        ],
        "city": "WESTMONT",
        "state": "IL",
        "postalCode": "60559-1228"
      },
      {
        "line": [
          "2013 Midwest Rd"
        ],
        "city": "OAK BROOK",
        "state": "IL",
        "postalCode": "60523-1312"
      },
      {
        "line": [
          "300 W 22nd St."
        ],
        "city": "LOMBARD",
        "state": "IL",
        "postalCode": "60148-5417"
      },
      {
        "line": [
          "0N801 Friendship Way"
        ],
        "city": "GENEVA",
        "state": "IL",
        "postalCode": "60134-6206"
      },
      {
        "line": [
          "2800 Des Plaines Ave"
        ],
        "city": "RIVERSIDE",
        "state": "IL",
        "postalCode": "60546-1851"
      },
      {
        "line": [
          "800 S River Rd"
        ],
        "city": "DES PLAINES",
        "state": "IL",
        "postalCode": "60016-8419"
      },
      {
        "line": [
          "9615 KNOX AVE"
        ],
        "city": "SKOKIE",
        "state": "IL",
        "postalCode": "60076-1219"
      },
      {
        "line": [
          "351 Lily Cache Ln"
        ],
        "city": "BOLINGBROOK",
        "state": "IL",
        "postalCode": "60440-3441"
      },
      {
        "line": [
          "1401 N California"
        ],
        "city": "CHICAGO",
        "state": "IL",
        "postalCode": "60622-1602"
      },
      {
        "line": [
          "715 W Central Rd"
        ],
        "city": "ARLINGTON HEIGHTS",
        "state": "IL",
        "postalCode": "60005-2348"
      },
      {
        "line": [
          "210 Springfield Ave"
        ],
        "city": "JOLIET",
        "state": "IL",
        "postalCode": "60435-6589"
      },
      {
        "line": [
          "210 Airport Rd"
        ],
        "city": "NORTH AURORA",
        "state": "IL",
        "postalCode": "60542-1700"
      },
      {
        "line": [
          "1800 Riverwoods Dr."
        ],
        "city": "MELROSE PARK",
        "state": "IL",
        "postalCode": "60160-1639"
      },
      {
        "line": [
          "7850 W College Dr"
        ],
        "city": "PALOS HEIGHTS",
        "state": "IL",
        "postalCode": "60463-1010"
      },
      {
        "line": [
          "1426 W Birchwood Ave"
        ],
        "city": "CHICAGO",
        "state": "IL",
        "postalCode": "60626-1807"
      },
      {
        "line": [
          "510 N. Greenwood Ave"
        ],
        "city": "PARK RIDGE",
        "state": "IL",
        "postalCode": "60068-3395"
      },
      {
        "line": [
          "759 Kane St."
        ],
        "city": "SOUTH ELGIN",
        "state": "IL",
        "postalCode": "60177-1418"
      },
      {
        "line": [
          "2000 W LAKE ST"
        ],
        "city": "HANOVER PARK",
        "state": "IL",
        "postalCode": "60133-4302"
      },
      {
        "line": [
          "8425 Waukegan Rd"
        ],
        "city": "MORTON GROVE",
        "state": "IL",
        "postalCode": "60053-2202"
      },
      {
        "line": [
          "1270 FRANCISCAN DR"
        ],
        "city": "LEMONT",
        "state": "IL",
        "postalCode": "60439-3787"
      },
      {
        "line": [
          "150 WEILAND RD"
        ],
        "city": "BUFFALO GROVE",
        "state": "IL",
        "postalCode": "60089-7047"
      },
      {
        "line": [
          "6800 Joliet Rd"
        ],
        "city": "LA GRANGE",
        "state": "IL",
        "postalCode": "60525-4460"
      },
      {
        "line": [
          "701 N La Grange Rd"
        ],
        "city": "LA GRANGE PARK",
        "state": "IL",
        "postalCode": "60526-1520"
      },
      {
        "line": [
          "2308 OLD HICKS RD"
        ],
        "city": "LAKE ZURICH",
        "state": "IL",
        "postalCode": "60047-8373"
      },
      {
        "line": [
          "6141 N PULASKI RD"
        ],
        "city": "CHICAGO",
        "state": "IL",
        "postalCode": "60646-5215"
      },
      {
        "line": [
          "1420 South Barrington Road"
        ],
        "city": "BARRINGTON",
        "state": "IL",
        "postalCode": "60010-5206"
      },
      {
        "line": [
          "508 N McLean Blvd"
        ],
        "city": "ELGIN",
        "state": "IL",
        "postalCode": "60123-2353"
      },
      {
        "line": [
          "222 N Hammes"
        ],
        "city": "JOLIET",
        "state": "IL",
        "postalCode": "60435-8161"
      },
      {
        "line": [
          "10 North Summit Ave"
        ],
        "city": "PARK RIDGE",
        "state": "IL",
        "postalCode": "60068-3310"
      },
      {
        "line": [
          "350 W SCHAUMBURG RD"
        ],
        "city": "SCHAUMBURG",
        "state": "IL",
        "postalCode": "60194-3464"
      },
      {
        "line": [
          "971 Bode Rd."
        ],
        "city": "ELGIN",
        "state": "IL",
        "postalCode": "60120-4523"
      },
      {
        "line": [
          "929 W Foster Ave"
        ],
        "city": "CHICAGO",
        "state": "IL",
        "postalCode": "60640-1491"
      },
      {
        "line": [
          "10501 EMILIE LANE"
        ],
        "city": "ORLAND PARK",
        "state": "IL",
        "postalCode": "60467-8872"
      },
      {
        "line": [
          "250 Water Stone Circle"
        ],
        "city": "JOLIET",
        "state": "IL",
        "postalCode": "60431-8313"
      },
      {
        "line": [
          "14718 S EASTERN AVE"
        ],
        "city": "PLAINFIELD",
        "state": "IL",
        "postalCode": "60544-8870"
      },
      {
        "line": [
          "1665 Oakton Pl"
        ],
        "city": "DES PLAINES",
        "state": "IL",
        "postalCode": "60018-6301"
      },
      {
        "line": [
          "1050 S EUCLID AVE"
        ],
        "city": "ELMHURST",
        "state": "IL",
        "postalCode": "60126-5178"
      },
      {
        "line": [
          "4021 W BELMONT AVE"
        ],
        "city": "CHICAGO",
        "state": "IL",
        "postalCode": "60641-4771"
      },
      {
        "line": [
          "150 S. Frontage Rd."
        ],
        "city": "WILLOWBROOK",
        "state": "IL",
        "postalCode": "60527-6927"
      },
      {
        "line": [
          "1725 BALLARD RD"
        ],
        "city": "PARK RIDGE",
        "state": "IL",
        "postalCode": "60068-1005"
      },
      {
        "line": [
          "7370 W Talcott Ave"
        ],
        "city": "CHICAGO",
        "state": "IL",
        "postalCode": "60631-3751"
      },
      {
        "line": [
          "5825 W CERMAK RD"
        ],
        "city": "CICERO",
        "state": "IL",
        "postalCode": "60804-2134"
      },
      {
        "line": [
          "3919 W Foster Ave"
        ],
        "city": "CHICAGO",
        "state": "IL",
        "postalCode": "60625-6056"
      },
      {
        "line": [
          "300 W 22nd St"
        ],
        "city": "LOMBARD",
        "state": "IL",
        "postalCode": "60148-5417"
      },
      {
        "line": [
          "2901 SOUTH WOLF ROAD"
        ],
        "city": "WESTCHESTER",
        "state": "IL",
        "postalCode": "60154-5623"
      },
      {
        "line": [
          "6300 CLARENDON HILLS ROAD"
        ],
        "city": "WILLOWBROOK",
        "state": "IL",
        "postalCode": "60527-2133"
      },
      {
        "line": [
          "2800 Des Plaines Ave"
        ],
        "city": "RIVERSIDE",
        "state": "IL",
        "postalCode": "60546-1899"
      },
      {
        "line": [
          "129 E. Lake St."
        ],
        "city": "BLOOMINGDALE",
        "state": "IL",
        "postalCode": "60108-1104"
      },
      {
        "line": [
          "3901 Glenview Rd."
        ],
        "city": "GLENVIEW",
        "state": "IL",
        "postalCode": "60025-2467"
      },
      {
        "line": [
          "6840 W Touhy Ave"
        ],
        "city": "NILES",
        "state": "IL",
        "postalCode": "60714-4520"
      },
      {
        "line": [
          "124 Naden Court"
        ],
        "city": "YORKVILLE",
        "state": "IL",
        "postalCode": "60560-1049"
      },
      {
        "line": [
          "6930 W Touhy Ave."
        ],
        "city": "NILES",
        "state": "IL",
        "postalCode": "60714-4522"
      },
      {
        "line": [
          "339 SOUTH 9TH STREET"
        ],
        "city": "LA GRANGE",
        "state": "IL",
        "postalCode": "60525-6429"
      },
      {
        "line": [
          "431 REMINGTON BLVD"
        ],
        "city": "BOLINGBROOK",
        "state": "IL",
        "postalCode": "60440-4918"
      },
      {
        "line": [
          "11401 S Oakley Ave"
        ],
        "city": "CHICAGO",
        "state": "IL",
        "postalCode": "60643-4197"
      },
      {
        "line": [
          "704 N. McLean Blvd"
        ],
        "city": "SOUTH ELGIN",
        "state": "IL",
        "postalCode": "60177-1478"
      },
      {
        "line": [
          "6631 Milwaukee Ave"
        ],
        "city": "NILES",
        "state": "IL",
        "postalCode": "60714-4416"
      },
      {
        "line": [
          "795 N. Rand Rd"
        ],
        "city": "LAKE ZURICH",
        "state": "IL",
        "postalCode": "60047-2453"
      },
      {
        "line": [
          "3401 Hennepin Dr"
        ],
        "city": "JOLIET",
        "state": "IL",
        "postalCode": "60431-1080"
      },
      {
        "line": [
          "6501 S CASS AVE"
        ],
        "city": "WESTMONT",
        "state": "IL",
        "postalCode": "60559-3200"
      },
      {
        "line": [
          "625 N HARLEM AVE"
        ],
        "city": "OAK PARK",
        "state": "IL",
        "postalCode": "60302-1805"
      },
      {
        "line": [
          "14700 MAIN STREET"
        ],
        "city": "LEMONT",
        "state": "IL",
        "postalCode": "60439-3700"
      },
      {
        "line": [
          "1940 Nerge Rd."
        ],
        "city": "ELK GROVE VILLAGE",
        "state": "IL",
        "postalCode": "60007-2972"
      },
      {
        "line": [
          "480 N Wolf Road"
        ],
        "city": "MELROSE PARK",
        "state": "IL",
        "postalCode": "60164-1650"
      },
      {
        "line": [
          "13950 Main St."
        ],
        "city": "LEMONT",
        "state": "IL",
        "postalCode": "60439-3701"
      },
      {
        "line": [
          "760 W. Hintz Rd"
        ],
        "city": "WHEELING",
        "state": "IL",
        "postalCode": "60090-1000"
      },
      {
        "line": [
          "407 63rd St"
        ],
        "city": "WESTMONT",
        "state": "IL",
        "postalCode": "60559-2910"
      },
      {
        "line": [
          "3121 N SHERIDAN RD"
        ],
        "city": "CHICAGO",
        "state": "IL",
        "postalCode": "60657-4945"
      }
    ],
    "extension": [
      {
        "url": "https://fhir.athena.io/StructureDefinition/ah-practice",
        "valueReference": {
          "reference": "Organization/a-1.Practice-380"
        }
      },
      {
        "url": "https://fhir.athena.io/StructureDefinition/ah-brand",
        "valueReference": {
          "reference": "Organization/a-380.Brand-1"
        }
      }
    ]
  },
  "fullUrl": "urn:uuid:93bdcc7b-3081-547f-8f50-09e20df0d473"
}