{
  "resource": {
    "resourceType": "Organization",
    "id": "c4815967-b5e0-505c-85a8-d89a8ede9931",
    "name": "Alliance Hand and Wrist Surgery, PLLC",
    "endpoint": [
      {
        "reference": "Endpoint/27a4e967-47aa-5a9c-a572-b8297ee268a2"
      },
      {
        "reference": "Endpoint/c2510e05-6d0f-59b2-834f-6086a59ac7ae"
      }
    ],
    "identifier": [
      {
        "system": "http://hl7.org/fhir/sid/us-npi",
        "value": "1780202499"
      }
    ],
    "address": [
      {
        "line": [
          "811 W INTERSTATE 20 UNIT G10"
        ],
        "city": "ARLINGTON",
        "state": "TX",
        "postalCode": "76017-5871"
      },
      {
        "line": [
          "800 W. Randol Mill Rd."
        ],
        "city": "ARLINGTON",
        "state": "TX",
        "postalCode": "76012-2572"
      },
      {
        "line": [
          "4925 GOLDEN TRIANGLE BLVD STE 311"
        ],
        "city": "FORT WORTH",
        "state": "TX",
        "postalCode": "76244-4493"
      },
      {
        "line": [
          "1605 AIRPORT FWY STE 100"
        ],
        "city": "BEDFORD",
        "state": "TX",
        "postalCode": "76021-5730"
      },
      {
        "line": [
          "10840 Texas Health Trail, Ste 100"
        ],
        "city": "Fort Worth",
        "state": "TX",
        "postalCode": "76244-6847"
      },
      {
        "line": [
          "280 Regency Pkwy"
        ],
        "city": "MANSFIELD",
        "state": "TX",
        "postalCode": "76063-7823"
      },
      {
        "line": [
          "1668 KELLER PKWY"
        ],
        "city": "KELLER",
        "state": "TX",
        "postalCode": "76248-3702"
      },
      {
        "line": [
          "801 W. Interstate 20"
        ],
        "city": "ARLINGTON",
        "state": "TX",
        "postalCode": "76017-5851"
      },
      {
        "line": [
          "10864 Texas Health Trail"
        ],
        "city": "Forth Worth",
        "state": "TX",
        "postalCode": "76244-6847"
      }
    ],
    "extension": [
      {
        "url": "https://fhir.athena.io/StructureDefinition/ah-practice",
        "valueReference": {
          "reference": "Organization/a-1.Practice-22294"
        }
      },
      {
        "url": "https://fhir.athena.io/StructureDefinition/ah-brand",
        "valueReference": {
          "reference": "Organization/a-22294.Brand-1"
        }
      }
    ]
  },
  "fullUrl": "urn:uuid:c4815967-b5e0-505c-85a8-d89a8ede9931"
}