{
  "resource": {
    "resourceType": "Organization",
    "id": "dc8474ef-e0ec-5aeb-9e2a-976d158193d9",
    "name": "United Physicians, INC",
    "endpoint": [
      {
        "reference": "Endpoint/27a4e967-47aa-5a9c-a572-b8297ee268a2"
      },
      {
        "reference": "Endpoint/fc212b46-49c9-5fb4-857f-f90bf751bda6"
      }
    ],
    "identifier": [
      {
        "system": "http://hl7.org/fhir/sid/us-npi",
        "value": "1285022152"
      }
    ],
    "address": [
      {
        "line": [
          "455 S Livernois Rd"
        ],
        "city": "ROCHESTER",
        "state": "MI",
        "postalCode": "48307-1111"
      },
      {
        "line": [
          "3290 W Big Beaver Rd",
          "Ste 420"
        ],
        "city": "TROY",
        "state": "MI",
        "postalCode": "48084-2931"
      },
      {
        "line": [
          "2649 Crooks Rd"
        ],
        "city": "TROY",
        "state": "MI",
        "postalCode": "48084-4714"
      },
      {
        "line": [
          "595 Barclay Circle"
        ],
        "city": "ROCHESTER",
        "state": "MI",
        "postalCode": "48307-5802"
      },
      {
        "line": [
          "6700 N Rochester Rd"
        ],
        "city": "ROCHESTER",
        "state": "MI",
        "postalCode": "48306-4378"
      },
      {
        "line": [
          "2221 Livernois"
        ],
        "city": "TROY",
        "state": "MI",
        "postalCode": "48083-1603"
      },
      {
        "line": [
          "441 S  Livernois Rd",
          "Suite 185"
        ],
        "city": "ROCHESTER",
        "state": "MI",
        "postalCode": "48307-1871"
      },
      {
        "line": [
          "1950 E  Wattles Rd"
        ],
        "city": "TROY",
        "state": "MI",
        "postalCode": "48098-5099"
      },
      {
        "line": [
          "1200 W 12 Mile Rd"
        ],
        "city": "MADISON HEIGHTS",
        "state": "MI",
        "postalCode": "48071-4439"
      },
      {
        "line": [
          "21 S Main St"
        ],
        "city": "CLAWSON",
        "state": "MI",
        "postalCode": "48017-2061"
      },
      {
        "line": [
          "17070 W 12 Mile Rd"
        ],
        "city": "SOUTHFIELD",
        "state": "MI",
        "postalCode": "48076-2212"
      }
    ],
    "extension": [
      {
        "url": "https://fhir.athena.io/StructureDefinition/ah-practice",
        "valueReference": {
          "reference": "Organization/a-1.Practice-10474"
        }
      },
      {
        "url": "https://fhir.athena.io/StructureDefinition/ah-brand",
        "valueReference": {
          "reference": "Organization/a-10474.Brand-1"
        }
      }
    ]
  },
  "fullUrl": "urn:uuid:dc8474ef-e0ec-5aeb-9e2a-976d158193d9"
}