{
  "resource": {
    "resourceType": "Organization",
    "id": "02eec1d2-f0c2-5f0d-bc04-2a2b827fe216",
    "name": "Boulware Ross Dozier Collins",
    "endpoint": [
      {
        "reference": "Endpoint/27a4e967-47aa-5a9c-a572-b8297ee268a2"
      },
      {
        "reference": "Endpoint/b676f490-e782-58a4-9a30-3d0eebb41145"
      }
    ],
    "identifier": [
      {
        "system": "http://hl7.org/fhir/sid/us-npi",
        "value": "1568502284"
      }
    ],
    "address": [
      {
        "line": [
          "4483 Pamplico Hwy"
        ],
        "city": "FLORENCE",
        "state": "SC",
        "postalCode": "29505-8502"
      },
      {
        "line": [
          "2350 W Lucas Street"
        ],
        "city": "FLORENCE",
        "state": "SC",
        "postalCode": "29501-1208"
      },
      {
        "line": [
          "805 Pamplico Highway"
        ],
        "city": "FLORENCE",
        "state": "SC",
        "postalCode": "29505-6047"
      },
      {
        "line": [
          "722 S Dargan Street"
        ],
        "city": "FLORENCE",
        "state": "SC",
        "postalCode": "29506-2559"
      },
      {
        "line": [
          "501 S Coit Street"
        ],
        "city": "FLORENCE",
        "state": "SC",
        "postalCode": "29501-5220"
      },
      {
        "line": [
          "2100 Twin Church Road"
        ],
        "city": "FLORENCE",
        "state": "SC",
        "postalCode": "29501-8222"
      },
      {
        "line": [
          "555 E CHEVES STREET"
        ],
        "city": "FLORENCE",
        "state": "SC",
        "postalCode": "29506-2617"
      },
      {
        "line": [
          "555 E Cheves Street"
        ],
        "city": "FLORENCE",
        "state": "SC",
        "postalCode": "29506-2617"
      },
      {
        "line": [
          "501 S COIT ST"
        ],
        "city": "FLORENCE",
        "state": "SC",
        "postalCode": "29501-5220"
      },
      {
        "line": [
          "1508 A North Cashua Drive"
        ],
        "city": "FLORENCE",
        "state": "SC",
        "postalCode": "29501-6970"
      }
    ],
    "extension": [
      {
        "url": "https://fhir.athena.io/StructureDefinition/ah-practice",
        "valueReference": {
          "reference": "Organization/a-1.Practice-13910"
        }
      },
      {
        "url": "https://fhir.athena.io/StructureDefinition/ah-brand",
        "valueReference": {
          "reference": "Organization/a-13910.Brand-1"
        }
      }
    ]
  },
  "fullUrl": "urn:uuid:02eec1d2-f0c2-5f0d-bc04-2a2b827fe216"
}