{
  "resource": {
    "resourceType": "Organization",
    "id": "8f356fb6-b059-5da0-9736-a7d708c47290",
    "name": "Hilton Head Regional Physician Group",
    "endpoint": [
      {
        "reference": "Endpoint/27a4e967-47aa-5a9c-a572-b8297ee268a2"
      },
      {
        "reference": "Endpoint/f9adc65e-24f1-55f6-b6a9-7b250263b59a"
      }
    ],
    "identifier": [
      {
        "system": "http://hl7.org/fhir/sid/us-npi",
        "value": "1548021694"
      }
    ],
    "address": [
      {
        "line": [
          "25 Hospital Center Blvd"
        ],
        "city": "HILTON HEAD ISLAND",
        "state": "SC",
        "postalCode": "29926-2738"
      },
      {
        "line": [
          "4700 WATERS AVE"
        ],
        "city": "SAVANNAH",
        "state": "GA",
        "postalCode": "31404-6220"
      },
      {
        "line": [
          "501 Robertson Blvd"
        ],
        "city": "WALTERBORO",
        "state": "SC",
        "postalCode": "29488-2787"
      },
      {
        "line": [
          "40 Okatie Center BLVD S",
          "Suite 125"
        ],
        "city": "OKATIE",
        "state": "SC",
        "postalCode": "29909-7510"
      },
      {
        "line": [
          "29 PLANTATION PARK DR",
          "STE 203"
        ],
        "city": "BLUFFTON",
        "state": "SC",
        "postalCode": "29910-9008"
      },
      {
        "line": [
          "65 FAIRCHILD ST"
        ],
        "city": "CHARLESTON",
        "state": "SC",
        "postalCode": "29492-7505"
      },
      {
        "line": [
          "1000 Medical Center Dr"
        ],
        "city": "HARDEEVILLE",
        "state": "SC",
        "postalCode": "29927-3446"
      },
      {
        "line": [
          "107 SEAGRASS STATION RD"
        ],
        "city": "BLUFFTON",
        "state": "SC",
        "postalCode": "29910-9549"
      }
    ],
    "extension": [
      {
        "url": "https://fhir.athena.io/StructureDefinition/ah-practice",
        "valueReference": {
          "reference": "Organization/a-1.Practice-30548"
        }
      },
      {
        "url": "https://fhir.athena.io/StructureDefinition/ah-brand",
        "valueReference": {
          "reference": "Organization/a-30548.Brand-1"
        }
      }
    ]
  },
  "fullUrl": "urn:uuid:8f356fb6-b059-5da0-9736-a7d708c47290"
}