{
  "resource": {
    "resourceType": "Organization",
    "id": "f7104aaa-4af4-560c-9166-616c40deddc0",
    "name": "Alma Clinic",
    "endpoint": [
      {
        "reference": "Endpoint/27a4e967-47aa-5a9c-a572-b8297ee268a2"
      },
      {
        "reference": "Endpoint/768ff9c2-3782-5103-b056-8777b56e47db"
      }
    ],
    "identifier": [
      {
        "system": "http://hl7.org/fhir/sid/us-npi",
        "value": "1528451481"
      },
      {
        "system": "http://hl7.org/fhir/sid/us-npi",
        "value": "1780077982"
      },
      {
        "system": "http://hl7.org/fhir/sid/us-npi",
        "value": "1770318180"
      }
    ],
    "address": [
      {
        "line": [
          "163 East Tollison Street"
        ],
        "city": "BAXLEY",
        "state": "GA",
        "postalCode": "31513-0120"
      },
      {
        "line": [
          "3223 Falligant Ave"
        ],
        "city": "SAVANNAH",
        "state": "GA",
        "postalCode": "31404-5339"
      },
      {
        "line": [
          "Building 800",
          "4700 Waters Ave"
        ],
        "city": "SAVANNAH",
        "state": "GA",
        "postalCode": "31404-6220"
      },
      {
        "line": [
          "3243 GLYNN AVE"
        ],
        "city": "BRUNSWICK",
        "state": "GA",
        "postalCode": "31520-4851"
      },
      {
        "line": [
          "25 Hospital Center Blvd"
        ],
        "city": "HILTON HEAD ISLAND",
        "state": "SC",
        "postalCode": "29926-2738"
      },
      {
        "line": [
          "11705 Mercy Blvd"
        ],
        "city": "SAVANNAH",
        "state": "GA",
        "postalCode": "31419-1711"
      },
      {
        "line": [
          "3231 GLYNN AVE"
        ],
        "city": "BRUNSWICK",
        "state": "GA",
        "postalCode": "31520-4851"
      },
      {
        "line": [
          "1707 MEADOWS LANE, STE F",
          "LUCY PIERSON MEDICAL OFFICE BLDG"
        ],
        "city": "VIDALIA",
        "state": "GA",
        "postalCode": "30474-7201"
      },
      {
        "line": [
          "4700 WATERS AVE"
        ],
        "city": "SAVANNAH",
        "state": "GA",
        "postalCode": "31404-6220"
      },
      {
        "line": [
          "11705 MERCY BLVD"
        ],
        "city": "SAVANNAH",
        "state": "GA",
        "postalCode": "31419-1711"
      },
      {
        "line": [
          "247 S MAIN ST"
        ],
        "city": "REIDSVILLE",
        "state": "GA",
        "postalCode": "30453-4605"
      },
      {
        "line": [
          "200 INDUSTRIAL BLVD"
        ],
        "city": "DUBLIN",
        "state": "GA",
        "postalCode": "31021-2981"
      },
      {
        "line": [
          "508 S Rogers St"
        ],
        "city": "POOLER",
        "state": "GA",
        "postalCode": "31322-3116"
      },
      {
        "line": [
          "2000 DAN PROCTOR DR"
        ],
        "city": "SAINT MARYS",
        "state": "GA",
        "postalCode": "31558-3810"
      },
      {
        "line": [
          "210 East DeRenne Ave"
        ],
        "city": "SAVANNAH",
        "state": "GA",
        "postalCode": "31405-6736"
      },
      {
        "line": [
          "2415 PARKWOOD DR"
        ],
        "city": "BRUNSWICK",
        "state": "GA",
        "postalCode": "31520-4722"
      },
      {
        "line": [
          "215 Mims Road"
        ],
        "city": "SYLVANIA",
        "state": "GA",
        "postalCode": "30467-1994"
      },
      {
        "line": [
          "1000 Medical Center"
        ],
        "city": "HARDEEVILLE",
        "state": "SC",
        "postalCode": "29927-3446"
      },
      {
        "line": [
          "3039 Okatie Hwy"
        ],
        "city": "OKATIE",
        "state": "SC",
        "postalCode": "29909-5101"
      },
      {
        "line": [
          "210 E Derenne Ave"
        ],
        "city": "SAVANNAH",
        "state": "GA",
        "postalCode": "31405-6736"
      },
      {
        "line": [
          "Building 800",
          "4700 WATERS AVE"
        ],
        "city": "SAVANNAH",
        "state": "GA",
        "postalCode": "31404-6220"
      },
      {
        "line": [
          "210 E DERENNE AVE"
        ],
        "city": "SAVANNAH",
        "state": "GA",
        "postalCode": "31405-6736"
      },
      {
        "line": [
          "40 Okatie Ctr Blvd",
          "Suite 125"
        ],
        "city": "OKATIE",
        "state": "SC",
        "postalCode": "29909-7507"
      },
      {
        "line": [
          "1499 FAIR RD"
        ],
        "city": "STATESBORO",
        "state": "GA",
        "postalCode": "30458-1683"
      },
      {
        "line": [
          "PO Box 356",
          "300Cedar Street"
        ],
        "city": "METTER",
        "state": "GA",
        "postalCode": "30439-0356"
      },
      {
        "line": [
          "462 E. G. MILES PKWY"
        ],
        "city": "HINESVILLE",
        "state": "GA",
        "postalCode": "31313-4000"
      },
      {
        "line": [
          "1499 FAIR ROAD"
        ],
        "city": "STATESBORO",
        "state": "GA",
        "postalCode": "30458-1683"
      },
      {
        "line": [
          "400 CEDAR ST"
        ],
        "city": "METTER",
        "state": "GA",
        "postalCode": "30439-0597"
      },
      {
        "line": [
          "117 KITE ROAD"
        ],
        "city": "SWAINSBORO",
        "state": "GA",
        "postalCode": "30401-3231"
      },
      {
        "line": [
          "1499 Fair Road"
        ],
        "city": "STATESBORO",
        "state": "GA",
        "postalCode": "30458-1683"
      },
      {
        "line": [
          "5353 Reynolds St"
        ],
        "city": "SAVANNAH",
        "state": "GA",
        "postalCode": "31405-6015"
      },
      {
        "line": [
          "1 Meadows Parkway"
        ],
        "city": "VIDALIA",
        "state": "GA",
        "postalCode": "30474-8759"
      },
      {
        "line": [
          "101 W MULBERRY BLVD STE 140"
        ],
        "city": "SAVANNAH",
        "state": "GA",
        "postalCode": "31407-3507"
      },
      {
        "line": [
          "PO Box 538",
          "411 Pine Street"
        ],
        "city": "SYLVANIA",
        "state": "GA",
        "postalCode": "30467-0539"
      },
      {
        "line": [
          "210 DERENNE AVE"
        ],
        "city": "SAVANNAH",
        "state": "GA",
        "postalCode": "31405-6736"
      },
      {
        "line": [
          "5353 Reynolds St",
          "#4"
        ],
        "city": "SAVANNAH",
        "state": "GA",
        "postalCode": "31405-0597"
      },
      {
        "line": [
          "5353 REYNOLDS ST"
        ],
        "city": "SAVANNAH",
        "state": "GA",
        "postalCode": "31405-6015"
      },
      {
        "line": [
          "200 N RIVER ST"
        ],
        "city": "CLAXTON",
        "state": "GA",
        "postalCode": "30417-1659"
      },
      {
        "line": [
          "459 Hwy 119S"
        ],
        "city": "SPRINGFIELD",
        "state": "GA",
        "postalCode": "31329-3021"
      },
      {
        "line": [
          "700 E Long St"
        ],
        "city": "CLAXTON",
        "state": "GA",
        "postalCode": "30417-5916"
      },
      {
        "line": [
          "931 E Winthrope Ave"
        ],
        "city": "MILLEN",
        "state": "GA",
        "postalCode": "30442-1839"
      },
      {
        "line": [
          "200 Industrial Blvd"
        ],
        "city": "DUBLIN",
        "state": "GA",
        "postalCode": "31021-2981"
      },
      {
        "line": [
          "1499 Fair Rd"
        ],
        "city": "STATESBORO",
        "state": "GA",
        "postalCode": "30458-1683"
      },
      {
        "line": [
          "1 Meadows Pwy"
        ],
        "city": "VIDALIA",
        "state": "GA",
        "postalCode": "30474-8759"
      },
      {
        "line": [
          "815 East 63rd St"
        ],
        "city": "SAVANNAH",
        "state": "GA",
        "postalCode": "31405-4420"
      },
      {
        "line": [
          "210 E DeRenne Ave"
        ],
        "city": "SAVANNAH",
        "state": "GA",
        "postalCode": "31405-6736"
      },
      {
        "line": [
          "17007 HIGHWAY 67"
        ],
        "city": "STATESBORO",
        "state": "GA",
        "postalCode": "30458-2426"
      },
      {
        "line": [
          "12825 White Bluff Road"
        ],
        "city": "SAVANNAH",
        "state": "GA",
        "postalCode": "31406-2993"
      },
      {
        "line": [
          "810 Towne Park Dr Ste 200"
        ],
        "city": "RINCON",
        "state": "GA",
        "postalCode": "31326-5167"
      },
      {
        "line": [
          "1310 Gordon St W"
        ],
        "city": "DOUGLAS",
        "state": "GA",
        "postalCode": "31533-3432"
      },
      {
        "line": [
          "856 US HWY 1 S"
        ],
        "city": "SWAINSBORO",
        "state": "GA",
        "postalCode": "30401-4984"
      }
    ],
    "extension": [
      {
        "url": "https://fhir.athena.io/StructureDefinition/ah-practice",
        "valueReference": {
          "reference": "Organization/a-1.Practice-16403"
        }
      },
      {
        "url": "https://fhir.athena.io/StructureDefinition/ah-brand",
        "valueReference": {
          "reference": "Organization/a-16403.Brand-7"
        }
      }
    ]
  },
  "fullUrl": "urn:uuid:f7104aaa-4af4-560c-9166-616c40deddc0"
}