{
  "resource": {
    "resourceType": "Organization",
    "id": "f8fd32e1-3bfb-596b-b1d8-ac3d63e3aa06",
    "name": "Washington Cardiovascular Institute",
    "endpoint": [
      {
        "reference": "Endpoint/27a4e967-47aa-5a9c-a572-b8297ee268a2"
      },
      {
        "reference": "Endpoint/5c4ffbf1-409b-5dc1-bd68-6f55d428d1d4"
      }
    ],
    "identifier": [
      {
        "system": "http://hl7.org/fhir/sid/us-npi",
        "value": "1205605342"
      },
      {
        "system": "http://hl7.org/fhir/sid/us-npi",
        "value": "1205835485"
      }
    ],
    "address": [
      {
        "line": [
          "299 HURLEY AVE"
        ],
        "city": "ROCKVILLE",
        "state": "MD",
        "postalCode": "20850-3118"
      },
      {
        "line": [
          "2501 MUSGROVE RD"
        ],
        "city": "SILVER SPRING",
        "state": "MD",
        "postalCode": "20904-7128"
      },
      {
        "line": [
          "901 ARCOLA AVE"
        ],
        "city": "SILVER SPRING",
        "state": "MD",
        "postalCode": "20902-3401"
      },
      {
        "line": [
          "900 VAN BUREN ST"
        ],
        "city": "ANNAPOLIS",
        "state": "MD",
        "postalCode": "21043-2124"
      },
      {
        "line": [
          "3001 Hospital Dr."
        ],
        "city": "Cheverly",
        "state": "MD",
        "postalCode": "20785-1189"
      },
      {
        "line": [
          "9106 PINEVIEW LANE"
        ],
        "city": "CLINTON",
        "state": "MD",
        "postalCode": "20735-3229"
      },
      {
        "line": [
          "12325 NEW HAMPSHIRE AVE"
        ],
        "city": "SILVER SPRING",
        "state": "MD",
        "postalCode": "20904-2957"
      },
      {
        "line": [
          "9211 Stuart Ln"
        ],
        "city": "CLINTON",
        "state": "MD",
        "postalCode": "20735-2712"
      },
      {
        "line": [
          "4922 Lasalle Rd"
        ],
        "city": "HYATTSVILLE",
        "state": "MD",
        "postalCode": "20782-3302"
      },
      {
        "line": [
          "5721 Grosvenor Lane"
        ],
        "city": "BETHESDA",
        "state": "MD",
        "postalCode": "20814-1833"
      },
      {
        "line": [
          "4011 RANDOLPH RD"
        ],
        "city": "SILVER SPRING",
        "state": "MD",
        "postalCode": "20902-1054"
      },
      {
        "line": [
          "9500 MEDICAL CENTER DR",
          "STE 450"
        ],
        "city": "UPPER MARLBORO",
        "state": "MD",
        "postalCode": "20774-3725"
      },
      {
        "line": [
          "3000 MCCOMAS AVE"
        ],
        "city": "KENSINGTON",
        "state": "MD",
        "postalCode": "20895-2316"
      },
      {
        "line": [
          "3800 Lottsford Vista Rd"
        ],
        "city": "BOWIE",
        "state": "MD",
        "postalCode": "20721-4018"
      }
    ],
    "extension": [
      {
        "url": "https://fhir.athena.io/StructureDefinition/ah-practice",
        "valueReference": {
          "reference": "Organization/a-1.Practice-10710"
        }
      },
      {
        "url": "https://fhir.athena.io/StructureDefinition/ah-brand",
        "valueReference": {
          "reference": "Organization/a-10710.Brand-1"
        }
      }
    ]
  },
  "fullUrl": "urn:uuid:f8fd32e1-3bfb-596b-b1d8-ac3d63e3aa06"
}