{
  "resource": {
    "resourceType": "Organization",
    "id": "6f3e6543-289c-51fd-bd5d-90ef53755043",
    "name": "Kharis Ephrata Psychiatric",
    "endpoint": [
      {
        "reference": "Endpoint/27a4e967-47aa-5a9c-a572-b8297ee268a2"
      },
      {
        "reference": "Endpoint/5f9c16a6-8b23-5b7e-bb0b-8d74bbb885b1"
      }
    ],
    "identifier": [
      {
        "system": "http://hl7.org/fhir/sid/us-npi",
        "value": "1386393106"
      }
    ],
    "address": [
      {
        "line": [
          "8207 FOREST CITY RD"
        ],
        "city": "ORLANDO",
        "state": "FL",
        "postalCode": "32810-2354"
      },
      {
        "line": [
          "7328 WOODWORTH WAY"
        ],
        "city": "ORLANDO",
        "state": "FL",
        "postalCode": "32818-8743"
      },
      {
        "line": [
          "110 ZACALO WAY"
        ],
        "city": "KISSIMMEE",
        "state": "FL",
        "postalCode": "34743-9536"
      },
      {
        "line": [
          "8 E SUMMIT ST"
        ],
        "city": "APOPKA",
        "state": "FL",
        "postalCode": "32712-4154"
      },
      {
        "line": [
          "274 WILSHIRE BLVD",
          "SUITE 273"
        ],
        "city": "CASSELBERRY",
        "state": "FL",
        "postalCode": "32707-5371"
      },
      {
        "line": [
          "15267 PERDIDO DR"
        ],
        "city": "ORLANDO",
        "state": "FL",
        "postalCode": "32828-5232"
      },
      {
        "line": [
          "1010 BRYNLOR LN"
        ],
        "city": "ORLANDO",
        "state": "FL",
        "postalCode": "32818-6718"
      },
      {
        "line": [
          "1131 W LAKE BRANTLEY RD"
        ],
        "city": "ALTAMONTE SPRINGS",
        "state": "FL",
        "postalCode": "32714-2638"
      },
      {
        "line": [
          "8655 TARRAGON DR"
        ],
        "city": "ORLANDO",
        "state": "FL",
        "postalCode": "32825-3644"
      },
      {
        "line": [
          "935 LAKE SHERWOOD DR"
        ],
        "city": "ORLANDO",
        "state": "FL",
        "postalCode": "32818-6610"
      },
      {
        "line": [
          "250 WILSHIRE BLVD"
        ],
        "city": "CASSELBERRY",
        "state": "FL",
        "postalCode": "32707-5377"
      }
    ],
    "extension": [
      {
        "url": "https://fhir.athena.io/StructureDefinition/ah-practice",
        "valueReference": {
          "reference": "Organization/a-1.Practice-26736"
        }
      },
      {
        "url": "https://fhir.athena.io/StructureDefinition/ah-brand",
        "valueReference": {
          "reference": "Organization/a-26736.Brand-1"
        }
      }
    ]
  },
  "fullUrl": "urn:uuid:6f3e6543-289c-51fd-bd5d-90ef53755043"
}