{
  "resource": {
    "resourceType": "Organization",
    "id": "143fc0d6-aaa6-5766-8db8-e8c1e89f6f12",
    "name": "Dwell Family Doctors",
    "endpoint": [
      {
        "reference": "Endpoint/27a4e967-47aa-5a9c-a572-b8297ee268a2"
      },
      {
        "reference": "Endpoint/3dd8681e-aba2-5421-885f-81c12d0516e5"
      }
    ],
    "identifier": [
      {
        "system": "http://hl7.org/fhir/sid/us-npi",
        "value": "1801127576"
      },
      {
        "system": "http://hl7.org/fhir/sid/us-npi",
        "value": "1134137573"
      },
      {
        "system": "http://hl7.org/fhir/sid/us-npi",
        "value": "1821249657"
      },
      {
        "system": "http://hl7.org/fhir/sid/us-npi",
        "value": "1306137070"
      }
    ],
    "address": [
      {
        "line": [
          "2710 Long Beach Rd"
        ],
        "city": "ARLINGTON",
        "state": "VA",
        "postalCode": "22203-1824"
      },
      {
        "line": [
          "2304 Eastchester Rd"
        ],
        "city": "ARLINGTON",
        "state": "VA",
        "postalCode": "22203-1824"
      },
      {
        "line": [
          "909 Midland Ave"
        ],
        "city": "ARLINGTON",
        "state": "VA",
        "postalCode": "22203-1824"
      },
      {
        "line": [
          "3231 East Tremont Ave"
        ],
        "city": "BRONX",
        "state": "NY",
        "postalCode": "10461-5707"
      },
      {
        "line": [
          "3231 East Tremont Ave\t"
        ],
        "city": "BRONX",
        "state": "NY",
        "postalCode": "10461-5707"
      },
      {
        "line": [
          "2304 Eastchester Rd"
        ],
        "city": "BRONX",
        "state": "NY",
        "postalCode": "10469-5911"
      },
      {
        "line": [
          "1381 White Plains Road"
        ],
        "city": "ARLINGTON",
        "state": "VA",
        "postalCode": "22203-1824"
      },
      {
        "line": [
          "8989 Union TPKE"
        ],
        "city": "Glendale",
        "state": "NY",
        "postalCode": "11385-8010"
      },
      {
        "line": [
          "1381 White Plains Road\t"
        ],
        "city": "BRONX",
        "state": "NY",
        "postalCode": "10462-4101"
      },
      {
        "line": [
          "50 Glen Cove Road"
        ],
        "city": "ARLINGTON",
        "state": "VA",
        "postalCode": "22203-1824"
      },
      {
        "line": [
          "5665 Riverdale Ave"
        ],
        "city": "BRONX",
        "state": "NY",
        "postalCode": "10471-2105"
      },
      {
        "line": [
          "909 Midland Ave"
        ],
        "city": "YONKERS",
        "state": "NY",
        "postalCode": "10704-1092"
      },
      {
        "line": [
          "643 Route 211"
        ],
        "city": "ARLINGTON",
        "state": "VA",
        "postalCode": "22203-1824"
      },
      {
        "line": [
          "808A Hicksville Road"
        ],
        "city": "MASSAPEQUA",
        "state": "NY",
        "postalCode": "11758-7465"
      },
      {
        "line": [
          "643 Route 211"
        ],
        "city": "MIDDLETOWN",
        "state": "NY",
        "postalCode": "10941-1749"
      },
      {
        "line": [
          "155 White Plains Rd",
          "Suite 210"
        ],
        "city": "TARRYTOWN",
        "state": "NY",
        "postalCode": "10591-5653"
      },
      {
        "line": [
          "5665 Riverdale Ave"
        ],
        "city": "ARLINGTON",
        "state": "VA",
        "postalCode": "22203-1824"
      },
      {
        "line": [
          "50 Glen Cove Road",
          "Suite 1B"
        ],
        "city": "GREENVALE",
        "state": "NY",
        "postalCode": "11548-1005"
      },
      {
        "line": [
          "8989 Union TPKE"
        ],
        "city": "ARLINGTON",
        "state": "VA",
        "postalCode": "22203-1824"
      },
      {
        "line": [
          "236 South Main Street"
        ],
        "city": "ARLINGTON",
        "state": "VA",
        "postalCode": "22203-1824"
      },
      {
        "line": [
          "2304 Eastchester Rd\t"
        ],
        "city": "BRONX",
        "state": "NY",
        "postalCode": "10469-5911"
      },
      {
        "line": [
          "808A Hicksville Road"
        ],
        "city": "ARLINGTON",
        "state": "VA",
        "postalCode": "22203-1824"
      },
      {
        "line": [
          "2710 Long Beach Rd",
          "2nd Floor"
        ],
        "city": "OCEANSIDE",
        "state": "NY",
        "postalCode": "11572-2255"
      },
      {
        "line": [
          "1381 White Plains Road"
        ],
        "city": "BRONX",
        "state": "NY",
        "postalCode": "10462-4101"
      }
    ],
    "extension": [
      {
        "url": "https://fhir.athena.io/StructureDefinition/ah-practice",
        "valueReference": {
          "reference": "Organization/a-1.Practice-8042"
        }
      },
      {
        "url": "https://fhir.athena.io/StructureDefinition/ah-brand",
        "valueReference": {
          "reference": "Organization/a-8042.Brand-2"
        }
      }
    ]
  },
  "fullUrl": "urn:uuid:143fc0d6-aaa6-5766-8db8-e8c1e89f6f12"
}