{
  "resource": {
    "resourceType": "Organization",
    "id": "ed453946-a772-543c-939d-92e45e10aa20",
    "name": "ANNAPOLIS NEPHROLOGY ASSOCIATES, LLC",
    "endpoint": [
      {
        "reference": "Endpoint/27a4e967-47aa-5a9c-a572-b8297ee268a2"
      },
      {
        "reference": "Endpoint/fb54da5f-01af-5ccf-ac63-99504b22787e"
      }
    ],
    "identifier": [
      {
        "system": "http://hl7.org/fhir/sid/us-npi",
        "value": "1356982599"
      },
      {
        "system": "http://hl7.org/fhir/sid/us-npi",
        "value": "1063470235"
      }
    ],
    "address": [
      {
        "line": [
          "163 Jennifer Rd"
        ],
        "city": "ANNAPOLIS",
        "state": "MD",
        "postalCode": "21401-4639"
      },
      {
        "line": [
          "2700 South Haven Rd"
        ],
        "city": "ANNAPOLIS",
        "state": "MD",
        "postalCode": "21401-7122"
      },
      {
        "line": [
          "305 College Parkway"
        ],
        "city": "ARNOLD",
        "state": "MD",
        "postalCode": "21012-2912"
      },
      {
        "line": [
          "1360 BLAIR DR",
          "SUITE L"
        ],
        "city": "ODENTON",
        "state": "MD",
        "postalCode": "21113-1343"
      },
      {
        "line": [
          "16300 Heritage Blvd"
        ],
        "city": "BOWIE",
        "state": "MD",
        "postalCode": "20716-3106"
      },
      {
        "line": [
          "835 BRIGHTSEAT RD"
        ],
        "city": "HYATTSVILLE",
        "state": "MD",
        "postalCode": "20785-4798"
      },
      {
        "line": [
          "104 FORBES STREET",
          "SUITE 102"
        ],
        "city": "ANNAPOLIS",
        "state": "MD",
        "postalCode": "21401-1543"
      },
      {
        "line": [
          "104 FORBES ST STE 102"
        ],
        "city": "ANNAPOLIS",
        "state": "MD",
        "postalCode": "21401-1543"
      },
      {
        "line": [
          "4797 Marlboro Pike"
        ],
        "city": "CAPITOL HEIGHTS",
        "state": "MD",
        "postalCode": "20743-5213"
      },
      {
        "line": [
          "10003 DEREKWOOD LN"
        ],
        "city": "LANHAM",
        "state": "MD",
        "postalCode": "20706-4362"
      }
    ],
    "extension": [
      {
        "url": "https://fhir.athena.io/StructureDefinition/ah-practice",
        "valueReference": {
          "reference": "Organization/a-1.Practice-8068"
        }
      },
      {
        "url": "https://fhir.athena.io/StructureDefinition/ah-brand",
        "valueReference": {
          "reference": "Organization/a-8068.Brand-1"
        }
      }
    ]
  },
  "fullUrl": "urn:uuid:ed453946-a772-543c-939d-92e45e10aa20"
}