{
  "resource": {
    "resourceType": "Organization",
    "id": "73ba28b6-c8d5-5f7c-830a-4ce9f25506c3",
    "name": "ATLANTIC HOUSE CALL MEDICAL SERVICES",
    "endpoint": [
      {
        "reference": "Endpoint/27a4e967-47aa-5a9c-a572-b8297ee268a2"
      },
      {
        "reference": "Endpoint/3ac5d850-55ab-5ae1-8885-74422285220a"
      }
    ],
    "identifier": [
      {
        "system": "http://hl7.org/fhir/sid/us-npi",
        "value": "1215029541"
      }
    ],
    "address": [
      {
        "line": [
          "1587 OLD FREEHOLD RD"
        ],
        "city": "TOMS RIVER",
        "state": "NJ",
        "postalCode": "08755-2173"
      },
      {
        "line": [
          "734 NEWMAN SPRINGS RD"
        ],
        "city": "LINCROFT",
        "state": "NJ",
        "postalCode": "07738-1523"
      },
      {
        "line": [
          "5 MERIDIAN WAY"
        ],
        "city": "SHREWSBURY",
        "state": "NJ",
        "postalCode": "07702-4353"
      },
      {
        "line": [
          "3 INDUSTRIAL WAY EAST"
        ],
        "city": "EATONTOWN",
        "state": "NJ",
        "postalCode": "07724-3318"
      },
      {
        "line": [
          "1275 Rte 72 West"
        ],
        "city": "MANAHAWKIN",
        "state": "NJ",
        "postalCode": "08050-2473"
      },
      {
        "line": [
          "919 Green Grove Road"
        ],
        "city": "NEPTUNE",
        "state": "NJ",
        "postalCode": "07753-2907"
      },
      {
        "line": [
          "2018 ROUTE 35"
        ],
        "city": "SPRING LAKE",
        "state": "NJ",
        "postalCode": "07762-1704"
      },
      {
        "line": [
          "44 PINE STREET"
        ],
        "city": "NEPTUNE",
        "state": "NJ",
        "postalCode": "07753-7710"
      },
      {
        "line": [
          "1657 SILVER RD"
        ],
        "city": "TOMS RIVER",
        "state": "NJ",
        "postalCode": "08753-1400"
      },
      {
        "line": [
          "2621 ROUTE 138"
        ],
        "city": "WALL TOWNSHIP",
        "state": "NJ",
        "postalCode": "07719-9660"
      },
      {
        "line": [
          "40 Monmouth Rd"
        ],
        "city": "OAKHURST",
        "state": "NJ",
        "postalCode": "07755-9998"
      },
      {
        "line": [
          "42 W. Jimmie Leeds Rd."
        ],
        "city": "ABSECON",
        "state": "NJ",
        "postalCode": "08205-9401"
      },
      {
        "line": [
          "46 W. JIMMIE LEEDS RD"
        ],
        "city": "ABSECON",
        "state": "NJ",
        "postalCode": "08205-9401"
      },
      {
        "line": [
          "1700 ROUTE 37W"
        ],
        "city": "TOMS RIVER",
        "state": "NJ",
        "postalCode": "08753-8258"
      },
      {
        "line": [
          "139 Grant Ave"
        ],
        "city": "EATONTOWN",
        "state": "NJ",
        "postalCode": "07724-1306"
      },
      {
        "line": [
          "859 WEST BAY AVE"
        ],
        "city": "BARNEGAT",
        "state": "NJ",
        "postalCode": "08005-2127"
      },
      {
        "line": [
          "3 S. MAIN ST"
        ],
        "city": "MARLBORO",
        "state": "NJ",
        "postalCode": "07746-1537"
      },
      {
        "line": [
          "515 JACK MARTIN BLVD"
        ],
        "city": "BRICK",
        "state": "NJ",
        "postalCode": "08724-1856"
      },
      {
        "line": [
          "1 HARTFORD DRIVE"
        ],
        "city": "RED BANK",
        "state": "NJ",
        "postalCode": "07701-4941"
      },
      {
        "line": [
          "52 MADISON AVE",
          "#1"
        ],
        "city": "LAKEWOOD",
        "state": "NJ",
        "postalCode": "08701-1914"
      },
      {
        "line": [
          "864 Shrewsbury Ave"
        ],
        "city": "SHREWSBURY",
        "state": "NJ",
        "postalCode": "07724-3074"
      },
      {
        "line": [
          "458 Jack Martin BLVD"
        ],
        "city": "BRICK",
        "state": "NJ",
        "postalCode": "08724-7739"
      },
      {
        "line": [
          "89 AVE AT THE COMMONS"
        ],
        "city": "SHREWSBURY",
        "state": "NJ",
        "postalCode": "07702-4579"
      },
      {
        "line": [
          "1211 WEST PARK AVE"
        ],
        "city": "ASBURY PARK",
        "state": "NJ",
        "postalCode": "07712-7221"
      },
      {
        "line": [
          "3 Meridian Way"
        ],
        "city": "COLTS NECK",
        "state": "NJ",
        "postalCode": "07722-2419"
      },
      {
        "line": [
          "7 LAUREL AVE"
        ],
        "city": "KEANSBURG",
        "state": "NJ",
        "postalCode": "07734-1122"
      }
    ],
    "extension": [
      {
        "url": "https://fhir.athena.io/StructureDefinition/ah-practice",
        "valueReference": {
          "reference": "Organization/a-1.Practice-15434"
        }
      },
      {
        "url": "https://fhir.athena.io/StructureDefinition/ah-brand",
        "valueReference": {
          "reference": "Organization/a-15434.Brand-18"
        }
      }
    ]
  },
  "fullUrl": "urn:uuid:73ba28b6-c8d5-5f7c-830a-4ce9f25506c3"
}