{
  "resource": {
    "resourceType": "Organization",
    "id": "a9b6a2a5-60a3-50a8-b34a-80d52581a0c9",
    "name": "ULTRAHEATH",
    "endpoint": [
      {
        "reference": "Endpoint/27a4e967-47aa-5a9c-a572-b8297ee268a2"
      },
      {
        "reference": "Endpoint/1fd90cbb-960a-541b-9bea-3f3118a13b04"
      }
    ],
    "identifier": [
      {
        "system": "http://hl7.org/fhir/sid/us-npi",
        "value": "1922469543"
      }
    ],
    "address": [
      {
        "line": [
          "521 Greene Dr"
        ],
        "city": "GREENVILLE",
        "state": "KY",
        "postalCode": "42345-1409"
      },
      {
        "line": [
          "4728 Hwy 39 N"
        ],
        "city": "MERIDIAN",
        "state": "MS",
        "postalCode": "39301-1015"
      },
      {
        "line": [
          "2607 Main Street"
        ],
        "city": "BENTON",
        "state": "KY",
        "postalCode": "42025-7601"
      },
      {
        "line": [
          "6500 Kirby Gate Boulevard"
        ],
        "city": "MEMPHIS",
        "state": "TN",
        "postalCode": "38119-2673"
      },
      {
        "line": [
          "712 Broadway St"
        ],
        "city": "SOUTH FULTON",
        "state": "TN",
        "postalCode": "38257-2406"
      },
      {
        "line": [
          "2121 New Holt Road"
        ],
        "city": "PADUCAH",
        "state": "KY",
        "postalCode": "42001-8621"
      },
      {
        "line": [
          "3618 J. Dewey Gray Circle"
        ],
        "city": "AUGUSTA",
        "state": "GA",
        "postalCode": "30909-1867"
      },
      {
        "line": [
          "60 Philips Branch Road"
        ],
        "city": "PHELPS",
        "state": "KY",
        "postalCode": "41553-9061"
      },
      {
        "line": [
          "580 W Main Street"
        ],
        "city": "ALAMO",
        "state": "TN",
        "postalCode": "38001-1545"
      },
      {
        "line": [
          "201 Harmony Way"
        ],
        "city": "ELIZABETHTOWN",
        "state": "KY",
        "postalCode": "42701-5968"
      },
      {
        "line": [
          "154 Woodland Rd"
        ],
        "city": "BATESVILLE",
        "state": "MS",
        "postalCode": "38606-7300"
      },
      {
        "line": [
          "4000 Golden Age Drive"
        ],
        "city": "BATAVIA",
        "state": "OH",
        "postalCode": "45103-1913"
      },
      {
        "line": [
          "106 Gover St"
        ],
        "city": "SOMERSET",
        "state": "KY",
        "postalCode": "42501-3332"
      },
      {
        "line": [
          "4360 Brecksville Road"
        ],
        "city": "RICHFIELD",
        "state": "OH",
        "postalCode": "44286-9457"
      },
      {
        "line": [
          "8017 Dogwood Ln"
        ],
        "city": "MILAN",
        "state": "TN",
        "postalCode": "38358-6805"
      },
      {
        "line": [
          "390 Park Ave."
        ],
        "city": "HAZARD",
        "state": "KY",
        "postalCode": "41702-9548"
      },
      {
        "line": [
          "1400 Live Oak Lane, Building 100"
        ],
        "city": "ATHENS",
        "state": "GA",
        "postalCode": "30606-5548"
      },
      {
        "line": [
          "6125 N Main St"
        ],
        "city": "DAYTON",
        "state": "OH",
        "postalCode": "45415-3110"
      },
      {
        "line": [
          "14691 TN- 22"
        ],
        "city": "LEXINGTON",
        "state": "TN",
        "postalCode": "38351-4754"
      },
      {
        "line": [
          "1215 Earl Frye Blvd"
        ],
        "city": "AMORY",
        "state": "MS",
        "postalCode": "38821-5509"
      },
      {
        "line": [
          "1030 Kentontown Rd"
        ],
        "city": "MOUNT OLIVET",
        "state": "KY",
        "postalCode": "41064-7649"
      },
      {
        "line": [
          "403 South Church St"
        ],
        "city": "ADAMS",
        "state": "TN",
        "postalCode": "37010-4782"
      },
      {
        "line": [
          "2582 Cerulean Rd"
        ],
        "city": "CADIZ",
        "state": "KY",
        "postalCode": "42211-9605"
      },
      {
        "line": [
          "308 West Maple Ave"
        ],
        "city": "LANCASTER",
        "state": "KY",
        "postalCode": "40444-1005"
      },
      {
        "line": [
          "851 Kimsey Lane"
        ],
        "city": "HENDERSON",
        "state": "KY",
        "postalCode": "42420-2665"
      },
      {
        "line": [
          "350 E Tickle St"
        ],
        "city": "DYERSBURG",
        "state": "TN",
        "postalCode": "38024-3118"
      },
      {
        "line": [
          "2500 North Elm Street"
        ],
        "city": "HENDERSON",
        "state": "KY",
        "postalCode": "42420-2005"
      },
      {
        "line": [
          "1820 Oakview Road"
        ],
        "city": "ASHLAND",
        "state": "KY",
        "postalCode": "41101-3677"
      },
      {
        "line": [
          "420 Cheyenne Drive"
        ],
        "city": "JACKSON",
        "state": "TN",
        "postalCode": "38305-5412"
      },
      {
        "line": [
          "5269 Asbury Road"
        ],
        "city": "AUGUSTA",
        "state": "KY",
        "postalCode": "41002-9215"
      },
      {
        "line": [
          "41 Hospital Drive"
        ],
        "city": "LEXINGTON",
        "state": "TN",
        "postalCode": "38351-1423"
      },
      {
        "line": [
          "727 E Church St"
        ],
        "city": "LEXINGTON",
        "state": "TN",
        "postalCode": "38351-1924"
      },
      {
        "line": [
          "620 Parker Rd"
        ],
        "city": "MAYSVILLE",
        "state": "KY",
        "postalCode": "41056-9620"
      },
      {
        "line": [
          "7514 Kingsley Street"
        ],
        "city": "HOUSTON",
        "state": "TX",
        "postalCode": "77087-4412"
      },
      {
        "line": [
          "4400 Glen Este-Withamsville Road"
        ],
        "city": "CINCINNATI",
        "state": "OH",
        "postalCode": "45245-1306"
      },
      {
        "line": [
          "1100 Grandview Dr"
        ],
        "city": "FLATWOODS",
        "state": "KY",
        "postalCode": "41139-1024"
      },
      {
        "line": [
          "814 Old Ekron Rd"
        ],
        "city": "BRANDENBURG",
        "state": "KY",
        "postalCode": "40108-1149"
      },
      {
        "line": [
          "1002 Glenview Dr"
        ],
        "city": "GLASGOW",
        "state": "KY",
        "postalCode": "42141-3424"
      },
      {
        "line": [
          "509 N Carrier St"
        ],
        "city": "MORGANFIELD",
        "state": "KY",
        "postalCode": "42437-1201"
      },
      {
        "line": [
          "800 Volunteer Dr"
        ],
        "city": "PARIS",
        "state": "TN",
        "postalCode": "38242-5472"
      },
      {
        "line": [
          "235 New Wilson Lane"
        ],
        "city": "MIDDLESBORO",
        "state": "KY",
        "postalCode": "40965-2705"
      },
      {
        "line": [
          "7010 Rowan Hill Dr"
        ],
        "city": "CINCINNATI",
        "state": "OH",
        "postalCode": "45227-3380"
      },
      {
        "line": [
          "1700 Elmdale Rd"
        ],
        "city": "PADUCAH",
        "state": "KY",
        "postalCode": "42003-5517"
      },
      {
        "line": [
          "1340 N Grundy Quarles Hwy"
        ],
        "city": "GAINESBORO",
        "state": "TN",
        "postalCode": "38562-6001"
      },
      {
        "line": [
          "100 Cherrywood Pl"
        ],
        "city": "JACKSON",
        "state": "TN",
        "postalCode": "38305-1741"
      },
      {
        "line": [
          "918 S Broadway"
        ],
        "city": "PORTLAND",
        "state": "TN",
        "postalCode": "37148-1624"
      },
      {
        "line": [
          "1205 Leitchfield Road"
        ],
        "city": "OWENSBORO",
        "state": "KY",
        "postalCode": "42303-0861"
      },
      {
        "line": [
          "2932 South 5th St"
        ],
        "city": "IRONTON",
        "state": "OH",
        "postalCode": "45638-2865"
      },
      {
        "line": [
          "1050 Clinton St"
        ],
        "city": "IRONTON",
        "state": "OH",
        "postalCode": "45638-2876"
      },
      {
        "line": [
          "36 PEMBERTON COVE"
        ],
        "city": "JACKSON",
        "state": "TN",
        "postalCode": "38305-5514"
      },
      {
        "line": [
          "313 W Main St"
        ],
        "city": "FORDSVILLE",
        "state": "KY",
        "postalCode": "42343-9763"
      },
      {
        "line": [
          "4299 Bach Buxton Road"
        ],
        "city": "BATAVIA",
        "state": "OH",
        "postalCode": "45103-2948"
      },
      {
        "line": [
          "104 Fort Hill Rd"
        ],
        "city": "WAVERLY",
        "state": "TN",
        "postalCode": "37185-2128"
      },
      {
        "line": [
          "200 Strahl St"
        ],
        "city": "FRANKLIN",
        "state": "TN",
        "postalCode": "37064-3556"
      },
      {
        "line": [
          "435 Old Brownsville Rd"
        ],
        "city": "GALLAWAY",
        "state": "TN",
        "postalCode": "38036-8001"
      },
      {
        "line": [
          "1221 E. Union Street"
        ],
        "city": "GREENVILLE",
        "state": "MS",
        "postalCode": "38703-3243"
      },
      {
        "line": [
          "1242 Crescent Dr"
        ],
        "city": "WHEELERSBURG",
        "state": "OH",
        "postalCode": "45694-9376"
      },
      {
        "line": [
          "133 Heartland Drive"
        ],
        "city": "ELIZABETHTOWN",
        "state": "KY",
        "postalCode": "42701-3802"
      },
      {
        "line": [
          "750 Dodson Lane"
        ],
        "city": "MADISONVILLE",
        "state": "KY",
        "postalCode": "42431-8779"
      },
      {
        "line": [
          "2080 Craig Dr"
        ],
        "city": "MILAN",
        "state": "TN",
        "postalCode": "38358-6186"
      },
      {
        "line": [
          "512 Rockwell Drive"
        ],
        "city": "OKOLONA",
        "state": "MS",
        "postalCode": "38860-1662"
      },
      {
        "line": [
          "39 Ferndale Apartments Rd"
        ],
        "city": "PINEVILLE",
        "state": "KY",
        "postalCode": "40977-8578"
      },
      {
        "line": [
          "2121 Argillite Rd"
        ],
        "city": "FLATWOODS",
        "state": "KY",
        "postalCode": "41139-2615"
      },
      {
        "line": [
          "300 Westwood St"
        ],
        "city": "GLASGOW",
        "state": "KY",
        "postalCode": "42141-1030"
      },
      {
        "line": [
          "504 South 24th Street"
        ],
        "city": "MIDDLESBORO",
        "state": "KY",
        "postalCode": "40965-1447"
      },
      {
        "line": [
          "2871 Hwy. 31 W"
        ],
        "city": "WHITE HOUSE",
        "state": "TN",
        "postalCode": "37188-5226"
      },
      {
        "line": [
          "200 Medical Center Drive"
        ],
        "city": "HARLAN",
        "state": "KY",
        "postalCode": "40831-0014"
      },
      {
        "line": [
          "490 West Poplar Ave"
        ],
        "city": "COLLIERVILLE",
        "state": "TN",
        "postalCode": "38017-2538"
      },
      {
        "line": [
          "191 Hwy. 511 East"
        ],
        "city": "QUITMAN",
        "state": "MS",
        "postalCode": "39355-8320"
      },
      {
        "line": [
          "1025 Euclid Ave."
        ],
        "city": "PAINTSVILLE",
        "state": "KY",
        "postalCode": "41240-8645"
      },
      {
        "line": [
          "1525 Tull Drive"
        ],
        "city": "KATY",
        "state": "TX",
        "postalCode": "77449-5099"
      },
      {
        "line": [
          "1302 Millville Ave"
        ],
        "city": "HAMILTON",
        "state": "OH",
        "postalCode": "45013-3961"
      },
      {
        "line": [
          "609 S. Railroad Street"
        ],
        "city": "MATTHEWS",
        "state": "MO",
        "postalCode": "63867-9751"
      },
      {
        "line": [
          "4915 Charlestown Rd"
        ],
        "city": "NEW ALBANY",
        "state": "IN",
        "postalCode": "47150-9426"
      },
      {
        "line": [
          "73 Piedmont Dr"
        ],
        "city": "WHITESBURG",
        "state": "KY",
        "postalCode": "41858-7668"
      },
      {
        "line": [
          "200 Medical Circle"
        ],
        "city": "TYLERTOWN",
        "state": "MS",
        "postalCode": "39667-2069"
      },
      {
        "line": [
          "7143 US Highway 23"
        ],
        "city": "PIKETON",
        "state": "OH",
        "postalCode": "45661-9527"
      },
      {
        "line": [
          "366 South Washington St"
        ],
        "city": "CLINTON",
        "state": "KY",
        "postalCode": "42031-1324"
      },
      {
        "line": [
          "867 McGuire Avenue"
        ],
        "city": "PADUCAH",
        "state": "KY",
        "postalCode": "42001-4036"
      },
      {
        "line": [
          "902 Buchanan Rd"
        ],
        "city": "NEW TAZEWELL",
        "state": "TN",
        "postalCode": "37825-7410"
      },
      {
        "line": [
          "500 Truman Blvd."
        ],
        "city": "CARUTHERSVILLE",
        "state": "MO",
        "postalCode": "63830-1261"
      },
      {
        "line": [
          "2159 Dogwood Ridge Rd"
        ],
        "city": "WHEELERSBURG",
        "state": "OH",
        "postalCode": "45694-9044"
      },
      {
        "line": [
          "156 E Walnut Ave"
        ],
        "city": "EUPORA",
        "state": "MS",
        "postalCode": "39744-2027"
      },
      {
        "line": [
          "1401 South 16th Street"
        ],
        "city": "MURRAY",
        "state": "KY",
        "postalCode": "42071-2804"
      },
      {
        "line": [
          "9001 Telecom Dr"
        ],
        "city": "MILAN",
        "state": "TN",
        "postalCode": "38358-3537"
      },
      {
        "line": [
          "1600 Anthony Road"
        ],
        "city": "AUGUSTA",
        "state": "GA",
        "postalCode": "30904-4824"
      },
      {
        "line": [
          "36 Pemberton Cove"
        ],
        "city": "JACKSON",
        "state": "TN",
        "postalCode": "38305-5514"
      },
      {
        "line": [
          "901 N Charlotte Street"
        ],
        "city": "DICKSON",
        "state": "TN",
        "postalCode": "37055-1010"
      },
      {
        "line": [
          "2727 Palmyra Road"
        ],
        "city": "PALMYRA",
        "state": "TN",
        "postalCode": "37142-0008"
      },
      {
        "line": [
          "200 Nursing Home Ln"
        ],
        "city": "PIKEVILLE",
        "state": "KY",
        "postalCode": "41501-6896"
      },
      {
        "line": [
          "141 N McLean Blvd"
        ],
        "city": "MEMPHIS",
        "state": "TN",
        "postalCode": "38104-2693"
      },
      {
        "line": [
          "406 Wyoming Rd"
        ],
        "city": "OWINGSVILLE",
        "state": "KY",
        "postalCode": "40360-8906"
      },
      {
        "line": [
          "1730 Dorchester Dr"
        ],
        "city": "SOUTHAVEN",
        "state": "MS",
        "postalCode": "38671-5723"
      },
      {
        "line": [
          "519 Brookman Drive"
        ],
        "city": "BROOKHAVEN",
        "state": "MS",
        "postalCode": "39601-2326"
      },
      {
        "line": [
          "525 Bentee Wes Ct"
        ],
        "city": "EVANSVILLE",
        "state": "IN",
        "postalCode": "47715-4071"
      },
      {
        "line": [
          "62 Maude Road"
        ],
        "city": "INEZ",
        "state": "KY",
        "postalCode": "41224-9124"
      },
      {
        "line": [
          "3131 N Highland Ave"
        ],
        "city": "JACKSON",
        "state": "TN",
        "postalCode": "38305-3418"
      },
      {
        "line": [
          "36 PEMBERTON CV"
        ],
        "city": "JACKSON",
        "state": "TN",
        "postalCode": "38305-5514"
      },
      {
        "line": [
          "1735 N Broad Street"
        ],
        "city": "LEXINGTON",
        "state": "TN",
        "postalCode": "38351-4754"
      },
      {
        "line": [
          "704 N Dupree Ave"
        ],
        "city": "BROWNSVILLE",
        "state": "TN",
        "postalCode": "38012-1707"
      },
      {
        "line": [
          "4400 Glen Este- Withamsville Road"
        ],
        "city": "CINCINNATI",
        "state": "OH",
        "postalCode": "45245-1306"
      },
      {
        "line": [
          "6900 Beechmont Ave"
        ],
        "city": "CINCINNATI",
        "state": "OH",
        "postalCode": "45230-2910"
      },
      {
        "line": [
          "537 Spring St"
        ],
        "city": "DOVER",
        "state": "TN",
        "postalCode": "37058-3232"
      },
      {
        "line": [
          "108 Diecks Drive"
        ],
        "city": "ELIZABETHTOWN",
        "state": "KY",
        "postalCode": "42701-2450"
      },
      {
        "line": [
          "5275 Millennium Dr NW"
        ],
        "city": "HUNTSVILLE",
        "state": "AL",
        "postalCode": "35806-2457"
      },
      {
        "line": [
          "1561 Newton Ave"
        ],
        "city": "BOWLING GREEN",
        "state": "KY",
        "postalCode": "42104-3238"
      },
      {
        "line": [
          "1108 Regency Way"
        ],
        "city": "ELIZABETHTOWN",
        "state": "KY",
        "postalCode": "42701-7133"
      },
      {
        "line": [
          "82 Will McKnight Dr"
        ],
        "city": "JACKSON",
        "state": "TN",
        "postalCode": "38301-7375"
      },
      {
        "line": [
          "850 KY-191"
        ],
        "city": "CAMPTON",
        "state": "KY",
        "postalCode": "41301-8109"
      },
      {
        "line": [
          "1 Sparks Avenue"
        ],
        "city": "JAMESTOWN",
        "state": "KY",
        "postalCode": "42629-2449"
      },
      {
        "line": [
          "213 Herndon Drive"
        ],
        "city": "BELLS",
        "state": "TN",
        "postalCode": "38006-3654"
      },
      {
        "line": [
          "1200 North Parkway"
        ],
        "city": "JACKSON",
        "state": "TN",
        "postalCode": "38305-5011"
      },
      {
        "line": [
          "66 Shelby St"
        ],
        "city": "CADIZ",
        "state": "KY",
        "postalCode": "42211-5933"
      }
    ],
    "extension": [
      {
        "url": "https://fhir.athena.io/StructureDefinition/ah-practice",
        "valueReference": {
          "reference": "Organization/a-1.Practice-14578"
        }
      },
      {
        "url": "https://fhir.athena.io/StructureDefinition/ah-brand",
        "valueReference": {
          "reference": "Organization/a-14578.Brand-1"
        }
      }
    ]
  },
  "fullUrl": "urn:uuid:a9b6a2a5-60a3-50a8-b34a-80d52581a0c9"
}