{
  "resource": {
    "resourceType": "Organization",
    "id": "ce675782-793b-53e8-82a8-dda0a32d3968",
    "name": "Associates In Central Ohio OBGYN - 575 Westar Crossing",
    "endpoint": [
      {
        "reference": "Endpoint/27a4e967-47aa-5a9c-a572-b8297ee268a2"
      },
      {
        "reference": "Endpoint/b28ed6f6-5719-5346-a055-84214780f3b7"
      }
    ],
    "identifier": [
      {
        "system": "http://hl7.org/fhir/sid/us-npi",
        "value": "1497482111"
      }
    ],
    "address": [
      {
        "line": [
          "950 N Glebe"
        ],
        "city": "ARLINGTON",
        "state": "VA",
        "postalCode": "22203-1824"
      },
      {
        "line": [
          "111 South Grant Avenue"
        ],
        "city": "COLUMBUS",
        "state": "OH",
        "postalCode": "43215-4701"
      },
      {
        "line": [
          "730 W Market Street"
        ],
        "city": "LIMA",
        "state": "OH",
        "postalCode": "45801-4602"
      },
      {
        "line": [
          "770 W High Street",
          "SUITE 100"
        ],
        "city": "LIMA",
        "state": "OH",
        "postalCode": "45801-5900"
      },
      {
        "line": [
          "5100 W Broad ST"
        ],
        "city": "COLUMBUS",
        "state": "OH",
        "postalCode": "43228-1607"
      },
      {
        "line": [
          "575 Westar Crossing",
          "Ste 102"
        ],
        "city": "WESTERVILLE",
        "state": "OH",
        "postalCode": "43082-7815"
      },
      {
        "line": [
          "500 South Cleveland Avenue"
        ],
        "city": "WESTERVILLE",
        "state": "OH",
        "postalCode": "43081-8971"
      },
      {
        "line": [
          "797 Thomas Lane"
        ],
        "city": "COLUMBUS",
        "state": "OH",
        "postalCode": "43214-3903"
      },
      {
        "line": [
          "3535 Olentangy River Road"
        ],
        "city": "COLUMBUS",
        "state": "OH",
        "postalCode": "43214-3937"
      },
      {
        "line": [
          "300 Polaris PKWY"
        ],
        "city": "WESTERVILLE",
        "state": "OH",
        "postalCode": "43082-7989"
      },
      {
        "line": [
          "1010 Refugee Road"
        ],
        "city": "PICKERINGTON",
        "state": "OH",
        "postalCode": "43147-9653"
      },
      {
        "line": [
          "500 S Cleveland Avenue"
        ],
        "city": "WESTERVILLE",
        "state": "OH",
        "postalCode": "43081-8971"
      },
      {
        "line": [
          "1010 Refugee Rd"
        ],
        "city": "PICKERINGTON",
        "state": "OH",
        "postalCode": "43147-9653"
      },
      {
        "line": [
          "3535 Olentangy River Rd"
        ],
        "city": "COLUMBUS",
        "state": "OH",
        "postalCode": "43214-3937"
      },
      {
        "line": [
          "PO Box 14000"
        ],
        "city": "BELFAST",
        "state": "ME",
        "postalCode": "04915-4033"
      },
      {
        "line": [
          "500 South Cleveland Avenue Westerville"
        ],
        "city": "WESTERVILLE",
        "state": "OH",
        "postalCode": "43081-8971"
      },
      {
        "line": [
          "1030 Refugee Road",
          "Suite 160"
        ],
        "city": "PICKERINGTON",
        "state": "OH",
        "postalCode": "43147-9799"
      },
      {
        "line": [
          "1003 Bellefontaine Avenue"
        ],
        "city": "LIMA",
        "state": "OH",
        "postalCode": "45804-2868"
      },
      {
        "line": [
          "500 South Cleveland Ave"
        ],
        "city": "WESTERVILLE",
        "state": "OH",
        "postalCode": "43081-8971"
      },
      {
        "line": [
          "5005 Parkcenter Avenue"
        ],
        "city": "DUBLIN",
        "state": "OH",
        "postalCode": "43017-3582"
      },
      {
        "line": [
          "111 S Grant Ave"
        ],
        "city": "COLUMBUS",
        "state": "OH",
        "postalCode": "43215-4701"
      },
      {
        "line": [
          "5005 Parkcenter Ave"
        ],
        "city": "DUBLIN",
        "state": "OH",
        "postalCode": "43017-3582"
      },
      {
        "line": [
          "323 E Town ST",
          "STE 331"
        ],
        "city": "COLUMBUS",
        "state": "OH",
        "postalCode": "43215-4774"
      },
      {
        "line": [
          "210 Sharon Road",
          "Suite A"
        ],
        "city": "CIRCLEVILLE",
        "state": "OH",
        "postalCode": "43113-1498"
      },
      {
        "line": [
          "5300 N Meadows DR"
        ],
        "city": "GROVE CITY",
        "state": "OH",
        "postalCode": "43123-2546"
      },
      {
        "line": [
          "3131 W Broad Street"
        ],
        "city": "COLUMBUS",
        "state": "OH",
        "postalCode": "43204-1306"
      }
    ],
    "extension": [
      {
        "url": "https://fhir.athena.io/StructureDefinition/ah-practice",
        "valueReference": {
          "reference": "Organization/a-1.Practice-26020"
        }
      },
      {
        "url": "https://fhir.athena.io/StructureDefinition/ah-brand",
        "valueReference": {
          "reference": "Organization/a-26020.Brand-1"
        }
      }
    ]
  },
  "fullUrl": "urn:uuid:ce675782-793b-53e8-82a8-dda0a32d3968"
}