{
  "resource": {
    "resourceType": "Organization",
    "id": "69df8250-5164-58b7-809d-a388a65c63b7",
    "name": "Full Circle Health Care",
    "endpoint": [
      {
        "reference": "Endpoint/27a4e967-47aa-5a9c-a572-b8297ee268a2"
      },
      {
        "reference": "Endpoint/ab0246c4-f75a-5807-aaa4-3cce4cc3613e"
      }
    ],
    "identifier": [
      {
        "system": "http://hl7.org/fhir/sid/us-npi",
        "value": "1578521084"
      }
    ],
    "address": [
      {
        "line": [
          "1217 Main St"
        ],
        "city": "WASHBURN",
        "state": "ME",
        "postalCode": "04786-3210"
      },
      {
        "line": [
          "6 Dewberry Dr"
        ],
        "city": "PRESQUE ISLE",
        "state": "ME",
        "postalCode": "04769-3167"
      },
      {
        "line": [
          "168 Academy st"
        ],
        "city": "PRESQUE ISLE",
        "state": "ME",
        "postalCode": "04769-3167"
      },
      {
        "line": [
          "59 Victoria Street"
        ],
        "city": "WASHBURN",
        "state": "ME",
        "postalCode": "04786-3358"
      },
      {
        "line": [
          "po box 487"
        ],
        "city": "CROUSEVILLE",
        "state": "ME",
        "postalCode": "04738-0487"
      },
      {
        "line": [
          "162 Aademy St"
        ],
        "city": "PRESQUE ISLE",
        "state": "ME",
        "postalCode": "04769-3166"
      },
      {
        "line": [
          "59 Longview Drive"
        ],
        "city": "PRESQUE ISLE",
        "state": "ME",
        "postalCode": "04769-2470"
      },
      {
        "line": [
          "1233 Main St"
        ],
        "city": "WASHBURN",
        "state": "ME",
        "postalCode": "04786-3358"
      },
      {
        "line": [
          "23  Dewberry dr"
        ],
        "city": "PRESQUE ISLE",
        "state": "ME",
        "postalCode": "04769-3028"
      },
      {
        "line": [
          "657 New Dunn Town Rd"
        ],
        "city": "WASHBURN",
        "state": "ME",
        "postalCode": "04786-4004"
      },
      {
        "line": [
          "53 Everett Rd"
        ],
        "city": "WASHBURN",
        "state": "ME",
        "postalCode": "04786-3049"
      },
      {
        "line": [
          "371 Nutting Rd"
        ],
        "city": "PERHAM",
        "state": "ME",
        "postalCode": "04766-4211"
      },
      {
        "line": [
          "475 Washburn Rd"
        ],
        "city": "CROUSEVILLE",
        "state": "ME",
        "postalCode": "04738-0364"
      }
    ],
    "extension": [
      {
        "url": "https://fhir.athena.io/StructureDefinition/ah-practice",
        "valueReference": {
          "reference": "Organization/a-1.Practice-8639"
        }
      },
      {
        "url": "https://fhir.athena.io/StructureDefinition/ah-brand",
        "valueReference": {
          "reference": "Organization/a-8639.Brand-1"
        }
      }
    ]
  },
  "fullUrl": "urn:uuid:69df8250-5164-58b7-809d-a388a65c63b7"
}