{
  "resource": {
    "resourceType": "Organization",
    "id": "db2e1114-47e3-5bfb-a540-56e7735ebb84",
    "name": "Lady Slipper Breast Center",
    "endpoint": [
      {
        "reference": "Endpoint/27a4e967-47aa-5a9c-a572-b8297ee268a2"
      },
      {
        "reference": "Endpoint/653a2350-551a-5986-b012-083e47d6d48d"
      }
    ],
    "identifier": [
      {
        "system": "http://hl7.org/fhir/sid/us-npi",
        "value": "1447028006"
      }
    ],
    "address": [
      {
        "line": [
          "4050 COON RAPIDS BLVD NW"
        ],
        "city": "MINNEAPOLIS",
        "state": "MN",
        "postalCode": "55433-2522"
      },
      {
        "line": [
          "800 E 28TH ST"
        ],
        "city": "MINNEAPOLIS",
        "state": "MN",
        "postalCode": "55407-3723"
      },
      {
        "line": [
          "500 HARVARD ST SE"
        ],
        "city": "MINNEAPOLIS",
        "state": "MN",
        "postalCode": "55455-0363"
      },
      {
        "line": [
          "6500 BARRIE RD STE 300"
        ],
        "city": "MINNEAPOLIS",
        "state": "MN",
        "postalCode": "55435-2348"
      },
      {
        "line": [
          "6401 FRANCE AVE S"
        ],
        "city": "MINNEAPOLIS",
        "state": "MN",
        "postalCode": "55435-2104"
      },
      {
        "line": [
          "13601 80TH CIR N"
        ],
        "city": "OSSEO",
        "state": "MN",
        "postalCode": "55369-8999"
      },
      {
        "line": [
          "333 SMITH AVE N"
        ],
        "city": "SAINT PAUL",
        "state": "MN",
        "postalCode": "55102-2344"
      },
      {
        "line": [
          "4100 MINNESOTA DR",
          "STE 200"
        ],
        "city": "EDINA",
        "state": "MN",
        "postalCode": "55435-5417"
      },
      {
        "line": [
          "201 E NICOLLET BLVD"
        ],
        "city": "BURNSVILLE",
        "state": "MN",
        "postalCode": "55337-5714"
      },
      {
        "line": [
          "9855 HOSPITAL DR"
        ],
        "city": "OSSEO",
        "state": "MN",
        "postalCode": "55369-4772"
      },
      {
        "line": [
          "1575 BEAM AVE"
        ],
        "city": "SAINT PAUL",
        "state": "MN",
        "postalCode": "55109-1126"
      },
      {
        "line": [
          "570 ASBURY ST STE 208"
        ],
        "city": "SAINT PAUL",
        "state": "MN",
        "postalCode": "55104-3007"
      },
      {
        "line": [
          "5775 WAYZATA BLVD STE 150"
        ],
        "city": "ST LOUIS PARK",
        "state": "MN",
        "postalCode": "55416-2627"
      },
      {
        "line": [
          "3625 W 65TH ST STE 100"
        ],
        "city": "MINNEAPOLIS",
        "state": "MN",
        "postalCode": "55435-2147"
      }
    ],
    "extension": [
      {
        "url": "https://fhir.athena.io/StructureDefinition/ah-practice",
        "valueReference": {
          "reference": "Organization/a-1.Practice-30527"
        }
      },
      {
        "url": "https://fhir.athena.io/StructureDefinition/ah-brand",
        "valueReference": {
          "reference": "Organization/a-30527.Brand-1"
        }
      }
    ]
  },
  "fullUrl": "urn:uuid:db2e1114-47e3-5bfb-a540-56e7735ebb84"
}