{
  "resource": {
    "resourceType": "Organization",
    "id": "ab0c5464-ad7c-5e5f-a3b6-ce8f68df5be8",
    "name": "Advanced Foot, Ankle, & Wound Specialists",
    "endpoint": [
      {
        "reference": "Endpoint/27a4e967-47aa-5a9c-a572-b8297ee268a2"
      },
      {
        "reference": "Endpoint/72e930d6-a7fa-5ab6-af8d-90f84b1f2d66"
      }
    ],
    "identifier": [
      {
        "system": "http://hl7.org/fhir/sid/us-npi",
        "value": "1437200094"
      }
    ],
    "address": [
      {
        "line": [
          "1901 SW 172nd Ave"
        ],
        "city": "MIRAMAR",
        "state": "FL",
        "postalCode": "33029-5592"
      },
      {
        "line": [
          "3501 Johnson St"
        ],
        "city": "HOLLYWOOD",
        "state": "FL",
        "postalCode": "33021-5421"
      },
      {
        "line": [
          "4302 ALTON RD"
        ],
        "city": "MIAMI BEACH",
        "state": "FL",
        "postalCode": "33140-2893"
      },
      {
        "line": [
          "3476 S University Dr"
        ],
        "city": "DAVIE",
        "state": "FL",
        "postalCode": "33328-2000"
      },
      {
        "line": [
          "2900 N Military Trail",
          "#230"
        ],
        "city": "BOCA RATON",
        "state": "FL",
        "postalCode": "33431-6347"
      },
      {
        "line": [
          "7421 N, UNIVERSITY DR",
          "SUITE 304"
        ],
        "city": "FORT LAUDERDALE",
        "state": "FL",
        "postalCode": "33321-2977"
      },
      {
        "line": [
          "703 N Flamingo Rd"
        ],
        "city": "PEMBROKE PINES",
        "state": "FL",
        "postalCode": "33028-1006"
      },
      {
        "line": [
          "301 NW 84TH AVE STE 201"
        ],
        "city": "FORT LAUDERDALE",
        "state": "FL",
        "postalCode": "33324-1807"
      },
      {
        "line": [
          "7421 North University Dr",
          "Suite 304"
        ],
        "city": "FORT LAUDERDALE",
        "state": "FL",
        "postalCode": "33321-2953"
      },
      {
        "line": [
          "8201 W Broward Blvd"
        ],
        "city": "FORT LAUDERDALE",
        "state": "FL",
        "postalCode": "33324-2701"
      },
      {
        "line": [
          "4855 w. Hilsboro Blvd",
          "Suite B-6"
        ],
        "city": "POMPANO BEACH",
        "state": "FL",
        "postalCode": "33073-4356"
      },
      {
        "line": [
          "4300 Alton Rd,"
        ],
        "city": "MIAMI BEACH",
        "state": "FL",
        "postalCode": "33140-2948"
      },
      {
        "line": [
          "4300 Alton Rd"
        ],
        "city": "MIAMI BEACH",
        "state": "FL",
        "postalCode": "33140-2948"
      },
      {
        "line": [
          "21644 STATE ROAD 7"
        ],
        "city": "BOCA RATON",
        "state": "FL",
        "postalCode": "33428-1842"
      },
      {
        "line": [
          "9333 SW 152 STREET"
        ],
        "city": "MIAMI",
        "state": "FL",
        "postalCode": "33157-1778"
      },
      {
        "line": [
          "20900 BISCAYNE BLVD"
        ],
        "city": "MIAMI",
        "state": "FL",
        "postalCode": "33180-1407"
      },
      {
        "line": [
          "2229 N Commerce Pkwy"
        ],
        "city": "FORT LAUDERDALE",
        "state": "FL",
        "postalCode": "33326-3282"
      },
      {
        "line": [
          "7800 Sheridan St"
        ],
        "city": "PEMBROKE PINES",
        "state": "FL",
        "postalCode": "33024-2536"
      },
      {
        "line": [
          "4725 N FEDERAL HWY"
        ],
        "city": "FORT LAUDERDALE",
        "state": "FL",
        "postalCode": "33308-4603"
      }
    ],
    "extension": [
      {
        "url": "https://fhir.athena.io/StructureDefinition/ah-practice",
        "valueReference": {
          "reference": "Organization/a-1.Practice-15892"
        }
      },
      {
        "url": "https://fhir.athena.io/StructureDefinition/ah-brand",
        "valueReference": {
          "reference": "Organization/a-15892.Brand-1"
        }
      }
    ]
  },
  "fullUrl": "urn:uuid:ab0c5464-ad7c-5e5f-a3b6-ce8f68df5be8"
}