{
  "resource": {
    "resourceType": "Organization",
    "id": "71d20453-c575-5772-acb3-b46dd90e801b",
    "name": "MinuteClinic",
    "endpoint": [
      {
        "reference": "Endpoint/27a4e967-47aa-5a9c-a572-b8297ee268a2"
      },
      {
        "reference": "Endpoint/bb13ce1d-cbaa-595b-b0ed-62d665cf3507"
      }
    ],
    "identifier": [
      {
        "system": "http://hl7.org/fhir/sid/us-npi",
        "value": "1285975482"
      }
    ],
    "address": [
      {
        "line": [
          "2103 Gause Blvd East"
        ],
        "city": "SLIDELL",
        "state": "LA",
        "postalCode": "70461-4155"
      },
      {
        "line": [
          "201 North Canal Blvd"
        ],
        "city": "THIBODAUX",
        "state": "LA",
        "postalCode": "70301-2910"
      },
      {
        "line": [
          "7777 Bluebonnet Bvd, Suite 100"
        ],
        "city": "BATON ROUGE",
        "state": "LA",
        "postalCode": "70810-1632"
      },
      {
        "line": [
          "7777 Bluebonnet Blvd, Suite 100"
        ],
        "city": "BATON ROUGE",
        "state": "LA",
        "postalCode": "70810-1632"
      },
      {
        "line": [
          "820 West Esplanade Ave"
        ],
        "city": "KENNER",
        "state": "LA",
        "postalCode": "70065-2757"
      },
      {
        "line": [
          "2105 Cleary Ave"
        ],
        "city": "METAIRIE",
        "state": "LA",
        "postalCode": "70001-1623"
      },
      {
        "line": [
          "5360 Highland Road"
        ],
        "city": "BATON ROUGE",
        "state": "LA",
        "postalCode": "70808-6548"
      },
      {
        "line": [
          "2915 Highway 190"
        ],
        "city": "MANDEVILLE",
        "state": "LA",
        "postalCode": "70471-3298"
      },
      {
        "line": [
          "14360 Wax Road"
        ],
        "city": "BATON ROUGE",
        "state": "LA",
        "postalCode": "70818-4279"
      },
      {
        "line": [
          "1850 North Highway 190"
        ],
        "city": "COVINGTON",
        "state": "LA",
        "postalCode": "70433-5157"
      },
      {
        "line": [
          "4401 South Claiborne Ave"
        ],
        "city": "NEW ORLEANS",
        "state": "LA",
        "postalCode": "70125-5105"
      },
      {
        "line": [
          "17122 Airline Highway"
        ],
        "city": "PRAIRIEVILLE",
        "state": "LA",
        "postalCode": "70769-3402"
      },
      {
        "line": [
          "5615 CORPORATE BLVD, STE 300A"
        ],
        "city": "BATON ROUGE",
        "state": "LA",
        "postalCode": "70808-2543"
      },
      {
        "line": [
          "201 North Cancal Blvd"
        ],
        "city": "THIBODAUX",
        "state": "LA",
        "postalCode": "70301-2910"
      }
    ],
    "extension": [
      {
        "url": "https://fhir.athena.io/StructureDefinition/ah-practice",
        "valueReference": {
          "reference": "Organization/a-1.Practice-7384"
        }
      },
      {
        "url": "https://fhir.athena.io/StructureDefinition/ah-brand",
        "valueReference": {
          "reference": "Organization/a-7384.Brand-1"
        }
      }
    ]
  },
  "fullUrl": "urn:uuid:71d20453-c575-5772-acb3-b46dd90e801b"
}