{
  "resource": {
    "resourceType": "Organization",
    "id": "7c9b3605-ae49-5c76-858a-fbc70d4bf14a",
    "name": "Bay Area Foot and Laser Podiatry Group",
    "endpoint": [
      {
        "reference": "Endpoint/27a4e967-47aa-5a9c-a572-b8297ee268a2"
      },
      {
        "reference": "Endpoint/60eeafad-f12b-57fb-981d-9dbe573ac6e4"
      }
    ],
    "identifier": [
      {
        "system": "http://hl7.org/fhir/sid/us-npi",
        "value": "1194375295"
      }
    ],
    "address": [
      {
        "line": [
          "2235 SACRAMENTO ST"
        ],
        "city": "BERKELEY",
        "state": "CA",
        "postalCode": "94702-1968"
      },
      {
        "line": [
          "175 CLEAVELAND RD"
        ],
        "city": "PLEASANT HILL",
        "state": "CA",
        "postalCode": "94523-3875"
      },
      {
        "line": [
          "950 Country Club Dr"
        ],
        "city": "MORAGA",
        "state": "CA",
        "postalCode": "94556-1922"
      },
      {
        "line": [
          "3649 DIMOND AVE"
        ],
        "city": "OAKLAND",
        "state": "CA",
        "postalCode": "94602-2260"
      },
      {
        "line": [
          "2540 East St"
        ],
        "city": "CONCORD",
        "state": "CA",
        "postalCode": "94520-1906"
      },
      {
        "line": [
          "4500 Gilbert St"
        ],
        "city": "OAKLAND",
        "state": "CA",
        "postalCode": "94611-4657"
      },
      {
        "line": [
          "905 ELM ST"
        ],
        "city": "EL CERRITO",
        "state": "CA",
        "postalCode": "94530-2903"
      },
      {
        "line": [
          "1545 Pleasant Hill Rd"
        ],
        "city": "LAFAYETTE",
        "state": "CA",
        "postalCode": "94549-2208"
      },
      {
        "line": [
          "133 LA CASA VIA",
          "SUITE 150"
        ],
        "city": "WALNUT CREEK",
        "state": "CA",
        "postalCode": "94598-3005"
      },
      {
        "line": [
          "1601 YGNACIO VALLEY ROAD"
        ],
        "city": "WALNUT CREEK",
        "state": "CA",
        "postalCode": "94598-3122"
      },
      {
        "line": [
          "2450 ASHBY AVENUE"
        ],
        "city": "BERKELEY",
        "state": "CA",
        "postalCode": "94705-2067"
      },
      {
        "line": [
          "5238 Coronado Ave"
        ],
        "city": "OAKLAND",
        "state": "CA",
        "postalCode": "94618-1099"
      },
      {
        "line": [
          "1100 SAN PABLO AVE"
        ],
        "city": "ALBANY",
        "state": "CA",
        "postalCode": "94706-2214"
      },
      {
        "line": [
          "3000 COLBY ST STE 104"
        ],
        "city": "BERKELEY",
        "state": "CA",
        "postalCode": "94705-2090"
      },
      {
        "line": [
          "6510 Gladys ave"
        ],
        "city": "EL CERRITO",
        "state": "CA",
        "postalCode": "94530-2210"
      },
      {
        "line": [
          "2801 Shadelands Dr,"
        ],
        "city": "WALNUT CREEK",
        "state": "CA",
        "postalCode": "94598-2801"
      },
      {
        "line": [
          "1400 Montego"
        ],
        "city": "WALNUT CREEK",
        "state": "CA",
        "postalCode": "94598-2950"
      },
      {
        "line": [
          "3875 TELEGRAPH AVENUE"
        ],
        "city": "OAKLAND",
        "state": "CA",
        "postalCode": "94609-2428"
      },
      {
        "line": [
          "1866 San Miguel Dr"
        ],
        "city": "WALNUT CREEK",
        "state": "CA",
        "postalCode": "94596-4974"
      },
      {
        "line": [
          "1700 TICE VALLEY BLVD"
        ],
        "city": "WALNUT CREEK",
        "state": "CA",
        "postalCode": "94595-1634"
      },
      {
        "line": [
          "540 Patterson Blvd"
        ],
        "city": "PLEASANT HILL",
        "state": "CA",
        "postalCode": "94523-4155"
      },
      {
        "line": [
          "3000 Colby St. #104"
        ],
        "city": "BERKELEY",
        "state": "CA",
        "postalCode": "94705-2090"
      },
      {
        "line": [
          "1401 Civic Ct"
        ],
        "city": "CONCORD",
        "state": "CA",
        "postalCode": "94520-5211"
      },
      {
        "line": [
          "2770 PLEASANT HILL RD"
        ],
        "city": "PLEASANT HILL",
        "state": "CA",
        "postalCode": "94523-2044"
      },
      {
        "line": [
          "1301 RALSTON AVE"
        ],
        "city": "BELMONT",
        "state": "CA",
        "postalCode": "94002-1960"
      },
      {
        "line": [
          "106 LA CASA VIA Ste 270"
        ],
        "city": "WALNUT CREEK",
        "state": "CA",
        "postalCode": "94598-3015"
      },
      {
        "line": [
          "2100 SAN PABLO AVE"
        ],
        "city": "BERKELEY",
        "state": "CA",
        "postalCode": "94702-1828"
      },
      {
        "line": [
          "2223 Ashby Ave"
        ],
        "city": "BERKELEY",
        "state": "CA",
        "postalCode": "94705-1907"
      },
      {
        "line": [
          "1081 MOHR LN"
        ],
        "city": "CONCORD",
        "state": "CA",
        "postalCode": "94518-3900"
      }
    ],
    "extension": [
      {
        "url": "https://fhir.athena.io/StructureDefinition/ah-practice",
        "valueReference": {
          "reference": "Organization/a-1.Practice-20747"
        }
      },
      {
        "url": "https://fhir.athena.io/StructureDefinition/ah-brand",
        "valueReference": {
          "reference": "Organization/a-20747.Brand-1"
        }
      }
    ]
  },
  "fullUrl": "urn:uuid:7c9b3605-ae49-5c76-858a-fbc70d4bf14a"
}