{
  "resource": {
    "resourceType": "Organization",
    "id": "3b294a6e-eec9-5ce6-b316-aa7a0baffe0c",
    "name": "CRANFORD PARK",
    "endpoint": [
      {
        "reference": "Endpoint/27a4e967-47aa-5a9c-a572-b8297ee268a2"
      },
      {
        "reference": "Endpoint/a8b372b9-b3eb-533a-bc82-a45ad10c9255"
      }
    ],
    "identifier": [
      {
        "system": "http://hl7.org/fhir/sid/us-npi",
        "value": "1760609556"
      }
    ],
    "address": [
      {
        "line": [
          "1139 RARITAN RD STE 101"
        ],
        "city": "CLARK",
        "state": "NJ",
        "postalCode": "07066-1344"
      },
      {
        "line": [
          "1350 INMAN AVE"
        ],
        "city": "EDISON",
        "state": "NJ",
        "postalCode": "08820-1006"
      },
      {
        "line": [
          "118 parsonage road"
        ],
        "city": "EDISON",
        "state": "NJ",
        "postalCode": "08837-2424"
      },
      {
        "line": [
          "65 JAMES ST"
        ],
        "city": "EDISON",
        "state": "NJ",
        "postalCode": "08820-3947"
      },
      {
        "line": [
          "1907 Park Ave"
        ],
        "city": "SOUTH PLAINFIELD",
        "state": "NJ",
        "postalCode": "07080-0121"
      },
      {
        "line": [
          "600 Lincoln park E"
        ],
        "city": "CRANFORD",
        "state": "NJ",
        "postalCode": "07016-3125"
      },
      {
        "line": [
          "1400 WOODLAND AVE"
        ],
        "city": "PLAINFIELD",
        "state": "NJ",
        "postalCode": "07060-3362"
      },
      {
        "line": [
          "40 WATCHUNG WAY"
        ],
        "city": "BERKELEY HEIGHTS",
        "state": "NJ",
        "postalCode": "07922-1407"
      },
      {
        "line": [
          "1340 PARK AVE"
        ],
        "city": "PLAINFIELD",
        "state": "NJ",
        "postalCode": "07060-3227"
      }
    ],
    "extension": [
      {
        "url": "https://fhir.athena.io/StructureDefinition/ah-practice",
        "valueReference": {
          "reference": "Organization/a-1.Practice-11169"
        }
      },
      {
        "url": "https://fhir.athena.io/StructureDefinition/ah-brand",
        "valueReference": {
          "reference": "Organization/a-11169.Brand-1"
        }
      }
    ]
  },
  "fullUrl": "urn:uuid:3b294a6e-eec9-5ce6-b316-aa7a0baffe0c"
}