{
  "resource": {
    "resourceType": "Organization",
    "id": "cfb75d57-0505-53de-91a7-21cf9f5ec6bd",
    "name": "Apos Health",
    "endpoint": [
      {
        "reference": "Endpoint/27a4e967-47aa-5a9c-a572-b8297ee268a2"
      },
      {
        "reference": "Endpoint/fda2f4f0-dc75-5cd8-b139-f03dbce6413a"
      }
    ],
    "identifier": [
      {
        "system": "http://hl7.org/fhir/sid/us-npi",
        "value": "1801272927"
      },
      {
        "system": "http://hl7.org/fhir/sid/us-npi",
        "value": "1750129995"
      }
    ],
    "address": [
      {
        "line": [
          "300 PARK AVE FL 2"
        ],
        "city": "NEW YORK",
        "state": "NY",
        "postalCode": "10022-7402"
      },
      {
        "line": [
          "436 N MAIN ST"
        ],
        "city": "DOYLESTOWN",
        "state": "PA",
        "postalCode": "18901-3404"
      },
      {
        "line": [
          "73 WASHINGTON RD"
        ],
        "city": "SPRINGFIELD",
        "state": "MA",
        "postalCode": "01108-2540"
      },
      {
        "line": [
          "1968 S COAST HWY PMB 1323"
        ],
        "city": "LAGUNA BEACH",
        "state": "CA",
        "postalCode": "92651-3681"
      },
      {
        "line": [
          "300 PARK AVE"
        ],
        "city": "NEW YORK",
        "state": "NY",
        "postalCode": "10022-7402"
      },
      {
        "line": [
          "3411 SILVERSIDE RD",
          "Tatnall Building #104"
        ],
        "city": "WILMINGTON",
        "state": "DE",
        "postalCode": "19810-4812"
      },
      {
        "line": [
          "2531 STEINWAY ST"
        ],
        "city": "ASTORIA",
        "state": "NY",
        "postalCode": "11103-3788"
      },
      {
        "line": [
          "250 PEHLE AVE",
          "STE 200"
        ],
        "city": "SADDLE BROOK",
        "state": "NJ",
        "postalCode": "07663-5835"
      },
      {
        "line": [
          "123 Main St"
        ],
        "city": "NEW YORK",
        "state": "NY",
        "postalCode": "10022-0000"
      }
    ],
    "extension": [
      {
        "url": "https://fhir.athena.io/StructureDefinition/ah-practice",
        "valueReference": {
          "reference": "Organization/a-1.Practice-30097"
        }
      },
      {
        "url": "https://fhir.athena.io/StructureDefinition/ah-brand",
        "valueReference": {
          "reference": "Organization/a-30097.Brand-1"
        }
      }
    ]
  },
  "fullUrl": "urn:uuid:cfb75d57-0505-53de-91a7-21cf9f5ec6bd"
}