{
  "resource": {
    "resourceType": "Organization",
    "id": "66f9c120-448d-58c8-b27e-f789a12b9563",
    "name": "SHMG",
    "endpoint": [
      {
        "reference": "Endpoint/27a4e967-47aa-5a9c-a572-b8297ee268a2"
      },
      {
        "reference": "Endpoint/f58d8378-b4b2-5811-b06d-46a8992432f2"
      }
    ],
    "identifier": [
      {
        "system": "http://hl7.org/fhir/sid/us-npi",
        "value": "1306363007"
      },
      {
        "system": "http://hl7.org/fhir/sid/us-npi",
        "value": "1144271586"
      },
      {
        "system": "http://hl7.org/fhir/sid/us-npi",
        "value": "1619494366"
      },
      {
        "system": "http://hl7.org/fhir/sid/us-npi",
        "value": "1588180475"
      },
      {
        "system": "http://hl7.org/fhir/sid/us-npi",
        "value": "1619928165"
      },
      {
        "system": "http://hl7.org/fhir/sid/us-npi",
        "value": "1326099763"
      },
      {
        "system": "http://hl7.org/fhir/sid/us-npi",
        "value": "1730790551"
      },
      {
        "system": "http://hl7.org/fhir/sid/us-npi",
        "value": "1952177446"
      },
      {
        "system": "http://hl7.org/fhir/sid/us-npi",
        "value": "1043261498"
      },
      {
        "system": "http://hl7.org/fhir/sid/us-npi",
        "value": "1962453308"
      },
      {
        "system": "http://hl7.org/fhir/sid/us-npi",
        "value": "1902857352"
      }
    ],
    "address": [
      {
        "line": [
          "1399 Country Club Rd"
        ],
        "city": "Gulf Breeze",
        "state": "FL",
        "postalCode": "32563-6707"
      },
      {
        "line": [
          "1700 West 2nd St"
        ],
        "city": "Gulf Shores",
        "state": "AL",
        "postalCode": "36542-3422"
      },
      {
        "line": [
          "1395 El Rito Drive"
        ],
        "city": "Gulf Breeze",
        "state": "FL",
        "postalCode": "32563-6707"
      },
      {
        "line": [
          "4521 N Davis Hwy"
        ],
        "city": "Pensacola",
        "state": "FL",
        "postalCode": "32503-2770"
      },
      {
        "line": [
          "401 Medical Park Dr"
        ],
        "city": "Atmore",
        "state": "AL",
        "postalCode": "36502-3006"
      },
      {
        "line": [
          "4501-C North Davis Hwy"
        ],
        "city": "Pensacola",
        "state": "FL",
        "postalCode": "32503-2724"
      },
      {
        "line": [
          "1675 Trinity Dr"
        ],
        "city": "Pensacola",
        "state": "FL",
        "postalCode": "32503-5708"
      },
      {
        "line": [
          "5151 N 9th Ave Ste 200"
        ],
        "city": "PENSACOLA",
        "state": "FL",
        "postalCode": "32504-8721"
      },
      {
        "line": [
          "1851 N McKenzie St"
        ],
        "city": "Foley",
        "state": "AL",
        "postalCode": "36535-4700"
      },
      {
        "line": [
          "1549 Airport Blvd",
          "Suite 200"
        ],
        "city": "Pensacola",
        "state": "FL",
        "postalCode": "32504-8634"
      },
      {
        "line": [
          "5153 N 9th Ave",
          "Suite 307"
        ],
        "city": "Pensacola",
        "state": "FL",
        "postalCode": "32504-5478"
      },
      {
        "line": [
          "9375 EMERALD COAST PKWY"
        ],
        "city": "MIRAMAR BEACH",
        "state": "FL",
        "postalCode": "32550-7274"
      },
      {
        "line": [
          "9400 University Pkwy Ste 200"
        ],
        "city": "Pensacola",
        "state": "FL",
        "postalCode": "32514-5752"
      },
      {
        "line": [
          "4586 Hwy 20",
          "Suite B"
        ],
        "city": "Niceville",
        "state": "FL",
        "postalCode": "32578-9724"
      },
      {
        "line": [
          "7800 US Hwy 98 W"
        ],
        "city": "DESTIN",
        "state": "FL",
        "postalCode": "32550-7228"
      },
      {
        "line": [
          "5149 North 9th Ave"
        ],
        "city": "Pensacola",
        "state": "FL",
        "postalCode": "32504-5748"
      },
      {
        "line": [
          "9375 Emerald Coast Pkwy"
        ],
        "city": "MIRAMAR BEACH",
        "state": "FL",
        "postalCode": "32550-7274"
      },
      {
        "line": [
          "7720 US Hwy 98W",
          "Suite 230"
        ],
        "city": "Destin",
        "state": "FL",
        "postalCode": "32550-7232"
      },
      {
        "line": [
          "5153 N 9th Ave",
          "Suite 300"
        ],
        "city": "Pensacola",
        "state": "FL",
        "postalCode": "32504-5719"
      },
      {
        "line": [
          "2569 Gulf Breeze Pkwy"
        ],
        "city": "Gulf Breeze",
        "state": "FL",
        "postalCode": "32563-3043"
      },
      {
        "line": [
          "550 W Redstone Ave",
          "Suite 200"
        ],
        "city": "Crestview",
        "state": "FL",
        "postalCode": "32536-6429"
      },
      {
        "line": [
          "5147 N 9th Ave",
          "Suite 103"
        ],
        "city": "Pensacola",
        "state": "FL",
        "postalCode": "32504-8771"
      }
    ],
    "extension": [
      {
        "url": "https://fhir.athena.io/StructureDefinition/ah-practice",
        "valueReference": {
          "reference": "Organization/a-1.Practice-9582"
        }
      },
      {
        "url": "https://fhir.athena.io/StructureDefinition/ah-brand",
        "valueReference": {
          "reference": "Organization/a-9582.Brand-3"
        }
      }
    ]
  },
  "fullUrl": "urn:uuid:66f9c120-448d-58c8-b27e-f789a12b9563"
}