{
  "resource": {
    "resourceType": "Organization",
    "id": "9683146c-339d-5820-a560-c915843812a5",
    "name": "MySite",
    "endpoint": [
      {
        "reference": "Endpoint/27a4e967-47aa-5a9c-a572-b8297ee268a2"
      },
      {
        "reference": "Endpoint/3120a9cf-d5ca-5951-9ab1-c1b38c75b3b4"
      }
    ],
    "identifier": [
      {
        "system": "http://hl7.org/fhir/sid/us-npi",
        "value": "1437196359"
      }
    ],
    "address": [
      {
        "line": [
          "75 Norumbega Road"
        ],
        "city": "WESTON",
        "state": "MA",
        "postalCode": "02493-2431"
      },
      {
        "line": [
          "273 Clarendon St"
        ],
        "city": "BOSTON",
        "state": "MA",
        "postalCode": "02116-1404"
      },
      {
        "line": [
          "100 Highland St",
          "Suite 223"
        ],
        "city": "MILTON",
        "state": "MA",
        "postalCode": "02186-3881"
      },
      {
        "line": [
          "464 Hillside Avenue"
        ],
        "city": "NEEDHAM HEIGHTS",
        "state": "MA",
        "postalCode": "02494-1227"
      },
      {
        "line": [
          "37 Derby Street",
          "Suite 3"
        ],
        "city": "HINGHAM",
        "state": "MA",
        "postalCode": "02043-3738"
      },
      {
        "line": [
          "134 Boston Post Road"
        ],
        "city": "WAYLAND",
        "state": "MA",
        "postalCode": "01778-2338"
      },
      {
        "line": [
          "66 Newton Street"
        ],
        "city": "WALTHAM",
        "state": "MA",
        "postalCode": "02453-6058"
      },
      {
        "line": [
          "529 Main St.",
          "Suite 203"
        ],
        "city": "CHARLESTOWN",
        "state": "MA",
        "postalCode": "02129-1107"
      },
      {
        "line": [
          "341 Mt Auburn St"
        ],
        "city": "WATERTOWN",
        "state": "MA",
        "postalCode": "02472-9991"
      },
      {
        "line": [
          "4 Seaport Drive"
        ],
        "city": "QUINCY",
        "state": "MA",
        "postalCode": "02171-1591"
      },
      {
        "line": [
          "249 River Street"
        ],
        "city": "MATTAPAN",
        "state": "MA",
        "postalCode": "02126-2783"
      },
      {
        "line": [
          "100 Walter J. Hannon Parkway"
        ],
        "city": "QUINCY",
        "state": "MA",
        "postalCode": "02169-0977"
      },
      {
        "line": [
          "372 Washington Street"
        ],
        "city": "WELLESLEY HILLS",
        "state": "MA",
        "postalCode": "02481-3507"
      },
      {
        "line": [
          "464 Hillside Ave",
          "Suite 304"
        ],
        "city": "NEEDHAM HEIGHTS",
        "state": "MA",
        "postalCode": "02494-1228"
      },
      {
        "line": [
          "319 Concord Road"
        ],
        "city": "WESTON",
        "state": "MA",
        "postalCode": "02493-1310"
      },
      {
        "line": [
          "1215 Centre Street"
        ],
        "city": "WEST ROXBURY",
        "state": "MA",
        "postalCode": "02132-7701"
      },
      {
        "line": [
          "130 Dorchester St."
        ],
        "city": "BOSTON",
        "state": "MA",
        "postalCode": "02127-2642"
      },
      {
        "line": [
          "44-46 Allandale St"
        ],
        "city": "JAMAICA PLAIN",
        "state": "MA",
        "postalCode": "02130-3449"
      },
      {
        "line": [
          "125 Oakland Street"
        ],
        "city": "WELLESLEY HILLS",
        "state": "MA",
        "postalCode": "02481-5338"
      },
      {
        "line": [
          "25 Boylston Street",
          "Suite 204"
        ],
        "city": "CHESTNUT HILL",
        "state": "MA",
        "postalCode": "02467-1710"
      },
      {
        "line": [
          "1399 BLUE HILL AVE"
        ],
        "city": "MILTON",
        "state": "MA",
        "postalCode": "02186-2363"
      },
      {
        "line": [
          "27 Front Street"
        ],
        "city": "WEYMOUTH",
        "state": "MA",
        "postalCode": "02188-1604"
      },
      {
        "line": [
          "25 Ruggles Street"
        ],
        "city": "ROXBURY",
        "state": "MA",
        "postalCode": "02119-2052"
      },
      {
        "line": [
          "277 Elliot St."
        ],
        "city": "NEWTON UPPER FALLS",
        "state": "MA",
        "postalCode": "02464-1201"
      },
      {
        "line": [
          "618 Granite Street"
        ],
        "city": "BRAINTREE",
        "state": "MA",
        "postalCode": "02184-5430"
      },
      {
        "line": [
          "464 Hillside Ave"
        ],
        "city": "NEEDHAM HEIGHTS",
        "state": "MA",
        "postalCode": "02494-1227"
      },
      {
        "line": [
          "880 Greendale Ave"
        ],
        "city": "NEEDHAM",
        "state": "MA",
        "postalCode": "02492-4412"
      }
    ],
    "extension": [
      {
        "url": "https://fhir.athena.io/StructureDefinition/ah-practice",
        "valueReference": {
          "reference": "Organization/a-1.Practice-10729"
        }
      },
      {
        "url": "https://fhir.athena.io/StructureDefinition/ah-brand",
        "valueReference": {
          "reference": "Organization/a-10729.Brand-1"
        }
      }
    ]
  },
  "fullUrl": "urn:uuid:9683146c-339d-5820-a560-c915843812a5"
}