{
  "resource": {
    "resourceType": "Organization",
    "id": "3359bd39-4b8a-5079-82ae-6b4eca74b182",
    "name": "STEPHEN THOMSEN MD PA",
    "endpoint": [
      {
        "reference": "Endpoint/27a4e967-47aa-5a9c-a572-b8297ee268a2"
      },
      {
        "reference": "Endpoint/b2b67a62-3885-5ac8-9686-fc6c4654688f"
      }
    ],
    "identifier": [
      {
        "system": "http://hl7.org/fhir/sid/us-npi",
        "value": "1427152875"
      }
    ],
    "address": [
      {
        "line": [
          "355 Grand ST"
        ],
        "city": "JERSEY CITY",
        "state": "NJ",
        "postalCode": "07302-4321"
      },
      {
        "line": [
          "107 PACIFIC AVE # 123"
        ],
        "city": "JERSEY CITY",
        "state": "NJ",
        "postalCode": "07304-3217"
      },
      {
        "line": [
          "7650 River Rd STE 150"
        ],
        "city": "NORTH BERGEN",
        "state": "NJ",
        "postalCode": "07047-6528"
      },
      {
        "line": [
          "1310 5th ST"
        ],
        "city": "NORTH BERGEN",
        "state": "NJ",
        "postalCode": "07047-1710"
      },
      {
        "line": [
          "510 31ST ST BSMT"
        ],
        "city": "UNION CITY",
        "state": "NJ",
        "postalCode": "07087-3907"
      },
      {
        "line": [
          "29 Cottage ST"
        ],
        "city": "JERSEY CITY",
        "state": "NJ",
        "postalCode": "07306-2801"
      },
      {
        "line": [
          "1600 Willow AVE"
        ],
        "city": "HOBOKEN",
        "state": "NJ",
        "postalCode": "07030-3412"
      },
      {
        "line": [
          "176 Palisade AVE"
        ],
        "city": "JERSEY CITY",
        "state": "NJ",
        "postalCode": "07306-1121"
      },
      {
        "line": [
          "3196 KENNEDY BLVD STE 2"
        ],
        "city": "UNION CITY",
        "state": "NJ",
        "postalCode": "07087-2468"
      },
      {
        "line": [
          "1 BAY AVE"
        ],
        "city": "MONTCLAIR",
        "state": "NJ",
        "postalCode": "07042-4837"
      },
      {
        "line": [
          "308 Willow AVE"
        ],
        "city": "HOBOKEN",
        "state": "NJ",
        "postalCode": "07030-3808"
      },
      {
        "line": [
          "1 Bay AVE"
        ],
        "city": "MONTCLAIR",
        "state": "NJ",
        "postalCode": "07042-4837"
      },
      {
        "line": [
          "355 GRAND ST"
        ],
        "city": "JERSEY CITY",
        "state": "NJ",
        "postalCode": "07302-4321"
      },
      {
        "line": [
          "55 MEADOWLANDS PKWY"
        ],
        "city": "SECAUCUS",
        "state": "NJ",
        "postalCode": "07094-2977"
      },
      {
        "line": [
          "7600 RIVER RD"
        ],
        "city": "NORTH BERGEN",
        "state": "NJ",
        "postalCode": "07047-6217"
      },
      {
        "line": [
          "114 Valley RD"
        ],
        "city": "MONTCLAIR",
        "state": "NJ",
        "postalCode": "07042-2321"
      },
      {
        "line": [
          "328 9TH ST"
        ],
        "city": "JERSEY CITY",
        "state": "NJ",
        "postalCode": "07302-1502"
      },
      {
        "line": [
          "155 BERGEN BLVD # 161"
        ],
        "city": "FAIRVIEW",
        "state": "NJ",
        "postalCode": "07022-1906"
      },
      {
        "line": [
          "508 31ST ST"
        ],
        "city": "UNION CITY",
        "state": "NJ",
        "postalCode": "07087-3907"
      },
      {
        "line": [
          "434 BROADWAY # 436"
        ],
        "city": "BAYONNE",
        "state": "NJ",
        "postalCode": "07002-3628"
      }
    ],
    "extension": [
      {
        "url": "https://fhir.athena.io/StructureDefinition/ah-practice",
        "valueReference": {
          "reference": "Organization/a-1.Practice-14360"
        }
      },
      {
        "url": "https://fhir.athena.io/StructureDefinition/ah-brand",
        "valueReference": {
          "reference": "Organization/a-14360.Brand-24"
        }
      }
    ]
  },
  "fullUrl": "urn:uuid:3359bd39-4b8a-5079-82ae-6b4eca74b182"
}