{
  "resource": {
    "resourceType": "Organization",
    "id": "c45240d2-6559-555a-9e0d-1af7661fbb6e",
    "name": "Geriatric Solutions",
    "endpoint": [
      {
        "reference": "Endpoint/27a4e967-47aa-5a9c-a572-b8297ee268a2"
      },
      {
        "reference": "Endpoint/7c390682-3a40-5a9c-ad51-e185b0b096c1"
      }
    ],
    "identifier": [
      {
        "system": "http://hl7.org/fhir/sid/us-npi",
        "value": "1033145495"
      }
    ],
    "address": [
      {
        "line": [
          "1510 E FLOWER ST"
        ],
        "city": "PHOENIX",
        "state": "AZ",
        "postalCode": "85014-5656"
      },
      {
        "line": [
          "13231 W COTTONTAIL LN"
        ],
        "city": "PEORIA",
        "state": "AZ",
        "postalCode": "85383-3515"
      },
      {
        "line": [
          "1601 W QUEEN CREEK RD"
        ],
        "city": "CHANDLER",
        "state": "AZ",
        "postalCode": "85248-0899"
      },
      {
        "line": [
          "2332 E JADE CT"
        ],
        "city": "CHANDLER",
        "state": "AZ",
        "postalCode": "85286-1612"
      },
      {
        "line": [
          "6818 S 16TH PL"
        ],
        "city": "PHOENIX",
        "state": "AZ",
        "postalCode": "85042-5714"
      },
      {
        "line": [
          "3678 E THORNTON AVE"
        ],
        "city": "GILBERT",
        "state": "AZ",
        "postalCode": "85297-3057"
      },
      {
        "line": [
          "14611 W WILSHIRE DR"
        ],
        "city": "GOODYEAR",
        "state": "AZ",
        "postalCode": "85395-2034"
      },
      {
        "line": [
          "976 W CITRUS WAY"
        ],
        "city": "CHANDLER",
        "state": "AZ",
        "postalCode": "85248-4329"
      },
      {
        "line": [
          "1934 E SMOKE TREE RD"
        ],
        "city": "GILBERT",
        "state": "AZ",
        "postalCode": "85296-2652"
      },
      {
        "line": [
          "35 W BROWN RD"
        ],
        "city": "MESA",
        "state": "AZ",
        "postalCode": "85201-3428"
      },
      {
        "line": [
          "15364 W ASTER DR"
        ],
        "city": "SURPRISE",
        "state": "AZ",
        "postalCode": "85379-8113"
      },
      {
        "line": [
          "3212 N MILLER RD"
        ],
        "city": "SCOTTSDALE",
        "state": "AZ",
        "postalCode": "85251-7929"
      },
      {
        "line": [
          "17352 W ELAINE DR"
        ],
        "city": "GOODYEAR",
        "state": "AZ",
        "postalCode": "85338-1985"
      },
      {
        "line": [
          "1214 E PALMAIRE AVE"
        ],
        "city": "PHOENIX",
        "state": "AZ",
        "postalCode": "85020-5429"
      },
      {
        "line": [
          "14962 N 78TH AVE"
        ],
        "city": "PEORIA",
        "state": "AZ",
        "postalCode": "85381-3403"
      },
      {
        "line": [
          "1418 N COUNTRY CLUB DR"
        ],
        "city": "MESA",
        "state": "AZ",
        "postalCode": "85201-2575"
      },
      {
        "line": [
          "4812 E OSBORN RD"
        ],
        "city": "PHOENIX",
        "state": "AZ",
        "postalCode": "85018-5537"
      },
      {
        "line": [
          "6730 N 7TH ST"
        ],
        "city": "PHOENIX",
        "state": "AZ",
        "postalCode": "85014-1003"
      },
      {
        "line": [
          "4124 W BART DR"
        ],
        "city": "CHANDLER",
        "state": "AZ",
        "postalCode": "85226-2112"
      },
      {
        "line": [
          "8201 E LEWIS AVE"
        ],
        "city": "SCOTTSDALE",
        "state": "AZ",
        "postalCode": "85257-2337"
      },
      {
        "line": [
          "28428 N RAMBLING ROCK CT"
        ],
        "city": "WITTMANN",
        "state": "AZ",
        "postalCode": "85361-8501"
      },
      {
        "line": [
          "4555 E MAYO BLVD"
        ],
        "city": "PHOENIX",
        "state": "AZ",
        "postalCode": "85050-6952"
      },
      {
        "line": [
          "3702 W CHOLLA ST"
        ],
        "city": "PHOENIX",
        "state": "AZ",
        "postalCode": "85029-3133"
      },
      {
        "line": [
          "6846 N 4TH AVE"
        ],
        "city": "PHOENIX",
        "state": "AZ",
        "postalCode": "85013-1106"
      },
      {
        "line": [
          "8319 E HAZELWOOD ST"
        ],
        "city": "SCOTTSDALE",
        "state": "AZ",
        "postalCode": "85251-1751"
      },
      {
        "line": [
          "9003 W CHARLESTON AVE"
        ],
        "city": "PEORIA",
        "state": "AZ",
        "postalCode": "85382-8106"
      },
      {
        "line": [
          "2827 E THUNDERBIRD RD"
        ],
        "city": "PHOENIX",
        "state": "AZ",
        "postalCode": "85032-5618"
      },
      {
        "line": [
          "16650 N STADIUM WAY"
        ],
        "city": "SURPRISE",
        "state": "AZ",
        "postalCode": "85374-0001"
      },
      {
        "line": [
          "12820 W BEARDSLEY RD"
        ],
        "city": "SUN CITY WEST",
        "state": "AZ",
        "postalCode": "85375-3306"
      },
      {
        "line": [
          "11830 N 19TH AVE"
        ],
        "city": "PHOENIX",
        "state": "AZ",
        "postalCode": "85029-3519"
      },
      {
        "line": [
          "5941 W AUDREY LN"
        ],
        "city": "GLENDALE",
        "state": "AZ",
        "postalCode": "85308-0702"
      },
      {
        "line": [
          "16623 N WEST POINT PKWY"
        ],
        "city": "SURPRISE",
        "state": "AZ",
        "postalCode": "85374-6011"
      },
      {
        "line": [
          "1415 N SAN BENITO DR"
        ],
        "city": "GILBERT",
        "state": "AZ",
        "postalCode": "85234-2490"
      },
      {
        "line": [
          "808 E MISSOURI AVE"
        ],
        "city": "PHOENIX",
        "state": "AZ",
        "postalCode": "85014-5542"
      },
      {
        "line": [
          "12433 N 71ST ST"
        ],
        "city": "SCOTTSDALE",
        "state": "AZ",
        "postalCode": "85254-5319"
      },
      {
        "line": [
          "16948 E WINDCHIME DR"
        ],
        "city": "FOUNTAIN HILLS",
        "state": "AZ",
        "postalCode": "85268-5530"
      },
      {
        "line": [
          "350 S ALMA SCHOOL RD"
        ],
        "city": "CHANDLER",
        "state": "AZ",
        "postalCode": "85224-7605"
      },
      {
        "line": [
          "3414 N 81ST ST"
        ],
        "city": "SCOTTSDALE",
        "state": "AZ",
        "postalCode": "85251-4857"
      },
      {
        "line": [
          "4719 W HARMONT DR"
        ],
        "city": "GLENDALE",
        "state": "AZ",
        "postalCode": "85302-6416"
      },
      {
        "line": [
          "2525 E SOUTHERN AVE"
        ],
        "city": "TEMPE",
        "state": "AZ",
        "postalCode": "85282-7741"
      },
      {
        "line": [
          "2551 W RABJOHN RD"
        ],
        "city": "PHOENIX",
        "state": "AZ",
        "postalCode": "85085-8925"
      },
      {
        "line": [
          "3132 E ACOMA DR"
        ],
        "city": "PHOENIX",
        "state": "AZ",
        "postalCode": "85032-5013"
      },
      {
        "line": [
          "2555 N PRICE RD"
        ],
        "city": "CHANDLER",
        "state": "AZ",
        "postalCode": "85224-1686"
      },
      {
        "line": [
          "7763 W LUDLOW DR"
        ],
        "city": "PEORIA",
        "state": "AZ",
        "postalCode": "85381-4663"
      },
      {
        "line": [
          "1930 E GLENDALE AVE"
        ],
        "city": "PHOENIX",
        "state": "AZ",
        "postalCode": "85020-5527"
      },
      {
        "line": [
          "13850 W BLOSSOM WAY"
        ],
        "city": "LITCHFIELD PARK",
        "state": "AZ",
        "postalCode": "85340-4261"
      },
      {
        "line": [
          "18172 N 91ST AVE"
        ],
        "city": "PEORIA",
        "state": "AZ",
        "postalCode": "85382-3001"
      },
      {
        "line": [
          "2415 S SIGNAL BUTTE RD"
        ],
        "city": "MESA",
        "state": "AZ",
        "postalCode": "85209-2107"
      },
      {
        "line": [
          "5045 E PARADISE LN"
        ],
        "city": "SCOTTSDALE",
        "state": "AZ",
        "postalCode": "85254-1045"
      },
      {
        "line": [
          "6814 E MIRABEL AVE"
        ],
        "city": "MESA",
        "state": "AZ",
        "postalCode": "85208-6646"
      },
      {
        "line": [
          "1692 E TULSA ST"
        ],
        "city": "CHANDLER",
        "state": "AZ",
        "postalCode": "85225-5288"
      },
      {
        "line": [
          "3233 E CAMELBACK RD"
        ],
        "city": "PHOENIX",
        "state": "AZ",
        "postalCode": "85018-2332"
      },
      {
        "line": [
          "830 W AMELIA AVE"
        ],
        "city": "PHOENIX",
        "state": "AZ",
        "postalCode": "85013-3319"
      },
      {
        "line": [
          "22006 N 85TH AVE"
        ],
        "city": "PEORIA",
        "state": "AZ",
        "postalCode": "85383-2366"
      },
      {
        "line": [
          "350 E EVA ST"
        ],
        "city": "PHOENIX",
        "state": "AZ",
        "postalCode": "85020-2564"
      },
      {
        "line": [
          "16670 N 173RD AVE"
        ],
        "city": "SURPRISE",
        "state": "AZ",
        "postalCode": "85388-0257"
      },
      {
        "line": [
          "9000 E SAN VICTOR DR"
        ],
        "city": "SCOTTSDALE",
        "state": "AZ",
        "postalCode": "85258-5051"
      },
      {
        "line": [
          "4358 E DANBURY RD"
        ],
        "city": "PHOENIX",
        "state": "AZ",
        "postalCode": "85032-9217"
      },
      {
        "line": [
          "3729 W LANE AVE"
        ],
        "city": "PHOENIX",
        "state": "AZ",
        "postalCode": "85051-6447"
      },
      {
        "line": [
          "14467 W MERRELL ST"
        ],
        "city": "GOODYEAR",
        "state": "AZ",
        "postalCode": "85395-8321"
      },
      {
        "line": [
          "5247 N 6TH ST"
        ],
        "city": "PHOENIX",
        "state": "AZ",
        "postalCode": "85012-1453"
      },
      {
        "line": [
          "1739 W MYRTLE AVE"
        ],
        "city": "PHOENIX",
        "state": "AZ",
        "postalCode": "85021-7968"
      },
      {
        "line": [
          "6827 W ROWEL RD"
        ],
        "city": "PEORIA",
        "state": "AZ",
        "postalCode": "85383-7040"
      },
      {
        "line": [
          "7330 W GETTY DR"
        ],
        "city": "PHOENIX",
        "state": "AZ",
        "postalCode": "85043-2023"
      },
      {
        "line": [
          "5813 E LEWIS AVE"
        ],
        "city": "SCOTTSDALE",
        "state": "AZ",
        "postalCode": "85257-1925"
      },
      {
        "line": [
          "16038 W EVANS DR"
        ],
        "city": "SURPRISE",
        "state": "AZ",
        "postalCode": "85379-5103"
      },
      {
        "line": [
          "6945 E MAIN ST"
        ],
        "city": "MESA",
        "state": "AZ",
        "postalCode": "85207-8206"
      },
      {
        "line": [
          "1445 E WILLIS RD"
        ],
        "city": "GILBERT",
        "state": "AZ",
        "postalCode": "85297-7352"
      },
      {
        "line": [
          "19728 N 79TH AVE"
        ],
        "city": "GLENDALE",
        "state": "AZ",
        "postalCode": "85308-6150"
      },
      {
        "line": [
          "15833 W CLUBHOUSE DR"
        ],
        "city": "GOODYEAR",
        "state": "AZ",
        "postalCode": "85395-6494"
      },
      {
        "line": [
          "16250 N 40TH LN"
        ],
        "city": "PHOENIX",
        "state": "AZ",
        "postalCode": "85053-2729"
      },
      {
        "line": [
          "11678 W YUCCA CT"
        ],
        "city": "SURPRISE",
        "state": "AZ",
        "postalCode": "85378-2518"
      },
      {
        "line": [
          "3303 E GARY WAY"
        ],
        "city": "GILBERT",
        "state": "AZ",
        "postalCode": "85234-0716"
      },
      {
        "line": [
          "4124 W AUGUSTA AVE"
        ],
        "city": "PHOENIX",
        "state": "AZ",
        "postalCode": "85051-5748"
      },
      {
        "line": [
          "20493 N 91ST DR"
        ],
        "city": "PEORIA",
        "state": "AZ",
        "postalCode": "85382-3001"
      },
      {
        "line": [
          "10087 W EL CORTEZ PL"
        ],
        "city": "PEORIA",
        "state": "AZ",
        "postalCode": "85383-1460"
      },
      {
        "line": [
          "44 W MOON VALLEY DR"
        ],
        "city": "PHOENIX",
        "state": "AZ",
        "postalCode": "85023-6225"
      },
      {
        "line": [
          "15924 W MAUNA LOA LN"
        ],
        "city": "SURPRISE",
        "state": "AZ",
        "postalCode": "85379-5141"
      },
      {
        "line": [
          "6735 W GOLDEN LN"
        ],
        "city": "PEORIA",
        "state": "AZ",
        "postalCode": "85345-4372"
      },
      {
        "line": [
          "6101 E VOLTAIRE AVE"
        ],
        "city": "SCOTTSDALE",
        "state": "AZ",
        "postalCode": "85254-3850"
      },
      {
        "line": [
          "9716 E PAMPA AVE"
        ],
        "city": "MESA",
        "state": "AZ",
        "postalCode": "85212-2007"
      },
      {
        "line": [
          "2645 E SOUTHERN AVE"
        ],
        "city": "TEMPE",
        "state": "AZ",
        "postalCode": "85282-7649"
      },
      {
        "line": [
          "15952 N ULRICH WAY"
        ],
        "city": "SURPRISE",
        "state": "AZ",
        "postalCode": "85374-5217"
      },
      {
        "line": [
          "2505 S 116TH AVE"
        ],
        "city": "AVONDALE",
        "state": "AZ",
        "postalCode": "85323-7638"
      },
      {
        "line": [
          "6741 W ROBERT E LEE ST"
        ],
        "city": "GLENDALE",
        "state": "AZ",
        "postalCode": "85308-8075"
      },
      {
        "line": [
          "8150 S JENTILLY LN"
        ],
        "city": "TEMPE",
        "state": "AZ",
        "postalCode": "85284-1501"
      },
      {
        "line": [
          "1781 E FOLLEY CT"
        ],
        "city": "CHANDLER",
        "state": "AZ",
        "postalCode": "85225-2274"
      },
      {
        "line": [
          "7256 E ONZA AVE"
        ],
        "city": "MESA",
        "state": "AZ",
        "postalCode": "85212-9783"
      },
      {
        "line": [
          "5006 E JUSTICA ST"
        ],
        "city": "CAVE CREEK",
        "state": "AZ",
        "postalCode": "85331-2911"
      },
      {
        "line": [
          "14245 W POINSETTIA DR"
        ],
        "city": "SURPRISE",
        "state": "AZ",
        "postalCode": "85379-4910"
      },
      {
        "line": [
          "5237 W PORT AU PRINCE LN"
        ],
        "city": "GLENDALE",
        "state": "AZ",
        "postalCode": "85306-3437"
      },
      {
        "line": [
          "16192 N 159TH AVE"
        ],
        "city": "SURPRISE",
        "state": "AZ",
        "postalCode": "85374-5813"
      },
      {
        "line": [
          "10751 W ROWEL RD"
        ],
        "city": "PEORIA",
        "state": "AZ",
        "postalCode": "85383-5914"
      },
      {
        "line": [
          "8628 N 7TH AVE"
        ],
        "city": "PHOENIX",
        "state": "AZ",
        "postalCode": "85021-4571"
      },
      {
        "line": [
          "22911 E SONOQUI BLVD"
        ],
        "city": "QUEEN CREEK",
        "state": "AZ",
        "postalCode": "85142-5722"
      },
      {
        "line": [
          "4496 E LA COSTA DR"
        ],
        "city": "CHANDLER",
        "state": "AZ",
        "postalCode": "85249-7103"
      },
      {
        "line": [
          "8854 W IRMA LN"
        ],
        "city": "PEORIA",
        "state": "AZ",
        "postalCode": "85382-6423"
      },
      {
        "line": [
          "15363 W MEMORY LN"
        ],
        "city": "SURPRISE",
        "state": "AZ",
        "postalCode": "85374-4819"
      },
      {
        "line": [
          "3811 N 44TH ST",
          "SUITE C"
        ],
        "city": "PHOENIX",
        "state": "AZ",
        "postalCode": "85018-5420"
      },
      {
        "line": [
          "5929 W GREENBRIAR DR"
        ],
        "city": "GLENDALE",
        "state": "AZ",
        "postalCode": "85308-3728"
      },
      {
        "line": [
          "6880 S PEARL DR"
        ],
        "city": "CHANDLER",
        "state": "AZ",
        "postalCode": "85249-7208"
      },
      {
        "line": [
          "17225 N BOSWELL BLVD"
        ],
        "city": "SUN CITY",
        "state": "AZ",
        "postalCode": "85373-2080"
      },
      {
        "line": [
          "5920 E LUDLOW DR"
        ],
        "city": "SCOTTSDALE",
        "state": "AZ",
        "postalCode": "85254-3135"
      },
      {
        "line": [
          "1616  W GLENDALE AVE"
        ],
        "city": "PHOENIX",
        "state": "AZ",
        "postalCode": "85021-8948"
      },
      {
        "line": [
          "1546 E EL CAMINO DR"
        ],
        "city": "PHOENIX",
        "state": "AZ",
        "postalCode": "85020-3869"
      },
      {
        "line": [
          "8838 W BROOKLITE LN"
        ],
        "city": "PEORIA",
        "state": "AZ",
        "postalCode": "85383-5788"
      },
      {
        "line": [
          "2370 W MEGAN ST"
        ],
        "city": "CHANDLER",
        "state": "AZ",
        "postalCode": "85224-3488"
      },
      {
        "line": [
          "10401 N 79TH AVE"
        ],
        "city": "PEORIA",
        "state": "AZ",
        "postalCode": "85345-0742"
      },
      {
        "line": [
          "9580 S GRANDVIEW DR"
        ],
        "city": "TEMPE",
        "state": "AZ",
        "postalCode": "85284-4038"
      },
      {
        "line": [
          "9987 W JESSIE LN"
        ],
        "city": "PEORIA",
        "state": "AZ",
        "postalCode": "85383-2894"
      },
      {
        "line": [
          "3260 E TONTO CT"
        ],
        "city": "GILBERT",
        "state": "AZ",
        "postalCode": "85298-9195"
      },
      {
        "line": [
          "19512 N 66TH AVE"
        ],
        "city": "GLENDALE",
        "state": "AZ",
        "postalCode": "85308-7050"
      },
      {
        "line": [
          "7211 N 7TH ST"
        ],
        "city": "PHOENIX",
        "state": "AZ",
        "postalCode": "85020-5000"
      },
      {
        "line": [
          "5132 N 86TH PL"
        ],
        "city": "SCOTTSDALE",
        "state": "AZ",
        "postalCode": "85250-7406"
      },
      {
        "line": [
          "8113 W LOUISE DR"
        ],
        "city": "PEORIA",
        "state": "AZ",
        "postalCode": "85383-2185"
      },
      {
        "line": [
          "2800 W ROSE CANYON CIR"
        ],
        "city": "ANTHEM",
        "state": "AZ",
        "postalCode": "85086-2412"
      },
      {
        "line": [
          "4929 S VAL VISTA DR"
        ],
        "city": "GILBERT",
        "state": "AZ",
        "postalCode": "85298-0089"
      },
      {
        "line": [
          "3916 E FAIRBROOK CIR"
        ],
        "city": "MESA",
        "state": "AZ",
        "postalCode": "85205-5100"
      },
      {
        "line": [
          "1611 W BOISE PL"
        ],
        "city": "CHANDLER",
        "state": "AZ",
        "postalCode": "85224-2272"
      },
      {
        "line": [
          "453 W SUNSET CIR"
        ],
        "city": "MESA",
        "state": "AZ",
        "postalCode": "85201-2561"
      },
      {
        "line": [
          "10234 N 7TH AVE"
        ],
        "city": "PHOENIX",
        "state": "AZ",
        "postalCode": "85021-2423"
      },
      {
        "line": [
          "1644 E MENLO ST"
        ],
        "city": "MESA",
        "state": "AZ",
        "postalCode": "85203-1330"
      },
      {
        "line": [
          "6741 W CREST LN"
        ],
        "city": "GLENDALE",
        "state": "AZ",
        "postalCode": "85310-5215"
      },
      {
        "line": [
          "13391 N 94TH DR"
        ],
        "city": "PEORIA",
        "state": "AZ",
        "postalCode": "85381-5032"
      },
      {
        "line": [
          "1510 E Flower Street"
        ],
        "city": "PHOENIX",
        "state": "AZ",
        "postalCode": "85014-5656"
      },
      {
        "line": [
          "7244 E FAIRVIEW AVE"
        ],
        "city": "MESA",
        "state": "AZ",
        "postalCode": "85208-2731"
      },
      {
        "line": [
          "1432 N DE SOTO ST"
        ],
        "city": "CHANDLER",
        "state": "AZ",
        "postalCode": "85224-7850"
      },
      {
        "line": [
          "1386 E BUFFALO ST"
        ],
        "city": "GILBERT",
        "state": "AZ",
        "postalCode": "85295-8405"
      },
      {
        "line": [
          "101 S YUCCA ST"
        ],
        "city": "CHANDLER",
        "state": "AZ",
        "postalCode": "85224-8149"
      },
      {
        "line": [
          "15441 W BECKER LN"
        ],
        "city": "SURPRISE",
        "state": "AZ",
        "postalCode": "85379-5343"
      },
      {
        "line": [
          "412 S 30TH ST"
        ],
        "city": "MESA",
        "state": "AZ",
        "postalCode": "85204-3111"
      },
      {
        "line": [
          "5184 W SAINT JOHN RD"
        ],
        "city": "GLENDALE",
        "state": "AZ",
        "postalCode": "85308-5371"
      },
      {
        "line": [
          "12825 W SAINT MORITZ LN"
        ],
        "city": "EL MIRAGE",
        "state": "AZ",
        "postalCode": "85335-3401"
      },
      {
        "line": [
          "18170 N 91ST AVE"
        ],
        "city": "PEORIA",
        "state": "AZ",
        "postalCode": "85382-0866"
      },
      {
        "line": [
          "8546 W JOAN DE ARC AVE"
        ],
        "city": "PEORIA",
        "state": "AZ",
        "postalCode": "85381-4878"
      },
      {
        "line": [
          "10048 E LAKEVIEW AVE"
        ],
        "city": "MESA",
        "state": "AZ",
        "postalCode": "85209-1238"
      },
      {
        "line": [
          "10639 N ABERDEEN RD"
        ],
        "city": "SCOTTSDALE",
        "state": "AZ",
        "postalCode": "85254-4849"
      },
      {
        "line": [
          "17200 N 67TH AVE"
        ],
        "city": "GLENDALE",
        "state": "AZ",
        "postalCode": "85308-4513"
      },
      {
        "line": [
          "21984 E DOMINGO RD"
        ],
        "city": "QUEEN CREEK",
        "state": "AZ",
        "postalCode": "85142-4592"
      },
      {
        "line": [
          "15755 W SHANGRI LA RD"
        ],
        "city": "SURPRISE",
        "state": "AZ",
        "postalCode": "85379-4801"
      },
      {
        "line": [
          "10030 N 32ND ST"
        ],
        "city": "PHOENIX",
        "state": "AZ",
        "postalCode": "85028-4430"
      },
      {
        "line": [
          "22922 N 74TH AVE"
        ],
        "city": "GLENDALE",
        "state": "AZ",
        "postalCode": "85310-5846"
      },
      {
        "line": [
          "7002 N VIA DE LA CAMPANA"
        ],
        "city": "SCOTTSDALE",
        "state": "AZ",
        "postalCode": "85258-3903"
      },
      {
        "line": [
          "6076 W PIUTE AVE"
        ],
        "city": "GLENDALE",
        "state": "AZ",
        "postalCode": "85308-5222"
      },
      {
        "line": [
          "6879 E VERNON AVE"
        ],
        "city": "SCOTTSDALE",
        "state": "AZ",
        "postalCode": "85257-2080"
      },
      {
        "line": [
          "16800 E PAUL NORDIN PKWY"
        ],
        "city": "FOUNTAIN HILLS",
        "state": "AZ",
        "postalCode": "85268-0002"
      },
      {
        "line": [
          "44 W KNIGHT LN"
        ],
        "city": "TEMPE",
        "state": "AZ",
        "postalCode": "85284-1308"
      },
      {
        "line": [
          "17343 W BAJADA DR"
        ],
        "city": "SURPRISE",
        "state": "AZ",
        "postalCode": "85387-1002"
      },
      {
        "line": [
          "18336 W WOLF ST"
        ],
        "city": "GOODYEAR",
        "state": "AZ",
        "postalCode": "85395-3017"
      },
      {
        "line": [
          "16211 N 40TH ST"
        ],
        "city": "PHOENIX",
        "state": "AZ",
        "postalCode": "85032-3301"
      },
      {
        "line": [
          "932 S BRENTWOOD PL"
        ],
        "city": "CHANDLER",
        "state": "AZ",
        "postalCode": "85224-5615"
      },
      {
        "line": [
          "4039 W TONOPAH DR"
        ],
        "city": "GLENDALE",
        "state": "AZ",
        "postalCode": "85308-4745"
      },
      {
        "line": [
          "10858 W CARLOTA LN"
        ],
        "city": "SUN CITY",
        "state": "AZ",
        "postalCode": "85373-4017"
      },
      {
        "line": [
          "6456 E ORION ST"
        ],
        "city": "MESA",
        "state": "AZ",
        "postalCode": "85215-1689"
      },
      {
        "line": [
          "17207 N BOSWELL BLVD"
        ],
        "city": "SUN CITY",
        "state": "AZ",
        "postalCode": "85373-2073"
      },
      {
        "line": [
          "520 S HIGLEY RD"
        ],
        "city": "MESA",
        "state": "AZ",
        "postalCode": "85206-2153"
      },
      {
        "line": [
          "12202 N 68TH PL"
        ],
        "city": "SCOTTSDALE",
        "state": "AZ",
        "postalCode": "85254-5382"
      },
      {
        "line": [
          "2567 E DONATO DR"
        ],
        "city": "GILBERT",
        "state": "AZ",
        "postalCode": "85298-8490"
      },
      {
        "line": [
          "15414 N 29TH AVE"
        ],
        "city": "PHOENIX",
        "state": "AZ",
        "postalCode": "85053-4003"
      },
      {
        "line": [
          "4245 E WEATHER VANE RD"
        ],
        "city": "GILBERT",
        "state": "AZ",
        "postalCode": "85296-1593"
      },
      {
        "line": [
          "7935 E PALM LN"
        ],
        "city": "SCOTTSDALE",
        "state": "AZ",
        "postalCode": "85257-2221"
      },
      {
        "line": [
          "9185 E DESERT COVE AVE"
        ],
        "city": "SCOTTSDALE",
        "state": "AZ",
        "postalCode": "85260-6258"
      },
      {
        "line": [
          "3649 E FEATHER AVE"
        ],
        "city": "GILBERT",
        "state": "AZ",
        "postalCode": "85234-2934"
      },
      {
        "line": [
          "17233 N BOSWELL BLVD"
        ],
        "city": "SUN CITY",
        "state": "AZ",
        "postalCode": "85373-2037"
      },
      {
        "line": [
          "16451 N 151ST AVE"
        ],
        "city": "SURPRISE",
        "state": "AZ",
        "postalCode": "85374-1474"
      },
      {
        "line": [
          "9050 E BROWN RD"
        ],
        "city": "MESA",
        "state": "AZ",
        "postalCode": "85207-4356"
      },
      {
        "line": [
          "2080 S IRONWOOD DR"
        ],
        "city": "APACHE JUNCTION",
        "state": "AZ",
        "postalCode": "85120-9570"
      },
      {
        "line": [
          "118 S 70TH ST"
        ],
        "city": "MESA",
        "state": "AZ",
        "postalCode": "85208-1007"
      },
      {
        "line": [
          "3200 E GLENROSA AVE"
        ],
        "city": "PHOENIX",
        "state": "AZ",
        "postalCode": "85018-3911"
      },
      {
        "line": [
          "2859 E VOLTAIRE AVE"
        ],
        "city": "PHOENIX",
        "state": "AZ",
        "postalCode": "85032-6017"
      },
      {
        "line": [
          "18074 W TURNEY AVE"
        ],
        "city": "GOODYEAR",
        "state": "AZ",
        "postalCode": "85395-5228"
      },
      {
        "line": [
          "3436 W SANDS DR"
        ],
        "city": "PHOENIX",
        "state": "AZ",
        "postalCode": "85027-1641"
      },
      {
        "line": [
          "6250 N 19TH AVE"
        ],
        "city": "PHOENIX",
        "state": "AZ",
        "postalCode": "85015-1565"
      },
      {
        "line": [
          "25403 S 154TH ST"
        ],
        "city": "GILBERT",
        "state": "AZ",
        "postalCode": "85298-9704"
      },
      {
        "line": [
          "14405 N 151ST DR"
        ],
        "city": "SURPRISE",
        "state": "AZ",
        "postalCode": "85379-7002"
      },
      {
        "line": [
          "10601 E MESETO AVE"
        ],
        "city": "MESA",
        "state": "AZ",
        "postalCode": "85209-7824"
      },
      {
        "line": [
          "14221 N PIPING ROCK CT"
        ],
        "city": "PHOENIX",
        "state": "AZ",
        "postalCode": "85023-6286"
      },
      {
        "line": [
          "5861 W BEVERLY LN"
        ],
        "city": "GLENDALE",
        "state": "AZ",
        "postalCode": "85306-1804"
      },
      {
        "line": [
          "14500 N FRANK LLOYD WRIGHT BLVD"
        ],
        "city": "SCOTTSDALE",
        "state": "AZ",
        "postalCode": "85260-8822"
      },
      {
        "line": [
          "15421 N 177TH DR"
        ],
        "city": "SURPRISE",
        "state": "AZ",
        "postalCode": "85388-3100"
      },
      {
        "line": [
          "11818 N 19TH AVE"
        ],
        "city": "PHOENIX",
        "state": "AZ",
        "postalCode": "85029-3577"
      },
      {
        "line": [
          "13205 S 38TH PL"
        ],
        "city": "PHOENIX",
        "state": "AZ",
        "postalCode": "85044-8201"
      },
      {
        "line": [
          "21436 E LORDS WAY"
        ],
        "city": "QUEEN CREEK",
        "state": "AZ",
        "postalCode": "85142-3285"
      },
      {
        "line": [
          "1694 W GLENDALE AVE"
        ],
        "city": "PHOENIX",
        "state": "AZ",
        "postalCode": "85021-8980"
      },
      {
        "line": [
          "2308 N KACHINA"
        ],
        "city": "MESA",
        "state": "AZ",
        "postalCode": "85203-2114"
      },
      {
        "line": [
          "20545 N LAKE PLEASANT RD"
        ],
        "city": "PEORIA",
        "state": "AZ",
        "postalCode": "85382-2577"
      },
      {
        "line": [
          "13201 S 38TH PL"
        ],
        "city": "PHOENIX",
        "state": "AZ",
        "postalCode": "85044-8201"
      },
      {
        "line": [
          "2002 W SUNNYSIDE DR"
        ],
        "city": "PHOENIX",
        "state": "AZ",
        "postalCode": "85029-3534"
      },
      {
        "line": [
          "11295 N 99TH AVE"
        ],
        "city": "PEORIA",
        "state": "AZ",
        "postalCode": "85345-5409"
      },
      {
        "line": [
          "13825 N CAVE CREEK RD"
        ],
        "city": "PHOENIX",
        "state": "AZ",
        "postalCode": "85022-6178"
      },
      {
        "line": [
          "13820 N 65TH AVE"
        ],
        "city": "GLENDALE",
        "state": "AZ",
        "postalCode": "85306-3755"
      },
      {
        "line": [
          "20371 N 65TH DR"
        ],
        "city": "GLENDALE",
        "state": "AZ",
        "postalCode": "85308-6619"
      },
      {
        "line": [
          "3016 E BLUE RIDGE PL"
        ],
        "city": "CHANDLER",
        "state": "AZ",
        "postalCode": "85249-5950"
      },
      {
        "line": [
          "1551 W CHILTON AVE"
        ],
        "city": "GILBERT",
        "state": "AZ",
        "postalCode": "85233-4603"
      },
      {
        "line": [
          "2532 W LARKSPUR DR"
        ],
        "city": "PHOENIX",
        "state": "AZ",
        "postalCode": "85029-2520"
      },
      {
        "line": [
          "2231 N 38TH ST"
        ],
        "city": "PHOENIX",
        "state": "AZ",
        "postalCode": "85008-3012"
      },
      {
        "line": [
          "14644 W GEORGIA DR"
        ],
        "city": "SURPRISE",
        "state": "AZ",
        "postalCode": "85379-6171"
      },
      {
        "line": [
          "16621 N 38TH ST"
        ],
        "city": "PHOENIX",
        "state": "AZ",
        "postalCode": "85032-2102"
      },
      {
        "line": [
          "7180 W FLYNN LN"
        ],
        "city": "GLENDALE",
        "state": "AZ",
        "postalCode": "85303-7601"
      },
      {
        "line": [
          "4321 W CHOLLA ST"
        ],
        "city": "GLENDALE",
        "state": "AZ",
        "postalCode": "85304-3531"
      },
      {
        "line": [
          "15436 N 64TH ST"
        ],
        "city": "SCOTTSDALE",
        "state": "AZ",
        "postalCode": "85254-2064"
      },
      {
        "line": [
          "15842 W MERCER LN"
        ],
        "city": "SURPRISE",
        "state": "AZ",
        "postalCode": "85379-4781"
      },
      {
        "line": [
          "15453 W STATLER CIR"
        ],
        "city": "SURPRISE",
        "state": "AZ",
        "postalCode": "85374-1461"
      },
      {
        "line": [
          "12917 W LAS CRUCES DR"
        ],
        "city": "LITCHFIELD PARK",
        "state": "AZ",
        "postalCode": "85340-5194"
      },
      {
        "line": [
          "7138 W SADDLEHORN RD"
        ],
        "city": "PEORIA",
        "state": "AZ",
        "postalCode": "85383-7191"
      },
      {
        "line": [
          "22284 N 102ND LN"
        ],
        "city": "PEORIA",
        "state": "AZ",
        "postalCode": "85383-2657"
      },
      {
        "line": [
          "13408 N 52ND AVE"
        ],
        "city": "GLENDALE",
        "state": "AZ",
        "postalCode": "85304-1300"
      },
      {
        "line": [
          "3843 W BERYL AVE"
        ],
        "city": "PHOENIX",
        "state": "AZ",
        "postalCode": "85051-1137"
      },
      {
        "line": [
          "22664 E STACEY RD"
        ],
        "city": "QUEEN CREEK",
        "state": "AZ",
        "postalCode": "85142-2374"
      },
      {
        "line": [
          "13701 N 151ST DR"
        ],
        "city": "SURPRISE",
        "state": "AZ",
        "postalCode": "85379-9112"
      },
      {
        "line": [
          "2550 S REVOLTA"
        ],
        "city": "MESA",
        "state": "AZ",
        "postalCode": "85209-6651"
      },
      {
        "line": [
          "990 W OCOTILLO RD"
        ],
        "city": "CHANDLER",
        "state": "AZ",
        "postalCode": "85248-5708"
      },
      {
        "line": [
          "7983 W MARTHA WAY"
        ],
        "city": "PEORIA",
        "state": "AZ",
        "postalCode": "85381-4351"
      },
      {
        "line": [
          "5560 E DEER VALLEY DR"
        ],
        "city": "PHOENIX",
        "state": "AZ",
        "postalCode": "85054-5713"
      },
      {
        "line": [
          "14239 W CHARTER OAK RD"
        ],
        "city": "SURPRISE",
        "state": "AZ",
        "postalCode": "85379-5515"
      },
      {
        "line": [
          "16543 E ELGIN ST"
        ],
        "city": "GILBERT",
        "state": "AZ",
        "postalCode": "85295-2003"
      },
      {
        "line": [
          "850 S PENNINGTON DR"
        ],
        "city": "CHANDLER",
        "state": "AZ",
        "postalCode": "85224-5500"
      },
      {
        "line": [
          "11802 N 19TH AVE"
        ],
        "city": "PHOENIX",
        "state": "AZ",
        "postalCode": "85029-3549"
      },
      {
        "line": [
          "8504 W AUDREY LN"
        ],
        "city": "PEORIA",
        "state": "AZ",
        "postalCode": "85382-8054"
      },
      {
        "line": [
          "15244 W WATSON LN"
        ],
        "city": "SURPRISE",
        "state": "AZ",
        "postalCode": "85379-7040"
      },
      {
        "line": [
          "6646 E MONTEROSA ST"
        ],
        "city": "SCOTTSDALE",
        "state": "AZ",
        "postalCode": "85251-3139"
      },
      {
        "line": [
          "7848 N 4TH PL"
        ],
        "city": "PHOENIX",
        "state": "AZ",
        "postalCode": "85020-4009"
      },
      {
        "line": [
          "660 W MCLELLAN RD"
        ],
        "city": "MESA",
        "state": "AZ",
        "postalCode": "85201-2112"
      },
      {
        "line": [
          "20554 N 101ST AVE"
        ],
        "city": "PEORIA",
        "state": "AZ",
        "postalCode": "85382-2596"
      },
      {
        "line": [
          "18260 W BECK LN"
        ],
        "city": "SURPRISE",
        "state": "AZ",
        "postalCode": "85388-2343"
      },
      {
        "line": [
          "4533 E BANNER GATEWAY DR"
        ],
        "city": "MESA",
        "state": "AZ",
        "postalCode": "85206-4708"
      },
      {
        "line": [
          "16345 W ROOSEVELT ST"
        ],
        "city": "GOODYEAR",
        "state": "AZ",
        "postalCode": "85338-6265"
      },
      {
        "line": [
          "1812 S RACINE LN"
        ],
        "city": "GILBERT",
        "state": "AZ",
        "postalCode": "85295-9058"
      },
      {
        "line": [
          "2811 E AGRITOPIA LOOP S"
        ],
        "city": "GILBERT",
        "state": "AZ",
        "postalCode": "85296-7834"
      },
      {
        "line": [
          "19027 N 73RD DR"
        ],
        "city": "GLENDALE",
        "state": "AZ",
        "postalCode": "85308-5869"
      },
      {
        "line": [
          "3532 E CAMELBACK RD"
        ],
        "city": "PHOENIX",
        "state": "AZ",
        "postalCode": "85018-2404"
      },
      {
        "line": [
          "1502 N ROCHESTER DR"
        ],
        "city": "GILBERT",
        "state": "AZ",
        "postalCode": "85234-1472"
      },
      {
        "line": [
          "6130 N 16TH ST"
        ],
        "city": "PHOENIX",
        "state": "AZ",
        "postalCode": "85016-1705"
      },
      {
        "line": [
          "7311 E SUNNYSIDE DR"
        ],
        "city": "SCOTTSDALE",
        "state": "AZ",
        "postalCode": "85260-5440"
      },
      {
        "line": [
          "1735 N VAL VISTA DR"
        ],
        "city": "MESA",
        "state": "AZ",
        "postalCode": "85213-3223"
      },
      {
        "line": [
          "14628 N 49TH PL"
        ],
        "city": "SCOTTSDALE",
        "state": "AZ",
        "postalCode": "85254-2208"
      },
      {
        "line": [
          "4950 W CHANDLER BLVD"
        ],
        "city": "CHANDLER",
        "state": "AZ",
        "postalCode": "85226-7921"
      },
      {
        "line": [
          "210 S 98TH WAY"
        ],
        "city": "MESA",
        "state": "AZ",
        "postalCode": "85208-1874"
      },
      {
        "line": [
          "8611 N 67TH AVE"
        ],
        "city": "GLENDALE",
        "state": "AZ",
        "postalCode": "85302-4351"
      },
      {
        "line": [
          "20978 N 99TH DR"
        ],
        "city": "PEORIA",
        "state": "AZ",
        "postalCode": "85382-2522"
      },
      {
        "line": [
          "12002 W SHERIDAN ST"
        ],
        "city": "AVONDALE",
        "state": "AZ",
        "postalCode": "85392-3078"
      },
      {
        "line": [
          "6982 W VILLA LINDO DR"
        ],
        "city": "PEORIA",
        "state": "AZ",
        "postalCode": "85383-3270"
      },
      {
        "line": [
          "5125 N 58TH AVE"
        ],
        "city": "GLENDALE",
        "state": "AZ",
        "postalCode": "85301-7453"
      },
      {
        "line": [
          "1756 E KENWOOD ST"
        ],
        "city": "MESA",
        "state": "AZ",
        "postalCode": "85203-2163"
      },
      {
        "line": [
          "3811 N 44TH ST",
          "SUITE A"
        ],
        "city": "PHOENIX",
        "state": "AZ",
        "postalCode": "85018-5420"
      },
      {
        "line": [
          "16118 N 168TH LN"
        ],
        "city": "SURPRISE",
        "state": "AZ",
        "postalCode": "85388-1350"
      },
      {
        "line": [
          "1619 W COLT RD"
        ],
        "city": "CHANDLER",
        "state": "AZ",
        "postalCode": "85224-2611"
      },
      {
        "line": [
          "2625 E SOUTHERN AVE"
        ],
        "city": "TEMPE",
        "state": "AZ",
        "postalCode": "85282-7601"
      },
      {
        "line": [
          "9146 W QUAIL TRACK DR"
        ],
        "city": "PEORIA",
        "state": "AZ",
        "postalCode": "85383-5148"
      },
      {
        "line": [
          "18431 W PORT ROYALE LN"
        ],
        "city": "SURPRISE",
        "state": "AZ",
        "postalCode": "85388-7679"
      },
      {
        "line": [
          "7357 E OLLA AVE"
        ],
        "city": "MESA",
        "state": "AZ",
        "postalCode": "85212-9763"
      },
      {
        "line": [
          "14801 N B ST"
        ],
        "city": "EL MIRAGE",
        "state": "AZ",
        "postalCode": "85335-6955"
      },
      {
        "line": [
          "5338 E ESCONDIDO CIR"
        ],
        "city": "MESA",
        "state": "AZ",
        "postalCode": "85206-2907"
      },
      {
        "line": [
          "2330 W QUAIL TRACK DR"
        ],
        "city": "PHOENIX",
        "state": "AZ",
        "postalCode": "85085-5780"
      },
      {
        "line": [
          "2156 E GLENCOVE ST"
        ],
        "city": "MESA",
        "state": "AZ",
        "postalCode": "85213-4611"
      },
      {
        "line": [
          "940 E WILLIAMS FIELD RD"
        ],
        "city": "GILBERT",
        "state": "AZ",
        "postalCode": "85295-5700"
      },
      {
        "line": [
          "941 E ELLIOT RD"
        ],
        "city": "GILBERT",
        "state": "AZ",
        "postalCode": "85234-7100"
      },
      {
        "line": [
          "4526 N 82ND ST"
        ],
        "city": "SCOTTSDALE",
        "state": "AZ",
        "postalCode": "85251-1702"
      },
      {
        "line": [
          "16239 N 33RD AVE"
        ],
        "city": "PHOENIX",
        "state": "AZ",
        "postalCode": "85053-2979"
      },
      {
        "line": [
          "4040 E HIGHLAND AVE"
        ],
        "city": "PHOENIX",
        "state": "AZ",
        "postalCode": "85018-3751"
      },
      {
        "line": [
          "10304 E JAN AVE"
        ],
        "city": "MESA",
        "state": "AZ",
        "postalCode": "85209-7725"
      },
      {
        "line": [
          "17442 N 28TH ST"
        ],
        "city": "PHOENIX",
        "state": "AZ",
        "postalCode": "85032-1903"
      },
      {
        "line": [
          "5962 E SENECA ST"
        ],
        "city": "TUCSON",
        "state": "AZ",
        "postalCode": "85712-3008"
      },
      {
        "line": [
          "3942 E FLORIAN AVE"
        ],
        "city": "MESA",
        "state": "AZ",
        "postalCode": "85206-2550"
      },
      {
        "line": [
          "23005 N 74TH ST"
        ],
        "city": "SCOTTSDALE",
        "state": "AZ",
        "postalCode": "85255-7500"
      },
      {
        "line": [
          "977 S PENNINGTON DR"
        ],
        "city": "CHANDLER",
        "state": "AZ",
        "postalCode": "85224-5658"
      },
      {
        "line": [
          "12802 N 68TH ST"
        ],
        "city": "SCOTTSDALE",
        "state": "AZ",
        "postalCode": "85254-4543"
      },
      {
        "line": [
          "6121 W FOOTHILL DR"
        ],
        "city": "GLENDALE",
        "state": "AZ",
        "postalCode": "85310-4211"
      },
      {
        "line": [
          "3112 N 34TH ST"
        ],
        "city": "PHOENIX",
        "state": "AZ",
        "postalCode": "85016-6212"
      },
      {
        "line": [
          "7036 W PARKWAY DR"
        ],
        "city": "PHOENIX",
        "state": "AZ",
        "postalCode": "85043-6921"
      },
      {
        "line": [
          "22834 N 90TH DR"
        ],
        "city": "PEORIA",
        "state": "AZ",
        "postalCode": "85383-1967"
      },
      {
        "line": [
          "18208 N 145TH AVE"
        ],
        "city": "SURPRISE",
        "state": "AZ",
        "postalCode": "85374-4204"
      },
      {
        "line": [
          "5248 E MARCONI AVE"
        ],
        "city": "SCOTTSDALE",
        "state": "AZ",
        "postalCode": "85254-1763"
      },
      {
        "line": [
          "6912 W PINNACLE PEAK RD"
        ],
        "city": "PEORIA",
        "state": "AZ",
        "postalCode": "85383-3227"
      },
      {
        "line": [
          "5301 N 6TH ST"
        ],
        "city": "PHOENIX",
        "state": "AZ",
        "postalCode": "85012-1453"
      },
      {
        "line": [
          "3040 N 36TH ST"
        ],
        "city": "PHOENIX",
        "state": "AZ",
        "postalCode": "85018-6999"
      },
      {
        "line": [
          "312 N BRETT ST"
        ],
        "city": "GILBERT",
        "state": "AZ",
        "postalCode": "85234-6180"
      },
      {
        "line": [
          "2004 W WESTERN DR"
        ],
        "city": "CHANDLER",
        "state": "AZ",
        "postalCode": "85224-1149"
      },
      {
        "line": [
          "2461 E BLUE SPRUCE LN"
        ],
        "city": "GILBERT",
        "state": "AZ",
        "postalCode": "85298-3418"
      },
      {
        "line": [
          "18003 W MAUNA LOA LN"
        ],
        "city": "SURPRISE",
        "state": "AZ",
        "postalCode": "85388-7643"
      },
      {
        "line": [
          "16617 N WEST POINT PKWY"
        ],
        "city": "SURPRISE",
        "state": "AZ",
        "postalCode": "85374-4016"
      },
      {
        "line": [
          "2438 W SUNLAND AVE"
        ],
        "city": "PHOENIX",
        "state": "AZ",
        "postalCode": "85041-4491"
      },
      {
        "line": [
          "10161 W LAWRENCE LN"
        ],
        "city": "PEORIA",
        "state": "AZ",
        "postalCode": "85345-7380"
      },
      {
        "line": [
          "2635 N DYSART RD"
        ],
        "city": "AVONDALE",
        "state": "AZ",
        "postalCode": "85392-2000"
      },
      {
        "line": [
          "3426 W ANGELA DR"
        ],
        "city": "PHOENIX",
        "state": "AZ",
        "postalCode": "85053-6613"
      },
      {
        "line": [
          "6650 E MAYO BLVD",
          "BUILDING 1"
        ],
        "city": "PHOENIX",
        "state": "AZ",
        "postalCode": "85054-3102"
      },
      {
        "line": [
          "5711 E AIRE LIBRE AVE"
        ],
        "city": "SCOTTSDALE",
        "state": "AZ",
        "postalCode": "85254-1206"
      },
      {
        "line": [
          "25661 N DESERT MESA DR"
        ],
        "city": "SURPRISE",
        "state": "AZ",
        "postalCode": "85387-6830"
      },
      {
        "line": [
          "7116 E MEDINA AVE"
        ],
        "city": "MESA",
        "state": "AZ",
        "postalCode": "85209-4826"
      },
      {
        "line": [
          "3943 E LUPINE AVE"
        ],
        "city": "PHOENIX",
        "state": "AZ",
        "postalCode": "85028-2128"
      },
      {
        "line": [
          "5100 N 24TH ST"
        ],
        "city": "PHOENIX",
        "state": "AZ",
        "postalCode": "85016-3517"
      },
      {
        "line": [
          "8620 N 65TH AVE"
        ],
        "city": "GLENDALE",
        "state": "AZ",
        "postalCode": "85302-4330"
      },
      {
        "line": [
          "6670 W BUTLER DR"
        ],
        "city": "GLENDALE",
        "state": "AZ",
        "postalCode": "85302-4310"
      },
      {
        "line": [
          "9452 E JACOB AVE"
        ],
        "city": "MESA",
        "state": "AZ",
        "postalCode": "85209-7022"
      },
      {
        "line": [
          "16942 W BRISTOL LN"
        ],
        "city": "SURPRISE",
        "state": "AZ",
        "postalCode": "85374-0804"
      },
      {
        "line": [
          "15844 W CARIBBEAN LN"
        ],
        "city": "SURPRISE",
        "state": "AZ",
        "postalCode": "85379-6240"
      },
      {
        "line": [
          "460 E PHELPS ST"
        ],
        "city": "GILBERT",
        "state": "AZ",
        "postalCode": "85295-2091"
      },
      {
        "line": [
          "1804 S SOUTHWIND CT"
        ],
        "city": "GILBERT",
        "state": "AZ",
        "postalCode": "85295-4833"
      },
      {
        "line": [
          "5401 W DAILEY ST"
        ],
        "city": "GLENDALE",
        "state": "AZ",
        "postalCode": "85306-4708"
      },
      {
        "line": [
          "1330 E IVANHOE ST"
        ],
        "city": "CHANDLER",
        "state": "AZ",
        "postalCode": "85225-5319"
      },
      {
        "line": [
          "6210 E ARBOR AVE"
        ],
        "city": "MESA",
        "state": "AZ",
        "postalCode": "85206-1681"
      },
      {
        "line": [
          "6651 S FOUR PEAKS PL"
        ],
        "city": "CHANDLER",
        "state": "AZ",
        "postalCode": "85249-9131"
      },
      {
        "line": [
          "5452 W TOPEKA DR"
        ],
        "city": "GLENDALE",
        "state": "AZ",
        "postalCode": "85308-4961"
      },
      {
        "line": [
          "1898 E ELLIS DR"
        ],
        "city": "TEMPE",
        "state": "AZ",
        "postalCode": "85282-7324"
      },
      {
        "line": [
          "13024 N 154TH LN"
        ],
        "city": "SURPRISE",
        "state": "AZ",
        "postalCode": "85379-9156"
      },
      {
        "line": [
          "7325 E PRINCESS BLVD"
        ],
        "city": "SCOTTSDALE",
        "state": "AZ",
        "postalCode": "85255-5991"
      },
      {
        "line": [
          "5801 E BECK LN"
        ],
        "city": "SCOTTSDALE",
        "state": "AZ",
        "postalCode": "85254-1812"
      },
      {
        "line": [
          "222 E INDIANOLA AVE"
        ],
        "city": "PHOENIX",
        "state": "AZ",
        "postalCode": "85012-4000"
      },
      {
        "line": [
          "13639 E RAY RD"
        ],
        "city": "GILBERT",
        "state": "AZ",
        "postalCode": "85296-4007"
      },
      {
        "line": [
          "7886 W PIUTE AVE"
        ],
        "city": "GLENDALE",
        "state": "AZ",
        "postalCode": "85308-6167"
      },
      {
        "line": [
          "15129 W PARADISE LN"
        ],
        "city": "SURPRISE",
        "state": "AZ",
        "postalCode": "85374-4071"
      },
      {
        "line": [
          "2940 E TEMPLE CT"
        ],
        "city": "GILBERT",
        "state": "AZ",
        "postalCode": "85296-8617"
      },
      {
        "line": [
          "2122 E BROWN RD"
        ],
        "city": "MESA",
        "state": "AZ",
        "postalCode": "85213-5200"
      },
      {
        "line": [
          "561 E VERMONT DR"
        ],
        "city": "GILBERT",
        "state": "AZ",
        "postalCode": "85295-5945"
      },
      {
        "line": [
          "11250 N 92ND ST"
        ],
        "city": "SCOTTSDALE",
        "state": "AZ",
        "postalCode": "85260-6148"
      },
      {
        "line": [
          "4149 E GREENWAY CIR"
        ],
        "city": "MESA",
        "state": "AZ",
        "postalCode": "85205-4036"
      },
      {
        "line": [
          "3142 E ACOMA DR"
        ],
        "city": "PHOENIX",
        "state": "AZ",
        "postalCode": "85032-5013"
      },
      {
        "line": [
          "5131 W SWEETWATER AVE"
        ],
        "city": "GLENDALE",
        "state": "AZ",
        "postalCode": "85304-1311"
      },
      {
        "line": [
          "16768 W BRISTOL LN"
        ],
        "city": "SURPRISE",
        "state": "AZ",
        "postalCode": "85374-6812"
      },
      {
        "line": [
          "5825 E INDIAN SCHOOL RD"
        ],
        "city": "PHOENIX",
        "state": "AZ",
        "postalCode": "85018-6104"
      },
      {
        "line": [
          "4031 E FAWN DR"
        ],
        "city": "PHOENIX",
        "state": "AZ",
        "postalCode": "85040-7327"
      },
      {
        "line": [
          "15048 W YOUNG ST"
        ],
        "city": "SURPRISE",
        "state": "AZ",
        "postalCode": "85374-7484"
      },
      {
        "line": [
          "9508 E RIGGS RD"
        ],
        "city": "SUN LAKES",
        "state": "AZ",
        "postalCode": "85248-7531"
      },
      {
        "line": [
          "7603 S 13TH PL"
        ],
        "city": "PHOENIX",
        "state": "AZ",
        "postalCode": "85042-6705"
      }
    ],
    "extension": [
      {
        "url": "https://fhir.athena.io/StructureDefinition/ah-practice",
        "valueReference": {
          "reference": "Organization/a-1.Practice-32658"
        }
      },
      {
        "url": "https://fhir.athena.io/StructureDefinition/ah-brand",
        "valueReference": {
          "reference": "Organization/a-32658.Brand-1"
        }
      }
    ]
  },
  "fullUrl": "urn:uuid:c45240d2-6559-555a-9e0d-1af7661fbb6e"
}