{
  "resource": {
    "resourceType": "Organization",
    "id": "04696628-49ff-57ac-9aed-9d2c0517ea98",
    "name": "Doctor Sandra Hutchison's Office",
    "endpoint": [
      {
        "reference": "Endpoint/27a4e967-47aa-5a9c-a572-b8297ee268a2"
      },
      {
        "reference": "Endpoint/c6d24a3a-d794-5330-bc8f-b7333813a2e5"
      }
    ],
    "identifier": [
      {
        "system": "http://hl7.org/fhir/sid/us-npi",
        "value": "1356838023"
      }
    ],
    "address": [
      {
        "line": [
          "3458 TED TROUT DRIVE"
        ],
        "city": "LUFKIN",
        "state": "TX",
        "postalCode": "75904-4783"
      },
      {
        "line": [
          "1717 US-59 LOOP N"
        ],
        "city": "LIVINGSTON",
        "state": "TX",
        "postalCode": "77351-9444"
      },
      {
        "line": [
          "1437 S 4456 FM 1988"
        ],
        "city": "LIVINGSTON",
        "state": "TX",
        "postalCode": "77351-8151"
      },
      {
        "line": [
          "1433 VETERANS MEMORIAL PARKWAY"
        ],
        "city": "HUNTSVILLE",
        "state": "TX",
        "postalCode": "77340-1300"
      },
      {
        "line": [
          "110 MEMORIAL HOSPITAL DR"
        ],
        "city": "HUNTSVILLE",
        "state": "TX",
        "postalCode": "77340-4940"
      },
      {
        "line": [
          "16730 N ELDRIDGE PKWY STE B"
        ],
        "city": "TOMBALL",
        "state": "TX",
        "postalCode": "77377-9077"
      },
      {
        "line": [
          "14046 MAIN STREET"
        ],
        "city": "CHESTER",
        "state": "TX",
        "postalCode": "75936-2518"
      },
      {
        "line": [
          "6647 MAYARD RD."
        ],
        "city": "HOUSTON",
        "state": "TX",
        "postalCode": "77041-2613"
      },
      {
        "line": [
          "2170 BUCKTHORNE PLACE SUITE 420"
        ],
        "city": "SPRING",
        "state": "TX",
        "postalCode": "77380-1775"
      },
      {
        "line": [
          "509 S WASHINGTON AVE"
        ],
        "city": "CLEVELAND",
        "state": "TX",
        "postalCode": "77327-4875"
      },
      {
        "line": [
          "521 NORTH FWY SERVICE RD SUITE 1"
        ],
        "city": "HUNTSVILLE",
        "state": "TX",
        "postalCode": "77340-9999"
      },
      {
        "line": [
          "1601 US HWY 59 LOOP NORTH",
          "SUITE 600"
        ],
        "city": "LIVINGSTON",
        "state": "TX",
        "postalCode": "77351-6807"
      },
      {
        "line": [
          "101 N. PECAN"
        ],
        "city": "WOODVILLE",
        "state": "TX",
        "postalCode": "75979-4723"
      },
      {
        "line": [
          "1620 US-59 BUS"
        ],
        "city": "LIVINGSTON",
        "state": "TX",
        "postalCode": "77351-8151"
      },
      {
        "line": [
          "600 BACON ST"
        ],
        "city": "MADISONVILLE",
        "state": "TX",
        "postalCode": "77864-2575"
      },
      {
        "line": [
          "5265 LOUETTA RD."
        ],
        "city": "SPRING",
        "state": "TX",
        "postalCode": "77379-8113"
      },
      {
        "line": [
          "7899 US 190 WEST"
        ],
        "city": "LIVINGSTON",
        "state": "TX",
        "postalCode": "77351-7380"
      },
      {
        "line": [
          "1106 WEST CHURCH ST",
          "STE 8"
        ],
        "city": "LIVINGSTON",
        "state": "TX",
        "postalCode": "77351-7380"
      },
      {
        "line": [
          "1791 S byrd ave"
        ],
        "city": "SHEPHERD",
        "state": "TX",
        "postalCode": "77371-3528"
      },
      {
        "line": [
          "400 BELCHER ST STE 6"
        ],
        "city": "CLEVELAND",
        "state": "TX",
        "postalCode": "77327-3654"
      },
      {
        "line": [
          "403 OGLETREE DR. STE 105"
        ],
        "city": "LIVINGSTON",
        "state": "TX",
        "postalCode": "77351-9444"
      },
      {
        "line": [
          "718 WEST BLUFF STREET"
        ],
        "city": "WOODVILLE",
        "state": "TX",
        "postalCode": "75979-5132"
      },
      {
        "line": [
          "2040 NORTH LOOP 336 W",
          "STE 302"
        ],
        "city": "CONROE",
        "state": "TX",
        "postalCode": "77304-3592"
      },
      {
        "line": [
          "400 BYPASS LANE",
          "SUITE 400"
        ],
        "city": "LIVINGSTON",
        "state": "TX",
        "postalCode": "77351-7380"
      },
      {
        "line": [
          "1810 N Washington Avenue"
        ],
        "city": "LIVINGSTON",
        "state": "TX",
        "postalCode": "77351-6807"
      },
      {
        "line": [
          "716 west bluff st"
        ],
        "city": "WOODVILLE",
        "state": "TX",
        "postalCode": "75979-5132"
      },
      {
        "line": [
          "501 Garden Ridge Dr"
        ],
        "city": "LIVINGSTON",
        "state": "TX",
        "postalCode": "77351-8151"
      },
      {
        "line": [
          "403 ogletree dr suite 105"
        ],
        "city": "LIVINGSTON",
        "state": "TX",
        "postalCode": "77351-9444"
      },
      {
        "line": [
          "6900 State hwy 146 S"
        ],
        "city": "LIVINGSTON",
        "state": "TX",
        "postalCode": "77351-6807"
      },
      {
        "line": [
          "171 OLD MILL CENTER"
        ],
        "city": "LIVINGSTON",
        "state": "TX",
        "postalCode": "77351-9998"
      },
      {
        "line": [
          "315 WILSON ST"
        ],
        "city": "HENDERSON",
        "state": "TX",
        "postalCode": "75652-5955"
      },
      {
        "line": [
          "4001 HIGHWAY 59 NORTH"
        ],
        "city": "LIVINGSTON",
        "state": "TX",
        "postalCode": "77351-4663"
      },
      {
        "line": [
          "101 WOODLAND PARK DR"
        ],
        "city": "SHEPHERD",
        "state": "TX",
        "postalCode": "77371-6497"
      },
      {
        "line": [
          "301 WEST PARK"
        ],
        "city": "LIVINGSTON",
        "state": "TX",
        "postalCode": "77351-8151"
      },
      {
        "line": [
          "314 E Caroline St"
        ],
        "city": "TRINITY",
        "state": "TX",
        "postalCode": "75862-7205"
      },
      {
        "line": [
          "13100 NORTHWEST FWY STE 400"
        ],
        "city": "HOUSTON",
        "state": "TX",
        "postalCode": "77040-6348"
      },
      {
        "line": [
          "1860 N WASHINGTON AVE"
        ],
        "city": "LIVINGSTON",
        "state": "TX",
        "postalCode": "77351-2771"
      },
      {
        "line": [
          "7807 LONG POINT RD NUMBER 243"
        ],
        "city": "HOUSTON",
        "state": "TX",
        "postalCode": "77055-3653"
      },
      {
        "line": [
          "301 hwy 59 loop s suite H"
        ],
        "city": "LIVINGSTON",
        "state": "TX",
        "postalCode": "77351-9095"
      }
    ],
    "extension": [
      {
        "url": "https://fhir.athena.io/StructureDefinition/ah-practice",
        "valueReference": {
          "reference": "Organization/a-1.Practice-17913"
        }
      },
      {
        "url": "https://fhir.athena.io/StructureDefinition/ah-brand",
        "valueReference": {
          "reference": "Organization/a-17913.Brand-1"
        }
      }
    ]
  },
  "fullUrl": "urn:uuid:04696628-49ff-57ac-9aed-9d2c0517ea98"
}