{
  "resource": {
    "resourceType": "Organization",
    "id": "f209a359-7e2c-5be7-839e-23f21818640f",
    "name": "LGH PROFESSIONAL SERVICES LLC",
    "endpoint": [
      {
        "reference": "Endpoint/27a4e967-47aa-5a9c-a572-b8297ee268a2"
      },
      {
        "reference": "Endpoint/13432d66-c62c-5eda-b060-bac253a5dcae"
      }
    ],
    "identifier": [
      {
        "system": "http://hl7.org/fhir/sid/us-npi",
        "value": "1417485541"
      }
    ],
    "address": [
      {
        "line": [
          "1071 Varnum Avenue"
        ],
        "city": "LOWELL",
        "state": "MA",
        "postalCode": "01854-1131"
      },
      {
        "line": [
          "1071 Varnum Avenue"
        ],
        "city": "LOWELL",
        "state": "MA",
        "postalCode": "01854-1913"
      },
      {
        "line": [
          "254 Billerica Road"
        ],
        "city": "CHELMSFORD",
        "state": "MA",
        "postalCode": "01824-4114"
      },
      {
        "line": [
          "1071 Varnum Avenue",
          "D'Youville Center for Advanced Therapy"
        ],
        "city": "LOWELL",
        "state": "MA",
        "postalCode": "01854-1131"
      },
      {
        "line": [
          "1010 Varnum Avenue"
        ],
        "city": "LOWELL",
        "state": "MA",
        "postalCode": "01854-1915"
      },
      {
        "line": [
          "10 Erlin Terrace"
        ],
        "city": "TEWKSBURY",
        "state": "MA",
        "postalCode": "01876-2666"
      },
      {
        "line": [
          "476 VARNUM AVENUE"
        ],
        "city": "LOWELL",
        "state": "MA",
        "postalCode": "01854-2122"
      },
      {
        "line": [
          "259 Baldwin Street"
        ],
        "city": "LOWELL",
        "state": "MA",
        "postalCode": "01851-2211"
      },
      {
        "line": [
          "80 Boston Road"
        ],
        "city": "NORTH BILLERICA",
        "state": "MA",
        "postalCode": "01862-1034"
      },
      {
        "line": [
          "500 Wentworth Avenue"
        ],
        "city": "LOWELL",
        "state": "MA",
        "postalCode": "01854-4937"
      },
      {
        "line": [
          "19 Varnum Street",
          "Lowell Healthcare Center"
        ],
        "city": "LOWELL",
        "state": "MA",
        "postalCode": "01850-2132"
      },
      {
        "line": [
          "40 Parkhurst Road"
        ],
        "city": "CHELMSFORD",
        "state": "MA",
        "postalCode": "01824-1513"
      },
      {
        "line": [
          "557 Varnum Ave"
        ],
        "city": "LOWELL",
        "state": "MA",
        "postalCode": "01854-2122"
      },
      {
        "line": [
          "30 Princeton Blvd"
        ],
        "city": "LOWELL",
        "state": "MA",
        "postalCode": "01851-2405"
      },
      {
        "line": [
          "841 Merrimack Street"
        ],
        "city": "LOWELL",
        "state": "MA",
        "postalCode": "01854-3500"
      },
      {
        "line": [
          "100 Old Billerica Road"
        ],
        "city": "BEDFORD",
        "state": "MA",
        "postalCode": "01730-1267"
      }
    ],
    "extension": [
      {
        "url": "https://fhir.athena.io/StructureDefinition/ah-practice",
        "valueReference": {
          "reference": "Organization/a-1.Practice-1559"
        }
      },
      {
        "url": "https://fhir.athena.io/StructureDefinition/ah-brand",
        "valueReference": {
          "reference": "Organization/a-1559.Brand-1"
        }
      }
    ]
  },
  "fullUrl": "urn:uuid:f209a359-7e2c-5be7-839e-23f21818640f"
}