{
  "resource": {
    "resourceType": "Organization",
    "id": "0efd0d5c-db5c-52a6-94c0-79b88aaafdf4",
    "name": "ARA Crystal Lake",
    "endpoint": [
      {
        "reference": "Endpoint/27a4e967-47aa-5a9c-a572-b8297ee268a2"
      },
      {
        "reference": "Endpoint/7a35c2cd-ad53-56d8-9908-e690ce3151cd"
      }
    ],
    "identifier": [
      {
        "system": "http://hl7.org/fhir/sid/us-npi",
        "value": "1427399211"
      },
      {
        "system": "http://hl7.org/fhir/sid/us-npi",
        "value": "1083640254"
      },
      {
        "system": "http://hl7.org/fhir/sid/us-npi",
        "value": "1528267937"
      },
      {
        "system": "http://hl7.org/fhir/sid/us-npi",
        "value": "1487210316"
      },
      {
        "system": "http://hl7.org/fhir/sid/us-npi",
        "value": "1932514387"
      },
      {
        "system": "http://hl7.org/fhir/sid/us-npi",
        "value": "1417336207"
      },
      {
        "system": "http://hl7.org/fhir/sid/us-npi",
        "value": "1508126764"
      },
      {
        "system": "http://hl7.org/fhir/sid/us-npi",
        "value": "1275784498"
      },
      {
        "system": "http://hl7.org/fhir/sid/us-npi",
        "value": "1619389715"
      },
      {
        "system": "http://hl7.org/fhir/sid/us-npi",
        "value": "1861816167"
      },
      {
        "system": "http://hl7.org/fhir/sid/us-npi",
        "value": "1194755272"
      },
      {
        "system": "http://hl7.org/fhir/sid/us-npi",
        "value": "1073963716"
      }
    ],
    "address": [
      {
        "line": [
          "9401 S KOSTNER AVE"
        ],
        "city": "OAK LAWN",
        "state": "IL",
        "postalCode": "60453-2697"
      },
      {
        "line": [
          "214 Peach Orchard Road"
        ],
        "city": "MC CONNELLSBURG",
        "state": "PA",
        "postalCode": "17233-8559"
      },
      {
        "line": [
          "3001 W DR MARTIN LUTHER KING JR BLVD"
        ],
        "city": "TAMPA",
        "state": "FL",
        "postalCode": "33607-6307"
      },
      {
        "line": [
          "1968 PEACHTREE RD NW"
        ],
        "city": "ATLANTA",
        "state": "GA",
        "postalCode": "30309-1281"
      },
      {
        "line": [
          "702 S. Rittenhouse Drive"
        ],
        "city": "PONTIAC",
        "state": "IL",
        "postalCode": "61764-3630"
      },
      {
        "line": [
          "1 TAMPA GENERAL CIR"
        ],
        "city": "TAMPA",
        "state": "FL",
        "postalCode": "33606-3571"
      },
      {
        "line": [
          "2320 E 93RD ST"
        ],
        "city": "CHICAGO",
        "state": "IL",
        "postalCode": "60617-3909"
      },
      {
        "line": [
          "3100 E FLETCHER AVE"
        ],
        "city": "TAMPA",
        "state": "FL",
        "postalCode": "33613-4613"
      },
      {
        "line": [
          "149 E IRVING PARK RD"
        ],
        "city": "STREAMWOOD",
        "state": "IL",
        "postalCode": "60107-2950"
      },
      {
        "line": [
          "4712 CHESTER AVE"
        ],
        "city": "PHILADELPHIA",
        "state": "PA",
        "postalCode": "19143-3513"
      },
      {
        "line": [
          "875 S. ROUTE 31"
        ],
        "city": "CRYSTAL LAKE",
        "state": "IL",
        "postalCode": "60014-8168"
      },
      {
        "line": [
          "16540 South Halsted Street",
          "Suite A"
        ],
        "city": "HARVEY",
        "state": "IL",
        "postalCode": "60426-6111"
      },
      {
        "line": [
          "13259 S CENTRAL AVE"
        ],
        "city": "CRESTWOOD",
        "state": "IL",
        "postalCode": "60418-2901"
      },
      {
        "line": [
          "2184 N. State Street"
        ],
        "city": "BELVIDERE",
        "state": "IL",
        "postalCode": "61008-1944"
      },
      {
        "line": [
          "812 CAMPUS DR"
        ],
        "city": "JOLIET",
        "state": "IL",
        "postalCode": "60435-5128"
      },
      {
        "line": [
          "100 N HANOVER ST"
        ],
        "city": "CARLISLE",
        "state": "PA",
        "postalCode": "17013-2421"
      },
      {
        "line": [
          "9660 Wicker Avenue"
        ],
        "city": "SAINT JOHN",
        "state": "IN",
        "postalCode": "46373-9487"
      },
      {
        "line": [
          "744 TELL ST",
          "Suite 100"
        ],
        "city": "ATHENS",
        "state": "TN",
        "postalCode": "37303-3148"
      },
      {
        "line": [
          "7187 BROAD ST"
        ],
        "city": "BROOKSVILLE",
        "state": "FL",
        "postalCode": "34601-5536"
      },
      {
        "line": [
          "16110 LA SALLE ST"
        ],
        "city": "SOUTH HOLLAND",
        "state": "IL",
        "postalCode": "60473-1299"
      },
      {
        "line": [
          "1110 W PEACHTREE ST NW STE 1050"
        ],
        "city": "ATLANTA",
        "state": "GA",
        "postalCode": "30309-3609"
      },
      {
        "line": [
          "2649 E 75TH ST"
        ],
        "city": "CHICAGO",
        "state": "IL",
        "postalCode": "60649-3835"
      },
      {
        "line": [
          "600 GRANT ST"
        ],
        "city": "GARY",
        "state": "IN",
        "postalCode": "46402-6001"
      },
      {
        "line": [
          "6914 SHELDON RD STE 102"
        ],
        "city": "TAMPA",
        "state": "FL",
        "postalCode": "33615-2701"
      },
      {
        "line": [
          "1545 N BARRINGTON RD"
        ],
        "city": "HOFFMAN ESTATES",
        "state": "IL",
        "postalCode": "60169-1018"
      },
      {
        "line": [
          "2540 HAUSER ROSS DR STE 200"
        ],
        "city": "SYCAMORE",
        "state": "IL",
        "postalCode": "60178-3171"
      },
      {
        "line": [
          "215 Remington Blvd",
          "Suite G2"
        ],
        "city": "BOLINGBROOK",
        "state": "IL",
        "postalCode": "60440-4302"
      },
      {
        "line": [
          "9200 S SOUTH CHICAGO AVE"
        ],
        "city": "CHICAGO",
        "state": "IL",
        "postalCode": "60617-4512"
      },
      {
        "line": [
          "3660 FLAT SHOALS RD SUITE 250"
        ],
        "city": "DECATUR",
        "state": "GA",
        "postalCode": "30034-1637"
      },
      {
        "line": [
          "812 Campus"
        ],
        "city": "JOLIET",
        "state": "IL",
        "postalCode": "60435-5128"
      },
      {
        "line": [
          "205 GRANDVIEW AVE"
        ],
        "city": "CAMP HILL",
        "state": "PA",
        "postalCode": "17011-1708"
      },
      {
        "line": [
          "4211 VAN DYKE RD"
        ],
        "city": "LUTZ",
        "state": "FL",
        "postalCode": "33558-8005"
      },
      {
        "line": [
          "6298 NORTHWEST HWY"
        ],
        "city": "CRYSTAL LAKE",
        "state": "IL",
        "postalCode": "60014-7933"
      },
      {
        "line": [
          "17225 PAXTON AVE"
        ],
        "city": "SOUTH HOLLAND",
        "state": "IL",
        "postalCode": "60473-3757"
      },
      {
        "line": [
          "105 Lee Parkway",
          "Suite G1"
        ],
        "city": "CHATTANOOGA",
        "state": "TN",
        "postalCode": "37421-6708"
      },
      {
        "line": [
          "222 VOLLMER RD STE 1A STE 1A"
        ],
        "city": "CHICAGO HEIGHTS",
        "state": "IL",
        "postalCode": "60411-1895"
      },
      {
        "line": [
          "2601 S HARLEM AVE"
        ],
        "city": "BERWYN",
        "state": "IL",
        "postalCode": "60402-2100"
      },
      {
        "line": [
          "176 THOMAS CT"
        ],
        "city": "WAUCONDA",
        "state": "IL",
        "postalCode": "60084-2451"
      },
      {
        "line": [
          "222 VOLLMER RD",
          "STE 1A"
        ],
        "city": "CHICAGO HEIGHTS",
        "state": "IL",
        "postalCode": "60411-1895"
      },
      {
        "line": [
          "1111 E 87TH ST STE 700"
        ],
        "city": "CHICAGO",
        "state": "IL",
        "postalCode": "60619-7038"
      },
      {
        "line": [
          "2400 WOLF RD STE 101A"
        ],
        "city": "WESTCHESTER",
        "state": "IL",
        "postalCode": "60154-5635"
      },
      {
        "line": [
          "120 S FILBERT ST"
        ],
        "city": "MECHANICSBURG",
        "state": "PA",
        "postalCode": "17055-6593"
      },
      {
        "line": [
          "8000C DERRY ST"
        ],
        "city": "HARRISBURG",
        "state": "PA",
        "postalCode": "17111-5200"
      },
      {
        "line": [
          "7777 W LINCOLN HWY STE E"
        ],
        "city": "FRANKFORT",
        "state": "IL",
        "postalCode": "60423-9490"
      },
      {
        "line": [
          "812 Campus Drive"
        ],
        "city": "JOLIET",
        "state": "IL",
        "postalCode": "60435-5128"
      },
      {
        "line": [
          "1950 LARKIN AVE"
        ],
        "city": "ELGIN",
        "state": "IL",
        "postalCode": "60123-5843"
      },
      {
        "line": [
          "2220 WISTERIA DR STE 208"
        ],
        "city": "SNELLVILLE",
        "state": "GA",
        "postalCode": "30078-4604"
      },
      {
        "line": [
          "2626 WALKER RD"
        ],
        "city": "CHATTANOOGA",
        "state": "TN",
        "postalCode": "37421-1116"
      },
      {
        "line": [
          "335 ILLINOIS ST"
        ],
        "city": "CRYSTAL LAKE",
        "state": "IL",
        "postalCode": "60014-3618"
      },
      {
        "line": [
          "2135 MAIN ST E STE 130"
        ],
        "city": "SNELLVILLE",
        "state": "GA",
        "postalCode": "30078-6424"
      },
      {
        "line": [
          "3620 HOWELL FERRY RD NW"
        ],
        "city": "DULUTH",
        "state": "GA",
        "postalCode": "30096-3178"
      },
      {
        "line": [
          "9305 CALUMET AVE STE E2"
        ],
        "city": "MUNSTER",
        "state": "IN",
        "postalCode": "46321-2888"
      },
      {
        "line": [
          "16540 HALSTED ST",
          "STE B"
        ],
        "city": "HARVEY",
        "state": "IL",
        "postalCode": "60426-6111"
      },
      {
        "line": [
          "1500 S LAKE PARK AVE"
        ],
        "city": "HOBART",
        "state": "IN",
        "postalCode": "46342-6638"
      },
      {
        "line": [
          "6325 HOSPITAL PKWY"
        ],
        "city": "DULUTH",
        "state": "GA",
        "postalCode": "30097-5775"
      },
      {
        "line": [
          "2355 ROYAL BLVD"
        ],
        "city": "ELGIN",
        "state": "IL",
        "postalCode": "60123-4716"
      },
      {
        "line": [
          "3400 Griffin Avenue"
        ],
        "city": "PEKIN",
        "state": "IL",
        "postalCode": "61554-6246"
      },
      {
        "line": [
          "20 Parkwood Drive",
          "Suite 2"
        ],
        "city": "CHAMBERSBURG",
        "state": "PA",
        "postalCode": "17201-4400"
      },
      {
        "line": [
          "1200 SIBLEY BOULEVARD"
        ],
        "city": "CALUMET CITY",
        "state": "IL",
        "postalCode": "60409-2327"
      },
      {
        "line": [
          "1402 TOWNLINE RD"
        ],
        "city": "MUNDELEIN",
        "state": "IL",
        "postalCode": "60060-4433"
      },
      {
        "line": [
          "615 HARRISON AVE"
        ],
        "city": "ROCKFORD",
        "state": "IL",
        "postalCode": "61104-7041"
      },
      {
        "line": [
          "12450 WALKER RD"
        ],
        "city": "LEMONT",
        "state": "IL",
        "postalCode": "60439-9301"
      },
      {
        "line": [
          "1060 PEERLESS Crossing NW",
          "Suite 101"
        ],
        "city": "CLEVELAND",
        "state": "TN",
        "postalCode": "37312-3785"
      },
      {
        "line": [
          "1001 S ANNIE GLIDDEN RD"
        ],
        "city": "DEKALB",
        "state": "IL",
        "postalCode": "60115-8250"
      },
      {
        "line": [
          "3980 ROGERS BRIDGE RD"
        ],
        "city": "DULUTH",
        "state": "GA",
        "postalCode": "30097-2214"
      },
      {
        "line": [
          "2200 Gateway Drive"
        ],
        "city": "SYCAMORE",
        "state": "IL",
        "postalCode": "60178-3113"
      },
      {
        "line": [
          "926 N BROAD ST"
        ],
        "city": "GRIFFITH",
        "state": "IN",
        "postalCode": "46319-1528"
      },
      {
        "line": [
          "719 MAIN ST"
        ],
        "city": "PEORIA",
        "state": "IL",
        "postalCode": "61607-1083"
      },
      {
        "line": [
          "1 INGALLS DR"
        ],
        "city": "HARVEY",
        "state": "IL",
        "postalCode": "60426-3558"
      },
      {
        "line": [
          "1117 ARLINGTON AVE N"
        ],
        "city": "SAINT PETERSBURG",
        "state": "FL",
        "postalCode": "33705-1521"
      },
      {
        "line": [
          "719 MAIN ST"
        ],
        "city": "PEORIA",
        "state": "IL",
        "postalCode": "61602-1084"
      },
      {
        "line": [
          "1979 GUNBARRELL RD",
          "STE 301"
        ],
        "city": "CHATTANOOGA",
        "state": "TN",
        "postalCode": "37421-0001"
      },
      {
        "line": [
          "440 N IL RT 31"
        ],
        "city": "CRYSTAL LAKE",
        "state": "IL",
        "postalCode": "60012-3709"
      },
      {
        "line": [
          "1760 CAPITAL ST"
        ],
        "city": "ELGIN",
        "state": "IL",
        "postalCode": "60124-7890"
      },
      {
        "line": [
          "8701 BROADWAY"
        ],
        "city": "MERRILLVILLE",
        "state": "IN",
        "postalCode": "46410-7035"
      }
    ],
    "extension": [
      {
        "url": "https://fhir.athena.io/StructureDefinition/ah-practice",
        "valueReference": {
          "reference": "Organization/a-1.Practice-13093"
        }
      },
      {
        "url": "https://fhir.athena.io/StructureDefinition/ah-brand",
        "valueReference": {
          "reference": "Organization/a-13093.Brand-1"
        }
      }
    ]
  },
  "fullUrl": "urn:uuid:0efd0d5c-db5c-52a6-94c0-79b88aaafdf4"
}