{
  "resource": {
    "resourceType": "Organization",
    "id": "1d3b1e3a-f9f8-5492-b1c5-fb0aca1e5f9c",
    "name": "Wes Tex UC Telehealth",
    "endpoint": [
      {
        "reference": "Endpoint/27a4e967-47aa-5a9c-a572-b8297ee268a2"
      },
      {
        "reference": "Endpoint/eaeb3aa6-64d5-571d-84cc-9587cff8b52b"
      }
    ],
    "identifier": [
      {
        "system": "http://hl7.org/fhir/sid/us-npi",
        "value": "1912421645"
      },
      {
        "system": "http://hl7.org/fhir/sid/us-npi",
        "value": "1588043707"
      },
      {
        "system": "http://hl7.org/fhir/sid/us-npi",
        "value": "1225723125"
      },
      {
        "system": "http://hl7.org/fhir/sid/us-npi",
        "value": "1033767785"
      },
      {
        "system": "http://hl7.org/fhir/sid/us-npi",
        "value": "1093401135"
      },
      {
        "system": "http://hl7.org/fhir/sid/us-npi",
        "value": "1457131294"
      }
    ],
    "address": [
      {
        "line": [
          "4705 BRIARWOOD AVE"
        ],
        "city": "MIDLAND",
        "state": "TX",
        "postalCode": "79707-2639"
      },
      {
        "line": [
          "3490 E YUKON RD"
        ],
        "city": "ODESSA",
        "state": "TX",
        "postalCode": "79762-2010"
      },
      {
        "line": [
          "3490 E YUKON RD"
        ],
        "city": "ODESSA",
        "state": "TX",
        "postalCode": "79762-0123"
      },
      {
        "line": [
          "616 N MAIN STREET"
        ],
        "city": "ANDREWS",
        "state": "TX",
        "postalCode": "79714-5207"
      },
      {
        "line": [
          "6301 ANDREWS HIGHWAY"
        ],
        "city": "MIDLAND",
        "state": "TX",
        "postalCode": "79706-3147"
      },
      {
        "line": [
          "5514 N BIG SPRING ST"
        ],
        "city": "MIDLAND",
        "state": "TX",
        "postalCode": "79705-2697"
      },
      {
        "line": [
          "3401 GREENBRIAR"
        ],
        "city": "MIDLAND",
        "state": "TX",
        "postalCode": "79707-4652"
      },
      {
        "line": [
          "6950 EASTRIDGE RD"
        ],
        "city": "ODESSA",
        "state": "TX",
        "postalCode": "79765-6209"
      },
      {
        "line": [
          "1941 E 37TH ST"
        ],
        "city": "ODESSA",
        "state": "TX",
        "postalCode": "79762-6209"
      },
      {
        "line": [
          "210 W LONGVIEW AVE",
          "STE A, BLDG A"
        ],
        "city": "MIDLAND",
        "state": "TX",
        "postalCode": "79701-1902"
      }
    ],
    "extension": [
      {
        "url": "https://fhir.athena.io/StructureDefinition/ah-practice",
        "valueReference": {
          "reference": "Organization/a-1.Practice-26958"
        }
      },
      {
        "url": "https://fhir.athena.io/StructureDefinition/ah-brand",
        "valueReference": {
          "reference": "Organization/a-26958.Brand-1"
        }
      }
    ]
  },
  "fullUrl": "urn:uuid:1d3b1e3a-f9f8-5492-b1c5-fb0aca1e5f9c"
}