{
  "resource": {
    "resourceType": "Organization",
    "id": "3d75b45e-051b-5376-802f-29993d45866f",
    "name": "Kentucky Pain Associates DBA AllyMed",
    "endpoint": [
      {
        "reference": "Endpoint/27a4e967-47aa-5a9c-a572-b8297ee268a2"
      },
      {
        "reference": "Endpoint/76f02ddc-fe2d-5612-b053-c278c918dd40"
      }
    ],
    "identifier": [
      {
        "system": "http://hl7.org/fhir/sid/us-npi",
        "value": "1114276789"
      }
    ],
    "address": [
      {
        "line": [
          "279 E KENNEDY ST"
        ],
        "city": "SPARTANBURG",
        "state": "SC",
        "postalCode": "29302-1912"
      },
      {
        "line": [
          "101 PROSPEROUS PL STE 300"
        ],
        "city": "LEXINGTON",
        "state": "KY",
        "postalCode": "40509-1836"
      },
      {
        "line": [
          "1725 MEDICAL CENTER PKWY STE 230"
        ],
        "city": "MURFREESBORO",
        "state": "TN",
        "postalCode": "37129-2594"
      },
      {
        "line": [
          "1998 HENDERSONVILLE RD STE 45"
        ],
        "city": "ASHEVILLE",
        "state": "NC",
        "postalCode": "28803-2192"
      },
      {
        "line": [
          "1107 CROWN POINTE DR STE 100"
        ],
        "city": "ELIZABETHTOWN",
        "state": "KY",
        "postalCode": "42701-7280"
      },
      {
        "line": [
          "7021 SAINT ANDREWS RD STE 1"
        ],
        "city": "COLUMBIA",
        "state": "SC",
        "postalCode": "29212-1177"
      },
      {
        "line": [
          "1506 N FANT ST"
        ],
        "city": "ANDERSON",
        "state": "SC",
        "postalCode": "29621-4708"
      },
      {
        "line": [
          "10 ENTERPRISE BLVD STE 201"
        ],
        "city": "GREENVILLE",
        "state": "SC",
        "postalCode": "29615-3554"
      },
      {
        "line": [
          "165 NATCHEZ TRACE AVE STE 205"
        ],
        "city": "BOWLING GREEN",
        "state": "KY",
        "postalCode": "42103-7947"
      },
      {
        "line": [
          "222 S 1ST ST STE 300"
        ],
        "city": "LOUISVILLE",
        "state": "KY",
        "postalCode": "40202-5302"
      },
      {
        "line": [
          "4420 DIXIE HWY STE 107"
        ],
        "city": "LOUISVILLE",
        "state": "KY",
        "postalCode": "40216-2986"
      }
    ],
    "extension": [
      {
        "url": "https://fhir.athena.io/StructureDefinition/ah-practice",
        "valueReference": {
          "reference": "Organization/a-1.Practice-16521"
        }
      },
      {
        "url": "https://fhir.athena.io/StructureDefinition/ah-brand",
        "valueReference": {
          "reference": "Organization/a-16521.Brand-2"
        }
      }
    ]
  },
  "fullUrl": "urn:uuid:3d75b45e-051b-5376-802f-29993d45866f"
}