{
  "resource": {
    "resourceType": "Organization",
    "id": "dc654708-b9ee-55ff-8e71-234dbd3a5777",
    "name": "Brick Foot and Ankle Center",
    "endpoint": [
      {
        "reference": "Endpoint/27a4e967-47aa-5a9c-a572-b8297ee268a2"
      },
      {
        "reference": "Endpoint/0d5bf410-5a7f-592e-9ce0-64afecc47820"
      }
    ],
    "identifier": [
      {
        "system": "http://hl7.org/fhir/sid/us-npi",
        "value": "1316475973"
      }
    ],
    "address": [
      {
        "line": [
          "425 JACK MARTIN BLVD"
        ],
        "city": "BRICK",
        "state": "NJ",
        "postalCode": "08724-7732"
      },
      {
        "line": [
          "10 GEORGETOWN RD."
        ],
        "city": "WRIGHTSTOWN",
        "state": "NJ",
        "postalCode": "08562-1829"
      },
      {
        "line": [
          "292 Herbertsville"
        ],
        "city": "BRICK",
        "state": "NJ",
        "postalCode": "08724-1734"
      },
      {
        "line": [
          "400 LOCUST"
        ],
        "city": "LAKEWOOD",
        "state": "NJ",
        "postalCode": "08701-7408"
      },
      {
        "line": [
          "1430 HOOPER AVE STE 301"
        ],
        "city": "TOMS RIVER",
        "state": "NJ",
        "postalCode": "08753-2895"
      },
      {
        "line": [
          "2500 RIDGEWOOD ROAD"
        ],
        "city": "BELMAR",
        "state": "NJ",
        "postalCode": "07719-9600"
      },
      {
        "line": [
          "425 JACK MARTIN BLVD",
          "8A"
        ],
        "city": "BRICK",
        "state": "NJ",
        "postalCode": "08724-7732"
      },
      {
        "line": [
          "495 JACK MARTIN BLVD"
        ],
        "city": "BRICK",
        "state": "NJ",
        "postalCode": "08724-7778"
      },
      {
        "line": [
          "10829 BURBANK DR"
        ],
        "city": "POTOMAC",
        "state": "MD",
        "postalCode": "20854-1557"
      },
      {
        "line": [
          "292 HERBERTSVILLE RD."
        ],
        "city": "BRICK",
        "state": "NJ",
        "postalCode": "08724-1734"
      }
    ],
    "extension": [
      {
        "url": "https://fhir.athena.io/StructureDefinition/ah-practice",
        "valueReference": {
          "reference": "Organization/a-1.Practice-19322"
        }
      },
      {
        "url": "https://fhir.athena.io/StructureDefinition/ah-brand",
        "valueReference": {
          "reference": "Organization/a-19322.Brand-1"
        }
      }
    ]
  },
  "fullUrl": "urn:uuid:dc654708-b9ee-55ff-8e71-234dbd3a5777"
}