{
  "resource": {
    "resourceType": "Organization",
    "id": "eb6b1df5-59a3-549c-8d21-674c40f55390",
    "name": "PREMIER PLASTIC SURGERY AND DERMATOLOGY ASSOCIATES",
    "endpoint": [
      {
        "reference": "Endpoint/27a4e967-47aa-5a9c-a572-b8297ee268a2"
      },
      {
        "reference": "Endpoint/5d9e7979-7591-5d62-a2b0-aac7e2770a41"
      }
    ],
    "identifier": [
      {
        "system": "http://hl7.org/fhir/sid/us-npi",
        "value": "1952621443"
      }
    ],
    "address": [
      {
        "line": [
          "7675 WELLNESS WAY",
          "SUITE 308"
        ],
        "city": "WEST CHESTER",
        "state": "OH",
        "postalCode": "45069-2509"
      },
      {
        "line": [
          "2449 ROSS MILLVILLE ROAD",
          "SUITE 252"
        ],
        "city": "HAMILTON",
        "state": "OH",
        "postalCode": "45013-8952"
      },
      {
        "line": [
          "950 SOUTH MAIN STREET"
        ],
        "city": "CELINA",
        "state": "OH",
        "postalCode": "45822-2413"
      },
      {
        "line": [
          "450 NORTH HYATT STREET",
          "SUITE 201"
        ],
        "city": "TIPP CITY",
        "state": "OH",
        "postalCode": "45371-1433"
      },
      {
        "line": [
          "8701 OLD TROY PIKE",
          "CHARLES H HUBER HEALTH CENTER"
        ],
        "city": "DAYTON",
        "state": "OH",
        "postalCode": "45424-1066"
      },
      {
        "line": [
          "5971 GOLF CLUB LANE"
        ],
        "city": "HAMILTON",
        "state": "OH",
        "postalCode": "45011-8225"
      },
      {
        "line": [
          "610 WEST MAIN STREET",
          "SUITE"
        ],
        "city": "WILMINGTON",
        "state": "OH",
        "postalCode": "45177-2125"
      },
      {
        "line": [
          "915 WEST MICHIGAN ST",
          "WILSON MEMORIAL HOSP, YEAGER BLDG SUITE 204"
        ],
        "city": "SIDNEY",
        "state": "OH",
        "postalCode": "45365-2491"
      },
      {
        "line": [
          "4940 COTTONVILLE ROAD",
          "SUITE 600"
        ],
        "city": "JAMESTOWN",
        "state": "OH",
        "postalCode": "45335-1522"
      },
      {
        "line": [
          "2519 EAST MAIN STREET",
          "DERMABELLA SPA AND SKIN CENTER"
        ],
        "city": "RICHMOND",
        "state": "IN",
        "postalCode": "47374-5864"
      },
      {
        "line": [
          "1157 NORTH MONROE DRIVE",
          "SUITE 230"
        ],
        "city": "XENIA",
        "state": "OH",
        "postalCode": "45385-1699"
      },
      {
        "line": [
          "804 AND 832 CENTRAL AVENUE"
        ],
        "city": "GREENVILLE",
        "state": "OH",
        "postalCode": "45331-1206"
      },
      {
        "line": [
          "110 NORTH POPLAR STREET",
          "CLINIC III"
        ],
        "city": "OXFORD",
        "state": "OH",
        "postalCode": "45056-1204"
      }
    ],
    "extension": [
      {
        "url": "https://fhir.athena.io/StructureDefinition/ah-practice",
        "valueReference": {
          "reference": "Organization/a-1.Practice-13867"
        }
      },
      {
        "url": "https://fhir.athena.io/StructureDefinition/ah-brand",
        "valueReference": {
          "reference": "Organization/a-13867.Brand-1"
        }
      }
    ]
  },
  "fullUrl": "urn:uuid:eb6b1df5-59a3-549c-8d21-674c40f55390"
}