{
  "resource": {
    "resourceType": "Organization",
    "id": "2308c2f4-5a16-5ab2-82bd-bb3725c2d36f",
    "name": "AFFINITY AESTHETICS - CLEVELAND",
    "endpoint": [
      {
        "reference": "Endpoint/27a4e967-47aa-5a9c-a572-b8297ee268a2"
      },
      {
        "reference": "Endpoint/ca33bbdb-f2c4-5e22-9286-2b225acf67ff"
      }
    ],
    "identifier": [
      {
        "system": "http://hl7.org/fhir/sid/us-npi",
        "value": "1336585397"
      },
      {
        "system": "http://hl7.org/fhir/sid/us-npi",
        "value": "1184042822"
      },
      {
        "system": "http://hl7.org/fhir/sid/us-npi",
        "value": "1558750737"
      }
    ],
    "address": [
      {
        "line": [
          "250 Blossom St"
        ],
        "city": "WEBSTER",
        "state": "TX",
        "postalCode": "77598-4204"
      },
      {
        "line": [
          "25311 Interstate 45 N"
        ],
        "city": "SPRING",
        "state": "TX",
        "postalCode": "77386-1351"
      },
      {
        "line": [
          "6225 FM 2920 RD"
        ],
        "city": "SPRING",
        "state": "TX",
        "postalCode": "77379-3474"
      },
      {
        "line": [
          "8901 FM 1960 RD W"
        ],
        "city": "HUMBLE",
        "state": "TX",
        "postalCode": "77338-4125"
      },
      {
        "line": [
          "17400 Red Oak Dr"
        ],
        "city": "HOUSTON",
        "state": "TX",
        "postalCode": "77090-1246"
      },
      {
        "line": [
          "25440 INTERSTATE 45 NORTH"
        ],
        "city": "SPRING",
        "state": "TX",
        "postalCode": "77386-1343"
      },
      {
        "line": [
          "25312 INTERSTATE 45"
        ],
        "city": "SPRING",
        "state": "TX",
        "postalCode": "77386-1449"
      },
      {
        "line": [
          "25312 I-45 North"
        ],
        "city": "SPRING",
        "state": "TX",
        "postalCode": "77386-1449"
      },
      {
        "line": [
          "25510 I-45 North, STE 101"
        ],
        "city": "SPRING",
        "state": "TX",
        "postalCode": "77386-1375"
      },
      {
        "line": [
          "25312  I-45 North"
        ],
        "city": "SPRING",
        "state": "TX",
        "postalCode": "77386-1351"
      },
      {
        "line": [
          "25410 I-45 North,"
        ],
        "city": "SPRING",
        "state": "TX",
        "postalCode": "77386-1343"
      },
      {
        "line": [
          "89001 FM 1960 Bypass W",
          "#308"
        ],
        "city": "HUMBLE",
        "state": "TX",
        "postalCode": "77338-4081"
      },
      {
        "line": [
          "25410 Interstate 45 north"
        ],
        "city": "SPRING",
        "state": "TX",
        "postalCode": "77386-1351"
      },
      {
        "line": [
          "25410 I-45 NORTH STE A"
        ],
        "city": "SPRING",
        "state": "TX",
        "postalCode": "77386-1343"
      },
      {
        "line": [
          "970 Campbell Rd."
        ],
        "city": "HOUSTON",
        "state": "TX",
        "postalCode": "77024-2804"
      },
      {
        "line": [
          "151 CYPRESSWOOD DR"
        ],
        "city": "SPRING",
        "state": "TX",
        "postalCode": "77388-6038"
      },
      {
        "line": [
          "16750 RED OAK DR"
        ],
        "city": "HOUSTON",
        "state": "TX",
        "postalCode": "77090-2543"
      },
      {
        "line": [
          "25440 INTERSTATE 45"
        ],
        "city": "SPRING",
        "state": "TX",
        "postalCode": "77386-1449"
      },
      {
        "line": [
          "2950 Cullen Pkwy Suite 101"
        ],
        "city": "PEARLAND",
        "state": "TX",
        "postalCode": "77584-3921"
      },
      {
        "line": [
          "1017 S. Travis Ave"
        ],
        "city": "CLEVELAND",
        "state": "TX",
        "postalCode": "77327-5152"
      },
      {
        "line": [
          "25410 Interstate HWY 45",
          "Suite 100"
        ],
        "city": "SPRING",
        "state": "TX",
        "postalCode": "77386-1351"
      },
      {
        "line": [
          "20403 University Blvd"
        ],
        "city": "SUGAR LAND",
        "state": "TX",
        "postalCode": "77478-4976"
      },
      {
        "line": [
          "8901 FM 1960 Bypass W",
          "Suite 308"
        ],
        "city": "HUMBLE",
        "state": "TX",
        "postalCode": "77338-5277"
      },
      {
        "line": [
          "8901 FM 1960 BYPASS RD W"
        ],
        "city": "HUMBLE",
        "state": "TX",
        "postalCode": "77338-4018"
      },
      {
        "line": [
          "1441 WOODSTEAD CT"
        ],
        "city": "SPRING",
        "state": "TX",
        "postalCode": "77380-1410"
      },
      {
        "line": [
          "8901 FM 1960 Bypass W",
          "Suite 301"
        ],
        "city": "HUMBLE",
        "state": "TX",
        "postalCode": "77338-5277"
      },
      {
        "line": [
          "2802 Garth Rd",
          "Suite 109"
        ],
        "city": "BAYTOWN",
        "state": "TX",
        "postalCode": "77521-3900"
      },
      {
        "line": [
          "11777S Katy Fwy"
        ],
        "city": "HOUSTON",
        "state": "TX",
        "postalCode": "77079-1703"
      },
      {
        "line": [
          "25440 INTERSTATE 45 N"
        ],
        "city": "SPRING",
        "state": "TX",
        "postalCode": "77386-1343"
      },
      {
        "line": [
          "8901 Farm to Market 1960 Bypass #304"
        ],
        "city": "HUMBLE",
        "state": "TX",
        "postalCode": "77338-5277"
      },
      {
        "line": [
          "10907 MEMORIAL HERMANN DR"
        ],
        "city": "PEARLAND",
        "state": "TX",
        "postalCode": "77584-4114"
      },
      {
        "line": [
          "25440 INTERSTATE 45"
        ],
        "city": "SPRING",
        "state": "TX",
        "postalCode": "77386-1343"
      },
      {
        "line": [
          "25510 INTERSTATE 45 N STE 200"
        ],
        "city": "SPRING",
        "state": "TX",
        "postalCode": "77386-1376"
      },
      {
        "line": [
          "25312 INTERSTATE 45 NORTH, STE A"
        ],
        "city": "SPRING",
        "state": "TX",
        "postalCode": "77386-1449"
      },
      {
        "line": [
          "24540 FM1314 Road"
        ],
        "city": "PORTER",
        "state": "TX",
        "postalCode": "77365-4204"
      },
      {
        "line": [
          "20635 Kuykendahl Rd"
        ],
        "city": "SPRING",
        "state": "TX",
        "postalCode": "77379-3533"
      },
      {
        "line": [
          "8901 Farm to Market 1960 Bypass #308"
        ],
        "city": "HUMBLE",
        "state": "TX",
        "postalCode": "77338-5277"
      },
      {
        "line": [
          "25311 Interstate 45 N"
        ],
        "city": "SPRING",
        "state": "TX",
        "postalCode": "77380-3534"
      },
      {
        "line": [
          "1441 WOODSTEAD CT STE 300"
        ],
        "city": "SPRING",
        "state": "TX",
        "postalCode": "77380-1449"
      },
      {
        "line": [
          "25410 INTERSTATE 45"
        ],
        "city": "SPRING",
        "state": "TX",
        "postalCode": "77386-1351"
      },
      {
        "line": [
          "1475 FM 1960 Bypass Road E"
        ],
        "city": "HUMBLE",
        "state": "TX",
        "postalCode": "77338-3909"
      },
      {
        "line": [
          "25510 Interstate 45 North",
          "Ste. 101"
        ],
        "city": "SPRING",
        "state": "TX",
        "postalCode": "77386-1375"
      },
      {
        "line": [
          "1120 BUSINESS CENTER DR STE 110"
        ],
        "city": "HOUSTON",
        "state": "TX",
        "postalCode": "77043-2735"
      },
      {
        "line": [
          "7501 FANNIN ST"
        ],
        "city": "HOUSTON",
        "state": "TX",
        "postalCode": "77054-1938"
      },
      {
        "line": [
          "16750 Red Oak Dr."
        ],
        "city": "HOUSTON",
        "state": "TX",
        "postalCode": "77090-2543"
      },
      {
        "line": [
          "8901 Farm to Market 1960 Bypass",
          "Suite 202"
        ],
        "city": "HUMBLE",
        "state": "TX",
        "postalCode": "77338-5079"
      },
      {
        "line": [],
        "city": "SPRING",
        "state": "TX",
        "postalCode": "77386-1343"
      },
      {
        "line": [
          "25312 I-45 North"
        ],
        "city": "SPRING",
        "state": "TX",
        "postalCode": "77386-1343"
      }
    ],
    "extension": [
      {
        "url": "https://fhir.athena.io/StructureDefinition/ah-practice",
        "valueReference": {
          "reference": "Organization/a-1.Practice-11939"
        }
      },
      {
        "url": "https://fhir.athena.io/StructureDefinition/ah-brand",
        "valueReference": {
          "reference": "Organization/a-11939.Brand-1"
        }
      }
    ]
  },
  "fullUrl": "urn:uuid:2308c2f4-5a16-5ab2-82bd-bb3725c2d36f"
}