{
  "resource": {
    "resourceType": "Organization",
    "id": "2fa9de09-da91-510e-8883-9f03a2b3270b",
    "name": "Florida Pain Associates",
    "endpoint": [
      {
        "reference": "Endpoint/27a4e967-47aa-5a9c-a572-b8297ee268a2"
      },
      {
        "reference": "Endpoint/cf7159da-8d9f-5ff1-80ac-1b599d8d999b"
      }
    ],
    "identifier": [
      {
        "system": "http://hl7.org/fhir/sid/us-npi",
        "value": "1154714129"
      }
    ],
    "address": [
      {
        "line": [
          "4455 Merrimack ave"
        ],
        "city": "JACKSONVILLE",
        "state": "FL",
        "postalCode": "32210-1814"
      },
      {
        "line": [
          "9355 SAN JOSE BLVD"
        ],
        "city": "JACKSONVILLE",
        "state": "FL",
        "postalCode": "32257-5503"
      },
      {
        "line": [
          "1670 ST VINCENTS WAY"
        ],
        "city": "MIDDLEBURG",
        "state": "FL",
        "postalCode": "32068-8447"
      },
      {
        "line": [
          "800 PRUDENTIAL DR"
        ],
        "city": "JACKSONVILLE",
        "state": "FL",
        "postalCode": "32207-8202"
      },
      {
        "line": [
          "4201 BELFORT RD"
        ],
        "city": "JACKSONVILLE",
        "state": "FL",
        "postalCode": "32216-1431"
      },
      {
        "line": [
          "730 COLLEGE ST"
        ],
        "city": "JACKSONVILLE",
        "state": "FL",
        "postalCode": "32204-3313"
      },
      {
        "line": [
          "12350 San Jose Blvd"
        ],
        "city": "JACKSONVILLE",
        "state": "FL",
        "postalCode": "32223-2800"
      },
      {
        "line": [
          "9601 south brook dr"
        ],
        "city": "JACKSONVILLE",
        "state": "FL",
        "postalCode": "32256-0101"
      },
      {
        "line": [
          "15480 max leggett pkwy"
        ],
        "city": "JACKSONVILLE",
        "state": "FL",
        "postalCode": "32218-2564"
      },
      {
        "line": [
          "10776 burnt mill rd"
        ],
        "city": "JACKSONVILLE",
        "state": "FL",
        "postalCode": "32256-0100"
      },
      {
        "line": [
          "417 OAKLEAF PLANTATION PKWY"
        ],
        "city": "JACKSONVILLE",
        "state": "FL",
        "postalCode": "32222-4207"
      },
      {
        "line": [
          "755 S 5TH ST"
        ],
        "city": "MACCLENNY",
        "state": "FL",
        "postalCode": "32063-2685"
      },
      {
        "line": [
          "6895 Belfort oaks place"
        ],
        "city": "JACKSONVILLE",
        "state": "FL",
        "postalCode": "32216-6242"
      },
      {
        "line": [
          "10875 OLD SAINT AUGUSTINE RD"
        ],
        "city": "JACKSONVILLE",
        "state": "FL",
        "postalCode": "32257-1091"
      },
      {
        "line": [
          "9960 atrium way"
        ],
        "city": "JACKSONVILLE",
        "state": "FL",
        "postalCode": "32225-6444"
      },
      {
        "line": [
          "2145 KINGSLEY AVE"
        ],
        "city": "ORANGE PARK",
        "state": "FL",
        "postalCode": "32073-5151"
      },
      {
        "line": [
          "130 INDIAN COVE LANE"
        ],
        "city": "PONTE VEDRA BEACH",
        "state": "FL",
        "postalCode": "32082-2168"
      },
      {
        "line": [
          "1 SHIRCLIFF WAY"
        ],
        "city": "JACKSONVILLE",
        "state": "FL",
        "postalCode": "32204-4748"
      },
      {
        "line": [
          "3756 W 3RD ST"
        ],
        "city": "HILLIARD",
        "state": "FL",
        "postalCode": "32046-6846"
      },
      {
        "line": [
          "5355 DOLPHIN POINT BLVD"
        ],
        "city": "JACKSONVILLE",
        "state": "FL",
        "postalCode": "32211-3221"
      },
      {
        "line": [
          "10660 old st Augustine road"
        ],
        "city": "JACKSONVILLE",
        "state": "FL",
        "postalCode": "32257-1000"
      },
      {
        "line": [
          "9143 PHILIPS HWY STE 500"
        ],
        "city": "JACKSONVILLE",
        "state": "FL",
        "postalCode": "32256-1335"
      },
      {
        "line": [
          "1248 KINGSLEY AVE"
        ],
        "city": "ORANGE PARK",
        "state": "FL",
        "postalCode": "32073-4699"
      },
      {
        "line": [
          "4000 SAN PABLO PKWY"
        ],
        "city": "JACKSONVILLE",
        "state": "FL",
        "postalCode": "32224-6875"
      },
      {
        "line": [
          "1750 STOCKTON ST"
        ],
        "city": "JACKSONVILLE",
        "state": "FL",
        "postalCode": "32204-4664"
      }
    ],
    "extension": [
      {
        "url": "https://fhir.athena.io/StructureDefinition/ah-practice",
        "valueReference": {
          "reference": "Organization/a-1.Practice-20902"
        }
      },
      {
        "url": "https://fhir.athena.io/StructureDefinition/ah-brand",
        "valueReference": {
          "reference": "Organization/a-20902.Brand-1"
        }
      }
    ]
  },
  "fullUrl": "urn:uuid:2fa9de09-da91-510e-8883-9f03a2b3270b"
}