{
  "resource": {
    "resourceType": "Organization",
    "id": "d521a464-f9b9-512d-854a-1489cba33999",
    "name": "no portal",
    "endpoint": [
      {
        "reference": "Endpoint/27a4e967-47aa-5a9c-a572-b8297ee268a2"
      },
      {
        "reference": "Endpoint/73f51f52-5dc0-5959-b235-9e0c9376b218"
      }
    ],
    "identifier": [
      {
        "system": "http://hl7.org/fhir/sid/us-npi",
        "value": "1376041954"
      }
    ],
    "address": [
      {
        "line": [
          "3249 S OAK PARK AVE"
        ],
        "city": "BERWYN",
        "state": "IL",
        "postalCode": "60402-3429"
      },
      {
        "line": [
          "3231 S EUCLID AVE",
          "SUITE 400"
        ],
        "city": "BERWYN",
        "state": "IL",
        "postalCode": "60402-3472"
      },
      {
        "line": [
          "7411 LAKE STREET",
          "SUITE 1120"
        ],
        "city": "RIVER FOREST",
        "state": "IL",
        "postalCode": "60305-1876"
      },
      {
        "line": [
          "6425 W CERMAK RD",
          "SUITE 101-102"
        ],
        "city": "BERWYN",
        "state": "IL",
        "postalCode": "60402-2338"
      },
      {
        "line": [
          "3722 S HARLEM AVE",
          "SUITE 204"
        ],
        "city": "RIVERSIDE",
        "state": "IL",
        "postalCode": "60546-2312"
      },
      {
        "line": [
          "6425 W CERMAK RD",
          "SUITE 202"
        ],
        "city": "BERWYN",
        "state": "IL",
        "postalCode": "60402-2338"
      },
      {
        "line": [
          "3231 S EUCLID AVENUE",
          "SUITE 202"
        ],
        "city": "BERWYN",
        "state": "IL",
        "postalCode": "60402-3420"
      },
      {
        "line": [
          "3231 S EUCLID AVENUE",
          "SUITE 403"
        ],
        "city": "BERWYN",
        "state": "IL",
        "postalCode": "60402-4583"
      },
      {
        "line": [
          "3340 S OAK PARK AVE",
          "SUITE 200"
        ],
        "city": "BERWYN",
        "state": "IL",
        "postalCode": "60402-3481"
      },
      {
        "line": [
          "47 S 6TH AVE"
        ],
        "city": "LA GRANGE",
        "state": "IL",
        "postalCode": "60525-2499"
      },
      {
        "line": [
          "7020 W 79TH ST"
        ],
        "city": "BRIDGEVIEW",
        "state": "IL",
        "postalCode": "60455-4030"
      },
      {
        "line": [
          "3357 N SOUTHPORT AVE"
        ],
        "city": "CHICAGO",
        "state": "IL",
        "postalCode": "60657-1666"
      },
      {
        "line": [
          "6187 S ARCHER AVE",
          "SUITE 102"
        ],
        "city": "CHICAGO",
        "state": "IL",
        "postalCode": "60638-2605"
      },
      {
        "line": [
          "47 S 6TH AVE",
          "SUITE M"
        ],
        "city": "LA GRANGE",
        "state": "IL",
        "postalCode": "60525-5637"
      },
      {
        "line": [
          "137 N OAK PARK AVE",
          "SUITE 125"
        ],
        "city": "OAK PARK",
        "state": "IL",
        "postalCode": "60301-1300"
      },
      {
        "line": [
          "5700 W CERMAK RD",
          "SUITE 500"
        ],
        "city": "CICERO",
        "state": "IL",
        "postalCode": "60804-2128"
      },
      {
        "line": [
          "3722 S HARLEM AVE",
          "SUITE 101"
        ],
        "city": "RIVERSIDE",
        "state": "IL",
        "postalCode": "60546-2312"
      },
      {
        "line": [
          "3722 S HARLEM AVE",
          "SUITE 200"
        ],
        "city": "RIVERSIDE",
        "state": "IL",
        "postalCode": "60546-2312"
      },
      {
        "line": [
          "47 S 6TH AVE",
          "SUITE N"
        ],
        "city": "LA GRANGE",
        "state": "IL",
        "postalCode": "60525-5637"
      },
      {
        "line": [
          "3635 S HARLEM AVE"
        ],
        "city": "BERWYN",
        "state": "IL",
        "postalCode": "60402-3212"
      },
      {
        "line": [
          "47 6TH AVE",
          "SUITE M"
        ],
        "city": "LA GRANGE",
        "state": "IL",
        "postalCode": "60525-5637"
      },
      {
        "line": [
          "6801 W 34TH ST",
          "SUITE 107"
        ],
        "city": "BERWYN",
        "state": "IL",
        "postalCode": "60402-5594"
      }
    ],
    "extension": [
      {
        "url": "https://fhir.athena.io/StructureDefinition/ah-practice",
        "valueReference": {
          "reference": "Organization/a-1.Practice-17368"
        }
      },
      {
        "url": "https://fhir.athena.io/StructureDefinition/ah-brand",
        "valueReference": {
          "reference": "Organization/a-17368.Brand-2"
        }
      }
    ]
  },
  "fullUrl": "urn:uuid:d521a464-f9b9-512d-854a-1489cba33999"
}