{
  "resource": {
    "resourceType": "Organization",
    "id": "3c0b95ef-920b-5f5f-b11c-a554f3aa28e7",
    "name": "UNIVERSITY PHYSICIANS OF BROOKLYN",
    "endpoint": [
      {
        "reference": "Endpoint/27a4e967-47aa-5a9c-a572-b8297ee268a2"
      },
      {
        "reference": "Endpoint/687f0c08-ffcc-5080-826c-d7a4b08d7f5a"
      }
    ],
    "identifier": [
      {
        "system": "http://hl7.org/fhir/sid/us-npi",
        "value": "1568419000"
      }
    ],
    "address": [
      {
        "line": [
          "450 CLARKSON LAB",
          "B5-473"
        ],
        "city": "BROOKLYN",
        "state": "NY",
        "postalCode": "11203-2098"
      },
      {
        "line": [
          "470 CLARKSON AVE",
          "B5-302"
        ],
        "city": "BROOKLYN",
        "state": "NY",
        "postalCode": "11203-2098"
      },
      {
        "line": [
          "470 CLARKSON AVE",
          "A2-393-404"
        ],
        "city": "BROOKLYN",
        "state": "NY",
        "postalCode": "11203-2098"
      },
      {
        "line": [
          "470 CLARKSON AVE",
          "Suite A"
        ],
        "city": "BROOKLYN",
        "state": "NY",
        "postalCode": "11203-2098"
      },
      {
        "line": [
          "450 clarkson ave",
          "B5-473"
        ],
        "city": "BROOKLYN",
        "state": "NY",
        "postalCode": "11203-2098"
      },
      {
        "line": [
          "470 CLARKSON AVE"
        ],
        "city": "BROOKLYN",
        "state": "NY",
        "postalCode": "11203-2098"
      },
      {
        "line": [
          "450 CLARKSON AVE"
        ],
        "city": "BROOKLYN",
        "state": "NY",
        "postalCode": "11203-2012"
      },
      {
        "line": [
          "699 92nd STREET"
        ],
        "city": "BROOKLYN",
        "state": "NY",
        "postalCode": "11228-3619"
      },
      {
        "line": [
          "710 PARKSIDE AVE"
        ],
        "city": "BROOKLYN",
        "state": "NY",
        "postalCode": "11226-1508"
      },
      {
        "line": [
          "450 Clarkson Avenue",
          "In-patient"
        ],
        "city": "BROOKLYN",
        "state": "NY",
        "postalCode": "11203-2098"
      },
      {
        "line": [
          "506 6th ave"
        ],
        "city": "BROOKLYN",
        "state": "NY",
        "postalCode": "11215-4905"
      },
      {
        "line": [
          "470 CLARKSON AVE"
        ],
        "city": "BROOKLYN",
        "state": "NY",
        "postalCode": "11203-2012"
      },
      {
        "line": [
          "450 CLARKSON AVE",
          "Suite A"
        ],
        "city": "BROOKLYN",
        "state": "NY",
        "postalCode": "11203-2098"
      },
      {
        "line": [
          "470 clarkson ave"
        ],
        "city": "BROOKLYN",
        "state": "NY",
        "postalCode": "11203-2098"
      },
      {
        "line": [
          "470 CLARKSON AVE",
          "SUITE A"
        ],
        "city": "BROOKLYN",
        "state": "NY",
        "postalCode": "11203-2012"
      },
      {
        "line": [
          "450 Clarkson avenue"
        ],
        "city": "BROOKLYN",
        "state": "NY",
        "postalCode": "11203-2098"
      },
      {
        "line": [
          "506 6TH STREET"
        ],
        "city": "BROOKLYN",
        "state": "NY",
        "postalCode": "11215-3609"
      },
      {
        "line": [
          "115 NASSAU AVE"
        ],
        "city": "BROOKLYN",
        "state": "NY",
        "postalCode": "11228-3217"
      },
      {
        "line": [
          "450 CLARKSON AVE",
          "In-patient"
        ],
        "city": "BROOKLYN",
        "state": "NY",
        "postalCode": "11203-2098"
      },
      {
        "line": [
          "470 CLARKSON AVE",
          "SUITE C"
        ],
        "city": "BROOKLYN",
        "state": "NY",
        "postalCode": "11203-2098"
      },
      {
        "line": [
          "450 CLARKSON AVE"
        ],
        "city": "BROOKLYN",
        "state": "NY",
        "postalCode": "11203-2098"
      },
      {
        "line": [
          "322 Linden Blvd"
        ],
        "city": "BROOKLYN",
        "state": "NY",
        "postalCode": "11226-3579"
      },
      {
        "line": [
          "699 92ND ST"
        ],
        "city": "BROOKLYN",
        "state": "NY",
        "postalCode": "11228-3619"
      },
      {
        "line": [
          "470 Clarkson Avenue",
          "suite A"
        ],
        "city": "BROOKLYN",
        "state": "NY",
        "postalCode": "11203-2098"
      },
      {
        "line": [
          "6718 13TH AVE"
        ],
        "city": "BROOKLYN",
        "state": "NY",
        "postalCode": "11219-6130"
      },
      {
        "line": [
          "470 Clarkson Avenue",
          "A7-443"
        ],
        "city": "BROOKLYN",
        "state": "NY",
        "postalCode": "11203-2098"
      },
      {
        "line": [
          "710 Parkside Avenue"
        ],
        "city": "BROOKLYN",
        "state": "NY",
        "postalCode": "11226-1508"
      },
      {
        "line": [
          "445 LENOX RD"
        ],
        "city": "BROOKLYN",
        "state": "NY",
        "postalCode": "11203-2017"
      },
      {
        "line": [
          "450 CLARKSON AVE",
          "Suite C"
        ],
        "city": "BROOKLYN",
        "state": "NY",
        "postalCode": "11203-2098"
      },
      {
        "line": [
          "76 Battery Ave"
        ],
        "city": "BROOKLYN",
        "state": "NY",
        "postalCode": "11228-3550"
      },
      {
        "line": [
          "760 Parkside Avenue"
        ],
        "city": "BROOKLYN",
        "state": "NY",
        "postalCode": "11226-1508"
      },
      {
        "line": [
          "450 Clarkson Avenue",
          "B5-302"
        ],
        "city": "BROOKLYN",
        "state": "NY",
        "postalCode": "11203-2098"
      }
    ],
    "extension": [
      {
        "url": "https://fhir.athena.io/StructureDefinition/ah-practice",
        "valueReference": {
          "reference": "Organization/a-1.Practice-438"
        }
      },
      {
        "url": "https://fhir.athena.io/StructureDefinition/ah-brand",
        "valueReference": {
          "reference": "Organization/a-438.Brand-1"
        }
      }
    ]
  },
  "fullUrl": "urn:uuid:3c0b95ef-920b-5f5f-b11c-a554f3aa28e7"
}