{
  "resource": {
    "resourceType": "Organization",
    "id": "6a5b2df5-6528-5bf5-97c9-c2a150d96125",
    "name": "CLEARCHOICE MD, PLLC",
    "endpoint": [
      {
        "reference": "Endpoint/27a4e967-47aa-5a9c-a572-b8297ee268a2"
      },
      {
        "reference": "Endpoint/ca3ec986-92cf-5611-ac19-ca3b8779e85a"
      }
    ],
    "identifier": [
      {
        "system": "http://hl7.org/fhir/sid/us-npi",
        "value": "1851722417"
      }
    ],
    "address": [
      {
        "line": [
          "798 Rt. 302"
        ],
        "city": "BARRE",
        "state": "VT",
        "postalCode": "05641-2305"
      },
      {
        "line": [
          "798 US ROUTE 302"
        ],
        "city": "BARRE",
        "state": "VT",
        "postalCode": "05641-2305"
      },
      {
        "line": [
          "798 US ROUTE 302",
          "New London"
        ],
        "city": "BARRE",
        "state": "VT",
        "postalCode": "05641-2305"
      },
      {
        "line": [
          "798 US 302"
        ],
        "city": "BARRE",
        "state": "VT",
        "postalCode": "05641-2305"
      },
      {
        "line": [
          "178 SWANTON ROAD"
        ],
        "city": "SAINT ALBANS",
        "state": "VT",
        "postalCode": "05478-2615"
      },
      {
        "line": [
          "798 Rt 302"
        ],
        "city": "BARRE",
        "state": "VT",
        "postalCode": "05641-2305"
      },
      {
        "line": [
          "74 798 US ROUTE 302"
        ],
        "city": "BARRE",
        "state": "VT",
        "postalCode": "05641-2305"
      },
      {
        "line": [
          "798 US ROUE 302"
        ],
        "city": "BARRE",
        "state": "VT",
        "postalCode": "05641-2305"
      }
    ],
    "extension": [
      {
        "url": "https://fhir.athena.io/StructureDefinition/ah-practice",
        "valueReference": {
          "reference": "Organization/a-1.Practice-8963"
        }
      },
      {
        "url": "https://fhir.athena.io/StructureDefinition/ah-brand",
        "valueReference": {
          "reference": "Organization/a-8963.Brand-1"
        }
      }
    ]
  },
  "fullUrl": "urn:uuid:6a5b2df5-6528-5bf5-97c9-c2a150d96125"
}