{
  "resource": {
    "resourceType": "Organization",
    "id": "b8e6781f-1017-56f0-be6b-2ffb670f2b5b",
    "name": "Ascension St. Vincent's Southside",
    "endpoint": [
      {
        "reference": "Endpoint/27a4e967-47aa-5a9c-a572-b8297ee268a2"
      },
      {
        "reference": "Endpoint/41679759-bc4e-5bb2-88c8-0a8bdfd90431"
      }
    ],
    "identifier": [
      {
        "system": "http://hl7.org/fhir/sid/us-npi",
        "value": "1396926747"
      },
      {
        "system": "http://hl7.org/fhir/sid/us-npi",
        "value": "1417987124"
      },
      {
        "system": "http://hl7.org/fhir/sid/us-npi",
        "value": "1558344978"
      },
      {
        "system": "http://hl7.org/fhir/sid/us-npi",
        "value": "1427005131"
      }
    ],
    "address": [
      {
        "line": [
          "4205 Belfort Road Ste 3004"
        ],
        "city": "JACKSONVILLE",
        "state": "FL",
        "postalCode": "32216-1474"
      },
      {
        "line": [
          "4201 Belfort Road"
        ],
        "city": "JACKSONVILLE",
        "state": "FL",
        "postalCode": "32216-1431"
      },
      {
        "line": [
          "4201 Belfort Rd"
        ],
        "city": "JACKSONVILLE",
        "state": "FL",
        "postalCode": "32216-1431"
      },
      {
        "line": [
          "4201 Belfort Rd"
        ],
        "city": "Jacksonville",
        "state": "FL",
        "postalCode": "32216-1431"
      },
      {
        "line": [
          "1 Shircliff Way"
        ],
        "city": "JACKSONVILLE",
        "state": "FL",
        "postalCode": "32216-1431"
      },
      {
        "line": [
          "4201 BELFORT RD"
        ],
        "city": "JACKSONVILLE",
        "state": "FL",
        "postalCode": "32216-1431"
      },
      {
        "line": [
          "4201 Belfort Road"
        ],
        "city": "Jacksonville",
        "state": "FL",
        "postalCode": "32216-1431"
      },
      {
        "line": [
          "1658 St. Vincent's Way, Suite 100"
        ],
        "city": "MIDDLEBURG",
        "state": "FL",
        "postalCode": "32068-8460"
      },
      {
        "line": [
          "4201 BELFORT ROAD"
        ],
        "city": "JACKSONVILLE",
        "state": "FL",
        "postalCode": "32216-1431"
      },
      {
        "line": [
          "2 SHIRCLIFF WAY",
          "STE 300"
        ],
        "city": "JACKSONVILLE",
        "state": "FL",
        "postalCode": "32204-4765"
      },
      {
        "line": [
          "2 SHIRCLIFF WAY",
          "STE 400"
        ],
        "city": "JACKSONVILLE",
        "state": "FL",
        "postalCode": "32204-4794"
      },
      {
        "line": [
          "4201 BELFORT ROAD"
        ],
        "city": "JACKSONVILE",
        "state": "FL",
        "postalCode": "32216-1431"
      },
      {
        "line": [
          "300 SAINT ELIZABETH WAY",
          "STE 110"
        ],
        "city": "SAINT JOHNS",
        "state": "FL",
        "postalCode": "32259-1153"
      },
      {
        "line": [
          "2 SHIRCLIFF WAY",
          "STE 400"
        ],
        "city": "JACKSONVILLE",
        "state": "FL",
        "postalCode": "32204-4765"
      },
      {
        "line": [
          "1658 ST VINCENTS WAY",
          "STE 310"
        ],
        "city": "MIDDLEBURG",
        "state": "FL",
        "postalCode": "32068-5459"
      },
      {
        "line": [
          "1658 ST VINCENTS WAY",
          "STE 300"
        ],
        "city": "MIDDLEBURG",
        "state": "FL",
        "postalCode": "32068-8431"
      },
      {
        "line": [
          "4201 Belford Rd"
        ],
        "city": "Jacksonville",
        "state": "FL",
        "postalCode": "32216-1431"
      }
    ],
    "extension": [
      {
        "url": "https://fhir.athena.io/StructureDefinition/ah-practice",
        "valueReference": {
          "reference": "Organization/a-1.Practice-8967"
        }
      },
      {
        "url": "https://fhir.athena.io/StructureDefinition/ah-brand",
        "valueReference": {
          "reference": "Organization/a-8967.Brand-3"
        }
      }
    ]
  },
  "fullUrl": "urn:uuid:b8e6781f-1017-56f0-be6b-2ffb670f2b5b"
}