{
  "resource": {
    "resourceType": "Organization",
    "id": "06ffdf64-d18c-54fd-8785-eb45b0e70402",
    "name": "ANDREW POLAKOVSKY M.D. P.C.",
    "endpoint": [
      {
        "reference": "Endpoint/27a4e967-47aa-5a9c-a572-b8297ee268a2"
      },
      {
        "reference": "Endpoint/3a3758db-46da-533c-987b-a8b5bdd82316"
      }
    ],
    "identifier": [
      {
        "system": "http://hl7.org/fhir/sid/us-npi",
        "value": "1821195538"
      }
    ],
    "address": [
      {
        "line": [
          "2001 University Drive"
        ],
        "city": "Lemont Furnace",
        "state": "PA",
        "postalCode": "15456-1029"
      },
      {
        "line": [
          "202 Spruce Street"
        ],
        "city": "SCOTTDALE",
        "state": "PA",
        "postalCode": "15683-1319"
      },
      {
        "line": [
          "900 Porter Ave"
        ],
        "city": "SCOTTDALE",
        "state": "PA",
        "postalCode": "15683-1147"
      },
      {
        "line": [
          "200 Spruce STREET"
        ],
        "city": "SCOTTDALE",
        "state": "PA",
        "postalCode": "15683-1319"
      },
      {
        "line": [
          "601 S. Church St."
        ],
        "city": "Mt. Pleasant",
        "state": "PA",
        "postalCode": "15666-1703"
      },
      {
        "line": [
          "184 Kendi Rd"
        ],
        "city": "Mt Pleasant",
        "state": "PA",
        "postalCode": "15666-9169"
      },
      {
        "line": [
          "310 MULBERRY STREET"
        ],
        "city": "SCOTTDALE",
        "state": "PA",
        "postalCode": "15683-1704"
      },
      {
        "line": [
          "601 S. Church St."
        ],
        "city": "Mt Pleasant",
        "state": "PA",
        "postalCode": "15666-1703"
      }
    ],
    "extension": [
      {
        "url": "https://fhir.athena.io/StructureDefinition/ah-practice",
        "valueReference": {
          "reference": "Organization/a-1.Practice-3743"
        }
      },
      {
        "url": "https://fhir.athena.io/StructureDefinition/ah-brand",
        "valueReference": {
          "reference": "Organization/a-3743.Brand-1"
        }
      }
    ]
  },
  "fullUrl": "urn:uuid:06ffdf64-d18c-54fd-8785-eb45b0e70402"
}