{
  "resource": {
    "resourceType": "Organization",
    "id": "fb5e9dc8-5e0c-589c-aa6c-1a83513b3f4a",
    "name": "FAIR OAKS ORTHOPAEDICS PHYSICAL THERAPY",
    "endpoint": [
      {
        "reference": "Endpoint/27a4e967-47aa-5a9c-a572-b8297ee268a2"
      },
      {
        "reference": "Endpoint/1ddcaf2a-01df-57e7-aeb8-b426175e5153"
      }
    ],
    "identifier": [
      {
        "system": "http://hl7.org/fhir/sid/us-npi",
        "value": "1881620904"
      }
    ],
    "address": [
      {
        "line": [
          "24440 Stone Springs Blvd",
          "24440 Stone Springs Blvd"
        ],
        "city": "Dulles",
        "state": "VA",
        "postalCode": "20166-2247"
      },
      {
        "line": [
          "24440 STONE SPRINGS BLVD"
        ],
        "city": "STERLING",
        "state": "VA",
        "postalCode": "20166-2247"
      },
      {
        "line": [
          "3300 Gallows Road"
        ],
        "city": "FAIRFAX",
        "state": "VA",
        "postalCode": "22042-3307"
      },
      {
        "line": [
          "6430 ROCKLEDGE DR",
          "STE 160"
        ],
        "city": "BETHESDA",
        "state": "MD",
        "postalCode": "20817-1805"
      },
      {
        "line": [
          "10730 MAIN ST"
        ],
        "city": "FAIRFAX",
        "state": "VA",
        "postalCode": "22030-3704"
      },
      {
        "line": [
          "3620 JOSEPH SIEWICK DRIVE SUITE 201"
        ],
        "city": "FAIRFAX",
        "state": "VA",
        "postalCode": "22033-1758"
      },
      {
        "line": [
          "3620 Joseph Siewick Dr",
          "Suite 201"
        ],
        "city": "FAIRFAX",
        "state": "VA",
        "postalCode": "22033-1758"
      },
      {
        "line": [
          "1701 N GEORGE MASON DR"
        ],
        "city": "ARLINGTON",
        "state": "VA",
        "postalCode": "22205-3610"
      },
      {
        "line": [
          "3600 JOSEPH SIEWICK DR"
        ],
        "city": "FAIRFAX",
        "state": "VA",
        "postalCode": "22033-1758"
      },
      {
        "line": [
          "3620 JOSEPH SIEWICK DR",
          "STE 202"
        ],
        "city": "FAIRFAX",
        "state": "VA",
        "postalCode": "22033-1756"
      },
      {
        "line": [
          "1850 TOWN CENTER PKWY"
        ],
        "city": "RESTON",
        "state": "VA",
        "postalCode": "20190-3219"
      },
      {
        "line": [
          "3620 JOSEPH SIEWICK DR STE 403"
        ],
        "city": "FAIRFAX",
        "state": "VA",
        "postalCode": "22033-1758"
      }
    ],
    "extension": [
      {
        "url": "https://fhir.athena.io/StructureDefinition/ah-practice",
        "valueReference": {
          "reference": "Organization/a-1.Practice-16256"
        }
      },
      {
        "url": "https://fhir.athena.io/StructureDefinition/ah-brand",
        "valueReference": {
          "reference": "Organization/a-16256.Brand-1"
        }
      }
    ]
  },
  "fullUrl": "urn:uuid:fb5e9dc8-5e0c-589c-aa6c-1a83513b3f4a"
}