{
  "resource": {
    "resourceType": "Organization",
    "id": "df6ea588-6993-5e51-b3c8-cbccf5bcd8bf",
    "name": "COASTAL SENIOR HEALTHCARE",
    "endpoint": [
      {
        "reference": "Endpoint/27a4e967-47aa-5a9c-a572-b8297ee268a2"
      },
      {
        "reference": "Endpoint/e4d37f67-f2c7-5366-ba1a-897ebf38e2f4"
      }
    ],
    "identifier": [
      {
        "system": "http://hl7.org/fhir/sid/us-npi",
        "value": "1497289110"
      }
    ],
    "address": [
      {
        "line": [
          "1300 59TH ST W"
        ],
        "city": "BRADENTON",
        "state": "FL",
        "postalCode": "34209-4618"
      },
      {
        "line": [
          "1414 69TH AVE. W."
        ],
        "city": "BRADENTON",
        "state": "FL",
        "postalCode": "34207-5850"
      },
      {
        "line": [
          "9085 TOWN CENTER PKWY"
        ],
        "city": "BRADENTON",
        "state": "FL",
        "postalCode": "34202-4240"
      },
      {
        "line": [
          "3409 26TH ST W"
        ],
        "city": "BRADENTON",
        "state": "FL",
        "postalCode": "34205-3650"
      },
      {
        "line": [
          "450 67TH ST W"
        ],
        "city": "BRADENTON",
        "state": "FL",
        "postalCode": "34209-2365"
      },
      {
        "line": [
          "8220 NATURES WAY"
        ],
        "city": "Lakewood Ranch",
        "state": "FL",
        "postalCode": "34202-4204"
      },
      {
        "line": [
          "5750 S HONORE AVENUE"
        ],
        "city": "SARASOTA",
        "state": "FL",
        "postalCode": "34233-3249"
      },
      {
        "line": [
          "1600 CENTER RD"
        ],
        "city": "VENICE",
        "state": "FL",
        "postalCode": "34292-3841"
      },
      {
        "line": [
          "5612 26TH ST W"
        ],
        "city": "BRADENTON",
        "state": "FL",
        "postalCode": "34207-3515"
      },
      {
        "line": [
          "3914 State Road 64 East"
        ],
        "city": "BRADENTON",
        "state": "FL",
        "postalCode": "34208-9059"
      },
      {
        "line": [
          "7610 Prospect Rd"
        ],
        "city": "SARASOTA",
        "state": "FL",
        "postalCode": "34243-3969"
      },
      {
        "line": [
          "4100 University Pkwy"
        ],
        "city": "SARASOTA",
        "state": "FL",
        "postalCode": "34243-5832"
      },
      {
        "line": [
          "5501 Swift Rd"
        ],
        "city": "SARASOTA",
        "state": "FL",
        "postalCode": "34231-6209"
      },
      {
        "line": [
          "3503 14TH ST W"
        ],
        "city": "BRADENTON",
        "state": "FL",
        "postalCode": "34205-6290"
      },
      {
        "line": [
          "8450 LOCKWOOD RIDGE RD UNIT 55"
        ],
        "city": "SARASOTA",
        "state": "FL",
        "postalCode": "34243-2920"
      },
      {
        "line": [
          "8220 NATURES WAY"
        ],
        "city": "Lakewood Ranch",
        "state": "FL",
        "postalCode": "34202-4207"
      },
      {
        "line": [
          "3221 FRUITVILLE RD"
        ],
        "city": "SARASOTA",
        "state": "FL",
        "postalCode": "34237-6452"
      },
      {
        "line": [
          "1408 69TH AVE W"
        ],
        "city": "BRADENTON",
        "state": "FL",
        "postalCode": "34207-5868"
      },
      {
        "line": [
          "2630 University Pkwy"
        ],
        "city": "SARASOTA",
        "state": "FL",
        "postalCode": "34243-2406"
      },
      {
        "line": [
          "2614 43RD ST W"
        ],
        "city": "BRADENTON",
        "state": "FL",
        "postalCode": "34209-6212"
      },
      {
        "line": [
          "2800 60TH AVE W"
        ],
        "city": "BRADENTON",
        "state": "FL",
        "postalCode": "34207-4324"
      },
      {
        "line": [
          "3749 SARASOTA SQUARE BLVD"
        ],
        "city": "SARASOTA",
        "state": "FL",
        "postalCode": "34238-4595"
      },
      {
        "line": [
          "1725 MANATEE AVE W"
        ],
        "city": "BRADENTON",
        "state": "FL",
        "postalCode": "34205-5924"
      },
      {
        "line": [
          "6101 POINTE W BLVD"
        ],
        "city": "BRADENTON",
        "state": "FL",
        "postalCode": "34209-5534"
      },
      {
        "line": [
          "7375 STONE RIVER ROAD"
        ],
        "city": "BRADENTON",
        "state": "FL",
        "postalCode": "34203-8057"
      },
      {
        "line": [
          "100 BASE AVE E"
        ],
        "city": "VENICE",
        "state": "FL",
        "postalCode": "34285-3809"
      }
    ],
    "extension": [
      {
        "url": "https://fhir.athena.io/StructureDefinition/ah-practice",
        "valueReference": {
          "reference": "Organization/a-1.Practice-16119"
        }
      },
      {
        "url": "https://fhir.athena.io/StructureDefinition/ah-brand",
        "valueReference": {
          "reference": "Organization/a-16119.Brand-1"
        }
      }
    ]
  },
  "fullUrl": "urn:uuid:df6ea588-6993-5e51-b3c8-cbccf5bcd8bf"
}