{
  "resource": {
    "resourceType": "Organization",
    "id": "cdfcdfd4-830b-5ec7-be43-0132032c6ff7",
    "name": "OB/GYN Specialists of the Palm Beaches",
    "endpoint": [
      {
        "reference": "Endpoint/27a4e967-47aa-5a9c-a572-b8297ee268a2"
      },
      {
        "reference": "Endpoint/0240ad92-768b-5812-b1f8-72e0548af1dc"
      }
    ],
    "identifier": [
      {
        "system": "http://hl7.org/fhir/sid/us-npi",
        "value": "1134467129"
      },
      {
        "system": "http://hl7.org/fhir/sid/us-npi",
        "value": "1326066267"
      }
    ],
    "address": [
      {
        "line": [
          "770 Northpoint Parkway",
          "Suite 102"
        ],
        "city": "WEST PALM BEACH",
        "state": "FL",
        "postalCode": "33407-1901"
      },
      {
        "line": [
          "39200 Hooker Highway"
        ],
        "city": "BELLE GLADE",
        "state": "FL",
        "postalCode": "33430-5368"
      },
      {
        "line": [
          "345 Jupiter Lakes Blvd",
          "Suite 302B"
        ],
        "city": "JUPITER",
        "state": "FL",
        "postalCode": "33458-7100"
      },
      {
        "line": [
          "770 Northpoint Parkway",
          "Suite 100"
        ],
        "city": "WEST PALM BEACH",
        "state": "FL",
        "postalCode": "33407-1901"
      },
      {
        "line": [
          "39200 Hooker Hwy"
        ],
        "city": "BELLE GLADE",
        "state": "FL",
        "postalCode": "33430-5368"
      },
      {
        "line": [
          "621 SE PORT ST LUCIE BLVD",
          "Suite B"
        ],
        "city": "PORT SAINT LUCIE",
        "state": "FL",
        "postalCode": "34984-5141"
      },
      {
        "line": [
          "875 Meadows Road",
          "Suite 325"
        ],
        "city": "BOCA RATON",
        "state": "FL",
        "postalCode": "33486-2349"
      },
      {
        "line": [
          "1447 MEDICAL PARK BLVD",
          "Suite 205"
        ],
        "city": "WELLINGTON",
        "state": "FL",
        "postalCode": "33414-3164"
      },
      {
        "line": [
          "39200 hooker Hwy"
        ],
        "city": "BELLE GLADE",
        "state": "FL",
        "postalCode": "33430-5368"
      }
    ],
    "extension": [
      {
        "url": "https://fhir.athena.io/StructureDefinition/ah-practice",
        "valueReference": {
          "reference": "Organization/a-1.Practice-13043"
        }
      },
      {
        "url": "https://fhir.athena.io/StructureDefinition/ah-brand",
        "valueReference": {
          "reference": "Organization/a-13043.Brand-3"
        }
      }
    ]
  },
  "fullUrl": "urn:uuid:cdfcdfd4-830b-5ec7-be43-0132032c6ff7"
}