{
  "resource": {
    "resourceType": "Organization",
    "id": "88098a4f-d7e9-5b3e-9953-d6ce32b9ec5d",
    "name": "ABINGTON OF GLENVIEW",
    "endpoint": [
      {
        "reference": "Endpoint/27a4e967-47aa-5a9c-a572-b8297ee268a2"
      },
      {
        "reference": "Endpoint/30467d5a-8ad4-56f8-91df-c9b6a7f55770"
      }
    ],
    "identifier": [
      {
        "system": "http://hl7.org/fhir/sid/us-npi",
        "value": "1912368150"
      }
    ],
    "address": [
      {
        "line": [
          "12340 QUIVIRA RD"
        ],
        "city": "OVERLAND PARK",
        "state": "KS",
        "postalCode": "66213-2408"
      },
      {
        "line": [
          " 555 W Carpenter St"
        ],
        "city": "SPRINGFIELD",
        "state": "IL",
        "postalCode": "62702-4905"
      },
      {
        "line": [
          "4600 LITTLE BLUE PKWY"
        ],
        "city": "INDEPENDENCE",
        "state": "MO",
        "postalCode": "64057-8302"
      },
      {
        "line": [
          "904 E 68TH ST"
        ],
        "city": "KANSAS CITY",
        "state": "MO",
        "postalCode": "64131-1305"
      },
      {
        "line": [
          "1725 WABASH"
        ],
        "city": "CHICAGO",
        "state": "IL",
        "postalCode": "60616-1219"
      },
      {
        "line": [
          "6700 N Damen Ave"
        ],
        "city": "CHICAGO",
        "state": "IL",
        "postalCode": "60645-4902"
      },
      {
        "line": [
          "2505 E BRADFORD AVE"
        ],
        "city": "MILWAUKEE",
        "state": "WI",
        "postalCode": "53211-4262"
      },
      {
        "line": [
          "4500 W LOOMIS"
        ],
        "city": "GREENFIELD",
        "state": "WI",
        "postalCode": "53220-4819"
      },
      {
        "line": [
          "555 MCHENRY"
        ],
        "city": "WHEELING",
        "state": "IL",
        "postalCode": "60090-3856"
      },
      {
        "line": [
          "2649 E 75TH ST"
        ],
        "city": "CHICAGO",
        "state": "IL",
        "postalCode": "60649-3835"
      },
      {
        "line": [
          "13138 STATE RT. 13"
        ],
        "city": "COULTERVILLE",
        "state": "IL",
        "postalCode": "62237-1134"
      },
      {
        "line": [
          "900 BOYCE DR"
        ],
        "city": "RHINELANDER",
        "state": "WI",
        "postalCode": "54501-3835"
      },
      {
        "line": [
          "1601 N WESTERN"
        ],
        "city": "PARK RIDGE",
        "state": "IL",
        "postalCode": "60068-1233"
      },
      {
        "line": [
          "5100 INDIAN CREEK PARKWAY"
        ],
        "city": "OVERLAND PARK",
        "state": "KS",
        "postalCode": "66207-4115"
      },
      {
        "line": [
          " 401 St Marys Dr"
        ],
        "city": "EDWARDSVILLE",
        "state": "IL",
        "postalCode": "62025-4276"
      },
      {
        "line": [
          "1024 E Tyler Ave"
        ],
        "city": "LITCHFIELD",
        "state": "IL",
        "postalCode": "62056-2704"
      },
      {
        "line": [
          "1300 TREMONT ST"
        ],
        "city": "HILLSBORO",
        "state": "IL",
        "postalCode": "62049-1913"
      },
      {
        "line": [
          "103 BERNARD DR"
        ],
        "city": "BELTON",
        "state": "MO",
        "postalCode": "64012-6182"
      },
      {
        "line": [
          "615 RIDGE"
        ],
        "city": "WILMETTE",
        "state": "IL",
        "postalCode": "60091-2441"
      },
      {
        "line": [
          "2355 ROYAL BLVD"
        ],
        "city": "ELGIN",
        "state": "IL",
        "postalCode": "60123-4716"
      },
      {
        "line": [
          "2625 W TOUHY"
        ],
        "city": "CHICAGO",
        "state": "IL",
        "postalCode": "60645-3109"
      },
      {
        "line": [
          "2534 Elim Ave"
        ],
        "city": "ZION",
        "state": "IL",
        "postalCode": "60099-2661"
      },
      {
        "line": [
          "9191 N AMBASSADOR DR"
        ],
        "city": "KANSAS CITY",
        "state": "MO",
        "postalCode": "64154-7247"
      },
      {
        "line": [
          "2250 PEARL ST"
        ],
        "city": "BELVIDERE",
        "state": "IL",
        "postalCode": "61008-6022"
      },
      {
        "line": [
          "3901 GLENVIEW RD"
        ],
        "city": "GLENVIEW",
        "state": "IL",
        "postalCode": "60025-2467"
      },
      {
        "line": [
          "21840 W LAKE COOK RD"
        ],
        "city": "BARRINGTON",
        "state": "IL",
        "postalCode": "60010-3645"
      },
      {
        "line": [
          "11901 JESSICA LN"
        ],
        "city": "KANSAS CITY",
        "state": "MO",
        "postalCode": "64138-2639"
      },
      {
        "line": [
          "2840 W FOSTER"
        ],
        "city": "CHICAGO",
        "state": "IL",
        "postalCode": "60625-3506"
      },
      {
        "line": [
          "19525 W NORTH AVE"
        ],
        "city": "BROOKFIELD",
        "state": "WI",
        "postalCode": "53045-4107"
      },
      {
        "line": [
          "14255 S CICERO AVE"
        ],
        "city": "CRESTWOOD",
        "state": "IL",
        "postalCode": "60445-2154"
      },
      {
        "line": [
          "5301 W LINCOLN"
        ],
        "city": "MILWAUKEE",
        "state": "WI",
        "postalCode": "53219-1652"
      },
      {
        "line": [
          "820 FOSTER"
        ],
        "city": "EVANSTON",
        "state": "IL",
        "postalCode": "60201-3212"
      },
      {
        "line": [
          "6300 N CALIFORNIA"
        ],
        "city": "CHICAGO",
        "state": "IL",
        "postalCode": "60659-1702"
      },
      {
        "line": [
          " 1021 N Church St"
        ],
        "city": "JACKSONVILLE",
        "state": "IL",
        "postalCode": "62650-1301"
      },
      {
        "line": [
          "4301 NE PARVIN RD"
        ],
        "city": "KANSAS CITY",
        "state": "MO",
        "postalCode": "64117-3001"
      },
      {
        "line": [
          "1301 LEE ST"
        ],
        "city": "DES PLAINES",
        "state": "IL",
        "postalCode": "60018-1514"
      },
      {
        "line": [
          "4452 SQUAW PRAIRIE RD"
        ],
        "city": "BELVIDERE",
        "state": "IL",
        "postalCode": "61008-8801"
      },
      {
        "line": [
          "2330 GALENA BLVD"
        ],
        "city": "AURORA",
        "state": "IL",
        "postalCode": "60506-4246"
      },
      {
        "line": [
          "1311 PARKVIEW AVE"
        ],
        "city": "ROCKFORD",
        "state": "IL",
        "postalCode": "61107-1818"
      },
      {
        "line": [
          "1000 E BRIGHTON LN"
        ],
        "city": "CRYSTAL LAKE",
        "state": "IL",
        "postalCode": "60012-2074"
      },
      {
        "line": [
          "210 AIRPORT RD"
        ],
        "city": "NORTH AURORA",
        "state": "IL",
        "postalCode": "60542-1700"
      },
      {
        "line": [
          "3298 RESOURCE PKWY"
        ],
        "city": "DEKALB",
        "state": "IL",
        "postalCode": "60115-5331"
      },
      {
        "line": [
          "550 FRONTAGE RD, STE 3520"
        ],
        "city": "WINNETKA",
        "state": "IL",
        "postalCode": "60093-1244"
      },
      {
        "line": [
          "1136 N MILL ST"
        ],
        "city": "NAPERVILLE",
        "state": "IL",
        "postalCode": "60563-3577"
      },
      {
        "line": [
          "704 E GLOVER"
        ],
        "city": "OTTAWA",
        "state": "IL",
        "postalCode": "61350-4131"
      },
      {
        "line": [
          "2000 W LAKE"
        ],
        "city": "HANOVER PARK",
        "state": "IL",
        "postalCode": "60133-4302"
      },
      {
        "line": [
          "4390 STATE RT 71"
        ],
        "city": "OSWEGO",
        "state": "IL",
        "postalCode": "60543-9866"
      },
      {
        "line": [
          "6263 N GREENBAY AVE"
        ],
        "city": "GLENDALE",
        "state": "WI",
        "postalCode": "53209-3823"
      },
      {
        "line": [
          "1601 N FARNSWORTH"
        ],
        "city": "AURORA",
        "state": "IL",
        "postalCode": "60505-1509"
      },
      {
        "line": [
          "4314 S. WABASH"
        ],
        "city": "CHICAGO",
        "state": "IL",
        "postalCode": "60653-3119"
      },
      {
        "line": [
          "66 W OAK ST"
        ],
        "city": "CHICAGO",
        "state": "IL",
        "postalCode": "60610-7325"
      },
      {
        "line": [
          "2732 N HAMPDEN CT"
        ],
        "city": "CHICAGO",
        "state": "IL",
        "postalCode": "60614-1612"
      },
      {
        "line": [
          "150 WEILAND"
        ],
        "city": "BUFFALO GROVE",
        "state": "IL",
        "postalCode": "60089-7047"
      },
      {
        "line": [
          "12550 S RIDGELAND"
        ],
        "city": "PALOS HEIGHTS",
        "state": "IL",
        "postalCode": "60463-1859"
      },
      {
        "line": [
          "525 S Martin Luther King Jr Dr"
        ],
        "city": "SPRINGFIELD",
        "state": "IL",
        "postalCode": "62703-1317"
      },
      {
        "line": [
          "180 W. HALF DAY RD"
        ],
        "city": "BUFFALO GROVE",
        "state": "IL",
        "postalCode": "60089-6552"
      },
      {
        "line": [
          "650 N KINZIE"
        ],
        "city": "BRADLEY",
        "state": "IL",
        "postalCode": "60915-1227"
      },
      {
        "line": [
          "2901 WOLF RD"
        ],
        "city": "WESTCHESTER",
        "state": "IL",
        "postalCode": "60154-5623"
      },
      {
        "line": [
          " 800 W Temple Ave"
        ],
        "city": "EFFINGHAM",
        "state": "IL",
        "postalCode": "62401-2167"
      },
      {
        "line": [
          "1666 CHECKER RD"
        ],
        "city": "LONG GROVE",
        "state": "IL",
        "postalCode": "60047-5289"
      }
    ],
    "extension": [
      {
        "url": "https://fhir.athena.io/StructureDefinition/ah-practice",
        "valueReference": {
          "reference": "Organization/a-1.Practice-13294"
        }
      },
      {
        "url": "https://fhir.athena.io/StructureDefinition/ah-brand",
        "valueReference": {
          "reference": "Organization/a-13294.Brand-1"
        }
      }
    ]
  },
  "fullUrl": "urn:uuid:88098a4f-d7e9-5b3e-9953-d6ce32b9ec5d"
}