{
  "resource": {
    "resourceType": "Organization",
    "id": "5dfd94fc-7626-59ab-b286-d03260c6aa6a",
    "name": "Boulder City Hospital",
    "endpoint": [
      {
        "reference": "Endpoint/27a4e967-47aa-5a9c-a572-b8297ee268a2"
      },
      {
        "reference": "Endpoint/ca34d442-49a0-59b3-a930-497f04344e56"
      }
    ],
    "identifier": [
      {
        "system": "http://hl7.org/fhir/sid/us-npi",
        "value": "1659387934"
      }
    ],
    "address": [
      {
        "line": [
          "5795 Arville Street, Suite 200"
        ],
        "city": "LAS VEGAS",
        "state": "NV",
        "postalCode": "89118-3035"
      },
      {
        "line": [
          "901 Adams Blvd"
        ],
        "city": "BOULDER CITY",
        "state": "NV",
        "postalCode": "89005-2213"
      },
      {
        "line": [
          "38 S Water St Suite 200"
        ],
        "city": "HENDERSON",
        "state": "NV",
        "postalCode": "89015-7324"
      },
      {
        "line": [
          "38 S Water St"
        ],
        "city": "HENDERSON",
        "state": "NV",
        "postalCode": "89015-7324"
      },
      {
        "line": [
          "500 E Windmill Lane Suite 140"
        ],
        "city": "LAS VEGAS",
        "state": "NV",
        "postalCode": "89123-1847"
      },
      {
        "line": [
          "4275 Burnham Avenue Suite 100"
        ],
        "city": "LAS VEGAS",
        "state": "NV",
        "postalCode": "89119-5400"
      },
      {
        "line": [
          "2540 W Horizon Ridge Pkwy"
        ],
        "city": "HENDERSON",
        "state": "NV",
        "postalCode": "89052-5616"
      },
      {
        "line": [
          "401 N Buffalo Drive, Suite 200"
        ],
        "city": "LAS VEGAS",
        "state": "NV",
        "postalCode": "89145-0397"
      },
      {
        "line": [
          "5225 S Durango Drive"
        ],
        "city": "LAS VEGAS",
        "state": "NV",
        "postalCode": "89113-0159"
      },
      {
        "line": [
          "930 N GIBSON RD"
        ],
        "city": "HENDERSON",
        "state": "NV",
        "postalCode": "89011-1711"
      },
      {
        "line": [
          "4424 S Eastern Avenue"
        ],
        "city": "LAS VEGAS",
        "state": "NV",
        "postalCode": "89119-7825"
      },
      {
        "line": [
          "6525 N Buffalo Dr Ste 130"
        ],
        "city": "LAS VEGAS",
        "state": "NV",
        "postalCode": "89131-4041"
      },
      {
        "line": [
          "3000 W Charleston Blvd Suite 1"
        ],
        "city": "LAS VEGAS",
        "state": "NV",
        "postalCode": "89102-1981"
      },
      {
        "line": [
          "2800 N Tenaya Way Suite 202"
        ],
        "city": "LAS VEGAS",
        "state": "NV",
        "postalCode": "89128-0652"
      },
      {
        "line": [
          "3150 N Tenaya Way Suite 135"
        ],
        "city": "LAS VEGAS",
        "state": "NV",
        "postalCode": "89128-0463"
      },
      {
        "line": [
          "1155 Raiders Way"
        ],
        "city": "HENDERSON",
        "state": "NV",
        "postalCode": "89052-9998"
      },
      {
        "line": [
          "2649 Wigwam Pkwy Suite 100"
        ],
        "city": "HENDERSON",
        "state": "NV",
        "postalCode": "89074-7310"
      },
      {
        "line": [
          "8530 W Sunset Road Suite 100"
        ],
        "city": "LAS VEGAS",
        "state": "NV",
        "postalCode": "89113-2244"
      },
      {
        "line": [
          "3551 E Bonanza Rd",
          "Suite 107"
        ],
        "city": "LAS VEGAS",
        "state": "NV",
        "postalCode": "89110-2198"
      },
      {
        "line": [
          "8530 W Sunset Road",
          "Suite 110"
        ],
        "city": "LAS VEGAS",
        "state": "NV",
        "postalCode": "89113-2244"
      },
      {
        "line": [
          "1440 E Calvada Blvd Suite 700"
        ],
        "city": "PAHRUMP",
        "state": "NV",
        "postalCode": "89048-5856"
      },
      {
        "line": [
          "2839 St Rose Pkwy Suite 160"
        ],
        "city": "HENDERSON",
        "state": "NV",
        "postalCode": "89052-4849"
      },
      {
        "line": [
          "2724 N Tenaya Way Suite 100"
        ],
        "city": "LAS VEGAS",
        "state": "NV",
        "postalCode": "89128-0424"
      },
      {
        "line": [
          "2465 W Horizon Ridge Pkwy",
          "Suite 100"
        ],
        "city": "HENDERSON",
        "state": "NV",
        "postalCode": "89052-2715"
      },
      {
        "line": [
          "893 Adams Blvd"
        ],
        "city": "BOULDER CITY",
        "state": "NV",
        "postalCode": "89005-2235"
      },
      {
        "line": [
          "401 N Buffalo Dr Ste 100"
        ],
        "city": "LAS VEGAS",
        "state": "NV",
        "postalCode": "89145-0397"
      }
    ],
    "extension": [
      {
        "url": "https://fhir.athena.io/StructureDefinition/ah-practice",
        "valueReference": {
          "reference": "Organization/a-1.Practice-29724"
        }
      },
      {
        "url": "https://fhir.athena.io/StructureDefinition/ah-brand",
        "valueReference": {
          "reference": "Organization/a-29724.Brand-1"
        }
      }
    ]
  },
  "fullUrl": "urn:uuid:5dfd94fc-7626-59ab-b286-d03260c6aa6a"
}