{
  "resource": {
    "resourceType": "Organization",
    "id": "53325e55-d732-5142-be80-87fc8e4235c4",
    "name": "Volusia/Flagler Family YMCA",
    "endpoint": [
      {
        "reference": "Endpoint/27a4e967-47aa-5a9c-a572-b8297ee268a2"
      },
      {
        "reference": "Endpoint/abb5f7d5-468e-5806-be46-fb2282afef02"
      }
    ],
    "identifier": [
      {
        "system": "http://hl7.org/fhir/sid/us-npi",
        "value": "1346797750"
      }
    ],
    "address": [
      {
        "line": [
          "1046 Daytona Ave"
        ],
        "city": "DAYTONA BEACH",
        "state": "FL",
        "postalCode": "32117-2804"
      },
      {
        "line": [
          "280 Wolf Pack Run"
        ],
        "city": "DELTONA",
        "state": "FL",
        "postalCode": "32725-2923"
      },
      {
        "line": [
          "2345 Providence Blvd.",
          "Rm. 105A"
        ],
        "city": "DELTONA",
        "state": "FL",
        "postalCode": "32725-1806"
      },
      {
        "line": [
          "500 Sterthaus Dr"
        ],
        "city": "ORMOND BEACH",
        "state": "FL",
        "postalCode": "32174-9504"
      },
      {
        "line": [
          "4701 City Ctr Pkwy"
        ],
        "city": "PORT ORANGE",
        "state": "FL",
        "postalCode": "32129-4153"
      },
      {
        "line": [
          "898 Camp Winona Rd"
        ],
        "city": "DE LEON SPRINGS",
        "state": "FL",
        "postalCode": "32130-3923"
      },
      {
        "line": [
          "761 E. International Speedway Blvd"
        ],
        "city": "DELAND",
        "state": "FL",
        "postalCode": "32724-2509"
      },
      {
        "line": [
          "148 W Turgot Ave"
        ],
        "city": "EDGEWATER",
        "state": "FL",
        "postalCode": "32132-2209"
      },
      {
        "line": [
          "761 E. International Speedway Blvd."
        ],
        "city": "DELAND",
        "state": "FL",
        "postalCode": "32724-2509"
      }
    ],
    "extension": [
      {
        "url": "https://fhir.athena.io/StructureDefinition/ah-practice",
        "valueReference": {
          "reference": "Organization/a-1.Practice-14268"
        }
      },
      {
        "url": "https://fhir.athena.io/StructureDefinition/ah-brand",
        "valueReference": {
          "reference": "Organization/a-14268.Brand-1"
        }
      }
    ]
  },
  "fullUrl": "urn:uuid:53325e55-d732-5142-be80-87fc8e4235c4"
}