{
  "resource": {
    "resourceType": "Organization",
    "id": "ee439dee-6fd5-5307-9cb0-5bb3868fe891",
    "name": "Chicago Surgical Group",
    "endpoint": [
      {
        "reference": "Endpoint/27a4e967-47aa-5a9c-a572-b8297ee268a2"
      },
      {
        "reference": "Endpoint/d6f128e9-2df0-53a5-a68f-07478278221d"
      }
    ],
    "identifier": [
      {
        "system": "http://hl7.org/fhir/sid/us-npi",
        "value": "1861670457"
      }
    ],
    "address": [
      {
        "line": [
          "850 W IRVING PARK RD"
        ],
        "city": "CHICAGO",
        "state": "IL",
        "postalCode": "60613-3096"
      },
      {
        "line": [
          "5145 N CALIFORNIA AVE"
        ],
        "city": "CHICAGO",
        "state": "IL",
        "postalCode": "60625-3661"
      },
      {
        "line": [
          "850 WEST IRVING PARK ROAD"
        ],
        "city": "CHICAGO",
        "state": "IL",
        "postalCode": "60613-3096"
      },
      {
        "line": [
          "2233 W DIVISION ST"
        ],
        "city": "CHICAGO",
        "state": "IL",
        "postalCode": "60622-8151"
      },
      {
        "line": [
          "2525 SOUTH MICHIGAN AVE"
        ],
        "city": "CHICAGO",
        "state": "IL",
        "postalCode": "60616-2211"
      },
      {
        "line": [
          "2525 S Michigan"
        ],
        "city": "CHICAGO",
        "state": "IL",
        "postalCode": "60616-9998"
      },
      {
        "line": [
          "330 W GRAND AVE"
        ],
        "city": "CHICAGO",
        "state": "IL",
        "postalCode": "60654-5264"
      },
      {
        "line": [
          "330 W Grand ave",
          "suit A"
        ],
        "city": "CHICAGO",
        "state": "IL",
        "postalCode": "60654-5264"
      },
      {
        "line": [
          "5025 NORTH PAULINA"
        ],
        "city": "CHICAGO",
        "state": "IL",
        "postalCode": "60640-2772"
      },
      {
        "line": [
          "5140 NORTH CALIFORNIA"
        ],
        "city": "CHICAGO",
        "state": "IL",
        "postalCode": "60625-3661"
      },
      {
        "line": [
          "60 E DELAWARE PLACE"
        ],
        "city": "CHICAGO",
        "state": "IL",
        "postalCode": "60611-1495"
      }
    ],
    "extension": [
      {
        "url": "https://fhir.athena.io/StructureDefinition/ah-practice",
        "valueReference": {
          "reference": "Organization/a-1.Practice-18031"
        }
      },
      {
        "url": "https://fhir.athena.io/StructureDefinition/ah-brand",
        "valueReference": {
          "reference": "Organization/a-18031.Brand-1"
        }
      }
    ]
  },
  "fullUrl": "urn:uuid:ee439dee-6fd5-5307-9cb0-5bb3868fe891"
}