{
  "resource": {
    "resourceType": "Organization",
    "id": "b65a5f23-5526-548f-91f9-97dd00127c44",
    "name": "BEAUFORT MEMORIAL BLUFFTON PRIMARY CARE",
    "endpoint": [
      {
        "reference": "Endpoint/27a4e967-47aa-5a9c-a572-b8297ee268a2"
      },
      {
        "reference": "Endpoint/dbe696fb-6845-559c-babc-aac4c74a4a7d"
      }
    ],
    "identifier": [
      {
        "system": "http://hl7.org/fhir/sid/us-npi",
        "value": "1629068531"
      },
      {
        "system": "http://hl7.org/fhir/sid/us-npi",
        "value": "1063024578"
      },
      {
        "system": "http://hl7.org/fhir/sid/us-npi",
        "value": "1992327845"
      },
      {
        "system": "http://hl7.org/fhir/sid/us-npi",
        "value": "1346474996"
      },
      {
        "system": "http://hl7.org/fhir/sid/us-npi",
        "value": "1235552746"
      },
      {
        "system": "http://hl7.org/fhir/sid/us-npi",
        "value": "1548250459"
      },
      {
        "system": "http://hl7.org/fhir/sid/us-npi",
        "value": "1033175344"
      },
      {
        "system": "http://hl7.org/fhir/sid/us-npi",
        "value": "1831764927"
      },
      {
        "system": "http://hl7.org/fhir/sid/us-npi",
        "value": "1598713117"
      },
      {
        "system": "http://hl7.org/fhir/sid/us-npi",
        "value": "1336180165"
      },
      {
        "system": "http://hl7.org/fhir/sid/us-npi",
        "value": "1174769764"
      },
      {
        "system": "http://hl7.org/fhir/sid/us-npi",
        "value": "1053647164"
      }
    ],
    "address": [
      {
        "line": [
          "171 Ashley Avenue"
        ],
        "city": "CHARLESTON",
        "state": "SC",
        "postalCode": "29425-8908"
      },
      {
        "line": [
          "122 OKATIE CENTER BLVD NORTH",
          "SUITE 220"
        ],
        "city": "OKATIE",
        "state": "SC",
        "postalCode": "29909-1003"
      },
      {
        "line": [
          "989 RIBAUT RD",
          "STE 130"
        ],
        "city": "BEAUFORT",
        "state": "SC",
        "postalCode": "29902-5472"
      },
      {
        "line": [
          "25 Hospital Center Blvd"
        ],
        "city": "HILTON HEAD ISLAND",
        "state": "SC",
        "postalCode": "29926-2738"
      },
      {
        "line": [
          "1624 PARIS AVE"
        ],
        "city": "PORT ROYAL",
        "state": "SC",
        "postalCode": "29935-2037"
      },
      {
        "line": [
          "800 Fording Island Road"
        ],
        "city": "BLUFFTON",
        "state": "SC",
        "postalCode": "29910-4845"
      },
      {
        "line": [
          "122 OKATIE CENTER BLVD NORTHO",
          "SUITE 210"
        ],
        "city": "OKATIE",
        "state": "SC",
        "postalCode": "29909-1003"
      },
      {
        "line": [
          "955 RIBAUT ROAD"
        ],
        "city": "BEAUFORT",
        "state": "SC",
        "postalCode": "29902-5441"
      },
      {
        "line": [
          "1119 Pick Pocke Plantation Dr"
        ],
        "city": "BEAUFORT",
        "state": "SC",
        "postalCode": "29902-3771"
      },
      {
        "line": [
          "1000 Pine street west"
        ],
        "city": "VARNVILLE",
        "state": "SC",
        "postalCode": "29944-0969"
      },
      {
        "line": [
          "1810 RICHMOND AVE"
        ],
        "city": "PORT ROYAL",
        "state": "SC",
        "postalCode": "29935-2105"
      },
      {
        "line": [
          "11 ARLEY WAY, 201"
        ],
        "city": "BLUFFTON",
        "state": "SC",
        "postalCode": "29910-4483"
      },
      {
        "line": [
          "1624 Paris Ave"
        ],
        "city": "PORT ROYAL",
        "state": "SC",
        "postalCode": "29935-2037"
      },
      {
        "line": [
          "1000 Medical Center Drive"
        ],
        "city": "HARDEEVILLE",
        "state": "SC",
        "postalCode": "29927-3446"
      },
      {
        "line": [
          "955 Ribaut Road"
        ],
        "city": "BEAUFORT",
        "state": "SC",
        "postalCode": "29902-5441"
      },
      {
        "line": [
          "1810 RICHMOND DRIVE"
        ],
        "city": "PORT ROYAL",
        "state": "SC",
        "postalCode": "29935-2015"
      },
      {
        "line": [
          "9 Sunset Blvd"
        ],
        "city": "BEAUFORT",
        "state": "SC",
        "postalCode": "29907-1465"
      },
      {
        "line": [
          "NA"
        ],
        "city": "BEAUFORT",
        "state": "SC",
        "postalCode": "29902-0110"
      },
      {
        "line": [
          "1680 RIBAUT RD"
        ],
        "city": "PORT ROYAL",
        "state": "SC",
        "postalCode": "29935-2008"
      },
      {
        "line": [
          "3039 Okatie Hwy"
        ],
        "city": "BLUFFTON",
        "state": "SC",
        "postalCode": "29910-5101"
      },
      {
        "line": [
          "1810 RICHMOND AVE"
        ],
        "city": "PORT ROYAL",
        "state": "SC",
        "postalCode": "29935-2015"
      },
      {
        "line": [
          "989 Ribaut Road",
          "Suite 220"
        ],
        "city": "BEAUFORT",
        "state": "SC",
        "postalCode": "29902-5481"
      },
      {
        "line": [
          "1680 Ribaut Road",
          "Suite B"
        ],
        "city": "PORT ROYAL",
        "state": "SC",
        "postalCode": "29935-2008"
      },
      {
        "line": [
          "989 RIBAUT RD STE 100"
        ],
        "city": "BEAUFORT",
        "state": "SC",
        "postalCode": "29902-5474"
      },
      {
        "line": [
          "11 Todd Drive"
        ],
        "city": "BEAUFORT",
        "state": "SC",
        "postalCode": "29902-6113"
      }
    ],
    "extension": [
      {
        "url": "https://fhir.athena.io/StructureDefinition/ah-practice",
        "valueReference": {
          "reference": "Organization/a-1.Practice-16436"
        }
      },
      {
        "url": "https://fhir.athena.io/StructureDefinition/ah-brand",
        "valueReference": {
          "reference": "Organization/a-16436.Brand-1"
        }
      }
    ]
  },
  "fullUrl": "urn:uuid:b65a5f23-5526-548f-91f9-97dd00127c44"
}