{
  "resource": {
    "resourceType": "Organization",
    "id": "18432d8e-af08-5c40-82a6-4882b554fae7",
    "name": "National Vascular Associates",
    "endpoint": [
      {
        "reference": "Endpoint/27a4e967-47aa-5a9c-a572-b8297ee268a2"
      },
      {
        "reference": "Endpoint/4703d119-98dc-5643-918d-ace4ccb02daa"
      }
    ],
    "identifier": [
      {
        "system": "http://hl7.org/fhir/sid/us-npi",
        "value": "1639770621"
      }
    ],
    "address": [
      {
        "line": [
          "550 BROADVIEW AVE.",
          "102"
        ],
        "city": "WARRENTON",
        "state": "VA",
        "postalCode": "20186-2036"
      },
      {
        "line": [
          "103 E 6TH ST"
        ],
        "city": "FRONT ROYAL",
        "state": "VA",
        "postalCode": "22630-3407"
      },
      {
        "line": [
          "349 LEGION DR"
        ],
        "city": "WARRENTON",
        "state": "VA",
        "postalCode": "20186-3537"
      },
      {
        "line": [
          "5589 GREENWICH RD"
        ],
        "city": "VIRGINIA BEACH",
        "state": "VA",
        "postalCode": "23462-6565"
      },
      {
        "line": [
          "704 THIMBLE SHOALS BLVD"
        ],
        "city": "NEWPORT NEWS",
        "state": "VA",
        "postalCode": "23606-4544"
      },
      {
        "line": [
          "9161 LIBERIA AVE"
        ],
        "city": "MANASSAS",
        "state": "VA",
        "postalCode": "20110-1727"
      },
      {
        "line": [
          "15100 WASHINGTON ST STE 203"
        ],
        "city": "HAYMARKET",
        "state": "VA",
        "postalCode": "20169-4920"
      },
      {
        "line": [
          "5589 GREENWICH RD"
        ],
        "city": "virginia beach",
        "state": "VA",
        "postalCode": "23462-6565"
      },
      {
        "line": [
          "5589 Greenwich Rd",
          "ste 100"
        ],
        "city": "VIRGINIA BEACH",
        "state": "VA",
        "postalCode": "23462-6565"
      },
      {
        "line": [
          "6512 WOODLAKE VILLAGE CIR"
        ],
        "city": "MIDLOTHIAN",
        "state": "VA",
        "postalCode": "23112-2200"
      },
      {
        "line": [
          "550 BROADVIEW AVE STE 102"
        ],
        "city": "WARRENTON",
        "state": "VA",
        "postalCode": "20186-2036"
      },
      {
        "line": [
          "2012 S TOLLGATE RD",
          "Ste 111-112"
        ],
        "city": "BEL AIR",
        "state": "MD",
        "postalCode": "21015-5900"
      },
      {
        "line": [
          "6477 COLLEGE PARK SQ STE 106"
        ],
        "city": "VIRGINIA BEACH",
        "state": "VA",
        "postalCode": "23464-3611"
      },
      {
        "line": [
          "420 S MAIN ST",
          "STE C"
        ],
        "city": "EMPORIA",
        "state": "VA",
        "postalCode": "23847-0016"
      },
      {
        "line": [
          "2012 S TOLLGATE RD STE 100-102"
        ],
        "city": "BEL AIR",
        "state": "MD",
        "postalCode": "21015-5901"
      },
      {
        "line": [
          "601 OLD WAGNER RD"
        ],
        "city": "PETERSBURG",
        "state": "VA",
        "postalCode": "23805-9313"
      },
      {
        "line": [
          "2002 Orange Rd",
          "Ste 105"
        ],
        "city": "CULPEPER",
        "state": "VA",
        "postalCode": "22701-3980"
      }
    ],
    "extension": [
      {
        "url": "https://fhir.athena.io/StructureDefinition/ah-practice",
        "valueReference": {
          "reference": "Organization/a-1.Practice-23046"
        }
      },
      {
        "url": "https://fhir.athena.io/StructureDefinition/ah-brand",
        "valueReference": {
          "reference": "Organization/a-23046.Brand-2"
        }
      }
    ]
  },
  "fullUrl": "urn:uuid:18432d8e-af08-5c40-82a6-4882b554fae7"
}