{
  "resource": {
    "resourceType": "Organization",
    "id": "51a4e432-6209-5e45-b835-4bc89fc3318a",
    "name": "CCOL PEDS",
    "endpoint": [
      {
        "reference": "Endpoint/27a4e967-47aa-5a9c-a572-b8297ee268a2"
      },
      {
        "reference": "Endpoint/04e2ef9f-7070-5f14-9b12-e74cdfa7151a"
      }
    ],
    "identifier": [
      {
        "system": "http://hl7.org/fhir/sid/us-npi",
        "value": "1982436564"
      },
      {
        "system": "http://hl7.org/fhir/sid/us-npi",
        "value": "1518729623"
      },
      {
        "system": "http://hl7.org/fhir/sid/us-npi",
        "value": "1083350888"
      },
      {
        "system": "http://hl7.org/fhir/sid/us-npi",
        "value": "1720857584"
      },
      {
        "system": "http://hl7.org/fhir/sid/us-npi",
        "value": "1801402433"
      },
      {
        "system": "http://hl7.org/fhir/sid/us-npi",
        "value": "1316704000"
      },
      {
        "system": "http://hl7.org/fhir/sid/us-npi",
        "value": "1326726563"
      },
      {
        "system": "http://hl7.org/fhir/sid/us-npi",
        "value": "1437622743"
      },
      {
        "system": "http://hl7.org/fhir/sid/us-npi",
        "value": "1457004186"
      },
      {
        "system": "http://hl7.org/fhir/sid/us-npi",
        "value": "1437527900"
      },
      {
        "system": "http://hl7.org/fhir/sid/us-npi",
        "value": "1891551818"
      },
      {
        "system": "http://hl7.org/fhir/sid/us-npi",
        "value": "1770119588"
      },
      {
        "system": "http://hl7.org/fhir/sid/us-npi",
        "value": "1134908437"
      },
      {
        "system": "http://hl7.org/fhir/sid/us-npi",
        "value": "1679762421"
      }
    ],
    "address": [
      {
        "line": [
          "3801 NORTH Blvd"
        ],
        "city": "BATON ROUGE",
        "state": "LA",
        "postalCode": "70806-4043"
      },
      {
        "line": [
          "2585 BRIGHTSIDE DR"
        ],
        "city": "BATON ROUGE",
        "state": "LA",
        "postalCode": "70820-3504"
      },
      {
        "line": [
          "4700 Denham St"
        ],
        "city": "BATON ROUGE",
        "state": "LA",
        "postalCode": "70805-1621"
      },
      {
        "line": [
          "30789 N. Range Ave."
        ],
        "city": "DENHAM SPRINGS",
        "state": "LA",
        "postalCode": "70726-8973"
      },
      {
        "line": [
          "4550 North Blvd"
        ],
        "city": "BATON ROUGE",
        "state": "LA",
        "postalCode": "70806-3825"
      },
      {
        "line": [
          "6450 Guynell Dr."
        ],
        "city": "BATON ROUGE",
        "state": "LA",
        "postalCode": "70811-2335"
      },
      {
        "line": [
          "5100 Greenwell Springs Rd"
        ],
        "city": "BATON ROUGE",
        "state": "LA",
        "postalCode": "70806-1603"
      },
      {
        "line": [
          "153 N 17th St."
        ],
        "city": "BATON ROUGE",
        "state": "LA",
        "postalCode": "70802-3800"
      },
      {
        "line": [
          "3849 North Blvd"
        ],
        "city": "BATON ROUGE",
        "state": "LA",
        "postalCode": "70806-4340"
      },
      {
        "line": [
          "5601 Upton Dr."
        ],
        "city": "BATON ROUGE",
        "state": "LA",
        "postalCode": "70809-3140"
      },
      {
        "line": [
          "781 COLONIAL DR"
        ],
        "city": "BATON ROUGE",
        "state": "LA",
        "postalCode": "70806-6512"
      },
      {
        "line": [
          "1735 THOMAS H DELPIT DR"
        ],
        "city": "BATON ROUGE",
        "state": "LA",
        "postalCode": "70802-6633"
      },
      {
        "line": [
          "15755 JEFFERSON HWY"
        ],
        "city": "BATON ROUGE",
        "state": "LA",
        "postalCode": "70817-6313"
      },
      {
        "line": [
          "9516 Airline Hwy"
        ],
        "city": "BATON ROUGE",
        "state": "LA",
        "postalCode": "70815-5501"
      },
      {
        "line": [
          "855 PROGRESS RD"
        ],
        "city": "BATON ROUGE",
        "state": "LA",
        "postalCode": "70807-3319"
      },
      {
        "line": [
          "751 W Oak Ave"
        ],
        "city": "EUNICE",
        "state": "LA",
        "postalCode": "70535-5252"
      },
      {
        "line": [
          "4560 North Blvd"
        ],
        "city": "BATON ROUGE",
        "state": "LA",
        "postalCode": "70806-4043"
      },
      {
        "line": [
          "751 W OAK AVE"
        ],
        "city": "EUNICE",
        "state": "LA",
        "postalCode": "70535-5252"
      },
      {
        "line": [
          "1735 Thomas H Delpit Dr"
        ],
        "city": "BATON ROUGE",
        "state": "LA",
        "postalCode": "70802-6633"
      },
      {
        "line": [
          "5100 GREENWELL SPRINGS RD"
        ],
        "city": "BATON ROUGE",
        "state": "LA",
        "postalCode": "70806-1603"
      },
      {
        "line": [
          "9516 AIRLINE HWY"
        ],
        "city": "BATON ROUGE",
        "state": "LA",
        "postalCode": "70815-5501"
      }
    ],
    "extension": [
      {
        "url": "https://fhir.athena.io/StructureDefinition/ah-practice",
        "valueReference": {
          "reference": "Organization/a-1.Practice-12694"
        }
      },
      {
        "url": "https://fhir.athena.io/StructureDefinition/ah-brand",
        "valueReference": {
          "reference": "Organization/a-12694.Brand-1"
        }
      }
    ]
  },
  "fullUrl": "urn:uuid:51a4e432-6209-5e45-b835-4bc89fc3318a"
}