{
  "resource": {
    "resourceType": "Organization",
    "id": "15c1fb04-aa7f-511c-a930-b4e5a0d82e86",
    "name": "VMG Allergy and Immunology Specialty - Paramus",
    "endpoint": [
      {
        "reference": "Endpoint/27a4e967-47aa-5a9c-a572-b8297ee268a2"
      },
      {
        "reference": "Endpoint/e191ff23-a2e2-5e42-9981-a57500eeebf1"
      }
    ],
    "identifier": [
      {
        "system": "http://hl7.org/fhir/sid/us-npi",
        "value": "1467815928"
      },
      {
        "system": "http://hl7.org/fhir/sid/us-npi",
        "value": "1457626558"
      },
      {
        "system": "http://hl7.org/fhir/sid/us-npi",
        "value": "1417310970"
      }
    ],
    "address": [
      {
        "line": [
          "1124 E RIDGEWOOD AVE",
          "Suite 202"
        ],
        "city": "RIDGEWOOD",
        "state": "NJ",
        "postalCode": "07450-2626"
      },
      {
        "line": [
          "4 VALLEY HEALTH PLZ"
        ],
        "city": "PARAMUS",
        "state": "NJ",
        "postalCode": "07652-3819"
      },
      {
        "line": [
          "493 BLACK OAK RIDGE RD"
        ],
        "city": "WAYNE",
        "state": "NJ",
        "postalCode": "07470-6501"
      },
      {
        "line": [
          "15 ESSEX RD"
        ],
        "city": "PARAMUS",
        "state": "NJ",
        "postalCode": "07652-1451"
      },
      {
        "line": [
          "127 UNION ST",
          "SUITE 112"
        ],
        "city": "RIDGEWOOD",
        "state": "NJ",
        "postalCode": "07450-4436"
      },
      {
        "line": [
          "216 ENGLE ST",
          "SUITE 203"
        ],
        "city": "ENGLEWOOD",
        "state": "NJ",
        "postalCode": "07631-2428"
      },
      {
        "line": [
          "947 LINWOOD AVE"
        ],
        "city": "RIDGEWOOD",
        "state": "NJ",
        "postalCode": "07450-2939"
      },
      {
        "line": [
          "1200 E. RIDGEWOOD AVE"
        ],
        "city": "RIDGEWOOD",
        "state": "NJ",
        "postalCode": "07450-3957"
      },
      {
        "line": [
          "124 NOYES DR"
        ],
        "city": "PARK RIDGE",
        "state": "NJ",
        "postalCode": "07656-1294"
      },
      {
        "line": [
          "200 Old Hook Road"
        ],
        "city": "HARRINGTON PARK",
        "state": "NJ",
        "postalCode": "07640-0001"
      },
      {
        "line": [
          "250 Old Hook Road"
        ],
        "city": "WESTWOOD",
        "state": "NJ",
        "postalCode": "07675-3123"
      },
      {
        "line": [
          "4 VALLEY HEALTH PLZ"
        ],
        "city": "PARAMUS",
        "state": "NJ",
        "postalCode": "07652-3816"
      },
      {
        "line": [
          "90 W RIDGEWOOD AVE"
        ],
        "city": "PARAMUS",
        "state": "NJ",
        "postalCode": "07652-2204"
      },
      {
        "line": [
          "140 E. RIDGEWOOD AVE",
          "Suite 480N"
        ],
        "city": "PARAMUS",
        "state": "NJ",
        "postalCode": "07652-3917"
      },
      {
        "line": [
          "250 OLD HOOK RD"
        ],
        "city": "WESTWOOD",
        "state": "NJ",
        "postalCode": "07675-3122"
      },
      {
        "line": [
          "1 VALLEY HEALTH PLAZA",
          "Suite C211"
        ],
        "city": "PARAMUS",
        "state": "NJ",
        "postalCode": "07652-3627"
      },
      {
        "line": [
          "470 North Franklin Tpke"
        ],
        "city": "RAMSEY",
        "state": "NJ",
        "postalCode": "07446-1120"
      },
      {
        "line": [
          "140 CHESTNUT ST",
          "SUITE 300"
        ],
        "city": "RIDGEWOOD",
        "state": "NJ",
        "postalCode": "07450-2326"
      },
      {
        "line": [
          "947 LINWOOD AVE",
          "SUITE 2W"
        ],
        "city": "RIDGEWOOD",
        "state": "NJ",
        "postalCode": "07450-2726"
      },
      {
        "line": [
          "223 N VAN DIEN AVE"
        ],
        "city": "RIDGEWOOD",
        "state": "NJ",
        "postalCode": "07450-2726"
      },
      {
        "line": [
          "400 OLD HOOK RD"
        ],
        "city": "WESTWOOD",
        "state": "NJ",
        "postalCode": "07675-2720"
      },
      {
        "line": [
          "1 VALLEY HEALTH PLAZA"
        ],
        "city": "PARAMUS",
        "state": "NJ",
        "postalCode": "07652-3628"
      },
      {
        "line": [
          "4 VALLEY HEALTH PLZ"
        ],
        "city": "PARAMUS",
        "state": "NJ",
        "postalCode": "07652-3619"
      },
      {
        "line": [
          "301 UNION ST"
        ],
        "city": "HACKENSACK",
        "state": "NJ",
        "postalCode": "07601-4304"
      },
      {
        "line": [
          "171 FRANKLIN TPKE"
        ],
        "city": "WALDWICK",
        "state": "NJ",
        "postalCode": "07463-1849"
      },
      {
        "line": [
          "25 FIFTH AVE"
        ],
        "city": "HASKELL",
        "state": "NJ",
        "postalCode": "07420-1075"
      },
      {
        "line": [
          "800 HAMBURG TPKE"
        ],
        "city": "WAYNE",
        "state": "NJ",
        "postalCode": "07470-2019"
      },
      {
        "line": [
          "304 S VAN DIEN AVE"
        ],
        "city": "RIDGEWOOD",
        "state": "NJ",
        "postalCode": "07450-5200"
      },
      {
        "line": [
          "385 S MAPLE AVE"
        ],
        "city": "GLEN ROCK",
        "state": "NJ",
        "postalCode": "07452-1545"
      },
      {
        "line": [
          "1 GARDEN STATE PLZ # 1170"
        ],
        "city": "PARAMUS",
        "state": "NJ",
        "postalCode": "07652-2417"
      },
      {
        "line": [
          "1120 ALPS RD"
        ],
        "city": "WAYNE",
        "state": "NJ",
        "postalCode": "07470-3704"
      },
      {
        "line": [
          "1 VALLEY HEALTH PLAZA"
        ],
        "city": "PARAMUS",
        "state": "NJ",
        "postalCode": "07652-3627"
      },
      {
        "line": [
          "300 OLD HOOK RD"
        ],
        "city": "WESTWOOD",
        "state": "NJ",
        "postalCode": "07675-3122"
      },
      {
        "line": [
          "644 Goffle Rd"
        ],
        "city": "HAWTHORNE",
        "state": "NJ",
        "postalCode": "07506-3452"
      },
      {
        "line": [
          "1200 E Ridgewood Ave",
          "Suite 306 East"
        ],
        "city": "RIDGEWOOD",
        "state": "NJ",
        "postalCode": "07450-3957"
      },
      {
        "line": [
          "1200 E RIDGEWOOD AVE, Suite 213 West"
        ],
        "city": "RIDGEWOOD",
        "state": "NJ",
        "postalCode": "07450-2726"
      },
      {
        "line": [
          "1 LINWOOD AVE"
        ],
        "city": "PARAMUS",
        "state": "NJ",
        "postalCode": "07652-2355"
      },
      {
        "line": [
          "1433 RINGWOOD AVE"
        ],
        "city": "HASKELL",
        "state": "NJ",
        "postalCode": "07420-1520"
      },
      {
        "line": [
          "100 W RIDGEWOOD AVE"
        ],
        "city": "PARAMUS",
        "state": "NJ",
        "postalCode": "07652-2204"
      },
      {
        "line": [
          "140 E RIDGEWOOD AVE STE 480N"
        ],
        "city": "PARAMUS",
        "state": "NJ",
        "postalCode": "07652-3917"
      },
      {
        "line": [
          "140 E. RIDGEWOOD AVE",
          "SUITE 480N"
        ],
        "city": "PARAMUS",
        "state": "NJ",
        "postalCode": "07652-3917"
      },
      {
        "line": [
          "5 BOROLINE ROAD"
        ],
        "city": "SADDLE RIVER",
        "state": "NJ",
        "postalCode": "07458-2343"
      },
      {
        "line": [
          "225 UNION AVE"
        ],
        "city": "BLOOMINGDALE",
        "state": "NJ",
        "postalCode": "07403-1924"
      },
      {
        "line": [
          "130 Prospect Street"
        ],
        "city": "RIDGEWOOD",
        "state": "NJ",
        "postalCode": "07450-1021"
      },
      {
        "line": [
          "140 E. Ridgewood Ave"
        ],
        "city": "PARAMUS",
        "state": "NJ",
        "postalCode": "07652-3906"
      },
      {
        "line": [
          "2 Sears Dr."
        ],
        "city": "PARAMUS",
        "state": "NJ",
        "postalCode": "07652-3515"
      },
      {
        "line": [
          "1 VALLEY HEALTH PLAZA, 1st FLOOR"
        ],
        "city": "PARAMUS",
        "state": "NJ",
        "postalCode": "07652-3627"
      },
      {
        "line": [
          "250 Old Hook Road",
          "4 Central"
        ],
        "city": "WESTWOOD",
        "state": "NJ",
        "postalCode": "07675-3123"
      },
      {
        "line": [
          "1578 ROUTE 23",
          "SUITE 205"
        ],
        "city": "WAYNE",
        "state": "NJ",
        "postalCode": "07470-7516"
      },
      {
        "line": [
          "1400 MACARTHUR BLVD"
        ],
        "city": "MAHWAH",
        "state": "NJ",
        "postalCode": "07430-3618"
      },
      {
        "line": [
          "140 East Ridgewood Ave",
          "Suite 525 South"
        ],
        "city": "PARAMUS",
        "state": "NJ",
        "postalCode": "07652-3917"
      },
      {
        "line": [
          "947 LINWOOD AVE",
          "Suite 1W"
        ],
        "city": "RIDGEWOOD",
        "state": "NJ",
        "postalCode": "07450-2726"
      },
      {
        "line": [
          "230 E RIDGEWOOD AVE"
        ],
        "city": "PARAMUS",
        "state": "NJ",
        "postalCode": "07652-4142"
      },
      {
        "line": [
          "400 FRANKLIN TPKE",
          "SUITE 212"
        ],
        "city": "MAHWAH",
        "state": "NJ",
        "postalCode": "07430-3516"
      },
      {
        "line": [
          "70 PARK AVE"
        ],
        "city": "PARK RIDGE",
        "state": "NJ",
        "postalCode": "07656-1941"
      },
      {
        "line": [
          "104 Cottage Place"
        ],
        "city": "RIDGEWOOD",
        "state": "NJ",
        "postalCode": "07450-0121"
      },
      {
        "line": [
          "223 NORTH VAN DIEN AVE"
        ],
        "city": "RIDGEWOOD",
        "state": "NJ",
        "postalCode": "07450-2726"
      },
      {
        "line": [
          "15 ESSEX RD STE 200"
        ],
        "city": "PARAMUS",
        "state": "NJ",
        "postalCode": "07652-1457"
      },
      {
        "line": [
          "1200 E RIDGEWOOD AVE"
        ],
        "city": "RIDGEWOOD",
        "state": "NJ",
        "postalCode": "07450-3957"
      },
      {
        "line": [
          "1 Valley Health Plaza"
        ],
        "city": "PARAMUS",
        "state": "NJ",
        "postalCode": "07652-3628"
      },
      {
        "line": [
          "947 LINWOOD AVE"
        ],
        "city": "RIDGEWOOD",
        "state": "NJ",
        "postalCode": "07450-2726"
      },
      {
        "line": [
          "336 PROSPECT AVE"
        ],
        "city": "HACKENSACK",
        "state": "NJ",
        "postalCode": "07601-2506"
      },
      {
        "line": [
          "4 VALLEY HELATH PLZ"
        ],
        "city": "PARAMUS",
        "state": "NJ",
        "postalCode": "07652-3819"
      },
      {
        "line": [
          "223 North Van Dien Avenue"
        ],
        "city": "RIDGEWOOD",
        "state": "NJ",
        "postalCode": "07450-2726"
      },
      {
        "line": [],
        "city": "PARAMUS",
        "state": "NJ",
        "postalCode": "07652-0001"
      },
      {
        "line": [
          "120 NOYES DR"
        ],
        "city": "PARK RIDGE",
        "state": "NJ",
        "postalCode": "07656-1294"
      }
    ],
    "extension": [
      {
        "url": "https://fhir.athena.io/StructureDefinition/ah-practice",
        "valueReference": {
          "reference": "Organization/a-1.Practice-5622"
        }
      },
      {
        "url": "https://fhir.athena.io/StructureDefinition/ah-brand",
        "valueReference": {
          "reference": "Organization/a-5622.Brand-34"
        }
      }
    ]
  },
  "fullUrl": "urn:uuid:15c1fb04-aa7f-511c-a930-b4e5a0d82e86"
}