{
  "resource": {
    "resourceType": "Organization",
    "id": "189d1aa6-af20-5fd4-bfc4-ec7a198a39f2",
    "name": "Ascension Texas Cardiovascular",
    "endpoint": [
      {
        "reference": "Endpoint/27a4e967-47aa-5a9c-a572-b8297ee268a2"
      },
      {
        "reference": "Endpoint/9cc18d86-9cfd-51f4-8362-613d94d57769"
      }
    ],
    "identifier": [
      {
        "system": "http://hl7.org/fhir/sid/us-npi",
        "value": "1588997233"
      },
      {
        "system": "http://hl7.org/fhir/sid/us-npi",
        "value": "1508489782"
      },
      {
        "system": "http://hl7.org/fhir/sid/us-npi",
        "value": "1275290694"
      },
      {
        "system": "http://hl7.org/fhir/sid/us-npi",
        "value": "1730412388"
      },
      {
        "system": "http://hl7.org/fhir/sid/us-npi",
        "value": "1962025148"
      },
      {
        "system": "http://hl7.org/fhir/sid/us-npi",
        "value": "1629538491"
      }
    ],
    "address": [
      {
        "line": [
          "1009 Falls Pkwy"
        ],
        "city": "MARBLE FALLS",
        "state": "TX",
        "postalCode": "78654-4630"
      },
      {
        "line": [
          "701. S Capital of Texas Hwy",
          "STE 900"
        ],
        "city": "WEST LAKE HILLS",
        "state": "TX",
        "postalCode": "78746-5263"
      },
      {
        "line": [
          "1601 Trinity St",
          "STOP 704"
        ],
        "city": "AUSTIN",
        "state": "TX",
        "postalCode": "78712-1865"
      },
      {
        "line": [
          "200 John W Hoover Pkwy Bldg. 4 STE A"
        ],
        "city": "BURNET",
        "state": "TX",
        "postalCode": "78611-4565"
      },
      {
        "line": [
          "630 Highway 71 West Suite D"
        ],
        "city": "Bastrop",
        "state": "TX",
        "postalCode": "78602-4234"
      },
      {
        "line": [
          "1180 Seton Pkwy",
          "STE 450"
        ],
        "city": "KYLE",
        "state": "TX",
        "postalCode": "78640-6178"
      },
      {
        "line": [
          "6811 Austin Center Blvd Ste 410"
        ],
        "city": "Austin",
        "state": "TX",
        "postalCode": "78731-3157"
      },
      {
        "line": [
          "4207 James Casey St Ste 215"
        ],
        "city": "AUSTIN",
        "state": "TX",
        "postalCode": "78745-3362"
      },
      {
        "line": [
          "2108 Hunter Rd  Ste 116"
        ],
        "city": "San Marcos",
        "state": "TX",
        "postalCode": "78666-5156"
      },
      {
        "line": [
          "5301 Davis Ln",
          "Bldg B100"
        ],
        "city": "AUSTIN",
        "state": "TX",
        "postalCode": "78749-4072"
      },
      {
        "line": [
          "209 S Church St Ste A"
        ],
        "city": "Lockhart",
        "state": "TX",
        "postalCode": "78644-2756"
      },
      {
        "line": [
          "130 Hays St Ste A"
        ],
        "city": "Luling",
        "state": "TX",
        "postalCode": "78648-3207"
      },
      {
        "line": [
          "4112 Links Ln,  Ste 101"
        ],
        "city": "ROUND ROCK",
        "state": "TX",
        "postalCode": "78664-3902"
      },
      {
        "line": [
          "1401 Medical Pkwy",
          "STE 320, BLDG B"
        ],
        "city": "Cedar Park",
        "state": "TX",
        "postalCode": "78613-5012"
      },
      {
        "line": [
          "1004 W 32nd St"
        ],
        "city": "Lampasas",
        "state": "TX",
        "postalCode": "76550-1820"
      },
      {
        "line": [
          "200 JOHN W HOOVER PKWY BLDG 1 STE B"
        ],
        "city": "BURNET",
        "state": "TX",
        "postalCode": "78611-4561"
      },
      {
        "line": [
          "249 Sportsplex Drive, Suite 200"
        ],
        "city": "Dripping Springs",
        "state": "TX",
        "postalCode": "78620-2350"
      },
      {
        "line": [
          "301 Seton Pkwy Ste 302"
        ],
        "city": "Round Rock",
        "state": "TX",
        "postalCode": "78665-8003"
      },
      {
        "line": [
          "1401 Medical Pkwy Bldg B, Ste 220"
        ],
        "city": "CEDAR PARK",
        "state": "TX",
        "postalCode": "78613-5013"
      },
      {
        "line": [
          "1601 TRINITY ST Bldg A Ste 704D"
        ],
        "city": "Austin",
        "state": "TX",
        "postalCode": "78712-1765"
      },
      {
        "line": [
          "1301 W 38th St Ste 107"
        ],
        "city": "Austin",
        "state": "TX",
        "postalCode": "78705-1010"
      },
      {
        "line": [
          "3101 Highway 71 East Ste 107"
        ],
        "city": "BASTROP",
        "state": "TX",
        "postalCode": "78602-5157"
      },
      {
        "line": [
          "11111 Research Blvd",
          "STE 300"
        ],
        "city": "AUSTIN",
        "state": "TX",
        "postalCode": "78759-5792"
      },
      {
        "line": [
          "11714 Wilson Parke Ave Ste 150"
        ],
        "city": "AUSTIN",
        "state": "TX",
        "postalCode": "78726-4061"
      },
      {
        "line": [
          "1201A Hill Rd"
        ],
        "city": "Smithville",
        "state": "TX",
        "postalCode": "78957-9533"
      },
      {
        "line": [
          "1101 Wolf Lake Dr",
          "STE 125"
        ],
        "city": "GEORGETOWN",
        "state": "TX",
        "postalCode": "78628-3778"
      },
      {
        "line": [
          "1004 W 32nd St",
          "STE 300"
        ],
        "city": "AUSTIN",
        "state": "TX",
        "postalCode": "78705-1905"
      },
      {
        "line": [
          "9670 RR 12"
        ],
        "city": "Wimberley",
        "state": "TX",
        "postalCode": "78676-5238"
      },
      {
        "line": [
          "1205 Central Texas Pkwy"
        ],
        "city": "Lampasas",
        "state": "TX",
        "postalCode": "76550-3388"
      },
      {
        "line": [
          "1009 W San Antonio St"
        ],
        "city": "Lockhart",
        "state": "TX",
        "postalCode": "78644-2421"
      }
    ],
    "extension": [
      {
        "url": "https://fhir.athena.io/StructureDefinition/ah-practice",
        "valueReference": {
          "reference": "Organization/a-1.Practice-8363"
        }
      },
      {
        "url": "https://fhir.athena.io/StructureDefinition/ah-brand",
        "valueReference": {
          "reference": "Organization/a-8363.Brand-1"
        }
      }
    ]
  },
  "fullUrl": "urn:uuid:189d1aa6-af20-5fd4-bfc4-ec7a198a39f2"
}