{
  "resource": {
    "resourceType": "Organization",
    "id": "96ba3bc0-8a4c-5b72-8b0e-5b017efd9ea7",
    "name": "Dr. Ocampo's Brunswick Office",
    "endpoint": [
      {
        "reference": "Endpoint/27a4e967-47aa-5a9c-a572-b8297ee268a2"
      },
      {
        "reference": "Endpoint/3d23070c-b145-56d9-bc39-b04413649464"
      }
    ],
    "identifier": [
      {
        "system": "http://hl7.org/fhir/sid/us-npi",
        "value": "1417020041"
      }
    ],
    "address": [
      {
        "line": [
          "southern maine foot & ankle",
          "25 plaza dr ste 9"
        ],
        "city": "SCARBOROUGH",
        "state": "ME",
        "postalCode": "04074-6900"
      },
      {
        "line": [
          "84 CAMPUS DR."
        ],
        "city": "SCARBOROUGH",
        "state": "ME",
        "postalCode": "04074-9044"
      },
      {
        "line": [
          "25 PLAZA DR SUITE 9"
        ],
        "city": "SCARBOROUGH",
        "state": "ME",
        "postalCode": "04074-6900"
      },
      {
        "line": [
          "123 Medical Center Drive"
        ],
        "city": "BRUNSWICK",
        "state": "ME",
        "postalCode": "04011-2652"
      },
      {
        "line": [
          "25 june st"
        ],
        "city": "SANFORD",
        "state": "ME",
        "postalCode": "04073-2621"
      },
      {
        "line": [
          "14 THOMAS POINT DR"
        ],
        "city": "BRUNSWICK",
        "state": "ME",
        "postalCode": "04011-3911"
      },
      {
        "line": [
          "84 Marginal Way"
        ],
        "city": "PORTLAND",
        "state": "ME",
        "postalCode": "04101-2443"
      },
      {
        "line": [
          "4 COMMONS AVE"
        ],
        "city": "WINDHAM",
        "state": "ME",
        "postalCode": "04062-5294"
      },
      {
        "line": [
          "144 State St"
        ],
        "city": "PORTLAND",
        "state": "ME",
        "postalCode": "04101-3776"
      },
      {
        "line": [
          "1 Medical Center Drive"
        ],
        "city": "BIDDEFORD",
        "state": "ME",
        "postalCode": "04005-9496"
      }
    ],
    "extension": [
      {
        "url": "https://fhir.athena.io/StructureDefinition/ah-practice",
        "valueReference": {
          "reference": "Organization/a-1.Practice-17696"
        }
      },
      {
        "url": "https://fhir.athena.io/StructureDefinition/ah-brand",
        "valueReference": {
          "reference": "Organization/a-17696.Brand-1"
        }
      }
    ]
  },
  "fullUrl": "urn:uuid:96ba3bc0-8a4c-5b72-8b0e-5b017efd9ea7"
}