{
  "resource": {
    "resourceType": "Organization",
    "id": "07f3a90e-5b38-5521-9800-f53a4284db3a",
    "name": "Comprehensive MedPsych Systems",
    "endpoint": [
      {
        "reference": "Endpoint/27a4e967-47aa-5a9c-a572-b8297ee268a2"
      },
      {
        "reference": "Endpoint/532c4b21-dfc6-5c76-ac63-2a48077f85e4"
      }
    ],
    "identifier": [
      {
        "system": "http://hl7.org/fhir/sid/us-npi",
        "value": "1518732833"
      },
      {
        "system": "http://hl7.org/fhir/sid/us-npi",
        "value": "1629830807"
      },
      {
        "system": "http://hl7.org/fhir/sid/us-npi",
        "value": "1336914662"
      },
      {
        "system": "http://hl7.org/fhir/sid/us-npi",
        "value": "1427823756"
      },
      {
        "system": "http://hl7.org/fhir/sid/us-npi",
        "value": "1306613880"
      },
      {
        "system": "http://hl7.org/fhir/sid/us-npi",
        "value": "1629843933"
      },
      {
        "system": "http://hl7.org/fhir/sid/us-npi",
        "value": "1750335741"
      },
      {
        "system": "http://hl7.org/fhir/sid/us-npi",
        "value": "1639944960"
      },
      {
        "system": "http://hl7.org/fhir/sid/us-npi",
        "value": "1689449910"
      },
      {
        "system": "http://hl7.org/fhir/sid/us-npi",
        "value": "1265207591"
      },
      {
        "system": "http://hl7.org/fhir/sid/us-npi",
        "value": "1033984448"
      },
      {
        "system": "http://hl7.org/fhir/sid/us-npi",
        "value": "1306612817"
      },
      {
        "system": "http://hl7.org/fhir/sid/us-npi",
        "value": "1922034503"
      },
      {
        "system": "http://hl7.org/fhir/sid/us-npi",
        "value": "1427823749"
      },
      {
        "system": "http://hl7.org/fhir/sid/us-npi",
        "value": "1548035876"
      },
      {
        "system": "http://hl7.org/fhir/sid/us-npi",
        "value": "1821319286"
      },
      {
        "system": "http://hl7.org/fhir/sid/us-npi",
        "value": "1134992548"
      },
      {
        "system": "http://hl7.org/fhir/sid/us-npi",
        "value": "1396518718"
      },
      {
        "system": "http://hl7.org/fhir/sid/us-npi",
        "value": "1851164271"
      },
      {
        "system": "http://hl7.org/fhir/sid/us-npi",
        "value": "1417720830"
      }
    ],
    "address": [
      {
        "line": [
          "621 W Brandan Blvd"
        ],
        "city": "BRANDON",
        "state": "FL",
        "postalCode": "33511-5005"
      },
      {
        "line": [
          "6817 Southpoint Pkwy",
          "Ste 2401 and 2402"
        ],
        "city": "Jacksonville",
        "state": "FL",
        "postalCode": "32216-8200"
      },
      {
        "line": [
          "1555 Kingsley Ave",
          "Ste 101"
        ],
        "city": "Orange Park",
        "state": "FL",
        "postalCode": "32073-9203"
      },
      {
        "line": [
          "871 Venetia Bay Blvd",
          "Suite #310"
        ],
        "city": "Venice",
        "state": "FL",
        "postalCode": "34285-8054"
      },
      {
        "line": [
          "1100 Plantation Island Dr",
          "Ste 110-120"
        ],
        "city": "St Augustine",
        "state": "FL",
        "postalCode": "32080-5173"
      },
      {
        "line": [
          "5500 Bee Ridge Rd",
          "Ste 202"
        ],
        "city": "Sarasota",
        "state": "FL",
        "postalCode": "34233-1502"
      },
      {
        "line": [
          "7451 Wiles Rd",
          "Ste 101 - 207"
        ],
        "city": "Coral Springs",
        "state": "FL",
        "postalCode": "33067-2040"
      },
      {
        "line": [
          "300 Kingsley Lake Dr",
          "Ste 403"
        ],
        "city": "St Augustine",
        "state": "FL",
        "postalCode": "32092-3038"
      },
      {
        "line": [
          "417 Corbett St"
        ],
        "city": "Belleair",
        "state": "FL",
        "postalCode": "33756-3305"
      },
      {
        "line": [
          "1110 Montlimar Dr",
          "STE 500"
        ],
        "city": "Mobile",
        "state": "AL",
        "postalCode": "36609-1794"
      },
      {
        "line": [
          "6320 Venture Dr",
          "Ste 203"
        ],
        "city": "Lakewood Ranch",
        "state": "FL",
        "postalCode": "34202-5132"
      },
      {
        "line": [
          "7655 38th Ave N",
          "Suite 101"
        ],
        "city": "SAINT PETERSBURG",
        "state": "FL",
        "postalCode": "33710-1263"
      },
      {
        "line": [
          "315 W Town Pl",
          "#3"
        ],
        "city": "St Augustine",
        "state": "FL",
        "postalCode": "32092-3105"
      },
      {
        "line": [
          "1300 Marsh Landing Pkwy",
          "Ste 112"
        ],
        "city": "Jacksonville Beach",
        "state": "FL",
        "postalCode": "32250-2407"
      },
      {
        "line": [
          "4740 Exploration Ave"
        ],
        "city": "LAKELAND",
        "state": "FL",
        "postalCode": "33812-3319"
      },
      {
        "line": [
          "6919 N Dale Mabry Hwy",
          "Ste. 320"
        ],
        "city": "TAMPA",
        "state": "FL",
        "postalCode": "33614-3972"
      },
      {
        "line": [
          "825 W Linebaugh Ave"
        ],
        "city": "TAMPA",
        "state": "FL",
        "postalCode": "33612-7855"
      },
      {
        "line": [
          "2101 Park Center Dr",
          "Ste 270"
        ],
        "city": "Orlando",
        "state": "FL",
        "postalCode": "32835-7608"
      },
      {
        "line": [
          "18900 N Tamiami Trail"
        ],
        "city": "NORTH FORT MYERS",
        "state": "FL",
        "postalCode": "33903-7312"
      },
      {
        "line": [
          "13861 Plantation Rd",
          "#104"
        ],
        "city": "FORT MYERS",
        "state": "FL",
        "postalCode": "33912-4342"
      },
      {
        "line": [
          "5715 21st Ave W"
        ],
        "city": "Bradenton",
        "state": "FL",
        "postalCode": "34209-5605"
      },
      {
        "line": [
          "4700 North Habana Ave",
          "Ste 703"
        ],
        "city": "Tampa",
        "state": "FL",
        "postalCode": "33614-7122"
      },
      {
        "line": [
          "4800 Whitesport Cir SW",
          "Ste 2"
        ],
        "city": "Huntsville",
        "state": "AL",
        "postalCode": "35801-6443"
      },
      {
        "line": [
          "80 GUEST ST"
        ],
        "city": "BRIGHTON",
        "state": "MA",
        "postalCode": "02135-2071"
      },
      {
        "line": [
          "15455 Collier Blvd",
          "#201"
        ],
        "city": "NAPLES",
        "state": "FL",
        "postalCode": "34119-7874"
      },
      {
        "line": [
          "1090 S Tamiami Trl"
        ],
        "city": "Sarasota",
        "state": "FL",
        "postalCode": "34236-9116"
      },
      {
        "line": [
          "100 N Second Ave",
          "Ste 320"
        ],
        "city": "St Petersburg",
        "state": "FL",
        "postalCode": "33701-3338"
      },
      {
        "line": [
          "466 Town Plaza Ave",
          "Ste 310"
        ],
        "city": "Ponte Vedra",
        "state": "FL",
        "postalCode": "32081-5185"
      },
      {
        "line": [
          "13099 S Cleveland Ave",
          "Ste 300"
        ],
        "city": "Fort Myers",
        "state": "FL",
        "postalCode": "33907-3835"
      }
    ],
    "extension": [
      {
        "url": "https://fhir.athena.io/StructureDefinition/ah-practice",
        "valueReference": {
          "reference": "Organization/a-1.Practice-28622"
        }
      },
      {
        "url": "https://fhir.athena.io/StructureDefinition/ah-brand",
        "valueReference": {
          "reference": "Organization/a-28622.Brand-7"
        }
      }
    ]
  },
  "fullUrl": "urn:uuid:07f3a90e-5b38-5521-9800-f53a4284db3a"
}