{
  "resource": {
    "resourceType": "Organization",
    "id": "67374304-912c-5186-9193-54b0fb11c702",
    "name": "Build- DO NOT USE",
    "endpoint": [
      {
        "reference": "Endpoint/27a4e967-47aa-5a9c-a572-b8297ee268a2"
      },
      {
        "reference": "Endpoint/d81f5920-f7a1-58d8-8a7d-e9419939fed4"
      }
    ],
    "identifier": [
      {
        "system": "http://hl7.org/fhir/sid/us-npi",
        "value": "1346291648"
      },
      {
        "system": "http://hl7.org/fhir/sid/us-npi",
        "value": "1154321271"
      },
      {
        "system": "http://hl7.org/fhir/sid/us-npi",
        "value": "1619444122"
      },
      {
        "system": "http://hl7.org/fhir/sid/us-npi",
        "value": "1306183918"
      },
      {
        "system": "http://hl7.org/fhir/sid/us-npi",
        "value": "1811375009"
      },
      {
        "system": "http://hl7.org/fhir/sid/us-npi",
        "value": "1114929163"
      },
      {
        "system": "http://hl7.org/fhir/sid/us-npi",
        "value": "1881696698"
      },
      {
        "system": "http://hl7.org/fhir/sid/us-npi",
        "value": "1598058463"
      },
      {
        "system": "http://hl7.org/fhir/sid/us-npi",
        "value": "1831199215"
      },
      {
        "system": "http://hl7.org/fhir/sid/us-npi",
        "value": "1669099511"
      },
      {
        "system": "http://hl7.org/fhir/sid/us-npi",
        "value": "1992244727"
      },
      {
        "system": "http://hl7.org/fhir/sid/us-npi",
        "value": "1982606968"
      },
      {
        "system": "http://hl7.org/fhir/sid/us-npi",
        "value": "1487156949"
      },
      {
        "system": "http://hl7.org/fhir/sid/us-npi",
        "value": "1558363523"
      },
      {
        "system": "http://hl7.org/fhir/sid/us-npi",
        "value": "1902276710"
      },
      {
        "system": "http://hl7.org/fhir/sid/us-npi",
        "value": "1598314387"
      },
      {
        "system": "http://hl7.org/fhir/sid/us-npi",
        "value": "1598767568"
      },
      {
        "system": "http://hl7.org/fhir/sid/us-npi",
        "value": "1265434237"
      },
      {
        "system": "http://hl7.org/fhir/sid/us-npi",
        "value": "1417407768"
      },
      {
        "system": "http://hl7.org/fhir/sid/us-npi",
        "value": "1962497131"
      },
      {
        "system": "http://hl7.org/fhir/sid/us-npi",
        "value": "1467973305"
      },
      {
        "system": "http://hl7.org/fhir/sid/us-npi",
        "value": "1467454439"
      },
      {
        "system": "http://hl7.org/fhir/sid/us-npi",
        "value": "1497158497"
      },
      {
        "system": "http://hl7.org/fhir/sid/us-npi",
        "value": "1275533655"
      },
      {
        "system": "http://hl7.org/fhir/sid/us-npi",
        "value": "1992707962"
      },
      {
        "system": "http://hl7.org/fhir/sid/us-npi",
        "value": "1043401748"
      },
      {
        "system": "http://hl7.org/fhir/sid/us-npi",
        "value": "1255632725"
      },
      {
        "system": "http://hl7.org/fhir/sid/us-npi",
        "value": "1447606421"
      },
      {
        "system": "http://hl7.org/fhir/sid/us-npi",
        "value": "1710514872"
      },
      {
        "system": "http://hl7.org/fhir/sid/us-npi",
        "value": "1508868506"
      },
      {
        "system": "http://hl7.org/fhir/sid/us-npi",
        "value": "1750371522"
      },
      {
        "system": "http://hl7.org/fhir/sid/us-npi",
        "value": "1023250065"
      },
      {
        "system": "http://hl7.org/fhir/sid/us-npi",
        "value": "1699775296"
      },
      {
        "system": "http://hl7.org/fhir/sid/us-npi",
        "value": "1174073563"
      },
      {
        "system": "http://hl7.org/fhir/sid/us-npi",
        "value": "1760484737"
      },
      {
        "system": "http://hl7.org/fhir/sid/us-npi",
        "value": "1912744590"
      },
      {
        "system": "http://hl7.org/fhir/sid/us-npi",
        "value": "1730650151"
      },
      {
        "system": "http://hl7.org/fhir/sid/us-npi",
        "value": "1447922083"
      },
      {
        "system": "http://hl7.org/fhir/sid/us-npi",
        "value": "1760993000"
      }
    ],
    "address": [
      {
        "line": [
          "1200 OLD YORK RD",
          "# 5 FL TOLL"
        ],
        "city": "ABINGTON",
        "state": "PA",
        "postalCode": "19001-3720"
      },
      {
        "line": [
          "1648 Huntingdon Pike"
        ],
        "city": "Meadowbrook",
        "state": "PA",
        "postalCode": "19046-8001"
      },
      {
        "line": [
          "1648 HUNTINGDON PIKE"
        ],
        "city": "Meadowbrook",
        "state": "PA",
        "postalCode": "19046-8004"
      },
      {
        "line": [
          "1651 Huntingdon Pike Ste 261"
        ],
        "city": "JENKINTOWN",
        "state": "PA",
        "postalCode": "19046-8008"
      },
      {
        "line": [
          "1648 Huntingdon Pike"
        ],
        "city": "Meadowbrook",
        "state": "PA",
        "postalCode": "19046-8003"
      },
      {
        "line": [
          "201 Veterans Way"
        ],
        "city": "WARMINSTER",
        "state": "PA",
        "postalCode": "18974-3552"
      },
      {
        "line": [
          "595 W STATE ST"
        ],
        "city": "DOYLESTOWN",
        "state": "PA",
        "postalCode": "18901-2554"
      },
      {
        "line": [
          "1648 Huntingdon Pike"
        ],
        "city": "MEADOWBROOK",
        "state": "PA",
        "postalCode": "19046-8001"
      },
      {
        "line": [
          "1650 Huntingdon Pike",
          "Suite 160"
        ],
        "city": "Meadowbrook",
        "state": "PA",
        "postalCode": "19046-8003"
      },
      {
        "line": [
          "1648 HUNTINGDON PIKE"
        ],
        "city": "MEADOWBROOK",
        "state": "PA",
        "postalCode": "19046-8001"
      },
      {
        "line": [
          "1650 HUNTINGDON PIKE",
          "SUITE 160"
        ],
        "city": "MEADOWBROOK",
        "state": "PA",
        "postalCode": "19046-8003"
      },
      {
        "line": [
          "1648 Huntingdon Pike"
        ],
        "city": "JENKINTOWN",
        "state": "PA",
        "postalCode": "19046-8001"
      },
      {
        "line": [
          "7390 Bustleton Ave"
        ],
        "city": "PHILADELPHIA",
        "state": "PA",
        "postalCode": "19152-4311"
      },
      {
        "line": [
          "1648 HUNTINGDON PIKE"
        ],
        "city": "MEADOWBROOK",
        "state": "PA",
        "postalCode": "19046-8004"
      },
      {
        "line": [
          "1648 Huntingdon Pike"
        ],
        "city": "MEADOWBROOK",
        "state": "PA",
        "postalCode": "19046-8003"
      },
      {
        "line": [
          "821 HUNTINGDON PIKE"
        ],
        "city": "HUNTINGDON VALLEY",
        "state": "PA",
        "postalCode": "19006-8371"
      },
      {
        "line": [
          "1685 Huntingdon Pike"
        ],
        "city": "Meadowbrook",
        "state": "PA",
        "postalCode": "19046-8002"
      },
      {
        "line": [
          "1648 HuntIngdon Pike"
        ],
        "city": "JENKINTOWN",
        "state": "PA",
        "postalCode": "19046-8001"
      },
      {
        "line": [
          "1654 Huntingdon Pike Ste 261"
        ],
        "city": "JENKINTOWN",
        "state": "PA",
        "postalCode": "19046-8008"
      },
      {
        "line": [
          "1653 Huntingdon Pike Ste 261"
        ],
        "city": "JENKINTOWN",
        "state": "PA",
        "postalCode": "19046-8008"
      },
      {
        "line": [
          "727 WELSH RD",
          "STE 108"
        ],
        "city": "HUNTINGDON VALLEY",
        "state": "PA",
        "postalCode": "19006-6357"
      },
      {
        "line": [
          "1648 HUNTINGDON PIKE"
        ],
        "city": "Meadowbrook",
        "state": "PA",
        "postalCode": "19046-8001"
      },
      {
        "line": [
          "1201 Langhorne-Newtown Road"
        ],
        "city": "LANGHORNE",
        "state": "PA",
        "postalCode": "19047-1295"
      },
      {
        "line": [
          "23 Bustleton Pike"
        ],
        "city": "FEASTERVILLE TREVOSE",
        "state": "PA",
        "postalCode": "19053-6446"
      },
      {
        "line": [
          "2701 Southampton Rd."
        ],
        "city": "PHILADELPHIA",
        "state": "PA",
        "postalCode": "19154-1205"
      },
      {
        "line": [
          "201 Veterans Way"
        ],
        "city": "WARMINSTER",
        "state": "PA",
        "postalCode": "18974-3534"
      },
      {
        "line": [
          "5500 Ridge Ave"
        ],
        "city": "Philadelphia",
        "state": "PA",
        "postalCode": "19128-1737"
      },
      {
        "line": [
          "1648 HUNTINGDON PIKE"
        ],
        "city": "JENKINTOWN",
        "state": "PA",
        "postalCode": "19046-8001"
      },
      {
        "line": [
          "1650 Huntingdon Pike",
          "Ste 261"
        ],
        "city": "JENKINTOWN",
        "state": "PA",
        "postalCode": "19046-8008"
      },
      {
        "line": [
          "8580 Verree Rd"
        ],
        "city": "PHILADELPHIA",
        "state": "PA",
        "postalCode": "19111-1370"
      },
      {
        "line": [
          "1650 Huntingdon Pike",
          "Suite 206"
        ],
        "city": "JENKINTOWN",
        "state": "PA",
        "postalCode": "19046-8001"
      },
      {
        "line": [
          "1650 Huntingdon Pike",
          "Suite 305"
        ],
        "city": "JENKINTOWN",
        "state": "PA",
        "postalCode": "19046-8003"
      }
    ],
    "extension": [
      {
        "url": "https://fhir.athena.io/StructureDefinition/ah-practice",
        "valueReference": {
          "reference": "Organization/a-1.Practice-17399"
        }
      },
      {
        "url": "https://fhir.athena.io/StructureDefinition/ah-brand",
        "valueReference": {
          "reference": "Organization/a-17399.Brand-1"
        }
      }
    ]
  },
  "fullUrl": "urn:uuid:67374304-912c-5186-9193-54b0fb11c702"
}