{
  "resource": {
    "resourceType": "Organization",
    "id": "c303c9a4-07c4-5207-99ee-6f1dceb5df0c",
    "name": "West Orange Women's Care",
    "endpoint": [
      {
        "reference": "Endpoint/27a4e967-47aa-5a9c-a572-b8297ee268a2"
      },
      {
        "reference": "Endpoint/27906b18-5bb5-5805-9864-1c5039705164"
      }
    ],
    "identifier": [
      {
        "system": "http://hl7.org/fhir/sid/us-npi",
        "value": "1598393597"
      }
    ],
    "address": [
      {
        "line": [
          "83 WEST MILLER STREET"
        ],
        "city": "ORLANDO",
        "state": "FL",
        "postalCode": "32806-2031"
      },
      {
        "line": [
          "601 E ROLLINS ST"
        ],
        "city": "ORLANDO",
        "state": "FL",
        "postalCode": "32803-1248"
      },
      {
        "line": [
          "10000 W. COLONIAL DRIVE"
        ],
        "city": "OCOEE",
        "state": "FL",
        "postalCode": "34761-3400"
      },
      {
        "line": [
          "601 E. Altamonte Dr"
        ],
        "city": "ALTAMONTE SPRINGS",
        "state": "FL",
        "postalCode": "32701-4802"
      },
      {
        "line": [
          "2711 MAGUIRE RD"
        ],
        "city": "OCOEE",
        "state": "FL",
        "postalCode": "34761-4797"
      },
      {
        "line": [
          "2100 OCOEE APOPKA RD"
        ],
        "city": "APOPKA",
        "state": "FL",
        "postalCode": "32703-9210"
      },
      {
        "line": [
          "2711 MAGUIRE ROAD"
        ],
        "city": "OCOEE",
        "state": "FL",
        "postalCode": "34761-4302"
      },
      {
        "line": [
          "601 E. Altamonte Drive"
        ],
        "city": "ALTAMONTE SPRINGS",
        "state": "FL",
        "postalCode": "32701-4802"
      },
      {
        "line": [
          "9401 TURKEY LAKE ROAD"
        ],
        "city": "ORLANDO",
        "state": "FL",
        "postalCode": "32819-3101"
      },
      {
        "line": [
          "1919 E HIGHWAY 50 STE 205B"
        ],
        "city": "CLERMONT",
        "state": "FL",
        "postalCode": "34711-1975"
      },
      {
        "line": [
          "2100 OCOEE APOPKA ROAD"
        ],
        "city": "APOPKA",
        "state": "FL",
        "postalCode": "32703-9210"
      },
      {
        "line": [
          "2000 Fowler Grove"
        ],
        "city": "WINTER GARDEN",
        "state": "FL",
        "postalCode": "34787-5050"
      },
      {
        "line": [
          "400 CELEBRATION PL"
        ],
        "city": "KISSIMMEE",
        "state": "FL",
        "postalCode": "34747-4970"
      }
    ],
    "extension": [
      {
        "url": "https://fhir.athena.io/StructureDefinition/ah-practice",
        "valueReference": {
          "reference": "Organization/a-1.Practice-21589"
        }
      },
      {
        "url": "https://fhir.athena.io/StructureDefinition/ah-brand",
        "valueReference": {
          "reference": "Organization/a-21589.Brand-1"
        }
      }
    ]
  },
  "fullUrl": "urn:uuid:c303c9a4-07c4-5207-99ee-6f1dceb5df0c"
}