{
  "resource": {
    "resourceType": "Organization",
    "id": "87902904-6b98-54db-a7c1-b882503d069d",
    "name": "ALPINE URGENT CARE MEDICINE",
    "endpoint": [
      {
        "reference": "Endpoint/27a4e967-47aa-5a9c-a572-b8297ee268a2"
      },
      {
        "reference": "Endpoint/adeeeb77-e0f6-5fb5-bc97-b2bff24cb427"
      }
    ],
    "identifier": [
      {
        "system": "http://hl7.org/fhir/sid/us-npi",
        "value": "1982246047"
      }
    ],
    "address": [
      {
        "line": [
          "460 W 2600 S"
        ],
        "city": "BOUNTIFUL",
        "state": "UT",
        "postalCode": "84010-7716"
      },
      {
        "line": [
          "451 BISHOP FEDERAL LN"
        ],
        "city": "SALT LAKE CITY",
        "state": "UT",
        "postalCode": "84115-2357"
      },
      {
        "line": [
          "5472 S 3200 W"
        ],
        "city": "SALT LAKE CITY",
        "state": "UT",
        "postalCode": "84129-7804"
      },
      {
        "line": [
          "1748 W 1800 N"
        ],
        "city": "CLEARFIELD",
        "state": "UT",
        "postalCode": "84015-8324"
      },
      {
        "line": [
          "2325 MADISON AVE"
        ],
        "city": "OGDEN",
        "state": "UT",
        "postalCode": "84401-1618"
      },
      {
        "line": [
          "76 S 500 E"
        ],
        "city": "SALT LAKE CITY",
        "state": "UT",
        "postalCode": "84102-1044"
      },
      {
        "line": [
          "7235 S UNION PARK AVE"
        ],
        "city": "COTTONWOOD HEIGHTS",
        "state": "UT",
        "postalCode": "84047-4700"
      },
      {
        "line": [
          "1404 N 2000 W CLINTON"
        ],
        "city": "LAYTON",
        "state": "UT",
        "postalCode": "84041-1122"
      },
      {
        "line": [
          "1624 E 4500 S"
        ],
        "city": "MILLCREEK",
        "state": "UT",
        "postalCode": "84117-4212"
      },
      {
        "line": [
          "3390 W SIGNAL PEAK DR"
        ],
        "city": "TAYLORSVILLE",
        "state": "UT",
        "postalCode": "84129-3910"
      },
      {
        "line": [
          "7037 S 4800 W"
        ],
        "city": "WEST JORDAN",
        "state": "UT",
        "postalCode": "84084-7901"
      },
      {
        "line": [
          "101 N FORT LANE",
          "SUITE 200"
        ],
        "city": "LAYTON",
        "state": "UT",
        "postalCode": "84041-4628"
      },
      {
        "line": [
          "11052 E GRAPEVINE COVE"
        ],
        "city": "SANDY",
        "state": "UT",
        "postalCode": "84070-5416"
      },
      {
        "line": [
          "14178 S. BANGERTER PKWY"
        ],
        "city": "DRAPER",
        "state": "UT",
        "postalCode": "84020-5497"
      },
      {
        "line": [
          "2877 W CENTER ST"
        ],
        "city": "PROVO",
        "state": "UT",
        "postalCode": "84601-5727"
      },
      {
        "line": [
          "5540 S 1050 E"
        ],
        "city": "OGDEN",
        "state": "UT",
        "postalCode": "84405-7078"
      },
      {
        "line": [
          "1245 E. MURRAY HOLLADAY ROAD"
        ],
        "city": "SALT LAKE CITY",
        "state": "UT",
        "postalCode": "84117-4992"
      },
      {
        "line": [
          "175 N STATE ST"
        ],
        "city": "LINDON",
        "state": "UT",
        "postalCode": "84042-1813"
      },
      {
        "line": [
          "617 E 9000 S"
        ],
        "city": "SANDY",
        "state": "UT",
        "postalCode": "84070-2425"
      },
      {
        "line": [
          "661 E. 100"
        ],
        "city": "SALT LAKE CITY",
        "state": "UT",
        "postalCode": "84102-1112"
      },
      {
        "line": [
          "1449 E 150 S"
        ],
        "city": "SPANISH FORK",
        "state": "UT",
        "postalCode": "84660-6308"
      },
      {
        "line": [
          "2938 S REDWOOD RD"
        ],
        "city": "WEST VALLEY CITY",
        "state": "UT",
        "postalCode": "84119-2323"
      },
      {
        "line": [
          "3080 S RICHMOND ST"
        ],
        "city": "SALT LAKE CITY",
        "state": "UT",
        "postalCode": "84106-3000"
      },
      {
        "line": [
          "565 E 300 S"
        ],
        "city": "PLEASANT GROVE",
        "state": "UT",
        "postalCode": "84062-2953"
      },
      {
        "line": [
          "41 E 400 N"
        ],
        "city": "LOGAN",
        "state": "UT",
        "postalCode": "84321-4020"
      },
      {
        "line": [
          "6968 S 700 W"
        ],
        "city": "MIDVALE",
        "state": "UT",
        "postalCode": "84047-4546"
      },
      {
        "line": [
          "3681 S 2300 E"
        ],
        "city": "SALT LAKE CITY",
        "state": "UT",
        "postalCode": "84109-1936"
      },
      {
        "line": [
          "6898 S 2300 E"
        ],
        "city": "SALT LAKE CITY",
        "state": "UT",
        "postalCode": "84121-3195"
      },
      {
        "line": [
          "770 S MAIN ST"
        ],
        "city": "KAYSVILLE",
        "state": "UT",
        "postalCode": "84037-2628"
      },
      {
        "line": [
          "272 W 500 N"
        ],
        "city": "AMERICAN FORK",
        "state": "UT",
        "postalCode": "84003-1530"
      },
      {
        "line": [
          "555 W STATE RD 164"
        ],
        "city": "SALEM",
        "state": "UT",
        "postalCode": "84653-5732"
      },
      {
        "line": [
          "1040 S 500 W"
        ],
        "city": "BRIGHAM CITY",
        "state": "UT",
        "postalCode": "84302-5599"
      },
      {
        "line": [
          "79 E CENTER ST"
        ],
        "city": "BOUNTIFUL",
        "state": "UT",
        "postalCode": "84010-6126"
      },
      {
        "line": [
          "551 E 1200 S"
        ],
        "city": "HEBER CITY",
        "state": "UT",
        "postalCode": "84032-4521"
      },
      {
        "line": [
          "1201 FAIRFIELD ROAD"
        ],
        "city": "LAYTON",
        "state": "UT",
        "postalCode": "84041-8321"
      },
      {
        "line": [
          "55 PROFESSIONAL WAY"
        ],
        "city": "PAYSON",
        "state": "UT",
        "postalCode": "84651-5637"
      },
      {
        "line": [
          "436 E 700 N"
        ],
        "city": "OREM",
        "state": "UT",
        "postalCode": "84097-4139"
      },
      {
        "line": [
          "1871 E 3300 S"
        ],
        "city": "SALT LAKE CITY",
        "state": "UT",
        "postalCode": "84106-3969"
      },
      {
        "line": [
          "963 E 6600 S"
        ],
        "city": "MURRAY",
        "state": "UT",
        "postalCode": "84121-2444"
      },
      {
        "line": [
          "71 E CENTER ST"
        ],
        "city": "CENTERVILLE",
        "state": "UT",
        "postalCode": "84014-2244"
      },
      {
        "line": [
          "777 E 3900 S"
        ],
        "city": "SALT LAKE CITY",
        "state": "UT",
        "postalCode": "84107-2199"
      },
      {
        "line": [
          "499 E 500"
        ],
        "city": "BOUNTIFUL",
        "state": "UT",
        "postalCode": "84010-3800"
      },
      {
        "line": [
          "815 S 200 W"
        ],
        "city": "BRIGHAM CITY",
        "state": "UT",
        "postalCode": "84302-3333"
      },
      {
        "line": [
          "2700 W 5600 S"
        ],
        "city": "ROY",
        "state": "UT",
        "postalCode": "84067-1372"
      },
      {
        "line": [
          "1242 E PHEASANT DR"
        ],
        "city": "LAYTON",
        "state": "UT",
        "postalCode": "84041-7423"
      },
      {
        "line": [
          "1212 E WILMINGTON AVE"
        ],
        "city": "SALT LAKE CITY",
        "state": "UT",
        "postalCode": "84106-4348"
      },
      {
        "line": [
          "1925 N State St"
        ],
        "city": "OREM",
        "state": "UT",
        "postalCode": "84057-2057"
      },
      {
        "line": [
          "523 N MAIN ST"
        ],
        "city": "BOUNTIFUL",
        "state": "UT",
        "postalCode": "84010-6036"
      },
      {
        "line": [
          "5600 S HIGHLAND DR"
        ],
        "city": "HOLLADAY",
        "state": "UT",
        "postalCode": "84121-1327"
      },
      {
        "line": [
          "1925 N STATE ST"
        ],
        "city": "OREM",
        "state": "UT",
        "postalCode": "84057-2057"
      },
      {
        "line": [
          "198 S 1300 E"
        ],
        "city": "SPRINGVILLE",
        "state": "UT",
        "postalCode": "84663-2160"
      },
      {
        "line": [
          "322 N 2375 W"
        ],
        "city": "LEHI",
        "state": "UT",
        "postalCode": "84043-5885"
      },
      {
        "line": [
          "6302 S GOLD MEDAL DR"
        ],
        "city": "SALT LAKE CITY",
        "state": "UT",
        "postalCode": "84129-7049"
      },
      {
        "line": [
          "5377 S STATE ST"
        ],
        "city": "SALT LAKE CITY",
        "state": "UT",
        "postalCode": "84107-6011"
      },
      {
        "line": [
          "1425 S 1500"
        ],
        "city": "CLEARFIELD",
        "state": "UT",
        "postalCode": "84015-1613"
      },
      {
        "line": [
          "446 N JEFFERSON AVE E"
        ],
        "city": "OGDEN",
        "state": "UT",
        "postalCode": "84404-6788"
      },
      {
        "line": [
          "2728 E 3900 S"
        ],
        "city": "SALT LAKE CITY",
        "state": "UT",
        "postalCode": "84124-2013"
      },
      {
        "line": [
          "862 MAHOGANY RIDGE RD."
        ],
        "city": "MORGAN",
        "state": "UT",
        "postalCode": "84050-9004"
      },
      {
        "line": [
          "1885 E SKYLINE DR"
        ],
        "city": "OGDEN",
        "state": "UT",
        "postalCode": "84403-5362"
      },
      {
        "line": [
          "462 S 900 E"
        ],
        "city": "PROVO8013752218",
        "state": "UT",
        "postalCode": "84606-5324"
      },
      {
        "line": [
          "8325 S HIGHLAND DR"
        ],
        "city": "SANDY",
        "state": "UT",
        "postalCode": "84093-1000"
      },
      {
        "line": [
          "5526 ADAMS AVE PKWY"
        ],
        "city": "OGDEN",
        "state": "UT",
        "postalCode": "84405-6936"
      },
      {
        "line": [
          "3330 W SIGNAL PEAK DR"
        ],
        "city": "SALT LAKE CITY",
        "state": "UT",
        "postalCode": "84129-3910"
      },
      {
        "line": [
          "6980 S 475 E"
        ],
        "city": "OGDEN",
        "state": "UT",
        "postalCode": "84405-9686"
      },
      {
        "line": [
          "430 S BROOKSIDE DR"
        ],
        "city": "FARMINGTON",
        "state": "UT",
        "postalCode": "84025-2192"
      },
      {
        "line": [
          "12416 S 3600 W"
        ],
        "city": "RIVERTON",
        "state": "UT",
        "postalCode": "84065-7307"
      },
      {
        "line": [
          "1424 1700 E"
        ],
        "city": "SPANISH FORK",
        "state": "UT",
        "postalCode": "84660-9007"
      },
      {
        "line": [
          "10970 S 700 E"
        ],
        "city": "SANDY",
        "state": "UT",
        "postalCode": "84070-4934"
      },
      {
        "line": [
          "464 E 3700 S"
        ],
        "city": "SALT LAKE CITY",
        "state": "UT",
        "postalCode": "84115-4634"
      },
      {
        "line": [
          "463 RAWLINS CR"
        ],
        "city": "CENTERVILLE",
        "state": "UT",
        "postalCode": "84014-2104"
      },
      {
        "line": [
          "1049 W 3200 N"
        ],
        "city": "LEHI",
        "state": "UT",
        "postalCode": "84043-2497"
      },
      {
        "line": [
          "4522 S 1300 E"
        ],
        "city": "SALT LAKE CITY",
        "state": "UT",
        "postalCode": "84117-4177"
      },
      {
        "line": [
          "60 East 1200 N"
        ],
        "city": "RANDLETT",
        "state": "UT",
        "postalCode": "84063-1754"
      },
      {
        "line": [
          "241 W HIGHLAND DR"
        ],
        "city": "PARK CITY",
        "state": "UT",
        "postalCode": "84098-6405"
      },
      {
        "line": [
          "2901 W CENTER ST"
        ],
        "city": "PROVO",
        "state": "UT",
        "postalCode": "84601-3659"
      },
      {
        "line": [
          "10322 N 4800 W"
        ],
        "city": "AMERICAN FORK",
        "state": "UT",
        "postalCode": "84003-8965"
      },
      {
        "line": [
          "1483 W 800 S"
        ],
        "city": "MAPLETON",
        "state": "UT",
        "postalCode": "84664-5672"
      },
      {
        "line": [
          "4146 N UNIVERSITY AVE"
        ],
        "city": "PROVO",
        "state": "UT",
        "postalCode": "84604-4960"
      },
      {
        "line": [
          "350 400 E"
        ],
        "city": "SALT LAKE CITY",
        "state": "UT",
        "postalCode": "84101-4932"
      },
      {
        "line": [
          "2363 FOOTHILL DR"
        ],
        "city": "SALT LAKE CITY",
        "state": "UT",
        "postalCode": "84109-1402"
      },
      {
        "line": [
          "430 W 400 N"
        ],
        "city": "BOUNTIFUL",
        "state": "UT",
        "postalCode": "84010-6916"
      },
      {
        "line": [
          "2664 W 11400 S"
        ],
        "city": "SOUTH JORDAN",
        "state": "UT",
        "postalCode": "84095-1229"
      },
      {
        "line": [
          "651 E 200 S"
        ],
        "city": "LEHI",
        "state": "UT",
        "postalCode": "84043-9703"
      },
      {
        "line": [
          "4390 S 700 W"
        ],
        "city": "OGDEN",
        "state": "UT",
        "postalCode": "84405-3404"
      },
      {
        "line": [
          "2728 E 3900 S"
        ],
        "city": "SALT LAKE CITY",
        "state": "UT",
        "postalCode": "84124-2002"
      },
      {
        "line": [
          "11289 OAKMOND RD"
        ],
        "city": "SOUTH JORDAN",
        "state": "UT",
        "postalCode": "84009-5156"
      },
      {
        "line": [
          "Y4607 S DRIVE"
        ],
        "city": "OGDEN",
        "state": "UT",
        "postalCode": "84401-9507"
      },
      {
        "line": [
          "1340 N WASHINGTON BLVD"
        ],
        "city": "OGDEN",
        "state": "UT",
        "postalCode": "84404-3266"
      },
      {
        "line": [
          "971 E 5600 S"
        ],
        "city": "SALT LAKE CITY",
        "state": "UT",
        "postalCode": "84121-4641"
      },
      {
        "line": [
          "2639 W 3520 S"
        ],
        "city": "OGDEN",
        "state": "UT",
        "postalCode": "84401-8529"
      },
      {
        "line": [
          "1205 N FAIRFIELD RD"
        ],
        "city": "LAYTON",
        "state": "UT",
        "postalCode": "84041-8300"
      },
      {
        "line": [
          "3352 N 100 E"
        ],
        "city": "PROVO",
        "state": "UT",
        "postalCode": "84604-6644"
      },
      {
        "line": [
          "59 King St"
        ],
        "city": "LAYTON",
        "state": "UT",
        "postalCode": "84041-0054"
      },
      {
        "line": [
          "1010 S MEDICAL DR"
        ],
        "city": "BRIGHAM CITY",
        "state": "UT",
        "postalCode": "84302-5599"
      },
      {
        "line": [
          "1088 E 390 S"
        ],
        "city": "AMERICAN FORK",
        "state": "UT",
        "postalCode": "84003-3336"
      },
      {
        "line": [
          "301 N 1200 E"
        ],
        "city": "LEHI",
        "state": "UT",
        "postalCode": "84043-2455"
      },
      {
        "line": [
          "960 S GENEVA RD"
        ],
        "city": "OREM",
        "state": "UT",
        "postalCode": "84058-5847"
      },
      {
        "line": [
          "564 W. MAIN ST"
        ],
        "city": "LEHI",
        "state": "UT",
        "postalCode": "84043-2056"
      },
      {
        "line": [
          "547 N STATION PKWY"
        ],
        "city": "FARMINGTON",
        "state": "UT",
        "postalCode": "84025-2888"
      },
      {
        "line": [
          "4481 HARRISON BLVD"
        ],
        "city": "OGDEN",
        "state": "UT",
        "postalCode": "84403-3181"
      },
      {
        "line": [
          "1360 E 9400 S"
        ],
        "city": "SANDY",
        "state": "UT",
        "postalCode": "84093-2960"
      },
      {
        "line": [
          "2363 S FOOTHILLS DRIVE"
        ],
        "city": "SALT LAKE CITY",
        "state": "UT",
        "postalCode": "84109-1402"
      },
      {
        "line": [
          "409S 300W"
        ],
        "city": "SANTAQUIN",
        "state": "UT",
        "postalCode": "84655-8156"
      },
      {
        "line": [
          "165 S 1000 E"
        ],
        "city": "SALT LAKE CITY",
        "state": "UT",
        "postalCode": "84102-1402"
      },
      {
        "line": [
          "785 E 150 S"
        ],
        "city": "SANTAQUIN",
        "state": "UT",
        "postalCode": "84655-5680"
      },
      {
        "line": [
          "1341 W South Jordan Pkwy"
        ],
        "city": "SOUTH JORDAN",
        "state": "UT",
        "postalCode": "84095-8848"
      },
      {
        "line": [
          "325 W CENTER DR"
        ],
        "city": "OREM",
        "state": "UT",
        "postalCode": "84057-4639"
      },
      {
        "line": [
          "5524 W 6200 S"
        ],
        "city": "SALT LAKE CITY",
        "state": "UT",
        "postalCode": "84118-7927"
      },
      {
        "line": [
          "6084 SUMMIT VISTA BLVD"
        ],
        "city": "TAYLORSVILLE",
        "state": "UT",
        "postalCode": "84129-3208"
      },
      {
        "line": [
          "1517 W TEMPLE LANE"
        ],
        "city": "SOUTH JORDAN",
        "state": "UT",
        "postalCode": "84095-2415"
      },
      {
        "line": [
          "310 E 10600 S"
        ],
        "city": "SANDY",
        "state": "UT",
        "postalCode": "84070-4806"
      },
      {
        "line": [
          "164 W 200 S"
        ],
        "city": "AMERICAN FORK",
        "state": "UT",
        "postalCode": "84003-2344"
      },
      {
        "line": [
          "60 W 1200 N"
        ],
        "city": "PLEASANT GROVE",
        "state": "UT",
        "postalCode": "84062-1234"
      },
      {
        "line": [
          "280 E 600 S"
        ],
        "city": "SALT LAKE CITY",
        "state": "UT",
        "postalCode": "84111-3564"
      },
      {
        "line": [
          "3450 W SIGNAL PEAK DR"
        ],
        "city": "TAYLORSVILLE",
        "state": "UT",
        "postalCode": "84129-4006"
      },
      {
        "line": [
          "1201 E 4500 S"
        ],
        "city": "SALT LAKE CITY",
        "state": "UT",
        "postalCode": "84117-4124"
      },
      {
        "line": [
          "1407 S 2000 W"
        ],
        "city": "SYRACUSE",
        "state": "UT",
        "postalCode": "84075-6935"
      },
      {
        "line": [
          "92 S 800 E"
        ],
        "city": "OREM",
        "state": "UT",
        "postalCode": "84097-5714"
      },
      {
        "line": [
          "1928 SHIELDS LN"
        ],
        "city": "SOUTH JORDAN",
        "state": "UT",
        "postalCode": "84095-9998"
      },
      {
        "line": [
          "10569 S RIVER HEIGHTS DR"
        ],
        "city": "SOUTH JORDAN",
        "state": "UT",
        "postalCode": "84095-5925"
      },
      {
        "line": [
          "3750 HIGHLAND DR"
        ],
        "city": "SALT LAKE CITY",
        "state": "UT",
        "postalCode": "84106-3206"
      },
      {
        "line": [
          "815 W 700 N"
        ],
        "city": "LINDON",
        "state": "UT",
        "postalCode": "84042-1446"
      },
      {
        "line": [
          "524 E 800 N"
        ],
        "city": "OGDEN",
        "state": "UT",
        "postalCode": "84404-3600"
      },
      {
        "line": [
          "737 S 1300 E5 WEST"
        ],
        "city": "SALT LAKE CITY",
        "state": "UT",
        "postalCode": "84102-3799"
      },
      {
        "line": [
          "204 E 1700 N"
        ],
        "city": "OGDEN",
        "state": "UT",
        "postalCode": "84414-4103"
      },
      {
        "line": [
          "1150 S MAIN ST"
        ],
        "city": "BOUNTIFUL",
        "state": "UT",
        "postalCode": "84010-6351"
      },
      {
        "line": [
          "1401 SHADOW VALLEY DRIVE"
        ],
        "city": "OGDEN",
        "state": "UT",
        "postalCode": "84403-3401"
      },
      {
        "line": [
          "1889 W 930 N"
        ],
        "city": "PLEASANT GROVE",
        "state": "UT",
        "postalCode": "84062-4157"
      },
      {
        "line": [
          "126 W 1550 S"
        ],
        "city": "BRIGHAM CITY",
        "state": "UT",
        "postalCode": "84302-4277"
      },
      {
        "line": [
          "10569 RIVER HEIGHTS DR"
        ],
        "city": "SOUTH JORDAN",
        "state": "UT",
        "postalCode": "84095-5925"
      },
      {
        "line": [
          "330 E 1400 N"
        ],
        "city": "LOGAN",
        "state": "UT",
        "postalCode": "84341-2487"
      },
      {
        "line": [
          "206 N 2100W"
        ],
        "city": "SALT LAKE CITY",
        "state": "UT",
        "postalCode": "84116-4740"
      },
      {
        "line": [
          "7235 UNION PARK AVE"
        ],
        "city": "MIDVALE",
        "state": "UT",
        "postalCode": "84047-4700"
      }
    ],
    "extension": [
      {
        "url": "https://fhir.athena.io/StructureDefinition/ah-practice",
        "valueReference": {
          "reference": "Organization/a-1.Practice-12903"
        }
      },
      {
        "url": "https://fhir.athena.io/StructureDefinition/ah-brand",
        "valueReference": {
          "reference": "Organization/a-12903.Brand-1"
        }
      }
    ]
  },
  "fullUrl": "urn:uuid:87902904-6b98-54db-a7c1-b882503d069d"
}