{
  "resource": {
    "resourceType": "Organization",
    "id": "122fe0ef-932d-5766-b6b5-22859402dfc3",
    "name": "MEDEXPRESS URGENT CARE, P.C. - MASSACHUSETTS",
    "endpoint": [
      {
        "reference": "Endpoint/27a4e967-47aa-5a9c-a572-b8297ee268a2"
      },
      {
        "reference": "Endpoint/aff60e09-fdf6-5931-b7b3-f67c35e8e301"
      }
    ],
    "identifier": [
      {
        "system": "http://hl7.org/fhir/sid/us-npi",
        "value": "1376941591"
      }
    ],
    "address": [
      {
        "line": [
          "241 N Main Street"
        ],
        "city": "LEOMINSTER",
        "state": "MA",
        "postalCode": "01453-2219"
      },
      {
        "line": [
          "296 MAIN STREET"
        ],
        "city": "HAVERHILL",
        "state": "MA",
        "postalCode": "01830-5045"
      },
      {
        "line": [
          "296 Main Street"
        ],
        "city": "HAVERHILL",
        "state": "MA",
        "postalCode": "01830-5045"
      },
      {
        "line": [
          "311 EAST MAIN ST"
        ],
        "city": "WESTFIELD",
        "state": "MA",
        "postalCode": "01085-3307"
      },
      {
        "line": [
          "2 Broadway"
        ],
        "city": "METHUEN",
        "state": "MA",
        "postalCode": "01844-3811"
      },
      {
        "line": [
          "424 Russell Street"
        ],
        "city": "HADLEY",
        "state": "MA",
        "postalCode": "01035-9579"
      },
      {
        "line": [
          "600 Atlantic Avenue"
        ],
        "city": "BOSTON",
        "state": "MA",
        "postalCode": "02210-2204"
      },
      {
        "line": [
          "1312 Boston Road"
        ],
        "city": "SPRINGFIELD",
        "state": "MA",
        "postalCode": "01119-1336"
      },
      {
        "line": [
          "1505 MEMORIAL DRIVE"
        ],
        "city": "CHICOPEE",
        "state": "MA",
        "postalCode": "01020-3900"
      },
      {
        "line": [
          "39 Chelmsford Street"
        ],
        "city": "CHELMSFORD",
        "state": "MA",
        "postalCode": "01824-3016"
      },
      {
        "line": [
          "430 COOLEY ST"
        ],
        "city": "SPRINGFIELD",
        "state": "MA",
        "postalCode": "01128-1180"
      },
      {
        "line": [
          "999 DALTON AVE"
        ],
        "city": "PITTSFIELD",
        "state": "MA",
        "postalCode": "01201-2903"
      }
    ],
    "extension": [
      {
        "url": "https://fhir.athena.io/StructureDefinition/ah-practice",
        "valueReference": {
          "reference": "Organization/a-1.Practice-3908"
        }
      },
      {
        "url": "https://fhir.athena.io/StructureDefinition/ah-brand",
        "valueReference": {
          "reference": "Organization/a-3908.Brand-1"
        }
      }
    ]
  },
  "fullUrl": "urn:uuid:122fe0ef-932d-5766-b6b5-22859402dfc3"
}