{
  "resource": {
    "resourceType": "Organization",
    "id": "58f325ed-0b3e-5e83-90b3-e96076b98fde",
    "name": "ALAMEDA SURGERY CENTER",
    "endpoint": [
      {
        "reference": "Endpoint/27a4e967-47aa-5a9c-a572-b8297ee268a2"
      },
      {
        "reference": "Endpoint/b853f79e-9ea9-5803-a04d-5176488ac83d"
      }
    ],
    "identifier": [
      {
        "system": "http://hl7.org/fhir/sid/us-npi",
        "value": "1386911006"
      },
      {
        "system": "http://hl7.org/fhir/sid/us-npi",
        "value": "1548567498"
      }
    ],
    "address": [
      {
        "line": [
          "1961 Pruneridge Ave.",
          "Suite C"
        ],
        "city": "SANTA CLARA",
        "state": "CA",
        "postalCode": "95050-6575"
      },
      {
        "line": [
          "1860 El Camino Real",
          "SUITE 101"
        ],
        "city": "BURLINGAME",
        "state": "CA",
        "postalCode": "94010-3106"
      },
      {
        "line": [
          "900 Hyde Street"
        ],
        "city": "SAN FRANCISCO",
        "state": "CA",
        "postalCode": "94109-4806"
      },
      {
        "line": [
          "225 N JACKSON AVE"
        ],
        "city": "SAN JOSE",
        "state": "CA",
        "postalCode": "95116-1603"
      },
      {
        "line": [
          "2645 Ocean Avenue, Ste. 207"
        ],
        "city": "SAN FRANCISCO",
        "state": "CA",
        "postalCode": "94132-1646"
      },
      {
        "line": [
          "845 Jackson Street"
        ],
        "city": "SAN FRANCISCO",
        "state": "CA",
        "postalCode": "94133-4899"
      },
      {
        "line": [
          "450 Stanyan STreet"
        ],
        "city": "SAN FRANCISCO",
        "state": "CA",
        "postalCode": "94117-1019"
      },
      {
        "line": [
          "1849 Old Bayshore Hwy",
          "3rd Floor"
        ],
        "city": "BURLINGAME",
        "state": "CA",
        "postalCode": "94010-1214"
      }
    ],
    "extension": [
      {
        "url": "https://fhir.athena.io/StructureDefinition/ah-practice",
        "valueReference": {
          "reference": "Organization/a-1.Practice-3663"
        }
      },
      {
        "url": "https://fhir.athena.io/StructureDefinition/ah-brand",
        "valueReference": {
          "reference": "Organization/a-3663.Brand-16"
        }
      }
    ]
  },
  "fullUrl": "urn:uuid:58f325ed-0b3e-5e83-90b3-e96076b98fde"
}