{
  "resource": {
    "resourceType": "Organization",
    "id": "738f8dac-f436-57f5-97f5-022539a56269",
    "name": "Premier Pain Treatment Institute LLC",
    "endpoint": [
      {
        "reference": "Endpoint/27a4e967-47aa-5a9c-a572-b8297ee268a2"
      },
      {
        "reference": "Endpoint/aee5919b-c0da-5b7f-91f0-0cb2aba4f5e7"
      }
    ],
    "identifier": [
      {
        "system": "http://hl7.org/fhir/sid/us-npi",
        "value": "1083079941"
      }
    ],
    "address": [
      {
        "line": [
          "10615 Montgomery Rd Ste 300"
        ],
        "city": "CINCINNATI",
        "state": "OH",
        "postalCode": "45242-4460"
      },
      {
        "line": [
          "5700 Gateway Ste 100B"
        ],
        "city": "MASON",
        "state": "OH",
        "postalCode": "45040-1890"
      },
      {
        "line": [
          "3155 GLENDALE MILFORD RD"
        ],
        "city": "CINCINNATI",
        "state": "OH",
        "postalCode": "45241-3134"
      },
      {
        "line": [
          "10506 Montgomery Rd"
        ],
        "city": "CINCINNATI",
        "state": "OH",
        "postalCode": "45242-4487"
      },
      {
        "line": [
          "230 MEDICAL CENTER DR"
        ],
        "city": "SEAMAN",
        "state": "OH",
        "postalCode": "45679-8002"
      },
      {
        "line": [
          "1301 Mattec DR"
        ],
        "city": "LOVELAND",
        "state": "OH",
        "postalCode": "45140-7300"
      },
      {
        "line": [
          "10500 Montgomery Rd"
        ],
        "city": "CINCINNATI",
        "state": "OH",
        "postalCode": "45242-4402"
      },
      {
        "line": [
          "1275 N HIGH ST"
        ],
        "city": "HILLSBORO",
        "state": "OH",
        "postalCode": "45133-8273"
      },
      {
        "line": [
          "375 Dixmyth Ave"
        ],
        "city": "CINCINNATI",
        "state": "OH",
        "postalCode": "45220-2475"
      }
    ],
    "extension": [
      {
        "url": "https://fhir.athena.io/StructureDefinition/ah-practice",
        "valueReference": {
          "reference": "Organization/a-1.Practice-29303"
        }
      },
      {
        "url": "https://fhir.athena.io/StructureDefinition/ah-brand",
        "valueReference": {
          "reference": "Organization/a-29303.Brand-1"
        }
      }
    ]
  },
  "fullUrl": "urn:uuid:738f8dac-f436-57f5-97f5-022539a56269"
}