{
  "resource": {
    "resourceType": "Organization",
    "id": "1ac2e961-1296-5123-af82-820c1b99269b",
    "name": "Florida's First Coast YMCA",
    "endpoint": [
      {
        "reference": "Endpoint/27a4e967-47aa-5a9c-a572-b8297ee268a2"
      },
      {
        "reference": "Endpoint/abb5f7d5-468e-5806-be46-fb2282afef02"
      }
    ],
    "identifier": [
      {
        "system": "http://hl7.org/fhir/sid/us-npi",
        "value": "1558810994"
      }
    ],
    "address": [
      {
        "line": [
          "21 W Church Street"
        ],
        "city": "JACKSONVILLE",
        "state": "FL",
        "postalCode": "32202-3155"
      },
      {
        "line": [
          "400 Health Park Blvd."
        ],
        "city": "SAINT AUGUSTINE",
        "state": "FL",
        "postalCode": "32086-1234"
      },
      {
        "line": [
          "2075 Town Center Blvd"
        ],
        "city": "FLEMING ISLAND",
        "state": "FL",
        "postalCode": "32003-6323"
      },
      {
        "line": [
          "170 Landrum Lane"
        ],
        "city": "PONTE VEDRA BEACH",
        "state": "FL",
        "postalCode": "32082-3823"
      },
      {
        "line": [
          "1250 South 18th Street"
        ],
        "city": "FERNANDINA BEACH",
        "state": "FL",
        "postalCode": "32034-1902"
      },
      {
        "line": [
          "6079 Bagley Rd"
        ],
        "city": "JACKSONVILLE",
        "state": "FL",
        "postalCode": "32209-1805"
      },
      {
        "line": [
          "10423 Centurion Pkwy North"
        ],
        "city": "JACKSONVILLE",
        "state": "FL",
        "postalCode": "32256-0527"
      },
      {
        "line": [
          "1447 Mayport Road",
          "6A"
        ],
        "city": "ATLANTIC BEACH",
        "state": "FL",
        "postalCode": "32233-3405"
      },
      {
        "line": [
          "1670 St Vincent's Way"
        ],
        "city": "MIDDLEBURG",
        "state": "FL",
        "postalCode": "32068-8447"
      },
      {
        "line": [
          "3322 Moody Ave"
        ],
        "city": "ORANGE PARK",
        "state": "FL",
        "postalCode": "32065-6811"
      },
      {
        "line": [
          "200 San Sebastian View"
        ],
        "city": "SAINT AUGUSTINE",
        "state": "FL",
        "postalCode": "32084-8695"
      },
      {
        "line": [
          "12735 Gran Bay Parkway W"
        ],
        "city": "JACKSONVILLE",
        "state": "FL",
        "postalCode": "32258-4492"
      },
      {
        "line": [
          "500 World Commerce Pkwy"
        ],
        "city": "SAINT AUGUSTINE",
        "state": "FL",
        "postalCode": "32092-3788"
      },
      {
        "line": [
          "655 West 8th Street"
        ],
        "city": "JACKSONVILLE",
        "state": "FL",
        "postalCode": "32209-6511"
      },
      {
        "line": [
          "30 East Adams St",
          "suite 210"
        ],
        "city": "JACKSONVILLE",
        "state": "FL",
        "postalCode": "32202-1234"
      },
      {
        "line": [
          "6674 Commonwealth Ave"
        ],
        "city": "JACKSONVILLE",
        "state": "FL",
        "postalCode": "32254-2218"
      },
      {
        "line": [
          "221 riverside Avenue"
        ],
        "city": "JACKSONVILLE",
        "state": "FL",
        "postalCode": "32202-4907"
      },
      {
        "line": [
          "5700 Cleveland Rd"
        ],
        "city": "JACKSONVILLE",
        "state": "FL",
        "postalCode": "32209-2850"
      },
      {
        "line": [
          "221 Riverside Avenue"
        ],
        "city": "JACKSONVILLE",
        "state": "FL",
        "postalCode": "32202-4907"
      },
      {
        "line": [
          "7373 Old Kings Rd S"
        ],
        "city": "JACKSONVILLE",
        "state": "FL",
        "postalCode": "32217-3301"
      },
      {
        "line": [
          "301 West Bay Street",
          "suite 1300"
        ],
        "city": "JACKSONVILLE",
        "state": "FL",
        "postalCode": "32202-5141"
      },
      {
        "line": [
          "10131 Atlantic Boulevard"
        ],
        "city": "JACKSONVILLE",
        "state": "FL",
        "postalCode": "32225-6568"
      },
      {
        "line": [
          "7215 Financial Way"
        ],
        "city": "JACKSONVILLE",
        "state": "FL",
        "postalCode": "32256-6853"
      },
      {
        "line": [
          "14550 Old St. Augustine Rd."
        ],
        "city": "JACKSONVILLE",
        "state": "FL",
        "postalCode": "32258-2460"
      },
      {
        "line": [
          "1697 Kings Road"
        ],
        "city": "JACKSONVILLE",
        "state": "FL",
        "postalCode": "32209-6169"
      },
      {
        "line": [
          "11236 Baptist Health Drive"
        ],
        "city": "JACKSONVILLE",
        "state": "FL",
        "postalCode": "32218-2980"
      },
      {
        "line": [
          "777 5th Ave S"
        ],
        "city": "JACKSONVILLE BEACH",
        "state": "FL",
        "postalCode": "32250-5325"
      },
      {
        "line": [
          "850 6th Ave. S, #400"
        ],
        "city": "JACKSONVILLE BEACH",
        "state": "FL",
        "postalCode": "32250-4256"
      },
      {
        "line": [
          "4855 Town Center"
        ],
        "city": "JACKSONVILLE",
        "state": "FL",
        "postalCode": "32246-8437"
      },
      {
        "line": [
          "1701 Prudential Dr"
        ],
        "city": "JACKSONVILLE",
        "state": "FL",
        "postalCode": "32207-8152"
      },
      {
        "line": [
          "800 Prudential Drive"
        ],
        "city": "JACKSONVILLE",
        "state": "FL",
        "postalCode": "32207-8202"
      },
      {
        "line": [
          "479 Houston St."
        ],
        "city": "GREEN COVE SPRINGS",
        "state": "FL",
        "postalCode": "32043-2411"
      },
      {
        "line": [
          "4800 Deerwood Cmps Pkwy Bldg 300"
        ],
        "city": "JACKSONVILLE",
        "state": "FL",
        "postalCode": "32246-6498"
      },
      {
        "line": [
          "500 Pope Road"
        ],
        "city": "SAINT AUGUSTINE",
        "state": "FL",
        "postalCode": "32080-5931"
      },
      {
        "line": [
          "3520 St Johns Bluff Rd S"
        ],
        "city": "JACKSONVILLE",
        "state": "FL",
        "postalCode": "32224-2689"
      },
      {
        "line": [
          "10415 San Jose Blvd"
        ],
        "city": "JACKSONVILLE",
        "state": "FL",
        "postalCode": "32257-6206"
      },
      {
        "line": [
          "4736 Ave B"
        ],
        "city": "JACKSONVILLE",
        "state": "FL",
        "postalCode": "32209-3023"
      },
      {
        "line": [
          "40 East Adams Street"
        ],
        "city": "JACKSONVILLE",
        "state": "FL",
        "postalCode": "32202-3356"
      },
      {
        "line": [
          "3945 San Jose Park Dr"
        ],
        "city": "JACKSONVILLE",
        "state": "FL",
        "postalCode": "32217-4612"
      },
      {
        "line": [
          "1915 Citrona Dr"
        ],
        "city": "FERNANDINA BEACH",
        "state": "FL",
        "postalCode": "32034-4492"
      },
      {
        "line": [
          "1350 13th Avenue South"
        ],
        "city": "JACKSONVILLE BEACH",
        "state": "FL",
        "postalCode": "32250-3203"
      }
    ],
    "extension": [
      {
        "url": "https://fhir.athena.io/StructureDefinition/ah-practice",
        "valueReference": {
          "reference": "Organization/a-1.Practice-14268"
        }
      },
      {
        "url": "https://fhir.athena.io/StructureDefinition/ah-brand",
        "valueReference": {
          "reference": "Organization/a-14268.Brand-1"
        }
      }
    ]
  },
  "fullUrl": "urn:uuid:1ac2e961-1296-5123-af82-820c1b99269b"
}