{
  "resource": {
    "resourceType": "Organization",
    "id": "f7b6a45a-a842-532a-8477-ceb6987d28b3",
    "name": "sonoran spine center",
    "endpoint": [
      {
        "reference": "Endpoint/27a4e967-47aa-5a9c-a572-b8297ee268a2"
      },
      {
        "reference": "Endpoint/9fc88e93-4d83-53df-a353-c90f1435f547"
      }
    ],
    "identifier": [
      {
        "system": "http://hl7.org/fhir/sid/us-npi",
        "value": "1013975333"
      }
    ],
    "address": [
      {
        "line": [
          "1400 S DOBSON RD"
        ],
        "city": "MESA",
        "state": "AZ",
        "postalCode": "85202-4707"
      },
      {
        "line": [
          "3135 E LINCOLN DR"
        ],
        "city": "PHOENIX",
        "state": "AZ",
        "postalCode": "85016-2317"
      },
      {
        "line": [
          "4727 E UNION HILLS DRIVE"
        ],
        "city": "PHOENIX",
        "state": "AZ",
        "postalCode": "85050-3387"
      },
      {
        "line": [
          "2905 W WARNER RD"
        ],
        "city": "CHANDLER",
        "state": "AZ",
        "postalCode": "85224-1674"
      },
      {
        "line": [
          "6424 E BROADWAY RD, STE 102"
        ],
        "city": "MESA",
        "state": "AZ",
        "postalCode": "85206-1750"
      },
      {
        "line": [
          "1940 E SOUTHERN AVE"
        ],
        "city": "TEMPE",
        "state": "AZ",
        "postalCode": "85282-7518"
      },
      {
        "line": [
          "9201 W THOMAS RD"
        ],
        "city": "PHOENIX",
        "state": "AZ",
        "postalCode": "85037-3332"
      },
      {
        "line": [
          "9250 W THOMAS RD SUITE 200"
        ],
        "city": "PHOENIX",
        "state": "AZ",
        "postalCode": "85037-3382"
      },
      {
        "line": [
          "4727 E Union Hills Dr",
          "Suite 300"
        ],
        "city": "PHOENIX",
        "state": "AZ",
        "postalCode": "85050-3387"
      },
      {
        "line": [
          "9787 N 91ST STREET",
          "STE. 101"
        ],
        "city": "SCOTTSDALE",
        "state": "AZ",
        "postalCode": "85258-5088"
      },
      {
        "line": [
          "9377 E bELL RD",
          "STE 20"
        ],
        "city": "SCOTTSDALE",
        "state": "AZ",
        "postalCode": "85260-1502"
      },
      {
        "line": [
          "1301 S CRISMON RD"
        ],
        "city": "MESA",
        "state": "AZ",
        "postalCode": "85209-3767"
      },
      {
        "line": [
          "2222 E HIGHLAND AVE STE 100"
        ],
        "city": "PHOENIX",
        "state": "AZ",
        "postalCode": "85016-4874"
      },
      {
        "line": [
          "350 W THOMAS RD"
        ],
        "city": "PHOENIX",
        "state": "AZ",
        "postalCode": "85013-4409"
      },
      {
        "line": [
          "9401 W THUNDERBIRD RD",
          "STE. 180"
        ],
        "city": "PEORIA",
        "state": "AZ",
        "postalCode": "85381-4210"
      },
      {
        "line": [
          "2423 W DUNLAP AVE",
          "STE 130"
        ],
        "city": "PHOENIX",
        "state": "AZ",
        "postalCode": "85021-5818"
      },
      {
        "line": [
          "5610 E GRANT ST"
        ],
        "city": "TUCSON",
        "state": "AZ",
        "postalCode": "85712-2239"
      },
      {
        "line": [
          "3555 S VAL VISTA DR"
        ],
        "city": "GILBERT",
        "state": "AZ",
        "postalCode": "85297-7323"
      },
      {
        "line": [
          "4727 E UNION HILLS DRIVE",
          "SUITE 300"
        ],
        "city": "PHOENIX",
        "state": "AZ",
        "postalCode": "85050-3387"
      },
      {
        "line": [
          "1114 S HIGLEY RD"
        ],
        "city": "MESA",
        "state": "AZ",
        "postalCode": "85206-3000"
      },
      {
        "line": [
          "1255 W RIO SALADO PARKWAY",
          "#107"
        ],
        "city": "TEMPE",
        "state": "AZ",
        "postalCode": "85281-2816"
      },
      {
        "line": [
          "2200 E SHOW LOW LAKE RD"
        ],
        "city": "SHOW LOW",
        "state": "AZ",
        "postalCode": "85901-7881"
      },
      {
        "line": [
          "9003 E SHEA BLVD"
        ],
        "city": "SCOTTSDALE",
        "state": "AZ",
        "postalCode": "85260-6709"
      },
      {
        "line": [
          "220 E SHOW LOW LAKE  RD"
        ],
        "city": "SHOW LOW",
        "state": "AZ",
        "postalCode": "85901-7831"
      },
      {
        "line": [
          "4620 E BASELINE RD"
        ],
        "city": "MESA",
        "state": "AZ",
        "postalCode": "85206-4624"
      },
      {
        "line": [
          "7400 E THOMPSON PEAK PKWY"
        ],
        "city": "SCOTTSDALE",
        "state": "AZ",
        "postalCode": "85255-4109"
      },
      {
        "line": [
          "1984 E BASELINE RD"
        ],
        "city": "TEMPE",
        "state": "AZ",
        "postalCode": "85283-1535"
      },
      {
        "line": [
          "17500 N PERIMETER DR"
        ],
        "city": "SCOTTSDALE",
        "state": "AZ",
        "postalCode": "85255-7800"
      },
      {
        "line": [
          "1255 W RIO SALADO PKWY",
          "STE 107"
        ],
        "city": "TEMPE",
        "state": "AZ",
        "postalCode": "85281-2892"
      },
      {
        "line": [
          "2450 E GUADALUPE RD STE 101"
        ],
        "city": "GILBERT",
        "state": "AZ",
        "postalCode": "85234-5116"
      },
      {
        "line": [
          "8962 E DESERT COVE AVE"
        ],
        "city": "SCOTTSDALE",
        "state": "AZ",
        "postalCode": "85260-6984"
      },
      {
        "line": [
          "20401 N 73RD ST STE 155"
        ],
        "city": "SCOTTSDALE",
        "state": "AZ",
        "postalCode": "85255-4149"
      },
      {
        "line": [
          "2222 E HIGHLAND AVE"
        ],
        "city": "PHOENIX",
        "state": "AZ",
        "postalCode": "85016-4872"
      }
    ],
    "extension": [
      {
        "url": "https://fhir.athena.io/StructureDefinition/ah-practice",
        "valueReference": {
          "reference": "Organization/a-1.Practice-15793"
        }
      },
      {
        "url": "https://fhir.athena.io/StructureDefinition/ah-brand",
        "valueReference": {
          "reference": "Organization/a-15793.Brand-2"
        }
      }
    ]
  },
  "fullUrl": "urn:uuid:f7b6a45a-a842-532a-8477-ceb6987d28b3"
}