{
  "resource": {
    "resourceType": "Organization",
    "id": "a3180516-ec18-5654-81f2-2ce02c85e939",
    "name": "MinuteClinic",
    "endpoint": [
      {
        "reference": "Endpoint/27a4e967-47aa-5a9c-a572-b8297ee268a2"
      },
      {
        "reference": "Endpoint/e899d833-3502-5d1a-9ab2-cf00eb284f68"
      }
    ],
    "identifier": [
      {
        "system": "http://hl7.org/fhir/sid/us-npi",
        "value": "1306965611"
      },
      {
        "system": "http://hl7.org/fhir/sid/us-npi",
        "value": "1134191836"
      }
    ],
    "address": [
      {
        "line": [
          "3001 Richard B Russell Parkway"
        ],
        "city": "WARNER ROBINS",
        "state": "GA",
        "postalCode": "31088-8657"
      },
      {
        "line": [
          "4385 Hereford Farm Road"
        ],
        "city": "EVANS",
        "state": "GA",
        "postalCode": "30809-3409"
      },
      {
        "line": [
          "4725 WATERS AVE"
        ],
        "city": "SAVANNAH",
        "state": "GA",
        "postalCode": "31404-6219"
      },
      {
        "line": [
          "4585 Hartley Bridge Road"
        ],
        "city": "MACON",
        "state": "GA",
        "postalCode": "31216-5501"
      },
      {
        "line": [
          "821 ATLANTA STREET"
        ],
        "city": "ROSWELL",
        "state": "GA",
        "postalCode": "30075-4425"
      },
      {
        "line": [
          "800 Highway 96"
        ],
        "city": "WARNER ROBINS",
        "state": "GA",
        "postalCode": "31088-2734"
      },
      {
        "line": [
          "2703 Washington Road"
        ],
        "city": "AUGUSTA",
        "state": "GA",
        "postalCode": "30909-2244"
      },
      {
        "line": [
          "6381 Zebulon Road"
        ],
        "city": "MACON",
        "state": "GA",
        "postalCode": "31220-2601"
      },
      {
        "line": [
          "5401 Abercorn Street"
        ],
        "city": "SAVANNAH",
        "state": "GA",
        "postalCode": "31405-6901"
      },
      {
        "line": [
          "103 JESSE JEWELL PKWY SW"
        ],
        "city": "GAINESVILLE",
        "state": "GA",
        "postalCode": "30501-4321"
      },
      {
        "line": [
          "821 Atlanta St"
        ],
        "city": "ROSWELL",
        "state": "GA",
        "postalCode": "30075-4425"
      },
      {
        "line": [
          "1544 Bass Road"
        ],
        "city": "MACON",
        "state": "GA",
        "postalCode": "31210-7510"
      },
      {
        "line": [
          "869 Horizon South Parkway"
        ],
        "city": "GROVETOWN",
        "state": "GA",
        "postalCode": "30813-3025"
      }
    ],
    "extension": [
      {
        "url": "https://fhir.athena.io/StructureDefinition/ah-practice",
        "valueReference": {
          "reference": "Organization/a-1.Practice-1645"
        }
      },
      {
        "url": "https://fhir.athena.io/StructureDefinition/ah-brand",
        "valueReference": {
          "reference": "Organization/a-1645.Brand-1"
        }
      }
    ]
  },
  "fullUrl": "urn:uuid:a3180516-ec18-5654-81f2-2ce02c85e939"
}