{
  "resource": {
    "resourceType": "Organization",
    "id": "7852e76d-c30b-5183-9dd1-220ce757e151",
    "name": "DAVIS MARGOLIN MILLIGAN",
    "endpoint": [
      {
        "reference": "Endpoint/27a4e967-47aa-5a9c-a572-b8297ee268a2"
      },
      {
        "reference": "Endpoint/5123c79d-a422-5220-b5b9-63d35c20e275"
      }
    ],
    "identifier": [
      {
        "system": "http://hl7.org/fhir/sid/us-npi",
        "value": "1376693200"
      }
    ],
    "address": [
      {
        "line": [
          "505 PARNASSUS AVE"
        ],
        "city": "SAN FRANCISCO",
        "state": "CA",
        "postalCode": "94143-0296"
      },
      {
        "line": [
          "302 SILVER AVE"
        ],
        "city": "SAN FRANCISCO",
        "state": "CA",
        "postalCode": "94112-1510"
      },
      {
        "line": [
          "450 STANYAN ST"
        ],
        "city": "SAN FRANCISCO",
        "state": "CA",
        "postalCode": "94117-1079"
      },
      {
        "line": [
          "1165 MONTGOMERY DR"
        ],
        "city": "SANTA ROSA",
        "state": "CA",
        "postalCode": "95405-4801"
      },
      {
        "line": [
          "1359 PINE ST"
        ],
        "city": "SAN FRANCISCO",
        "state": "CA",
        "postalCode": "94109-4807"
      },
      {
        "line": [
          "PO BOX 8010"
        ],
        "city": "SAN RAFAEL",
        "state": "CA",
        "postalCode": "94912-8010"
      },
      {
        "line": [
          "601 DUBOCE AVE"
        ],
        "city": "SAN FRANCISCO",
        "state": "CA",
        "postalCode": "94117-3389"
      },
      {
        "line": [
          "2121 PINE ST"
        ],
        "city": "SAN FRANCISCO",
        "state": "CA",
        "postalCode": "94115-2829"
      },
      {
        "line": [
          "1501 TROUSDALE DR"
        ],
        "city": "BURLINGAME",
        "state": "CA",
        "postalCode": "94010-4506"
      },
      {
        "line": [
          "1101 VAN NESS AVE"
        ],
        "city": "SAN FRANCISCO",
        "state": "CA",
        "postalCode": "94109-6919"
      }
    ],
    "extension": [
      {
        "url": "https://fhir.athena.io/StructureDefinition/ah-practice",
        "valueReference": {
          "reference": "Organization/a-1.Practice-23254"
        }
      },
      {
        "url": "https://fhir.athena.io/StructureDefinition/ah-brand",
        "valueReference": {
          "reference": "Organization/a-23254.Brand-1"
        }
      }
    ]
  },
  "fullUrl": "urn:uuid:7852e76d-c30b-5183-9dd1-220ce757e151"
}