{
  "resource": {
    "resourceType": "Organization",
    "id": "37cb5bd8-17ff-5a30-a2ef-8ca0972e9cc6",
    "name": "REY FRANCISCO ROSARIO, MD",
    "endpoint": [
      {
        "reference": "Endpoint/27a4e967-47aa-5a9c-a572-b8297ee268a2"
      },
      {
        "reference": "Endpoint/0fabfce3-e151-5428-ab76-dd7c6ecb4502"
      }
    ],
    "identifier": [
      {
        "system": "http://hl7.org/fhir/sid/us-npi",
        "value": "1568876324"
      }
    ],
    "address": [
      {
        "line": [
          "1211 E CLIFF DR"
        ],
        "city": "EL PASO",
        "state": "TX",
        "postalCode": "79902-4734"
      },
      {
        "line": [
          "7933 NORTH MESA",
          "SUITE H"
        ],
        "city": "EL PASO",
        "state": "TX",
        "postalCode": "79932-1699"
      },
      {
        "line": [
          "1416 GEORGE DIETER DRIVE"
        ],
        "city": "EL PASO",
        "state": "TX",
        "postalCode": "79936-7601"
      },
      {
        "line": [
          "3280 JOE BATTLE BLVD"
        ],
        "city": "EL PASO",
        "state": "TX",
        "postalCode": "79938-2622"
      },
      {
        "line": [
          "1801 N. OREGON"
        ],
        "city": "EL PASO",
        "state": "TX",
        "postalCode": "79902-3524"
      },
      {
        "line": [
          "10767 GATEWAY WEST",
          "SUITE 600"
        ],
        "city": "EL PASO",
        "state": "TX",
        "postalCode": "79935-4918"
      },
      {
        "line": [
          "4815 ALAMEDA AVENUE"
        ],
        "city": "EL PASO",
        "state": "TX",
        "postalCode": "79905-2705"
      },
      {
        "line": [
          "12245 ROJAS DRIVE"
        ],
        "city": "EL PASO",
        "state": "TX",
        "postalCode": "79936-7750"
      },
      {
        "line": [
          "1395 GEORGE DIETER DR"
        ],
        "city": "EL PASO",
        "state": "TX",
        "postalCode": "79936-7499"
      },
      {
        "line": [
          "10112 DYER ST"
        ],
        "city": "EL PASO",
        "state": "TX",
        "postalCode": "79924-4246"
      },
      {
        "line": [
          "10420 VISTA DEL SOL",
          "SUITE 201"
        ],
        "city": "EL PASO",
        "state": "TX",
        "postalCode": "79925-7919"
      },
      {
        "line": [
          "1740 CURIE DRIVE"
        ],
        "city": "EL PASO",
        "state": "TX",
        "postalCode": "79902-2901"
      },
      {
        "line": [
          "11989 PELLICANO DRIVE",
          "SUITE A"
        ],
        "city": "EL PASO",
        "state": "TX",
        "postalCode": "79936-6288"
      },
      {
        "line": [
          "300 Waymore Drive"
        ],
        "city": "EL PASO",
        "state": "TX",
        "postalCode": "79902-1604"
      },
      {
        "line": [
          "1625 MEDICAL CENTER DRIVE"
        ],
        "city": "EL PASO",
        "state": "TX",
        "postalCode": "79902-5005"
      },
      {
        "line": [
          "11169 Sean Haggerty Drive"
        ],
        "city": "EL PASO",
        "state": "TX",
        "postalCode": "79934-3385"
      },
      {
        "line": [
          "600 NEWMAN STREET"
        ],
        "city": "EL PASO",
        "state": "TX",
        "postalCode": "79902-5543"
      }
    ],
    "extension": [
      {
        "url": "https://fhir.athena.io/StructureDefinition/ah-practice",
        "valueReference": {
          "reference": "Organization/a-1.Practice-9239"
        }
      },
      {
        "url": "https://fhir.athena.io/StructureDefinition/ah-brand",
        "valueReference": {
          "reference": "Organization/a-9239.Brand-1"
        }
      }
    ]
  },
  "fullUrl": "urn:uuid:37cb5bd8-17ff-5a30-a2ef-8ca0972e9cc6"
}