{
  "resource": {
    "resourceType": "Organization",
    "id": "fa3a390b-a066-52cc-8047-9aff56146e89",
    "name": "MasonDixon Mobile Medicine",
    "endpoint": [
      {
        "reference": "Endpoint/27a4e967-47aa-5a9c-a572-b8297ee268a2"
      },
      {
        "reference": "Endpoint/83a66e34-f9e2-5055-a151-8910e5ce0374"
      }
    ],
    "identifier": [
      {
        "system": "http://hl7.org/fhir/sid/us-npi",
        "value": "1073142147"
      }
    ],
    "address": [
      {
        "line": [
          "2550 BIRD VIEW RD"
        ],
        "city": "WESTMINSTER",
        "state": "MD",
        "postalCode": "21157-8395"
      },
      {
        "line": [
          "723 N MARKET ST"
        ],
        "city": "FREDERICK",
        "state": "MD",
        "postalCode": "21701-5232"
      },
      {
        "line": [
          "28928 RIDGE RD"
        ],
        "city": "MOUNT AIRY",
        "state": "MD",
        "postalCode": "21771-4433"
      },
      {
        "line": [
          "8401 Gas House Pike"
        ],
        "city": "FREDERICK",
        "state": "MD",
        "postalCode": "21701-0001"
      },
      {
        "line": [
          "3816 RIDGE RD"
        ],
        "city": "WESTMINSTER",
        "state": "MD",
        "postalCode": "21157-7751"
      },
      {
        "line": [
          "990 WATERFORD DR"
        ],
        "city": "FREDERICK",
        "state": "MD",
        "postalCode": "21702-4414"
      },
      {
        "line": [
          "2455 BALTIMORE BLVD"
        ],
        "city": "FINKSBURG",
        "state": "MD",
        "postalCode": "21048-1727"
      },
      {
        "line": [
          "510 CARROLL WALK AVE"
        ],
        "city": "FREDERICK",
        "state": "MD",
        "postalCode": "21701-6943"
      },
      {
        "line": [
          "20009 ROSEBANK WAY"
        ],
        "city": "HAGERSTOWN",
        "state": "MD",
        "postalCode": "21742-6739"
      },
      {
        "line": [
          "110 THOMAS JOHNSON DR"
        ],
        "city": "FREDERICK",
        "state": "MD",
        "postalCode": "21702-4400"
      },
      {
        "line": [
          "6601 ENGLISH MUFFIN WAY"
        ],
        "city": "FREDERICK",
        "state": "MD",
        "postalCode": "21703-7368"
      },
      {
        "line": [
          "7819 ROCKY SPRINGS RD"
        ],
        "city": "FREDERICK",
        "state": "MD",
        "postalCode": "21702-2824"
      },
      {
        "line": [
          "2261 OLD WESTMINSTER PIKE"
        ],
        "city": "FINKSBURG",
        "state": "MD",
        "postalCode": "21048-1635"
      },
      {
        "line": [
          "2810 KAYWOOD PL"
        ],
        "city": "SYKESVILLE",
        "state": "MD",
        "postalCode": "21784-6903"
      },
      {
        "line": [
          "5800 GENESIS LN"
        ],
        "city": "FREDERICK",
        "state": "MD",
        "postalCode": "21703-5116"
      },
      {
        "line": [
          "2839 COUNTRY LN"
        ],
        "city": "ELLICOTT CITY",
        "state": "MD",
        "postalCode": "21042-2566"
      },
      {
        "line": [
          "212 MAPLE AVE"
        ],
        "city": "BOONSBORO",
        "state": "MD",
        "postalCode": "21713-1117"
      },
      {
        "line": [
          "45 WASHINGTON RD"
        ],
        "city": "WESTMINSTER",
        "state": "MD",
        "postalCode": "21157-5640"
      },
      {
        "line": [
          "505 HIGH ACRE DR"
        ],
        "city": "WESTMINSTER",
        "state": "MD",
        "postalCode": "21157-6569"
      },
      {
        "line": [
          "1305 UNIONTOWN RD"
        ],
        "city": "WESTMINSTER",
        "state": "MD",
        "postalCode": "21158-3735"
      },
      {
        "line": [
          "228 THAMES DR"
        ],
        "city": "FREDERICK",
        "state": "MD",
        "postalCode": "21702-1151"
      },
      {
        "line": [
          "5955 QUINN ORCHARD RD"
        ],
        "city": "FREDERICK",
        "state": "MD",
        "postalCode": "21704-6656"
      },
      {
        "line": [
          "1395 ROCKY SPRINGS RD"
        ],
        "city": "FREDERICK",
        "state": "MD",
        "postalCode": "21702-8230"
      },
      {
        "line": [
          "285 N WASHINGTON ST"
        ],
        "city": "ROCKVILLE",
        "state": "MD",
        "postalCode": "20850-1763"
      },
      {
        "line": [
          "310 CAMEO DR"
        ],
        "city": "HAGERSTOWN",
        "state": "MD",
        "postalCode": "21740-5854"
      },
      {
        "line": [
          "5819 BUTTERFLY LN"
        ],
        "city": "FREDERICK",
        "state": "MD",
        "postalCode": "21703-5907"
      },
      {
        "line": [
          "4115 RIDGE RD"
        ],
        "city": "WESTMINSTER",
        "state": "MD",
        "postalCode": "21157-7846"
      }
    ],
    "extension": [
      {
        "url": "https://fhir.athena.io/StructureDefinition/ah-practice",
        "valueReference": {
          "reference": "Organization/a-1.Practice-22795"
        }
      },
      {
        "url": "https://fhir.athena.io/StructureDefinition/ah-brand",
        "valueReference": {
          "reference": "Organization/a-22795.Brand-1"
        }
      }
    ]
  },
  "fullUrl": "urn:uuid:fa3a390b-a066-52cc-8047-9aff56146e89"
}