{
  "resource": {
    "resourceType": "Organization",
    "id": "9d180da3-f41e-5bb3-bf0e-8c78a9556400",
    "name": "Florida Kidney Physicians",
    "endpoint": [
      {
        "reference": "Endpoint/27a4e967-47aa-5a9c-a572-b8297ee268a2"
      },
      {
        "reference": "Endpoint/f4c36bbf-bb88-5ecd-acb7-ad97c0e18c51"
      }
    ],
    "identifier": [
      {
        "system": "http://hl7.org/fhir/sid/us-npi",
        "value": "1760831564"
      }
    ],
    "address": [
      {
        "line": [
          "600 SW 3rd St.",
          "Suite 1100"
        ],
        "city": "POMPANO BEACH",
        "state": "FL",
        "postalCode": "33060-3700"
      },
      {
        "line": [
          "14131 Metropolis Ave",
          "STE 103"
        ],
        "city": "FORT MYERS",
        "state": "FL",
        "postalCode": "33912-4455"
      },
      {
        "line": [
          "8745 North Wickham Road"
        ],
        "city": "MELBOURNE",
        "state": "FL",
        "postalCode": "32940-5997"
      },
      {
        "line": [
          "1871 N Pine Island Road"
        ],
        "city": "FORT LAUDERDALE",
        "state": "FL",
        "postalCode": "33322-0001"
      },
      {
        "line": [
          "3140 S Falkenburg Rd",
          "Suite 101"
        ],
        "city": "RIVERVIEW",
        "state": "FL",
        "postalCode": "33578-2594"
      },
      {
        "line": [
          "2501 Dykes Road, (160th Ave)",
          "Suite 200"
        ],
        "city": "HOLLYWOOD",
        "state": "FL",
        "postalCode": "33027-0800"
      },
      {
        "line": [
          "709 SW PORT ST LUCIE BLVD"
        ],
        "city": "PORT SAINT LUCIE",
        "state": "FL",
        "postalCode": "34953-2615"
      },
      {
        "line": [
          "2301 N University Drive"
        ],
        "city": "HOLLYWOOD",
        "state": "FL",
        "postalCode": "33024-3617"
      },
      {
        "line": [
          "4300 Alton Road"
        ],
        "city": "MIAMI BEACH",
        "state": "FL",
        "postalCode": "33143-3140"
      },
      {
        "line": [
          "5901 NW 79TH AVE"
        ],
        "city": "TAMARAC",
        "state": "FL",
        "postalCode": "33321-4639"
      },
      {
        "line": [
          "5700 HONORE AVE"
        ],
        "city": "SARASOTA",
        "state": "FL",
        "postalCode": "34233-3249"
      },
      {
        "line": [
          "2815 S. Seacrest Blvd"
        ],
        "city": "BOYNTON BEACH",
        "state": "FL",
        "postalCode": "33435-7934"
      },
      {
        "line": [
          "1355 Palm Bay Rd"
        ],
        "city": "PALM BAY",
        "state": "FL",
        "postalCode": "32905-3838"
      },
      {
        "line": [
          "850 Riverside Dr."
        ],
        "city": "POMPANO BEACH",
        "state": "FL",
        "postalCode": "33071-7010"
      },
      {
        "line": [
          "2655 Hollywood Blvd"
        ],
        "city": "HOLLYWOOD",
        "state": "FL",
        "postalCode": "33020-1000"
      },
      {
        "line": [
          "1861 Placida Road",
          "#203"
        ],
        "city": "ENGLEWOOD",
        "state": "FL",
        "postalCode": "34223-4949"
      },
      {
        "line": [
          "11570 W State Road 84"
        ],
        "city": "FORT LAUDERDALE",
        "state": "FL",
        "postalCode": "33325-4434"
      },
      {
        "line": [
          "3599 University Blvd S"
        ],
        "city": "JACKSONVILLE",
        "state": "FL",
        "postalCode": "32216-4252"
      },
      {
        "line": [
          "450 Malabar Road SE Suite 102"
        ],
        "city": "PALM BAY",
        "state": "FL",
        "postalCode": "32907-3111"
      },
      {
        "line": [
          "5503 South Congress",
          "Suite 205"
        ],
        "city": "LAKE WORTH",
        "state": "FL",
        "postalCode": "33462-6614"
      },
      {
        "line": [
          "2655 WEST ATLANTIC AVE"
        ],
        "city": "DELRAY BEACH",
        "state": "FL",
        "postalCode": "33445-4400"
      },
      {
        "line": [
          "3370 NW 47th Terrace"
        ],
        "city": "FORT LAUDERDALE",
        "state": "FL",
        "postalCode": "33319-6701"
      },
      {
        "line": [
          "3501 JOHNSON ST"
        ],
        "city": "HOLLYWOOD",
        "state": "FL",
        "postalCode": "33021-5421"
      },
      {
        "line": [
          "2841 Pga Blvd"
        ],
        "city": "PALM BEACH GARDENS",
        "state": "FL",
        "postalCode": "33410-2910"
      },
      {
        "line": [
          "7950 SW 30 Street"
        ],
        "city": "FORT LAUDERDALE",
        "state": "FL",
        "postalCode": "33328-4056"
      },
      {
        "line": [
          "1315 SE 8th Terrace"
        ],
        "city": "CAPE CORAL",
        "state": "FL",
        "postalCode": "33990-3213"
      },
      {
        "line": [
          "355 Dupont Street"
        ],
        "city": "PUNTA GORDA",
        "state": "FL",
        "postalCode": "33950-3809"
      },
      {
        "line": [
          "1 Shircliff Way"
        ],
        "city": "JACKSONVILLE",
        "state": "FL",
        "postalCode": "32204-4748"
      },
      {
        "line": [
          "2900 N Military Trail",
          "# 195"
        ],
        "city": "BOCA RATON",
        "state": "FL",
        "postalCode": "33431-0700"
      },
      {
        "line": [
          "350 NW 84TH AVE",
          "STE 200"
        ],
        "city": "FORT LAUDERDALE",
        "state": "FL",
        "postalCode": "33324-1847"
      },
      {
        "line": [
          "1715 Kings Avenue"
        ],
        "city": "JACKSONVILLE",
        "state": "FL",
        "postalCode": "32207-8636"
      },
      {
        "line": [
          "13001 Southern Blvd"
        ],
        "city": "LOXAHATCHEE",
        "state": "FL",
        "postalCode": "33470-9203"
      },
      {
        "line": [
          "14942 Tamiami Trail",
          "Suite E"
        ],
        "city": "NORTH PORT",
        "state": "FL",
        "postalCode": "34287-1448"
      },
      {
        "line": [
          "1500 N Federal Hwy",
          "#100"
        ],
        "city": "FORT LAUDERDALE",
        "state": "FL",
        "postalCode": "33304-0001"
      },
      {
        "line": [
          "1221 S. State Rd",
          "Suite 101"
        ],
        "city": "WELLINGTON",
        "state": "FL",
        "postalCode": "33414-6212"
      },
      {
        "line": [
          "7061 Cypress Rd",
          "#103"
        ],
        "city": "FORT LAUDERDALE",
        "state": "FL",
        "postalCode": "33317-0001"
      },
      {
        "line": [
          "9143 Philips Highway Suite 110"
        ],
        "city": "JACKSONVILLE",
        "state": "FL",
        "postalCode": "32256-1365"
      },
      {
        "line": [
          "5503 South Congress",
          "Suite 103"
        ],
        "city": "LAKE WORTH",
        "state": "FL",
        "postalCode": "33462-6614"
      },
      {
        "line": [
          "1807 US Highway 1"
        ],
        "city": "SEBASTIAN",
        "state": "FL",
        "postalCode": "32958-1616"
      },
      {
        "line": [
          "11750 SW 40TH ST"
        ],
        "city": "MIAMI",
        "state": "FL",
        "postalCode": "33175-3530"
      },
      {
        "line": [
          "3925 W Boynton Beach Blvd"
        ],
        "city": "BOYNTON BEACH",
        "state": "FL",
        "postalCode": "33436-1700"
      },
      {
        "line": [
          "3202 N PARK RD"
        ],
        "city": "PLANT CITY",
        "state": "FL",
        "postalCode": "33563-2026"
      },
      {
        "line": [
          "1784 BLANDING BLVD"
        ],
        "city": "MIDDLEBURG",
        "state": "FL",
        "postalCode": "32068-3807"
      },
      {
        "line": [
          "1330 S. Andrews Ave"
        ],
        "city": "FORT LAUDERDALE",
        "state": "FL",
        "postalCode": "33316-1838"
      },
      {
        "line": [
          "2870 Bund Avenue"
        ],
        "city": "NEW PORT RICHEY",
        "state": "FL",
        "postalCode": "34655-1849"
      },
      {
        "line": [
          "12480 S. Tamiami Trail"
        ],
        "city": "NORTH PORT",
        "state": "FL",
        "postalCode": "34287-1448"
      },
      {
        "line": [
          "250 North Wickham Road"
        ],
        "city": "MELBOURNE",
        "state": "FL",
        "postalCode": "32935-8625"
      },
      {
        "line": [
          "18669 Tamiami Trail Suite A"
        ],
        "city": "NORTH PORT",
        "state": "FL",
        "postalCode": "34287-7291"
      },
      {
        "line": [
          "1107 Myra Street"
        ],
        "city": "JACKSONVILLE",
        "state": "FL",
        "postalCode": "32204-3321"
      },
      {
        "line": [
          "3850 Hollywood Blvd",
          "Suite 202"
        ],
        "city": "HOLLYWOOD",
        "state": "FL",
        "postalCode": "33021-6748"
      },
      {
        "line": [
          "2655 West Atlantic Ave"
        ],
        "city": "DELRAY BEACH",
        "state": "FL",
        "postalCode": "33445-1200"
      },
      {
        "line": [
          "998 NW 9th Court"
        ],
        "city": "BOCA RATON",
        "state": "FL",
        "postalCode": "33486-1000"
      },
      {
        "line": [
          "326 E Dania Beach Blvd"
        ],
        "city": "DANIA",
        "state": "FL",
        "postalCode": "33004-1400"
      },
      {
        "line": [
          "3487 NW 30th Street"
        ],
        "city": "FORT LAUDERDALE",
        "state": "FL",
        "postalCode": "33311-5202"
      },
      {
        "line": [
          "3107 Edgewood Avenue West"
        ],
        "city": "JACKSONVILLE",
        "state": "FL",
        "postalCode": "32209-2209"
      },
      {
        "line": [
          "8021 Philips Highway",
          "STE 15"
        ],
        "city": "JACKSONVILLE",
        "state": "FL",
        "postalCode": "32256-4452"
      },
      {
        "line": [
          "2149 East Warner Road",
          "Suite 101"
        ],
        "city": "TEMPE",
        "state": "AZ",
        "postalCode": "85284-3495"
      },
      {
        "line": [
          "4970 SW 52 Street, #325"
        ],
        "city": "FORT LAUDERDALE",
        "state": "FL",
        "postalCode": "33314-1103"
      },
      {
        "line": [
          "3001 W DR MARTIN LUTHER KING JR BLVD"
        ],
        "city": "TAMPA",
        "state": "FL",
        "postalCode": "33607-6307"
      },
      {
        "line": [
          "2500 SW 75TH AVE"
        ],
        "city": "MIAMI",
        "state": "FL",
        "postalCode": "33155-2805"
      },
      {
        "line": [
          "4401 HOLLYWOOD BLVD"
        ],
        "city": "HOLLYWOOD",
        "state": "FL",
        "postalCode": "33021-6609"
      },
      {
        "line": [
          "6150 Edgelake Drive"
        ],
        "city": "SARASOTA",
        "state": "FL",
        "postalCode": "34240-8803"
      },
      {
        "line": [
          "3500 NW 7TH ST"
        ],
        "city": "MIAMI",
        "state": "FL",
        "postalCode": "33125-4016"
      },
      {
        "line": [
          "2916 N State Road 7"
        ],
        "city": "FORT LAUDERDALE",
        "state": "FL",
        "postalCode": "33313-1317"
      },
      {
        "line": [
          "5340 Useppa Dr"
        ],
        "city": "Ave Maria",
        "state": "FL",
        "postalCode": "34142-5051"
      },
      {
        "line": [
          "1700 S Tamiami Trail"
        ],
        "city": "SARASOTA",
        "state": "FL",
        "postalCode": "34239-3509"
      },
      {
        "line": [
          "2685 Executive Park Drive",
          "Suite 1"
        ],
        "city": "FORT LAUDERDALE",
        "state": "FL",
        "postalCode": "33331-1544"
      },
      {
        "line": [
          "1000 36th St"
        ],
        "city": "VERO BEACH",
        "state": "FL",
        "postalCode": "32960-4862"
      },
      {
        "line": [
          "450 Malabar Road SE Unit 101"
        ],
        "city": "PALM BAY",
        "state": "FL",
        "postalCode": "32907-3111"
      },
      {
        "line": [
          "6401 N Federal Hwy"
        ],
        "city": "FORT LAUDERDALE",
        "state": "FL",
        "postalCode": "33308-3025"
      },
      {
        "line": [
          "4201 Belfort Road"
        ],
        "city": "JACKSONVILLE",
        "state": "FL",
        "postalCode": "32216-1431"
      },
      {
        "line": [
          "5301 S. Congress Ave"
        ],
        "city": "LAKE WORTH",
        "state": "FL",
        "postalCode": "33462-1149"
      },
      {
        "line": [
          "2776 CLEVELAND AVE"
        ],
        "city": "FORT MYERS",
        "state": "FL",
        "postalCode": "33901-5864"
      },
      {
        "line": [
          "8201 W Broward Blvd"
        ],
        "city": "FORT LAUDERDALE",
        "state": "FL",
        "postalCode": "33324-1362"
      },
      {
        "line": [
          "401 NW 42 Avenue"
        ],
        "city": "FORT LAUDERDALE",
        "state": "FL",
        "postalCode": "33317-2835"
      },
      {
        "line": [
          "6914 Sheldon Rd",
          "STE 102"
        ],
        "city": "TAMPA",
        "state": "FL",
        "postalCode": "33615-2701"
      },
      {
        "line": [
          "449 W 23RD ST"
        ],
        "city": "PANAMA CITY",
        "state": "FL",
        "postalCode": "32405-4507"
      },
      {
        "line": [
          "1701 NE 26TH ST"
        ],
        "city": "FORT LAUDERDALE",
        "state": "FL",
        "postalCode": "33305-1412"
      },
      {
        "line": [
          "5352 Linton Blvd."
        ],
        "city": "DELRAY BEACH",
        "state": "FL",
        "postalCode": "33484-1759"
      },
      {
        "line": [
          "2700 Hollywood Blvd"
        ],
        "city": "HOLLYWOOD",
        "state": "FL",
        "postalCode": "33020-1000"
      },
      {
        "line": [
          "849 N Nob Hill Road"
        ],
        "city": "Plantation",
        "state": "FL",
        "postalCode": "33324-1362"
      },
      {
        "line": [
          "7525 North State Road 7"
        ],
        "city": "POMPANO BEACH",
        "state": "FL",
        "postalCode": "33073-3664"
      },
      {
        "line": [
          "3901 University Boulevard South Suite 111"
        ],
        "city": "JACKSONVILLE",
        "state": "FL",
        "postalCode": "32216-4374"
      },
      {
        "line": [
          "4175 W New Haven Ave Ste 15"
        ],
        "city": "MELBOURNE",
        "state": "FL",
        "postalCode": "32904-1997"
      },
      {
        "line": [
          "11011 Sheridan St",
          "STE 308"
        ],
        "city": "HOLLYWOOD",
        "state": "FL",
        "postalCode": "33026-0500"
      },
      {
        "line": [
          "220 SW NATURA AVE"
        ],
        "city": "DEERFIELD BEACH",
        "state": "FL",
        "postalCode": "33441-3026"
      },
      {
        "line": [
          "2815 S Seacrest Blvd"
        ],
        "city": "BOYNTON BEACH",
        "state": "FL",
        "postalCode": "33435-7969"
      },
      {
        "line": [
          "1100 N.W. 95th Street"
        ],
        "city": "MIAMI",
        "state": "FL",
        "postalCode": "33150-2038"
      },
      {
        "line": [
          "2061 Professional Center Drive"
        ],
        "city": "ORANGE PARK",
        "state": "FL",
        "postalCode": "32073-4461"
      },
      {
        "line": [
          "404 E 24TH ST"
        ],
        "city": "LYNN HAVEN",
        "state": "FL",
        "postalCode": "32444-4881"
      },
      {
        "line": [
          "3600 Washington Street"
        ],
        "city": "HOLLYWOOD",
        "state": "FL",
        "postalCode": "33021-5421"
      },
      {
        "line": [
          "14550 Old St Augustine Road"
        ],
        "city": "JACKSONVILLE",
        "state": "FL",
        "postalCode": "32258-2460"
      },
      {
        "line": [
          "1117 ARLINGTON AVE N"
        ],
        "city": "SAINT PETERSBURG",
        "state": "FL",
        "postalCode": "33705-1521"
      },
      {
        "line": [
          "440 W 49TH ST"
        ],
        "city": "HIALEAH",
        "state": "FL",
        "postalCode": "33012-3603"
      },
      {
        "line": [
          "220 Medplex Parkway Northeast"
        ],
        "city": "PALM BAY",
        "state": "FL",
        "postalCode": "32907-2560"
      },
      {
        "line": [
          "3925 W. BOYNTON BEACH BLVD.",
          "SUITE 107"
        ],
        "city": "BOYNTON BEACH",
        "state": "FL",
        "postalCode": "33436-4500"
      },
      {
        "line": [
          "8041 Spyglass Hill Road Suite 101"
        ],
        "city": "MELBOURNE",
        "state": "FL",
        "postalCode": "32940-8559"
      },
      {
        "line": [
          "2814 Lee Blvd. Ste 16"
        ],
        "city": "LEHIGH ACRES",
        "state": "FL",
        "postalCode": "33971-1561"
      },
      {
        "line": [
          "7769 Johnson Street"
        ],
        "city": "HOLLYWOOD",
        "state": "FL",
        "postalCode": "33024-1191"
      },
      {
        "line": [
          "10101 Forest Hill Blvd"
        ],
        "city": "WELLINGTON",
        "state": "FL",
        "postalCode": "33414-6103"
      },
      {
        "line": [
          "6264 N FEDERAL HWY"
        ],
        "city": "FORT LAUDERDALE",
        "state": "FL",
        "postalCode": "33308-1904"
      },
      {
        "line": [
          "504 N MACARTHUR AVE"
        ],
        "city": "PANAMA CITY",
        "state": "FL",
        "postalCode": "32401-3636"
      },
      {
        "line": [
          "1680 Osceola Elementary Road Suite B"
        ],
        "city": "SAINT AUGUSTINE",
        "state": "FL",
        "postalCode": "32084-5942"
      },
      {
        "line": [
          "850 Riverside Drive"
        ],
        "city": "Coral Springs",
        "state": "FL",
        "postalCode": "33071-7008"
      },
      {
        "line": [
          "9655 West Boynton Beach Blvd"
        ],
        "city": "BOYNTON BEACH",
        "state": "FL",
        "postalCode": "33472-4421"
      },
      {
        "line": [
          "2930 OPTIMIST DR"
        ],
        "city": "MARIANNA",
        "state": "FL",
        "postalCode": "32448-7703"
      },
      {
        "line": [
          "9060 KIMBERLY BLVD STE 32"
        ],
        "city": "BOCA RATON",
        "state": "FL",
        "postalCode": "33434-2842"
      },
      {
        "line": [
          "2301 W Oakland Park Blvd"
        ],
        "city": "FORT LAUDERDALE",
        "state": "FL",
        "postalCode": "33311-1421"
      },
      {
        "line": [
          "1130 NW 15TH ST"
        ],
        "city": "BOCA RATON",
        "state": "FL",
        "postalCode": "33486-1333"
      },
      {
        "line": [
          "160 NW 170th St"
        ],
        "city": "North Miami Beach",
        "state": "FL",
        "postalCode": "33169-3316"
      },
      {
        "line": [
          "2675 N Andrews Ave"
        ],
        "city": "FORT LAUDERDALE",
        "state": "FL",
        "postalCode": "33311-5202"
      },
      {
        "line": [
          "13782 Plantation Rd",
          "Unit 104"
        ],
        "city": "FORT MYERS",
        "state": "FL",
        "postalCode": "33912-4462"
      },
      {
        "line": [
          "4539 CHIQUITA BLVD S"
        ],
        "city": "CAPE CORAL",
        "state": "FL",
        "postalCode": "33914-6352"
      },
      {
        "line": [
          "9330 US HIGHWAY 301 S"
        ],
        "city": "RIVERVIEW",
        "state": "FL",
        "postalCode": "33578-6300"
      },
      {
        "line": [
          "19056 N.E. 29th Avenue"
        ],
        "city": "Aventura",
        "state": "FL",
        "postalCode": "33180-2802"
      },
      {
        "line": [
          "2901 West Swann Avenue"
        ],
        "city": "TAMPA",
        "state": "FL",
        "postalCode": "33609-4056"
      },
      {
        "line": [
          "700 Medical Blvd"
        ],
        "city": "ENGLEWOOD",
        "state": "FL",
        "postalCode": "34223-3964"
      },
      {
        "line": [
          "946 CYPRESS VILLAGE BLVD STE A"
        ],
        "city": "Ruskin",
        "state": "FL",
        "postalCode": "33573-6839"
      },
      {
        "line": [
          "15600 NW 15th Ave",
          "STE D"
        ],
        "city": "MIAMI",
        "state": "FL",
        "postalCode": "33169-5609"
      },
      {
        "line": [
          "21644 State Road 7"
        ],
        "city": "BOCA RATON",
        "state": "FL",
        "postalCode": "33428-1807"
      },
      {
        "line": [
          "6400 BROOKS BARTRAM DR"
        ],
        "city": "JACKSONVILLE",
        "state": "FL",
        "postalCode": "32258-5600"
      },
      {
        "line": [
          "2600 Laurel Road East"
        ],
        "city": "NOKOMIS",
        "state": "FL",
        "postalCode": "34275-3226"
      },
      {
        "line": [
          "22 SW 11th Street",
          "2nd Floor"
        ],
        "city": "HALLANDALE",
        "state": "FL",
        "postalCode": "33009-0001"
      },
      {
        "line": [
          "1424 US Hwy 1 , Ste C"
        ],
        "city": "SEBASTIAN",
        "state": "FL",
        "postalCode": "32958-1619"
      },
      {
        "line": [
          "2989 FRUITVILLE RD"
        ],
        "city": "SARASOTA",
        "state": "FL",
        "postalCode": "34237-5302"
      },
      {
        "line": [
          "19559 NE 10 AVENUE"
        ],
        "city": "MIAMI",
        "state": "FL",
        "postalCode": "33179-3501"
      },
      {
        "line": [
          "12662 Telecom Drive"
        ],
        "city": "Temple Terrace",
        "state": "FL",
        "postalCode": "33637-0935"
      },
      {
        "line": [
          "8057 NW 155TH ST"
        ],
        "city": "HIALEAH",
        "state": "FL",
        "postalCode": "33016-5874"
      },
      {
        "line": [
          "3925 W BOYNTON BEACH BLVD"
        ],
        "city": "BOYNTON BEACH",
        "state": "FL",
        "postalCode": "33436-4500"
      },
      {
        "line": [
          "3700 Washington Street",
          "Suite 401"
        ],
        "city": "HOLLYWOOD",
        "state": "FL",
        "postalCode": "33021-8249"
      },
      {
        "line": [
          "407 SE 9th Street",
          "Suite 103"
        ],
        "city": "FORT LAUDERDALE",
        "state": "FL",
        "postalCode": "33316-1113"
      },
      {
        "line": [
          "5276 BLANDING BLVD STE 26"
        ],
        "city": "JACKSONVILLE",
        "state": "FL",
        "postalCode": "32210-8176"
      },
      {
        "line": [
          "1120 INDIAN HILLS BLVD"
        ],
        "city": "VENICE",
        "state": "FL",
        "postalCode": "34293-2000"
      },
      {
        "line": [
          "3100 S DOUGLAS RD"
        ],
        "city": "MIAMI",
        "state": "FL",
        "postalCode": "33134-6914"
      },
      {
        "line": [
          "100 NW 170th Street",
          "#106"
        ],
        "city": "North Miami Beach",
        "state": "FL",
        "postalCode": "33169-5510"
      },
      {
        "line": [
          "9134 Bonita Beach Rd SE"
        ],
        "city": "BONITA SPRINGS",
        "state": "FL",
        "postalCode": "34135-4281"
      },
      {
        "line": [
          "2585 HERSCHEL ST"
        ],
        "city": "JACKSONVILLE",
        "state": "FL",
        "postalCode": "32204-4557"
      },
      {
        "line": [
          "4000 Hollywood Blvd",
          "Suite 175S"
        ],
        "city": "HOLLYWOOD",
        "state": "FL",
        "postalCode": "33021-6775"
      },
      {
        "line": [
          "12961 North Main Street Suite 305"
        ],
        "city": "JACKSONVILLE",
        "state": "FL",
        "postalCode": "32218-2772"
      },
      {
        "line": [
          "3663 S MIAMI AVE"
        ],
        "city": "MIAMI",
        "state": "FL",
        "postalCode": "33133-4253"
      },
      {
        "line": [
          "3501 Johnson Street"
        ],
        "city": "HOLLYWOOD",
        "state": "FL",
        "postalCode": "33021-6015"
      },
      {
        "line": [
          "4984 N University Dr"
        ],
        "city": "FORT LAUDERDALE",
        "state": "FL",
        "postalCode": "33351-5748"
      },
      {
        "line": [
          "12662 TELECOM DR"
        ],
        "city": "TEMPLE TERRACE",
        "state": "FL",
        "postalCode": "33637-0935"
      },
      {
        "line": [
          "5360 Linton Blvd"
        ],
        "city": "BOYNTON BEACH",
        "state": "FL",
        "postalCode": "33435-7934"
      },
      {
        "line": [
          "3048 4TH ST"
        ],
        "city": "MARIANNA",
        "state": "FL",
        "postalCode": "32446-2129"
      },
      {
        "line": [
          "5000 W Oakland Park Blvd"
        ],
        "city": "FORT LAUDERDALE",
        "state": "FL",
        "postalCode": "33313-1503"
      },
      {
        "line": [
          "21353 NW 2ND AVE"
        ],
        "city": "MIAMI GARDENS",
        "state": "FL",
        "postalCode": "33169-2112"
      },
      {
        "line": [
          "5730 Bowden Road"
        ],
        "city": "JACKSONVILLE",
        "state": "FL",
        "postalCode": "32216-6104"
      },
      {
        "line": [
          "765 West Nasa Boulevard"
        ],
        "city": "MELBOURNE",
        "state": "FL",
        "postalCode": "32901-1815"
      },
      {
        "line": [
          "515 E Bella Vista St"
        ],
        "city": "LAKELAND",
        "state": "FL",
        "postalCode": "33805-3005"
      },
      {
        "line": [
          "3909 GALEN CT STE 102"
        ],
        "city": "SUN CITY CENTER",
        "state": "FL",
        "postalCode": "33573-6824"
      },
      {
        "line": [
          "12145 Pembroke Road"
        ],
        "city": "HOLLYWOOD",
        "state": "FL",
        "postalCode": "33025-0700"
      },
      {
        "line": [
          "2501 SW 160 Avenue"
        ],
        "city": "HOLLYWOOD",
        "state": "FL",
        "postalCode": "33027-0800"
      },
      {
        "line": [
          "3180 S UNIVERSITY DR"
        ],
        "city": "MIRAMAR",
        "state": "FL",
        "postalCode": "33025-3005"
      },
      {
        "line": [
          "13421 Bartram Park Blvd"
        ],
        "city": "JACKSONVILLE",
        "state": "FL",
        "postalCode": "32258-5211"
      },
      {
        "line": [
          "800 Meadows Road"
        ],
        "city": "BOCA RATON",
        "state": "FL",
        "postalCode": "33486-1039"
      },
      {
        "line": [
          "877 3RD ST",
          "SUITE 2"
        ],
        "city": "CHIPLEY",
        "state": "FL",
        "postalCode": "32428-1827"
      },
      {
        "line": [
          "16855 NE Second Avenue",
          "Suite 205"
        ],
        "city": "MIAMI",
        "state": "FL",
        "postalCode": "33162-1744"
      },
      {
        "line": [
          "9655 W. Boynton Beach Blvd."
        ],
        "city": "BOYNTON BEACH",
        "state": "FL",
        "postalCode": "33435-4421"
      },
      {
        "line": [
          "5441 N University Dr."
        ],
        "city": "CORAL SPRINGS",
        "state": "FL",
        "postalCode": "33067-4640"
      },
      {
        "line": [
          "16501 N.W. 2nd Avenue"
        ],
        "city": "MIAMI",
        "state": "FL",
        "postalCode": "33169-6005"
      },
      {
        "line": [
          "3060 Melaleuca Lane"
        ],
        "city": "LAKE WORTH",
        "state": "FL",
        "postalCode": "33461-1854"
      },
      {
        "line": [
          "5190 SW 8TH ST"
        ],
        "city": "Coral Gables",
        "state": "FL",
        "postalCode": "33134-2476"
      },
      {
        "line": [
          "1550 LAKELAND HILLS BLVD"
        ],
        "city": "LAKELAND",
        "state": "FL",
        "postalCode": "33805-3204"
      },
      {
        "line": [
          "244 N 3RD ST"
        ],
        "city": "MACCLENNY",
        "state": "FL",
        "postalCode": "32063-2106"
      },
      {
        "line": [
          "12662 TELECOM DR"
        ],
        "city": "TAMPA",
        "state": "FL",
        "postalCode": "33637-0935"
      },
      {
        "line": [
          "27806 Summergate Blvd"
        ],
        "city": "WESLEY CHAPEL",
        "state": "FL",
        "postalCode": "33544-6919"
      },
      {
        "line": [
          "40 MEDICAL CENTER AVE"
        ],
        "city": "SEBRING",
        "state": "FL",
        "postalCode": "33870-5420"
      },
      {
        "line": [
          "16151 Slater Rd"
        ],
        "city": "NORTH FORT MYERS",
        "state": "FL",
        "postalCode": "33917-6502"
      },
      {
        "line": [
          "1905 Clint Moore Road",
          "Suite 211"
        ],
        "city": "BOCA RATON",
        "state": "FL",
        "postalCode": "33496-2658"
      },
      {
        "line": [
          "6200 SW 73RD ST"
        ],
        "city": "MIAMI",
        "state": "FL",
        "postalCode": "33143-4679"
      },
      {
        "line": [
          "2150 45th St , Unit 102"
        ],
        "city": "VERO BEACH",
        "state": "FL",
        "postalCode": "32967-6281"
      },
      {
        "line": [
          "1553 US Highway 1"
        ],
        "city": "VERO BEACH",
        "state": "FL",
        "postalCode": "32960-7301"
      },
      {
        "line": [
          "160 NW 176th St",
          "Suite 100"
        ],
        "city": "MIAMI",
        "state": "FL",
        "postalCode": "33169-5021"
      },
      {
        "line": [
          "2501 Paul Buchman Hwy",
          "STE B"
        ],
        "city": "PLANT CITY",
        "state": "FL",
        "postalCode": "33563-9033"
      },
      {
        "line": [
          "4401 Hollywood Blvd"
        ],
        "city": "HOLLYWOOD",
        "state": "FL",
        "postalCode": "33021-1100"
      },
      {
        "line": [
          "18004 NW 6TH ST STE 101"
        ],
        "city": "HOLLYWOOD",
        "state": "FL",
        "postalCode": "33029-2823"
      },
      {
        "line": [
          "7421 N UNIVERSITY DR STE 101"
        ],
        "city": "FORT LAUDERDALE",
        "state": "FL",
        "postalCode": "33321-2952"
      },
      {
        "line": [
          "160 NW 176TH ST STE 100"
        ],
        "city": "MIAMI",
        "state": "FL",
        "postalCode": "33169-5040"
      },
      {
        "line": [
          "1341 E. Oak St."
        ],
        "city": "ARCADIA",
        "state": "FL",
        "postalCode": "34266-8902"
      },
      {
        "line": [
          "332 N Congress Ave"
        ],
        "city": "BOYNTON BEACH",
        "state": "FL",
        "postalCode": "33426-3413"
      },
      {
        "line": [
          "22 SW 11th Street",
          "FL 2"
        ],
        "city": "HALLANDALE BEACH",
        "state": "FL",
        "postalCode": "33009-7065"
      },
      {
        "line": [
          "21298 Olean Blvd."
        ],
        "city": "PORT CHARLOTTE",
        "state": "FL",
        "postalCode": "33952-6705"
      },
      {
        "line": [
          "3637 DEL PRADO BLVD S STE 202"
        ],
        "city": "CAPE CORAL",
        "state": "FL",
        "postalCode": "33904-7199"
      },
      {
        "line": [
          "777 37TH ST STE C107"
        ],
        "city": "VERO BEACH",
        "state": "FL",
        "postalCode": "32960-7301"
      },
      {
        "line": [
          "7201 GREENBORO DR"
        ],
        "city": "MELBOURNE",
        "state": "FL",
        "postalCode": "32904-1698"
      },
      {
        "line": [
          "1 TAMPA GENERAL CIR"
        ],
        "city": "TAMPA",
        "state": "FL",
        "postalCode": "33606-3571"
      },
      {
        "line": [
          "457 CARLTON ST"
        ],
        "city": "WAUCHULA",
        "state": "FL",
        "postalCode": "33873-3400"
      },
      {
        "line": [
          "6541 SAINT JOHNS AVE"
        ],
        "city": "PALATKA",
        "state": "FL",
        "postalCode": "32177-3862"
      },
      {
        "line": [
          "1625 Martin Luther King Dr"
        ],
        "city": "WINTER HAVEN",
        "state": "FL",
        "postalCode": "33881-5226"
      },
      {
        "line": [
          "251 E FLORIDA AVE"
        ],
        "city": "MELBOURNE",
        "state": "FL",
        "postalCode": "32901-8303"
      },
      {
        "line": [
          "26338 US Highway 19 N"
        ],
        "city": "CLEARWATER",
        "state": "FL",
        "postalCode": "33761-4500"
      },
      {
        "line": [
          "7309 w Oakland Park BLVD"
        ],
        "city": "FORT LAUDERDALE",
        "state": "FL",
        "postalCode": "33319-4002"
      },
      {
        "line": [
          "1400 South Apollo Boulevard"
        ],
        "city": "MELBOURNE",
        "state": "FL",
        "postalCode": "32901-3145"
      },
      {
        "line": [
          "6363 Verde Trail"
        ],
        "city": "BOCA RATON",
        "state": "FL",
        "postalCode": "33433-7118"
      },
      {
        "line": [
          "1190 NW 95th Street",
          "Suite 208"
        ],
        "city": "MIAMI",
        "state": "FL",
        "postalCode": "33150-2065"
      },
      {
        "line": [
          "5731 Bee Ridge Road"
        ],
        "city": "SARASOTA",
        "state": "FL",
        "postalCode": "34233-5056"
      },
      {
        "line": [
          "9835 Lake Worth Rd",
          "Suite 11-13"
        ],
        "city": "LAKE WORTH",
        "state": "FL",
        "postalCode": "33467-2300"
      },
      {
        "line": [
          "16101 N Cleveland Ave"
        ],
        "city": "NORTH FORT MYERS",
        "state": "FL",
        "postalCode": "33903-2148"
      },
      {
        "line": [
          "14444 Beach Boulevard Suite B"
        ],
        "city": "JACKSONVILLE BEACH",
        "state": "FL",
        "postalCode": "32250-2010"
      },
      {
        "line": [
          "2639 CURRY LN"
        ],
        "city": "NOKOMIS",
        "state": "FL",
        "postalCode": "34275-4903"
      },
      {
        "line": [
          "722 Riverside Drive"
        ],
        "city": "Coral Springs",
        "state": "FL",
        "postalCode": "33071-7008"
      },
      {
        "line": [
          "14942 Tamiami Trail Unit E"
        ],
        "city": "NORTH PORT",
        "state": "FL",
        "postalCode": "34287-2705"
      },
      {
        "line": [
          "2839 S SEACREST BLVD"
        ],
        "city": "BOYNTON BEACH",
        "state": "FL",
        "postalCode": "33435-7934"
      },
      {
        "line": [
          "3221 TAMIAMI TRL"
        ],
        "city": "PORT CHARLOTTE",
        "state": "FL",
        "postalCode": "33952-8002"
      },
      {
        "line": [],
        "city": "TAMPA",
        "state": "FL",
        "postalCode": "33637-0935"
      },
      {
        "line": [
          "7187 BROAD ST"
        ],
        "city": "BROOKSVILLE",
        "state": "FL",
        "postalCode": "34601-5536"
      },
      {
        "line": [
          "2501 Paul Buchman Hwy",
          "Suite A"
        ],
        "city": "PLANT CITY",
        "state": "FL",
        "postalCode": "33563-9016"
      },
      {
        "line": [
          "13685 Doctors Way",
          "Suite 330"
        ],
        "city": "FORT MYERS",
        "state": "FL",
        "postalCode": "33912-4347"
      },
      {
        "line": [
          "4774 Florida Ave S"
        ],
        "city": "LAKELAND",
        "state": "FL",
        "postalCode": "33813-2181"
      },
      {
        "line": [
          "9655 W. Boynton Beach Blvd."
        ],
        "city": "BOYNTON BEACH",
        "state": "FL",
        "postalCode": "33472-4421"
      },
      {
        "line": [
          "109 44TH AVE E STE 100"
        ],
        "city": "BRADENTON",
        "state": "FL",
        "postalCode": "34203-3640"
      },
      {
        "line": [
          "5705 Lee Blvd Ste 16"
        ],
        "city": "LEHIGH ACRES",
        "state": "FL",
        "postalCode": "33971-6342"
      },
      {
        "line": [
          "601 N. Flamingo Rd",
          "Suite 407"
        ],
        "city": "PEMBROKE PINES",
        "state": "FL",
        "postalCode": "33028-1012"
      },
      {
        "line": [
          "14 Suntree Place Suite 104"
        ],
        "city": "MELBOURNE",
        "state": "FL",
        "postalCode": "32940-7605"
      },
      {
        "line": [
          "15991 N. Cleveland Ave"
        ],
        "city": "NORTH FORT MYERS",
        "state": "FL",
        "postalCode": "33903-2788"
      },
      {
        "line": [
          "1711 South 5th Street"
        ],
        "city": "JACKSONVILLE BEACH",
        "state": "FL",
        "postalCode": "32250-4040"
      },
      {
        "line": [
          "5951 Webb Rd"
        ],
        "city": "TAMPA",
        "state": "FL",
        "postalCode": "33615-3219"
      },
      {
        "line": [
          "1150 N 35th Ave",
          "Suite 620"
        ],
        "city": "HOLLYWOOD",
        "state": "FL",
        "postalCode": "33021-5432"
      },
      {
        "line": [
          "1341 E OAK ST"
        ],
        "city": "ARCADIA",
        "state": "FL",
        "postalCode": "34266-8902"
      },
      {
        "line": [
          "11440 NW 7TH AVE"
        ],
        "city": "MIAMI",
        "state": "FL",
        "postalCode": "33168-2208"
      },
      {
        "line": [
          "1324 Lakeland Hills Boulevard"
        ],
        "city": "LAKELAND",
        "state": "FL",
        "postalCode": "33805-4543"
      },
      {
        "line": [
          "2020 Tamiami Trail"
        ],
        "city": "PORT CHARLOTTE",
        "state": "FL",
        "postalCode": "33948-2178"
      },
      {
        "line": [
          "617 LAKEVIEW RD STE C"
        ],
        "city": "CLEARWATER",
        "state": "FL",
        "postalCode": "33756-3338"
      },
      {
        "line": [
          "7201 N UNIVERSITY DR"
        ],
        "city": "FORT LAUDERDALE",
        "state": "FL",
        "postalCode": "33321-2913"
      },
      {
        "line": [
          "3508 N University Dr"
        ],
        "city": "FORT LAUDERDALE",
        "state": "FL",
        "postalCode": "33351-6724"
      },
      {
        "line": [
          "4220 Executive Circle",
          "STE 38"
        ],
        "city": "FORT MYERS",
        "state": "FL",
        "postalCode": "33916-8055"
      },
      {
        "line": [
          "14 Suntree Place Suite 102"
        ],
        "city": "MELBOURNE",
        "state": "FL",
        "postalCode": "32940-7605"
      },
      {
        "line": [
          "3250 N State Road 7 Reef Plaza"
        ],
        "city": "Lauderdale Lakes",
        "state": "FL",
        "postalCode": "33319-5615"
      },
      {
        "line": [
          "8144 West Broward Blvd"
        ],
        "city": "FORT LAUDERDALE",
        "state": "FL",
        "postalCode": "33324-0001"
      },
      {
        "line": [
          "3451 Woolbright Rd"
        ],
        "city": "BOYNTON BEACH",
        "state": "FL",
        "postalCode": "33436-7246"
      },
      {
        "line": [
          "998 NW 9TH CT"
        ],
        "city": "BOCA RATON",
        "state": "FL",
        "postalCode": "33486-2214"
      },
      {
        "line": [
          "1 Oakwood Blvd",
          "Suite 100"
        ],
        "city": "HOLLYWOOD",
        "state": "FL",
        "postalCode": "33020-1000"
      },
      {
        "line": [
          "1475 W 49TH PL"
        ],
        "city": "HIALEAH",
        "state": "FL",
        "postalCode": "33012-3113"
      },
      {
        "line": [
          "10614 Lem Turner Rd"
        ],
        "city": "JACKSONVILLE",
        "state": "FL",
        "postalCode": "32218-4562"
      },
      {
        "line": [
          "4300 Rock Island Road"
        ],
        "city": "FORT LAUDERDALE",
        "state": "FL",
        "postalCode": "33319-4528"
      },
      {
        "line": [
          "5352 Linton Blvd"
        ],
        "city": "DELRAY BEACH",
        "state": "FL",
        "postalCode": "33445-6514"
      },
      {
        "line": [
          "7980 NW 155TH ST FL 2"
        ],
        "city": "Miami Lakes",
        "state": "FL",
        "postalCode": "33016-5894"
      },
      {
        "line": [
          "27802 Summergate Blvd"
        ],
        "city": "WESLEY CHAPEL",
        "state": "FL",
        "postalCode": "33544-6919"
      },
      {
        "line": [
          "615 PARK ST"
        ],
        "city": "JACKSONVILLE",
        "state": "FL",
        "postalCode": "32204-2932"
      },
      {
        "line": [
          "200 SW Natura Ave"
        ],
        "city": "DEERFIELD BEACH",
        "state": "FL",
        "postalCode": "33441-1501"
      },
      {
        "line": [
          "3550 University Blvd. South Suite 202"
        ],
        "city": "JACKSONVILLE",
        "state": "FL",
        "postalCode": "32216-9016"
      },
      {
        "line": [
          "11011 Sheridan Street",
          "#308"
        ],
        "city": "HOLLYWOOD",
        "state": "FL",
        "postalCode": "33026-0500"
      },
      {
        "line": [
          "3625 University Blvd S"
        ],
        "city": "JACKSONVILLE",
        "state": "FL",
        "postalCode": "32216-4207"
      },
      {
        "line": [
          "1516 E Las Olas Blvd."
        ],
        "city": "FORT LAUDERDALE",
        "state": "FL",
        "postalCode": "33301-1784"
      },
      {
        "line": [
          "14131 METROPOLIS AVE STE 103"
        ],
        "city": "FORT MYERS",
        "state": "FL",
        "postalCode": "33912-4455"
      },
      {
        "line": [
          "4012 S TAMIAMI TRL"
        ],
        "city": "SARASOTA",
        "state": "FL",
        "postalCode": "34231-3624"
      },
      {
        "line": [
          "4965 Lechalet Blvd"
        ],
        "city": "BOYNTON BEACH",
        "state": "FL",
        "postalCode": "33436-1416"
      },
      {
        "line": [
          "1520 E VENICE AVE"
        ],
        "city": "VENICE",
        "state": "FL",
        "postalCode": "34292-1668"
      },
      {
        "line": [
          "5902 POINTE WEST BLVD"
        ],
        "city": "BRADENTON",
        "state": "FL",
        "postalCode": "34209-5529"
      },
      {
        "line": [
          "3038 Saint Johns Bluff Rd S"
        ],
        "city": "JACKSONVILLE",
        "state": "FL",
        "postalCode": "32246-3710"
      },
      {
        "line": [
          "1520 East Venice Avenue"
        ],
        "city": "VENICE",
        "state": "FL",
        "postalCode": "34292-1668"
      },
      {
        "line": [
          "8645 BOYNTON BEACH BLVD"
        ],
        "city": "BOYNTON BEACH",
        "state": "FL",
        "postalCode": "33472-4415"
      },
      {
        "line": [
          "19559 NE 10 Ave,"
        ],
        "city": "MIAMI",
        "state": "FL",
        "postalCode": "33179-3996"
      },
      {
        "line": [
          "1921 WALDEMERE STREET STE 107"
        ],
        "city": "SARASOTA",
        "state": "FL",
        "postalCode": "34239-2941"
      },
      {
        "line": [
          "201 E Sample Road"
        ],
        "city": "POMPANO BEACH",
        "state": "FL",
        "postalCode": "33064-3505"
      },
      {
        "line": [
          "4875 NE 20 Terrace"
        ],
        "city": "FORT LAUDERDALE",
        "state": "FL",
        "postalCode": "33308-4515"
      },
      {
        "line": [
          "5700 Honore Ave"
        ],
        "city": "SARASOTA",
        "state": "FL",
        "postalCode": "34233-3249"
      },
      {
        "line": [
          "2200 West Eau Gallie Boulevard Suite 202A"
        ],
        "city": "MELBOURNE",
        "state": "FL",
        "postalCode": "32935-3166"
      },
      {
        "line": [
          "19056 NE 29th Ave"
        ],
        "city": "MIAMI",
        "state": "FL",
        "postalCode": "33180-2802"
      },
      {
        "line": [
          "10150 HAGEN RANCH RD"
        ],
        "city": "BOYNTON BEACH",
        "state": "FL",
        "postalCode": "33437-3776"
      },
      {
        "line": [
          "3040 Del Prado Blvd S"
        ],
        "city": "CAPE CORAL",
        "state": "FL",
        "postalCode": "33904-7232"
      },
      {
        "line": [
          "1221 S. STATE RD. 7",
          "SUITE 120"
        ],
        "city": "WELLINGTON",
        "state": "FL",
        "postalCode": "33414-6212"
      },
      {
        "line": [
          "6960 PROFESSIONAL PKWY",
          "UNIT 4 & 5"
        ],
        "city": "LAKEWOOD RANCH",
        "state": "FL",
        "postalCode": "34240-8414"
      },
      {
        "line": [
          "2600 Laurel Road E."
        ],
        "city": "NOKOMIS",
        "state": "FL",
        "postalCode": "34275-3226"
      },
      {
        "line": [
          "3000 Coral Hills Drive"
        ],
        "city": "CORAL SPRINGS",
        "state": "FL",
        "postalCode": "33065-4108"
      },
      {
        "line": [
          "2010 Wells Pond Court"
        ],
        "city": "ORANGE PARK",
        "state": "FL",
        "postalCode": "32073-2312"
      },
      {
        "line": [
          "4399 N Nob Hill Rd"
        ],
        "city": "FORT LAUDERDALE",
        "state": "FL",
        "postalCode": "33351-5813"
      },
      {
        "line": [
          "3363 NW 167 Street"
        ],
        "city": "MIAMI GARDENS",
        "state": "FL",
        "postalCode": "33056-4254"
      },
      {
        "line": [
          "6222 Harney Rd"
        ],
        "city": "TAMPA",
        "state": "FL",
        "postalCode": "33610-5500"
      },
      {
        "line": [
          "1150 N 35th Ave"
        ],
        "city": "HOLLYWOOD",
        "state": "FL",
        "postalCode": "33021-5432"
      },
      {
        "line": [
          "12169 MERCADO DR STE B6"
        ],
        "city": "VENICE",
        "state": "FL",
        "postalCode": "34293-1147"
      },
      {
        "line": [
          "703 N Flamingo Rd"
        ],
        "city": "PEMBROKE PINES",
        "state": "FL",
        "postalCode": "33028-1006"
      },
      {
        "line": [
          "520 MANATEE AVE E"
        ],
        "city": "BRADENTON",
        "state": "FL",
        "postalCode": "34208-1146"
      },
      {
        "line": [
          "615 N HIGHWAY 231"
        ],
        "city": "PANAMA CITY",
        "state": "FL",
        "postalCode": "32405-4704"
      },
      {
        "line": [
          "160 NW 176th St.",
          "Suite 100"
        ],
        "city": "MIAMI",
        "state": "FL",
        "postalCode": "33169-2000"
      },
      {
        "line": [
          "809 E. Marionn Ave."
        ],
        "city": "PUNTA GORDA",
        "state": "FL",
        "postalCode": "33950-3819"
      },
      {
        "line": [
          "4211 Van Dyke Road"
        ],
        "city": "LUTZ",
        "state": "FL",
        "postalCode": "33558-8005"
      },
      {
        "line": [
          "6901 Okeechobee Blvd",
          "Suite D19"
        ],
        "city": "WEST PALM BEACH",
        "state": "FL",
        "postalCode": "33411-2512"
      },
      {
        "line": [
          "1350 13th Ave S"
        ],
        "city": "JACKSONVILLE BEACH",
        "state": "FL",
        "postalCode": "32250-3203"
      },
      {
        "line": [
          "3863 W Broward Blvd,"
        ],
        "city": "FORT LAUDERDALE",
        "state": "FL",
        "postalCode": "33312-2677"
      },
      {
        "line": [
          "6400 Edgelake Dr"
        ],
        "city": "SARASOTA",
        "state": "FL",
        "postalCode": "34240-8813"
      },
      {
        "line": [
          "7031 SW 62ND AVE"
        ],
        "city": "MIAMI",
        "state": "FL",
        "postalCode": "33143-4701"
      },
      {
        "line": [
          "8251 W. Broward Blvd.",
          "Suite 100"
        ],
        "city": "Plantation",
        "state": "FL",
        "postalCode": "33324-1075"
      },
      {
        "line": [
          "9333 SW 152ND ST"
        ],
        "city": "MIAMI",
        "state": "FL",
        "postalCode": "33157-1778"
      },
      {
        "line": [
          "16201 PANAMA CITY BEACH PKWY",
          "SUITE 201"
        ],
        "city": "PANAMA CITY BEACH",
        "state": "FL",
        "postalCode": "32413-5306"
      },
      {
        "line": [
          "10150 Hagen Ranch Rd",
          "#101"
        ],
        "city": "BOYNTON BEACH",
        "state": "FL",
        "postalCode": "33437-0900"
      },
      {
        "line": [
          "7950 SW 30th Street"
        ],
        "city": "FORT LAUDERDALE",
        "state": "FL",
        "postalCode": "33328-4056"
      },
      {
        "line": [
          "5607 Normandy Boulevard"
        ],
        "city": "JACKSONVILLE",
        "state": "FL",
        "postalCode": "32205-6248"
      },
      {
        "line": [
          "2800 N State Road 7"
        ],
        "city": "POMPANO BEACH",
        "state": "FL",
        "postalCode": "33063-2600"
      },
      {
        "line": [
          "800 Prudential Drive"
        ],
        "city": "JACKSONVILLE",
        "state": "FL",
        "postalCode": "32207-8202"
      },
      {
        "line": [
          "700 RIVERSIDE DR"
        ],
        "city": "Coral Springs",
        "state": "FL",
        "postalCode": "33071-7008"
      },
      {
        "line": [
          "7059 NW 88th Ave"
        ],
        "city": "FORT LAUDERDALE",
        "state": "FL",
        "postalCode": "33321-3328"
      },
      {
        "line": [
          "1600 South Andrews Ave"
        ],
        "city": "FORT LAUDERDALE",
        "state": "FL",
        "postalCode": "33316-2522"
      },
      {
        "line": [
          "924 THOMAS DR"
        ],
        "city": "PANAMA CITY",
        "state": "FL",
        "postalCode": "32408-7442"
      },
      {
        "line": [
          "601 MEDICAL DR"
        ],
        "city": "ENGLEWOOD",
        "state": "FL",
        "postalCode": "34223-3976"
      },
      {
        "line": [
          "5130 Linton Blvd",
          "Suite G4"
        ],
        "city": "DELRAY BEACH",
        "state": "FL",
        "postalCode": "33484-6514"
      },
      {
        "line": [
          "1859 Van Buren Street"
        ],
        "city": "HOLLYWOOD",
        "state": "FL",
        "postalCode": "33020-5127"
      },
      {
        "line": [
          "2685 Executive Park Drive,"
        ],
        "city": "FORT LAUDERDALE",
        "state": "FL",
        "postalCode": "33331-1544"
      },
      {
        "line": [
          "7201 North University Drive"
        ],
        "city": "FORT LAUDERDALE",
        "state": "FL",
        "postalCode": "33321-2913"
      },
      {
        "line": [
          "10725 Wiles Road"
        ],
        "city": "Coral Springs",
        "state": "FL",
        "postalCode": "33076-2014"
      },
      {
        "line": [
          "573 N State Road 7"
        ],
        "city": "WEST PALM BEACH",
        "state": "FL",
        "postalCode": "33411-3524"
      },
      {
        "line": [
          "9981 S HEALTHPARK DR"
        ],
        "city": "FORT MYERS",
        "state": "FL",
        "postalCode": "33908-3618"
      },
      {
        "line": [
          "1130 NW 15th Street"
        ],
        "city": "BOCA RATON",
        "state": "FL",
        "postalCode": "33486-1039"
      },
      {
        "line": [
          "5901 Nw 79 Avenue"
        ],
        "city": "FORT LAUDERDALE",
        "state": "FL",
        "postalCode": "33321-4639"
      },
      {
        "line": [
          "7171 North Dale Mabry Highway"
        ],
        "city": "TAMPA",
        "state": "FL",
        "postalCode": "33614-2665"
      },
      {
        "line": [
          "3002 E College Avenue"
        ],
        "city": "RUSKIN",
        "state": "FL",
        "postalCode": "33570-5220"
      },
      {
        "line": [
          "9535 Regency Square Boulevard North"
        ],
        "city": "JACKSONVILLE",
        "state": "FL",
        "postalCode": "32225-8128"
      },
      {
        "line": [
          "7910 US Hwy 19N"
        ],
        "city": "PINELLAS PARK",
        "state": "FL",
        "postalCode": "33781-1712"
      },
      {
        "line": [
          "4725 N Federal Hwy"
        ],
        "city": "FORT LAUDERDALE",
        "state": "FL",
        "postalCode": "33308-3025"
      },
      {
        "line": [
          "111 E Hibiscus Boulevard"
        ],
        "city": "MELBOURNE",
        "state": "FL",
        "postalCode": "32901-3102"
      },
      {
        "line": [
          "1221 South State Road 7",
          "Suite 120"
        ],
        "city": "WELLINGTON",
        "state": "FL",
        "postalCode": "33414-6212"
      },
      {
        "line": [
          "4725 N FEDERAL HWY"
        ],
        "city": "FORT LAUDERDALE",
        "state": "FL",
        "postalCode": "33308-4603"
      },
      {
        "line": [
          "929 UNIVERSITY BLVD N"
        ],
        "city": "JACKSONVILLE",
        "state": "FL",
        "postalCode": "32211-5529"
      },
      {
        "line": [
          "3451 66st ST N",
          "Ste A"
        ],
        "city": "SAINT PETERSBURG",
        "state": "FL",
        "postalCode": "33710-1568"
      },
      {
        "line": [
          "1515 INDIAN RIVER BLVD STE A101"
        ],
        "city": "VERO BEACH",
        "state": "FL",
        "postalCode": "32960-5667"
      },
      {
        "line": [
          "2852 TAMIAMI TRL STE 1"
        ],
        "city": "PORT CHARLOTTE",
        "state": "FL",
        "postalCode": "33952-5100"
      },
      {
        "line": [
          "7309 W Oakland Park Blvd"
        ],
        "city": "FORT LAUDERDALE",
        "state": "FL",
        "postalCode": "33319-4959"
      },
      {
        "line": [
          "4218 W LINEBAUGH AVE"
        ],
        "city": "TAMPA",
        "state": "FL",
        "postalCode": "33624-5241"
      },
      {
        "line": [
          "9400 GLADIOLUS DR STE 200"
        ],
        "city": "FORT MYERS",
        "state": "FL",
        "postalCode": "33908-3692"
      },
      {
        "line": [
          "1515 S Tamiami Trail Suite 1"
        ],
        "city": "VENICE",
        "state": "FL",
        "postalCode": "34285-5557"
      },
      {
        "line": [
          "540 The Rialto"
        ],
        "city": "VENICE",
        "state": "FL",
        "postalCode": "34285-2900"
      },
      {
        "line": [
          "5000 W Oakland Park Blvd"
        ],
        "city": "FORT LAUDERDALE",
        "state": "FL",
        "postalCode": "33313-6015"
      },
      {
        "line": [
          "3476 S UNIVERSITY DR"
        ],
        "city": "Davie",
        "state": "FL",
        "postalCode": "33328-2000"
      },
      {
        "line": [
          "8144 W Broward Blvd"
        ],
        "city": "FORT LAUDERDALE",
        "state": "FL",
        "postalCode": "33324-0001"
      },
      {
        "line": [
          "2801 NW 79TH AVE"
        ],
        "city": "MIAMI",
        "state": "FL",
        "postalCode": "33122-1174"
      },
      {
        "line": [
          "175 VILLA NUEVA AVE NE"
        ],
        "city": "PALM BAY",
        "state": "FL",
        "postalCode": "32907-2595"
      },
      {
        "line": [
          "7751 W BROWARD BLVD"
        ],
        "city": "PLANTATION",
        "state": "FL",
        "postalCode": "33324-2003"
      },
      {
        "line": [
          "1680 NE 164 Street"
        ],
        "city": "MIAMI",
        "state": "FL",
        "postalCode": "33162-4017"
      },
      {
        "line": [
          "8100 Johnson Street"
        ],
        "city": "HOLLYWOOD",
        "state": "FL",
        "postalCode": "33024-6734"
      },
      {
        "line": [
          "1921 WALDEMERE ST",
          "STE 107"
        ],
        "city": "SARASOTA",
        "state": "FL",
        "postalCode": "34239-2941"
      },
      {
        "line": [
          "6611 Simmons Loop"
        ],
        "city": "RIVERVIEW",
        "state": "FL",
        "postalCode": "33578-9495"
      },
      {
        "line": [
          "2801 North State Road 7"
        ],
        "city": "POMPANO BEACH",
        "state": "FL",
        "postalCode": "33063-5727"
      },
      {
        "line": [
          "1350 Hickory Street"
        ],
        "city": "MELBOURNE",
        "state": "FL",
        "postalCode": "32901-3224"
      },
      {
        "line": [
          "4602 N Armenia Ave",
          "Bldg B"
        ],
        "city": "TAMPA",
        "state": "FL",
        "postalCode": "33603-2626"
      },
      {
        "line": [
          "1701 N.E. 26th Street"
        ],
        "city": "FORT LAUDERDALE",
        "state": "FL",
        "postalCode": "33305-1412"
      },
      {
        "line": [
          "13681 DOCTORS WAY"
        ],
        "city": "FORT MYERS",
        "state": "FL",
        "postalCode": "33912-4300"
      },
      {
        "line": [
          "1299 E Commercial Blvd",
          "#100"
        ],
        "city": "FORT LAUDERDALE",
        "state": "FL",
        "postalCode": "33334-0001"
      },
      {
        "line": [
          "2514 N State Road 7"
        ],
        "city": "POMPANO BEACH",
        "state": "FL",
        "postalCode": "33063-2600"
      },
      {
        "line": [
          "2355 VIDINA DR"
        ],
        "city": "MELBOURNE",
        "state": "FL",
        "postalCode": "32940-7698"
      },
      {
        "line": [
          "7140 West McNab Road"
        ],
        "city": "FORT LAUDERDALE",
        "state": "FL",
        "postalCode": "33321-0001"
      },
      {
        "line": [
          "7901 NW 88TH AVE"
        ],
        "city": "FORT LAUDERDALE",
        "state": "FL",
        "postalCode": "33321-2003"
      },
      {
        "line": [
          "6914 Sheldon Rd",
          "Suite 101"
        ],
        "city": "TAMPA",
        "state": "FL",
        "postalCode": "33615-2756"
      },
      {
        "line": [
          "14355 US HIGHWAY 1"
        ],
        "city": "SEBASTIAN",
        "state": "FL",
        "postalCode": "32958-3256"
      },
      {
        "line": [
          "4033 BEAVER LN"
        ],
        "city": "PORT CHARLOTTE",
        "state": "FL",
        "postalCode": "33952-9206"
      },
      {
        "line": [
          "3047 Forest Hill Blvd"
        ],
        "city": "WEST PALM BEACH",
        "state": "FL",
        "postalCode": "33406-5908"
      },
      {
        "line": [
          "101 East Florida Avenue"
        ],
        "city": "MELBOURNE",
        "state": "FL",
        "postalCode": "32901-8301"
      },
      {
        "line": [
          "8330 LAKEWOOD RANCH BLVD"
        ],
        "city": "BRADENTON",
        "state": "FL",
        "postalCode": "34202-5174"
      },
      {
        "line": [
          "16625 FISHHAWK BLVD"
        ],
        "city": "LITHIA",
        "state": "FL",
        "postalCode": "33547-3800"
      },
      {
        "line": [
          "3501 CORTEZ RD W STE 104"
        ],
        "city": "BRADENTON",
        "state": "FL",
        "postalCode": "34210-3196"
      },
      {
        "line": [
          "4901 Richard Street"
        ],
        "city": "JACKSONVILLE",
        "state": "FL",
        "postalCode": "32207-7328"
      },
      {
        "line": [
          "355 DUPONT ST"
        ],
        "city": "PUNTA GORDA",
        "state": "FL",
        "postalCode": "33950-3809"
      },
      {
        "line": [
          "12662 Telecom Drive"
        ],
        "city": "TAMPA",
        "state": "FL",
        "postalCode": "33637-0935"
      },
      {
        "line": [
          "1901 SW 72 Avenue"
        ],
        "city": "HOLLYWOOD",
        "state": "FL",
        "postalCode": "33029-5592"
      },
      {
        "line": [
          "4101 Southpoint Drive E"
        ],
        "city": "JACKSONVILLE",
        "state": "FL",
        "postalCode": "32216-0996"
      },
      {
        "line": [
          "6400 Edgelake Drive"
        ],
        "city": "SARASOTA",
        "state": "FL",
        "postalCode": "34240-8813"
      },
      {
        "line": [
          "2815 S Seacrest Blvd"
        ],
        "city": "BOYNTON BEACH",
        "state": "FL",
        "postalCode": "33435-3282"
      },
      {
        "line": [
          "2459 S Congress Ave",
          "#100"
        ],
        "city": "WEST PALM BEACH",
        "state": "FL",
        "postalCode": "33406-1000"
      },
      {
        "line": [
          "2514 N State Road 7"
        ],
        "city": "Margate",
        "state": "FL",
        "postalCode": "33063-5722"
      },
      {
        "line": [
          "1951 NW 7th Ave",
          "Ste 500"
        ],
        "city": "MIAMI",
        "state": "FL",
        "postalCode": "33136-1121"
      },
      {
        "line": [
          "7467 West Sample Road"
        ],
        "city": "POMPANO BEACH",
        "state": "FL",
        "postalCode": "33065-2526"
      },
      {
        "line": [
          "1500 E. Venice Avenue",
          "Suite 103"
        ],
        "city": "VENICE",
        "state": "FL",
        "postalCode": "34292-1660"
      },
      {
        "line": [
          "4204 N MacDill Ave Ste 1b North Bldg"
        ],
        "city": "TAMPA",
        "state": "FL",
        "postalCode": "33607-6364"
      },
      {
        "line": [
          "3925 West Boynton Beach Blvd",
          "Suite 107"
        ],
        "city": "BOYNTON BEACH",
        "state": "FL",
        "postalCode": "33436-4500"
      },
      {
        "line": [
          "7225 BOCA DEL MAR DR"
        ],
        "city": "BOCA RATON",
        "state": "FL",
        "postalCode": "33433-5517"
      },
      {
        "line": [
          "7645 Merrill Road #204"
        ],
        "city": "JACKSONVILLE",
        "state": "FL",
        "postalCode": "32277-6577"
      },
      {
        "line": [
          "1120 Indian Hills Blvd"
        ],
        "city": "VENICE",
        "state": "FL",
        "postalCode": "34293-2900"
      },
      {
        "line": [
          "1215 Dunn Avenue Suite 8"
        ],
        "city": "JACKSONVILLE",
        "state": "FL",
        "postalCode": "32218-4897"
      },
      {
        "line": [
          "4300 KINGS HWY STE 406"
        ],
        "city": "PUNTA GORDA",
        "state": "FL",
        "postalCode": "33980-2990"
      },
      {
        "line": [
          "900 Park Centre Blvd",
          "Suite 400-C"
        ],
        "city": "MIAMI",
        "state": "FL",
        "postalCode": "33169-5367"
      },
      {
        "line": [
          "1311 E Atlantic BLVD"
        ],
        "city": "POMPANO BEACH",
        "state": "FL",
        "postalCode": "33060-1107"
      },
      {
        "line": [
          "1983 W Hillsboro Blvd"
        ],
        "city": "DEERFIELD BEACH",
        "state": "FL",
        "postalCode": "33442-0900"
      },
      {
        "line": [
          "20900 Biscayne Blvd"
        ],
        "city": "AVENTURA",
        "state": "FL",
        "postalCode": "33180-1407"
      },
      {
        "line": [
          "1307 W KENNEDY BLVD"
        ],
        "city": "TAMPA",
        "state": "FL",
        "postalCode": "33606-1848"
      },
      {
        "line": [
          "2940 W HILLSBOROUGH AVE"
        ],
        "city": "TAMPA",
        "state": "FL",
        "postalCode": "33614-6055"
      },
      {
        "line": [
          "8470 COOPER CREEK BLVD"
        ],
        "city": "UNIVERSITY PARK",
        "state": "FL",
        "postalCode": "34201-2020"
      },
      {
        "line": [
          "19801 Hampton Drive,"
        ],
        "city": "BOCA RATON",
        "state": "FL",
        "postalCode": "33434-3912"
      },
      {
        "line": [
          "11550 Ulmerton Rd"
        ],
        "city": "LARGO",
        "state": "FL",
        "postalCode": "33778-1501"
      },
      {
        "line": [
          "5503 S. Congress Ave",
          "Suite 101"
        ],
        "city": "LAKE WORTH",
        "state": "FL",
        "postalCode": "33462-6625"
      },
      {
        "line": [
          "601 N Flamingo Rd",
          "STE 109"
        ],
        "city": "PEMBROKE PINES",
        "state": "FL",
        "postalCode": "33028-1007"
      },
      {
        "line": [
          "1611 NW 12TH AVE"
        ],
        "city": "MIAMI",
        "state": "FL",
        "postalCode": "33136-1005"
      },
      {
        "line": [
          "3075 NW 35th Ave"
        ],
        "city": "FORT LAUDERDALE",
        "state": "FL",
        "postalCode": "33311-1111"
      },
      {
        "line": [
          "8850 Gladiolus Dr."
        ],
        "city": "FORT MYERS",
        "state": "FL",
        "postalCode": "33908-5102"
      },
      {
        "line": [
          "1211 Saint John's Bluff Road North"
        ],
        "city": "JACKSONVILLE",
        "state": "FL",
        "postalCode": "32225-8337"
      },
      {
        "line": [
          "100 S US Highway 1"
        ],
        "city": "VERO BEACH",
        "state": "FL",
        "postalCode": "32962-3630"
      },
      {
        "line": [
          "11011 Sheridan Street"
        ],
        "city": "HOLLYWOOD",
        "state": "FL",
        "postalCode": "33026-1505"
      },
      {
        "line": [
          "8037 COOPER CREEK BLVD",
          "Suite 106"
        ],
        "city": "BRADENTON",
        "state": "FL",
        "postalCode": "34201-3006"
      },
      {
        "line": [
          "17801 NW 2ND AVE STE 229"
        ],
        "city": "MIAMI",
        "state": "FL",
        "postalCode": "33169-5029"
      },
      {
        "line": [
          "1301 S Andrews Ave",
          "#101"
        ],
        "city": "FORT LAUDERDALE",
        "state": "FL",
        "postalCode": "33316-0001"
      },
      {
        "line": [
          "2985 Landover Blvd"
        ],
        "city": "SPRING HILL",
        "state": "FL",
        "postalCode": "34608-7258"
      },
      {
        "line": [
          "7815 Coral Way",
          "STE 115"
        ],
        "city": "MIAMI",
        "state": "FL",
        "postalCode": "33155-6541"
      },
      {
        "line": [
          "911 E Oakland Park Blvd"
        ],
        "city": "FORT LAUDERDALE",
        "state": "FL",
        "postalCode": "33334-0001"
      },
      {
        "line": [
          "5951 COLONIAL DR"
        ],
        "city": "POMPANO BEACH",
        "state": "FL",
        "postalCode": "33063-5661"
      },
      {
        "line": [
          "100 E SAMPLE RD SUITE 120"
        ],
        "city": "POMPANO BEACH",
        "state": "FL",
        "postalCode": "33064-3554"
      },
      {
        "line": [
          "4800 N NOB HILL RD"
        ],
        "city": "FORT LAUDERDALE",
        "state": "FL",
        "postalCode": "33351-4722"
      },
      {
        "line": [
          "3550 UNIVERSITY BLVD S STE 204"
        ],
        "city": "JACKSONVILLE",
        "state": "FL",
        "postalCode": "32216-4226"
      },
      {
        "line": [
          "1425 MALABAR RD NE"
        ],
        "city": "PALM BAY",
        "state": "FL",
        "postalCode": "32907-2506"
      },
      {
        "line": [
          "5947 20th St"
        ],
        "city": "VERO BEACH",
        "state": "FL",
        "postalCode": "32966-4676"
      },
      {
        "line": [
          "7170 West 20 Avenue",
          "Suite G1"
        ],
        "city": "HIALEAH",
        "state": "FL",
        "postalCode": "33016-1849"
      },
      {
        "line": [
          "2500 Harbor Blvd"
        ],
        "city": "PORT CHARLOTTE",
        "state": "FL",
        "postalCode": "33952-5000"
      },
      {
        "line": [
          "4501 BRUCE B DOWNS BLVD"
        ],
        "city": "WESLEY CHAPEL",
        "state": "FL",
        "postalCode": "33544-9216"
      },
      {
        "line": [
          "1415 HICKORY ST"
        ],
        "city": "MELBOURNE",
        "state": "FL",
        "postalCode": "32901-3225"
      },
      {
        "line": [
          "816 Pinebrook Rd"
        ],
        "city": "VENICE",
        "state": "FL",
        "postalCode": "34285-7103"
      },
      {
        "line": [
          "4555 South Manhattan Avenue"
        ],
        "city": "TAMPA",
        "state": "FL",
        "postalCode": "33611-2305"
      }
    ],
    "extension": [
      {
        "url": "https://fhir.athena.io/StructureDefinition/ah-practice",
        "valueReference": {
          "reference": "Organization/a-1.Practice-15644"
        }
      },
      {
        "url": "https://fhir.athena.io/StructureDefinition/ah-brand",
        "valueReference": {
          "reference": "Organization/a-15644.Brand-1"
        }
      }
    ]
  },
  "fullUrl": "urn:uuid:9d180da3-f41e-5bb3-bf0e-8c78a9556400"
}