{
  "resource": {
    "resourceType": "Organization",
    "id": "e0762f16-aa92-5937-9cbb-2dd337560e42",
    "name": "IPW Foot Factor Podiatry",
    "endpoint": [
      {
        "reference": "Endpoint/27a4e967-47aa-5a9c-a572-b8297ee268a2"
      },
      {
        "reference": "Endpoint/fb7bf94d-e056-5481-91c1-0849746a5fd2"
      }
    ],
    "identifier": [
      {
        "system": "http://hl7.org/fhir/sid/us-npi",
        "value": "1871975920"
      }
    ],
    "address": [
      {
        "line": [
          "6495 S. 27th Street"
        ],
        "city": "FRANKLIN",
        "state": "WI",
        "postalCode": "53132-8034"
      },
      {
        "line": [
          "7377 88TH AVE"
        ],
        "city": "KENOSHA",
        "state": "WI",
        "postalCode": "53142-8206"
      },
      {
        "line": [
          "213 W. Alta Loma Circle"
        ],
        "city": "Thiensville",
        "state": "WI",
        "postalCode": "53092-1719"
      },
      {
        "line": [
          "6125 Green Bay Rd, Suite 600"
        ],
        "city": "KENOSHA",
        "state": "WI",
        "postalCode": "53142-2928"
      },
      {
        "line": [
          "3109 12TH ST"
        ],
        "city": "Somers",
        "state": "WI",
        "postalCode": "53144-2915"
      },
      {
        "line": [
          "2501 W. Silver Spring Dr"
        ],
        "city": "GLENDALE",
        "state": "WI",
        "postalCode": "53209-4217"
      },
      {
        "line": [
          "6510 W. Layton Avenue, Suite 102"
        ],
        "city": "GREENFIELD",
        "state": "WI",
        "postalCode": "53220-4563"
      },
      {
        "line": [
          "2145 W. Hemlock Rd"
        ],
        "city": "Glendale",
        "state": "WI",
        "postalCode": "53209-2139"
      },
      {
        "line": [
          "5434 W. Capitol Drive, Suite 3"
        ],
        "city": "MILWAUKEE",
        "state": "WI",
        "postalCode": "53216-2298"
      },
      {
        "line": [
          "8820 N. Rexleigh Drive"
        ],
        "city": "Bayside",
        "state": "WI",
        "postalCode": "53217-1861"
      }
    ],
    "extension": [
      {
        "url": "https://fhir.athena.io/StructureDefinition/ah-practice",
        "valueReference": {
          "reference": "Organization/a-1.Practice-18758"
        }
      },
      {
        "url": "https://fhir.athena.io/StructureDefinition/ah-brand",
        "valueReference": {
          "reference": "Organization/a-18758.Brand-14"
        }
      }
    ]
  },
  "fullUrl": "urn:uuid:e0762f16-aa92-5937-9cbb-2dd337560e42"
}