{
  "resource": {
    "resourceType": "Organization",
    "id": "b8596965-6d9e-5847-9410-33efe3097b82",
    "name": "MinuteClinic",
    "endpoint": [
      {
        "reference": "Endpoint/27a4e967-47aa-5a9c-a572-b8297ee268a2"
      },
      {
        "reference": "Endpoint/dc5732bb-2665-5d9e-982b-c622ca7a75ca"
      }
    ],
    "identifier": [
      {
        "system": "http://hl7.org/fhir/sid/us-npi",
        "value": "1487983516"
      }
    ],
    "address": [
      {
        "line": [
          "499 Montauk Hwy"
        ],
        "city": "WEST ISLIP",
        "state": "NY",
        "postalCode": "11795-4404"
      },
      {
        "line": [
          "241 West 57th St"
        ],
        "city": "NEW YORK",
        "state": "NY",
        "postalCode": "10019-2121"
      },
      {
        "line": [
          "156 HENRY STREET"
        ],
        "city": "BROOKLYN",
        "state": "NY",
        "postalCode": "11201-2504"
      },
      {
        "line": [
          "298 MULBERRY ST"
        ],
        "city": "NEW YORK",
        "state": "NY",
        "postalCode": "10012-3331"
      },
      {
        "line": [
          "7960 METROPOLITAN AVENUE"
        ],
        "city": "MIDDLE VILLAGE",
        "state": "NY",
        "postalCode": "11379-2931"
      },
      {
        "line": [
          "150 E 42nd St"
        ],
        "city": "NEW YORK",
        "state": "NY",
        "postalCode": "10017-5612"
      },
      {
        "line": [
          "4331 NESCONSET HWY"
        ],
        "city": "PORT JEFFERSON STATION",
        "state": "NY",
        "postalCode": "11776-2250"
      },
      {
        "line": [
          "565 W 235th Street"
        ],
        "city": "BRONX",
        "state": "NY",
        "postalCode": "10463-1650"
      },
      {
        "line": [
          "1402 SHEEPSHEAD BAY ROAD"
        ],
        "city": "BROOKLYN",
        "state": "NY",
        "postalCode": "11235-3814"
      },
      {
        "line": [
          "341 9th Street"
        ],
        "city": "BROOKLYN",
        "state": "NY",
        "postalCode": "11215-4007"
      },
      {
        "line": [
          "222 EAST 34TH STREET"
        ],
        "city": "NEW YORK",
        "state": "NY",
        "postalCode": "10016-4842"
      },
      {
        "line": [
          "215 Park Ave South"
        ],
        "city": "NEW YORK",
        "state": "NY",
        "postalCode": "10003-1603"
      },
      {
        "line": [
          "1440 BROADWAY"
        ],
        "city": "NEW YORK",
        "state": "NY",
        "postalCode": "10018-2301"
      },
      {
        "line": [
          "130 LENOX AVE."
        ],
        "city": "NEW YORK",
        "state": "NY",
        "postalCode": "10026-2503"
      },
      {
        "line": [
          "2925 KINGS HIGHWAY"
        ],
        "city": "BROOKLYN",
        "state": "NY",
        "postalCode": "11229-1805"
      },
      {
        "line": [
          "157-05 CROSS BAY BLVD."
        ],
        "city": "HOWARD BEACH",
        "state": "NY",
        "postalCode": "11414-2748"
      },
      {
        "line": [
          "2291 Merrick Road"
        ],
        "city": "MERRICK",
        "state": "NY",
        "postalCode": "11566-4756"
      },
      {
        "line": [
          "325 Mamaroneck Avenue"
        ],
        "city": "WHITE PLAINS",
        "state": "NY",
        "postalCode": "10605-1440"
      },
      {
        "line": [
          "3101 Ditmars Blvd"
        ],
        "city": "ASTORIA",
        "state": "NY",
        "postalCode": "11105-2304"
      },
      {
        "line": [
          "7209 NORTHERN BOULEVARD"
        ],
        "city": "JACKSON HEIGHTS",
        "state": "NY",
        "postalCode": "11372-1048"
      },
      {
        "line": [
          "61-15 METROPOLITAN AVE."
        ],
        "city": "RIDGEWOOD",
        "state": "NY",
        "postalCode": "11385-2644"
      }
    ],
    "extension": [
      {
        "url": "https://fhir.athena.io/StructureDefinition/ah-practice",
        "valueReference": {
          "reference": "Organization/a-1.Practice-2347"
        }
      },
      {
        "url": "https://fhir.athena.io/StructureDefinition/ah-brand",
        "valueReference": {
          "reference": "Organization/a-2347.Brand-1"
        }
      }
    ]
  },
  "fullUrl": "urn:uuid:b8596965-6d9e-5847-9410-33efe3097b82"
}