{
  "resource": {
    "resourceType": "Organization",
    "id": "b8dc553d-48b5-53a9-9aa2-3caba90ef780",
    "name": "Baptist Medical Network",
    "endpoint": [
      {
        "reference": "Endpoint/27a4e967-47aa-5a9c-a572-b8297ee268a2"
      },
      {
        "reference": "Endpoint/858f99d4-69a1-5632-87b1-d31aed75d946"
      }
    ],
    "identifier": [
      {
        "system": "http://hl7.org/fhir/sid/us-npi",
        "value": "1598958431"
      },
      {
        "system": "http://hl7.org/fhir/sid/us-npi",
        "value": "1447524392"
      },
      {
        "system": "http://hl7.org/fhir/sid/us-npi",
        "value": "1831492651"
      }
    ],
    "address": [
      {
        "line": [
          "3327 RESEARCH PLZ STE 407"
        ],
        "city": "SAN ANTONIO",
        "state": "TX",
        "postalCode": "78235-5159"
      },
      {
        "line": [
          "7600 Better Way"
        ],
        "city": "FRISCO",
        "state": "TX",
        "postalCode": "75033-3797"
      },
      {
        "line": [
          "520 Madison Oak Dr"
        ],
        "city": "SAN ANTONIO",
        "state": "TX",
        "postalCode": "78258-3913"
      },
      {
        "line": [
          "502 Madison Oak Drive",
          "Suite 500"
        ],
        "city": "SAN ANTONIO",
        "state": "TX",
        "postalCode": "78258-4084"
      },
      {
        "line": [
          "5101 Medical Drive"
        ],
        "city": "SAN ANTONIO",
        "state": "TX",
        "postalCode": "78229-4801"
      },
      {
        "line": [
          "3903 Wiseman Blvd.",
          "Ste 100"
        ],
        "city": "SAN ANTONIO",
        "state": "TX",
        "postalCode": "78251-4402"
      },
      {
        "line": [
          "8715 Village Drive",
          "Suite 620"
        ],
        "city": "SAN ANTONIO",
        "state": "TX",
        "postalCode": "78217-5407"
      },
      {
        "line": [
          "1700 East Saunders Street"
        ],
        "city": "LAREDO",
        "state": "TX",
        "postalCode": "78041-5474"
      },
      {
        "line": [
          "5430 Fredricksburg Rd",
          "Ste 400"
        ],
        "city": "SAN ANTONIO",
        "state": "TX",
        "postalCode": "78229-3539"
      },
      {
        "line": [
          "3327 Research Plaza",
          "Suite 414"
        ],
        "city": "SAN ANTONIO",
        "state": "TX",
        "postalCode": "78235-5159"
      },
      {
        "line": [
          "6020 West Parker Road"
        ],
        "city": "PLANO",
        "state": "TX",
        "postalCode": "75093-8171"
      },
      {
        "line": [
          "11212 STATE HIGHWAY 151"
        ],
        "city": "SAN ANTONIO",
        "state": "TX",
        "postalCode": "78251-4498"
      },
      {
        "line": [
          "333 N Santa Rosa St"
        ],
        "city": "SAN ANTONIO",
        "state": "TX",
        "postalCode": "78207-3108"
      },
      {
        "line": [
          "1445 Hanz Drive"
        ],
        "city": "NEW BRAUNFELS",
        "state": "TX",
        "postalCode": "78130-2567"
      },
      {
        "line": [
          "10700 McPherson Road"
        ],
        "city": "LAREDO",
        "state": "TX",
        "postalCode": "78045-6268"
      },
      {
        "line": [
          "3011 W Loop 1604 N"
        ],
        "city": "SAN ANTONIO",
        "state": "TX",
        "postalCode": "78251-3901"
      },
      {
        "line": [
          "10010 Rogers Crossing",
          "Suite 301"
        ],
        "city": "SAN ANTONIO",
        "state": "TX",
        "postalCode": "78251-4776"
      },
      {
        "line": [
          "9618 Huebner Rd"
        ],
        "city": "SAN ANTONIO",
        "state": "TX",
        "postalCode": "78240-1775"
      },
      {
        "line": [
          "112 Herff Rd",
          "Suite 100"
        ],
        "city": "BOERNE",
        "state": "TX",
        "postalCode": "78006-2750"
      },
      {
        "line": [
          "11407 Wayland Way"
        ],
        "city": "SAN ANTONIO",
        "state": "TX",
        "postalCode": "78223-5890"
      },
      {
        "line": [
          "1195 Garner Field Road"
        ],
        "city": "UVALDE",
        "state": "TX",
        "postalCode": "78801-4820"
      },
      {
        "line": [
          "143 Sunset Rd",
          "Ste 100"
        ],
        "city": "SAN ANTONIO",
        "state": "TX",
        "postalCode": "78209-2659"
      },
      {
        "line": [
          "515 North King St",
          "Suite 105"
        ],
        "city": "SEGUIN",
        "state": "TX",
        "postalCode": "78155-4801"
      },
      {
        "line": [
          "555 Creekside Crossing"
        ],
        "city": "NEW BRAUNFELS",
        "state": "TX",
        "postalCode": "78130-2594"
      },
      {
        "line": [
          "3333 RESEARCH PLAZA"
        ],
        "city": "SAN ANTONIO",
        "state": "TX",
        "postalCode": "78235-5154"
      },
      {
        "line": [
          "8811 VILLAGE DR"
        ],
        "city": "SAN ANTONIO",
        "state": "TX",
        "postalCode": "78217-5415"
      },
      {
        "line": [
          "1808 Highway 97 East",
          "Suite B"
        ],
        "city": "JOURDANTON",
        "state": "TX",
        "postalCode": "78026-1536"
      },
      {
        "line": [
          "116 W Blanco Rd",
          "Suite 301"
        ],
        "city": "BOERNE",
        "state": "TX",
        "postalCode": "78006-2084"
      },
      {
        "line": [
          "718 Lexington Ave."
        ],
        "city": "SAN ANTONIO",
        "state": "TX",
        "postalCode": "78212-4768"
      },
      {
        "line": [
          "5027 Pecan Grove"
        ],
        "city": "SAN ANTONIO",
        "state": "TX",
        "postalCode": "78222-3529"
      },
      {
        "line": [
          "1905 Hwy 97 East"
        ],
        "city": "JOURDANTON",
        "state": "TX",
        "postalCode": "78026-1504"
      },
      {
        "line": [
          "8811 Village DR",
          "STE 100"
        ],
        "city": "SAN ANTONIO",
        "state": "TX",
        "postalCode": "78217-5415"
      },
      {
        "line": [
          "123 North Loop 1604 E",
          "Suite 107"
        ],
        "city": "SAN ANTONIO",
        "state": "TX",
        "postalCode": "78232-1390"
      },
      {
        "line": [
          "5307 Broadway",
          "Suite 130"
        ],
        "city": "SAN ANTONIO",
        "state": "TX",
        "postalCode": "78209-5724"
      },
      {
        "line": [
          "5330 North Loop 1604 West"
        ],
        "city": "SAN ANTONIO",
        "state": "TX",
        "postalCode": "78249-1371"
      },
      {
        "line": [
          "18600 N Hardy Oak Blvd"
        ],
        "city": "SAN ANTONIO",
        "state": "TX",
        "postalCode": "78258-4206"
      },
      {
        "line": [
          "9119 CINNAMON HL"
        ],
        "city": "SAN ANTONIO",
        "state": "TX",
        "postalCode": "78240-5401"
      },
      {
        "line": [
          "9522 Huebner Road"
        ],
        "city": "SAN ANTONIO",
        "state": "TX",
        "postalCode": "78240-1548"
      },
      {
        "line": [
          "8550 Datapoint",
          "Suite 100"
        ],
        "city": "SAN ANTONIO",
        "state": "TX",
        "postalCode": "78229-3436"
      },
      {
        "line": [
          "7719 IH 35 South"
        ],
        "city": "SAN ANTONIO",
        "state": "TX",
        "postalCode": "78239-1469"
      },
      {
        "line": [
          "6901 Snider Plaza",
          "Suite 300"
        ],
        "city": "DALLAS",
        "state": "TX",
        "postalCode": "75205-5650"
      },
      {
        "line": [
          "5510 PRESIDIO PKWY"
        ],
        "city": "SAN ANTONIO",
        "state": "TX",
        "postalCode": "78249-3192"
      },
      {
        "line": [
          "5510 Presidio Parkway"
        ],
        "city": "SAN ANTONIO",
        "state": "TX",
        "postalCode": "78249-3192"
      },
      {
        "line": [
          "1301 Wonder World Drive"
        ],
        "city": "SAN MARCOS",
        "state": "TX",
        "postalCode": "78666-7533"
      },
      {
        "line": [
          "5000 Baptist Drive",
          "Suite 101"
        ],
        "city": "SCHERTZ",
        "state": "TX",
        "postalCode": "78154-1194"
      },
      {
        "line": [
          "5330 N Loop 1604 W"
        ],
        "city": "SAN ANTONIO",
        "state": "TX",
        "postalCode": "78249-1371"
      },
      {
        "line": [
          "1738 Common Street"
        ],
        "city": "NEW BRAUNFELS",
        "state": "TX",
        "postalCode": "78130-6059"
      },
      {
        "line": [
          "3333 Research Plaza"
        ],
        "city": "SAN ANTONIO",
        "state": "TX",
        "postalCode": "78235-5154"
      },
      {
        "line": [
          "8902 Floyd Curl Dr"
        ],
        "city": "SAN ANTONIO",
        "state": "TX",
        "postalCode": "78240-1681"
      },
      {
        "line": [
          "4502 Medical Drive"
        ],
        "city": "SAN ANTONIO",
        "state": "TX",
        "postalCode": "78229-4402"
      },
      {
        "line": [
          "143 Sunset Road",
          "Suite 100"
        ],
        "city": "SAN ANTONIO",
        "state": "TX",
        "postalCode": "78209-2659"
      },
      {
        "line": [
          "403 Treeline Park"
        ],
        "city": "SAN ANTONIO",
        "state": "TX",
        "postalCode": "78209-2078"
      },
      {
        "line": [
          "11407 Wayland Way"
        ],
        "city": "SAN ANTONIO",
        "state": "TX",
        "postalCode": "78233-5890"
      },
      {
        "line": [
          "600 North Union Avenue"
        ],
        "city": "NEW BRAUNFELS",
        "state": "TX",
        "postalCode": "78130-4194"
      },
      {
        "line": [
          "112 Herff Rd",
          "Suite 200"
        ],
        "city": "BOERNE",
        "state": "TX",
        "postalCode": "78006-2751"
      },
      {
        "line": [
          "1023 State Highway 151"
        ],
        "city": "SAN ANTONIO",
        "state": "TX",
        "postalCode": "78251-0001"
      },
      {
        "line": [
          "524 Singing Oaks",
          "Suite 101"
        ],
        "city": "SPRING BRANCH",
        "state": "TX",
        "postalCode": "78070-6535"
      },
      {
        "line": [
          "5418 N LOOP 1604 W"
        ],
        "city": "SAN ANTONIO",
        "state": "TX",
        "postalCode": "78249-4558"
      },
      {
        "line": [
          "7400 Barlite Blvd"
        ],
        "city": "SAN ANTONIO",
        "state": "TX",
        "postalCode": "78224-1308"
      },
      {
        "line": [
          "1601 Redwood",
          "Suite B"
        ],
        "city": "SAN MARCOS",
        "state": "TX",
        "postalCode": "78666-1423"
      },
      {
        "line": [
          "1313 Veterans Blvd",
          "Suite F"
        ],
        "city": "CRYSTAL CITY",
        "state": "TX",
        "postalCode": "78839-1651"
      },
      {
        "line": [
          "5000 Baptist Health Drive",
          "Ste 102"
        ],
        "city": "SCHERTZ",
        "state": "TX",
        "postalCode": "78154-1194"
      },
      {
        "line": [
          "1215 E COURT ST"
        ],
        "city": "SEGUIN",
        "state": "TX",
        "postalCode": "78155-5129"
      },
      {
        "line": [
          "7105 North Bartlett Avenue"
        ],
        "city": "LAREDO",
        "state": "TX",
        "postalCode": "78041-6465"
      },
      {
        "line": [
          "111 Dallas Street",
          "4th Floor, Building C"
        ],
        "city": "SAN ANTONIO",
        "state": "TX",
        "postalCode": "78205-1201"
      },
      {
        "line": [
          "801 North Bedell Avenue"
        ],
        "city": "DEL RIO",
        "state": "TX",
        "postalCode": "78840-4112"
      },
      {
        "line": [
          "8230 N Loop 1604 W",
          "Suite 218"
        ],
        "city": "SAN ANTONIO",
        "state": "TX",
        "postalCode": "78249-2990"
      },
      {
        "line": [
          "2614 W. Commerce",
          "Ste 300"
        ],
        "city": "SAN ANTONIO",
        "state": "TX",
        "postalCode": "78207-3765"
      },
      {
        "line": [
          "5510 Presidio Parkway",
          "Suite 100"
        ],
        "city": "SAN ANTONIO",
        "state": "TX",
        "postalCode": "78249-3192"
      },
      {
        "line": [
          "17766 Verde Parkway",
          "Suite 100"
        ],
        "city": "SCHERTZ",
        "state": "TX",
        "postalCode": "78154-2224"
      },
      {
        "line": [
          "8200 Walnut Hill Lane"
        ],
        "city": "DALLAS",
        "state": "TX",
        "postalCode": "75231-4402"
      },
      {
        "line": [
          "4411 Medical Drive",
          "Suite 200"
        ],
        "city": "SAN ANTONIO",
        "state": "TX",
        "postalCode": "78229-3824"
      },
      {
        "line": [
          "74000 Barlite"
        ],
        "city": "SAN ANTONIO",
        "state": "TX",
        "postalCode": "78224-1308"
      },
      {
        "line": [
          "1215 E COURT ST."
        ],
        "city": "SEGUIN",
        "state": "TX",
        "postalCode": "78155-5129"
      },
      {
        "line": [
          "215 E Quincy St",
          "Suite 430"
        ],
        "city": "SAN ANTONIO",
        "state": "TX",
        "postalCode": "78215-2034"
      },
      {
        "line": [
          "5418 N LOOP 1604 W",
          "STE 250B"
        ],
        "city": "SAN ANTONIO",
        "state": "TX",
        "postalCode": "78249-1207"
      },
      {
        "line": [
          "6830 Heuermann Rd."
        ],
        "city": "SAN ANTONIO",
        "state": "TX",
        "postalCode": "78256-9603"
      },
      {
        "line": [
          "19226 Stonehue",
          "Suite 103"
        ],
        "city": "SAN ANTONIO",
        "state": "TX",
        "postalCode": "78258-3480"
      },
      {
        "line": [
          "502 MADISON OAK DR STE 310",
          "Suite 100"
        ],
        "city": "SAN ANTONIO",
        "state": "TX",
        "postalCode": "78258-4298"
      },
      {
        "line": [
          "3903 Wiseman Blvd",
          "STE 100"
        ],
        "city": "SAN ANTONIO",
        "state": "TX",
        "postalCode": "78251-4402"
      },
      {
        "line": [
          "403 Treeline Park"
        ],
        "city": "SAN ANTONIO",
        "state": "TX",
        "postalCode": "78209-2042"
      },
      {
        "line": [
          "7940 Floyd Curl Drive",
          "Ste 620"
        ],
        "city": "SAN ANTONIO",
        "state": "TX",
        "postalCode": "78229-3905"
      },
      {
        "line": [
          "3202 Ave G"
        ],
        "city": "HONDO",
        "state": "TX",
        "postalCode": "78861-3522"
      },
      {
        "line": [
          "5430 Fredericksburg Road",
          "Ste 400"
        ],
        "city": "SAN ANTONIO",
        "state": "TX",
        "postalCode": "78229-3539"
      },
      {
        "line": [
          "5330 N. Loop 1604 W"
        ],
        "city": "SAN ANTONIO",
        "state": "TX",
        "postalCode": "78249-1371"
      },
      {
        "line": [
          "9522 Huebner Rd"
        ],
        "city": "SAN ANTONIO",
        "state": "TX",
        "postalCode": "78240-1548"
      },
      {
        "line": [
          "545 Creekside Crossing",
          "Suite 218"
        ],
        "city": "NEW BRAUNFELS",
        "state": "TX",
        "postalCode": "78130-4274"
      },
      {
        "line": [
          "5430 Fredricksburg Rd",
          "Suite 400"
        ],
        "city": "SAN ANTONIO",
        "state": "TX",
        "postalCode": "78229-3539"
      },
      {
        "line": [
          "3202 Avenue G"
        ],
        "city": "HONDO",
        "state": "TX",
        "postalCode": "78861-3522"
      }
    ],
    "extension": [
      {
        "url": "https://fhir.athena.io/StructureDefinition/ah-practice",
        "valueReference": {
          "reference": "Organization/a-1.Practice-1438"
        }
      },
      {
        "url": "https://fhir.athena.io/StructureDefinition/ah-brand",
        "valueReference": {
          "reference": "Organization/a-1438.Brand-1"
        }
      }
    ]
  },
  "fullUrl": "urn:uuid:b8dc553d-48b5-53a9-9aa2-3caba90ef780"
}