{
  "resource": {
    "resourceType": "Organization",
    "id": "2c69d980-2b9d-5bcf-bd75-80c3226615d7",
    "name": "GSH Medical Care PC",
    "endpoint": [
      {
        "reference": "Endpoint/27a4e967-47aa-5a9c-a572-b8297ee268a2"
      },
      {
        "reference": "Endpoint/50390f0a-1bca-5d36-b407-3a6a7482788b"
      }
    ],
    "identifier": [
      {
        "system": "http://hl7.org/fhir/sid/us-npi",
        "value": "1912061706"
      },
      {
        "system": "http://hl7.org/fhir/sid/us-npi",
        "value": "1184787731"
      },
      {
        "system": "http://hl7.org/fhir/sid/us-npi",
        "value": "1487694345"
      }
    ],
    "address": [
      {
        "line": [
          "2 Executive Dr",
          "Suite 406"
        ],
        "city": "SUFFERN",
        "state": "NY",
        "postalCode": "10901-8220"
      },
      {
        "line": [
          "171 Ramapo Rd"
        ],
        "city": "GARNERVILLE",
        "state": "NY",
        "postalCode": "10923-1552"
      },
      {
        "line": [
          "100 Commerce Dr"
        ],
        "city": "NEW WINDSOR",
        "state": "NY",
        "postalCode": "12553-6936"
      },
      {
        "line": [
          "36 College Ave"
        ],
        "city": "NANUET",
        "state": "NY",
        "postalCode": "10954-3093"
      },
      {
        "line": [
          "79 Route 59",
          "Suite 5"
        ],
        "city": "SUFFERN",
        "state": "NY",
        "postalCode": "10901-4900"
      },
      {
        "line": [
          "20 Squadron Blvd"
        ],
        "city": "NEW CITY",
        "state": "NY",
        "postalCode": "10956-5200"
      },
      {
        "line": [
          "257 Lafayette Ave"
        ],
        "city": "SUFFERN",
        "state": "NY",
        "postalCode": "10901-4830"
      },
      {
        "line": [
          "972 Route 45",
          "Suite 103"
        ],
        "city": "POMONA",
        "state": "NY",
        "postalCode": "10970-3566"
      },
      {
        "line": [
          "1592 Route 739"
        ],
        "city": "DINGMANS FERRY",
        "state": "PA",
        "postalCode": "18328-3513"
      }
    ],
    "extension": [
      {
        "url": "https://fhir.athena.io/StructureDefinition/ah-practice",
        "valueReference": {
          "reference": "Organization/a-1.Practice-797"
        }
      },
      {
        "url": "https://fhir.athena.io/StructureDefinition/ah-brand",
        "valueReference": {
          "reference": "Organization/a-797.Brand-1"
        }
      }
    ]
  },
  "fullUrl": "urn:uuid:2c69d980-2b9d-5bcf-bd75-80c3226615d7"
}