{
  "resource": {
    "resourceType": "Organization",
    "id": "33beea9e-0dad-5b74-a5aa-ab89a454afc4",
    "name": "Bryan Stone M.D., Inc.",
    "endpoint": [
      {
        "reference": "Endpoint/27a4e967-47aa-5a9c-a572-b8297ee268a2"
      },
      {
        "reference": "Endpoint/178ae61d-ee2d-5bfb-95b5-1ddd282a0e16"
      }
    ],
    "identifier": [
      {
        "system": "http://hl7.org/fhir/sid/us-npi",
        "value": "1922204890"
      }
    ],
    "address": [
      {
        "line": [
          "47111 MONROE ST"
        ],
        "city": "INDIO",
        "state": "CA",
        "postalCode": "92201-6739"
      },
      {
        "line": [
          "78030 WILDCAT DR",
          "STE 102"
        ],
        "city": "PALM DESERT",
        "state": "CA",
        "postalCode": "92211-1116"
      },
      {
        "line": [
          "39000 BOB HOPE DR"
        ],
        "city": "RANCHO MIRAGE",
        "state": "CA",
        "postalCode": "92270-3221"
      },
      {
        "line": [
          "30885 DATE PALM DR"
        ],
        "city": "CATHEDRAL CITY",
        "state": "CA",
        "postalCode": "92234-2958"
      },
      {
        "line": [
          "78030 WILDCAT DR"
        ],
        "city": "PALM DESERT",
        "state": "CA",
        "postalCode": "92211-1116"
      },
      {
        "line": [
          "46767 MONROE ST",
          "STE 101"
        ],
        "city": "INDIO",
        "state": "CA",
        "postalCode": "92201-5593"
      },
      {
        "line": [
          "6109 W RAMSEY"
        ],
        "city": "BANNING",
        "state": "CA",
        "postalCode": "92220-3051"
      },
      {
        "line": [
          "1180 N INDIAN CANYON DR.,",
          "SUITE W303"
        ],
        "city": "PALM SPRINGS",
        "state": "CA",
        "postalCode": "92262-4856"
      },
      {
        "line": [
          "41120 WASHINGTON ST",
          "STE 201"
        ],
        "city": "BERMUDA DUNES",
        "state": "CA",
        "postalCode": "92203-9215"
      },
      {
        "line": [
          "6900 W RAMSEY"
        ],
        "city": "BANNING",
        "state": "CA",
        "postalCode": "92220-3051"
      },
      {
        "line": [
          "82900 AVENUE 42",
          "STE E"
        ],
        "city": "INDIO",
        "state": "CA",
        "postalCode": "92203-9658"
      },
      {
        "line": [
          "69730 HIGHWAY 111",
          "STE 117"
        ],
        "city": "RANCHO MIRAGE",
        "state": "CA",
        "postalCode": "92270-2869"
      },
      {
        "line": [
          "1061 N INDIAN CANYON DR"
        ],
        "city": "PALM SPRINGS",
        "state": "CA",
        "postalCode": "92262-4856"
      },
      {
        "line": [
          "41501 CORPORATE WAY"
        ],
        "city": "PALM DESERT",
        "state": "CA",
        "postalCode": "92260-1974"
      },
      {
        "line": [
          "56845 29 PALMS HIGHWAY",
          "STE 102"
        ],
        "city": "YUCCA VALLEY",
        "state": "CA",
        "postalCode": "92284-5879"
      },
      {
        "line": [
          "1150 N INDIAN CANYON DR"
        ],
        "city": "PALM SPRINGS",
        "state": "CA",
        "postalCode": "92262-4856"
      },
      {
        "line": [
          "1536 E 6TH ST"
        ],
        "city": "BEAUMONT",
        "state": "CA",
        "postalCode": "92223-2508"
      }
    ],
    "extension": [
      {
        "url": "https://fhir.athena.io/StructureDefinition/ah-practice",
        "valueReference": {
          "reference": "Organization/a-1.Practice-20927"
        }
      },
      {
        "url": "https://fhir.athena.io/StructureDefinition/ah-brand",
        "valueReference": {
          "reference": "Organization/a-20927.Brand-1"
        }
      }
    ]
  },
  "fullUrl": "urn:uuid:33beea9e-0dad-5b74-a5aa-ab89a454afc4"
}