{
  "resource": {
    "resourceType": "Organization",
    "id": "11fbc5c9-b627-5fdc-adfb-1b4ec8136916",
    "name": "L.O.T. Health Services",
    "endpoint": [
      {
        "reference": "Endpoint/27a4e967-47aa-5a9c-a572-b8297ee268a2"
      },
      {
        "reference": "Endpoint/fd9a7078-02bd-58b3-88b0-3bcf7ce47194"
      }
    ],
    "identifier": [
      {
        "system": "http://hl7.org/fhir/sid/us-npi",
        "value": "1619367976"
      }
    ],
    "address": [
      {
        "line": [
          "4100 OKEECHOBEE BLVD"
        ],
        "city": "WEST PALM BEACH",
        "state": "FL",
        "postalCode": "33409-1801"
      },
      {
        "line": [
          "11924 FOREST HILL BLVD 10A-243",
          "1910 LAKE WORTH RD LW 33461"
        ],
        "city": "WELLINGTON",
        "state": "FL",
        "postalCode": "33414-8905"
      },
      {
        "line": [
          "11924 FOREST HILL BLVD 10A-243",
          "400 W AVE B BELLE GLADE 33430"
        ],
        "city": "WELLINGTON",
        "state": "FL",
        "postalCode": "33414-8905"
      },
      {
        "line": [
          "1144 6TH STREET, RIVIERA BEACH, FL  33404",
          "1144 6TH STREET RIVIERA BCH 33404"
        ],
        "city": "WEST PALM BEACH",
        "state": "FL",
        "postalCode": "33404-1400"
      },
      {
        "line": [
          "845 W PALM BCH RD SOUTH BAY 33493"
        ],
        "city": "SOUTH BAY",
        "state": "FL",
        "postalCode": "33493-0001"
      },
      {
        "line": [
          "11924 FOREST HILL BLVD 10A-243",
          "3000 CONGRESS PARK DR LW 33461"
        ],
        "city": "WELLINGTON",
        "state": "FL",
        "postalCode": "33414-8908"
      },
      {
        "line": [
          "11924 FOREST HILL BLVD 10A-243",
          "9078 ISAIAH LANE NPB 33418"
        ],
        "city": "WELLINGTON",
        "state": "FL",
        "postalCode": "33414-8908"
      },
      {
        "line": [
          "11924 FOREST HILL BLVD 10A-243"
        ],
        "city": "WELLINGTON",
        "state": "FL",
        "postalCode": "33414-8905"
      },
      {
        "line": [
          "11924 FOREST HILL BLVD 10A-243",
          "4152 W BLUE HERON BLVD 228 RIVIERA BCH 33404"
        ],
        "city": "WELLINGTON",
        "state": "FL",
        "postalCode": "33414-8905"
      },
      {
        "line": [
          "11924 FOREST HILL BLVD 10A-243",
          "100 2ND ST CANAL POINT 33438"
        ],
        "city": "WELLINGTON",
        "state": "FL",
        "postalCode": "33414-8905"
      },
      {
        "line": [
          "7721 N Military trail",
          "suite 1-2"
        ],
        "city": "PALM BEACH GARDENS",
        "state": "FL",
        "postalCode": "33410-7742"
      },
      {
        "line": [
          "11924 FOREST HILL BLVD 10A-243",
          "3342 SW HOSANAH LANE OKEECHOBEE 34974"
        ],
        "city": "WELLINGTON",
        "state": "FL",
        "postalCode": "33414-8905"
      },
      {
        "line": [
          "11924 FOREST HILL BLVD 10A-243",
          "3900 BROADWAY AVE WPB 33407"
        ],
        "city": "WELLINGTON",
        "state": "FL",
        "postalCode": "33414-8905"
      },
      {
        "line": [
          "11924 FOREST HILL BLVD 10A-243",
          "1389 SUMMIT PINES BLVD WPB 33415"
        ],
        "city": "WELLINGTON",
        "state": "FL",
        "postalCode": "33414-8905"
      },
      {
        "line": [
          "205 NE 2ND ST"
        ],
        "city": "OKEECHOBEE",
        "state": "FL",
        "postalCode": "34972-2974"
      },
      {
        "line": [
          "202 NE 2ND ST STE 7"
        ],
        "city": "OKEECHOBEE",
        "state": "FL",
        "postalCode": "34972-2960"
      },
      {
        "line": [
          "12777 WEST FOREST HILL BLVD",
          "STE 1502"
        ],
        "city": "WELLINGTON",
        "state": "FL",
        "postalCode": "33414-8905"
      },
      {
        "line": [
          "11924 FOREST HILL BLVD 10A-243",
          "306 SW 10TH STREET BELLE GLADE 33430"
        ],
        "city": "WELLINGTON",
        "state": "FL",
        "postalCode": "33414-8905"
      },
      {
        "line": [
          "11924 FOREST HILL BLVD",
          "10A-243"
        ],
        "city": "WELLINGTON",
        "state": "FL",
        "postalCode": "33414-8304"
      }
    ],
    "extension": [
      {
        "url": "https://fhir.athena.io/StructureDefinition/ah-practice",
        "valueReference": {
          "reference": "Organization/a-1.Practice-18813"
        }
      },
      {
        "url": "https://fhir.athena.io/StructureDefinition/ah-brand",
        "valueReference": {
          "reference": "Organization/a-18813.Brand-1"
        }
      }
    ]
  },
  "fullUrl": "urn:uuid:11fbc5c9-b627-5fdc-adfb-1b4ec8136916"
}