{
  "resource": {
    "resourceType": "Organization",
    "id": "0fc0f6b1-d89f-50c1-9c59-c29dc9db58c8",
    "name": "AMG SPECIALTY HOSPITAL - WICHITA",
    "endpoint": [
      {
        "reference": "Endpoint/27a4e967-47aa-5a9c-a572-b8297ee268a2"
      },
      {
        "reference": "Endpoint/7d203c48-c9f6-5921-bd2c-4d99de4a7831"
      }
    ],
    "identifier": [
      {
        "system": "http://hl7.org/fhir/sid/us-npi",
        "value": "1336671171"
      }
    ],
    "address": [
      {
        "line": [
          "1124 WEST 21ST ST"
        ],
        "city": "ANDOVER",
        "state": "KS",
        "postalCode": "67002-5500"
      },
      {
        "line": [
          "8200 W CENTRAL, SUITE B"
        ],
        "city": "WICHITA",
        "state": "KS",
        "postalCode": "67212-9503"
      },
      {
        "line": [
          "1151 N ROCK RD"
        ],
        "city": "WICHITA",
        "state": "KS",
        "postalCode": "67206-1262"
      },
      {
        "line": [
          "3601 N WEBB RD"
        ],
        "city": "WICHITA",
        "state": "KS",
        "postalCode": "67226-8129"
      },
      {
        "line": [
          "1861 N ROCK RD STE 105"
        ],
        "city": "WICHITA",
        "state": "KS",
        "postalCode": "67206-1264"
      },
      {
        "line": [
          "6401 PATTERSON PARKWAY"
        ],
        "city": "ARKANSAS CITY",
        "state": "KS",
        "postalCode": "67005-5701"
      },
      {
        "line": [
          "8080 E PAWNEE ST"
        ],
        "city": "WICHITA",
        "state": "KS",
        "postalCode": "67207-4575"
      },
      {
        "line": [
          "700 Medical Center Drive"
        ],
        "city": "NEWTON",
        "state": "KS",
        "postalCode": "67114-9014"
      },
      {
        "line": [
          "550 N HILLSIDE"
        ],
        "city": "WICHITA",
        "state": "KS",
        "postalCode": "67214-4910"
      },
      {
        "line": [
          "600 MEDICAL CENTER DRIVE"
        ],
        "city": "NEWTON",
        "state": "KS",
        "postalCode": "67114-8780"
      },
      {
        "line": [
          "6403 PATTERSON PARKWAY"
        ],
        "city": "ARKANSAS CITY",
        "state": "KS",
        "postalCode": "67005-5701"
      },
      {
        "line": [
          "700 W CENTRAL STE 103"
        ],
        "city": "EL DORADO",
        "state": "KS",
        "postalCode": "67042-2187"
      }
    ],
    "extension": [
      {
        "url": "https://fhir.athena.io/StructureDefinition/ah-practice",
        "valueReference": {
          "reference": "Organization/a-1.Practice-15837"
        }
      },
      {
        "url": "https://fhir.athena.io/StructureDefinition/ah-brand",
        "valueReference": {
          "reference": "Organization/a-15837.Brand-1"
        }
      }
    ]
  },
  "fullUrl": "urn:uuid:0fc0f6b1-d89f-50c1-9c59-c29dc9db58c8"
}