{
  "resource": {
    "resourceType": "Organization",
    "id": "77dfdbf7-e520-5ad3-89de-4a6646b9ac37",
    "name": "Brazos Valley Foot Care",
    "endpoint": [
      {
        "reference": "Endpoint/27a4e967-47aa-5a9c-a572-b8297ee268a2"
      },
      {
        "reference": "Endpoint/f3d9ce2a-233c-529b-82d5-1b01ccc25b46"
      }
    ],
    "identifier": [
      {
        "system": "http://hl7.org/fhir/sid/us-npi",
        "value": "1194839563"
      }
    ],
    "address": [
      {
        "line": [
          "831 TEHUACANA HWY"
        ],
        "city": "MEXIA",
        "state": "TX",
        "postalCode": "76667-1111"
      },
      {
        "line": [
          "2333 MANOR DR"
        ],
        "city": "BRYAN",
        "state": "TX",
        "postalCode": "77802-1907"
      },
      {
        "line": [
          "2827 KENT ST"
        ],
        "city": "BRYAN",
        "state": "TX",
        "postalCode": "77802-1111"
      },
      {
        "line": [
          "307 LIVE OAK ST"
        ],
        "city": "MARLIN",
        "state": "TX",
        "postalCode": "76661-2365"
      },
      {
        "line": [
          "2601 E. VILLA MARIA RD"
        ],
        "city": "BRYAN",
        "state": "TX",
        "postalCode": "77802-2040"
      },
      {
        "line": [
          "1105 ROCK PRAIRIE ROAD"
        ],
        "city": "COLLEGE STATION",
        "state": "TX",
        "postalCode": "77845-8344"
      },
      {
        "line": [
          "1600 JOSEPH DRIVE STE 2000"
        ],
        "city": "BRYAN",
        "state": "TX",
        "postalCode": "77802-1502"
      },
      {
        "line": [
          "110 SHULT DR"
        ],
        "city": "COLUMBUS",
        "state": "TX",
        "postalCode": "78934-3016"
      },
      {
        "line": [
          "2801 FRANCISCAN DRIVE"
        ],
        "city": "BRYAN",
        "state": "TX",
        "postalCode": "77802-2544"
      },
      {
        "line": [
          "3601 VICTORIA AVE"
        ],
        "city": "COLLEGE STATION",
        "state": "TX",
        "postalCode": "77845-5478"
      },
      {
        "line": [
          "2501 E. VILLA MARIA RD."
        ],
        "city": "BRYAN",
        "state": "TX",
        "postalCode": "77802-2036"
      },
      {
        "line": [
          "402 OAK STREET"
        ],
        "city": "BRYAN",
        "state": "TX",
        "postalCode": "77801-2545"
      },
      {
        "line": [
          "411 E. COLLARD"
        ],
        "city": "MADISONVILLE",
        "state": "TX",
        "postalCode": "77864-3306"
      },
      {
        "line": [
          "211 N MAIN ST"
        ],
        "city": "BREMOND",
        "state": "TX",
        "postalCode": "76629-5296"
      },
      {
        "line": [
          "4091 EASTCHESTER DRIVE"
        ],
        "city": "BRYAN",
        "state": "TX",
        "postalCode": "77802-4735"
      },
      {
        "line": [
          "884 US HWY 84 WEST"
        ],
        "city": "TEAGUE",
        "state": "TX",
        "postalCode": "75860-5142"
      },
      {
        "line": [
          "2345 MANOR DR"
        ],
        "city": "BRYAN",
        "state": "TX",
        "postalCode": "77802-1908"
      },
      {
        "line": [
          "1500 MEDICAL AVE"
        ],
        "city": "COLLEGE STATION",
        "state": "TX",
        "postalCode": "77845-7986"
      },
      {
        "line": [
          "700 N. HEARNE STREET"
        ],
        "city": "FRANKLIN",
        "state": "TX",
        "postalCode": "77856-4802"
      },
      {
        "line": [
          "44 N CUMMINGS ST"
        ],
        "city": "BELLVILLE",
        "state": "TX",
        "postalCode": "77418-1347"
      },
      {
        "line": [
          "2104 NORTH KARNES"
        ],
        "city": "CAMERON",
        "state": "TX",
        "postalCode": "76520-1055"
      },
      {
        "line": [
          "637 MEDICAL PARKWAY"
        ],
        "city": "BRENHAM",
        "state": "TX",
        "postalCode": "77833-5412"
      },
      {
        "line": [
          "625 MCCLINTIC DR"
        ],
        "city": "GROESBECK",
        "state": "TX",
        "postalCode": "76642-2135"
      },
      {
        "line": [
          "2815 VICTORY LANE"
        ],
        "city": "BRENHAM",
        "state": "TX",
        "postalCode": "77833-6074"
      },
      {
        "line": [
          "1604 ROCK PRAIRIE RD"
        ],
        "city": "COLLEGE STATION",
        "state": "TX",
        "postalCode": "77845-8345"
      },
      {
        "line": [
          "600 S. BONHAM STREET"
        ],
        "city": "MEXIA",
        "state": "TX",
        "postalCode": "76667-3603"
      },
      {
        "line": [
          "2202 NORTH TRAVIS AVE"
        ],
        "city": "CAMERON",
        "state": "TX",
        "postalCode": "76520-1665"
      },
      {
        "line": [
          "401 E HORTON ST"
        ],
        "city": "BRENHAM",
        "state": "TX",
        "postalCode": "77833-2407"
      },
      {
        "line": [
          "501 E SUMPTER"
        ],
        "city": "MEXIA",
        "state": "TX",
        "postalCode": "76667-2354"
      },
      {
        "line": [
          "2505 E. VILLA MARIA RD."
        ],
        "city": "BRYAN",
        "state": "TX",
        "postalCode": "77802-2069"
      },
      {
        "line": [
          "501 E WASHINGTON AVENUE"
        ],
        "city": "NAVASOTA",
        "state": "TX",
        "postalCode": "77868-3001"
      },
      {
        "line": [
          "1025 W YEAGUA ST"
        ],
        "city": "GROESBECK",
        "state": "TX",
        "postalCode": "76642-3529"
      },
      {
        "line": [
          "103 TEAKWOOD ROAD"
        ],
        "city": "CENTERVILLE",
        "state": "TX",
        "postalCode": "75833-2497"
      },
      {
        "line": [
          "601 TERRACE LANE N."
        ],
        "city": "MEXIA",
        "state": "TX",
        "postalCode": "76667-2099"
      },
      {
        "line": [
          "1103 WATER STREET"
        ],
        "city": "NAVASOTA",
        "state": "TX",
        "postalCode": "77868-3174"
      },
      {
        "line": [
          "1253 N VON MINDEN ST"
        ],
        "city": "LA GRANGE",
        "state": "TX",
        "postalCode": "78945-1262"
      },
      {
        "line": [
          "1700 E STONE ST"
        ],
        "city": "BRENHAM",
        "state": "TX",
        "postalCode": "77833-5150"
      },
      {
        "line": [
          "1103 ROCK PRAIRIE RD"
        ],
        "city": "COLLEGE STATION",
        "state": "TX",
        "postalCode": "77845-8344"
      },
      {
        "line": [
          "600 BACON STREET"
        ],
        "city": "MADISONVILLE",
        "state": "TX",
        "postalCode": "77864-2575"
      },
      {
        "line": [
          "700 MEDICAL PKWY"
        ],
        "city": "BRENHAM",
        "state": "TX",
        "postalCode": "77833-5413"
      },
      {
        "line": [
          "1121 PRAIRIE LEA ST"
        ],
        "city": "BRENHAM",
        "state": "TX",
        "postalCode": "77833-4014"
      },
      {
        "line": [
          "601 E. REUNION STREET"
        ],
        "city": "FAIRFIELD",
        "state": "TX",
        "postalCode": "75840-1634"
      },
      {
        "line": [
          "701 MCCLINTIC DR"
        ],
        "city": "GROESBECK",
        "state": "TX",
        "postalCode": "76642-2128"
      },
      {
        "line": [
          "109 SHULT DRIVE SUITE 200"
        ],
        "city": "COLUMBUS",
        "state": "TX",
        "postalCode": "78934-3015"
      },
      {
        "line": [
          "3312 LONGMIRE DR"
        ],
        "city": "COLLEGE STATION",
        "state": "TX",
        "postalCode": "77845-5812"
      },
      {
        "line": [
          "607 PARKSIDE DR."
        ],
        "city": "GROESBECK",
        "state": "TX",
        "postalCode": "76642-1124"
      },
      {
        "line": [
          "3850 COPPERCREST DRIVE"
        ],
        "city": "BRYAN",
        "state": "TX",
        "postalCode": "77802-5937"
      },
      {
        "line": [
          "1101 WOODSON DR"
        ],
        "city": "CALDWELL",
        "state": "TX",
        "postalCode": "77836-1052"
      },
      {
        "line": [
          "307 LIVE OAK ST."
        ],
        "city": "MARLIN",
        "state": "TX",
        "postalCode": "76661-2365"
      },
      {
        "line": [
          "2628 MILAM STREET"
        ],
        "city": "HUNTSVILLE",
        "state": "TX",
        "postalCode": "77340-6615"
      },
      {
        "line": [
          "318 S. MASONIC"
        ],
        "city": "BELLVILLE",
        "state": "TX",
        "postalCode": "77418-2516"
      },
      {
        "line": [
          "1115 INDUSTRIAL BLVD"
        ],
        "city": "BRENHAM",
        "state": "TX",
        "postalCode": "77833-1502"
      },
      {
        "line": [
          "611 ROSE MARIE BLVD"
        ],
        "city": "HEARNE",
        "state": "TX",
        "postalCode": "77859-3240"
      },
      {
        "line": [
          "2100 DOVE CROSSING"
        ],
        "city": "NAVASOTA",
        "state": "TX",
        "postalCode": "77868-5247"
      },
      {
        "line": [
          "44 NORTH CUMMINGS"
        ],
        "city": "BELLVILLE",
        "state": "TX",
        "postalCode": "77418-1347"
      },
      {
        "line": [
          "3095 CLUB DR"
        ],
        "city": "BRYAN",
        "state": "TX",
        "postalCode": "77807-1113"
      },
      {
        "line": [
          "1303 HWY 290 E"
        ],
        "city": "BRENHAM",
        "state": "TX",
        "postalCode": "77833-5928"
      },
      {
        "line": [
          "1115 ANDERSON STREET"
        ],
        "city": "COLLEGE STATION",
        "state": "TX",
        "postalCode": "77840-4465"
      },
      {
        "line": [
          "514 S BONHAM STREET SUITE D"
        ],
        "city": "MEXIA",
        "state": "TX",
        "postalCode": "76667-3664"
      },
      {
        "line": [
          "235 W PALM ST"
        ],
        "city": "BELLVILLE",
        "state": "TX",
        "postalCode": "77418-1372"
      },
      {
        "line": [
          "1851 CARROLL FANCHER WAY"
        ],
        "city": "COLLEGE STATION",
        "state": "TX",
        "postalCode": "77845-2036"
      },
      {
        "line": [
          "8733 NORTH TEXAS 6 FRONTAGE RD,"
        ],
        "city": "BRYAN",
        "state": "TX",
        "postalCode": "77807-1111"
      },
      {
        "line": [
          "200 N TAMMYE"
        ],
        "city": "MADISONVILLE",
        "state": "TX",
        "postalCode": "77864-3008"
      },
      {
        "line": [
          "219A E RAILROAD ROW"
        ],
        "city": "GIDDINGS",
        "state": "TX",
        "postalCode": "78942-2639"
      }
    ],
    "extension": [
      {
        "url": "https://fhir.athena.io/StructureDefinition/ah-practice",
        "valueReference": {
          "reference": "Organization/a-1.Practice-20666"
        }
      },
      {
        "url": "https://fhir.athena.io/StructureDefinition/ah-brand",
        "valueReference": {
          "reference": "Organization/a-20666.Brand-1"
        }
      }
    ]
  },
  "fullUrl": "urn:uuid:77dfdbf7-e520-5ad3-89de-4a6646b9ac37"
}