{
  "resource": {
    "resourceType": "Organization",
    "id": "aabe9cd6-fe91-5487-8507-f73ef70255cd",
    "name": "FORESTVIEW NURSING HOME OF WAREHAM",
    "endpoint": [
      {
        "reference": "Endpoint/27a4e967-47aa-5a9c-a572-b8297ee268a2"
      },
      {
        "reference": "Endpoint/7bc11a46-6457-51d0-807c-12132206a929"
      }
    ],
    "identifier": [
      {
        "system": "http://hl7.org/fhir/sid/us-npi",
        "value": "1538172705"
      }
    ],
    "address": [
      {
        "line": [
          "106 Main Street"
        ],
        "city": "WAREHAM",
        "state": "MA",
        "postalCode": "02571-2003"
      },
      {
        "line": [
          "54 Bodwell Street"
        ],
        "city": "AVON",
        "state": "MA",
        "postalCode": "02322-1193"
      },
      {
        "line": [
          "main Street"
        ],
        "city": "WAREHAM",
        "state": "MA",
        "postalCode": "02571"
      },
      {
        "line": [],
        "city": "WAREHAM",
        "state": "MA",
        "postalCode": "02571-2003"
      },
      {
        "line": [
          "101 PAGE ST"
        ],
        "city": "NEW BEDFORD",
        "state": "MA",
        "postalCode": "02740-3464"
      },
      {
        "line": [
          "106 MAIN STREET"
        ],
        "city": "WAREHAM",
        "state": "MA",
        "postalCode": "02571-2122"
      },
      {
        "line": [],
        "city": "Wareham",
        "state": "MA",
        "postalCode": "02571-2003"
      },
      {
        "line": [],
        "city": "wareham",
        "state": "MA",
        "postalCode": "02571-2003"
      },
      {
        "line": [
          "101 DUDLEY STREET"
        ],
        "city": "PROVIDENCE",
        "state": "RI",
        "postalCode": "02905-2401"
      },
      {
        "line": [
          "101 PAGE STREET"
        ],
        "city": "NEW BEDFORD",
        "state": "MA",
        "postalCode": "02740-3400"
      },
      {
        "line": [
          "PRIVATE RESIDENCE"
        ],
        "city": "WAREHAM",
        "state": "MA",
        "postalCode": "02571-2003"
      }
    ],
    "extension": [
      {
        "url": "https://fhir.athena.io/StructureDefinition/ah-practice",
        "valueReference": {
          "reference": "Organization/a-1.Practice-638"
        }
      },
      {
        "url": "https://fhir.athena.io/StructureDefinition/ah-brand",
        "valueReference": {
          "reference": "Organization/a-638.Brand-1"
        }
      }
    ]
  },
  "fullUrl": "urn:uuid:aabe9cd6-fe91-5487-8507-f73ef70255cd"
}