{
  "resource": {
    "resourceType": "Organization",
    "id": "23e6ffe4-0f9b-569c-9dfa-09a95b137eed",
    "name": "Tallahassee Orthopedic Clinic III PL",
    "endpoint": [
      {
        "reference": "Endpoint/27a4e967-47aa-5a9c-a572-b8297ee268a2"
      },
      {
        "reference": "Endpoint/cb903487-4aea-5134-b509-e8db3ae83770"
      }
    ],
    "identifier": [
      {
        "system": "http://hl7.org/fhir/sid/us-npi",
        "value": "1194778050"
      }
    ],
    "address": [
      {
        "line": [
          "1360 Brickyard Rd"
        ],
        "city": "Chipley",
        "state": "FL",
        "postalCode": "32428-6303"
      },
      {
        "line": [
          "407 E Ash St"
        ],
        "city": "Perry",
        "state": "FL",
        "postalCode": "32347-2104"
      },
      {
        "line": [
          "1608 Surgeons Dr"
        ],
        "city": "Tallahassee",
        "state": "FL",
        "postalCode": "32308-4631"
      },
      {
        "line": [
          "449 W 23rd St"
        ],
        "city": "PANAMA CITY",
        "state": "FL",
        "postalCode": "32405-4507"
      },
      {
        "line": [
          "1500 E Shotwell St"
        ],
        "city": "Bainbridge",
        "state": "GA",
        "postalCode": "39819-4256"
      },
      {
        "line": [
          "915 Gordon Ave"
        ],
        "city": "THOMASVILLE",
        "state": "GA",
        "postalCode": "31792-6614"
      },
      {
        "line": [
          "2626 Capital Medical Blvd"
        ],
        "city": "Tallahassee",
        "state": "FL",
        "postalCode": "32308-4402"
      },
      {
        "line": [
          "1155 5th ST SE"
        ],
        "city": "CAIRO",
        "state": "GA",
        "postalCode": "39828-3142"
      },
      {
        "line": [
          "4250 Hospital Dr"
        ],
        "city": "Marianna",
        "state": "FL",
        "postalCode": "32446-1917"
      },
      {
        "line": [
          "1300 Miccosukee Rd"
        ],
        "city": "Tallahassee",
        "state": "FL",
        "postalCode": "32308-5054"
      },
      {
        "line": [
          "1360 BRICKYARD RD"
        ],
        "city": "Chipley",
        "state": "FL",
        "postalCode": "32428-6303"
      },
      {
        "line": [
          "2535 Capital Medical Blvd"
        ],
        "city": "Tallahassee",
        "state": "FL",
        "postalCode": "32308-4624"
      },
      {
        "line": [
          "3334 Capital Medical Blvd",
          "Suite 700"
        ],
        "city": "Tallahassee",
        "state": "FL",
        "postalCode": "32308-4470"
      },
      {
        "line": [
          "3333 CAPITAL MEDICAL BLVD #400"
        ],
        "city": "TALLAHASSEE",
        "state": "FL",
        "postalCode": "32308-4470"
      },
      {
        "line": [
          "3334 Capital Medical Blvd #500"
        ],
        "city": "Tallahassee",
        "state": "FL",
        "postalCode": "32308-4483"
      },
      {
        "line": [
          "407 East Ash St"
        ],
        "city": "Perry",
        "state": "FL",
        "postalCode": "32347-2104"
      },
      {
        "line": [
          "1800 JENKS AVE"
        ],
        "city": "PANAMA CITY",
        "state": "FL",
        "postalCode": "32405-4642"
      }
    ],
    "extension": [
      {
        "url": "https://fhir.athena.io/StructureDefinition/ah-practice",
        "valueReference": {
          "reference": "Organization/a-1.Practice-16095"
        }
      },
      {
        "url": "https://fhir.athena.io/StructureDefinition/ah-brand",
        "valueReference": {
          "reference": "Organization/a-16095.Brand-1"
        }
      }
    ]
  },
  "fullUrl": "urn:uuid:23e6ffe4-0f9b-569c-9dfa-09a95b137eed"
}