{
  "resource": {
    "resourceType": "Organization",
    "id": "430afbc3-c127-552c-a4e8-66bc6ce8ce37",
    "name": "Tiesenga Surgical Associates, S.C.",
    "endpoint": [
      {
        "reference": "Endpoint/27a4e967-47aa-5a9c-a572-b8297ee268a2"
      },
      {
        "reference": "Endpoint/669d0d44-8691-5e4e-8e51-661b794f150f"
      }
    ],
    "identifier": [
      {
        "system": "http://hl7.org/fhir/sid/us-npi",
        "value": "1801876586"
      }
    ],
    "address": [
      {
        "line": [
          "4646 N Marine Dr"
        ],
        "city": "CHICAGO",
        "state": "IL",
        "postalCode": "60640-5759"
      },
      {
        "line": [
          "3 Erie Court"
        ],
        "city": "OAK PARK",
        "state": "IL",
        "postalCode": "60302-2519"
      },
      {
        "line": [
          "520 S. Maple"
        ],
        "city": "OAK PARK",
        "state": "IL",
        "postalCode": "60304-1022"
      },
      {
        "line": [
          "4646 N. Marine Dr"
        ],
        "city": "CHICAGO",
        "state": "IL",
        "postalCode": "60640-5759"
      },
      {
        "line": [
          "2875 W. 19th Street"
        ],
        "city": "CHICAGO",
        "state": "IL",
        "postalCode": "60623-3501"
      },
      {
        "line": [
          "1200 S. York Road"
        ],
        "city": "ELMHURST",
        "state": "IL",
        "postalCode": "60126-5626"
      },
      {
        "line": [
          "100 N. River Road"
        ],
        "city": "DES PLAINES",
        "state": "IL",
        "postalCode": "60016-1209"
      },
      {
        "line": [
          "3811 Highland Ave"
        ],
        "city": "DOWNERS GROVE",
        "state": "IL",
        "postalCode": "60515-1555"
      },
      {
        "line": [
          "2900 N Lakeshore Drive"
        ],
        "city": "CHICAGO",
        "state": "IL",
        "postalCode": "60657-5640"
      },
      {
        "line": [
          "7435 W. Talcott"
        ],
        "city": "CHICAGO",
        "state": "IL",
        "postalCode": "60631-3707"
      },
      {
        "line": [
          "155 E Brush Hill Rd"
        ],
        "city": "ELMHURST",
        "state": "IL",
        "postalCode": "60126-5658"
      },
      {
        "line": [
          "5645 W. Addison"
        ],
        "city": "CHICAGO",
        "state": "IL",
        "postalCode": "60634-4403"
      },
      {
        "line": [
          "3825 Highland Avenue, SUITE 307"
        ],
        "city": "DOWNERS GROVE",
        "state": "IL",
        "postalCode": "60515-1548"
      },
      {
        "line": [
          "355 Ridge Ave"
        ],
        "city": "EVANSTON",
        "state": "IL",
        "postalCode": "60202-3399"
      },
      {
        "line": [
          "2900 Lake Shore Drive"
        ],
        "city": "CHICAGO",
        "state": "IL",
        "postalCode": "60657-5640"
      },
      {
        "line": [
          "1225 W. Lake Street"
        ],
        "city": "MELROSE PARK",
        "state": "IL",
        "postalCode": "60160-4039"
      },
      {
        "line": [
          "2233 W Division Street"
        ],
        "city": "CHICAGO",
        "state": "IL",
        "postalCode": "60622-8151"
      },
      {
        "line": [
          "2875 W. 19th St."
        ],
        "city": "CHICAGO",
        "state": "IL",
        "postalCode": "60623-3501"
      },
      {
        "line": [
          "11650 S. Route 47"
        ],
        "city": "HUNTLEY",
        "state": "IL",
        "postalCode": "60142-9613"
      },
      {
        "line": [
          "7420 W.Central Ave"
        ],
        "city": "RIVER FOREST",
        "state": "IL",
        "postalCode": "60305-1800"
      }
    ],
    "extension": [
      {
        "url": "https://fhir.athena.io/StructureDefinition/ah-practice",
        "valueReference": {
          "reference": "Organization/a-1.Practice-6699"
        }
      },
      {
        "url": "https://fhir.athena.io/StructureDefinition/ah-brand",
        "valueReference": {
          "reference": "Organization/a-6699.Brand-1"
        }
      }
    ]
  },
  "fullUrl": "urn:uuid:430afbc3-c127-552c-a4e8-66bc6ce8ce37"
}