{
  "resource": {
    "resourceType": "Organization",
    "id": "34d79a1d-eb3c-56f0-aefe-e117b8e56f97",
    "name": "YMCA of Central Ohio",
    "endpoint": [
      {
        "reference": "Endpoint/27a4e967-47aa-5a9c-a572-b8297ee268a2"
      },
      {
        "reference": "Endpoint/abb5f7d5-468e-5806-be46-fb2282afef02"
      }
    ],
    "identifier": [
      {
        "system": "http://hl7.org/fhir/sid/us-npi",
        "value": "1326593302"
      }
    ],
    "address": [
      {
        "line": [
          "440 Nicholas Dr"
        ],
        "city": "CIRCLEVILLE",
        "state": "OH",
        "postalCode": "43113-1535"
      },
      {
        "line": [
          "3480 Refugee Rd"
        ],
        "city": "COLUMBUS",
        "state": "OH",
        "postalCode": "43232-4814"
      },
      {
        "line": [
          "380 Granville St"
        ],
        "city": "COLUMBUS",
        "state": "OH",
        "postalCode": "43230-2947"
      },
      {
        "line": [
          "40 W Long St"
        ],
        "city": "COLUMBUS",
        "state": "OH",
        "postalCode": "43215-2891"
      },
      {
        "line": [
          "400 N 20th St"
        ],
        "city": "COLUMBUS",
        "state": "OH",
        "postalCode": "43203-1549"
      },
      {
        "line": [
          "730 Collingwood Ave."
        ],
        "city": "COLUMBUS",
        "state": "OH",
        "postalCode": "43213-1746"
      },
      {
        "line": [
          "4515 Cosgray Rd"
        ],
        "city": "HILLIARD",
        "state": "OH",
        "postalCode": "43026-7787"
      },
      {
        "line": [
          "300 Sloan Blvd"
        ],
        "city": "BELLEFONTAINE",
        "state": "OH",
        "postalCode": "43311-9751"
      },
      {
        "line": [
          "555 YMCA Place"
        ],
        "city": "Gahanna",
        "state": "OH",
        "postalCode": "43230-6851"
      },
      {
        "line": [
          "470 W Church St"
        ],
        "city": "NEWARK",
        "state": "OH",
        "postalCode": "43055-4236"
      },
      {
        "line": [
          "4500 Hickory Chase Way"
        ],
        "city": "HILLIARD",
        "state": "OH",
        "postalCode": "43026-6925"
      },
      {
        "line": [
          "1 Riverside Plaza"
        ],
        "city": "COLUMBUS",
        "state": "OH",
        "postalCode": "43215-2355"
      },
      {
        "line": [
          "1907 Leonard Avenue Suite 100"
        ],
        "city": "COLUMBUS",
        "state": "OH",
        "postalCode": "43219-4504"
      },
      {
        "line": [
          "1640 Sandalwood Pl"
        ],
        "city": "COLUMBUS",
        "state": "OH",
        "postalCode": "43229-3640"
      },
      {
        "line": [
          "645 Barks Rd E"
        ],
        "city": "MARION",
        "state": "OH",
        "postalCode": "43302-3892"
      },
      {
        "line": [
          "100 Mill St"
        ],
        "city": "CHILLICOTHE",
        "state": "OH",
        "postalCode": "45601-1662"
      },
      {
        "line": [
          "8500 Smith's Mill Rd"
        ],
        "city": "NEW ALBANY",
        "state": "OH",
        "postalCode": "43054-9132"
      },
      {
        "line": [
          "760 Worthington Woods Blvd"
        ],
        "city": "COLUMBUS",
        "state": "OH",
        "postalCode": "43085-5715"
      },
      {
        "line": [
          "3500 First Ave"
        ],
        "city": "GROVE CITY",
        "state": "OH",
        "postalCode": "43123-1390"
      },
      {
        "line": [
          "1121 South Houk Rd"
        ],
        "city": "DELAWARE",
        "state": "OH",
        "postalCode": "43015-3881"
      },
      {
        "line": [
          "2879 Valleyview Dr"
        ],
        "city": "COLUMBUS",
        "state": "OH",
        "postalCode": "43204-2010"
      },
      {
        "line": [
          "3600 Discovery Dr"
        ],
        "city": "GROVE CITY",
        "state": "OH",
        "postalCode": "43123-9482"
      },
      {
        "line": [
          "7798 Liberty Rd N"
        ],
        "city": "POWELL",
        "state": "OH",
        "postalCode": "43065-9707"
      },
      {
        "line": [
          "441 Industry Drive"
        ],
        "city": "COLUMBUS",
        "state": "OH",
        "postalCode": "43204-6234"
      },
      {
        "line": [
          "400 W. Dublin Granville Rd"
        ],
        "city": "COLUMBUS",
        "state": "OH",
        "postalCode": "43085-3590"
      },
      {
        "line": [
          "6767 Refugee Rd"
        ],
        "city": "CANAL WINCHESTER",
        "state": "OH",
        "postalCode": "43110-8682"
      },
      {
        "line": [
          "130 Woodland Ave"
        ],
        "city": "COLUMBUS",
        "state": "OH",
        "postalCode": "43203-1774"
      },
      {
        "line": [
          "671 S. High Street"
        ],
        "city": "COLUMBUS",
        "state": "OH",
        "postalCode": "43206-1066"
      },
      {
        "line": [
          "4445 East Broad Street"
        ],
        "city": "COLUMBUS",
        "state": "OH",
        "postalCode": "43213-1357"
      },
      {
        "line": [
          "2801 Lockbourne"
        ],
        "city": "COLUMBUS",
        "state": "OH",
        "postalCode": "43207-2630"
      }
    ],
    "extension": [
      {
        "url": "https://fhir.athena.io/StructureDefinition/ah-practice",
        "valueReference": {
          "reference": "Organization/a-1.Practice-14268"
        }
      },
      {
        "url": "https://fhir.athena.io/StructureDefinition/ah-brand",
        "valueReference": {
          "reference": "Organization/a-14268.Brand-1"
        }
      }
    ]
  },
  "fullUrl": "urn:uuid:34d79a1d-eb3c-56f0-aefe-e117b8e56f97"
}