{
  "resource": {
    "resourceType": "Organization",
    "id": "6eac8b90-0bca-5bbb-9c58-ea0dfa9c8a72",
    "name": "Lykos Medical Primary Care",
    "endpoint": [
      {
        "reference": "Endpoint/27a4e967-47aa-5a9c-a572-b8297ee268a2"
      },
      {
        "reference": "Endpoint/0e58760a-49d8-5177-b534-e9777f24e32c"
      }
    ],
    "identifier": [
      {
        "system": "http://hl7.org/fhir/sid/us-npi",
        "value": "1215423124"
      }
    ],
    "address": [
      {
        "line": [
          "14301 E ARAPAHOE RD"
        ],
        "city": "ENGLEWOOD",
        "state": "CO",
        "postalCode": "80112-1441"
      },
      {
        "line": [
          "1420 E FOUNTAIN BLVD"
        ],
        "city": "COLORADO SPRINGS",
        "state": "CO",
        "postalCode": "80910-3502"
      },
      {
        "line": [
          "2445 E CACHE LA POUDRE ST"
        ],
        "city": "COLORADO SPRINGS",
        "state": "CO",
        "postalCode": "80909-4812"
      },
      {
        "line": [
          "7560 LEXINGTON DR"
        ],
        "city": "COLORADO SPRINGS",
        "state": "CO",
        "postalCode": "80920-4166"
      },
      {
        "line": [
          "311 N LOGAN AVE"
        ],
        "city": "COLORADO SPRINGS",
        "state": "CO",
        "postalCode": "80909-5608"
      },
      {
        "line": [
          "8395 CLIFTON DR"
        ],
        "city": "COLORADO SPRINGS",
        "state": "CO",
        "postalCode": "80920-8065"
      },
      {
        "line": [
          "204 VALE ST"
        ],
        "city": "PALMER LAKE",
        "state": "CO",
        "postalCode": "80133-9400"
      },
      {
        "line": [
          "2402 WOODBURN ST"
        ],
        "city": "COLORADO SPRINGS",
        "state": "CO",
        "postalCode": "80906-3324"
      },
      {
        "line": [
          "33 LEGACY LN"
        ],
        "city": "TRINIDAD",
        "state": "CO",
        "postalCode": "81082-9300"
      },
      {
        "line": [
          "170 S DACONA DR"
        ],
        "city": "PUEBLO",
        "state": "CO",
        "postalCode": "81007-5403"
      },
      {
        "line": [
          "5355 CENTENNIAL BLVD"
        ],
        "city": "COLORADO SPRINGS",
        "state": "CO",
        "postalCode": "80919-3161"
      },
      {
        "line": [
          "1230 W 3RD ST"
        ],
        "city": "FLORENCE",
        "state": "CO",
        "postalCode": "81226-9406"
      },
      {
        "line": [
          "615 SOUTHPOINTE CT"
        ],
        "city": "COLORADO SPRINGS",
        "state": "CO",
        "postalCode": "80906-3855"
      },
      {
        "line": [
          "9112 GRAND CORDERA PKWY"
        ],
        "city": "COLORADO SPRINGS",
        "state": "CO",
        "postalCode": "80924-7020"
      },
      {
        "line": [
          "19 LOMA LINDA DR"
        ],
        "city": "COLORADO SPRINGS",
        "state": "CO",
        "postalCode": "80906-4312"
      },
      {
        "line": [
          "5055 OUTLOOK BLVD"
        ],
        "city": "PUEBLO",
        "state": "CO",
        "postalCode": "81008-1388"
      },
      {
        "line": [
          "1425 CEDAR AVE"
        ],
        "city": "CANON CITY",
        "state": "CO",
        "postalCode": "81212-5180"
      },
      {
        "line": [
          "14055 E QUINCY AVE"
        ],
        "city": "AURORA",
        "state": "CO",
        "postalCode": "80015-1146"
      },
      {
        "line": [
          "1815 ELM AVE"
        ],
        "city": "CANON CITY",
        "state": "CO",
        "postalCode": "81212-4524"
      },
      {
        "line": [
          "1414 N HANCOCK AVE"
        ],
        "city": "COLORADO SPRINGS",
        "state": "CO",
        "postalCode": "80903-2655"
      },
      {
        "line": [
          "2501 BENNETT AVE"
        ],
        "city": "COLORADO SPRINGS",
        "state": "CO",
        "postalCode": "80909-1209"
      },
      {
        "line": [
          "7610 N UNION BLVD STE 150"
        ],
        "city": "COLORADO SPRINGS",
        "state": "CO",
        "postalCode": "80920-3800"
      },
      {
        "line": [
          "2520 INTERNATIONAL CIR"
        ],
        "city": "COLORADO SPRINGS",
        "state": "CO",
        "postalCode": "80910-3132"
      },
      {
        "line": [
          "1 DARLENE DR"
        ],
        "city": "LA JUNTA",
        "state": "CO",
        "postalCode": "81050-9209"
      },
      {
        "line": [
          "900 S 12TH ST"
        ],
        "city": "ROCKY FORD",
        "state": "CO",
        "postalCode": "81067-2128"
      },
      {
        "line": [
          "6884 ANCESTRA DR"
        ],
        "city": "FOUNTAIN",
        "state": "CO",
        "postalCode": "80817-1548"
      },
      {
        "line": [
          "431 QUINCY ST"
        ],
        "city": "PUEBLO",
        "state": "CO",
        "postalCode": "81004-2027"
      },
      {
        "line": [
          "3125 BONAVENTURE CT"
        ],
        "city": "PUEBLO",
        "state": "CO",
        "postalCode": "81008-3101"
      },
      {
        "line": [
          "1685 S 21ST ST"
        ],
        "city": "COLORADO SPRINGS",
        "state": "CO",
        "postalCode": "80904-4207"
      },
      {
        "line": [
          "3315 EMMETT VW"
        ],
        "city": "COLORADO SPRINGS",
        "state": "CO",
        "postalCode": "80922-3225"
      },
      {
        "line": [
          "3205 LESLIE DR"
        ],
        "city": "COLORADO SPRINGS",
        "state": "CO",
        "postalCode": "80909-1039"
      },
      {
        "line": [
          "10975 HOWELLS RD"
        ],
        "city": "COLORADO SPRINGS",
        "state": "CO",
        "postalCode": "80908-3731"
      },
      {
        "line": [
          "1929 MEYERS AVE"
        ],
        "city": "COLORADO SPRINGS",
        "state": "CO",
        "postalCode": "80909-2149"
      },
      {
        "line": [
          "4547 PALISADES PARK VW"
        ],
        "city": "COLORADO SPRINGS",
        "state": "CO",
        "postalCode": "80906-8697"
      },
      {
        "line": [
          "3777 W 26TH AVE"
        ],
        "city": "DENVER",
        "state": "CO",
        "postalCode": "80211-4003"
      },
      {
        "line": [
          "4723 SURFWOOD LN"
        ],
        "city": "PUEBLO",
        "state": "CO",
        "postalCode": "81005-2668"
      },
      {
        "line": [
          "14221 E EVANS AVE"
        ],
        "city": "AURORA",
        "state": "CO",
        "postalCode": "80014-1459"
      },
      {
        "line": [
          "909 W 10TH ST"
        ],
        "city": "LA JUNTA",
        "state": "CO",
        "postalCode": "81050-2117"
      },
      {
        "line": [
          "720 E SPRINGMONT DR"
        ],
        "city": "PUEBLO",
        "state": "CO",
        "postalCode": "81007-3526"
      },
      {
        "line": [
          "320 N 8th St"
        ],
        "city": "HOLLY",
        "state": "CO",
        "postalCode": "81047-0636"
      },
      {
        "line": [
          "2045 ROANOKE ST"
        ],
        "city": "COLORADO SPRINGS",
        "state": "CO",
        "postalCode": "80906-3451"
      },
      {
        "line": [
          "3407 CARROLL ST"
        ],
        "city": "ALAMOSA",
        "state": "CO",
        "postalCode": "81101-2062"
      },
      {
        "line": [
          "9 S DORIS DR"
        ],
        "city": "FLORENCE",
        "state": "CO",
        "postalCode": "81226-9447"
      },
      {
        "line": [
          "1335 DARBY ST"
        ],
        "city": "COLORADO SPRINGS",
        "state": "CO",
        "postalCode": "80907-3704"
      },
      {
        "line": [
          "16601 JACKSON CREEK PKWY"
        ],
        "city": "MONUMENT",
        "state": "CO",
        "postalCode": "80132-7307"
      },
      {
        "line": [
          "3102 N. PROSPECT",
          "3102-3108"
        ],
        "city": "COLORADO SPRINGS",
        "state": "CO",
        "postalCode": "80907-5563"
      },
      {
        "line": [
          "5820 FLINTRIDGE DR"
        ],
        "city": "COLORADO SPRINGS",
        "state": "CO",
        "postalCode": "80918-1883"
      },
      {
        "line": [
          "1577 TURNER RD"
        ],
        "city": "COLORADO SPRINGS",
        "state": "CO",
        "postalCode": "80920-3437"
      },
      {
        "line": [
          "55 BEACON LITE RD"
        ],
        "city": "MONUMENT",
        "state": "CO",
        "postalCode": "80132-4409"
      },
      {
        "line": [
          "3455 N CAREFREE CIR"
        ],
        "city": "COLORADO SPRINGS",
        "state": "CO",
        "postalCode": "80917-5089"
      },
      {
        "line": [
          "12105 AMBASSADOR DR"
        ],
        "city": "COLORADO SPRINGS",
        "state": "CO",
        "postalCode": "80921-3642"
      },
      {
        "line": [
          "2365 PATRIOT HTS"
        ],
        "city": "COLORADO SPRINGS",
        "state": "CO",
        "postalCode": "80904-5135"
      },
      {
        "line": [
          "1020 N 15TH ST"
        ],
        "city": "CANON CITY",
        "state": "CO",
        "postalCode": "81212-2344"
      },
      {
        "line": [
          "5075 SADDLE DR"
        ],
        "city": "COLORADO SPRINGS",
        "state": "CO",
        "postalCode": "80918-3627"
      },
      {
        "line": [
          "2450 LOWER GOLD CAMP RD"
        ],
        "city": "COLORADO SPRINGS",
        "state": "CO",
        "postalCode": "80906-5855"
      },
      {
        "line": [
          "19160 COTTONWOOD DR"
        ],
        "city": "PARKER",
        "state": "CO",
        "postalCode": "80138-8870"
      },
      {
        "line": [
          "2494 INTERNATIONAL CIR"
        ],
        "city": "COLORADO SPRINGS",
        "state": "CO",
        "postalCode": "80910-3153"
      },
      {
        "line": [
          "555 S ROCKRIMMON BLVD"
        ],
        "city": "COLORADO SPRINGS",
        "state": "CO",
        "postalCode": "80919-2000"
      },
      {
        "line": [
          "7600 SANDY ROCK PT"
        ],
        "city": "COLORADO SPRINGS",
        "state": "CO",
        "postalCode": "80924-5222"
      },
      {
        "line": [
          "409 BENEDICTA AVE"
        ],
        "city": "TRINIDAD",
        "state": "CO",
        "postalCode": "81082-2004"
      },
      {
        "line": [
          "10 W MONUMENT ST"
        ],
        "city": "COLORADO SPRINGS",
        "state": "CO",
        "postalCode": "80903-3216"
      },
      {
        "line": [
          "816 W KIOWA ST"
        ],
        "city": "COLORADO SPRINGS",
        "state": "CO",
        "postalCode": "80905-1423"
      },
      {
        "line": [
          "205 S 10TH ST"
        ],
        "city": "LAMAR",
        "state": "CO",
        "postalCode": "81052-2622"
      },
      {
        "line": [
          "9340 BURGESS RD"
        ],
        "city": "COLORADO SPRINGS",
        "state": "CO",
        "postalCode": "80908-4161"
      },
      {
        "line": [
          "1605 ELM CREEK VW"
        ],
        "city": "COLORADO SPRINGS",
        "state": "CO",
        "postalCode": "80907-7181"
      },
      {
        "line": [
          "1165 BROCKDELL DR"
        ],
        "city": "COLORADO SPRINGS",
        "state": "CO",
        "postalCode": "80911-3547"
      },
      {
        "line": [
          "2105 UNIVERSITY PARK BLVD"
        ],
        "city": "COLORADO SPRINGS",
        "state": "CO",
        "postalCode": "80918-3691"
      },
      {
        "line": [
          "1889 SILVERSMITH RD"
        ],
        "city": "COLORADO SPRINGS",
        "state": "CO",
        "postalCode": "80921-7237"
      },
      {
        "line": [
          "7716 S HUDSON CT"
        ],
        "city": "CENTENNIAL",
        "state": "CO",
        "postalCode": "80122-3809"
      },
      {
        "line": [
          "221 2ND ST"
        ],
        "city": "FOWLER",
        "state": "CO",
        "postalCode": "81039-1201"
      },
      {
        "line": [
          "2368 RESEARCH PKWY"
        ],
        "city": "COLORADO SPRINGS",
        "state": "CO",
        "postalCode": "80920-1027"
      },
      {
        "line": [
          "2277 EAST DR"
        ],
        "city": "MONTE VISTA",
        "state": "CO",
        "postalCode": "81144-9330"
      },
      {
        "line": [
          "3920 E SAN MIGUEL ST"
        ],
        "city": "COLORADO SPRINGS",
        "state": "CO",
        "postalCode": "80909-3427"
      },
      {
        "line": [
          "2850 N ACADEMY BLVD"
        ],
        "city": "COLORADO SPRINGS",
        "state": "CO",
        "postalCode": "80917-5306"
      },
      {
        "line": [
          "2780 VICKERS DR"
        ],
        "city": "COLORADO SPRINGS",
        "state": "CO",
        "postalCode": "80918-8903"
      },
      {
        "line": [
          "945 TENDERFOOT HILL RD"
        ],
        "city": "COLORADO SPRINGS",
        "state": "CO",
        "postalCode": "80906-3920"
      }
    ],
    "extension": [
      {
        "url": "https://fhir.athena.io/StructureDefinition/ah-practice",
        "valueReference": {
          "reference": "Organization/a-1.Practice-26269"
        }
      },
      {
        "url": "https://fhir.athena.io/StructureDefinition/ah-brand",
        "valueReference": {
          "reference": "Organization/a-26269.Brand-1"
        }
      }
    ]
  },
  "fullUrl": "urn:uuid:6eac8b90-0bca-5bbb-9c58-ea0dfa9c8a72"
}