{
  "resource": {
    "resourceType": "Organization",
    "id": "ac9d3c8c-a844-5330-ab71-ee586e1af37a",
    "name": "Orthopedic Associates",
    "endpoint": [
      {
        "reference": "Endpoint/27a4e967-47aa-5a9c-a572-b8297ee268a2"
      },
      {
        "reference": "Endpoint/d1d47cdf-6ddd-5266-97be-b64a16252917"
      }
    ],
    "identifier": [
      {
        "system": "http://hl7.org/fhir/sid/us-npi",
        "value": "1013689769"
      }
    ],
    "address": [
      {
        "line": [
          "1650 West College Street"
        ],
        "city": "GRAPEVINE",
        "state": "TX",
        "postalCode": "76051-0900"
      },
      {
        "line": [
          "4400 Long Prairie Rd"
        ],
        "city": "FLOWER MOUND",
        "state": "TX",
        "postalCode": "75028-2783"
      },
      {
        "line": [
          "1650 W College Street"
        ],
        "city": "GRAPEVINE",
        "state": "TX",
        "postalCode": "76051-0900"
      },
      {
        "line": [
          "5000 Long Prairie Rd",
          "Suite 100"
        ],
        "city": "FLOWER MOUND",
        "state": "TX",
        "postalCode": "75028-2783"
      },
      {
        "line": [
          "350 I-35E"
        ],
        "city": "DENTON",
        "state": "TX",
        "postalCode": "76205-0700"
      },
      {
        "line": [
          "5000 LONG PRAIRIE RD STE 202"
        ],
        "city": "FLOWER MOUND",
        "state": "TX",
        "postalCode": "75028-2783"
      },
      {
        "line": [
          "1650 W College St"
        ],
        "city": "GRAPEVINE",
        "state": "TX",
        "postalCode": "76051-3565"
      },
      {
        "line": [
          "500 W Main"
        ],
        "city": "LEWISVILLE",
        "state": "TX",
        "postalCode": "75057-3629"
      },
      {
        "line": [
          "3535 S Interstate 35"
        ],
        "city": "DENTON",
        "state": "TX",
        "postalCode": "76210-6875"
      },
      {
        "line": [
          "1234 FM 407"
        ],
        "city": "Northlake",
        "state": "TX",
        "postalCode": "76226-2717"
      }
    ],
    "extension": [
      {
        "url": "https://fhir.athena.io/StructureDefinition/ah-practice",
        "valueReference": {
          "reference": "Organization/a-1.Practice-23106"
        }
      },
      {
        "url": "https://fhir.athena.io/StructureDefinition/ah-brand",
        "valueReference": {
          "reference": "Organization/a-23106.Brand-1"
        }
      }
    ]
  },
  "fullUrl": "urn:uuid:ac9d3c8c-a844-5330-ab71-ee586e1af37a"
}