{
  "resource": {
    "resourceType": "Organization",
    "id": "a645a919-800a-56c7-b08b-33783856c094",
    "name": "Alpha Family Medicine",
    "endpoint": [
      {
        "reference": "Endpoint/27a4e967-47aa-5a9c-a572-b8297ee268a2"
      },
      {
        "reference": "Endpoint/f1e5813f-19aa-56d2-be52-c0115da9fdb7"
      }
    ],
    "identifier": [
      {
        "system": "http://hl7.org/fhir/sid/us-npi",
        "value": "1205243458"
      }
    ],
    "address": [
      {
        "line": [
          "350 Market Pl"
        ],
        "city": "ROSWELL",
        "state": "GA",
        "postalCode": "30075-3928"
      },
      {
        "line": [
          "5835 Medlock Bridge RD"
        ],
        "city": "ALPHARETTA",
        "state": "GA",
        "postalCode": "30022-7320"
      },
      {
        "line": [
          "290 Ranchette RD"
        ],
        "city": "ALPHARETTA",
        "state": "GA",
        "postalCode": "30004-3754"
      },
      {
        "line": [
          "3700 Brookside Parkway"
        ],
        "city": "ALPHARETTA",
        "state": "GA",
        "postalCode": "30022-1476"
      },
      {
        "line": [
          "3300 WEBB BRIDGE RD"
        ],
        "city": "ALPHARETTA",
        "state": "GA",
        "postalCode": "30005-4572"
      },
      {
        "line": [
          "655 MANSELL RD"
        ],
        "city": "ROSWELL",
        "state": "GA",
        "postalCode": "30076-4868"
      },
      {
        "line": [
          "143 Mayfield RD"
        ],
        "city": "ALPHARETTA",
        "state": "GA",
        "postalCode": "30009-1537"
      },
      {
        "line": [
          "75 Magnolia St"
        ],
        "city": "ROSWELL",
        "state": "GA",
        "postalCode": "30075-4381"
      },
      {
        "line": [
          "75 MAGNOLIA ST"
        ],
        "city": "ROSWELL",
        "state": "GA",
        "postalCode": "30075-4381"
      },
      {
        "line": [
          "1929 FRIENDSHIP RD"
        ],
        "city": "HOSCHTON",
        "state": "GA",
        "postalCode": "30548-4192"
      },
      {
        "line": [
          "1070 HARDSCRABBLE RD"
        ],
        "city": "ROSWELL",
        "state": "GA",
        "postalCode": "30075-4697"
      },
      {
        "line": [
          "480 N main Street",
          "suite 202"
        ],
        "city": "ALPHARETTA",
        "state": "GA",
        "postalCode": "30009-8385"
      },
      {
        "line": [
          "400 MARIETTA HWY"
        ],
        "city": "ROSWELL",
        "state": "GA",
        "postalCode": "30075-4706"
      },
      {
        "line": [
          "4125 north point pkwy"
        ],
        "city": "ALPHARETTA",
        "state": "GA",
        "postalCode": "30022-4100"
      },
      {
        "line": [
          "762 N. Main Street"
        ],
        "city": "ALPHARETTA",
        "state": "GA",
        "postalCode": "30009-2376"
      },
      {
        "line": [
          "11965 Old Mountain Park Rd NE"
        ],
        "city": "ROSWELL",
        "state": "GA",
        "postalCode": "30075-1729"
      },
      {
        "line": [
          "555 Wills Road"
        ],
        "city": "ALPHARETTA",
        "state": "GA",
        "postalCode": "30009-1818"
      },
      {
        "line": [
          "11725 Pointe Pl"
        ],
        "city": "ROSWELL",
        "state": "GA",
        "postalCode": "30076-4636"
      },
      {
        "line": [
          "1520 JAMES BURGESS RD"
        ],
        "city": "SUWANEE",
        "state": "GA",
        "postalCode": "30024-1117"
      },
      {
        "line": [
          "11450 Morris Rd"
        ],
        "city": "ALPHARETTA",
        "state": "GA",
        "postalCode": "30009-8385"
      },
      {
        "line": [
          "12300 MORRIS RD"
        ],
        "city": "ALPHARETTA",
        "state": "GA",
        "postalCode": "30005-4584"
      },
      {
        "line": [
          "1000 APPLEWOOD DR"
        ],
        "city": "ROSWELL",
        "state": "GA",
        "postalCode": "30076-1395"
      },
      {
        "line": [
          "5470 Meridian Mark Rd Bldg"
        ],
        "city": "ATLANTA",
        "state": "GA",
        "postalCode": "30342-1624"
      },
      {
        "line": [
          "7955 Majors Rd"
        ],
        "city": "CUMMING",
        "state": "GA",
        "postalCode": "30041-7054"
      },
      {
        "line": [
          "480 NORTH MAIN STREET",
          "Suite 202"
        ],
        "city": "ALPHARETTA",
        "state": "GA",
        "postalCode": "30009-8386"
      },
      {
        "line": [
          "2950 OLD ALABAMA RD"
        ],
        "city": "ALPHARETTA",
        "state": "GA",
        "postalCode": "30022-8595"
      },
      {
        "line": [
          "5455 Glenridge Dr"
        ],
        "city": "ATLANTA",
        "state": "GA",
        "postalCode": "30342-4968"
      },
      {
        "line": [
          "5690 State Bridge Road"
        ],
        "city": "ALPHARETTA",
        "state": "GA",
        "postalCode": "30022-6002"
      },
      {
        "line": [
          "2285 Peachtree Parkway"
        ],
        "city": "CUMMING",
        "state": "GA",
        "postalCode": "30041-7245"
      },
      {
        "line": [
          "350 MARKET PL"
        ],
        "city": "ROSWELL",
        "state": "GA",
        "postalCode": "30075-3928"
      },
      {
        "line": [
          "5470 Meridian Mark Rd"
        ],
        "city": "ATLANTA",
        "state": "GA",
        "postalCode": "30342-1624"
      },
      {
        "line": [
          "12200 Crabapple Rd"
        ],
        "city": "ALPHARETTA",
        "state": "GA",
        "postalCode": "30004-4020"
      },
      {
        "line": [
          "655 Mansell Road"
        ],
        "city": "ROSWELL",
        "state": "GA",
        "postalCode": "30076-4868"
      },
      {
        "line": [
          "3950 Towne Pkwy"
        ],
        "city": "CUMMING",
        "state": "GA",
        "postalCode": "30041-1335"
      },
      {
        "line": [
          "8480 Roswell Rd"
        ],
        "city": "ATLANTA",
        "state": "GA",
        "postalCode": "30350-1000"
      },
      {
        "line": [
          "2775 Castleberry Rd"
        ],
        "city": "CUMMING",
        "state": "GA",
        "postalCode": "30040-5803"
      },
      {
        "line": [
          "550 BARRINGTON DR"
        ],
        "city": "ROSWELL",
        "state": "GA",
        "postalCode": "30075-4412"
      },
      {
        "line": [
          "2925 Webb Road"
        ],
        "city": "ALPHARETTA",
        "state": "GA",
        "postalCode": "30004-4483"
      },
      {
        "line": [
          "295 E CROSSVILLE RD"
        ],
        "city": "ROSWELL",
        "state": "GA",
        "postalCode": "30075-3027"
      },
      {
        "line": [
          "290 Meadow Drive"
        ],
        "city": "ALPHARETTA",
        "state": "GA",
        "postalCode": "30009-1544"
      },
      {
        "line": [
          "100 Somerby Drive"
        ],
        "city": "ALPHARETTA",
        "state": "GA",
        "postalCode": "30009-8780"
      },
      {
        "line": [
          "13291 Highway 92"
        ],
        "city": "WOODSTOCK",
        "state": "GA",
        "postalCode": "30188-4455"
      },
      {
        "line": [
          "11190 Medlock Bridge"
        ],
        "city": "DULUTH",
        "state": "GA",
        "postalCode": "30097-2578"
      },
      {
        "line": [
          "2925 Webb Road"
        ],
        "city": "Milton",
        "state": "GA",
        "postalCode": "30004-4483"
      }
    ],
    "extension": [
      {
        "url": "https://fhir.athena.io/StructureDefinition/ah-practice",
        "valueReference": {
          "reference": "Organization/a-1.Practice-9927"
        }
      },
      {
        "url": "https://fhir.athena.io/StructureDefinition/ah-brand",
        "valueReference": {
          "reference": "Organization/a-9927.Brand-1"
        }
      }
    ]
  },
  "fullUrl": "urn:uuid:a645a919-800a-56c7-b08b-33783856c094"
}