{
  "resource": {
    "resourceType": "Organization",
    "id": "fe8195e3-f4f5-51f7-994f-645216e9fb02",
    "name": "AUBURN CREST PRIMARY AND PALLIATIVE CARE",
    "endpoint": [
      {
        "reference": "Endpoint/27a4e967-47aa-5a9c-a572-b8297ee268a2"
      },
      {
        "reference": "Endpoint/4463444d-98ee-5c37-a442-e412aba29635"
      }
    ],
    "identifier": [
      {
        "system": "http://hl7.org/fhir/sid/us-npi",
        "value": "1083098727"
      }
    ],
    "address": [
      {
        "line": [
          "1908 N 13TH ST"
        ],
        "city": "BOISE",
        "state": "ID",
        "postalCode": "83702-2736"
      },
      {
        "line": [
          "421 Crescent Drive"
        ],
        "city": "CALDWELL",
        "state": "ID",
        "postalCode": "83605-5236"
      },
      {
        "line": [
          "3749 N CLOVERDALE RD"
        ],
        "city": "BOISE",
        "state": "ID",
        "postalCode": "83713-3610"
      },
      {
        "line": [
          "715 W COMSTOCK AVE"
        ],
        "city": "NAMPA",
        "state": "ID",
        "postalCode": "83651-8406"
      },
      {
        "line": [
          "3989 E WINTERBERRY DR"
        ],
        "city": "NAMPA",
        "state": "ID",
        "postalCode": "83687-7517"
      },
      {
        "line": [
          "3165 N MERIDIAN RD"
        ],
        "city": "MERIDIAN",
        "state": "ID",
        "postalCode": "83646-6995"
      },
      {
        "line": [
          "3559 W BAVARIA ST"
        ],
        "city": "EAGLE",
        "state": "ID",
        "postalCode": "83616-7474"
      },
      {
        "line": [
          "940 W 8TH S"
        ],
        "city": "MOUNTAIN HOME",
        "state": "ID",
        "postalCode": "83647-3681"
      },
      {
        "line": [
          "620 9TH ST"
        ],
        "city": "MIDDLETON",
        "state": "ID",
        "postalCode": "83644-6044"
      },
      {
        "line": [
          "2600 N MILWAUKEE ST"
        ],
        "city": "BOISE",
        "state": "ID",
        "postalCode": "83704-5784"
      },
      {
        "line": [
          "1127 CALDWELL BLVD"
        ],
        "city": "NAMPA",
        "state": "ID",
        "postalCode": "83651-1701"
      },
      {
        "line": [
          "8250 W MARIGOLD ST"
        ],
        "city": "GARDEN CITY",
        "state": "ID",
        "postalCode": "83714-1354"
      },
      {
        "line": [
          "3961 N ELGIN WAY"
        ],
        "city": "BOISE",
        "state": "ID",
        "postalCode": "83713-3837"
      },
      {
        "line": [
          "767 E PARKCENTER BLVD"
        ],
        "city": "BOISE",
        "state": "ID",
        "postalCode": "83706-6550"
      },
      {
        "line": [
          "104 N STORY BOOK WAY"
        ],
        "city": "EAGLE",
        "state": "ID",
        "postalCode": "83616-4890"
      },
      {
        "line": [
          "735 S 5TH W"
        ],
        "city": "MOUNTAIN HOME",
        "state": "ID",
        "postalCode": "83647-3318"
      },
      {
        "line": [
          "9 S MIDLAND BLVD"
        ],
        "city": "NAMPA",
        "state": "ID",
        "postalCode": "83651-2420"
      },
      {
        "line": [
          "3123 Arlington"
        ],
        "city": "CALDWELL",
        "state": "ID",
        "postalCode": "83605-5638"
      },
      {
        "line": [
          "4073 W PRICKLY PEAR DR"
        ],
        "city": "EAGLE",
        "state": "ID",
        "postalCode": "83616-7349"
      },
      {
        "line": [
          "1180 W OVERLAND RD"
        ],
        "city": "MERIDIAN",
        "state": "ID",
        "postalCode": "83642-6513"
      },
      {
        "line": [
          "1695 S LOCUST GROVE RD"
        ],
        "city": "MERIDIAN",
        "state": "ID",
        "postalCode": "83642-6620"
      },
      {
        "line": [
          "2604 IOWA AVE"
        ],
        "city": "CALDWELL",
        "state": "ID",
        "postalCode": "83605-5861"
      },
      {
        "line": [
          "779 S TENNYSON WAY"
        ],
        "city": "BOISE",
        "state": "ID",
        "postalCode": "83709-7738"
      },
      {
        "line": [
          "760 W MAIN ST"
        ],
        "city": "MIDDLETON",
        "state": "ID",
        "postalCode": "83644-5540"
      },
      {
        "line": [
          "2150 S ORCHARD ST"
        ],
        "city": "BOISE",
        "state": "ID",
        "postalCode": "83705-3647"
      },
      {
        "line": [
          "612 E MARYLAND AVE"
        ],
        "city": "NAMPA",
        "state": "ID",
        "postalCode": "83686-6103"
      },
      {
        "line": [
          "200 W BEECH ST"
        ],
        "city": "CALDWELL",
        "state": "ID",
        "postalCode": "83605-5692"
      },
      {
        "line": [
          "11099 W HIGHMONT DR"
        ],
        "city": "BOISE",
        "state": "ID",
        "postalCode": "83709-7702"
      },
      {
        "line": [
          "2703 S HARMONY AVE"
        ],
        "city": "BOISE",
        "state": "ID",
        "postalCode": "83706-5025"
      },
      {
        "line": [
          "2811 N RIDGE HAVEN WAY"
        ],
        "city": "MERIDIAN",
        "state": "ID",
        "postalCode": "83646-7279"
      },
      {
        "line": [
          "5850 N FIVE MILE RD"
        ],
        "city": "BOISE",
        "state": "ID",
        "postalCode": "83713-5466"
      },
      {
        "line": [
          "5955 W CASTLE DR"
        ],
        "city": "BOISE",
        "state": "ID",
        "postalCode": "83703-3215"
      },
      {
        "line": [
          "69 S MIDLAND BLVD"
        ],
        "city": "NAMPA",
        "state": "ID",
        "postalCode": "83651-2422"
      },
      {
        "line": [
          "4037 E CLOCKTOWER LN"
        ],
        "city": "MERIDIAN",
        "state": "ID",
        "postalCode": "83642-8183"
      },
      {
        "line": [
          "3570 E AMITY RD"
        ],
        "city": "MERIDIAN",
        "state": "ID",
        "postalCode": "83642-7014"
      },
      {
        "line": [
          "194 W WHITE WAY"
        ],
        "city": "KUNA",
        "state": "ID",
        "postalCode": "83634-2989"
      },
      {
        "line": [
          "3424 W HILL RD"
        ],
        "city": "BOISE",
        "state": "ID",
        "postalCode": "83703-4715"
      },
      {
        "line": [
          "3173 W BELLTOWER DR"
        ],
        "city": "MERIDIAN",
        "state": "ID",
        "postalCode": "83646-4882"
      },
      {
        "line": [
          "9327 W CORY LN"
        ],
        "city": "BOISE",
        "state": "ID",
        "postalCode": "83704-6808"
      },
      {
        "line": [
          "601 BLAINE AVE"
        ],
        "city": "NAMPA",
        "state": "ID",
        "postalCode": "83651-2457"
      },
      {
        "line": [
          "5277 W KOOTENAI ST"
        ],
        "city": "BOISE",
        "state": "ID",
        "postalCode": "83705-2671"
      },
      {
        "line": [
          "4355 W EMERALD ST"
        ],
        "city": "BOISE",
        "state": "ID",
        "postalCode": "83706-2050"
      },
      {
        "line": [
          "356 E CLEVELAND AVE"
        ],
        "city": "GLENNS FERRY",
        "state": "ID",
        "postalCode": "83623-2404"
      },
      {
        "line": [
          "126 N STORY BOOK WAY"
        ],
        "city": "EAGLE",
        "state": "ID",
        "postalCode": "83616-4890"
      },
      {
        "line": [
          "3266 E BARBER VALLEY DR"
        ],
        "city": "BOISE",
        "state": "ID",
        "postalCode": "83716-4751"
      },
      {
        "line": [
          "1745 E OAKCREST DR"
        ],
        "city": "MERIDIAN",
        "state": "ID",
        "postalCode": "83646-5730"
      },
      {
        "line": [
          "5815 N COFFEY ST"
        ],
        "city": "GARDEN CITY",
        "state": "ID",
        "postalCode": "83714-1300"
      }
    ],
    "extension": [
      {
        "url": "https://fhir.athena.io/StructureDefinition/ah-practice",
        "valueReference": {
          "reference": "Organization/a-1.Practice-33107"
        }
      },
      {
        "url": "https://fhir.athena.io/StructureDefinition/ah-brand",
        "valueReference": {
          "reference": "Organization/a-33107.Brand-1"
        }
      }
    ]
  },
  "fullUrl": "urn:uuid:fe8195e3-f4f5-51f7-994f-645216e9fb02"
}