{
  "resource": {
    "resourceType": "Organization",
    "id": "6865088e-165a-5f1c-a83c-36018fe28f56",
    "name": "Alden Estates of Jefferson",
    "endpoint": [
      {
        "reference": "Endpoint/27a4e967-47aa-5a9c-a572-b8297ee268a2"
      },
      {
        "reference": "Endpoint/d96d30bf-aa39-5cf5-b2fd-67704a57afaa"
      }
    ],
    "identifier": [
      {
        "system": "http://hl7.org/fhir/sid/us-npi",
        "value": "1043242886"
      }
    ],
    "address": [
      {
        "line": [
          "1669 Belvidere Rd"
        ],
        "city": "BELVIDERE",
        "state": "IL",
        "postalCode": "61008-9306"
      },
      {
        "line": [
          "2300 N Rockton Ave"
        ],
        "city": "ROCKFORD",
        "state": "IL",
        "postalCode": "61103-3619"
      },
      {
        "line": [
          "1747 Henry Luckow Ln"
        ],
        "city": "BELVIDERE",
        "state": "IL",
        "postalCode": "61008-1702"
      },
      {
        "line": [
          "5970 Churchview Dr"
        ],
        "city": "ROCKFORD",
        "state": "IL",
        "postalCode": "61107-2574"
      },
      {
        "line": [
          "1315 Memorial Dr"
        ],
        "city": "MENDOTA",
        "state": "IL",
        "postalCode": "61342-1447"
      },
      {
        "line": [
          "7180 Spring Brook Rd"
        ],
        "city": "ROCKFORD",
        "state": "IL",
        "postalCode": "61114-6700"
      },
      {
        "line": [
          "3401 N Perryville Rd Ste 203"
        ],
        "city": "Rockford",
        "state": "IL",
        "postalCode": "61114-8011"
      },
      {
        "line": [
          "7702 N Alpine Rd"
        ],
        "city": "LOVES PARK",
        "state": "IL",
        "postalCode": "61111-3107"
      },
      {
        "line": [
          "5000 Prairie Rose Dr"
        ],
        "city": "ROSCOE",
        "state": "IL",
        "postalCode": "61073-7792"
      },
      {
        "line": [
          "550 S Mulford Rd"
        ],
        "city": "ROCKFORD",
        "state": "IL",
        "postalCode": "61108-2511"
      },
      {
        "line": [
          "2350 N Rockton Ave"
        ],
        "city": "ROCKFORD",
        "state": "IL",
        "postalCode": "61103-3600"
      },
      {
        "line": [
          "7402 E Riverside Blvd"
        ],
        "city": "LOVES PARK",
        "state": "IL",
        "postalCode": "61111-9642"
      },
      {
        "line": [
          "7180 Spring Brook Rd Ste B"
        ],
        "city": "ROCKFORD",
        "state": "IL",
        "postalCode": "61114-6700"
      },
      {
        "line": [
          "2300 N. Rockton Avenue"
        ],
        "city": "ROCKFORD",
        "state": "IL",
        "postalCode": "61103-3619"
      },
      {
        "line": [
          "2400 N Rockton Ave"
        ],
        "city": "ROCKFORD",
        "state": "IL",
        "postalCode": "61103-3655"
      },
      {
        "line": [
          "2350 N Rockton Ave"
        ],
        "city": "ROCKFORD",
        "state": "IL",
        "postalCode": "61103-3669"
      },
      {
        "line": [
          "4401 Peak Dr"
        ],
        "city": "LOVES PARK",
        "state": "IL",
        "postalCode": "61111-8001"
      },
      {
        "line": [
          "2350 N Rockton Ave Ste 310",
          "HOLD PER MICHELE LIPPERT"
        ],
        "city": "ROCKFORD",
        "state": "IL",
        "postalCode": "61103-3600"
      },
      {
        "line": [
          "3401 N Perryville Rd"
        ],
        "city": "ROCKFORD",
        "state": "IL",
        "postalCode": "61114-8011"
      },
      {
        "line": [
          "202 N Show Place Dr"
        ],
        "city": "ROCKFORD",
        "state": "IL",
        "postalCode": "61107-5351"
      },
      {
        "line": [
          "2350 N Rockton Ave"
        ],
        "city": "ROCKFORD",
        "state": "IL",
        "postalCode": "61103-3619"
      },
      {
        "line": [
          "1130 Collins Rd"
        ],
        "city": "JEFFERSON",
        "state": "WI",
        "postalCode": "53549-2939"
      },
      {
        "line": [
          "2591 N Mulford Rd"
        ],
        "city": "ROCKFORD",
        "state": "IL",
        "postalCode": "61114-5643"
      },
      {
        "line": [
          "102 Landmark Dr"
        ],
        "city": "WINNEBAGO",
        "state": "IL",
        "postalCode": "61088-7702"
      },
      {
        "line": [
          "130 Kysor Dr"
        ],
        "city": "BYRON",
        "state": "IL",
        "postalCode": "61010-9402"
      },
      {
        "line": [
          "7144 Kleckner Rd"
        ],
        "city": "ROCKFORD",
        "state": "IL",
        "postalCode": "61107-6821"
      },
      {
        "line": [
          "5727 Strathmoor Dr"
        ],
        "city": "ROCKFORD",
        "state": "IL",
        "postalCode": "61107-5181"
      },
      {
        "line": [
          "2500 N Rockton Ave"
        ],
        "city": "ROCKFORD",
        "state": "IL",
        "postalCode": "61103-3658"
      },
      {
        "line": [
          "2350 N Rockton Avenue"
        ],
        "city": "ROCKFORD",
        "state": "IL",
        "postalCode": "61103-3655"
      },
      {
        "line": [
          "2300 N ROckton Ave"
        ],
        "city": "ROCKFORD",
        "state": "IL",
        "postalCode": "61103-3619"
      },
      {
        "line": [
          "7180 Spring Brook Rd"
        ],
        "city": "ROCKFORD",
        "state": "IL",
        "postalCode": "61114-6738"
      },
      {
        "line": [
          "7375 1/2 North Ave"
        ],
        "city": "RIVER FOREST",
        "state": "IL",
        "postalCode": "60305-1230"
      },
      {
        "line": [
          "102 Landmark Dr"
        ],
        "city": "BELVIDERE",
        "state": "IL",
        "postalCode": "61008-0657"
      }
    ],
    "extension": [
      {
        "url": "https://fhir.athena.io/StructureDefinition/ah-practice",
        "valueReference": {
          "reference": "Organization/a-1.Practice-395"
        }
      },
      {
        "url": "https://fhir.athena.io/StructureDefinition/ah-brand",
        "valueReference": {
          "reference": "Organization/a-395.Brand-1"
        }
      }
    ]
  },
  "fullUrl": "urn:uuid:6865088e-165a-5f1c-a83c-36018fe28f56"
}