{
  "resource": {
    "resourceType": "Organization",
    "id": "a84dfe05-020f-51e7-945e-29ea84ad10e2",
    "name": "ExperCARE Occ Health",
    "endpoint": [
      {
        "reference": "Endpoint/27a4e967-47aa-5a9c-a572-b8297ee268a2"
      },
      {
        "reference": "Endpoint/66274c57-1118-5192-854a-db2c38502808"
      }
    ],
    "identifier": [
      {
        "system": "http://hl7.org/fhir/sid/us-npi",
        "value": "1821233354"
      },
      {
        "system": "http://hl7.org/fhir/sid/us-npi",
        "value": "1972518777"
      }
    ],
    "address": [
      {
        "line": [
          "818 ABERCORN ST"
        ],
        "city": "SAVANNAH",
        "state": "GA",
        "postalCode": "31401-5933"
      },
      {
        "line": [
          "5005 OSCAR BAXTER DR"
        ],
        "city": "TUSCALOOSA",
        "state": "AL",
        "postalCode": "35405-3698"
      },
      {
        "line": [
          "463 S Columbia Ave"
        ],
        "city": "RINCON",
        "state": "GA",
        "postalCode": "31326-9446"
      },
      {
        "line": [
          "632 W OGLETHORPE HWY",
          "STE A"
        ],
        "city": "HINESVILLE",
        "state": "GA",
        "postalCode": "31313-4700"
      },
      {
        "line": [
          "3909 MCFARLAND BLVD"
        ],
        "city": "NORTHPORT",
        "state": "AL",
        "postalCode": "35476-2838"
      },
      {
        "line": [
          "318 MALL BLVD STE 300B"
        ],
        "city": "SAVANNAH",
        "state": "GA",
        "postalCode": "31406-4758"
      },
      {
        "line": [
          "122 17TH CT NE"
        ],
        "city": "FAYETTE",
        "state": "AL",
        "postalCode": "35555-1353"
      },
      {
        "line": [
          "121 TORMENTA WAY BLDG 3"
        ],
        "city": "STATESBORO",
        "state": "GA",
        "postalCode": "30458-5697"
      },
      {
        "line": [
          "705 US HIGHWAY 80 W"
        ],
        "city": "DEMOPOLIS",
        "state": "AL",
        "postalCode": "36732-4113"
      },
      {
        "line": [
          "2201 POOLER PKWY STE 700"
        ],
        "city": "POOLER",
        "state": "GA",
        "postalCode": "31322-4407"
      },
      {
        "line": [
          "2708 HIGHWAY 78 E"
        ],
        "city": "JASPER",
        "state": "AL",
        "postalCode": "35501-3430"
      },
      {
        "line": [
          "60 EXCHANGE ST STE B7"
        ],
        "city": "RICHMOND HILL",
        "state": "GA",
        "postalCode": "31324-7646"
      },
      {
        "line": [
          "4960 RICE MINE RD NE",
          "STE 10"
        ],
        "city": "TUSCALOOSA",
        "state": "AL",
        "postalCode": "35406-3136"
      }
    ],
    "extension": [
      {
        "url": "https://fhir.athena.io/StructureDefinition/ah-practice",
        "valueReference": {
          "reference": "Organization/a-1.Practice-31652"
        }
      },
      {
        "url": "https://fhir.athena.io/StructureDefinition/ah-brand",
        "valueReference": {
          "reference": "Organization/a-31652.Brand-1"
        }
      }
    ]
  },
  "fullUrl": "urn:uuid:a84dfe05-020f-51e7-945e-29ea84ad10e2"
}