{
  "resource": {
    "resourceType": "Organization",
    "id": "c2483bf6-d67f-51f6-9b82-b1b7434e1193",
    "name": "Village Medical",
    "endpoint": [
      {
        "reference": "Endpoint/27a4e967-47aa-5a9c-a572-b8297ee268a2"
      },
      {
        "reference": "Endpoint/22ad8ecd-16d8-517d-9c5e-c404eef4fd09"
      }
    ],
    "identifier": [
      {
        "system": "http://hl7.org/fhir/sid/us-npi",
        "value": "1912573999"
      },
      {
        "system": "http://hl7.org/fhir/sid/us-npi",
        "value": "1598341067"
      },
      {
        "system": "http://hl7.org/fhir/sid/us-npi",
        "value": "1306449749"
      },
      {
        "system": "http://hl7.org/fhir/sid/us-npi",
        "value": "1861555294"
      }
    ],
    "address": [
      {
        "line": [
          "750 WASHINGTON ST"
        ],
        "city": "WEYMOUTH",
        "state": "MA",
        "postalCode": "02188-3325"
      },
      {
        "line": [
          "425 Albion Rd"
        ],
        "city": "LINCOLN",
        "state": "RI",
        "postalCode": "02865-4204"
      },
      {
        "line": [
          "7 KENDALL POND RD"
        ],
        "city": "DERRY",
        "state": "NH",
        "postalCode": "03038-7283"
      },
      {
        "line": [
          "8 Jennifer Drive"
        ],
        "city": "MERRIMACK",
        "state": "NH",
        "postalCode": "03054-0241"
      },
      {
        "line": [
          "208 NORTH RD"
        ],
        "city": "SANDOWN",
        "state": "NH",
        "postalCode": "03873-2081"
      },
      {
        "line": [
          "201 8TH ST N"
        ],
        "city": "ELLENDALE",
        "state": "ND",
        "postalCode": "58436-7341"
      },
      {
        "line": [
          "1298 HOOKSETT RD"
        ],
        "city": "HOOKSETT",
        "state": "NH",
        "postalCode": "03106-1842"
      },
      {
        "line": [
          "2 Wake Robin Road",
          "Suite 103"
        ],
        "city": "LINCOLN",
        "state": "RI",
        "postalCode": "02865-4295"
      },
      {
        "line": [
          "2500 English Creek Ave",
          "Bldg. 700 Suite 702"
        ],
        "city": "EGG HARBOR TOWNSHIP",
        "state": "NJ",
        "postalCode": "08234-5549"
      },
      {
        "line": [
          "1583 ATWOOD AVE"
        ],
        "city": "JOHNSTON",
        "state": "RI",
        "postalCode": "02919-3232"
      },
      {
        "line": [
          "21 SEARLES RD"
        ],
        "city": "WINDHAM",
        "state": "NH",
        "postalCode": "03087-1203"
      },
      {
        "line": [
          "60 RIVER FRONT DR"
        ],
        "city": "MANCHESTER",
        "state": "NH",
        "postalCode": "03102-3237"
      },
      {
        "line": [
          "63 Cedar Ave",
          "Suite 7"
        ],
        "city": "EAST GREENWICH",
        "state": "RI",
        "postalCode": "02818-3191"
      },
      {
        "line": [
          "70 Hawthorne Drive"
        ],
        "city": "BEDFORD",
        "state": "NH",
        "postalCode": "03110-6953"
      },
      {
        "line": [
          "525 TILTON ROAD"
        ],
        "city": "NORTHFIELD",
        "state": "NJ",
        "postalCode": "08225-1217"
      },
      {
        "line": [
          "465 Mt Prospect Ave"
        ],
        "city": "NEWARK",
        "state": "NJ",
        "postalCode": "07104-2907"
      },
      {
        "line": [
          "176 TOLL GATE RD STE 103"
        ],
        "city": "WARWICK",
        "state": "RI",
        "postalCode": "02886-4479"
      },
      {
        "line": [
          "418 QUINCY AVE"
        ],
        "city": "QUINCY",
        "state": "MA",
        "postalCode": "02169-8130"
      },
      {
        "line": [
          "1195 N. Main Street"
        ],
        "city": "PROVIDENCE",
        "state": "RI",
        "postalCode": "02904-1824"
      },
      {
        "line": [
          "1620 NOOSENECK HILL RD"
        ],
        "city": "COVENTRY",
        "state": "RI",
        "postalCode": "02816-6705"
      },
      {
        "line": [
          "5 CORPORATE DR"
        ],
        "city": "BEDFORD",
        "state": "NH",
        "postalCode": "03110-5954"
      }
    ],
    "extension": [
      {
        "url": "https://fhir.athena.io/StructureDefinition/ah-practice",
        "valueReference": {
          "reference": "Organization/a-1.Practice-21654"
        }
      },
      {
        "url": "https://fhir.athena.io/StructureDefinition/ah-brand",
        "valueReference": {
          "reference": "Organization/a-21654.Brand-1"
        }
      }
    ]
  },
  "fullUrl": "urn:uuid:c2483bf6-d67f-51f6-9b82-b1b7434e1193"
}