{
  "resource": {
    "resourceType": "Organization",
    "id": "99b3a8bd-7f88-55de-bf9f-f753f6160140",
    "name": "NATIONAL HEALTHCARE OF MT VERNON, LLC",
    "endpoint": [
      {
        "reference": "Endpoint/27a4e967-47aa-5a9c-a572-b8297ee268a2"
      },
      {
        "reference": "Endpoint/fa55d4ec-fe08-5ba3-a583-e8089135bf23"
      }
    ],
    "identifier": [
      {
        "system": "http://hl7.org/fhir/sid/us-npi",
        "value": "1902143910"
      },
      {
        "system": "http://hl7.org/fhir/sid/us-npi",
        "value": "1528305448"
      },
      {
        "system": "http://hl7.org/fhir/sid/us-npi",
        "value": "1619214624"
      },
      {
        "system": "http://hl7.org/fhir/sid/us-npi",
        "value": "1063630820"
      }
    ],
    "address": [
      {
        "line": [
          "100 Mark Franklin St."
        ],
        "city": "BENTON",
        "state": "IL",
        "postalCode": "62812-2049"
      },
      {
        "line": [
          "405 W Carpenter St."
        ],
        "city": "MC LEANSBORO",
        "state": "IL",
        "postalCode": "62859-1012"
      },
      {
        "line": [
          "792 N Main St."
        ],
        "city": "ANNA",
        "state": "IL",
        "postalCode": "62906-1627"
      },
      {
        "line": [
          "1933 S. 42nd St."
        ],
        "city": "MOUNT VERNON",
        "state": "IL",
        "postalCode": "62864-6251"
      },
      {
        "line": [
          "1001 S 34th"
        ],
        "city": "MOUNT VERNON",
        "state": "IL",
        "postalCode": "62864-6232"
      },
      {
        "line": [
          "PO BOX 847"
        ],
        "city": "BENTON",
        "state": "IL",
        "postalCode": "62812-0847"
      },
      {
        "line": [
          "PO BOX 968"
        ],
        "city": "BENTON",
        "state": "IL",
        "postalCode": "62812-0968"
      },
      {
        "line": [
          "1700 White St."
        ],
        "city": "MOUNT VERNON",
        "state": "IL",
        "postalCode": "62864-4349"
      },
      {
        "line": [
          "600 New Fairfield Rd."
        ],
        "city": "MOUNT VERNON",
        "state": "IL",
        "postalCode": "62864-9998"
      },
      {
        "line": [
          "#5 Doctors Park"
        ],
        "city": "MOUNT VERNON",
        "state": "IL",
        "postalCode": "62864-6251"
      },
      {
        "line": [
          "120 N Tower Rd."
        ],
        "city": "CARBONDALE",
        "state": "IL",
        "postalCode": "62901-1929"
      },
      {
        "line": [
          "601 N Columbia"
        ],
        "city": "WEST FRANKFORT",
        "state": "IL",
        "postalCode": "62896-1859"
      }
    ],
    "extension": [
      {
        "url": "https://fhir.athena.io/StructureDefinition/ah-practice",
        "valueReference": {
          "reference": "Organization/a-1.Practice-1965"
        }
      },
      {
        "url": "https://fhir.athena.io/StructureDefinition/ah-brand",
        "valueReference": {
          "reference": "Organization/a-1965.Brand-2"
        }
      }
    ]
  },
  "fullUrl": "urn:uuid:99b3a8bd-7f88-55de-bf9f-f753f6160140"
}