{
  "resource": {
    "resourceType": "Organization",
    "id": "0652aba7-4ade-5e0d-b94c-11beafcc1dab",
    "name": "New Hope General and Oncologic Surgery",
    "endpoint": [
      {
        "reference": "Endpoint/27a4e967-47aa-5a9c-a572-b8297ee268a2"
      },
      {
        "reference": "Endpoint/2ceee420-e070-52fb-a40a-9f1c568a86a1"
      }
    ],
    "identifier": [
      {
        "system": "http://hl7.org/fhir/sid/us-npi",
        "value": "1215688585"
      }
    ],
    "address": [
      {
        "line": [
          "101 E VALENCIA MESA DR"
        ],
        "city": "FULLERTON",
        "state": "CA",
        "postalCode": "92835-3809"
      },
      {
        "line": [
          "1111 W LA PALMA AVE"
        ],
        "city": "ANAHEIM",
        "state": "CA",
        "postalCode": "92801-2804"
      },
      {
        "line": [
          "3033 W ORANGE AVENUE"
        ],
        "city": "ANAHEIM",
        "state": "CA",
        "postalCode": "92804-3156"
      },
      {
        "line": [
          "14662 NEWPORT AVE"
        ],
        "city": "TUSTIN",
        "state": "CA",
        "postalCode": "92780-6064"
      },
      {
        "line": [
          "13222 BLOOMFIELD AVE"
        ],
        "city": "NORWALK",
        "state": "CA",
        "postalCode": "90650-3249"
      },
      {
        "line": [
          "1025 S ANAHEIM BLVD"
        ],
        "city": "ANAHEIM",
        "state": "CA",
        "postalCode": "92805-5806"
      },
      {
        "line": [
          "431 SOUTH BATAVIA",
          "SUITE 202"
        ],
        "city": "ORANGE",
        "state": "CA",
        "postalCode": "92868-3938"
      },
      {
        "line": [
          "7677 CENTER AVE STE 104"
        ],
        "city": "HUNTINGTON BEACH",
        "state": "CA",
        "postalCode": "92647-3030"
      },
      {
        "line": [
          "1100 W STEWART DR"
        ],
        "city": "ORANGE",
        "state": "CA",
        "postalCode": "92868-3849"
      },
      {
        "line": [
          "681 SOUTH PARKER ST",
          "SUITE 150"
        ],
        "city": "ORANGE",
        "state": "CA",
        "postalCode": "92868-4761"
      },
      {
        "line": [
          "12401 WASHINGTON BLVD"
        ],
        "city": "WHITTIER",
        "state": "CA",
        "postalCode": "90602-1006"
      },
      {
        "line": [
          "1301 N ROSE DR"
        ],
        "city": "PLACENTIA",
        "state": "CA",
        "postalCode": "92870-3802"
      }
    ],
    "extension": [
      {
        "url": "https://fhir.athena.io/StructureDefinition/ah-practice",
        "valueReference": {
          "reference": "Organization/a-1.Practice-25547"
        }
      },
      {
        "url": "https://fhir.athena.io/StructureDefinition/ah-brand",
        "valueReference": {
          "reference": "Organization/a-25547.Brand-1"
        }
      }
    ]
  },
  "fullUrl": "urn:uuid:0652aba7-4ade-5e0d-b94c-11beafcc1dab"
}