{
  "resource": {
    "resourceType": "Organization",
    "id": "1fbc7160-789c-554e-a26d-2c0abfd7d271",
    "name": "YMCA of Snohomish County",
    "endpoint": [
      {
        "reference": "Endpoint/27a4e967-47aa-5a9c-a572-b8297ee268a2"
      },
      {
        "reference": "Endpoint/abb5f7d5-468e-5806-be46-fb2282afef02"
      }
    ],
    "identifier": [
      {
        "system": "http://hl7.org/fhir/sid/us-npi",
        "value": "1659680239"
      }
    ],
    "address": [
      {
        "line": [
          "10601 47th Pl W"
        ],
        "city": "MUKILTEO",
        "state": "WA",
        "postalCode": "98275-4709"
      },
      {
        "line": [
          "5007 Claremont Way"
        ],
        "city": "EVERETT",
        "state": "WA",
        "postalCode": "98203-3321"
      },
      {
        "line": [
          "16605 170th Drive"
        ],
        "city": "MONROE",
        "state": "WA",
        "postalCode": "98272-1234"
      },
      {
        "line": [
          "200 Tower Street"
        ],
        "city": "EVERETT",
        "state": "WA",
        "postalCode": "98201-1234"
      },
      {
        "line": [
          "606 Arrowhead Road"
        ],
        "city": "CAMANO ISLAND",
        "state": "WA",
        "postalCode": "98282-8726"
      },
      {
        "line": [
          "13723 Puget Park Dr"
        ],
        "city": "EVERETT",
        "state": "WA",
        "postalCode": "98208-9447"
      },
      {
        "line": [
          "13528 N Creek Dr"
        ],
        "city": "BOTHELL",
        "state": "WA",
        "postalCode": "98012-2077"
      },
      {
        "line": [
          "2720 Rockefeller Ave"
        ],
        "city": "EVERETT",
        "state": "WA",
        "postalCode": "98201-3523"
      },
      {
        "line": [
          "7209 265th Suite 204"
        ],
        "city": "STANWOOD",
        "state": "WA",
        "postalCode": "98292-6292"
      },
      {
        "line": [
          "6420 60th Dr NE"
        ],
        "city": "MARYSVILLE",
        "state": "WA",
        "postalCode": "98270-5412"
      },
      {
        "line": [
          "7030 196th St SW",
          "Clearview 121"
        ],
        "city": "LYNNWOOD",
        "state": "WA",
        "postalCode": "98036-1234"
      },
      {
        "line": [
          "2722 Colby Avenue, Suite 415"
        ],
        "city": "EVERETT",
        "state": "WA",
        "postalCode": "98201-3532"
      },
      {
        "line": [
          "14033 Fryelands Boulevard"
        ],
        "city": "MONROE",
        "state": "WA",
        "postalCode": "98272-2643"
      },
      {
        "line": [
          "2702 Hoyt Ave"
        ],
        "city": "EVERETT",
        "state": "WA",
        "postalCode": "98201-3506"
      },
      {
        "line": [
          "7213 267th NW"
        ],
        "city": "STANWOOD",
        "state": "WA",
        "postalCode": "98292-6237"
      }
    ],
    "extension": [
      {
        "url": "https://fhir.athena.io/StructureDefinition/ah-practice",
        "valueReference": {
          "reference": "Organization/a-1.Practice-14268"
        }
      },
      {
        "url": "https://fhir.athena.io/StructureDefinition/ah-brand",
        "valueReference": {
          "reference": "Organization/a-14268.Brand-1"
        }
      }
    ]
  },
  "fullUrl": "urn:uuid:1fbc7160-789c-554e-a26d-2c0abfd7d271"
}