{
  "resource": {
    "resourceType": "Organization",
    "id": "110283ef-a22c-5b76-ae15-1fed51469127",
    "name": "SOUTHERN KIDNEY CARE",
    "endpoint": [
      {
        "reference": "Endpoint/27a4e967-47aa-5a9c-a572-b8297ee268a2"
      },
      {
        "reference": "Endpoint/b444f5d2-b381-5911-927d-f38d28c5dfb8"
      }
    ],
    "identifier": [
      {
        "system": "http://hl7.org/fhir/sid/us-npi",
        "value": "1265020937"
      }
    ],
    "address": [
      {
        "line": [
          "209 W Spring Street",
          "STE 103"
        ],
        "city": "SYLACAUGA",
        "state": "AL",
        "postalCode": "35150-2974"
      },
      {
        "line": [
          "300 22ND STREET SOUTH"
        ],
        "city": "BIRMINGHAM",
        "state": "AL",
        "postalCode": "35233-2209"
      },
      {
        "line": [
          "2104 LORNA RIDGE DRIVE"
        ],
        "city": "BIRMINGHAM",
        "state": "AL",
        "postalCode": "35216-5282"
      },
      {
        "line": [
          "4260 CAHABA HEIGHTS CT"
        ],
        "city": "BIRMINGHAM",
        "state": "AL",
        "postalCode": "35243-5711"
      },
      {
        "line": [
          "810 SAINT VINCENTS DR"
        ],
        "city": "BIRMINGHAM",
        "state": "AL",
        "postalCode": "35205-1601"
      },
      {
        "line": [
          "339 WALKER CHAPEL PLZ"
        ],
        "city": "FULTONDALE",
        "state": "AL",
        "postalCode": "35068-3401"
      },
      {
        "line": [
          "300 22ND ST S"
        ],
        "city": "BIRMINGHAM",
        "state": "AL",
        "postalCode": "35233-2209"
      },
      {
        "line": [
          "1809 Ave H"
        ],
        "city": "BIRMINGHAM",
        "state": "AL",
        "postalCode": "35218-1542"
      },
      {
        "line": [
          "3201 3RD AVENUE SOUTH"
        ],
        "city": "BIRMINGHAM",
        "state": "AL",
        "postalCode": "35222-1707"
      },
      {
        "line": [
          "820 MONTCLAIR ROAD"
        ],
        "city": "BIRMINGHAM",
        "state": "AL",
        "postalCode": "35213-1908"
      },
      {
        "line": [
          "810 ST VINCENTS DRIVE"
        ],
        "city": "BIRMINGHAM",
        "state": "AL",
        "postalCode": "35205-1601"
      },
      {
        "line": [
          "3570 GRANDVIEW PKWY STE 101"
        ],
        "city": "BIRMINGHAM",
        "state": "AL",
        "postalCode": "35243-2065"
      },
      {
        "line": [
          "218 MAIN STREET",
          "SUITE 114"
        ],
        "city": "TRUSSVILLE",
        "state": "AL",
        "postalCode": "35173-1470"
      },
      {
        "line": [
          "260 6th Ave NW"
        ],
        "city": "JASPER",
        "state": "AL",
        "postalCode": "35504-7419"
      },
      {
        "line": [
          "260 6TH AVENUE NW"
        ],
        "city": "JASPER",
        "state": "AL",
        "postalCode": "35504-7419"
      },
      {
        "line": [
          "2630 Ave E"
        ],
        "city": "BIRMINGHAM",
        "state": "AL",
        "postalCode": "35218-2163"
      },
      {
        "line": [
          "3690 GRANDVIEW PKWY"
        ],
        "city": "BIRMINGHAM",
        "state": "AL",
        "postalCode": "35243-3326"
      },
      {
        "line": [
          "3007 27th St N"
        ],
        "city": "BIRMINGHAM",
        "state": "AL",
        "postalCode": "35207-4549"
      },
      {
        "line": [
          "105 INVERNESS CORS"
        ],
        "city": "BIRMINGHAM",
        "state": "AL",
        "postalCode": "35242-3762"
      },
      {
        "line": [
          "728 RICHARD ARRINGTON JR BLVD S"
        ],
        "city": "BIRMINGHAM",
        "state": "AL",
        "postalCode": "35233-2106"
      },
      {
        "line": [
          "1650 MAXEY DRIVE"
        ],
        "city": "LEEDS",
        "state": "AL",
        "postalCode": "35094-7512"
      },
      {
        "line": [
          "2800 Rainbow Dr"
        ],
        "city": "RAINBOW CITY",
        "state": "AL",
        "postalCode": "35906-5811"
      },
      {
        "line": [
          "514 W Town Plaza"
        ],
        "city": "BESSEMER",
        "state": "AL",
        "postalCode": "35020-5346"
      },
      {
        "line": [
          "728 Richard Arlington J. Blvd."
        ],
        "city": "S. BIRMINGHAM",
        "state": "AL",
        "postalCode": "35233-2186"
      },
      {
        "line": [
          "331 JAMES PAYTON BLVD"
        ],
        "city": "SYLACAUGA",
        "state": "AL",
        "postalCode": "35150-8064"
      },
      {
        "line": [
          "708 COTTON AVE SW"
        ],
        "city": "BIRMINGHAM",
        "state": "AL",
        "postalCode": "35211-1646"
      },
      {
        "line": [
          "592 FIELDSTOWN ROAD"
        ],
        "city": "GARDENDALE",
        "state": "AL",
        "postalCode": "35071-3414"
      },
      {
        "line": [
          "1917 32nd Ave N"
        ],
        "city": "BIRMINGHAM",
        "state": "AL",
        "postalCode": "35207-3333"
      },
      {
        "line": [
          "5406 HWY 280",
          "SUITE D107"
        ],
        "city": "BIRMINGHAM",
        "state": "AL",
        "postalCode": "35242-6597"
      },
      {
        "line": [
          "1000 Saint Clair Road"
        ],
        "city": "SPRINGVILLE",
        "state": "AL",
        "postalCode": "35146-5582"
      }
    ],
    "extension": [
      {
        "url": "https://fhir.athena.io/StructureDefinition/ah-practice",
        "valueReference": {
          "reference": "Organization/a-1.Practice-23408"
        }
      },
      {
        "url": "https://fhir.athena.io/StructureDefinition/ah-brand",
        "valueReference": {
          "reference": "Organization/a-23408.Brand-1"
        }
      }
    ]
  },
  "fullUrl": "urn:uuid:110283ef-a22c-5b76-ae15-1fed51469127"
}