{
  "resource": {
    "resourceType": "Organization",
    "id": "78f4e868-f586-5d7c-abb3-6c7d1a5dddd6",
    "name": "Village Medical",
    "endpoint": [
      {
        "reference": "Endpoint/27a4e967-47aa-5a9c-a572-b8297ee268a2"
      },
      {
        "reference": "Endpoint/0df08ee4-443f-54a8-9fef-aa5d5ed3f469"
      }
    ],
    "identifier": [
      {
        "system": "http://hl7.org/fhir/sid/us-npi",
        "value": "1336625540"
      },
      {
        "system": "http://hl7.org/fhir/sid/us-npi",
        "value": "1578891750"
      }
    ],
    "address": [
      {
        "line": [
          "422 N. Center St"
        ],
        "city": "NORTHVILLE",
        "state": "MI",
        "postalCode": "48167-1224"
      },
      {
        "line": [
          "39475 LEWIS DR",
          "STE 150"
        ],
        "city": "NOVI",
        "state": "MI",
        "postalCode": "48377-2980"
      },
      {
        "line": [
          "23133 ORCHARD LAKE RD STE 102"
        ],
        "city": "FARMINGTON",
        "state": "MI",
        "postalCode": "48336-3278"
      },
      {
        "line": [
          "17800 NEWBURGH RD STE 103"
        ],
        "city": "LIVONIA",
        "state": "MI",
        "postalCode": "48152-2794"
      },
      {
        "line": [
          "29409 HAGGERTY RD"
        ],
        "city": "NOVI",
        "state": "MI",
        "postalCode": "48377-5503"
      },
      {
        "line": [
          "33400 Six Mile Rd"
        ],
        "city": "LIVONIA",
        "state": "MI",
        "postalCode": "48152-3143"
      },
      {
        "line": [
          "24400 MIDDLEBELT RD"
        ],
        "city": "FARMINGTON HILLS",
        "state": "MI",
        "postalCode": "48336-2135"
      },
      {
        "line": [
          "41000 W 13 MILE RD"
        ],
        "city": "NOVI",
        "state": "MI",
        "postalCode": "48377-2800"
      },
      {
        "line": [
          "620 N. Pontiac Trail"
        ],
        "city": "WALLED LAKE",
        "state": "MI",
        "postalCode": "48390-3448"
      },
      {
        "line": [
          "33400 W. Six Mile Rd"
        ],
        "city": "LIVONIA",
        "state": "MI",
        "postalCode": "48152-3143"
      },
      {
        "line": [
          "12660 10 MILE RD"
        ],
        "city": "SOUTH LYON",
        "state": "MI",
        "postalCode": "48178-9141"
      },
      {
        "line": [
          "400 N Wayne Rd"
        ],
        "city": "WESTLAND",
        "state": "MI",
        "postalCode": "48185-3628"
      },
      {
        "line": [
          "9501 E. HIGHLAND ROAD"
        ],
        "city": "HOWELL",
        "state": "MI",
        "postalCode": "48843-9074"
      },
      {
        "line": [
          "3375 W WALTON BLVD"
        ],
        "city": "WATERFORD",
        "state": "MI",
        "postalCode": "48329-4373"
      },
      {
        "line": [
          "39475 LEWIS DR STE 130"
        ],
        "city": "NOVI",
        "state": "MI",
        "postalCode": "48377-2977"
      },
      {
        "line": [
          "9501 E HIGHLAND RD"
        ],
        "city": "HOWELL",
        "state": "MI",
        "postalCode": "48843-9074"
      },
      {
        "line": [
          "36550 GRAND RIVER AVE"
        ],
        "city": "FARMINGTON HILLS",
        "state": "MI",
        "postalCode": "48335-3064"
      },
      {
        "line": [
          "22024 PONTIAC TRL"
        ],
        "city": "SOUTH LYON",
        "state": "MI",
        "postalCode": "48178-9410"
      },
      {
        "line": [
          "100 DECKER RD"
        ],
        "city": "WALLED LAKE",
        "state": "MI",
        "postalCode": "48390-3625"
      }
    ],
    "extension": [
      {
        "url": "https://fhir.athena.io/StructureDefinition/ah-practice",
        "valueReference": {
          "reference": "Organization/a-1.Practice-21803"
        }
      },
      {
        "url": "https://fhir.athena.io/StructureDefinition/ah-brand",
        "valueReference": {
          "reference": "Organization/a-21803.Brand-1"
        }
      }
    ]
  },
  "fullUrl": "urn:uuid:78f4e868-f586-5d7c-abb3-6c7d1a5dddd6"
}