{
  "resource": {
    "resourceType": "Organization",
    "id": "7a74a462-f881-5e87-818a-cdbb9e2082bf",
    "name": "Far West Podiatric Medical Group",
    "endpoint": [
      {
        "reference": "Endpoint/27a4e967-47aa-5a9c-a572-b8297ee268a2"
      },
      {
        "reference": "Endpoint/bdf5e4b0-a56e-5b42-bde3-f15c70cf343f"
      }
    ],
    "identifier": [
      {
        "system": "http://hl7.org/fhir/sid/us-npi",
        "value": "1124175740"
      }
    ],
    "address": [
      {
        "line": [
          "SOUTH TOWER, 8700 BEVERLY BLVD",
          "2900A"
        ],
        "city": "LOS ANGELES",
        "state": "CA",
        "postalCode": "90048-1804"
      },
      {
        "line": [
          "4650 LINCOLN BLVD"
        ],
        "city": "MARINA DEL REY",
        "state": "CA",
        "postalCode": "90292-6306"
      },
      {
        "line": [
          "1145 W REDONDO BEACH BLVD"
        ],
        "city": "GARDENA",
        "state": "CA",
        "postalCode": "90247-3528"
      },
      {
        "line": [
          "3828 DALMAS TERRACE"
        ],
        "city": "CULVER CITY",
        "state": "CA",
        "postalCode": "90232-2713"
      },
      {
        "line": [
          "2880 ATLANTIC AVENUE"
        ],
        "city": "LONG BEACH",
        "state": "CA",
        "postalCode": "90806-1715"
      },
      {
        "line": [
          "13624 HAWTHORNE BLVD STE 206"
        ],
        "city": "HAWTHORNE",
        "state": "CA",
        "postalCode": "90250-5818"
      },
      {
        "line": [
          "4101 TORRANCE BLVD"
        ],
        "city": "TORRANCE",
        "state": "CA",
        "postalCode": "90503-4607"
      },
      {
        "line": [
          "22525 MAPLE AVE",
          " SUITE 106"
        ],
        "city": "TORRANCE",
        "state": "CA",
        "postalCode": "90505-2700"
      },
      {
        "line": [
          "2080 CENTURY PARK EAST",
          "SUITE 1200"
        ],
        "city": "LOS ANGELES",
        "state": "CA",
        "postalCode": "90067-2015"
      },
      {
        "line": [
          "29300 MADISON"
        ],
        "city": "TORRANCE",
        "state": "CA",
        "postalCode": "90505-4702"
      },
      {
        "line": [
          "1400 S GRAND AVE STE 700"
        ],
        "city": "LOS ANGELES",
        "state": "CA",
        "postalCode": "90015-3068"
      },
      {
        "line": [
          "3445 PACIFIC COAST HWY STE 110"
        ],
        "city": "TORRANCE",
        "state": "CA",
        "postalCode": "90505-6659"
      },
      {
        "line": [
          "4300 Long Beach Blvd  Suite 150"
        ],
        "city": "LONG BEACH",
        "state": "CA",
        "postalCode": "90807-2011"
      }
    ],
    "extension": [
      {
        "url": "https://fhir.athena.io/StructureDefinition/ah-practice",
        "valueReference": {
          "reference": "Organization/a-1.Practice-25878"
        }
      },
      {
        "url": "https://fhir.athena.io/StructureDefinition/ah-brand",
        "valueReference": {
          "reference": "Organization/a-25878.Brand-1"
        }
      }
    ]
  },
  "fullUrl": "urn:uuid:7a74a462-f881-5e87-818a-cdbb9e2082bf"
}