{
  "resource": {
    "resourceType": "Organization",
    "id": "d0fff51f-8ada-55f1-88e6-95849238be78",
    "name": "PHYSICIANS OF SOUTH FLORIDA, LLC",
    "endpoint": [
      {
        "reference": "Endpoint/27a4e967-47aa-5a9c-a572-b8297ee268a2"
      },
      {
        "reference": "Endpoint/0fd1fd64-aa18-5d65-b85f-c010c6d95dcc"
      }
    ],
    "identifier": [
      {
        "system": "http://hl7.org/fhir/sid/us-npi",
        "value": "1841430006"
      },
      {
        "system": "urn:oid:2.16.840.1.113883.4.7",
        "value": "10D2019517"
      }
    ],
    "address": [
      {
        "line": [
          "5952 CLARK CENTER AVE"
        ],
        "city": "SARASOTA",
        "state": "FL",
        "postalCode": "34238-2715"
      },
      {
        "line": [
          "9015 Strada Stell Court"
        ],
        "city": "NAPLES",
        "state": "FL",
        "postalCode": "34109-4377"
      },
      {
        "line": [
          "1070 E Indiantown rd"
        ],
        "city": "JUPITER",
        "state": "FL",
        "postalCode": "33477-5150"
      },
      {
        "line": [
          "5952 Clark Center Avenue"
        ],
        "city": "SARASOTA",
        "state": "FL",
        "postalCode": "34238-2716"
      },
      {
        "line": [
          "5952 Clark Center Ave"
        ],
        "city": "SARASOTA",
        "state": "FL",
        "postalCode": "34238-2715"
      },
      {
        "line": [
          "5953 Clark Center Ave",
          "Sarastoa"
        ],
        "city": "SARASOTA",
        "state": "FL",
        "postalCode": "34238-2716"
      },
      {
        "line": [
          "32801 US 19 N",
          "Suite 200"
        ],
        "city": "PALM HARBOR",
        "state": "FL",
        "postalCode": "34684-3105"
      },
      {
        "line": [
          "32801 US 19 N"
        ],
        "city": "PALM HARBOR",
        "state": "FL",
        "postalCode": "34684-3105"
      },
      {
        "line": [
          "5952 Clark Center Ave"
        ],
        "city": "SARASOTA",
        "state": "FL",
        "postalCode": "34238-2716"
      },
      {
        "line": [
          "9015 Strada Stell Court",
          "Unit 106"
        ],
        "city": "NAPLES",
        "state": "FL",
        "postalCode": "34109-4373"
      },
      {
        "line": [
          "1070 e indiantown rd",
          "suite 408"
        ],
        "city": "JUPITER",
        "state": "FL",
        "postalCode": "33477-5150"
      }
    ],
    "extension": [
      {
        "url": "https://fhir.athena.io/StructureDefinition/ah-practice",
        "valueReference": {
          "reference": "Organization/a-1.Practice-2982"
        }
      },
      {
        "url": "https://fhir.athena.io/StructureDefinition/ah-brand",
        "valueReference": {
          "reference": "Organization/a-2982.Brand-1"
        }
      }
    ]
  },
  "fullUrl": "urn:uuid:d0fff51f-8ada-55f1-88e6-95849238be78"
}