{
  "resource": {
    "resourceType": "Organization",
    "id": "7b69d01d-0886-5a64-953b-ffade56ed538",
    "name": "Surgeons Choice Medical Center",
    "endpoint": [
      {
        "reference": "Endpoint/27a4e967-47aa-5a9c-a572-b8297ee268a2"
      },
      {
        "reference": "Endpoint/472c303c-a02b-5ed5-80df-5aa165d3f703"
      }
    ],
    "identifier": [
      {
        "system": "http://hl7.org/fhir/sid/us-npi",
        "value": "1790785095"
      },
      {
        "system": "http://hl7.org/fhir/sid/us-npi",
        "value": "1619969540"
      },
      {
        "system": "http://hl7.org/fhir/sid/us-npi",
        "value": "1386625143"
      },
      {
        "system": "http://hl7.org/fhir/sid/us-npi",
        "value": "1477722585"
      }
    ],
    "address": [
      {
        "line": [
          "210 N. Perry Street"
        ],
        "city": "PONTIAC",
        "state": "MI",
        "postalCode": "48342-2345"
      },
      {
        "line": [
          "22401 Foster Winter Dr"
        ],
        "city": "SOUTHFIELD",
        "state": "MI",
        "postalCode": "48075-3724"
      },
      {
        "line": [
          "11012 THIRTEEN MILE ROAD",
          "SUITE 112A"
        ],
        "city": "WARREN",
        "state": "MI",
        "postalCode": "48093-2546"
      },
      {
        "line": [
          "245 Pitkin St."
        ],
        "city": "HIGHLAND PARK",
        "state": "MI",
        "postalCode": "48203-3737"
      },
      {
        "line": [
          "2939 Russell Street"
        ],
        "city": "DETROIT",
        "state": "MI",
        "postalCode": "48207-4825"
      },
      {
        "line": [
          "22401 Foster Winter Dr."
        ],
        "city": "SOUTHFIELD",
        "state": "MI",
        "postalCode": "48075-3724"
      },
      {
        "line": [
          "14930 Laplaisance Rd",
          "Suite 127"
        ],
        "city": "MONROE",
        "state": "MI",
        "postalCode": "48161-3878"
      },
      {
        "line": [
          "11012 THIRTEEN MILE ROAD",
          "SUITE 111"
        ],
        "city": "WARREN",
        "state": "MI",
        "postalCode": "48093-2546"
      },
      {
        "line": [
          "3646 Mt. Elliot"
        ],
        "city": "DETROIT",
        "state": "MI",
        "postalCode": "48207-2311"
      },
      {
        "line": [
          "2755 Collingwood Street"
        ],
        "city": "DETROIT",
        "state": "MI",
        "postalCode": "48206-1476"
      },
      {
        "line": [
          "6902 Chicago Rd."
        ],
        "city": "WARREN",
        "state": "MI",
        "postalCode": "48092-1686"
      },
      {
        "line": [
          "25 S. Monroe Street"
        ],
        "city": "MONROE",
        "state": "MI",
        "postalCode": "48161-2468"
      },
      {
        "line": [
          "902 N. Monroe St."
        ],
        "city": "MONROE",
        "state": "MI",
        "postalCode": "48162-7809"
      },
      {
        "line": [
          "12100 Dix Toledo Road"
        ],
        "city": "SOUTHGATE",
        "state": "MI",
        "postalCode": "48195-3531"
      },
      {
        "line": [
          "12007 Linwood"
        ],
        "city": "DETROIT",
        "state": "MI",
        "postalCode": "48206-1107"
      },
      {
        "line": [
          "6309 Mack Avenue"
        ],
        "city": "DETROIT",
        "state": "MI",
        "postalCode": "48207-2302"
      },
      {
        "line": [
          "9605 Grand River Ave."
        ],
        "city": "DETROIT",
        "state": "MI",
        "postalCode": "48204-2139"
      },
      {
        "line": [
          "300 W. McNichols Rd."
        ],
        "city": "DETROIT",
        "state": "MI",
        "postalCode": "48203-2703"
      },
      {
        "line": [
          "13929 Harper Avenue"
        ],
        "city": "DETROIT",
        "state": "MI",
        "postalCode": "48213-3672"
      },
      {
        "line": [
          "1435 N. Oakland Blvd."
        ],
        "city": "WATERFORD",
        "state": "MI",
        "postalCode": "48327-1545"
      },
      {
        "line": [
          "1852 W. Grand Blvd."
        ],
        "city": "DETROIT",
        "state": "MI",
        "postalCode": "48208-1006"
      },
      {
        "line": [
          "1424 E. 11 Mile Road"
        ],
        "city": "ROYAL OAK",
        "state": "MI",
        "postalCode": "48067-2026"
      },
      {
        "line": [
          "15941 Fairfield"
        ],
        "city": "DETROIT",
        "state": "MI",
        "postalCode": "48238-4123"
      },
      {
        "line": [
          "700 S. Main St.",
          "Suite 211"
        ],
        "city": "LAPEER",
        "state": "MI",
        "postalCode": "48446-3085"
      },
      {
        "line": [
          "22731 NEWMAN ST",
          "SUITE 110"
        ],
        "city": "DEARBORN",
        "state": "MI",
        "postalCode": "48124-2023"
      },
      {
        "line": [
          "13336 E. Warren"
        ],
        "city": "DETROIT",
        "state": "MI",
        "postalCode": "48215-2112"
      },
      {
        "line": [
          "35 East Huron Street"
        ],
        "city": "PONTIAC",
        "state": "MI",
        "postalCode": "48342-2203"
      }
    ],
    "extension": [
      {
        "url": "https://fhir.athena.io/StructureDefinition/ah-practice",
        "valueReference": {
          "reference": "Organization/a-1.Practice-16079"
        }
      },
      {
        "url": "https://fhir.athena.io/StructureDefinition/ah-brand",
        "valueReference": {
          "reference": "Organization/a-16079.Brand-1"
        }
      }
    ]
  },
  "fullUrl": "urn:uuid:7b69d01d-0886-5a64-953b-ffade56ed538"
}