{
  "resource": {
    "resourceType": "Organization",
    "id": "0b9a9adf-a45a-5bdc-892d-f1745cc247a9",
    "name": "Legacy Foot & Ankle",
    "endpoint": [
      {
        "reference": "Endpoint/27a4e967-47aa-5a9c-a572-b8297ee268a2"
      },
      {
        "reference": "Endpoint/a7746e7c-31b5-5247-a4d1-69cd81920c6e"
      }
    ],
    "identifier": [
      {
        "system": "http://hl7.org/fhir/sid/us-npi",
        "value": "1811578438"
      },
      {
        "system": "http://hl7.org/fhir/sid/us-npi",
        "value": "1093224123"
      },
      {
        "system": "http://hl7.org/fhir/sid/us-npi",
        "value": "1578123428"
      },
      {
        "system": "http://hl7.org/fhir/sid/us-npi",
        "value": "1518778687"
      }
    ],
    "address": [
      {
        "line": [
          "401 N HOOPER ST"
        ],
        "city": "CARO",
        "state": "MI",
        "postalCode": "48723-1476"
      },
      {
        "line": [
          "1375 S LAPEER RD STE 109"
        ],
        "city": "LAKE ORION",
        "state": "MI",
        "postalCode": "48360-1421"
      },
      {
        "line": [
          "5202 MILLER RD"
        ],
        "city": "FLINT",
        "state": "MI",
        "postalCode": "48507-1040"
      },
      {
        "line": [
          "1546 CALLIS RD"
        ],
        "city": "LAPEER",
        "state": "MI",
        "postalCode": "48446-7505"
      },
      {
        "line": [
          "1375 N MAIN ST"
        ],
        "city": "LAPEER",
        "state": "MI",
        "postalCode": "48446-1350"
      },
      {
        "line": [
          "150 MILLWOOD STREET"
        ],
        "city": "CARO",
        "state": "MI",
        "postalCode": "48723-1656"
      },
      {
        "line": [
          "3601 WILDER RD"
        ],
        "city": "BAY CITY",
        "state": "MI",
        "postalCode": "48706-2113"
      },
      {
        "line": [
          "4599 TOWNE CENTRE RD"
        ],
        "city": "SAGINAW",
        "state": "MI",
        "postalCode": "48604-2804"
      },
      {
        "line": [
          "441 S LIVERNOIS RD STE 260"
        ],
        "city": "ROCHESTER",
        "state": "MI",
        "postalCode": "48307-2593"
      },
      {
        "line": [
          "4130 Shrestha Dr"
        ],
        "city": "BAY CITY",
        "state": "MI",
        "postalCode": "48706-2184"
      },
      {
        "line": [
          "25330 W 6 MILE RD"
        ],
        "city": "REDFORD",
        "state": "MI",
        "postalCode": "48240-2105"
      },
      {
        "line": [
          "1187 South Lapeer Rd"
        ],
        "city": "LAPEER",
        "state": "MI",
        "postalCode": "48446-3081"
      },
      {
        "line": [
          "15400 TRENTON RD"
        ],
        "city": "SOUTHGATE",
        "state": "MI",
        "postalCode": "48195-2075"
      },
      {
        "line": [
          "4427 VENOY RD"
        ],
        "city": "WAYNE",
        "state": "MI",
        "postalCode": "48184-1871"
      }
    ],
    "extension": [
      {
        "url": "https://fhir.athena.io/StructureDefinition/ah-practice",
        "valueReference": {
          "reference": "Organization/a-1.Practice-24231"
        }
      },
      {
        "url": "https://fhir.athena.io/StructureDefinition/ah-brand",
        "valueReference": {
          "reference": "Organization/a-24231.Brand-3"
        }
      }
    ]
  },
  "fullUrl": "urn:uuid:0b9a9adf-a45a-5bdc-892d-f1745cc247a9"
}