{
  "resource": {
    "resourceType": "Organization",
    "id": "7be31e88-7ef4-5300-8296-0ad1749b8e61",
    "name": "CMG Piedmont Psychiatric Center",
    "endpoint": [
      {
        "reference": "Endpoint/27a4e967-47aa-5a9c-a572-b8297ee268a2"
      },
      {
        "reference": "Endpoint/3b07a593-a2ae-5586-ac2a-2e5e8e82fb3d"
      }
    ],
    "identifier": [
      {
        "system": "http://hl7.org/fhir/sid/us-npi",
        "value": "1649228966"
      },
      {
        "system": "http://hl7.org/fhir/sid/us-npi",
        "value": "1285931089"
      },
      {
        "system": "http://hl7.org/fhir/sid/us-npi",
        "value": "1013031368"
      },
      {
        "system": "http://hl7.org/fhir/sid/us-npi",
        "value": "1932402484"
      }
    ],
    "address": [
      {
        "line": [
          "125 Nationwide Drive"
        ],
        "city": "LYNCHBURG",
        "state": "VA",
        "postalCode": "24502-9998"
      },
      {
        "line": [
          "501 VES ROAD"
        ],
        "city": "LYNCHBURG",
        "state": "VA",
        "postalCode": "24503-4638"
      },
      {
        "line": [
          "Longwood University",
          "201 High Street"
        ],
        "city": "FARMVILLE",
        "state": "VA",
        "postalCode": "23909-2390"
      },
      {
        "line": [
          "3300 Rivermont Ave"
        ],
        "city": "LYNCHBURG",
        "state": "VA",
        "postalCode": "24503-2030"
      },
      {
        "line": [
          "115 Ambriar Court"
        ],
        "city": "AMHERST",
        "state": "VA",
        "postalCode": "24521-3306"
      },
      {
        "line": [
          "317 West Main Street"
        ],
        "city": "BEDFORD",
        "state": "VA",
        "postalCode": "24523-1902"
      },
      {
        "line": [
          "1902 Grace Street"
        ],
        "city": "LYNCHBURG",
        "state": "VA",
        "postalCode": "24504-3524"
      },
      {
        "line": [
          "3300 Rivermont Ave."
        ],
        "city": "LYNCHBURG",
        "state": "VA",
        "postalCode": "24503-2030"
      },
      {
        "line": [
          "1220 W Gretna Rd"
        ],
        "city": "GRETNA",
        "state": "VA",
        "postalCode": "24557-4087"
      }
    ],
    "extension": [
      {
        "url": "https://fhir.athena.io/StructureDefinition/ah-practice",
        "valueReference": {
          "reference": "Organization/a-1.Practice-221"
        }
      },
      {
        "url": "https://fhir.athena.io/StructureDefinition/ah-brand",
        "valueReference": {
          "reference": "Organization/a-221.Brand-7"
        }
      }
    ]
  },
  "fullUrl": "urn:uuid:7be31e88-7ef4-5300-8296-0ad1749b8e61"
}