{
  "resource": {
    "resourceType": "Organization",
    "id": "bce4854e-9cba-5fd7-816a-2e3cd8044289",
    "name": "YMCA of Metropolitan Denver",
    "endpoint": [
      {
        "reference": "Endpoint/27a4e967-47aa-5a9c-a572-b8297ee268a2"
      },
      {
        "reference": "Endpoint/abb5f7d5-468e-5806-be46-fb2282afef02"
      }
    ],
    "identifier": [
      {
        "system": "http://hl7.org/fhir/sid/us-npi",
        "value": "1770032641"
      }
    ],
    "address": [
      {
        "line": [
          "3290 W 76th Ave"
        ],
        "city": "WESTMINSTER",
        "state": "CO",
        "postalCode": "80030-4914"
      },
      {
        "line": [
          "3801 Osage St."
        ],
        "city": "DENVER",
        "state": "CO",
        "postalCode": "80211-2656"
      },
      {
        "line": [
          "14050 Maxwell Place"
        ],
        "city": "DENVER",
        "state": "CO",
        "postalCode": "80239-4150"
      },
      {
        "line": [
          "12650 E. Arapahoe Road"
        ],
        "city": "ENGLEWOOD",
        "state": "CO",
        "postalCode": "80112-3901"
      },
      {
        "line": [
          "53 E 128th Ave"
        ],
        "city": "THORNTON",
        "state": "CO",
        "postalCode": "80241-2401"
      },
      {
        "line": [
          "11 W Dry Creek Ct"
        ],
        "city": "LITTLETON",
        "state": "CO",
        "postalCode": "80120-2038"
      },
      {
        "line": [
          "25 E 16th Ave Unit B"
        ],
        "city": "DENVER",
        "state": "CO",
        "postalCode": "80202-5195"
      },
      {
        "line": [
          "4201 E. Arkansas"
        ],
        "city": "DENVER",
        "state": "CO",
        "postalCode": "80222-3406"
      },
      {
        "line": [
          "6350 Eldridge St"
        ],
        "city": "ARVADA",
        "state": "CO",
        "postalCode": "80004-3616"
      },
      {
        "line": [
          "1000 S. Lowell"
        ],
        "city": "DENVER",
        "state": "CO",
        "postalCode": "80219-3339"
      },
      {
        "line": [
          "1700 East 28th Ave"
        ],
        "city": "DENVER",
        "state": "CO",
        "postalCode": "80205-4502"
      },
      {
        "line": [
          "16346 Airport Circle"
        ],
        "city": "AURORA",
        "state": "CO",
        "postalCode": "80011-1558"
      },
      {
        "line": [
          "8585 W 14th Ave Suite B-2"
        ],
        "city": "Lakewood",
        "state": "CO",
        "postalCode": "80215-4857"
      },
      {
        "line": [
          "1250 Chamber Rd"
        ],
        "city": "AURORA",
        "state": "CO",
        "postalCode": "80011-7117"
      },
      {
        "line": [
          "100 Jefferson County Parkway"
        ],
        "city": "GOLDEN",
        "state": "CO",
        "postalCode": "80401-6000"
      },
      {
        "line": [
          "27151 E Lakeview Dr"
        ],
        "city": "AURORA",
        "state": "CO",
        "postalCode": "80016-2510"
      },
      {
        "line": [
          "10000 E. 45th Ave"
        ],
        "city": "DENVER",
        "state": "CO",
        "postalCode": "80238-5000"
      },
      {
        "line": [
          "1200 Federal Blvd.",
          "3123"
        ],
        "city": "DENVER",
        "state": "CO",
        "postalCode": "80204-3221"
      },
      {
        "line": [
          "201 West Colfax Ave."
        ],
        "city": "DENVER",
        "state": "CO",
        "postalCode": "80202-5329"
      },
      {
        "line": [
          "4300 E Cherry Creek South Dr"
        ],
        "city": "DENVER",
        "state": "CO",
        "postalCode": "80246-1523"
      },
      {
        "line": [
          "3901 E Yale Ave"
        ],
        "city": "DENVER",
        "state": "CO",
        "postalCode": "80210-6646"
      },
      {
        "line": [
          "1298 Peoria St."
        ],
        "city": "AURORA",
        "state": "CO",
        "postalCode": "80011-6206"
      },
      {
        "line": [
          "7190 Colorado Blvd."
        ],
        "city": "COMMERCE CITY",
        "state": "CO",
        "postalCode": "80022-1812"
      },
      {
        "line": [
          "12955 Albrook Drive"
        ],
        "city": "DENVER",
        "state": "CO",
        "postalCode": "80239-4704"
      },
      {
        "line": [
          "1408 East 36th Ave"
        ],
        "city": "DENVER",
        "state": "CO",
        "postalCode": "80205-3354"
      },
      {
        "line": [
          "4500 East Kentucky Ave"
        ],
        "city": "DENVER",
        "state": "CO",
        "postalCode": "80246-2017"
      },
      {
        "line": [
          "3200 E Spaulding Ave"
        ],
        "city": "PUEBLO",
        "state": "CO",
        "postalCode": "81008-2279"
      },
      {
        "line": [
          "1099 Osage St"
        ],
        "city": "DENVER",
        "state": "CO",
        "postalCode": "80204-3919"
      },
      {
        "line": [
          "6200 W Hampden Ave"
        ],
        "city": "DENVER",
        "state": "CO",
        "postalCode": "80227-5406"
      },
      {
        "line": [
          "3201 Curtis St"
        ],
        "city": "DENVER",
        "state": "CO",
        "postalCode": "80205-2754"
      },
      {
        "line": [
          "3096 S. Sheridan Blvd."
        ],
        "city": "DENVER",
        "state": "CO",
        "postalCode": "80227-4151"
      },
      {
        "line": [
          "7797 E. 36th Ave"
        ],
        "city": "DENVER",
        "state": "CO",
        "postalCode": "80238-2595"
      },
      {
        "line": [
          "5181 W Kenyon Ave"
        ],
        "city": "DENVER",
        "state": "CO",
        "postalCode": "80236-2901"
      },
      {
        "line": [
          "2675 S Decatur St"
        ],
        "city": "DENVER",
        "state": "CO",
        "postalCode": "80219-6031"
      },
      {
        "line": [
          "2625 S Colorado Blvd"
        ],
        "city": "DENVER",
        "state": "CO",
        "postalCode": "80222-5910"
      },
      {
        "line": [
          "10675 Longs Way"
        ],
        "city": "PARKER",
        "state": "CO",
        "postalCode": "80138-8094"
      },
      {
        "line": [
          "1535 Franklin St"
        ],
        "city": "DENVER",
        "state": "CO",
        "postalCode": "80218-1636"
      },
      {
        "line": [
          "3380 S Lincoln St"
        ],
        "city": "ENGLEWOOD",
        "state": "CO",
        "postalCode": "80113-2540"
      },
      {
        "line": [
          "2888 S Heather Gardens Way"
        ],
        "city": "AURORA",
        "state": "CO",
        "postalCode": "80014-5642"
      },
      {
        "line": [
          "2625 S Colorado Blvd"
        ],
        "city": "DENVER",
        "state": "CO",
        "postalCode": "80222-5108"
      },
      {
        "line": [
          "1609 Havana St"
        ],
        "city": "AURORA",
        "state": "CO",
        "postalCode": "80010-2327"
      },
      {
        "line": [
          "9898 E. Colfax Ave"
        ],
        "city": "AURORA",
        "state": "CO",
        "postalCode": "80010-5012"
      },
      {
        "line": [
          "633 17th St.",
          "rm 12A (12th floor)"
        ],
        "city": "DENVER",
        "state": "CO",
        "postalCode": "80202-3660"
      },
      {
        "line": [
          "1100 E 18th Ave"
        ],
        "city": "DENVER",
        "state": "CO",
        "postalCode": "80218-1111"
      },
      {
        "line": [
          "1500 E 128th Ave"
        ],
        "city": "THORNTON",
        "state": "CO",
        "postalCode": "80241-2601"
      },
      {
        "line": [
          "1313 Sherman St.",
          "rm 318"
        ],
        "city": "DENVER",
        "state": "CO",
        "postalCode": "80203-2236"
      },
      {
        "line": [
          "1700 E. 28th Ave"
        ],
        "city": "DENVER",
        "state": "CO",
        "postalCode": "80205-4502"
      },
      {
        "line": [
          "1600 Florence St"
        ],
        "city": "AURORA",
        "state": "CO",
        "postalCode": "80010-2130"
      },
      {
        "line": [
          "5555 Ward Rd"
        ],
        "city": "ARVADA",
        "state": "CO",
        "postalCode": "80002-1307"
      }
    ],
    "extension": [
      {
        "url": "https://fhir.athena.io/StructureDefinition/ah-practice",
        "valueReference": {
          "reference": "Organization/a-1.Practice-14268"
        }
      },
      {
        "url": "https://fhir.athena.io/StructureDefinition/ah-brand",
        "valueReference": {
          "reference": "Organization/a-14268.Brand-1"
        }
      }
    ]
  },
  "fullUrl": "urn:uuid:bce4854e-9cba-5fd7-816a-2e3cd8044289"
}