{
  "resource": {
    "resourceType": "Organization",
    "id": "4cd06b18-1370-58a0-a922-5bd093344a48",
    "name": "Wright State Physicians - Surgery",
    "endpoint": [
      {
        "reference": "Endpoint/27a4e967-47aa-5a9c-a572-b8297ee268a2"
      },
      {
        "reference": "Endpoint/1058161f-b715-5b7e-ba55-1993ab252593"
      }
    ],
    "identifier": [
      {
        "system": "http://hl7.org/fhir/sid/us-npi",
        "value": "1215178421"
      },
      {
        "system": "http://hl7.org/fhir/sid/us-npi",
        "value": "1316188147"
      },
      {
        "system": "http://hl7.org/fhir/sid/us-npi",
        "value": "1417133380"
      },
      {
        "system": "http://hl7.org/fhir/sid/us-npi",
        "value": "1427299841"
      },
      {
        "system": "http://hl7.org/fhir/sid/us-npi",
        "value": "1114920329"
      }
    ],
    "address": [
      {
        "line": [
          "One Wyoming Street"
        ],
        "city": "DAYTON",
        "state": "OH",
        "postalCode": "45409-2722"
      },
      {
        "line": [
          "3535 Southern Blvd"
        ],
        "city": "DAYTON",
        "state": "OH",
        "postalCode": "45429-1221"
      },
      {
        "line": [
          "2400 Miami Valley Dr"
        ],
        "city": "DAYTON",
        "state": "OH",
        "postalCode": "45459-1294"
      },
      {
        "line": [
          "405 W Grand Ave"
        ],
        "city": "DAYTON",
        "state": "OH",
        "postalCode": "45405-4720"
      },
      {
        "line": [
          "3535 Pentagon Blvd"
        ],
        "city": "DAYTON",
        "state": "OH",
        "postalCode": "45431-1705"
      },
      {
        "line": [
          "3130 N COUNTY ROAD 25A"
        ],
        "city": "TROY",
        "state": "OH",
        "postalCode": "45373-1337"
      },
      {
        "line": [
          "2400 Miami Valley Dr"
        ],
        "city": "DAYTON",
        "state": "OH",
        "postalCode": "45459-4774"
      },
      {
        "line": [
          "9000 N Main Street"
        ],
        "city": "DAYTON",
        "state": "OH",
        "postalCode": "45415-1180"
      },
      {
        "line": [
          "3130 N County Rd 25-A"
        ],
        "city": "TROY",
        "state": "OH",
        "postalCode": "45373-1337"
      },
      {
        "line": [
          "2400 Miami Valley Drive"
        ],
        "city": "DAYTON",
        "state": "OH",
        "postalCode": "45459-4778"
      },
      {
        "line": [
          "835 S Main St"
        ],
        "city": "DAYTON",
        "state": "OH",
        "postalCode": "45402-2711"
      },
      {
        "line": [
          "30 E Apple Street",
          "Suite 6258"
        ],
        "city": "DAYTON",
        "state": "OH",
        "postalCode": "45409-2939"
      },
      {
        "line": [
          "9000 N Main St"
        ],
        "city": "DAYTON",
        "state": "OH",
        "postalCode": "45415-1180"
      },
      {
        "line": [
          "1 Elizabeth Place"
        ],
        "city": "DAYTON",
        "state": "OH",
        "postalCode": "45417-3445"
      },
      {
        "line": [
          "300 Austin West Blvd"
        ],
        "city": "MIAMISBURG",
        "state": "OH",
        "postalCode": "45342-7519"
      },
      {
        "line": [
          "One Wyoming St"
        ],
        "city": "DAYTON",
        "state": "OH",
        "postalCode": "45409-2722"
      },
      {
        "line": [
          "725 University Blvd"
        ],
        "city": "FAIRBORN",
        "state": "OH",
        "postalCode": "45324-2640"
      },
      {
        "line": [
          "One Medical Center Dr"
        ],
        "city": "FRANKLIN",
        "state": "OH",
        "postalCode": "45005-1066"
      },
      {
        "line": [
          "2350 Miami Valley Dr",
          "Ste 215"
        ],
        "city": "DAYTON",
        "state": "OH",
        "postalCode": "45459-4778"
      },
      {
        "line": [
          "707 S Edwin C Moses Blvd"
        ],
        "city": "DAYTON",
        "state": "OH",
        "postalCode": "45417-3462"
      },
      {
        "line": [
          "4000 Miamisburg-Centerville rd"
        ],
        "city": "MIAMISBURG",
        "state": "OH",
        "postalCode": "45342-7615"
      },
      {
        "line": [
          "One Wyoming St"
        ],
        "city": "DAYTON",
        "state": "OH",
        "postalCode": "45409-2939"
      },
      {
        "line": [
          "4000 MIAMISBURG CENTERVILLE RD"
        ],
        "city": "MIAMISBURG",
        "state": "OH",
        "postalCode": "45342-3842"
      },
      {
        "line": [
          "1 Wyoming"
        ],
        "city": "Dayton",
        "state": "OH",
        "postalCode": "45409-2722"
      },
      {
        "line": [
          "100 West MAIN ST"
        ],
        "city": "SPRINGFIELD",
        "state": "OH",
        "postalCode": "45502-1312"
      },
      {
        "line": [
          "1141 N. Monroe Dr"
        ],
        "city": "Xenia",
        "state": "OH",
        "postalCode": "45385-1619"
      },
      {
        "line": [
          "2350 Miami Valley Drive",
          "Suite 210"
        ],
        "city": "Centerville",
        "state": "OH",
        "postalCode": "45459-4778"
      },
      {
        "line": [
          "885 N SANDUSKY AVE"
        ],
        "city": "UPPER SANDUSKY",
        "state": "OH",
        "postalCode": "43351-1031"
      }
    ],
    "extension": [
      {
        "url": "https://fhir.athena.io/StructureDefinition/ah-practice",
        "valueReference": {
          "reference": "Organization/a-1.Practice-415"
        }
      },
      {
        "url": "https://fhir.athena.io/StructureDefinition/ah-brand",
        "valueReference": {
          "reference": "Organization/a-415.Brand-1"
        }
      }
    ]
  },
  "fullUrl": "urn:uuid:4cd06b18-1370-58a0-a922-5bd093344a48"
}