{
  "resource": {
    "resourceType": "Organization",
    "id": "117bf490-f64c-5a91-89b5-85a49fb2f7f4",
    "name": "ANNIE JEFFERY MEMORIAL",
    "endpoint": [
      {
        "reference": "Endpoint/27a4e967-47aa-5a9c-a572-b8297ee268a2"
      },
      {
        "reference": "Endpoint/6b92e780-9501-5a40-8fd8-a590f61ec72d"
      }
    ],
    "identifier": [
      {
        "system": "http://hl7.org/fhir/sid/us-npi",
        "value": "1346327806"
      }
    ],
    "address": [
      {
        "line": [
          "11704 West Center Road",
          "Suite 110"
        ],
        "city": "OMAHA",
        "state": "NE",
        "postalCode": "68144-4327"
      },
      {
        "line": [
          "531 BEEBE ST"
        ],
        "city": "OSCEOLA",
        "state": "NE",
        "postalCode": "68651-5537"
      },
      {
        "line": [
          "555 S 70TH STREET"
        ],
        "city": "LINCOLN",
        "state": "NE",
        "postalCode": "68510-2462"
      },
      {
        "line": [
          "5055 A STREET",
          "SUITE 100"
        ],
        "city": "LINCOLN",
        "state": "NE",
        "postalCode": "68510-4970"
      },
      {
        "line": [
          "2300 S 16TH ST"
        ],
        "city": "LINCOLN",
        "state": "NE",
        "postalCode": "68502-3704"
      },
      {
        "line": [
          "1710 S 70th Street"
        ],
        "city": "LINCOLN",
        "state": "NE",
        "postalCode": "68506-1676"
      },
      {
        "line": [
          "1760 Cty Rd J"
        ],
        "city": "WAHOO",
        "state": "NE",
        "postalCode": "68066-4152"
      },
      {
        "line": [
          "4800 Hospital Pkwy"
        ],
        "city": "BEATRICE",
        "state": "NE",
        "postalCode": "68310-6906"
      },
      {
        "line": [
          "1101 S 70TH ST"
        ],
        "city": "LINCOLN",
        "state": "NE",
        "postalCode": "68510-4278"
      },
      {
        "line": [
          "1600 S 48TH ST"
        ],
        "city": "LINCOLN",
        "state": "NE",
        "postalCode": "68506-1283"
      },
      {
        "line": [
          "1715 26TH ST"
        ],
        "city": "CENTRAL CITY",
        "state": "NE",
        "postalCode": "68826-9501"
      },
      {
        "line": [
          "1101 S 70th Street",
          "Suite 100"
        ],
        "city": "LINCOLN",
        "state": "NE",
        "postalCode": "68510-4293"
      },
      {
        "line": [
          "1760 COUNTY ROAD J"
        ],
        "city": "WAHOO",
        "state": "NE",
        "postalCode": "68066-4152"
      },
      {
        "line": [
          "1715 26TH STREET"
        ],
        "city": "CENTRAL CITY",
        "state": "NE",
        "postalCode": "68826-9501"
      }
    ],
    "extension": [
      {
        "url": "https://fhir.athena.io/StructureDefinition/ah-practice",
        "valueReference": {
          "reference": "Organization/a-1.Practice-8817"
        }
      },
      {
        "url": "https://fhir.athena.io/StructureDefinition/ah-brand",
        "valueReference": {
          "reference": "Organization/a-8817.Brand-1"
        }
      }
    ]
  },
  "fullUrl": "urn:uuid:117bf490-f64c-5a91-89b5-85a49fb2f7f4"
}