{
  "resource": {
    "resourceType": "Organization",
    "id": "ca753eed-a394-5107-b875-8a15d1f8ac0f",
    "name": "Choptank Community Health Based Dental",
    "endpoint": [
      {
        "reference": "Endpoint/27a4e967-47aa-5a9c-a572-b8297ee268a2"
      },
      {
        "reference": "Endpoint/fd2b3a65-cd16-532f-8c87-e3606aeaa102"
      }
    ],
    "identifier": [
      {
        "system": "http://hl7.org/fhir/sid/us-npi",
        "value": "1356388599"
      }
    ],
    "address": [
      {
        "line": [
          "401 Lockerman St"
        ],
        "city": "DENTON",
        "state": "MD",
        "postalCode": "21629-9104"
      },
      {
        "line": [
          "600 Charles Street"
        ],
        "city": "SUDLERSVILLE",
        "state": "MD",
        "postalCode": "21668-1532"
      },
      {
        "line": [
          "10990 River Rd"
        ],
        "city": "RIDGELY",
        "state": "MD",
        "postalCode": "21660-1815"
      },
      {
        "line": [
          "302 University Ave"
        ],
        "city": "FEDERALSBURG",
        "state": "MD",
        "postalCode": "21632-1437"
      },
      {
        "line": [
          "303 Sharp Rd"
        ],
        "city": "DENTON",
        "state": "MD",
        "postalCode": "21629-1481"
      },
      {
        "line": [
          "118 N. Central Ave"
        ],
        "city": "RIDGELY",
        "state": "MD",
        "postalCode": "21660-1345"
      },
      {
        "line": [
          "114 South Main Street"
        ],
        "city": "GALENA",
        "state": "MD",
        "postalCode": "21635-1525"
      },
      {
        "line": [
          "25320 Richardson Rd"
        ],
        "city": "FEDERALSBURG",
        "state": "MD",
        "postalCode": "21632-2403"
      },
      {
        "line": [
          "100 N. 6th St"
        ],
        "city": "DENTON",
        "state": "MD",
        "postalCode": "21629-1110"
      },
      {
        "line": [
          "225 Main St"
        ],
        "city": "PRESTON",
        "state": "MD",
        "postalCode": "21655-2215"
      },
      {
        "line": [
          "627 N Main St"
        ],
        "city": "GREENSBORO",
        "state": "MD",
        "postalCode": "21639-1469"
      },
      {
        "line": [
          "21203 Sharp Street"
        ],
        "city": "ROCK HALL",
        "state": "MD",
        "postalCode": "21661-1517"
      },
      {
        "line": [
          "25390 Richardson Rd"
        ],
        "city": "FEDERALSBURG",
        "state": "MD",
        "postalCode": "21632-2403"
      },
      {
        "line": [
          "631 Main Street"
        ],
        "city": "CHURCH HILL",
        "state": "MD",
        "postalCode": "21623-1201"
      },
      {
        "line": [
          "300 South Church Street"
        ],
        "city": "SUDLERSVILLE",
        "state": "MD",
        "postalCode": "21668-1503"
      }
    ],
    "extension": [
      {
        "url": "https://fhir.athena.io/StructureDefinition/ah-practice",
        "valueReference": {
          "reference": "Organization/a-1.Practice-20853"
        }
      },
      {
        "url": "https://fhir.athena.io/StructureDefinition/ah-brand",
        "valueReference": {
          "reference": "Organization/a-20853.Brand-1"
        }
      }
    ]
  },
  "fullUrl": "urn:uuid:ca753eed-a394-5107-b875-8a15d1f8ac0f"
}