{
  "resource": {
    "resourceType": "Organization",
    "id": "e9bcaae1-9211-5bb9-9ea0-b4cc0bb02867",
    "name": "Women's OB Gyn Center",
    "endpoint": [
      {
        "reference": "Endpoint/27a4e967-47aa-5a9c-a572-b8297ee268a2"
      },
      {
        "reference": "Endpoint/93ae9ff7-e855-593f-ad72-482e7b612fb4"
      }
    ],
    "identifier": [
      {
        "system": "http://hl7.org/fhir/sid/us-npi",
        "value": "1245313154"
      }
    ],
    "address": [
      {
        "line": [
          "11800 ASTORIA BLVD"
        ],
        "city": "HOUSTON",
        "state": "TX",
        "postalCode": "77089-6041"
      },
      {
        "line": [
          "502 W MEDICAL CENTER BLVD"
        ],
        "city": "WEBSTER",
        "state": "TX",
        "postalCode": "77598-4220"
      },
      {
        "line": [
          "3534 VISTA RD"
        ],
        "city": "PASADENA",
        "state": "TX",
        "postalCode": "77504-1728"
      },
      {
        "line": [
          "1505 East Winding Way Drive",
          "Suite 200"
        ],
        "city": "FRIENDSWOOD",
        "state": "TX",
        "postalCode": "77546-5395"
      },
      {
        "line": [
          "500 W. MEDICAL CENTER BLVD"
        ],
        "city": "WEBSTER",
        "state": "TX",
        "postalCode": "77598-4229"
      },
      {
        "line": [
          "4600 EAST SAM HOUSTON PKWY S"
        ],
        "city": "PASADENA",
        "state": "TX",
        "postalCode": "77505-3948"
      },
      {
        "line": [
          "18300 HOUSTON METHODIST DR"
        ],
        "city": "HOUSTON",
        "state": "TX",
        "postalCode": "77058-6302"
      },
      {
        "line": [
          "450 W. MEDICAL CENTER BLVD",
          "Suite 206"
        ],
        "city": "WEBSTER",
        "state": "TX",
        "postalCode": "77598-4229"
      },
      {
        "line": [
          "5119 FAIRMONT PKWY STE A"
        ],
        "city": "PASADENA",
        "state": "TX",
        "postalCode": "77505-3758"
      }
    ],
    "extension": [
      {
        "url": "https://fhir.athena.io/StructureDefinition/ah-practice",
        "valueReference": {
          "reference": "Organization/a-1.Practice-21091"
        }
      },
      {
        "url": "https://fhir.athena.io/StructureDefinition/ah-brand",
        "valueReference": {
          "reference": "Organization/a-21091.Brand-1"
        }
      }
    ]
  },
  "fullUrl": "urn:uuid:e9bcaae1-9211-5bb9-9ea0-b4cc0bb02867"
}