{
  "resource": {
    "resourceType": "Organization",
    "id": "024e8f3d-7286-5a7a-93b6-f08b1c7d5a73",
    "name": "Titus K Venyah MD PA",
    "endpoint": [
      {
        "reference": "Endpoint/27a4e967-47aa-5a9c-a572-b8297ee268a2"
      },
      {
        "reference": "Endpoint/201799fe-6ec7-5857-af41-d7eb4c7e1613"
      }
    ],
    "identifier": [
      {
        "system": "http://hl7.org/fhir/sid/us-npi",
        "value": "1952411993"
      }
    ],
    "address": [
      {
        "line": [
          "24001 Cinco Village Center"
        ],
        "city": "KATY",
        "state": "TX",
        "postalCode": "77494-8419"
      },
      {
        "line": [
          "24024 Westheimer Parkway"
        ],
        "city": "KATY",
        "state": "TX",
        "postalCode": "77494-2012"
      },
      {
        "line": [
          "6001 George Bush Drive"
        ],
        "city": "KATY",
        "state": "TX",
        "postalCode": "77493-1991"
      },
      {
        "line": [
          "16655 Southwest Freeway"
        ],
        "city": "SUGAR LAND",
        "state": "TX",
        "postalCode": "77479-2329"
      },
      {
        "line": [
          "23553 Fernhurst Drive"
        ],
        "city": "KATY",
        "state": "TX",
        "postalCode": "77494-0686"
      },
      {
        "line": [
          "1520 Katy Gap Road"
        ],
        "city": "KATY",
        "state": "TX",
        "postalCode": "77494-4125"
      },
      {
        "line": [
          "23553 W. Fernhurst Dr. Katy TX"
        ],
        "city": "KATY",
        "state": "TX",
        "postalCode": "77494-0686"
      },
      {
        "line": [
          "18500 Katy Freeway"
        ],
        "city": "HOUSTON",
        "state": "TX",
        "postalCode": "77094-1110"
      },
      {
        "line": [
          "28019 Norfolk Trail Lane"
        ],
        "city": "KATY",
        "state": "TX",
        "postalCode": "77494-5321"
      },
      {
        "line": [
          "23900 Katy Freeway"
        ],
        "city": "KATY",
        "state": "TX",
        "postalCode": "77494-1323"
      },
      {
        "line": [
          "12141 richmond avenue"
        ],
        "city": "HOUSTON",
        "state": "TX",
        "postalCode": "77082-2408"
      }
    ],
    "extension": [
      {
        "url": "https://fhir.athena.io/StructureDefinition/ah-practice",
        "valueReference": {
          "reference": "Organization/a-1.Practice-8914"
        }
      },
      {
        "url": "https://fhir.athena.io/StructureDefinition/ah-brand",
        "valueReference": {
          "reference": "Organization/a-8914.Brand-1"
        }
      }
    ]
  },
  "fullUrl": "urn:uuid:024e8f3d-7286-5a7a-93b6-f08b1c7d5a73"
}