{
  "resource": {
    "resourceType": "Organization",
    "id": "c6d23ffd-9d07-519d-ad9a-7d4610616d58",
    "name": "MEDEXPRESS - PENNSYLVANIA",
    "endpoint": [
      {
        "reference": "Endpoint/27a4e967-47aa-5a9c-a572-b8297ee268a2"
      },
      {
        "reference": "Endpoint/e9f6104d-07b8-515b-a546-77ee9d711188"
      }
    ],
    "identifier": [
      {
        "system": "http://hl7.org/fhir/sid/us-npi",
        "value": "1700188257"
      },
      {
        "system": "http://hl7.org/fhir/sid/us-npi",
        "value": "1295025179"
      },
      {
        "system": "http://hl7.org/fhir/sid/us-npi",
        "value": "1063791663"
      },
      {
        "system": "http://hl7.org/fhir/sid/us-npi",
        "value": "1558642991"
      },
      {
        "system": "http://hl7.org/fhir/sid/us-npi",
        "value": "1225325178"
      },
      {
        "system": "http://hl7.org/fhir/sid/us-npi",
        "value": "1013223171"
      },
      {
        "system": "http://hl7.org/fhir/sid/us-npi",
        "value": "1811414105"
      },
      {
        "system": "http://hl7.org/fhir/sid/us-npi",
        "value": "1689948077"
      },
      {
        "system": "http://hl7.org/fhir/sid/us-npi",
        "value": "1437681335"
      },
      {
        "system": "http://hl7.org/fhir/sid/us-npi",
        "value": "1801175492"
      },
      {
        "system": "http://hl7.org/fhir/sid/us-npi",
        "value": "1780980953"
      },
      {
        "system": "http://hl7.org/fhir/sid/us-npi",
        "value": "1417281098"
      },
      {
        "system": "http://hl7.org/fhir/sid/us-npi",
        "value": "1063793685"
      },
      {
        "system": "http://hl7.org/fhir/sid/us-npi",
        "value": "1063761310"
      },
      {
        "system": "http://hl7.org/fhir/sid/us-npi",
        "value": "1134492788"
      },
      {
        "system": "http://hl7.org/fhir/sid/us-npi",
        "value": "1497028054"
      },
      {
        "system": "http://hl7.org/fhir/sid/us-npi",
        "value": "1699163576"
      },
      {
        "system": "http://hl7.org/fhir/sid/us-npi",
        "value": "1023375797"
      },
      {
        "system": "http://hl7.org/fhir/sid/us-npi",
        "value": "1245536416"
      },
      {
        "system": "http://hl7.org/fhir/sid/us-npi",
        "value": "1801243340"
      },
      {
        "system": "http://hl7.org/fhir/sid/us-npi",
        "value": "1225327547"
      },
      {
        "system": "http://hl7.org/fhir/sid/us-npi",
        "value": "1407123615"
      },
      {
        "system": "http://hl7.org/fhir/sid/us-npi",
        "value": "1083017404"
      },
      {
        "system": "http://hl7.org/fhir/sid/us-npi",
        "value": "1164766440"
      },
      {
        "system": "http://hl7.org/fhir/sid/us-npi",
        "value": "1386916518"
      },
      {
        "system": "http://hl7.org/fhir/sid/us-npi",
        "value": "1417279670"
      },
      {
        "system": "http://hl7.org/fhir/sid/us-npi",
        "value": "1356614895"
      },
      {
        "system": "http://hl7.org/fhir/sid/us-npi",
        "value": "1326311861"
      },
      {
        "system": "http://hl7.org/fhir/sid/us-npi",
        "value": "1518252964"
      },
      {
        "system": "http://hl7.org/fhir/sid/us-npi",
        "value": "1518256080"
      },
      {
        "system": "http://hl7.org/fhir/sid/us-npi",
        "value": "1386977973"
      },
      {
        "system": "http://hl7.org/fhir/sid/us-npi",
        "value": "1528331071"
      },
      {
        "system": "http://hl7.org/fhir/sid/us-npi",
        "value": "1043583602"
      },
      {
        "system": "http://hl7.org/fhir/sid/us-npi",
        "value": "1730447046"
      },
      {
        "system": "http://hl7.org/fhir/sid/us-npi",
        "value": "1942574348"
      },
      {
        "system": "http://hl7.org/fhir/sid/us-npi",
        "value": "1750638565"
      },
      {
        "system": "http://hl7.org/fhir/sid/us-npi",
        "value": "1891011979"
      },
      {
        "system": "http://hl7.org/fhir/sid/us-npi",
        "value": "1518230168"
      },
      {
        "system": "http://hl7.org/fhir/sid/us-npi",
        "value": "1770830580"
      },
      {
        "system": "http://hl7.org/fhir/sid/us-npi",
        "value": "1346514734"
      },
      {
        "system": "http://hl7.org/fhir/sid/us-npi",
        "value": "1770875494"
      },
      {
        "system": "http://hl7.org/fhir/sid/us-npi",
        "value": "1467744375"
      },
      {
        "system": "http://hl7.org/fhir/sid/us-npi",
        "value": "1548562184"
      },
      {
        "system": "http://hl7.org/fhir/sid/us-npi",
        "value": "1639441868"
      },
      {
        "system": "http://hl7.org/fhir/sid/us-npi",
        "value": "1235447202"
      },
      {
        "system": "http://hl7.org/fhir/sid/us-npi",
        "value": "1932480852"
      },
      {
        "system": "http://hl7.org/fhir/sid/us-npi",
        "value": "1629466628"
      },
      {
        "system": "http://hl7.org/fhir/sid/us-npi",
        "value": "1245556398"
      },
      {
        "system": "http://hl7.org/fhir/sid/us-npi",
        "value": "1396025813"
      },
      {
        "system": "http://hl7.org/fhir/sid/us-npi",
        "value": "1700188349"
      },
      {
        "system": "http://hl7.org/fhir/sid/us-npi",
        "value": "1609192012"
      },
      {
        "system": "http://hl7.org/fhir/sid/us-npi",
        "value": "1487950986"
      },
      {
        "system": "http://hl7.org/fhir/sid/us-npi",
        "value": "1720336829"
      },
      {
        "system": "http://hl7.org/fhir/sid/us-npi",
        "value": "1982839031"
      },
      {
        "system": "http://hl7.org/fhir/sid/us-npi",
        "value": "1124318043"
      },
      {
        "system": "http://hl7.org/fhir/sid/us-npi",
        "value": "1710295639"
      },
      {
        "system": "http://hl7.org/fhir/sid/us-npi",
        "value": "1467725010"
      },
      {
        "system": "http://hl7.org/fhir/sid/us-npi",
        "value": "1720545320"
      },
      {
        "system": "http://hl7.org/fhir/sid/us-npi",
        "value": "1073886636"
      }
    ],
    "address": [
      {
        "line": [
          "4808 Edgmont Ave"
        ],
        "city": "BROOKHAVEN",
        "state": "PA",
        "postalCode": "19015-1400"
      },
      {
        "line": [
          "1597 N. Susquehanna Trail"
        ],
        "city": "SELINSGROVE",
        "state": "PA",
        "postalCode": "17870-7782"
      },
      {
        "line": [
          "7219 McKnight Road",
          "Suite F"
        ],
        "city": "PITTSBURGH",
        "state": "PA",
        "postalCode": "15237-3524"
      },
      {
        "line": [
          "2411 Wilmington Road"
        ],
        "city": "NEW CASTLE",
        "state": "PA",
        "postalCode": "16105-1938"
      },
      {
        "line": [
          "2644 Mosside Boulevard"
        ],
        "city": "MONROEVILLE",
        "state": "PA",
        "postalCode": "15146-3348"
      },
      {
        "line": [
          "10632 Perry Highway"
        ],
        "city": "WEXFORD",
        "state": "PA",
        "postalCode": "15090-9245"
      },
      {
        "line": [
          "2652 Darlington Road, Suite 10"
        ],
        "city": "BEAVER FALLS",
        "state": "PA",
        "postalCode": "15010-1295"
      },
      {
        "line": [
          "50 Freeport Rd.",
          "Suite 500"
        ],
        "city": "PITTSBURGH",
        "state": "PA",
        "postalCode": "15215-2976"
      },
      {
        "line": [
          "289 McClellandtown Road"
        ],
        "city": "UNIONTOWN",
        "state": "PA",
        "postalCode": "15401-5096"
      },
      {
        "line": [
          "1842 Fruitville Pike"
        ],
        "city": "LANCASTER",
        "state": "PA",
        "postalCode": "17601-4012"
      },
      {
        "line": [
          "2600 Old Washington Rd.",
          "Suite 150"
        ],
        "city": "UPPER ST. CLAIR",
        "state": "PA",
        "postalCode": "15241-2595"
      },
      {
        "line": [
          "4620 William Penn Highway"
        ],
        "city": "MURRYSVILLE",
        "state": "PA",
        "postalCode": "15668-2004"
      },
      {
        "line": [
          "256 New Castle Road",
          "Suite C"
        ],
        "city": "BUTLER",
        "state": "PA",
        "postalCode": "16001-2576"
      },
      {
        "line": [
          "3516 Saw Mill Run Blvd."
        ],
        "city": "PITTSBURGH",
        "state": "PA",
        "postalCode": "15227-2720"
      },
      {
        "line": [
          "3876 Route 30"
        ],
        "city": "LATROBE",
        "state": "PA",
        "postalCode": "15650-5256"
      },
      {
        "line": [
          "4 Clover Dr"
        ],
        "city": "SAINT CLAIR",
        "state": "PA",
        "postalCode": "17970-2200"
      },
      {
        "line": [
          "565 E. Chocolate Ave."
        ],
        "city": "HERSHEY",
        "state": "PA",
        "postalCode": "17033-1325"
      },
      {
        "line": [
          "4655 William Flynn Highway",
          "Suite 110"
        ],
        "city": "ALLISON PARK",
        "state": "PA",
        "postalCode": "15101-2248"
      },
      {
        "line": [
          "5201 Baum Blvd."
        ],
        "city": "PITTSBURGH",
        "state": "PA",
        "postalCode": "15224-2303"
      },
      {
        "line": [
          "677D Kidder St."
        ],
        "city": "WILKES BARRE",
        "state": "PA",
        "postalCode": "18702-6908"
      },
      {
        "line": [
          "860 Rostraver Road"
        ],
        "city": "BELLE VERNON",
        "state": "PA",
        "postalCode": "15012-1945"
      },
      {
        "line": [
          "6510 Route 30"
        ],
        "city": "JEANNETTE",
        "state": "PA",
        "postalCode": "15644-3170"
      },
      {
        "line": [
          "1729 East State St"
        ],
        "city": "HERMITAGE",
        "state": "PA",
        "postalCode": "16148-1863"
      },
      {
        "line": [
          "2128 Oakland Avenue"
        ],
        "city": "INDIANA",
        "state": "PA",
        "postalCode": "15701-3384"
      },
      {
        "line": [
          "6998 Crider Road"
        ],
        "city": "MARS",
        "state": "PA",
        "postalCode": "16046-2390"
      },
      {
        "line": [
          "5126 Route 30",
          "Suite 300"
        ],
        "city": "GREENSBURG",
        "state": "PA",
        "postalCode": "15601-7835"
      },
      {
        "line": [
          "4 Rohrerstown Road"
        ],
        "city": "LANCASTER",
        "state": "PA",
        "postalCode": "17603-2229"
      },
      {
        "line": [
          "205 Applegate Road",
          "Suite 101"
        ],
        "city": "STROUDSBURG",
        "state": "PA",
        "postalCode": "18360-6502"
      },
      {
        "line": [
          "451 Murtha Drive",
          "Suite 102"
        ],
        "city": "WAYNESBURG",
        "state": "PA",
        "postalCode": "15370-8144"
      },
      {
        "line": [
          "5944 Steubenville Pike"
        ],
        "city": "MC KEES ROCKS",
        "state": "PA",
        "postalCode": "15136-1315"
      },
      {
        "line": [
          "1490 NORTH CENTER AVE",
          "SUITE 100"
        ],
        "city": "SOMERSET",
        "state": "PA",
        "postalCode": "15501-1691"
      },
      {
        "line": [
          "3944 Brodhead Road",
          "Suite 7B"
        ],
        "city": "MONACA",
        "state": "PA",
        "postalCode": "15061-3029"
      },
      {
        "line": [
          "1139 Baltimore St"
        ],
        "city": "HANOVER",
        "state": "PA",
        "postalCode": "17331-4404"
      },
      {
        "line": [
          "18471 Smock Highway",
          "Suite 107"
        ],
        "city": "MEADVILLE",
        "state": "PA",
        "postalCode": "16335-3610"
      },
      {
        "line": [
          "400 Loucks Road"
        ],
        "city": "YORK",
        "state": "PA",
        "postalCode": "17404-1724"
      },
      {
        "line": [
          "3407 North 5th Street Highway"
        ],
        "city": "READING",
        "state": "PA",
        "postalCode": "19605-2428"
      },
      {
        "line": [
          "12116 State Route 30"
        ],
        "city": "NORTH HUNTINGDON",
        "state": "PA",
        "postalCode": "15642-1840"
      },
      {
        "line": [
          "3840 Washington Road"
        ],
        "city": "PETERS TOWNSHIP",
        "state": "PA",
        "postalCode": "15317-2945"
      },
      {
        "line": [
          "655 E DuBois Ave"
        ],
        "city": "DU BOIS",
        "state": "PA",
        "postalCode": "15801-3605"
      },
      {
        "line": [
          "1550 S Main Street"
        ],
        "city": "CHAMBERSBURG",
        "state": "PA",
        "postalCode": "17201-9201"
      },
      {
        "line": [
          "6396 Route 819 S"
        ],
        "city": "MOUNT PLEASANT",
        "state": "PA",
        "postalCode": "15666-3670"
      },
      {
        "line": [
          "1953 East 3rd St"
        ],
        "city": "WILLIAMSPORT",
        "state": "PA",
        "postalCode": "17701-3901"
      },
      {
        "line": [
          "3433 William Penn Hwy."
        ],
        "city": "PITTSBURGH",
        "state": "PA",
        "postalCode": "15235-5412"
      },
      {
        "line": [
          "460 Washington Road",
          "Suite 7"
        ],
        "city": "WASHINGTON",
        "state": "PA",
        "postalCode": "15301-2765"
      },
      {
        "line": [
          "276 W Side Mall"
        ],
        "city": "EDWARDSVILLE",
        "state": "PA",
        "postalCode": "18704-3117"
      },
      {
        "line": [
          "8702 University Blvd."
        ],
        "city": "MOON TOWNSHIP",
        "state": "PA",
        "postalCode": "15108-4209"
      },
      {
        "line": [
          "1613 N. Atherton Street, Suite B"
        ],
        "city": "STATE COLLEGE",
        "state": "PA",
        "postalCode": "16803-3073"
      },
      {
        "line": [
          "1048 Lincoln Way East",
          "Suite 101"
        ],
        "city": "CHAMBERSBURG",
        "state": "PA",
        "postalCode": "17201-2820"
      },
      {
        "line": [
          "303 East Tenth Street"
        ],
        "city": "TARENTUM",
        "state": "PA",
        "postalCode": "15084-1003"
      },
      {
        "line": [
          "1984 Greentree Road"
        ],
        "city": "PITTSBURGH",
        "state": "PA",
        "postalCode": "15220-1813"
      },
      {
        "line": [
          "5039 Peach St."
        ],
        "city": "ERIE",
        "state": "PA",
        "postalCode": "16509-2032"
      },
      {
        "line": [
          "300 East Plank Road"
        ],
        "city": "ALTOONA",
        "state": "PA",
        "postalCode": "16602-4154"
      },
      {
        "line": [
          "1440 Morrell Ave"
        ],
        "city": "CONNELLSVILLE",
        "state": "PA",
        "postalCode": "15425-3809"
      },
      {
        "line": [
          "1221 Scalp Avenue"
        ],
        "city": "JOHNSTOWN",
        "state": "PA",
        "postalCode": "15904-3150"
      },
      {
        "line": [
          "1010 West Crestview Dr."
        ],
        "city": "LEBANON",
        "state": "PA",
        "postalCode": "17042-7415"
      }
    ],
    "extension": [
      {
        "url": "https://fhir.athena.io/StructureDefinition/ah-practice",
        "valueReference": {
          "reference": "Organization/a-1.Practice-3908"
        }
      },
      {
        "url": "https://fhir.athena.io/StructureDefinition/ah-brand",
        "valueReference": {
          "reference": "Organization/a-3908.Brand-1"
        }
      }
    ]
  },
  "fullUrl": "urn:uuid:c6d23ffd-9d07-519d-ad9a-7d4610616d58"
}