{
  "resource": {
    "resourceType": "Organization",
    "id": "ab07c34e-f75b-52e1-beba-a38d6f7cc735",
    "name": "Enhance Center for Intervention of Spine and Wellness",
    "endpoint": [
      {
        "reference": "Endpoint/27a4e967-47aa-5a9c-a572-b8297ee268a2"
      },
      {
        "reference": "Endpoint/2ad14de0-a903-5e53-b12e-4a465e9af037"
      }
    ],
    "identifier": [
      {
        "system": "http://hl7.org/fhir/sid/us-npi",
        "value": "1548624984"
      }
    ],
    "address": [
      {
        "line": [
          "25500 Meadowbrook Rd",
          "Ste 110"
        ],
        "city": "NOVI",
        "state": "MI",
        "postalCode": "48375-1879"
      },
      {
        "line": [
          "18101 Oakwood Blvd"
        ],
        "city": "DEARBORN",
        "state": "MI",
        "postalCode": "48124-4089"
      },
      {
        "line": [
          "36475 Five Mile Rd"
        ],
        "city": "LIVONIA",
        "state": "MI",
        "postalCode": "48154-1971"
      },
      {
        "line": [
          "34020 7 MILE RD STE 101"
        ],
        "city": "LIVONIA",
        "state": "MI",
        "postalCode": "48152-3093"
      },
      {
        "line": [
          "1560 E MAPLE RD"
        ],
        "city": "TROY",
        "state": "MI",
        "postalCode": "48083-1135"
      },
      {
        "line": [
          "44201 Dequindre Rd"
        ],
        "city": "TROY",
        "state": "MI",
        "postalCode": "48085-1117"
      },
      {
        "line": [
          "1213 MASON ST"
        ],
        "city": "DEARBORN",
        "state": "MI",
        "postalCode": "48124-2841"
      },
      {
        "line": [
          "43475 DALCOMA DR",
          "STE 100"
        ],
        "city": "CLINTON TOWNSHIP",
        "state": "MI",
        "postalCode": "48038-3593"
      },
      {
        "line": [
          "27101 SCHOENHERR RD",
          "STE 300"
        ],
        "city": "WARREN",
        "state": "MI",
        "postalCode": "48088-4700"
      },
      {
        "line": [
          "42645 Garfield Rd",
          "Ste 103"
        ],
        "city": "CLINTON TOWNSHIP",
        "state": "MI",
        "postalCode": "48038-5022"
      },
      {
        "line": [
          "375 BARCLAY CIR"
        ],
        "city": "ROCHESTER",
        "state": "MI",
        "postalCode": "48307-4511"
      },
      {
        "line": [
          "21230 DEQUINDRE RD"
        ],
        "city": "WARREN",
        "state": "MI",
        "postalCode": "48091-2279"
      },
      {
        "line": [
          "36401 VAN DYKE AVE"
        ],
        "city": "STERLING HEIGHTS",
        "state": "MI",
        "postalCode": "48312-2763"
      },
      {
        "line": [
          "19000 St Joes Pkwy Ste 100"
        ],
        "city": "LIVONIA",
        "state": "MI",
        "postalCode": "48152-1477"
      }
    ],
    "extension": [
      {
        "url": "https://fhir.athena.io/StructureDefinition/ah-practice",
        "valueReference": {
          "reference": "Organization/a-1.Practice-24274"
        }
      },
      {
        "url": "https://fhir.athena.io/StructureDefinition/ah-brand",
        "valueReference": {
          "reference": "Organization/a-24274.Brand-1"
        }
      }
    ]
  },
  "fullUrl": "urn:uuid:ab07c34e-f75b-52e1-beba-a38d6f7cc735"
}