{
  "resource": {
    "resourceType": "Organization",
    "id": "6a360e2b-3872-5917-84a6-9a48e4672020",
    "name": "Precision Spine and Orthopedics",
    "endpoint": [
      {
        "reference": "Endpoint/27a4e967-47aa-5a9c-a572-b8297ee268a2"
      },
      {
        "reference": "Endpoint/3f0eac3b-b5e7-5be9-8ab9-3cbc68b9ebd6"
      }
    ],
    "identifier": [
      {
        "system": "http://hl7.org/fhir/sid/us-npi",
        "value": "1851887335"
      }
    ],
    "address": [
      {
        "line": [
          "317 S BRAND BLVD",
          "STE B-101"
        ],
        "city": "GLENDALE",
        "state": "CA",
        "postalCode": "91204-1701"
      },
      {
        "line": [
          "222 W EULALIA ST STE 309"
        ],
        "city": "GLENDALE",
        "state": "CA",
        "postalCode": "91204-2851"
      },
      {
        "line": [
          "1509 WILSON TERRACE"
        ],
        "city": "GLENDALE",
        "state": "CA",
        "postalCode": "91206-4007"
      },
      {
        "line": [
          "2801 ATLANTIC AVE"
        ],
        "city": "LONG BEACH",
        "state": "CA",
        "postalCode": "90806-1701"
      },
      {
        "line": [
          "4929 VAN NUYS BLVD"
        ],
        "city": "SHERMAN OAKS",
        "state": "CA",
        "postalCode": "91403-1702"
      },
      {
        "line": [
          "1420 S. CENTRAL AVE"
        ],
        "city": "GLENDALE",
        "state": "CA",
        "postalCode": "91204-2508"
      },
      {
        "line": [
          "14850, ROSCOE BLVD"
        ],
        "city": "PANORAMA CITY",
        "state": "CA",
        "postalCode": "91402-4618"
      },
      {
        "line": [
          "2080 CENTURY PARK E",
          "STE. 1200"
        ],
        "city": "LOS ANGELES",
        "state": "CA",
        "postalCode": "90067-2001"
      },
      {
        "line": [
          "1711 W TEMPLE ST SUITE 5662"
        ],
        "city": "LOS ANGELES",
        "state": "CA",
        "postalCode": "90026-5421"
      },
      {
        "line": [
          "2080 CENTURY PARK E",
          "#1200"
        ],
        "city": "LOS ANGELES",
        "state": "CA",
        "postalCode": "90067-2001"
      },
      {
        "line": [
          "222 W Eulalia St Ste 309"
        ],
        "city": "GLENDALE",
        "state": "CA",
        "postalCode": "91204-2851"
      },
      {
        "line": [
          "1200 S BRAND BLVD STE 440"
        ],
        "city": "GLENDALE",
        "state": "CA",
        "postalCode": "91204-2641"
      },
      {
        "line": [
          "4910 Van Nuys Blvd",
          "Suite #308"
        ],
        "city": "SHERMAN OAKS",
        "state": "CA",
        "postalCode": "91403-1715"
      },
      {
        "line": [
          "435 Arden Avenue, Suite 310"
        ],
        "city": "GLENDALE",
        "state": "CA",
        "postalCode": "91203-1130"
      },
      {
        "line": [
          "1812 Verdugo Blvd"
        ],
        "city": "GLENDALE",
        "state": "CA",
        "postalCode": "91208-1407"
      },
      {
        "line": [
          "4910 VAN NUYS BLVD",
          "SUITE 306"
        ],
        "city": "SHERMAN OAKS",
        "state": "CA",
        "postalCode": "91403-1715"
      },
      {
        "line": [
          "435 Arden Avenue, Suite 520"
        ],
        "city": "GLENDALE",
        "state": "CA",
        "postalCode": "91203-1103"
      }
    ],
    "extension": [
      {
        "url": "https://fhir.athena.io/StructureDefinition/ah-practice",
        "valueReference": {
          "reference": "Organization/a-1.Practice-18814"
        }
      },
      {
        "url": "https://fhir.athena.io/StructureDefinition/ah-brand",
        "valueReference": {
          "reference": "Organization/a-18814.Brand-1"
        }
      }
    ]
  },
  "fullUrl": "urn:uuid:6a360e2b-3872-5917-84a6-9a48e4672020"
}