{
  "resource": {
    "resourceType": "Organization",
    "id": "cb4a1886-c56d-56aa-b56f-3e7d656a6766",
    "name": "Dr Thomas Hong",
    "endpoint": [
      {
        "reference": "Endpoint/27a4e967-47aa-5a9c-a572-b8297ee268a2"
      },
      {
        "reference": "Endpoint/bfe5b7da-2c5c-5079-b250-bf8a9fdcda4c"
      }
    ],
    "identifier": [
      {
        "system": "http://hl7.org/fhir/sid/us-npi",
        "value": "1174103782"
      }
    ],
    "address": [
      {
        "line": [
          "3016 COMMUNICATIONS PKWY",
          "STE 100"
        ],
        "city": "PLANO",
        "state": "TX",
        "postalCode": "75093-8906"
      },
      {
        "line": [
          "1800 PARK PLACE AVE"
        ],
        "city": "FORT WORTH",
        "state": "TX",
        "postalCode": "76110-1302"
      },
      {
        "line": [
          "2800 E BROAD ST STE 316"
        ],
        "city": "MANSFIELD",
        "state": "TX",
        "postalCode": "76063-6409"
      },
      {
        "line": [
          "252 MATLOCK RD",
          "4th Floor"
        ],
        "city": "MANSFIELD",
        "state": "TX",
        "postalCode": "76063-4294"
      },
      {
        "line": [
          "7200 OAKMONT BLVD"
        ],
        "city": "FORT WORTH",
        "state": "TX",
        "postalCode": "76132-3902"
      },
      {
        "line": [
          "2700 E BROAD ST"
        ],
        "city": "MANSFIELD",
        "state": "TX",
        "postalCode": "76063-5899"
      },
      {
        "line": [
          "2800 E. Broad St. #316"
        ],
        "city": "MANSFIELD",
        "state": "TX",
        "postalCode": "76063-7816"
      },
      {
        "line": [
          "12001 SOUTH FWY STE 101"
        ],
        "city": "BURLESON",
        "state": "TX",
        "postalCode": "76028-7214"
      }
    ],
    "extension": [
      {
        "url": "https://fhir.athena.io/StructureDefinition/ah-practice",
        "valueReference": {
          "reference": "Organization/a-1.Practice-24166"
        }
      },
      {
        "url": "https://fhir.athena.io/StructureDefinition/ah-brand",
        "valueReference": {
          "reference": "Organization/a-24166.Brand-1"
        }
      }
    ]
  },
  "fullUrl": "urn:uuid:cb4a1886-c56d-56aa-b56f-3e7d656a6766"
}