{
  "resource": {
    "resourceType": "Organization",
    "id": "8CD4026FDF444E6294DC92B80494E079",
    "identifier": [
      {
        "system": "http://hl7.org/fhir/sid/us-npi",
        "value": "1275651515"
      }
    ],
    "active": true,
    "type": [
      {
        "coding": [
          {
            "system": "http://terminology.hl7.org/CodeSystem/organization-type",
            "code": "prov",
            "display": "Healthcare Provider"
          }
        ],
        "text": "Healthcare Provider"
      }
    ],
    "name": "The Oncology Institute of Hope and Innovation",
    "telecom": [
      {
        "extension": [
          {
            "url": "http://hl7.org/fhir/StructureDefinition/data-absent-reason",
            "valueCode": "unknown"
          }
        ]
      }
    ],
    "address": [
      {
        "line": [
          "1411 S. Garfield Ave., Suite 306"
        ],
        "city": "Alhambra",
        "state": "CA",
        "postalCode": "91801"
      },
      {
        "line": [
          "710 N Euclid St",
          "Suite #106"
        ],
        "city": "Anaheim",
        "state": "CA",
        "postalCode": "92801"
      },
      {
        "line": [
          "500 Vonderburg Drive Suite 204"
        ],
        "city": "Brandon",
        "state": "FL",
        "postalCode": "33511"
      },
      {
        "line": [
          "2601 West Alameda Ave.",
          "Suite # 300"
        ],
        "city": "Burbank",
        "state": "CA",
        "postalCode": "91505"
      },
      {
        "line": [
          "1111 W. 34th St ",
          "210"
        ],
        "city": "Austin",
        "state": "TX",
        "postalCode": "78705"
      },
      {
        "line": [
          "13768 Roswell Ave Suite 105"
        ],
        "city": "Chino",
        "state": "CA",
        "postalCode": "91710"
      },
      {
        "line": [
          "450 4th Ave. Suite 311"
        ],
        "city": "Chula Vista",
        "state": "CA",
        "postalCode": "91910"
      },
      {
        "line": [
          "1127 Wilshire Blvd. ",
          "Suite 900"
        ],
        "city": "Los Angeles",
        "state": "CA",
        "postalCode": "90017"
      },
      {
        "line": [
          "900 S Main Street ",
          "Suite 204"
        ],
        "city": "Corona",
        "state": "CA",
        "postalCode": "92882"
      },
      {
        "line": [
          "554 E. San Bernardino Rd. ",
          "Suite 105"
        ],
        "city": "Covina",
        "state": "CA",
        "postalCode": "91723"
      },
      {
        "line": [
          "9808 Venice Blvd.",
          "Suite 603"
        ],
        "city": "Culver City ",
        "state": "CA",
        "postalCode": "90232"
      },
      {
        "line": [
          "1513 S. Grand Ave.",
          "Suite #360"
        ],
        "city": "Los Angeles",
        "state": "CA",
        "postalCode": "90015"
      },
      {
        "line": [
          "11525 Brookshire Ave.",
          "Suite 202"
        ],
        "city": "Downey",
        "state": "CA",
        "postalCode": "90241"
      },
      {
        "line": [
          "10226 Lakewood Blvd."
        ],
        "city": "Downey",
        "state": "CA",
        "postalCode": "90241"
      },
      {
        "line": [
          "501 M.L.K. Jr Street South Suite 201"
        ],
        "city": "St. Petersburg",
        "state": "FL",
        "postalCode": "33705"
      },
      {
        "line": [
          "6565 E. Carondelet Dr.",
          "285"
        ],
        "city": "Tucson",
        "state": "AZ",
        "postalCode": "85710"
      },
      {
        "line": [
          "1701 E. Cesar Chavez Ave.",
          "Suite 535"
        ],
        "city": "Los Angeles",
        "state": "CA",
        "postalCode": "90033"
      },
      {
        "line": [
          "500 SE 17th Street",
          "Suite 100"
        ],
        "city": "Fort Lauderdale",
        "state": "FL",
        "postalCode": "33316"
      },
      {
        "line": [
          "11100 Warner Avenue ",
          "Suite 214"
        ],
        "city": "Fountain Valley",
        "state": "CA",
        "postalCode": "92708"
      },
      {
        "line": [
          "6121 N. Thesta St. Suite 204"
        ],
        "city": "Fresno",
        "state": "CA",
        "postalCode": "93710"
      },
      {
        "line": [
          "6405 North Federal Highway, Ste. 402"
        ],
        "city": "Fort Lauderdale",
        "state": "FL",
        "postalCode": "33308"
      },
      {
        "line": [
          "1510 S. Central Ave.",
          "Suite 240"
        ],
        "city": "Glendale",
        "state": "CA",
        "postalCode": "91204"
      },
      {
        "line": [
          "275 W. Continental Road",
          "Suite 133"
        ],
        "city": "Green Valley",
        "state": "AZ",
        "postalCode": "85622"
      },
      {
        "line": [
          "16404 Colima Rd."
        ],
        "city": "Hacienda Heights",
        "state": "CA",
        "postalCode": "91745"
      },
      {
        "line": [
          "1001 S State Street ",
          "Suite A"
        ],
        "city": "Hemet",
        "state": "CA",
        "postalCode": "92543"
      },
      {
        "line": [
          "10001 S. Eastern Ave.",
          "Suite 301"
        ],
        "city": "Henderson",
        "state": "NV",
        "postalCode": "89052"
      },
      {
        "line": [
          "2904 W. Horizon Ridge Pkwy",
          "Suite 200"
        ],
        "city": "Henderson ",
        "state": "NV",
        "postalCode": "89052"
      },
      {
        "line": [
          "7100 W 20TH Ave ",
          "Suite 403"
        ],
        "city": "Hialeah",
        "state": "FL",
        "postalCode": "33016"
      },
      {
        "line": [
          "3965 5th Ave. Suite 230"
        ],
        "city": "San Diego",
        "state": "CA",
        "postalCode": "92103"
      },
      {
        "line": [
          "3702 Washington St. Suite 401"
        ],
        "city": "Hollywood",
        "state": "FL",
        "postalCode": "33021"
      },
      {
        "line": [
          "4730 Exploration Ave "
        ],
        "city": "Lakeland ",
        "state": "FL",
        "postalCode": "33812"
      },
      {
        "line": [
          "3300 E. South St.",
          "Suite 304"
        ],
        "city": "Long Beach",
        "state": "CA",
        "postalCode": "90805"
      },
      {
        "line": [
          "2911 N. Tenaya Way. ",
          "Suite 210"
        ],
        "city": "Las Vegas",
        "state": "NV",
        "postalCode": "89128"
      },
      {
        "line": [
          "2440 E. South St."
        ],
        "city": "Long Beach",
        "state": "CA",
        "postalCode": "90805"
      },
      {
        "line": [
          "3851 Katella Ave.",
          "Suite 355"
        ],
        "city": "Los Alamitos",
        "state": "CA",
        "postalCode": "90720"
      },
      {
        "line": [
          "3628 E. Imperial Hwy.",
          "Suite 401"
        ],
        "city": "Lynwood",
        "state": "CA",
        "postalCode": "90262"
      },
      {
        "line": [
          "13395 N Marana Main St.",
          "Building A"
        ],
        "city": "Marana",
        "state": "AZ",
        "postalCode": "85653"
      },
      {
        "line": [
          "6499 38th Ave N. Suite G1"
        ],
        "city": "St. Petersburg",
        "state": "FL",
        "postalCode": "33710"
      },
      {
        "line": [
          "3000 SW 148th Ave",
          "Suite 200"
        ],
        "city": "Miramar",
        "state": "FL",
        "postalCode": "33027"
      },
      {
        "line": [
          "11550 Indian Hills Rd.",
          "Suite 360"
        ],
        "city": "Mission Hills",
        "state": "CA",
        "postalCode": "91345"
      },
      {
        "line": [
          "26732 Crown Valley Parkway",
          "Suite 271"
        ],
        "city": "Mission Viejo",
        "state": "CA",
        "postalCode": "92691"
      },
      {
        "line": [
          "101 E. Beverly  Blvd.",
          "Suite 200"
        ],
        "city": "Montebello",
        "state": "CA",
        "postalCode": "90640"
      },
      {
        "line": [
          "120 W. Hellman Ave",
          "Suite 202"
        ],
        "city": "Monterey Park",
        "state": "CA",
        "postalCode": "91754"
      },
      {
        "line": [
          "25405 Hancock Ave.",
          "Suite #101"
        ],
        "city": "Murrieta",
        "state": "CA",
        "postalCode": "92562"
      },
      {
        "line": [
          "100 NW 170th Street",
          "Suite 207"
        ],
        "city": "Miami",
        "state": "FL",
        "postalCode": "33169"
      },
      {
        "line": [
          "18250 Roscoe Blvd.",
          "Suite 325"
        ],
        "city": "Northridge",
        "state": "CA",
        "postalCode": "91325"
      },
      {
        "line": [
          "1521 E. Tangerine Rd.",
          "Suite 331"
        ],
        "city": "Oro Valley",
        "state": "AZ",
        "postalCode": "85755"
      },
      {
        "line": [
          "41865 Boardwalk",
          "Suite 100"
        ],
        "city": "Palm Desert ",
        "state": "CA",
        "postalCode": "92211"
      },
      {
        "line": [
          "50 Bellefontaine Street",
          "Suite 401"
        ],
        "city": "Pasadena",
        "state": "CA",
        "postalCode": "91105"
      },
      {
        "line": [
          "1601 West Reynolds St. ",
          "Suite 101"
        ],
        "city": "Plant City",
        "state": "FL",
        "postalCode": "33563"
      },
      {
        "line": [
          "6766 West Sunrise Blvd, Ste. 101"
        ],
        "city": "Plantation",
        "state": "FL",
        "postalCode": "33313"
      },
      {
        "line": [
          "1555 North Orange Grove Ave"
        ],
        "city": "Pomona",
        "state": "CA",
        "postalCode": "91767"
      },
      {
        "line": [
          "9495 SW Locust Street",
          "Suite G"
        ],
        "city": "Portland",
        "state": "OR",
        "postalCode": "97232"
      },
      {
        "line": [
          "4646 Brockton Ave.",
          "Suite 203"
        ],
        "city": "Riverside",
        "state": "CA",
        "postalCode": "92506"
      },
      {
        "line": [
          "2720 Commercial Street SE",
          "Suite 101"
        ],
        "city": "Salem",
        "state": "OR",
        "postalCode": "97302"
      },
      {
        "line": [
          "399 E. Highland Ave. ",
          "Suite 501"
        ],
        "city": "San Bernardino",
        "state": "CA",
        "postalCode": "92404"
      },
      {
        "line": [
          "207 S. Santa Anita Ave.",
          "Suite P-05"
        ],
        "city": "San Gabriel",
        "state": "CA",
        "postalCode": "91776"
      },
      {
        "line": [
          "999 Tustin Ave.",
          "Suite 212"
        ],
        "city": "Santa Ana",
        "state": "CA",
        "postalCode": "92705"
      },
      {
        "line": [
          "2876 Sycamore Dr.",
          "Suite# 201"
        ],
        "city": "Simi Valley",
        "state": "CA",
        "postalCode": "93065"
      },
      {
        "line": [
          "6262 Sunset Dr.",
          "Suite 303"
        ],
        "city": "Miami",
        "state": "FL",
        "postalCode": "33143"
      },
      {
        "line": [
          "5625 Eiger Road",
          "Suite 115"
        ],
        "city": "Austin",
        "state": "TX",
        "postalCode": "78735"
      },
      {
        "line": [
          "5380 S. Rainbow Blvd.",
          "Suite 210"
        ],
        "city": "Las Vegas ",
        "state": "NV",
        "postalCode": "89118"
      },
      {
        "line": [
          "6450 Medical Center St. "
        ],
        "city": "Las Vegas",
        "state": "NV",
        "postalCode": "89148"
      },
      {
        "line": [
          "4700 N. Habana Ave Suite 702"
        ],
        "city": "Tampa",
        "state": "FL",
        "postalCode": "33614"
      },
      {
        "line": [
          "27450 Ynez Rd.",
          "Suite 116"
        ],
        "city": "Temecula",
        "state": "CA",
        "postalCode": "92590"
      },
      {
        "line": [
          "425 Haaland Dr.",
          "Suite #103"
        ],
        "city": "Thousand Oaks",
        "state": "CA",
        "postalCode": "91361"
      },
      {
        "line": [
          "21605 Hawthorne Blvd",
          "Suite 200"
        ],
        "city": "Torrance",
        "state": "CA",
        "postalCode": "90503"
      },
      {
        "line": [
          "440 N. Mountain Ave",
          "Suite 307"
        ],
        "city": "Upland",
        "state": "CA",
        "postalCode": "91786"
      },
      {
        "line": [
          "23861 McBean Parkway",
          "Suite E30"
        ],
        "city": "Valencia",
        "state": "CA",
        "postalCode": "92801"
      },
      {
        "line": [
          "12370 Hesperia RD. Suite 17 "
        ],
        "city": "Victorville",
        "state": "CA",
        "postalCode": "92395"
      },
      {
        "line": [
          "15980 Bear Valley Rd."
        ],
        "city": "Victorville ",
        "state": "CA",
        "postalCode": "92395"
      },
      {
        "line": [
          "2067 Vista Way Suite 295"
        ],
        "city": "Vista",
        "state": "CA",
        "postalCode": "92103"
      },
      {
        "line": [
          "1707 W. St. Marys Rd ",
          "Suite 275"
        ],
        "city": "Tucson",
        "state": "AZ",
        "postalCode": "85745"
      },
      {
        "line": [
          "2755 Herndon Ave."
        ],
        "city": "Clovis",
        "state": "CA",
        "postalCode": "93611"
      },
      {
        "line": [
          "1250 S. Sunset Ave.",
          "Suite 101"
        ],
        "city": "West Covina",
        "state": "CA",
        "postalCode": "91790"
      },
      {
        "line": [
          "7320 Woodlake Ave.",
          "Suite# 160"
        ],
        "city": "West Hills",
        "state": "CA",
        "postalCode": "91307"
      },
      {
        "line": [
          "8135 S. Painter Ave.",
          "Suite 103"
        ],
        "city": "Whittier",
        "state": "CA",
        "postalCode": "90602"
      }
    ],
    "endpoint": [
      {
        "reference": "Endpoint/b003-4871-b587-ff6ce4705fcb"
      }
    ]
  },
  "fullUrl": "https://g2fhir.mckesson.com/xfhir/Organization/8CD4026FDF444E6294DC92B80494E079"
}