{
  "resource": {
    "resourceType": "Organization",
    "id": "94A74FF97A2F4870A72562124C08F36B",
    "identifier": [
      {
        "system": "http://hl7.org/fhir/sid/us-npi",
        "value": "1487621496"
      }
    ],
    "active": true,
    "type": [
      {
        "coding": [
          {
            "system": "http://terminology.hl7.org/CodeSystem/organization-type",
            "code": "prov",
            "display": "Healthcare Provider"
          }
        ],
        "text": "Healthcare Provider"
      }
    ],
    "name": "Blue Ridge Cancer Care",
    "telecom": [
      {
        "extension": [
          {
            "url": "http://hl7.org/fhir/StructureDefinition/data-absent-reason",
            "valueCode": "unknown"
          }
        ]
      }
    ],
    "address": [
      {
        "line": [
          "1 ARH Lane, Suite 300",
          "Emmett Medical and Surgical Clinic"
        ],
        "city": "Low Moor",
        "state": "VA",
        "postalCode": "24457"
      },
      {
        "line": [
          "1710 Whitfield Drive"
        ],
        "city": "Bedford",
        "state": "VA",
        "postalCode": "24523"
      },
      {
        "line": [
          "2600 Research Center Dr.",
          "Suite A"
        ],
        "city": "Blacksburg",
        "state": "VA",
        "postalCode": "24060"
      },
      {
        "line": [
          "390 South Main Street",
          "Suite 103"
        ],
        "city": "Rocky Mount",
        "state": "VA",
        "postalCode": "24151"
      },
      {
        "line": [
          "108 Houston Street",
          "Suite B"
        ],
        "city": "Lexington",
        "state": "VA",
        "postalCode": "24450"
      },
      {
        "line": [
          "1020 Terrace Drive",
          "Suite 202"
        ],
        "city": "Marion",
        "state": "VA",
        "postalCode": "24354"
      },
      {
        "line": [
          "660 New Hope Road "
        ],
        "city": "Princeton ",
        "state": "WV",
        "postalCode": "24740"
      },
      {
        "line": [
          "2400 Lee Highway"
        ],
        "city": "Pulaski",
        "state": "VA",
        "postalCode": "24301"
      },
      {
        "line": [
          "2013 South Jefferson Street"
        ],
        "city": "Roanoke",
        "state": "VA",
        "postalCode": "24014"
      },
      {
        "line": [
          "1900 Electric Road"
        ],
        "city": "Salem",
        "state": "VA",
        "postalCode": "24153"
      },
      {
        "line": [
          "1995 West Ridge Road",
          "Suite E"
        ],
        "city": "Wytheville",
        "state": "VA",
        "postalCode": "24382"
      }
    ],
    "endpoint": [
      {
        "reference": "Endpoint/b003-4871-b587-ff6ce4705fcb"
      }
    ]
  },
  "fullUrl": "https://g2fhir.mckesson.com/xfhir/Organization/94A74FF97A2F4870A72562124C08F36B"
}