{
  "resource": {
    "resourceType": "Organization",
    "id": "39E8045033D7223BE0540010E076CAE3",
    "identifier": [
      {
        "system": "http://hl7.org/fhir/sid/us-npi",
        "value": "1801025481"
      }
    ],
    "active": true,
    "type": [
      {
        "coding": [
          {
            "system": "http://terminology.hl7.org/CodeSystem/organization-type",
            "code": "prov",
            "display": "Healthcare Provider"
          }
        ],
        "text": "Healthcare Provider"
      }
    ],
    "name": "IVX Health",
    "telecom": [
      {
        "extension": [
          {
            "url": "http://hl7.org/fhir/StructureDefinition/data-absent-reason",
            "valueCode": "unknown"
          }
        ]
      }
    ],
    "address": [
      {
        "line": [
          "999 E Basse Rd",
          "Suite 105"
        ],
        "city": "San Antonio",
        "state": "TX",
        "postalCode": "78209"
      },
      {
        "line": [
          "5511 W Loop 1604 N",
          "Suite 107"
        ],
        "city": "San Antonio",
        "state": "TX",
        "postalCode": "78253-7311"
      },
      {
        "line": [
          "2515 County Line Rd"
        ],
        "city": "Algonquin",
        "state": "IL",
        "postalCode": "60102"
      },
      {
        "line": [
          "293 E Altamonte Drive",
          "Suite 1201"
        ],
        "city": "Altamonte Springs",
        "state": "FL",
        "postalCode": "32701"
      },
      {
        "line": [
          "10515 N Mopac Expy",
          "Suite A129"
        ],
        "city": "Austin",
        "state": "TX",
        "postalCode": "78759"
      },
      {
        "line": [
          "4509 Saint Johns Ave",
          "Suite 4"
        ],
        "city": "Jacksonville",
        "state": "FL",
        "postalCode": "32210"
      },
      {
        "line": [
          "362 Buckley Mill Rd"
        ],
        "city": "Wilmington",
        "state": "DE",
        "postalCode": "19807"
      },
      {
        "line": [
          "5103 BELLAIRE BLVD",
          "# 240"
        ],
        "city": "Bellaire",
        "state": "TX",
        "postalCode": "77401-4419"
      },
      {
        "line": [
          "710 Rockhill Drive"
        ],
        "city": "Bensalem",
        "state": "PA",
        "postalCode": "19020"
      },
      {
        "line": [
          "2007 4th St"
        ],
        "city": "Berkeley",
        "state": "CA",
        "postalCode": "94710-1912"
      },
      {
        "line": [
          "8773 W Boynton Beach Blvd",
          "Unit 500"
        ],
        "city": "Boynton Beach",
        "state": "FL",
        "postalCode": "33472"
      },
      {
        "line": [
          "10314 Causeway Boulevard"
        ],
        "city": "Tampa",
        "state": "FL",
        "postalCode": "33619"
      },
      {
        "line": [
          "5111 Peter Taylor Park Drive",
          "Suite 500"
        ],
        "city": "Brentwood",
        "state": "TN",
        "postalCode": "37207"
      },
      {
        "line": [
          "201 NW Briarcliff Pkwy",
          "Suite 125"
        ],
        "city": "Kansas City",
        "state": "MO",
        "postalCode": "64116"
      },
      {
        "line": [
          "945 E Haverford Rd",
          "Suite 202A"
        ],
        "city": "Bryn Mawr",
        "state": "PA",
        "postalCode": "19010"
      },
      {
        "line": [
          "10007 N Dale Mabry Hwy"
        ],
        "city": "Tampa",
        "state": "FL",
        "postalCode": "33618"
      },
      {
        "line": [
          "2226 Walnut Street"
        ],
        "city": "Cary",
        "state": "NC",
        "postalCode": "27518"
      },
      {
        "line": [
          "1400 E Whitestone",
          "Suite 400"
        ],
        "city": "Cedar Park",
        "state": "TX",
        "postalCode": "78613"
      },
      {
        "line": [
          "7443 Commons Blvd",
          "Suite 114"
        ],
        "city": "Chattanooga",
        "state": "TN",
        "postalCode": "37421-2895"
      },
      {
        "line": [
          "7443 Commons Blvd",
          "Suite 114"
        ],
        "city": "Chattanooga",
        "state": "TN",
        "postalCode": "37421"
      },
      {
        "line": [
          "17406 Chenal Pkwy ",
          "Suite 250"
        ],
        "city": "Little Rock",
        "state": "AR",
        "postalCode": "7222"
      },
      {
        "line": [
          "818 Haddonfield Rd",
          "Ste D"
        ],
        "city": "Cherry Hill",
        "state": "NJ",
        "postalCode": "08002-2608"
      },
      {
        "line": [
          "24926 Farm to Market 1093, Suite A"
        ],
        "city": "Katy",
        "state": "TX",
        "postalCode": "77494"
      },
      {
        "line": [
          "495 Dunlop Ln",
          "Suite 115"
        ],
        "city": "Clarksville",
        "state": "TN",
        "postalCode": "37040-5295"
      },
      {
        "line": [
          "495 Dunlop Ln",
          "Suite 115"
        ],
        "city": "Clarksville",
        "state": "TN",
        "postalCode": "37040-5295"
      },
      {
        "line": [
          "1235 Clear Lake City Blvd.",
          "Ste.E"
        ],
        "city": "Houston",
        "state": "TX",
        "postalCode": "77062"
      },
      {
        "line": [
          "225 Allwood Rd",
          "Unit 8"
        ],
        "city": "Clifton",
        "state": "NJ",
        "postalCode": "07012"
      },
      {
        "line": [
          "3645 Stone Creek Blvd",
          "Unit B"
        ],
        "city": "Cincinnati",
        "state": "OH",
        "postalCode": "45251-1469"
      },
      {
        "line": [
          "2028 West Poplar Avenue",
          "Suite 113 "
        ],
        "city": "Collierville",
        "state": "TN",
        "postalCode": "38017-0618"
      },
      {
        "line": [
          "2028 West Poplar Avenue",
          "Suite 113"
        ],
        "city": "Collierville",
        "state": "TN",
        "postalCode": "38017-0618"
      },
      {
        "line": [
          "1922 Shady Brook St"
        ],
        "city": "Columbia",
        "state": "TN",
        "postalCode": "38401"
      },
      {
        "line": [
          "3326 Aspen Grove Drive",
          "Suite 502"
        ],
        "city": "Franklin",
        "state": "TN",
        "postalCode": "37067-4839"
      },
      {
        "line": [
          "206 Cool Springs Blvd"
        ],
        "city": "Franklin",
        "state": "TN",
        "postalCode": "37067"
      },
      {
        "line": [
          "17333 SPRING CYPRESS RD STE E"
        ],
        "city": "CYPRESS",
        "state": "TX",
        "postalCode": "77429"
      },
      {
        "line": [
          "15 Backus Ave"
        ],
        "city": "Danbury",
        "state": "CT",
        "postalCode": "06810"
      },
      {
        "line": [
          "2262 W International Speedway Blvd"
        ],
        "city": "Daytona Beach",
        "state": "FL",
        "postalCode": "32114-1124"
      },
      {
        "line": [
          "4761 W Atlantic Ave "
        ],
        "city": "Delray Beach",
        "state": "FL",
        "postalCode": "33445"
      },
      {
        "line": [
          "7586 NW 104th Ave G-102"
        ],
        "city": "Miami",
        "state": "FL",
        "postalCode": "33178-4986"
      },
      {
        "line": [
          "7600 Dr. Phillips Blvd",
          "Ste 152"
        ],
        "city": "Orlando",
        "state": "FL",
        "postalCode": "32819"
      },
      {
        "line": [
          "7557 Sawmill Road"
        ],
        "city": "Dublin",
        "state": "OH",
        "postalCode": "43016"
      },
      {
        "line": [
          "7011 Fayetteville Road",
          "Ste 107"
        ],
        "city": "Durham",
        "state": "NC",
        "postalCode": "27713"
      },
      {
        "line": [
          "1861 Cordova Rd"
        ],
        "city": "Fort Lauderdale",
        "state": "FL",
        "postalCode": "33316"
      },
      {
        "line": [
          "681 S White Station Rd"
        ],
        "city": "Memphis",
        "state": "TN",
        "postalCode": "38117"
      },
      {
        "line": [
          "Olde Liberty Square",
          "4813 Jonestown Road, Suite 106"
        ],
        "city": "Harrisburg",
        "state": "PA",
        "postalCode": "17109"
      },
      {
        "line": [
          "725 River Rd",
          "Suite 27"
        ],
        "city": "Edgewater",
        "state": "NJ",
        "postalCode": "07020"
      },
      {
        "line": [
          "997 E County Line Road",
          "Suite M"
        ],
        "city": "Greenwood",
        "state": "IN",
        "postalCode": "46143-1076"
      },
      {
        "line": [
          "21740 S Tamiami Trl",
          "Suite 106"
        ],
        "city": "Estero",
        "state": "FL",
        "postalCode": "33928-2819"
      },
      {
        "line": [
          "10910 Kingston Pike",
          "Suite 101"
        ],
        "city": "Knoxville",
        "state": "TN",
        "postalCode": "37934-2948"
      },
      {
        "line": [
          "11670 Commercial Drive",
          "Suite 100"
        ],
        "city": "Fishers",
        "state": "IN",
        "postalCode": "46038-2974"
      },
      {
        "line": [
          "8291 Dani Dr.",
          "Suite 130"
        ],
        "city": "Fort Myers",
        "state": "FL",
        "postalCode": "33966-8021"
      },
      {
        "line": [
          "43360 Mission Blvd",
          "Suite 100"
        ],
        "city": "Fremont",
        "state": "CA",
        "postalCode": "94539"
      },
      {
        "line": [
          "7415 NW 4th Blvd",
          "Suite 20"
        ],
        "city": "Gainesville",
        "state": "FL",
        "postalCode": "32607-2176"
      },
      {
        "line": [
          "640 Timber Dr. East",
          "Suite 110"
        ],
        "city": "Garner",
        "state": "NC",
        "postalCode": "27529"
      },
      {
        "line": [
          "4024 E Franklin Blvd",
          "Suite 150"
        ],
        "city": "Gastonia",
        "state": "NC",
        "postalCode": "28056"
      },
      {
        "line": [
          "119 Hebron Ave",
          "Unit B"
        ],
        "city": "Glastonbury",
        "state": "CT",
        "postalCode": "06033"
      },
      {
        "line": [
          "2601 Compass Rd",
          "Suite 140"
        ],
        "city": "Glenview",
        "state": "IL",
        "postalCode": "60026"
      },
      {
        "line": [
          "4205 W Wendover Ave",
          "Suite D"
        ],
        "city": "Greensboro",
        "state": "NC",
        "postalCode": "27407"
      },
      {
        "line": [
          "2756 London Groveport Rd"
        ],
        "city": "Grove City",
        "state": "OH",
        "postalCode": "43123-7931"
      },
      {
        "line": [
          "1448 E Hallandale Beach Blvd"
        ],
        "city": "Hallandale",
        "state": "FL",
        "postalCode": "33009-4617"
      },
      {
        "line": [
          "1006 Glenbrook Way",
          "Suite 130"
        ],
        "city": "Hendersonville",
        "state": "TN",
        "postalCode": "37075"
      },
      {
        "line": [
          "4007 Lebanon Pike"
        ],
        "city": "Hermitage",
        "state": "TN",
        "postalCode": "37076"
      },
      {
        "line": [
          "Address1 3880 Paxton Ave",
          "Ste G"
        ],
        "city": "Cincinnati",
        "state": "OH",
        "postalCode": "45209-2372"
      },
      {
        "line": [
          "464 N Parkway"
        ],
        "city": "Jackson",
        "state": "TN",
        "postalCode": "38305-2810"
      },
      {
        "line": [
          "464 N Parkway"
        ],
        "city": "Jackson",
        "state": "TN",
        "postalCode": "38305-2810"
      },
      {
        "line": [
          "586 Marsh Landing Pkwy"
        ],
        "city": "Jacksonville Beach",
        "state": "FL",
        "postalCode": "32250"
      },
      {
        "line": [
          "1653 The Fairway",
          "Suite 215"
        ],
        "city": "Jenkintown",
        "state": "PA",
        "postalCode": "19046"
      },
      {
        "line": [
          "23510 Kingsland Blvd.",
          "#101"
        ],
        "city": "Katy",
        "state": "TX",
        "postalCode": "77494"
      },
      {
        "line": [
          "12544 SW. 88th St. "
        ],
        "city": "Miami",
        "state": "FL",
        "postalCode": "33186"
      },
      {
        "line": [
          "1880 N Eastman Rd",
          "Suite 150"
        ],
        "city": "Kingsport",
        "state": "TN",
        "postalCode": "37664-2385"
      },
      {
        "line": [
          "2717 W Osceola Pkwy"
        ],
        "city": "Kissimmee",
        "state": "FL",
        "postalCode": "34741"
      },
      {
        "line": [
          "4001 Widewaters Parkway",
          "Suite J"
        ],
        "city": "Knightdale",
        "state": "NC",
        "postalCode": "27545"
      },
      {
        "line": [
          "6216 Highland Place Way",
          "Suite 101"
        ],
        "city": "Knoxville",
        "state": "TN",
        "postalCode": "37814-2593"
      },
      {
        "line": [
          "6216 Highland Place Way",
          "Suite 101"
        ],
        "city": "Knoxville",
        "state": "TN",
        "postalCode": "37919-4000"
      },
      {
        "line": [
          "919 Lakeland Park Center Dr",
          "Suite 374"
        ],
        "city": "Lakeland",
        "state": "FL",
        "postalCode": "33809"
      },
      {
        "line": [
          "3600 NE Ralph Powell Rd",
          "Suite B"
        ],
        "city": "Leeâ€™s Summit",
        "state": "MO",
        "postalCode": "64064"
      },
      {
        "line": [
          "2820 S Highland Ave",
          "Ste C"
        ],
        "city": "Lombard",
        "state": "IL",
        "postalCode": "60148-7140"
      },
      {
        "line": [
          "101 Monument St",
          "Suite D"
        ],
        "city": "Lowell",
        "state": "AR",
        "postalCode": "72745"
      },
      {
        "line": [
          "70 E Swedesford Rd",
          "Suite 130"
        ],
        "city": "Malvern",
        "state": "PA",
        "postalCode": "19355"
      },
      {
        "line": [
          "1400 San Jose Blvd",
          "Suite 13"
        ],
        "city": "Jacksonville",
        "state": "FL",
        "postalCode": "32257"
      },
      {
        "line": [
          "2309 Matthews Township Pkwy",
          "Suite 101"
        ],
        "city": "Matthews",
        "state": "NC",
        "postalCode": "28105"
      },
      {
        "line": [
          "6655 Travis Street",
          "Ste. 850"
        ],
        "city": "Houston",
        "state": "TX",
        "postalCode": "77030"
      },
      {
        "line": [
          "5200 Park Ave",
          "Suite 100"
        ],
        "city": "Memphis",
        "state": "TN",
        "postalCode": "37814-2593"
      },
      {
        "line": [
          "750 Redwood Highway Frontage Rd",
          "Suite #1206"
        ],
        "city": "Mill Valley",
        "state": "CA",
        "postalCode": "94941"
      },
      {
        "line": [
          "640 Cowpath Rd",
          "STE 3"
        ],
        "city": "Lansdale",
        "state": "PA",
        "postalCode": "19446-1554"
      },
      {
        "line": [
          "2249 Sandstone Dr."
        ],
        "city": "Morristown",
        "state": "TN",
        "postalCode": "37814-2593"
      },
      {
        "line": [
          "2249 Sandstone Dr"
        ],
        "city": "Morristown",
        "state": "TN",
        "postalCode": "37814-2593"
      },
      {
        "line": [
          "1203 Nixon Drive"
        ],
        "city": "Mt Laurel",
        "state": "NJ",
        "postalCode": "08057"
      },
      {
        "line": [
          "803 N Thompson Lane",
          "Suite 101 A"
        ],
        "city": "Murfreesboro",
        "state": "TN",
        "postalCode": "37129-4330"
      },
      {
        "line": [
          "2108 Medical Center Pkwy"
        ],
        "city": "Murfreesboro",
        "state": "TN",
        "postalCode": "37129"
      },
      {
        "line": [
          "256 S Route 59",
          "Suite 128"
        ],
        "city": "Naperville",
        "state": "IL",
        "postalCode": "60540-9108"
      },
      {
        "line": [
          "2306 Pine Ridge Rd"
        ],
        "city": "Naples",
        "state": "FL",
        "postalCode": "34109"
      },
      {
        "line": [
          "1441 Donelson Pike",
          "Suite 395"
        ],
        "city": "Nashville",
        "state": "TN",
        "postalCode": "37214"
      },
      {
        "line": [
          "1260 Springfield Ave",
          "Suite 22"
        ],
        "city": "New Providence",
        "state": "NJ",
        "postalCode": "07974"
      },
      {
        "line": [
          "9200 Harris Corners Pkwy",
          "Suite A"
        ],
        "city": "Charlotte",
        "state": "NC",
        "postalCode": "28269-3782"
      },
      {
        "line": [
          "2601 McCain Blvd",
          "Suite C"
        ],
        "city": " North Little Rock",
        "state": "AR",
        "postalCode": "72116"
      },
      {
        "line": [
          "7901 Falls of Neuse Rd",
          "Ste 105"
        ],
        "city": "Raleigh",
        "state": "NC",
        "postalCode": "27615"
      },
      {
        "line": [
          "596 Westport Ave"
        ],
        "city": "Norwalk",
        "state": "CT",
        "postalCode": "06851"
      },
      {
        "line": [
          "307 51st Street"
        ],
        "city": "Oakland",
        "state": "CA",
        "postalCode": "94611"
      },
      {
        "line": [
          "3701 SW College Rd",
          "Suite 103"
        ],
        "city": "Ocala",
        "state": "FL",
        "postalCode": "34474-4456"
      },
      {
        "line": [
          "10959 W Colonial Drive",
          "Suite 4"
        ],
        "city": "Ocoee",
        "state": "FL",
        "postalCode": "34761"
      },
      {
        "line": [
          "939 W NORTH AVE",
          "STE 875"
        ],
        "city": "Chicago",
        "state": "IL",
        "postalCode": "60642-7146"
      },
      {
        "line": [
          "263 Boston Post Rd",
          "Suite 7"
        ],
        "city": "Orange",
        "state": "CT",
        "postalCode": "06477"
      },
      {
        "line": [
          "867 Harley Strickland Blvd",
          "Suite 200"
        ],
        "city": "Orange City",
        "state": "FL",
        "postalCode": "32763"
      },
      {
        "line": [
          "13340 Metcalf"
        ],
        "city": "Overland Park",
        "state": "KS",
        "postalCode": "66213"
      },
      {
        "line": [
          "13344 Metcalf Ave"
        ],
        "city": "Overland Park",
        "state": "KS",
        "postalCode": "66213-2804"
      },
      {
        "line": [
          "33663 US Highway 19 North"
        ],
        "city": "Palm Harbor",
        "state": "FL",
        "postalCode": "34684"
      },
      {
        "line": [
          "501 N Route 17",
          "Unit 10"
        ],
        "city": "Paramus",
        "state": "NJ",
        "postalCode": "07652"
      },
      {
        "line": [
          "9510 N Meridian St",
          "Suite D"
        ],
        "city": "Indianapolis",
        "state": "IN",
        "postalCode": "46260-1333"
      },
      {
        "line": [
          "18253 Pines Boulevard"
        ],
        "city": "Pembroke Pines",
        "state": "FL",
        "postalCode": "33029"
      },
      {
        "line": [
          "2324 FM 685",
          "Suite 100"
        ],
        "city": "Pflugerville",
        "state": "TX",
        "postalCode": "78660"
      },
      {
        "line": [
          "2227 Reynoldsburg-Baltimore Road",
          "Suite D"
        ],
        "city": "Reynoldsburg",
        "state": "OH",
        "postalCode": "43068"
      },
      {
        "line": [
          "10280 SW Meeting St"
        ],
        "city": "Port St. Lucie",
        "state": "FL",
        "postalCode": "34987"
      },
      {
        "line": [
          "2039 Camden Ave"
        ],
        "city": "San Jose",
        "state": "CA",
        "postalCode": "95124"
      },
      {
        "line": [
          "66 Bovet Rd",
          "Suite 105"
        ],
        "city": "San Mateo",
        "state": "CA",
        "postalCode": "94402"
      },
      {
        "line": [
          "Crow Canyon Commons",
          "3151 Crow Canyon Place"
        ],
        "city": "San Ramon",
        "state": "CA",
        "postalCode": "94583"
      },
      {
        "line": [
          "1220 W. Steele Lane"
        ],
        "city": "Santa Rosa",
        "state": "CA",
        "postalCode": "95403"
      },
      {
        "line": [
          "1033 E Woodfield Rd"
        ],
        "city": "Schaumburg",
        "state": "IL",
        "postalCode": "60173"
      },
      {
        "line": [
          "610 E GOLF RD"
        ],
        "city": "Schaumburg",
        "state": "IL",
        "postalCode": "60173-4510"
      },
      {
        "line": [
          "22223 W 66th St."
        ],
        "city": "Shawnee",
        "state": "KS",
        "postalCode": "66226-3522"
      },
      {
        "line": [
          "6330 Sunset Drive",
          "Suite 100"
        ],
        "city": "Miami",
        "state": "FL",
        "postalCode": "33143"
      },
      {
        "line": [
          "6600 Spring Stuebner Rd",
          "Suite 180"
        ],
        "city": "Spring",
        "state": "TX",
        "postalCode": "77389"
      },
      {
        "line": [
          "2436 4th St N"
        ],
        "city": "Saint Petersburg",
        "state": "FL",
        "postalCode": "33704-2804"
      },
      {
        "line": [
          "577 NEWFIELD AVE "
        ],
        "city": "STAMFORD ",
        "state": "CT",
        "postalCode": "06905"
      },
      {
        "line": [
          "8680 Rachel Freeman Way",
          "Suite B"
        ],
        "city": "Charlotte",
        "state": "NC",
        "postalCode": "28278"
      },
      {
        "line": [
          "21019 U.S. Hwy 281 N, Ste 840"
        ],
        "city": "San Antonio",
        "state": "TX",
        "postalCode": "78258"
      },
      {
        "line": [
          "1875 HIGHWAY 6 ",
          "STE 300"
        ],
        "city": "Sugar Land",
        "state": "TX",
        "postalCode": "77478-5098"
      },
      {
        "line": [
          "717 E. El Camino Real",
          "Suite 5"
        ],
        "city": "Sunnyvale",
        "state": "CA",
        "postalCode": "94087"
      },
      {
        "line": [
          "760 NW 107th Ave",
          "Suite 350"
        ],
        "city": "Miami",
        "state": "FL",
        "postalCode": "33172"
      },
      {
        "line": [
          "114 Vision Park Blvd.",
          "Ste. 102"
        ],
        "city": "Shenandoah",
        "state": "TX",
        "postalCode": "77384"
      },
      {
        "line": [
          "16345 S. Harlem Avenue",
          "Suite 150"
        ],
        "city": "Tinley Park",
        "state": "IL",
        "postalCode": "60477"
      },
      {
        "line": [
          "9734 Deer Lake Ct",
          "Suite 6"
        ],
        "city": "Jacksonville",
        "state": "FL",
        "postalCode": "32246"
      },
      {
        "line": [
          "11609 Parkside Dr"
        ],
        "city": "Knoxville",
        "state": "TN",
        "postalCode": "37934"
      },
      {
        "line": [
          "11609 Parkside Dr"
        ],
        "city": "Knoxville",
        "state": "TN",
        "postalCode": "37934-2660"
      },
      {
        "line": [
          "9318 Union Centre Blvd."
        ],
        "city": "West Chester",
        "state": "OH",
        "postalCode": "45069-4838"
      },
      {
        "line": [
          "8441 Honore Ave"
        ],
        "city": "University Park",
        "state": "FL",
        "postalCode": "34201"
      },
      {
        "line": [
          "1 Daniel Burnham Ct Suite 262"
        ],
        "city": "San Francisco",
        "state": "CA",
        "postalCode": "94109"
      },
      {
        "line": [
          "565 Lakeview Pkwy",
          "Suite 104"
        ],
        "city": "Vernon Hills",
        "state": "IL",
        "postalCode": "60061"
      },
      {
        "line": [
          "2878 Ygnacio Valley Road"
        ],
        "city": "Walnut Creek",
        "state": "CA",
        "postalCode": "94598"
      },
      {
        "line": [
          "626 N Alafaya Trl",
          "Ste 107"
        ],
        "city": "Orlando",
        "state": "FL",
        "postalCode": "32828-4352"
      },
      {
        "line": [
          "2863 S State Rd 7",
          "Suite 200"
        ],
        "city": "Wellington",
        "state": "FL",
        "postalCode": "33414"
      },
      {
        "line": [
          "25930 Sierra Center Blvd",
          "Suite 9"
        ],
        "city": "Lutz",
        "state": "FL",
        "postalCode": "33559"
      },
      {
        "line": [
          "2533 Albany Avenue"
        ],
        "city": "West Hartford",
        "state": "CT",
        "postalCode": "06117"
      },
      {
        "line": [
          "2785 BEE CAVES RD.",
          "STE 331"
        ],
        "city": "ROLLINGWOOD",
        "state": "TX",
        "postalCode": "78746"
      },
      {
        "line": [
          "334 N Desplaines St"
        ],
        "city": "Chicago",
        "state": "IL",
        "postalCode": "60661"
      },
      {
        "line": [
          "5007 Carlisle Pike. Suite 101"
        ],
        "city": "Mechanicsburg",
        "state": "PA",
        "postalCode": "17050"
      },
      {
        "line": [
          "205 S Stratford Rd",
          "Suite N-A"
        ],
        "city": "Winston Salem",
        "state": "NC",
        "postalCode": "27103-1847"
      }
    ],
    "endpoint": [
      {
        "reference": "Endpoint/b003-4871-b587-ff6ce4705fcb"
      }
    ]
  },
  "fullUrl": "https://g2fhir.mckesson.com/xfhir/Organization/39E8045033D7223BE0540010E076CAE3"
}