{
  "resource": {
    "resourceType": "Organization",
    "id": "151F3A57675F40D093F88851DA471C1C",
    "active": true,
    "type": [
      {
        "coding": [
          {
            "system": "http://terminology.hl7.org/CodeSystem/organization-type",
            "code": "prov",
            "display": "Healthcare Provider"
          }
        ],
        "text": "Healthcare Provider"
      }
    ],
    "name": "Arkansas Hematology and Oncology, PLLC",
    "telecom": [
      {
        "extension": [
          {
            "url": "http://hl7.org/fhir/StructureDefinition/data-absent-reason",
            "valueCode": "unknown"
          }
        ]
      }
    ],
    "address": [
      {
        "line": [
          "111 Cordoba Center"
        ],
        "city": "Hot Springs Village ",
        "state": "AR",
        "postalCode": "71909"
      },
      {
        "line": [
          "110 La Plaza West"
        ],
        "city": "Hot Springs Village",
        "state": "AR",
        "postalCode": "71909"
      },
      {
        "line": [
          "30 Werner street",
          "3rd floor"
        ],
        "city": "hot springs",
        "state": "AR",
        "postalCode": "71913-6312"
      },
      {
        "line": [
          "121 Cortev road"
        ],
        "city": "Hot Spring Villiage",
        "state": "AR",
        "postalCode": "71909"
      },
      {
        "line": [
          "955 Division"
        ],
        "city": "Malvern",
        "state": "AR",
        "postalCode": "72104"
      },
      {
        "line": [
          "19701 I-30 Frontage Road"
        ],
        "city": "Benton",
        "state": "AR",
        "postalCode": "72015"
      },
      {
        "line": [
          "111 Cordoba Center"
        ],
        "city": "Hot Springs Village",
        "state": "AR",
        "postalCode": "71909-4093"
      },
      {
        "line": [
          "1910 Malvern Ave"
        ],
        "city": "Hot Springs National Park",
        "state": "AR",
        "postalCode": "71901"
      },
      {
        "line": [
          "22515 I-30 Frontage Road"
        ],
        "city": "Bryant",
        "state": "AR",
        "postalCode": "72022"
      },
      {
        "line": [
          "524 Carpenter Dam Rd"
        ],
        "city": "Hot Springs",
        "state": "AR",
        "postalCode": "71901"
      },
      {
        "line": [
          "1208 N state highway 7"
        ],
        "city": "Hot Spring Village",
        "state": "AR",
        "postalCode": "71909"
      }
    ],
    "endpoint": [
      {
        "reference": "Endpoint/b003-4871-b587-ff6ce4705fcb"
      }
    ]
  },
  "fullUrl": "https://g2fhir.mckesson.com/xfhir/Organization/151F3A57675F40D093F88851DA471C1C"
}