{
  "resource": {
    "resourceType": "Organization",
    "id": "39E8045033C3223BE0540010E076CAE3",
    "identifier": [
      {
        "system": "http://hl7.org/fhir/sid/us-npi",
        "value": "1578629556"
      }
    ],
    "active": true,
    "type": [
      {
        "coding": [
          {
            "system": "http://terminology.hl7.org/CodeSystem/organization-type",
            "code": "prov",
            "display": "Healthcare Provider"
          }
        ],
        "text": "Healthcare Provider"
      }
    ],
    "name": "Southern Cancer Center",
    "telecom": [
      {
        "extension": [
          {
            "url": "http://hl7.org/fhir/StructureDefinition/data-absent-reason",
            "valueCode": "unknown"
          }
        ]
      }
    ],
    "address": [
      {
        "line": [
          "3719 Dauphin St",
          "5th Floor"
        ],
        "city": "Mobile",
        "state": "AL",
        "postalCode": "36608"
      },
      {
        "line": [
          "3719 Dauphin St., Suite 102",
          "1st Floor"
        ],
        "city": "Mobile",
        "state": "AL",
        "postalCode": "36608"
      },
      {
        "line": [
          "669 South McKenzie St",
          "Suite 103"
        ],
        "city": "Foley",
        "state": "AL",
        "postalCode": "36535"
      },
      {
        "line": [
          "220 Hospital Drive"
        ],
        "city": "Jackson",
        "state": "AL",
        "postalCode": "36545"
      },
      {
        "line": [
          "29653 Anchor Cross Blvd"
        ],
        "city": "Daphne",
        "state": "AL",
        "postalCode": "36526"
      },
      {
        "line": [
          "6701 Airport Blvd",
          "Building B"
        ],
        "city": "Mobile",
        "state": "AL",
        "postalCode": "36608"
      },
      {
        "line": [
          "6701 Airport Blvd"
        ],
        "city": "Mobile",
        "state": "AL",
        "postalCode": "36608"
      },
      {
        "line": [
          "3719 Dauphin St. Suite 102",
          "1st Floor"
        ],
        "city": "Mobile",
        "state": "AL",
        "postalCode": "36608"
      }
    ],
    "endpoint": [
      {
        "reference": "Endpoint/b003-4871-b587-ff6ce4705fcb"
      }
    ]
  },
  "fullUrl": "https://g2fhir.mckesson.com/xfhir/Organization/39E8045033C3223BE0540010E076CAE3"
}