{
  "resource": {
    "resourceType": "Organization",
    "id": "9393A3DFD155449F881195CA9A647C5B",
    "active": true,
    "type": [
      {
        "coding": [
          {
            "system": "http://terminology.hl7.org/CodeSystem/organization-type",
            "code": "prov",
            "display": "Healthcare Provider"
          }
        ],
        "text": "Healthcare Provider"
      }
    ],
    "name": "New York Oncology Hematology",
    "telecom": [
      {
        "extension": [
          {
            "url": "http://hl7.org/fhir/StructureDefinition/data-absent-reason",
            "valueCode": "unknown"
          }
        ]
      }
    ],
    "address": [
      {
        "line": [
          "400 Patroon Creek Blvd",
          "Suite 1"
        ],
        "city": "Albany",
        "state": "NY",
        "postalCode": "12206"
      },
      {
        "line": [
          "43 New Scotland Ave"
        ],
        "city": "Albany",
        "state": "NY",
        "postalCode": "12208"
      },
      {
        "line": [
          "43 New Scotland Ave "
        ],
        "city": "Albany",
        "state": "NY",
        "postalCode": "12208"
      },
      {
        "line": [
          "400 Patroon Creek Blvd",
          "Suite 1"
        ],
        "city": "Albany",
        "state": "NY",
        "postalCode": "12206"
      },
      {
        "line": [
          "1700 Riverfront Center"
        ],
        "city": "Amsterdam",
        "state": "NY",
        "postalCode": "12010"
      },
      {
        "line": [
          "1700 Riverfront Center"
        ],
        "city": "Amsterdam",
        "state": "NY",
        "postalCode": "12010"
      },
      {
        "line": [
          "3 Crossing Blvd"
        ],
        "city": "Clifton Park",
        "state": "NY",
        "postalCode": "12065"
      },
      {
        "line": [
          "3 Crossing Blvd"
        ],
        "city": "Clifton Park",
        "state": "NY",
        "postalCode": "12065"
      },
      {
        "line": [
          "400 Patroon Creek",
          "Suite 1"
        ],
        "city": "Albany",
        "state": "NY",
        "postalCode": "12206"
      },
      {
        "line": [
          "69 Prospect Ave"
        ],
        "city": "Hudson",
        "state": "NY",
        "postalCode": "12534"
      },
      {
        "line": [
          "400 Patroon Creek Blvd",
          "Suite 210"
        ],
        "city": "Albany",
        "state": "NY",
        "postalCode": "12206-5014"
      },
      {
        "line": [
          "400 Patroon Creek Blvd",
          "Suite 211"
        ],
        "city": "Albany",
        "state": "NY",
        "postalCode": "12206-5014"
      },
      {
        "line": [
          "258 Hoosick Street",
          "Suite 201"
        ],
        "city": "Troy",
        "state": "NY",
        "postalCode": "12180"
      }
    ],
    "endpoint": [
      {
        "reference": "Endpoint/b003-4871-b587-ff6ce4705fcb"
      }
    ]
  },
  "fullUrl": "https://g2fhir.mckesson.com/xfhir/Organization/9393A3DFD155449F881195CA9A647C5B"
}