{
  "resource": {
    "resourceType": "Organization",
    "id": "0BAA392FA301468A9BE93205D3464C8A",
    "active": true,
    "type": [
      {
        "coding": [
          {
            "system": "http://terminology.hl7.org/CodeSystem/organization-type",
            "code": "prov",
            "display": "Healthcare Provider"
          }
        ],
        "text": "Healthcare Provider"
      }
    ],
    "name": "Affiliated Oncologists, LLC",
    "telecom": [
      {
        "extension": [
          {
            "url": "http://hl7.org/fhir/StructureDefinition/data-absent-reason",
            "valueCode": "unknown"
          }
        ]
      }
    ],
    "address": [
      {
        "line": [
          "10604 Southwest Highway",
          "Suite 200"
        ],
        "city": "Chicago Ridge",
        "state": "IL",
        "postalCode": "60415"
      },
      {
        "line": [
          "10604 Southwest Highway",
          "Suite 109"
        ],
        "city": "Chicago Ridge",
        "state": "IL",
        "postalCode": "60415"
      },
      {
        "line": [
          "10604 Southwest Highway"
        ],
        "city": "Chicago Ridge",
        "state": "IL",
        "postalCode": "60415"
      },
      {
        "line": [
          "3825 Highland Ave Tower 2",
          "Suite 301"
        ],
        "city": "Downers Grove",
        "state": "IL",
        "postalCode": "60515"
      },
      {
        "line": [
          "6700 W. 95th St.",
          "Suite 330"
        ],
        "city": "Oak Lawn",
        "state": "IL",
        "postalCode": "60453"
      },
      {
        "line": [
          "12150 S. Harlem"
        ],
        "city": "Palos Heights",
        "state": "IL",
        "postalCode": "60643"
      },
      {
        "line": [
          "19060 Everett Blvd."
        ],
        "city": "Mokena",
        "state": "IL",
        "postalCode": "60448"
      },
      {
        "line": [
          "17850 S Kedzie Ave",
          "Suite 1500"
        ],
        "city": "Hazel Crest",
        "state": "IL",
        "postalCode": "60429"
      },
      {
        "line": [
          "17850 Kedzie Ave",
          "Suite 1500"
        ],
        "city": "Hazel Crest",
        "state": "IL",
        "postalCode": "60429"
      },
      {
        "line": [
          "4301 W. 95th St"
        ],
        "city": "Oak Lawn",
        "state": "IL",
        "postalCode": "60453"
      },
      {
        "line": [
          "82 Orland Square Drive"
        ],
        "city": "Orland Park",
        "state": "IL",
        "postalCode": "60462"
      },
      {
        "line": [
          "12150 S. Harlem"
        ],
        "city": "Palos Heights",
        "state": "IL",
        "postalCode": "60643"
      },
      {
        "line": [
          "1890 Silver Cross Blvd",
          "Suite 535"
        ],
        "city": "New Lennox",
        "state": "IL",
        "postalCode": "60451"
      },
      {
        "line": [
          "1900 Silver Cross Blvd"
        ],
        "city": "New Lenox",
        "state": "IL",
        "postalCode": "60451"
      },
      {
        "line": [
          "19060 Everett Blvd.",
          "Suite 112"
        ],
        "city": "Mokena",
        "state": "IL",
        "postalCode": "60448"
      }
    ],
    "endpoint": [
      {
        "reference": "Endpoint/b003-4871-b587-ff6ce4705fcb"
      }
    ]
  },
  "fullUrl": "https://g2fhir.mckesson.com/xfhir/Organization/0BAA392FA301468A9BE93205D3464C8A"
}