{
  "resource": {
    "resourceType": "Organization",
    "id": "763702077C244184B25DB05BFEDCF1B3",
    "active": true,
    "type": [
      {
        "coding": [
          {
            "system": "http://terminology.hl7.org/CodeSystem/organization-type",
            "code": "prov",
            "display": "Healthcare Provider"
          }
        ],
        "text": "Healthcare Provider"
      }
    ],
    "name": "Cancer Center of North Dakota",
    "telecom": [
      {
        "extension": [
          {
            "url": "http://hl7.org/fhir/StructureDefinition/data-absent-reason",
            "valueCode": "unknown"
          }
        ]
      }
    ],
    "address": [
      {
        "line": [
          "1200 S Columbia Rd"
        ],
        "city": "Grand Forks",
        "state": "ND",
        "postalCode": "58201"
      },
      {
        "line": [
          "1031 Seventh NE"
        ],
        "city": "Devils Lake",
        "state": "ND",
        "postalCode": "58301"
      },
      {
        "line": [
          "1451 44th Ave South ",
          "Unit E"
        ],
        "city": "Grand Forks",
        "state": "ND",
        "postalCode": "58324"
      },
      {
        "line": [
          "115 Vivian St"
        ],
        "city": "Park River",
        "state": "ND",
        "postalCode": "58270"
      },
      {
        "line": [
          "4 S Park St"
        ],
        "city": "Northwood",
        "state": "ND",
        "postalCode": "58267"
      },
      {
        "line": [
          "323 South Minnesota Street"
        ],
        "city": "Crookston",
        "state": "MN",
        "postalCode": "56716"
      },
      {
        "line": [
          "7448 US-281"
        ],
        "city": "Cando",
        "state": "ND",
        "postalCode": "58324"
      },
      {
        "line": [
          "164 W 13th St, "
        ],
        "city": "Grafton",
        "state": "ND",
        "postalCode": "58237"
      }
    ],
    "endpoint": [
      {
        "reference": "Endpoint/b003-4871-b587-ff6ce4705fcb"
      }
    ]
  },
  "fullUrl": "https://g2fhir.mckesson.com/xfhir/Organization/763702077C244184B25DB05BFEDCF1B3"
}