{"resourceType":"Bundle","id":"46548c3f-a6d8-4d2c-8972-95d5def4c186","meta":{"lastUpdated":"2025-09-01T11:06:14.849-07:00"},"type":"collection","timestamp":"2025-03-07T14:57:05.210-07:00","link":[{"relation":"self","url":"https://g2fhir-int.mckesson.com/xfhir/Endpoint"}],"entry":[{"fullUrl":"https://g2fhir.mckesson.com/xfhir/Endpoint/b003-4871-b587-ff6ce4705fcb","resource":{"resourceType":"Endpoint","id":"b003-4871-b587-ff6ce4705fcb","extension":[{"url":"http://hl7.org/fhir/StructureDefinition/endpoint-fhir-version","valueCode":"4.0.1"}],"status":"active","connectionType":{"system":"http://terminology.hl7.org/CodeSystem/endpoint-connection-type","code":"hl7-fhir-rest"},"name":"fhir endpoint","managingOrganization":{"reference":"Organization/hl7"},"contact":[{"system":"url","value":"https://g2fhir-int.mckesson.com"}],"period":{"start":"2025-03-05T13:29:55-07:00"},"payloadType":[{"coding":[{"system":"http://terminology.hl7.org/CodeSystem/endpoint-payload-type","code":"none"}]}],"payloadMimeType":["application/fhir+json"],"address":"https://g2fhir.mckesson.com/xfhir"}},{"fullUrl":"https://g2fhir.mckesson.com/xfhir/Organization/66F964C67812457E9A9366CE32F92B4A","resource":{"resourceType":"Organization","id":"66F964C67812457E9A9366CE32F92B4A","active":true,"type":[{"coding":[{"system":"http://terminology.hl7.org/CodeSystem/organization-type","code":"prov","display":"Healthcare Provider"}],"text":"Healthcare Provider"}],"name":"Lalita Pandit, MD, Inc.","telecom":[{"extension":[{"url":"http://hl7.org/fhir/StructureDefinition/data-absent-reason","valueCode":"unknown"}]}],"address":[{"line":["11180 Warner Avenue","Suite 467"],"city":"Fountain Valley","state":"CA","postalCode":"92708"},{"line":["9191 West Minister Boulevard"],"city":"Garden Grove","state":"CA","postalCode":"92844"},{"line":["16300 Sand Canyon Avenue","Suite 609"],"city":"Irvine","state":"CA","postalCode":"92618"}],"endpoint":[{"reference":"Endpoint/b003-4871-b587-ff6ce4705fcb"}]}},{"fullUrl":"https://g2fhir.mckesson.com/xfhir/Organization/56A4C4EE458C4B8F9F8906D17E16CD29","resource":{"resourceType":"Organization","id":"56A4C4EE458C4B8F9F8906D17E16CD29","identifier":[{"system":"http://hl7.org/fhir/sid/us-npi","value":"1205915071"}],"active":true,"type":[{"coding":[{"system":"http://terminology.hl7.org/CodeSystem/organization-type","code":"prov","display":"Healthcare Provider"}],"text":"Healthcare Provider"}],"name":"Nebraska Hematology Oncology PC","telecom":[{"extension":[{"url":"http://hl7.org/fhir/StructureDefinition/data-absent-reason","valueCode":"unknown"}]}],"address":[{"line":["2022 13th Street"],"city":"Auburn","state":"NE","postalCode":"68305"},{"line":["4800 Hospital Parkway"],"city":"Beatrice","state":"NE","postalCode":"68310-6906"},{"line":["2200 H Street"],"city":"Fairbury","state":"NE","postalCode":"68352"},{"line":["1900 F Street"],"city":"Geneva","state":"NE","postalCode":"68361-2229"},{"line":["4004 Pioneer Woods Drive "],"city":"Lincoln","state":"NE","postalCode":"68506"},{"line":["552 Sargent Street"],"city":"Beatrice","state":"NE","postalCode":"68310"},{"line":["3240 Folkways Boulevard"],"city":"Lincoln","state":"NE","postalCode":"68504"},{"line":["8001 Eiger Drive"],"city":"Lincoln","state":"NE","postalCode":"68516"},{"line":["4001 Pioneer Woods Drive "],"city":"Lincoln","state":"NE","postalCode":"68506"}],"endpoint":[{"reference":"Endpoint/b003-4871-b587-ff6ce4705fcb"}]}},{"fullUrl":"https://g2fhir.mckesson.com/xfhir/Organization/273C9DFA71444CAF9E40A46981672F3E","resource":{"resourceType":"Organization","id":"273C9DFA71444CAF9E40A46981672F3E","active":true,"type":[{"coding":[{"system":"http://terminology.hl7.org/CodeSystem/organization-type","code":"prov","display":"Healthcare Provider"}],"text":"Healthcare Provider"}],"name":"Southwest Womens Oncology","telecom":[{"extension":[{"url":"http://hl7.org/fhir/StructureDefinition/data-absent-reason","valueCode":"unknown"}]}],"address":[{"line":["5700 Harper Dr NE Suite #410"],"city":"Albuquerque","state":"NM","postalCode":"87109"},{"line":["5700 Harper Dr NE","Suite 410"],"city":"Albuquerque","state":"NM","postalCode":"87109"},{"line":["5700 Harper Dr, NE, Suite 410,"],"city":"Albuquerque","state":"NM","postalCode":"87109"},{"line":["2400 Unser Blvd SE ","28300"],"city":"Rio Rancho","state":"NM","postalCode":"87124"},{"line":["2025 S Galiesteo ","Suite B"],"city":"Santa Fe","state":"NM","postalCode":"87505"}],"endpoint":[{"reference":"Endpoint/b003-4871-b587-ff6ce4705fcb"}]}},{"fullUrl":"https://g2fhir.mckesson.com/xfhir/Organization/25CE32CAB02C4863AE3E57A8AFC9A90E","resource":{"resourceType":"Organization","id":"25CE32CAB02C4863AE3E57A8AFC9A90E","active":true,"type":[{"coding":[{"system":"http://terminology.hl7.org/CodeSystem/organization-type","code":"prov","display":"Healthcare Provider"}],"text":"Healthcare Provider"}],"name":"Marshall Hematology Oncology","telecom":[{"extension":[{"url":"http://hl7.org/fhir/StructureDefinition/data-absent-reason","valueCode":"unknown"}]}],"address":[{"line":["3581 Palmer Drive","Suite 400"],"city":"Cameron Park","state":"CA","postalCode":"95682"}],"endpoint":[{"reference":"Endpoint/b003-4871-b587-ff6ce4705fcb"}]}},{"fullUrl":"https://g2fhir.mckesson.com/xfhir/Organization/524201FD5E0B4F01A9CDD5A209A71A62","resource":{"resourceType":"Organization","id":"524201FD5E0B4F01A9CDD5A209A71A62","identifier":[{"system":"http://hl7.org/fhir/sid/us-npi","value":"1427426758"}],"active":true,"type":[{"coding":[{"system":"http://terminology.hl7.org/CodeSystem/organization-type","code":"prov","display":"Healthcare Provider"}],"text":"Healthcare Provider"}],"name":"South Florida Cancer Care","telecom":[{"extension":[{"url":"http://hl7.org/fhir/StructureDefinition/data-absent-reason","valueCode":"unknown"}]}],"address":[{"line":["5667 NW 29th Street"],"city":"Margate","state":"FL","postalCode":"33063"}],"endpoint":[{"reference":"Endpoint/b003-4871-b587-ff6ce4705fcb"}]}},{"fullUrl":"https://g2fhir.mckesson.com/xfhir/Organization/63E07F208F9A48E59571F70358CFF2C6","resource":{"resourceType":"Organization","id":"63E07F208F9A48E59571F70358CFF2C6","identifier":[{"system":"http://hl7.org/fhir/sid/us-npi","value":"1558446187"}],"active":true,"type":[{"coding":[{"system":"http://terminology.hl7.org/CodeSystem/organization-type","code":"prov","display":"Healthcare Provider"}],"text":"Healthcare Provider"}],"name":"San Juan Oncology Associates","telecom":[{"extension":[{"url":"http://hl7.org/fhir/StructureDefinition/data-absent-reason","valueCode":"unknown"}]}],"address":[{"line":["2325 E 30th St"],"city":"Farmington","state":"NM","postalCode":"87401"}],"endpoint":[{"reference":"Endpoint/b003-4871-b587-ff6ce4705fcb"}]}},{"fullUrl":"https://g2fhir.mckesson.com/xfhir/Organization/0D38C119A557481D8969E5FA7124EC66","resource":{"resourceType":"Organization","id":"0D38C119A557481D8969E5FA7124EC66","identifier":[{"system":"http://hl7.org/fhir/sid/us-npi","value":"1396704946"}],"active":true,"type":[{"coding":[{"system":"http://terminology.hl7.org/CodeSystem/organization-type","code":"prov","display":"Healthcare Provider"}],"text":"Healthcare Provider"}],"name":"PAOLI HEMATOLOGY ONCOLOGY ASSOC PC","telecom":[{"extension":[{"url":"http://hl7.org/fhir/StructureDefinition/data-absent-reason","valueCode":"unknown"}]}],"address":[{"line":["2 Industrial Blvd, Suite 110"],"city":"Paoli","state":"PA","postalCode":"19301"}],"endpoint":[{"reference":"Endpoint/b003-4871-b587-ff6ce4705fcb"}]}},{"fullUrl":"https://g2fhir.mckesson.com/xfhir/Organization/02B6B0665B1543C2909D8A46067182D7","resource":{"resourceType":"Organization","id":"02B6B0665B1543C2909D8A46067182D7","identifier":[{"system":"http://hl7.org/fhir/sid/us-npi","value":"1376528398"}],"active":true,"type":[{"coding":[{"system":"http://terminology.hl7.org/CodeSystem/organization-type","code":"prov","display":"Healthcare Provider"}],"text":"Healthcare Provider"}],"name":"YORK HOSPITAL ONCOLOGY AND INFUSION","telecom":[{"extension":[{"url":"http://hl7.org/fhir/StructureDefinition/data-absent-reason","valueCode":"unknown"}]}],"address":[{"line":["75 US ROUTE 1 BYPASS"],"city":"KITTERY","state":"ME","postalCode":"03904"},{"line":["114 SANFORD RD."],"city":"WELLS","state":"ME","postalCode":"04090"},{"line":["127 Long Sands Rd"],"city":"York","state":"ME","postalCode":"03909"}],"endpoint":[{"reference":"Endpoint/b003-4871-b587-ff6ce4705fcb"}]}},{"fullUrl":"https://g2fhir.mckesson.com/xfhir/Organization/08BCC811B3854EEF8898FE56B4D9015E","resource":{"resourceType":"Organization","id":"08BCC811B3854EEF8898FE56B4D9015E","identifier":[{"system":"http://hl7.org/fhir/sid/us-npi","value":"1336588870"}],"active":true,"type":[{"coding":[{"system":"http://terminology.hl7.org/CodeSystem/organization-type","code":"prov","display":"Healthcare Provider"}],"text":"Healthcare Provider"}],"name":"DIGNITY HEALTH - MERCY ONCOLOGY CENTER","telecom":[{"extension":[{"url":"http://hl7.org/fhir/StructureDefinition/data-absent-reason","valueCode":"unknown"}]}],"address":[{"line":["2175 Rosaline Ave"],"city":"Redding","state":"CA","postalCode":"96001"},{"line":["310 Hartnell Ave"],"city":"Redding","state":"CA","postalCode":"96002"},{"line":["2340 Liberty Parkway","Suite 200"],"city":"Red Bluff ","state":"CA","postalCode":"96080"}],"endpoint":[{"reference":"Endpoint/b003-4871-b587-ff6ce4705fcb"}]}},{"fullUrl":"https://g2fhir.mckesson.com/xfhir/Organization/81B327DB4690473FA4C14524D62E9500","resource":{"resourceType":"Organization","id":"81B327DB4690473FA4C14524D62E9500","identifier":[{"system":"http://hl7.org/fhir/sid/us-npi","value":"1558552703"}],"active":true,"type":[{"coding":[{"system":"http://terminology.hl7.org/CodeSystem/organization-type","code":"prov","display":"Healthcare Provider"}],"text":"Healthcare Provider"}],"name":"Robert Veith, M.D.","telecom":[{"extension":[{"url":"http://hl7.org/fhir/StructureDefinition/data-absent-reason","valueCode":"unknown"}]}],"address":[{"line":["3800 Houma Blvd.","Suite 200"],"city":"Metairie","state":"LA","postalCode":"70006"}],"endpoint":[{"reference":"Endpoint/b003-4871-b587-ff6ce4705fcb"}]}},{"fullUrl":"https://g2fhir.mckesson.com/xfhir/Organization/61A19FDF05084637BB34A318350EF5B7","resource":{"resourceType":"Organization","id":"61A19FDF05084637BB34A318350EF5B7","identifier":[{"system":"http://hl7.org/fhir/sid/us-npi","value":"1124381959"}],"active":true,"type":[{"coding":[{"system":"http://terminology.hl7.org/CodeSystem/organization-type","code":"prov","display":"Healthcare Provider"}],"text":"Healthcare Provider"}],"name":"Shenandoah Oncology","telecom":[{"extension":[{"url":"http://hl7.org/fhir/StructureDefinition/data-absent-reason","valueCode":"unknown"}]}],"address":[{"line":["This is used to filter in the orders queue","For on hold items. "],"city":".","state":"VA","postalCode":"."},{"line":["400 Campus Boulevard, Suite 100"],"city":"Winchester","state":"VA","postalCode":"22601"}],"endpoint":[{"reference":"Endpoint/b003-4871-b587-ff6ce4705fcb"}]}},{"fullUrl":"https://g2fhir.mckesson.com/xfhir/Organization/763702077C244184B25DB05BFEDCF1B3","resource":{"resourceType":"Organization","id":"763702077C244184B25DB05BFEDCF1B3","active":true,"type":[{"coding":[{"system":"http://terminology.hl7.org/CodeSystem/organization-type","code":"prov","display":"Healthcare Provider"}],"text":"Healthcare Provider"}],"name":"Cancer Center of North Dakota","telecom":[{"extension":[{"url":"http://hl7.org/fhir/StructureDefinition/data-absent-reason","valueCode":"unknown"}]}],"address":[{"line":["1200 S Columbia Rd"],"city":"Grand Forks","state":"ND","postalCode":"58201"},{"line":["1031 Seventh NE"],"city":"Devils Lake","state":"ND","postalCode":"58301"},{"line":["1451 44th Ave South ","Unit E"],"city":"Grand Forks","state":"ND","postalCode":"58324"},{"line":["115 Vivian St"],"city":"Park River","state":"ND","postalCode":"58270"},{"line":["4 S Park St"],"city":"Northwood","state":"ND","postalCode":"58267"},{"line":["323 South Minnesota Street"],"city":"Crookston","state":"MN","postalCode":"56716"},{"line":["7448 US-281"],"city":"Cando","state":"ND","postalCode":"58324"},{"line":["164 W 13th St, "],"city":"Grafton","state":"ND","postalCode":"58237"}],"endpoint":[{"reference":"Endpoint/b003-4871-b587-ff6ce4705fcb"}]}},{"fullUrl":"https://g2fhir.mckesson.com/xfhir/Organization/D77E4C4E873B455288910142C8408F89","resource":{"resourceType":"Organization","id":"D77E4C4E873B455288910142C8408F89","identifier":[{"system":"http://hl7.org/fhir/sid/us-npi","value":"1225274772"}],"active":true,"type":[{"coding":[{"system":"http://terminology.hl7.org/CodeSystem/organization-type","code":"prov","display":"Healthcare Provider"}],"text":"Healthcare Provider"}],"name":"Woodlands Medical Specialists, PA","telecom":[{"extension":[{"url":"http://hl7.org/fhir/StructureDefinition/data-absent-reason","valueCode":"unknown"}]}],"address":[{"line":["161 East Nine Mile Road"],"city":"Pensacola","state":"FL","postalCode":"32534"},{"line":["4724 N. Davis Hwy"],"city":"Pensacola","state":"FL","postalCode":"32503"},{"line":["1549 Airport Blvd","Suite 440"],"city":"Pensacola","state":"FL","postalCode":"32504"},{"line":["601 W. Redstone Ave","Suite 200"],"city":"Crestview","state":"FL","postalCode":"32536"},{"line":["1301 Belleview Avenue"],"city":"Brewton ","state":"AL","postalCode":"36426"},{"line":["4724 N. Davis Highway"],"city":"Pensacola","state":"FL","postalCode":"32503"}],"endpoint":[{"reference":"Endpoint/b003-4871-b587-ff6ce4705fcb"}]}},{"fullUrl":"https://g2fhir.mckesson.com/xfhir/Organization/39E804503403223BE0540010E076CAE3","resource":{"resourceType":"Organization","id":"39E804503403223BE0540010E076CAE3","active":true,"type":[{"coding":[{"system":"http://terminology.hl7.org/CodeSystem/organization-type","code":"prov","display":"Healthcare Provider"}],"text":"Healthcare Provider"}],"name":"CAMC Cancer Center - Beckley","telecom":[{"extension":[{"url":"http://hl7.org/fhir/StructureDefinition/data-absent-reason","valueCode":"unknown"}]}],"address":[{"line":["275 Dry Hill Road"],"city":"Beckley","state":"WV","postalCode":"25801"}],"endpoint":[{"reference":"Endpoint/b003-4871-b587-ff6ce4705fcb"}]}},{"fullUrl":"https://g2fhir.mckesson.com/xfhir/Organization/39E8045033C3223BE0540010E076CAE3","resource":{"resourceType":"Organization","id":"39E8045033C3223BE0540010E076CAE3","identifier":[{"system":"http://hl7.org/fhir/sid/us-npi","value":"1578629556"}],"active":true,"type":[{"coding":[{"system":"http://terminology.hl7.org/CodeSystem/organization-type","code":"prov","display":"Healthcare Provider"}],"text":"Healthcare Provider"}],"name":"Southern Cancer Center","telecom":[{"extension":[{"url":"http://hl7.org/fhir/StructureDefinition/data-absent-reason","valueCode":"unknown"}]}],"address":[{"line":["3719 Dauphin St","5th Floor"],"city":"Mobile","state":"AL","postalCode":"36608"},{"line":["3719 Dauphin St., Suite 102","1st Floor"],"city":"Mobile","state":"AL","postalCode":"36608"},{"line":["669 South McKenzie St","Suite 103"],"city":"Foley","state":"AL","postalCode":"36535"},{"line":["220 Hospital Drive"],"city":"Jackson","state":"AL","postalCode":"36545"},{"line":["29653 Anchor Cross Blvd"],"city":"Daphne","state":"AL","postalCode":"36526"},{"line":["6701 Airport Blvd","Building B"],"city":"Mobile","state":"AL","postalCode":"36608"},{"line":["6701 Airport Blvd"],"city":"Mobile","state":"AL","postalCode":"36608"},{"line":["3719 Dauphin St. Suite 102","1st Floor"],"city":"Mobile","state":"AL","postalCode":"36608"}],"endpoint":[{"reference":"Endpoint/b003-4871-b587-ff6ce4705fcb"}]}},{"fullUrl":"https://g2fhir.mckesson.com/xfhir/Organization/C31C5F34CA6C41649A4700BC19C9AC48","resource":{"resourceType":"Organization","id":"C31C5F34CA6C41649A4700BC19C9AC48","active":true,"type":[{"coding":[{"system":"http://terminology.hl7.org/CodeSystem/organization-type","code":"prov","display":"Healthcare Provider"}],"text":"Healthcare Provider"}],"name":"Harbin Clinic LLC","telecom":[{"extension":[{"url":"http://hl7.org/fhir/StructureDefinition/data-absent-reason","valueCode":"unknown"}]}],"address":[{"line":["255 West 5th Street"],"city":"Rome","state":"GA","postalCode":"30165"}],"endpoint":[{"reference":"Endpoint/b003-4871-b587-ff6ce4705fcb"}]}},{"fullUrl":"https://g2fhir.mckesson.com/xfhir/Organization/54DDB57905544DB8B682A23BBB7F4DCE","resource":{"resourceType":"Organization","id":"54DDB57905544DB8B682A23BBB7F4DCE","active":true,"type":[{"coding":[{"system":"http://terminology.hl7.org/CodeSystem/organization-type","code":"prov","display":"Healthcare Provider"}],"text":"Healthcare Provider"}],"name":"Beckley Oncology Associates (RRCC)","telecom":[{"extension":[{"url":"http://hl7.org/fhir/StructureDefinition/data-absent-reason","valueCode":"unknown"}]}],"address":[{"line":["275 Dry Hill Road"],"city":"Beckley","state":"WV","postalCode":"25801"}],"endpoint":[{"reference":"Endpoint/b003-4871-b587-ff6ce4705fcb"}]}},{"fullUrl":"https://g2fhir.mckesson.com/xfhir/Organization/9E248A5957224EC7AF1DB707355CDCAF","resource":{"resourceType":"Organization","id":"9E248A5957224EC7AF1DB707355CDCAF","active":true,"type":[{"coding":[{"system":"http://terminology.hl7.org/CodeSystem/organization-type","code":"prov","display":"Healthcare Provider"}],"text":"Healthcare Provider"}],"name":"Connecticut Oncology Group","telecom":[{"extension":[{"url":"http://hl7.org/fhir/StructureDefinition/data-absent-reason","valueCode":"unknown"}]}],"address":[{"line":["536 Saybrook Rd"],"city":"Middletown","state":"CT","postalCode":"06457"},{"line":["250 Flat Rock Place"],"city":"Westbrook","state":"CT","postalCode":"06498"}],"endpoint":[{"reference":"Endpoint/b003-4871-b587-ff6ce4705fcb"}]}},{"fullUrl":"https://g2fhir.mckesson.com/xfhir/Organization/43411E7E277041BE9D22BD268F05187A","resource":{"resourceType":"Organization","id":"43411E7E277041BE9D22BD268F05187A","identifier":[{"system":"http://hl7.org/fhir/sid/us-npi","value":"1508883257"}],"active":true,"type":[{"coding":[{"system":"http://terminology.hl7.org/CodeSystem/organization-type","code":"prov","display":"Healthcare Provider"}],"text":"Healthcare Provider"}],"name":"Bryson Cancer Care","telecom":[{"extension":[{"url":"http://hl7.org/fhir/StructureDefinition/data-absent-reason","valueCode":"unknown"}]}],"address":[{"line":["5345 W. Hillsdale Avenue "],"city":"Visalia","state":"CA","postalCode":"93291"}],"endpoint":[{"reference":"Endpoint/b003-4871-b587-ff6ce4705fcb"}]}},{"fullUrl":"https://g2fhir.mckesson.com/xfhir/Organization/CEE14E89EAEE4D029C97582713E95CB1","resource":{"resourceType":"Organization","id":"CEE14E89EAEE4D029C97582713E95CB1","active":true,"type":[{"coding":[{"system":"http://terminology.hl7.org/CodeSystem/organization-type","code":"prov","display":"Healthcare Provider"}],"text":"Healthcare Provider"}],"name":"ChristianaCare Hematology and Oncology ","telecom":[{"extension":[{"url":"http://hl7.org/fhir/StructureDefinition/data-absent-reason","valueCode":"unknown"}]}],"address":[{"line":["111 W High Street","Suite 104"],"city":"Elkton","state":"MD","postalCode":"21921"},{"line":["111 W High Street","Suite 104"],"city":"Elkton","state":"MD","postalCode":"21921"},{"line":["111 West High Street","Suite 209"],"city":"Elkton","state":"MD","postalCode":"21921-8611"},{"line":["621 Middletown Odessa Rd","2nd Floor"],"city":"Middletown","state":"DE","postalCode":"19709-9602"},{"line":["4701 Ogletown Stanton Rd","Suite 2300"],"city":"Newark","state":"DE","postalCode":"19713"},{"line":["4701 Ogletown Stanton Rd Suite 4200","Suite 2300"],"city":"Newark","state":"DE","postalCode":"19713"},{"line":["4701 Ogletown Stanton Road","Suite 2300"],"city":"Newark","state":"DE","postalCode":"19713"},{"line":["4701 Ogletown Stanton Road","Suite 2300"],"city":"Newark","state":"DE","postalCode":"19713"},{"line":["1011 West Baltimore Pike","Suite 307"],"city":"West Grove","state":"PA","postalCode":"19390"},{"line":["501 W 14th St"],"city":"Wilmington ","state":"DE","postalCode":"19801-1013"},{"line":["501 W 14th St"],"city":"Wilmington","state":"DE","postalCode":"19801-1013"}],"endpoint":[{"reference":"Endpoint/b003-4871-b587-ff6ce4705fcb"}]}},{"fullUrl":"https://g2fhir.mckesson.com/xfhir/Organization/B3A6C78C09B5450097F16929EB9E1EC6","resource":{"resourceType":"Organization","id":"B3A6C78C09B5450097F16929EB9E1EC6","active":true,"type":[{"coding":[{"system":"http://terminology.hl7.org/CodeSystem/organization-type","code":"prov","display":"Healthcare Provider"}],"text":"Healthcare Provider"}],"name":"Willamette Valley Cancer Institute ","telecom":[{"extension":[{"url":"http://hl7.org/fhir/StructureDefinition/data-absent-reason","valueCode":"unknown"}]}],"address":[{"line":["2615 Willetta St"],"city":"Albany","state":"OR","postalCode":"97321"},{"line":["444 NW Elks Drive"],"city":"Corvallis","state":"OR","postalCode":"97330"},{"line":["520 Country Club Road"],"city":"Eugene","state":"OR","postalCode":"97401"},{"line":["340 9th ST"],"city":"Florence","state":"OR","postalCode":"97439"},{"line":["3600 NW Samaritan Dr,"],"city":"Corvallis","state":"OR","postalCode":"97330"},{"line":["3105 NE West Devils Lake Road"],"city":"Lincoln City","state":"OR","postalCode":"97367"},{"line":["2039 North Coast Hwy"],"city":"Newport","state":"OR","postalCode":"97365"},{"line":["3355 RiverBend Drive","Suite 240"],"city":"Springfield","state":"OR","postalCode":"97477"},{"line":["1460 G St,"],"city":"Springfield","state":"OR","postalCode":" 97477"},{"line":["1460 G St,"],"city":"Springfield","state":"OR","postalCode":"97477"}],"endpoint":[{"reference":"Endpoint/b003-4871-b587-ff6ce4705fcb"}]}},{"fullUrl":"https://g2fhir.mckesson.com/xfhir/Organization/BF2EF0262ECD4E439AD1CF40C5B63C9C","resource":{"resourceType":"Organization","id":"BF2EF0262ECD4E439AD1CF40C5B63C9C","active":true,"type":[{"coding":[{"system":"http://terminology.hl7.org/CodeSystem/organization-type","code":"prov","display":"Healthcare Provider"}],"text":"Healthcare Provider"}],"name":"CTCA Outpatient Care Center - Gurnee","telecom":[{"extension":[{"url":"http://hl7.org/fhir/StructureDefinition/data-absent-reason","valueCode":"unknown"}]}],"address":[{"line":["202 South Greenleaf Street","Ste. E"],"city":"Gurnee","state":"IL","postalCode":"60031"},{"line":["4905 Old Orchard Center"],"city":"Skokie","state":"IL","postalCode":"60077"}],"endpoint":[{"reference":"Endpoint/b003-4871-b587-ff6ce4705fcb"}]}},{"fullUrl":"https://g2fhir.mckesson.com/xfhir/Organization/78E503C511E34F3BB918A9723419B3D1","resource":{"resourceType":"Organization","id":"78E503C511E34F3BB918A9723419B3D1","active":true,"type":[{"coding":[{"system":"http://terminology.hl7.org/CodeSystem/organization-type","code":"prov","display":"Healthcare Provider"}],"text":"Healthcare Provider"}],"name":"Medical Oncology Hematology Consultants, PA","telecom":[{"extension":[{"url":"http://hl7.org/fhir/StructureDefinition/data-absent-reason","valueCode":"unknown"}]}],"address":[{"line":["272 Carter Drive","Suite 200"],"city":"Middletown ","state":"DE","postalCode":"19709"},{"line":["651 North Broad Street","406"],"city":"Middletown","state":"DE","postalCode":"19709"},{"line":["4701 Ogletown Stanton Road","Suite 3400"],"city":"Newark","state":"DE","postalCode":"19713"},{"line":["4701 Ogletown Stanton Road","Suite 3400"],"city":"Newark","state":"DE","postalCode":"19713"},{"line":["1941 Limestone Road","Suite 216"],"city":"Wilmington","state":"DE","postalCode":"19808"}],"endpoint":[{"reference":"Endpoint/b003-4871-b587-ff6ce4705fcb"}]}},{"fullUrl":"https://g2fhir.mckesson.com/xfhir/Organization/70DD81CF17094C3ABB8D03BE11D80481","resource":{"resourceType":"Organization","id":"70DD81CF17094C3ABB8D03BE11D80481","identifier":[{"system":"http://hl7.org/fhir/sid/us-npi","value":"1396132213"}],"active":true,"type":[{"coding":[{"system":"http://terminology.hl7.org/CodeSystem/organization-type","code":"prov","display":"Healthcare Provider"}],"text":"Healthcare Provider"}],"name":"Cancer Care of North Florida","telecom":[{"extension":[{"url":"http://hl7.org/fhir/StructureDefinition/data-absent-reason","valueCode":"unknown"}]}],"address":[{"line":["289 SW Stonegate Terrace","Suite 103"],"city":"Lake City","state":"FL","postalCode":"32024"},{"line":["289 SW Stonegate Terrace","Suite 103"],"city":"Lake City ","state":"FL","postalCode":"32024"}],"endpoint":[{"reference":"Endpoint/b003-4871-b587-ff6ce4705fcb"}]}},{"fullUrl":"https://g2fhir.mckesson.com/xfhir/Organization/83571F888BFF44AF839AF4DC8F77E848","resource":{"resourceType":"Organization","id":"83571F888BFF44AF839AF4DC8F77E848","identifier":[{"system":"http://hl7.org/fhir/sid/us-npi","value":"1508959107"}],"active":true,"type":[{"coding":[{"system":"http://terminology.hl7.org/CodeSystem/organization-type","code":"prov","display":"Healthcare Provider"}],"text":"Healthcare Provider"}],"name":"Cullman Oncology PC","telecom":[{"extension":[{"url":"http://hl7.org/fhir/StructureDefinition/data-absent-reason","valueCode":"unknown"}]}],"address":[{"line":["1750 AL Highway 157"],"city":"Cullman","state":"AL","postalCode":"35058"}],"endpoint":[{"reference":"Endpoint/b003-4871-b587-ff6ce4705fcb"}]}},{"fullUrl":"https://g2fhir.mckesson.com/xfhir/Organization/A8F8C412B09A40AAB9541180D3759C6C","resource":{"resourceType":"Organization","id":"A8F8C412B09A40AAB9541180D3759C6C","identifier":[{"system":"http://hl7.org/fhir/sid/us-npi","value":"1578587671"}],"active":true,"type":[{"coding":[{"system":"http://terminology.hl7.org/CodeSystem/organization-type","code":"prov","display":"Healthcare Provider"}],"text":"Healthcare Provider"}],"name":"Arizona Oncology Associates ","telecom":[{"extension":[{"url":"http://hl7.org/fhir/StructureDefinition/data-absent-reason","valueCode":"unknown"}]}],"address":[{"line":["2625 N Craycroft Rd  ","Suite 201"],"city":"Tucson ","state":"AZ","postalCode":"85712"},{"line":["2625 N Craycroft Rd","Suite 200"],"city":"Tucson","state":"AZ","postalCode":"85712"},{"line":["2625 N Craycroft Rd  ","Suite 201"],"city":"Tucson","state":"AZ","postalCode":"85712"},{"line":["2951 N. Swan Rd."," Ste 155 "],"city":"Tucson","state":"AZ","postalCode":"85712"},{"line":["77 W Forest Avenue","Suite 301"],"city":"Flagstaff ","state":"AZ","postalCode":"86001"},{"line":["13555 W. McDowell Rd.","STE 105"],"city":"Goodyear","state":"AZ","postalCode":"85395"},{"line":["1315 S. La Canada Dr"],"city":"Green Valley ","state":"AZ","postalCode":"85622"},{"line":["1315 S La Canada Drive"],"city":"Green Valley","state":"AZ","postalCode":"85622"},{"line":["1620 W. St Mary's Road"],"city":"Tucson","state":"AZ","postalCode":"85745"},{"line":["1845 W Orange Grove ","Bldg 2"],"city":"Tucson ","state":"AZ","postalCode":"85704"},{"line":["1100 Gail Gardner Way"],"city":"Prescott ","state":"AZ","postalCode":"86305"},{"line":["5430 Landmark Lane"],"city":"Prescott","state":"AZ","postalCode":"86301"},{"line":["5430 Landmark Ln"],"city":"Prescott","state":"AZ","postalCode":"86301"},{"line":["7825 E Florentine Rd"],"city":"Prescott Valley","state":"AZ","postalCode":"86314"},{"line":["10350 E. Drexel","Suite 204"],"city":"Tucson","state":"AZ","postalCode":"85747"},{"line":["2070 W. Rudasill Rd.","Suite 130"],"city":"Tucson","state":"AZ","postalCode":"85704"},{"line":["2070 W Rudasill RD","STE 110"],"city":"Tucson","state":"AZ","postalCode":"85704"},{"line":["1620 W. St. Mary's Rd."],"city":"Tucson","state":"AZ","postalCode":"85745"},{"line":["603 N Wilmot Road","Suite 151"],"city":"Tucson","state":"AZ","postalCode":"85711"}],"endpoint":[{"reference":"Endpoint/b003-4871-b587-ff6ce4705fcb"}]}},{"fullUrl":"https://g2fhir.mckesson.com/xfhir/Organization/D2F0DE73761C4FEDB755B2E40854B34A","resource":{"resourceType":"Organization","id":"D2F0DE73761C4FEDB755B2E40854B34A","identifier":[{"system":"http://hl7.org/fhir/sid/us-npi","value":"1962618769"}],"active":true,"type":[{"coding":[{"system":"http://terminology.hl7.org/CodeSystem/organization-type","code":"prov","display":"Healthcare Provider"}],"text":"Healthcare Provider"}],"name":"CONWAY HEMATOLOGY ONCOLOGY","telecom":[{"extension":[{"url":"http://hl7.org/fhir/StructureDefinition/data-absent-reason","valueCode":"unknown"}]}],"address":[{"line":["350 SALEM RD","STE 4"],"city":"CONWAY","state":"AR","postalCode":"72034"},{"line":["350 SALEM RD","SUITE 7"],"city":"CONWAY","state":"AR","postalCode":"72034"}],"endpoint":[{"reference":"Endpoint/b003-4871-b587-ff6ce4705fcb"}]}},{"fullUrl":"https://g2fhir.mckesson.com/xfhir/Organization/F5CFE7D7B105445AACF0A609B8E34CB3","resource":{"resourceType":"Organization","id":"F5CFE7D7B105445AACF0A609B8E34CB3","identifier":[{"system":"http://hl7.org/fhir/sid/us-npi","value":"1689635138"}],"active":true,"type":[{"coding":[{"system":"http://terminology.hl7.org/CodeSystem/organization-type","code":"prov","display":"Healthcare Provider"}],"text":"Healthcare Provider"}],"name":"Salina Regional Health Center","telecom":[{"extension":[{"url":"http://hl7.org/fhir/StructureDefinition/data-absent-reason","valueCode":"unknown"}]}],"address":[{"line":["511 S. Santa Fe"],"city":"Salina","state":"KS","postalCode":"67401"},{"line":["511 South Santa Fe"],"city":"Salina","state":"KS","postalCode":"67401"}],"endpoint":[{"reference":"Endpoint/b003-4871-b587-ff6ce4705fcb"}]}},{"fullUrl":"https://g2fhir.mckesson.com/xfhir/Organization/151F3A57675F40D093F88851DA471C1C","resource":{"resourceType":"Organization","id":"151F3A57675F40D093F88851DA471C1C","active":true,"type":[{"coding":[{"system":"http://terminology.hl7.org/CodeSystem/organization-type","code":"prov","display":"Healthcare Provider"}],"text":"Healthcare Provider"}],"name":"Arkansas Hematology and Oncology, PLLC","telecom":[{"extension":[{"url":"http://hl7.org/fhir/StructureDefinition/data-absent-reason","valueCode":"unknown"}]}],"address":[{"line":["111 Cordoba Center"],"city":"Hot Springs Village ","state":"AR","postalCode":"71909"},{"line":["110 La Plaza West"],"city":"Hot Springs Village","state":"AR","postalCode":"71909"},{"line":["30 Werner street","3rd floor"],"city":"hot springs","state":"AR","postalCode":"71913-6312"},{"line":["121 Cortev road"],"city":"Hot Spring Villiage","state":"AR","postalCode":"71909"},{"line":["955 Division"],"city":"Malvern","state":"AR","postalCode":"72104"},{"line":["19701 I-30 Frontage Road"],"city":"Benton","state":"AR","postalCode":"72015"},{"line":["111 Cordoba Center"],"city":"Hot Springs Village","state":"AR","postalCode":"71909-4093"},{"line":["1910 Malvern Ave"],"city":"Hot Springs National Park","state":"AR","postalCode":"71901"},{"line":["22515 I-30 Frontage Road"],"city":"Bryant","state":"AR","postalCode":"72022"},{"line":["524 Carpenter Dam Rd"],"city":"Hot Springs","state":"AR","postalCode":"71901"},{"line":["1208 N state highway 7"],"city":"Hot Spring Village","state":"AR","postalCode":"71909"}],"endpoint":[{"reference":"Endpoint/b003-4871-b587-ff6ce4705fcb"}]}},{"fullUrl":"https://g2fhir.mckesson.com/xfhir/Organization/EC50B4F1B2CB4AE7AB3BDCF0D44D9F2F","resource":{"resourceType":"Organization","id":"EC50B4F1B2CB4AE7AB3BDCF0D44D9F2F","identifier":[{"system":"http://hl7.org/fhir/sid/us-npi","value":"1992796759"}],"active":true,"type":[{"coding":[{"system":"http://terminology.hl7.org/CodeSystem/organization-type","code":"prov","display":"Healthcare Provider"}],"text":"Healthcare Provider"}],"name":"Sierra Hematology Oncology Medical Center","telecom":[{"extension":[{"url":"http://hl7.org/fhir/StructureDefinition/data-absent-reason","valueCode":"unknown"}]}],"address":[{"line":["6555 Coyle Ave","Suite 301"],"city":"Carmichael","state":"CA","postalCode":"95608"},{"line":["1580 Creekside Drive","Suite 230"],"city":"Folsom","state":"CA","postalCode":"95630"},{"line":["3939 J Street","Suite 360"],"city":"Sacramento","state":"CA","postalCode":"95819"},{"line":["576 N. Sunrise Ave., Suite 210"],"city":"Roseville","state":"CA","postalCode":"95661"},{"line":["8100 Bruceville Road"],"city":"Sacramento","state":"CA","postalCode":"95823"},{"line":["6555 TEST"],"city":"Camichael","state":"CA","postalCode":"95608"}],"endpoint":[{"reference":"Endpoint/b003-4871-b587-ff6ce4705fcb"}]}},{"fullUrl":"https://g2fhir.mckesson.com/xfhir/Organization/DB91F95BC7C64967964AAF289BF93B97","resource":{"resourceType":"Organization","id":"DB91F95BC7C64967964AAF289BF93B97","identifier":[{"system":"http://hl7.org/fhir/sid/us-npi","value":"1548559768"}],"active":true,"type":[{"coding":[{"system":"http://terminology.hl7.org/CodeSystem/organization-type","code":"prov","display":"Healthcare Provider"}],"text":"Healthcare Provider"}],"name":"ONCOLOGY AND RADIATION ASSOCIATES","telecom":[{"extension":[{"url":"http://hl7.org/fhir/StructureDefinition/data-absent-reason","valueCode":"unknown"}]}],"address":[{"line":["3659 S. Miami Ave.","Suite 2001"],"city":"Miami","state":"FL","postalCode":"33133"},{"line":["8889 NW 18th Terrace ","Suite # 210"],"city":"Doral ","state":"FL","postalCode":"33172"},{"line":["7150 West 20th Ave.","Suite 214"],"city":"Hialeah","state":"FL","postalCode":"33016"},{"line":["1321 NW 14th St.","Suite 601"],"city":"Miami","state":"FL","postalCode":"33125"}],"endpoint":[{"reference":"Endpoint/b003-4871-b587-ff6ce4705fcb"}]}},{"fullUrl":"https://g2fhir.mckesson.com/xfhir/Organization/CD606EAFF9D0424BA41885ACA4A68B51","resource":{"resourceType":"Organization","id":"CD606EAFF9D0424BA41885ACA4A68B51","active":true,"type":[{"coding":[{"system":"http://terminology.hl7.org/CodeSystem/organization-type","code":"prov","display":"Healthcare Provider"}],"text":"Healthcare Provider"}],"name":"Missouri Cancer Associates","telecom":[{"extension":[{"url":"http://hl7.org/fhir/StructureDefinition/data-absent-reason","valueCode":"unknown"}]}],"address":[{"line":["1705 E Broadway","STE 100"],"city":"Columbia","state":"MO","postalCode":"65201"},{"line":["5985 Hospital Drive"],"city":"Hannibal","state":"MO","postalCode":"63401"},{"line":["603 W Pierce"],"city":"Kirksville","state":"MO","postalCode":"63501"},{"line":["2305 S HWY 65"],"city":"Marshall","state":"MO","postalCode":"65340"},{"line":["2305 South Hwy 65"],"city":"Marshall","state":"MO","postalCode":"65340"},{"line":["1513 Union Avenue ","Professional Arts Bldg: Suite 2700"],"city":"Moberly","state":"MO","postalCode":"65270"},{"line":["601 E 14th Street"],"city":"Sedalia","state":"MO","postalCode":"65301"}],"endpoint":[{"reference":"Endpoint/b003-4871-b587-ff6ce4705fcb"}]}},{"fullUrl":"https://g2fhir.mckesson.com/xfhir/Organization/ABE4E0DD3D0840CCA330A23DAAEE8F4C","resource":{"resourceType":"Organization","id":"ABE4E0DD3D0840CCA330A23DAAEE8F4C","identifier":[{"system":"http://hl7.org/fhir/sid/us-npi","value":"1417929639"}],"active":true,"type":[{"coding":[{"system":"http://terminology.hl7.org/CodeSystem/organization-type","code":"prov","display":"Healthcare Provider"}],"text":"Healthcare Provider"}],"name":"Virginia Oncology Associates","telecom":[{"extension":[{"url":"http://hl7.org/fhir/StructureDefinition/data-absent-reason","valueCode":"unknown"}]}],"address":[{"line":["6251 E. Virginia Beach Blvd","Ste 200"],"city":"Norfolk","state":"VA","postalCode":"23502"},{"line":["744 N Battlefield Blvd","Suite 200"],"city":"Chesapeake","state":"VA","postalCode":"23320"},{"line":["905 Thunder Rd","Suite 250"],"city":"Elizabeth City","state":"NC","postalCode":"27909"},{"line":["3000 Coliseum Dr.","Suite 104"],"city":"Hampton","state":"VA","postalCode":"23666"},{"line":["5838 Harbour View Blvd.","Suite 105"],"city":"Suffolk","state":"VA","postalCode":"23435"},{"line":["1051 Loftis Boulevard","Suite 100"],"city":"Newport News","state":"VA","postalCode":"23606"},{"line":["2790 Godwin Boulevard","Suite 101"],"city":"Suffolk","state":"VA","postalCode":"23434"},{"line":["1950 Glen Mitchell Drive","Suite 102"],"city":"Virginia Beach","state":"VA","postalCode":"23456"},{"line":["500 Sentara Circle","Suite 203"],"city":"Williamsburg","state":"VA","postalCode":"23188"}],"endpoint":[{"reference":"Endpoint/b003-4871-b587-ff6ce4705fcb"}]}},{"fullUrl":"https://g2fhir.mckesson.com/xfhir/Organization/7EBD285A3B1C44808B77F35C6DAE1DAA","resource":{"resourceType":"Organization","id":"7EBD285A3B1C44808B77F35C6DAE1DAA","identifier":[{"system":"http://hl7.org/fhir/sid/us-npi","value":"1962436204"}],"active":true,"type":[{"coding":[{"system":"http://terminology.hl7.org/CodeSystem/organization-type","code":"prov","display":"Healthcare Provider"}],"text":"Healthcare Provider"}],"name":"ONCOLOGY OF NORTHSHORE","telecom":[{"extension":[{"url":"http://hl7.org/fhir/StructureDefinition/data-absent-reason","valueCode":"unknown"}]}],"address":[{"line":["800 Central Rd"],"city":"Arlington Heights","state":"IL","postalCode":"60005"},{"line":["2000 Golf Road"],"city":"Rolling Meadows","state":"IL","postalCode":"60008"},{"line":["1555 Barrington Rd"],"city":"Hoffman Estates","state":"IL","postalCode":"60169"}],"endpoint":[{"reference":"Endpoint/b003-4871-b587-ff6ce4705fcb"}]}},{"fullUrl":"https://g2fhir.mckesson.com/xfhir/Organization/ED4F449547FF48D18EECC0FB5E67C243","resource":{"resourceType":"Organization","id":"ED4F449547FF48D18EECC0FB5E67C243","identifier":[{"system":"http://hl7.org/fhir/sid/us-npi","value":"1699791459"}],"active":true,"type":[{"coding":[{"system":"http://terminology.hl7.org/CodeSystem/organization-type","code":"prov","display":"Healthcare Provider"}],"text":"Healthcare Provider"}],"name":"Mount Sinai Doctors - Aly","telecom":[{"extension":[{"url":"http://hl7.org/fhir/StructureDefinition/data-absent-reason","valueCode":"unknown"}]}],"address":[{"line":["883 Poole Ave","Suite 4"],"city":"Hazlet","state":"NJ","postalCode":"07730"},{"line":["1910 Richmond Road"],"city":"Staten Island","state":"NY","postalCode":"10306"}],"endpoint":[{"reference":"Endpoint/b003-4871-b587-ff6ce4705fcb"}]}},{"fullUrl":"https://g2fhir.mckesson.com/xfhir/Organization/3F79F7FD84934DF1869A57EBF270832F","resource":{"resourceType":"Organization","id":"3F79F7FD84934DF1869A57EBF270832F","identifier":[{"system":"http://hl7.org/fhir/sid/us-npi","value":"1134120199"}],"active":true,"type":[{"coding":[{"system":"http://terminology.hl7.org/CodeSystem/organization-type","code":"prov","display":"Healthcare Provider"}],"text":"Healthcare Provider"}],"name":"Medical Oncology Associates of Wyoming Valley","telecom":[{"extension":[{"url":"http://hl7.org/fhir/StructureDefinition/data-absent-reason","valueCode":"unknown"}]}],"address":[{"line":["382 Pierce Street"],"city":"Kingston","state":"PA","postalCode":"18704"}],"endpoint":[{"reference":"Endpoint/b003-4871-b587-ff6ce4705fcb"}]}},{"fullUrl":"https://g2fhir.mckesson.com/xfhir/Organization/B742F6E114064FDCB2C21FA4309DEB63","resource":{"resourceType":"Organization","id":"B742F6E114064FDCB2C21FA4309DEB63","identifier":[{"system":"http://hl7.org/fhir/sid/us-npi","value":"1073686812"}],"active":true,"type":[{"coding":[{"system":"http://terminology.hl7.org/CodeSystem/organization-type","code":"prov","display":"Healthcare Provider"}],"text":"Healthcare Provider"}],"name":"Hematology and Oncology Consultants, PC","telecom":[{"extension":[{"url":"http://hl7.org/fhir/StructureDefinition/data-absent-reason","valueCode":"unknown"}]}],"address":[{"line":["4508 38th Street","Suite 120"],"city":"Columbus","state":"NE","postalCode":"68601"},{"line":["800 Mercy Drive"],"city":"Council Bluffs","state":"IA","postalCode":"51503"},{"line":["3901 W Norfolk Ave Suite H"],"city":"Norfolk","state":"NE","postalCode":"68701"},{"line":["110 N. 29th Street","Suite 101"],"city":"Norfolk","state":"NE","postalCode":"68701"},{"line":["6901 N. 72nd Street, #2244"],"city":"Omaha","state":"NE","postalCode":"68122"}],"endpoint":[{"reference":"Endpoint/b003-4871-b587-ff6ce4705fcb"}]}},{"fullUrl":"https://g2fhir.mckesson.com/xfhir/Organization/8CD4026FDF444E6294DC92B80494E079","resource":{"resourceType":"Organization","id":"8CD4026FDF444E6294DC92B80494E079","identifier":[{"system":"http://hl7.org/fhir/sid/us-npi","value":"1275651515"}],"active":true,"type":[{"coding":[{"system":"http://terminology.hl7.org/CodeSystem/organization-type","code":"prov","display":"Healthcare Provider"}],"text":"Healthcare Provider"}],"name":"The Oncology Institute of Hope and Innovation","telecom":[{"extension":[{"url":"http://hl7.org/fhir/StructureDefinition/data-absent-reason","valueCode":"unknown"}]}],"address":[{"line":["1411 S. Garfield Ave., Suite 306"],"city":"Alhambra","state":"CA","postalCode":"91801"},{"line":["710 N Euclid St","Suite #106"],"city":"Anaheim","state":"CA","postalCode":"92801"},{"line":["500 Vonderburg Drive Suite 204"],"city":"Brandon","state":"FL","postalCode":"33511"},{"line":["2601 West Alameda Ave.","Suite # 300"],"city":"Burbank","state":"CA","postalCode":"91505"},{"line":["1111 W. 34th St ","210"],"city":"Austin","state":"TX","postalCode":"78705"},{"line":["13768 Roswell Ave Suite 105"],"city":"Chino","state":"CA","postalCode":"91710"},{"line":["450 4th Ave. Suite 311"],"city":"Chula Vista","state":"CA","postalCode":"91910"},{"line":["1127 Wilshire Blvd. ","Suite 900"],"city":"Los Angeles","state":"CA","postalCode":"90017"},{"line":["900 S Main Street ","Suite 204"],"city":"Corona","state":"CA","postalCode":"92882"},{"line":["554 E. San Bernardino Rd. ","Suite 105"],"city":"Covina","state":"CA","postalCode":"91723"},{"line":["9808 Venice Blvd.","Suite 603"],"city":"Culver City ","state":"CA","postalCode":"90232"},{"line":["1513 S. Grand Ave.","Suite #360"],"city":"Los Angeles","state":"CA","postalCode":"90015"},{"line":["11525 Brookshire Ave.","Suite 202"],"city":"Downey","state":"CA","postalCode":"90241"},{"line":["10226 Lakewood Blvd."],"city":"Downey","state":"CA","postalCode":"90241"},{"line":["501 M.L.K. Jr Street South Suite 201"],"city":"St. Petersburg","state":"FL","postalCode":"33705"},{"line":["6565 E. Carondelet Dr.","285"],"city":"Tucson","state":"AZ","postalCode":"85710"},{"line":["1701 E. Cesar Chavez Ave.","Suite 535"],"city":"Los Angeles","state":"CA","postalCode":"90033"},{"line":["500 SE 17th Street","Suite 100"],"city":"Fort Lauderdale","state":"FL","postalCode":"33316"},{"line":["11100 Warner Avenue ","Suite 214"],"city":"Fountain Valley","state":"CA","postalCode":"92708"},{"line":["6121 N. Thesta St. Suite 204"],"city":"Fresno","state":"CA","postalCode":"93710"},{"line":["6405 North Federal Highway, Ste. 402"],"city":"Fort Lauderdale","state":"FL","postalCode":"33308"},{"line":["1510 S. Central Ave.","Suite 240"],"city":"Glendale","state":"CA","postalCode":"91204"},{"line":["275 W. Continental Road","Suite 133"],"city":"Green Valley","state":"AZ","postalCode":"85622"},{"line":["16404 Colima Rd."],"city":"Hacienda Heights","state":"CA","postalCode":"91745"},{"line":["1001 S State Street ","Suite A"],"city":"Hemet","state":"CA","postalCode":"92543"},{"line":["10001 S. Eastern Ave.","Suite 301"],"city":"Henderson","state":"NV","postalCode":"89052"},{"line":["2904 W. Horizon Ridge Pkwy","Suite 200"],"city":"Henderson ","state":"NV","postalCode":"89052"},{"line":["7100 W 20TH Ave ","Suite 403"],"city":"Hialeah","state":"FL","postalCode":"33016"},{"line":["3965 5th Ave. Suite 230"],"city":"San Diego","state":"CA","postalCode":"92103"},{"line":["3702 Washington St. Suite 401"],"city":"Hollywood","state":"FL","postalCode":"33021"},{"line":["4730 Exploration Ave "],"city":"Lakeland ","state":"FL","postalCode":"33812"},{"line":["3300 E. South St.","Suite 304"],"city":"Long Beach","state":"CA","postalCode":"90805"},{"line":["2911 N. Tenaya Way. ","Suite 210"],"city":"Las Vegas","state":"NV","postalCode":"89128"},{"line":["2440 E. South St."],"city":"Long Beach","state":"CA","postalCode":"90805"},{"line":["3851 Katella Ave.","Suite 355"],"city":"Los Alamitos","state":"CA","postalCode":"90720"},{"line":["3628 E. Imperial Hwy.","Suite 401"],"city":"Lynwood","state":"CA","postalCode":"90262"},{"line":["13395 N Marana Main St.","Building A"],"city":"Marana","state":"AZ","postalCode":"85653"},{"line":["6499 38th Ave N. Suite G1"],"city":"St. Petersburg","state":"FL","postalCode":"33710"},{"line":["3000 SW 148th Ave","Suite 200"],"city":"Miramar","state":"FL","postalCode":"33027"},{"line":["11550 Indian Hills Rd.","Suite 360"],"city":"Mission Hills","state":"CA","postalCode":"91345"},{"line":["26732 Crown Valley Parkway","Suite 271"],"city":"Mission Viejo","state":"CA","postalCode":"92691"},{"line":["101 E. Beverly  Blvd.","Suite 200"],"city":"Montebello","state":"CA","postalCode":"90640"},{"line":["120 W. Hellman Ave","Suite 202"],"city":"Monterey Park","state":"CA","postalCode":"91754"},{"line":["25405 Hancock Ave.","Suite #101"],"city":"Murrieta","state":"CA","postalCode":"92562"},{"line":["100 NW 170th Street","Suite 207"],"city":"Miami","state":"FL","postalCode":"33169"},{"line":["18250 Roscoe Blvd.","Suite 325"],"city":"Northridge","state":"CA","postalCode":"91325"},{"line":["1521 E. Tangerine Rd.","Suite 331"],"city":"Oro Valley","state":"AZ","postalCode":"85755"},{"line":["41865 Boardwalk","Suite 100"],"city":"Palm Desert ","state":"CA","postalCode":"92211"},{"line":["50 Bellefontaine Street","Suite 401"],"city":"Pasadena","state":"CA","postalCode":"91105"},{"line":["1601 West Reynolds St. ","Suite 101"],"city":"Plant City","state":"FL","postalCode":"33563"},{"line":["6766 West Sunrise Blvd, Ste. 101"],"city":"Plantation","state":"FL","postalCode":"33313"},{"line":["1555 North Orange Grove Ave"],"city":"Pomona","state":"CA","postalCode":"91767"},{"line":["9495 SW Locust Street","Suite G"],"city":"Portland","state":"OR","postalCode":"97232"},{"line":["4646 Brockton Ave.","Suite 203"],"city":"Riverside","state":"CA","postalCode":"92506"},{"line":["2720 Commercial Street SE","Suite 101"],"city":"Salem","state":"OR","postalCode":"97302"},{"line":["399 E. Highland Ave. ","Suite 501"],"city":"San Bernardino","state":"CA","postalCode":"92404"},{"line":["207 S. Santa Anita Ave.","Suite P-05"],"city":"San Gabriel","state":"CA","postalCode":"91776"},{"line":["999 Tustin Ave.","Suite 212"],"city":"Santa Ana","state":"CA","postalCode":"92705"},{"line":["2876 Sycamore Dr.","Suite# 201"],"city":"Simi Valley","state":"CA","postalCode":"93065"},{"line":["6262 Sunset Dr.","Suite 303"],"city":"Miami","state":"FL","postalCode":"33143"},{"line":["5625 Eiger Road","Suite 115"],"city":"Austin","state":"TX","postalCode":"78735"},{"line":["5380 S. Rainbow Blvd.","Suite 210"],"city":"Las Vegas ","state":"NV","postalCode":"89118"},{"line":["6450 Medical Center St. "],"city":"Las Vegas","state":"NV","postalCode":"89148"},{"line":["4700 N. Habana Ave Suite 702"],"city":"Tampa","state":"FL","postalCode":"33614"},{"line":["27450 Ynez Rd.","Suite 116"],"city":"Temecula","state":"CA","postalCode":"92590"},{"line":["425 Haaland Dr.","Suite #103"],"city":"Thousand Oaks","state":"CA","postalCode":"91361"},{"line":["21605 Hawthorne Blvd","Suite 200"],"city":"Torrance","state":"CA","postalCode":"90503"},{"line":["440 N. Mountain Ave","Suite 307"],"city":"Upland","state":"CA","postalCode":"91786"},{"line":["23861 McBean Parkway","Suite E30"],"city":"Valencia","state":"CA","postalCode":"92801"},{"line":["12370 Hesperia RD. Suite 17 "],"city":"Victorville","state":"CA","postalCode":"92395"},{"line":["15980 Bear Valley Rd."],"city":"Victorville ","state":"CA","postalCode":"92395"},{"line":["2067 Vista Way Suite 295"],"city":"Vista","state":"CA","postalCode":"92103"},{"line":["1707 W. St. Marys Rd ","Suite 275"],"city":"Tucson","state":"AZ","postalCode":"85745"},{"line":["2755 Herndon Ave."],"city":"Clovis","state":"CA","postalCode":"93611"},{"line":["1250 S. Sunset Ave.","Suite 101"],"city":"West Covina","state":"CA","postalCode":"91790"},{"line":["7320 Woodlake Ave.","Suite# 160"],"city":"West Hills","state":"CA","postalCode":"91307"},{"line":["8135 S. Painter Ave.","Suite 103"],"city":"Whittier","state":"CA","postalCode":"90602"}],"endpoint":[{"reference":"Endpoint/b003-4871-b587-ff6ce4705fcb"}]}},{"fullUrl":"https://g2fhir.mckesson.com/xfhir/Organization/F8D7E1609F6D4A778232822D5DD64B2E","resource":{"resourceType":"Organization","id":"F8D7E1609F6D4A778232822D5DD64B2E","identifier":[{"system":"http://hl7.org/fhir/sid/us-npi","value":"1205438033"}],"active":true,"type":[{"coding":[{"system":"http://terminology.hl7.org/CodeSystem/organization-type","code":"prov","display":"Healthcare Provider"}],"text":"Healthcare Provider"}],"name":"Advanced Cancer Treatment Centers","telecom":[{"extension":[{"url":"http://hl7.org/fhir/StructureDefinition/data-absent-reason","valueCode":"unknown"}]}],"address":[{"line":["15211 Cortez Blvd"],"city":"Brooksville","state":"FL","postalCode":"34613"},{"line":["15211 Cortez Blvd"],"city":"Brooksville","state":"FL","postalCode":"34613"}],"endpoint":[{"reference":"Endpoint/b003-4871-b587-ff6ce4705fcb"}]}},{"fullUrl":"https://g2fhir.mckesson.com/xfhir/Organization/4F87BC189D5C4AB18B226F0A908B8BB2","resource":{"resourceType":"Organization","id":"4F87BC189D5C4AB18B226F0A908B8BB2","identifier":[{"system":"http://hl7.org/fhir/sid/us-npi","value":"1114904604"}],"active":true,"type":[{"coding":[{"system":"http://terminology.hl7.org/CodeSystem/organization-type","code":"prov","display":"Healthcare Provider"}],"text":"Healthcare Provider"}],"name":"Siouxland Regional Cancer Center","telecom":[{"extension":[{"url":"http://hl7.org/fhir/StructureDefinition/data-absent-reason","valueCode":"unknown"}]}],"address":[{"line":["230 Nebraska Street"],"city":"Sioux City","state":"IA","postalCode":"51101"}],"endpoint":[{"reference":"Endpoint/b003-4871-b587-ff6ce4705fcb"}]}},{"fullUrl":"https://g2fhir.mckesson.com/xfhir/Organization/39E8045033D4223BE0540010E076CAE3","resource":{"resourceType":"Organization","id":"39E8045033D4223BE0540010E076CAE3","active":true,"type":[{"coding":[{"system":"http://terminology.hl7.org/CodeSystem/organization-type","code":"prov","display":"Healthcare Provider"}],"text":"Healthcare Provider"}],"name":"Steelhead Oncology","telecom":[{"extension":[{"url":"http://hl7.org/fhir/StructureDefinition/data-absent-reason","valueCode":"unknown"}]}],"address":[{"line":["2880 NW Stewart Pkwy","Ste 300"],"city":"Roseburg","state":"OR","postalCode":"97471"}],"endpoint":[{"reference":"Endpoint/b003-4871-b587-ff6ce4705fcb"}]}},{"fullUrl":"https://g2fhir.mckesson.com/xfhir/Organization/39E8045033D7223BE0540010E076CAE3","resource":{"resourceType":"Organization","id":"39E8045033D7223BE0540010E076CAE3","identifier":[{"system":"http://hl7.org/fhir/sid/us-npi","value":"1801025481"}],"active":true,"type":[{"coding":[{"system":"http://terminology.hl7.org/CodeSystem/organization-type","code":"prov","display":"Healthcare Provider"}],"text":"Healthcare Provider"}],"name":"IVX Health","telecom":[{"extension":[{"url":"http://hl7.org/fhir/StructureDefinition/data-absent-reason","valueCode":"unknown"}]}],"address":[{"line":["999 E Basse Rd","Suite 105"],"city":"San Antonio","state":"TX","postalCode":"78209"},{"line":["5511 W Loop 1604 N","Suite 107"],"city":"San Antonio","state":"TX","postalCode":"78253-7311"},{"line":["2515 County Line Rd"],"city":"Algonquin","state":"IL","postalCode":"60102"},{"line":["293 E Altamonte Drive","Suite 1201"],"city":"Altamonte Springs","state":"FL","postalCode":"32701"},{"line":["10515 N Mopac Expy","Suite A129"],"city":"Austin","state":"TX","postalCode":"78759"},{"line":["4509 Saint Johns Ave","Suite 4"],"city":"Jacksonville","state":"FL","postalCode":"32210"},{"line":["362 Buckley Mill Rd"],"city":"Wilmington","state":"DE","postalCode":"19807"},{"line":["5103 BELLAIRE BLVD","# 240"],"city":"Bellaire","state":"TX","postalCode":"77401-4419"},{"line":["710 Rockhill Drive"],"city":"Bensalem","state":"PA","postalCode":"19020"},{"line":["2007 4th St"],"city":"Berkeley","state":"CA","postalCode":"94710-1912"},{"line":["8773 W Boynton Beach Blvd","Unit 500"],"city":"Boynton Beach","state":"FL","postalCode":"33472"},{"line":["10314 Causeway Boulevard"],"city":"Tampa","state":"FL","postalCode":"33619"},{"line":["5111 Peter Taylor Park Drive","Suite 500"],"city":"Brentwood","state":"TN","postalCode":"37207"},{"line":["201 NW Briarcliff Pkwy","Suite 125"],"city":"Kansas City","state":"MO","postalCode":"64116"},{"line":["945 E Haverford Rd","Suite 202A"],"city":"Bryn Mawr","state":"PA","postalCode":"19010"},{"line":["10007 N Dale Mabry Hwy"],"city":"Tampa","state":"FL","postalCode":"33618"},{"line":["2226 Walnut Street"],"city":"Cary","state":"NC","postalCode":"27518"},{"line":["1400 E Whitestone","Suite 400"],"city":"Cedar Park","state":"TX","postalCode":"78613"},{"line":["7443 Commons Blvd","Suite 114"],"city":"Chattanooga","state":"TN","postalCode":"37421-2895"},{"line":["7443 Commons Blvd","Suite 114"],"city":"Chattanooga","state":"TN","postalCode":"37421"},{"line":["17406 Chenal Pkwy ","Suite 250"],"city":"Little Rock","state":"AR","postalCode":"7222"},{"line":["818 Haddonfield Rd","Ste D"],"city":"Cherry Hill","state":"NJ","postalCode":"08002-2608"},{"line":["24926 Farm to Market 1093, Suite A"],"city":"Katy","state":"TX","postalCode":"77494"},{"line":["495 Dunlop Ln","Suite 115"],"city":"Clarksville","state":"TN","postalCode":"37040-5295"},{"line":["495 Dunlop Ln","Suite 115"],"city":"Clarksville","state":"TN","postalCode":"37040-5295"},{"line":["1235 Clear Lake City Blvd.","Ste.E"],"city":"Houston","state":"TX","postalCode":"77062"},{"line":["225 Allwood Rd","Unit 8"],"city":"Clifton","state":"NJ","postalCode":"07012"},{"line":["3645 Stone Creek Blvd","Unit B"],"city":"Cincinnati","state":"OH","postalCode":"45251-1469"},{"line":["2028 West Poplar Avenue","Suite 113 "],"city":"Collierville","state":"TN","postalCode":"38017-0618"},{"line":["2028 West Poplar Avenue","Suite 113"],"city":"Collierville","state":"TN","postalCode":"38017-0618"},{"line":["1922 Shady Brook St"],"city":"Columbia","state":"TN","postalCode":"38401"},{"line":["3326 Aspen Grove Drive","Suite 502"],"city":"Franklin","state":"TN","postalCode":"37067-4839"},{"line":["206 Cool Springs Blvd"],"city":"Franklin","state":"TN","postalCode":"37067"},{"line":["17333 SPRING CYPRESS RD STE E"],"city":"CYPRESS","state":"TX","postalCode":"77429"},{"line":["15 Backus Ave"],"city":"Danbury","state":"CT","postalCode":"06810"},{"line":["2262 W International Speedway Blvd"],"city":"Daytona Beach","state":"FL","postalCode":"32114-1124"},{"line":["4761 W Atlantic Ave "],"city":"Delray Beach","state":"FL","postalCode":"33445"},{"line":["7586 NW 104th Ave G-102"],"city":"Miami","state":"FL","postalCode":"33178-4986"},{"line":["7600 Dr. Phillips Blvd","Ste 152"],"city":"Orlando","state":"FL","postalCode":"32819"},{"line":["7557 Sawmill Road"],"city":"Dublin","state":"OH","postalCode":"43016"},{"line":["7011 Fayetteville Road","Ste 107"],"city":"Durham","state":"NC","postalCode":"27713"},{"line":["1861 Cordova Rd"],"city":"Fort Lauderdale","state":"FL","postalCode":"33316"},{"line":["681 S White Station Rd"],"city":"Memphis","state":"TN","postalCode":"38117"},{"line":["Olde Liberty Square","4813 Jonestown Road, Suite 106"],"city":"Harrisburg","state":"PA","postalCode":"17109"},{"line":["725 River Rd","Suite 27"],"city":"Edgewater","state":"NJ","postalCode":"07020"},{"line":["997 E County Line Road","Suite M"],"city":"Greenwood","state":"IN","postalCode":"46143-1076"},{"line":["21740 S Tamiami Trl","Suite 106"],"city":"Estero","state":"FL","postalCode":"33928-2819"},{"line":["10910 Kingston Pike","Suite 101"],"city":"Knoxville","state":"TN","postalCode":"37934-2948"},{"line":["11670 Commercial Drive","Suite 100"],"city":"Fishers","state":"IN","postalCode":"46038-2974"},{"line":["8291 Dani Dr.","Suite 130"],"city":"Fort Myers","state":"FL","postalCode":"33966-8021"},{"line":["43360 Mission Blvd","Suite 100"],"city":"Fremont","state":"CA","postalCode":"94539"},{"line":["7415 NW 4th Blvd","Suite 20"],"city":"Gainesville","state":"FL","postalCode":"32607-2176"},{"line":["640 Timber Dr. East","Suite 110"],"city":"Garner","state":"NC","postalCode":"27529"},{"line":["4024 E Franklin Blvd","Suite 150"],"city":"Gastonia","state":"NC","postalCode":"28056"},{"line":["119 Hebron Ave","Unit B"],"city":"Glastonbury","state":"CT","postalCode":"06033"},{"line":["2601 Compass Rd","Suite 140"],"city":"Glenview","state":"IL","postalCode":"60026"},{"line":["4205 W Wendover Ave","Suite D"],"city":"Greensboro","state":"NC","postalCode":"27407"},{"line":["2756 London Groveport Rd"],"city":"Grove City","state":"OH","postalCode":"43123-7931"},{"line":["1448 E Hallandale Beach Blvd"],"city":"Hallandale","state":"FL","postalCode":"33009-4617"},{"line":["1006 Glenbrook Way","Suite 130"],"city":"Hendersonville","state":"TN","postalCode":"37075"},{"line":["4007 Lebanon Pike"],"city":"Hermitage","state":"TN","postalCode":"37076"},{"line":["Address1 3880 Paxton Ave","Ste G"],"city":"Cincinnati","state":"OH","postalCode":"45209-2372"},{"line":["464 N Parkway"],"city":"Jackson","state":"TN","postalCode":"38305-2810"},{"line":["464 N Parkway"],"city":"Jackson","state":"TN","postalCode":"38305-2810"},{"line":["586 Marsh Landing Pkwy"],"city":"Jacksonville Beach","state":"FL","postalCode":"32250"},{"line":["1653 The Fairway","Suite 215"],"city":"Jenkintown","state":"PA","postalCode":"19046"},{"line":["23510 Kingsland Blvd.","#101"],"city":"Katy","state":"TX","postalCode":"77494"},{"line":["12544 SW. 88th St. "],"city":"Miami","state":"FL","postalCode":"33186"},{"line":["1880 N Eastman Rd","Suite 150"],"city":"Kingsport","state":"TN","postalCode":"37664-2385"},{"line":["2717 W Osceola Pkwy"],"city":"Kissimmee","state":"FL","postalCode":"34741"},{"line":["4001 Widewaters Parkway","Suite J"],"city":"Knightdale","state":"NC","postalCode":"27545"},{"line":["6216 Highland Place Way","Suite 101"],"city":"Knoxville","state":"TN","postalCode":"37814-2593"},{"line":["6216 Highland Place Way","Suite 101"],"city":"Knoxville","state":"TN","postalCode":"37919-4000"},{"line":["919 Lakeland Park Center Dr","Suite 374"],"city":"Lakeland","state":"FL","postalCode":"33809"},{"line":["3600 NE Ralph Powell Rd","Suite B"],"city":"Lees Summit","state":"MO","postalCode":"64064"},{"line":["2820 S Highland Ave","Ste C"],"city":"Lombard","state":"IL","postalCode":"60148-7140"},{"line":["101 Monument St","Suite D"],"city":"Lowell","state":"AR","postalCode":"72745"},{"line":["70 E Swedesford Rd","Suite 130"],"city":"Malvern","state":"PA","postalCode":"19355"},{"line":["1400 San Jose Blvd","Suite 13"],"city":"Jacksonville","state":"FL","postalCode":"32257"},{"line":["2309 Matthews Township Pkwy","Suite 101"],"city":"Matthews","state":"NC","postalCode":"28105"},{"line":["6655 Travis Street","Ste. 850"],"city":"Houston","state":"TX","postalCode":"77030"},{"line":["5200 Park Ave","Suite 100"],"city":"Memphis","state":"TN","postalCode":"37814-2593"},{"line":["750 Redwood Highway Frontage Rd","Suite #1206"],"city":"Mill Valley","state":"CA","postalCode":"94941"},{"line":["640 Cowpath Rd","STE 3"],"city":"Lansdale","state":"PA","postalCode":"19446-1554"},{"line":["2249 Sandstone Dr."],"city":"Morristown","state":"TN","postalCode":"37814-2593"},{"line":["2249 Sandstone Dr"],"city":"Morristown","state":"TN","postalCode":"37814-2593"},{"line":["1203 Nixon Drive"],"city":"Mt Laurel","state":"NJ","postalCode":"08057"},{"line":["803 N Thompson Lane","Suite 101 A"],"city":"Murfreesboro","state":"TN","postalCode":"37129-4330"},{"line":["2108 Medical Center Pkwy"],"city":"Murfreesboro","state":"TN","postalCode":"37129"},{"line":["256 S Route 59","Suite 128"],"city":"Naperville","state":"IL","postalCode":"60540-9108"},{"line":["2306 Pine Ridge Rd"],"city":"Naples","state":"FL","postalCode":"34109"},{"line":["1441 Donelson Pike","Suite 395"],"city":"Nashville","state":"TN","postalCode":"37214"},{"line":["1260 Springfield Ave","Suite 22"],"city":"New Providence","state":"NJ","postalCode":"07974"},{"line":["9200 Harris Corners Pkwy","Suite A"],"city":"Charlotte","state":"NC","postalCode":"28269-3782"},{"line":["2601 McCain Blvd","Suite C"],"city":" North Little Rock","state":"AR","postalCode":"72116"},{"line":["7901 Falls of Neuse Rd","Ste 105"],"city":"Raleigh","state":"NC","postalCode":"27615"},{"line":["596 Westport Ave"],"city":"Norwalk","state":"CT","postalCode":"06851"},{"line":["307 51st Street"],"city":"Oakland","state":"CA","postalCode":"94611"},{"line":["3701 SW College Rd","Suite 103"],"city":"Ocala","state":"FL","postalCode":"34474-4456"},{"line":["10959 W Colonial Drive","Suite 4"],"city":"Ocoee","state":"FL","postalCode":"34761"},{"line":["939 W NORTH AVE","STE 875"],"city":"Chicago","state":"IL","postalCode":"60642-7146"},{"line":["263 Boston Post Rd","Suite 7"],"city":"Orange","state":"CT","postalCode":"06477"},{"line":["867 Harley Strickland Blvd","Suite 200"],"city":"Orange City","state":"FL","postalCode":"32763"},{"line":["13340 Metcalf"],"city":"Overland Park","state":"KS","postalCode":"66213"},{"line":["13344 Metcalf Ave"],"city":"Overland Park","state":"KS","postalCode":"66213-2804"},{"line":["33663 US Highway 19 North"],"city":"Palm Harbor","state":"FL","postalCode":"34684"},{"line":["501 N Route 17","Unit 10"],"city":"Paramus","state":"NJ","postalCode":"07652"},{"line":["9510 N Meridian St","Suite D"],"city":"Indianapolis","state":"IN","postalCode":"46260-1333"},{"line":["18253 Pines Boulevard"],"city":"Pembroke Pines","state":"FL","postalCode":"33029"},{"line":["2324 FM 685","Suite 100"],"city":"Pflugerville","state":"TX","postalCode":"78660"},{"line":["2227 Reynoldsburg-Baltimore Road","Suite D"],"city":"Reynoldsburg","state":"OH","postalCode":"43068"},{"line":["10280 SW Meeting St"],"city":"Port St. Lucie","state":"FL","postalCode":"34987"},{"line":["2039 Camden Ave"],"city":"San Jose","state":"CA","postalCode":"95124"},{"line":["66 Bovet Rd","Suite 105"],"city":"San Mateo","state":"CA","postalCode":"94402"},{"line":["Crow Canyon Commons","3151 Crow Canyon Place"],"city":"San Ramon","state":"CA","postalCode":"94583"},{"line":["1220 W. Steele Lane"],"city":"Santa Rosa","state":"CA","postalCode":"95403"},{"line":["1033 E Woodfield Rd"],"city":"Schaumburg","state":"IL","postalCode":"60173"},{"line":["610 E GOLF RD"],"city":"Schaumburg","state":"IL","postalCode":"60173-4510"},{"line":["22223 W 66th St."],"city":"Shawnee","state":"KS","postalCode":"66226-3522"},{"line":["6330 Sunset Drive","Suite 100"],"city":"Miami","state":"FL","postalCode":"33143"},{"line":["6600 Spring Stuebner Rd","Suite 180"],"city":"Spring","state":"TX","postalCode":"77389"},{"line":["2436 4th St N"],"city":"Saint Petersburg","state":"FL","postalCode":"33704-2804"},{"line":["577 NEWFIELD AVE "],"city":"STAMFORD ","state":"CT","postalCode":"06905"},{"line":["8680 Rachel Freeman Way","Suite B"],"city":"Charlotte","state":"NC","postalCode":"28278"},{"line":["21019 U.S. Hwy 281 N, Ste 840"],"city":"San Antonio","state":"TX","postalCode":"78258"},{"line":["1875 HIGHWAY 6 ","STE 300"],"city":"Sugar Land","state":"TX","postalCode":"77478-5098"},{"line":["717 E. El Camino Real","Suite 5"],"city":"Sunnyvale","state":"CA","postalCode":"94087"},{"line":["760 NW 107th Ave","Suite 350"],"city":"Miami","state":"FL","postalCode":"33172"},{"line":["114 Vision Park Blvd.","Ste. 102"],"city":"Shenandoah","state":"TX","postalCode":"77384"},{"line":["16345 S. Harlem Avenue","Suite 150"],"city":"Tinley Park","state":"IL","postalCode":"60477"},{"line":["9734 Deer Lake Ct","Suite 6"],"city":"Jacksonville","state":"FL","postalCode":"32246"},{"line":["11609 Parkside Dr"],"city":"Knoxville","state":"TN","postalCode":"37934"},{"line":["11609 Parkside Dr"],"city":"Knoxville","state":"TN","postalCode":"37934-2660"},{"line":["9318 Union Centre Blvd."],"city":"West Chester","state":"OH","postalCode":"45069-4838"},{"line":["8441 Honore Ave"],"city":"University Park","state":"FL","postalCode":"34201"},{"line":["1 Daniel Burnham Ct Suite 262"],"city":"San Francisco","state":"CA","postalCode":"94109"},{"line":["565 Lakeview Pkwy","Suite 104"],"city":"Vernon Hills","state":"IL","postalCode":"60061"},{"line":["2878 Ygnacio Valley Road"],"city":"Walnut Creek","state":"CA","postalCode":"94598"},{"line":["626 N Alafaya Trl","Ste 107"],"city":"Orlando","state":"FL","postalCode":"32828-4352"},{"line":["2863 S State Rd 7","Suite 200"],"city":"Wellington","state":"FL","postalCode":"33414"},{"line":["25930 Sierra Center Blvd","Suite 9"],"city":"Lutz","state":"FL","postalCode":"33559"},{"line":["2533 Albany Avenue"],"city":"West Hartford","state":"CT","postalCode":"06117"},{"line":["2785 BEE CAVES RD.","STE 331"],"city":"ROLLINGWOOD","state":"TX","postalCode":"78746"},{"line":["334 N Desplaines St"],"city":"Chicago","state":"IL","postalCode":"60661"},{"line":["5007 Carlisle Pike. Suite 101"],"city":"Mechanicsburg","state":"PA","postalCode":"17050"},{"line":["205 S Stratford Rd","Suite N-A"],"city":"Winston Salem","state":"NC","postalCode":"27103-1847"}],"endpoint":[{"reference":"Endpoint/b003-4871-b587-ff6ce4705fcb"}]}},{"fullUrl":"https://g2fhir.mckesson.com/xfhir/Organization/484E52DD1BED42E1BF5CD089671C145D","resource":{"resourceType":"Organization","id":"484E52DD1BED42E1BF5CD089671C145D","active":true,"type":[{"coding":[{"system":"http://terminology.hl7.org/CodeSystem/organization-type","code":"prov","display":"Healthcare Provider"}],"text":"Healthcare Provider"}],"name":"Compass Oncology","telecom":[{"extension":[{"url":"http://hl7.org/fhir/StructureDefinition/data-absent-reason","valueCode":"unknown"}]}],"address":[{"line":["5050 NE Hoyt","Suite 256"],"city":"Portland","state":"OR","postalCode":"97213"},{"line":["265 N Broadway"],"city":"Portland","state":"OR","postalCode":"97227"},{"line":["210 SE 136th Ave"],"city":"Vancouver","state":"WA","postalCode":"98684"},{"line":["12123 SW 69TH AVE"],"city":"Tigard","state":"OR","postalCode":"97223"}],"endpoint":[{"reference":"Endpoint/b003-4871-b587-ff6ce4705fcb"}]}},{"fullUrl":"https://g2fhir.mckesson.com/xfhir/Organization/70C6AE5F5F854F71882B314F2B837BD6","resource":{"resourceType":"Organization","id":"70C6AE5F5F854F71882B314F2B837BD6","active":true,"type":[{"coding":[{"system":"http://terminology.hl7.org/CodeSystem/organization-type","code":"prov","display":"Healthcare Provider"}],"text":"Healthcare Provider"}],"name":"TMPN - Cancer Care","telecom":[{"extension":[{"url":"http://hl7.org/fhir/StructureDefinition/data-absent-reason","valueCode":"unknown"}]}],"address":[{"line":["3285 Skypark Drive"],"city":"Torrance","state":"CA","postalCode":"90505"},{"line":["3285 Skypark Drive"],"city":"Torrance","state":"CA","postalCode":"90505"},{"line":["2110 E. El Segundo # 230"],"city":"El Segundo","state":"CA","postalCode":"90245"},{"line":["3285 Skypark Drive"],"city":"Torrance","state":"CA","postalCode":"90505"}],"endpoint":[{"reference":"Endpoint/b003-4871-b587-ff6ce4705fcb"}]}},{"fullUrl":"https://g2fhir.mckesson.com/xfhir/Organization/39E8045033E2223BE0540010E076CAE3","resource":{"resourceType":"Organization","id":"39E8045033E2223BE0540010E076CAE3","active":true,"type":[{"coding":[{"system":"http://terminology.hl7.org/CodeSystem/organization-type","code":"prov","display":"Healthcare Provider"}],"text":"Healthcare Provider"}],"name":"Upstate Cancer Center at Auburn Community Hospital","telecom":[{"extension":[{"url":"http://hl7.org/fhir/StructureDefinition/data-absent-reason","valueCode":"unknown"}]}],"address":[{"line":["5 Lansing Street"],"city":"Auburn","state":"NY","postalCode":"13021"},{"line":["5 Lansing Street"],"city":"Auburn","state":"NY","postalCode":"13021"}],"endpoint":[{"reference":"Endpoint/b003-4871-b587-ff6ce4705fcb"}]}},{"fullUrl":"https://g2fhir.mckesson.com/xfhir/Organization/CBA62F61F36C41C5AD49DF9D090D9F08","resource":{"resourceType":"Organization","id":"CBA62F61F36C41C5AD49DF9D090D9F08","identifier":[{"system":"http://hl7.org/fhir/sid/us-npi","value":"1346294519"}],"active":true,"type":[{"coding":[{"system":"http://terminology.hl7.org/CodeSystem/organization-type","code":"prov","display":"Healthcare Provider"}],"text":"Healthcare Provider"}],"name":"Virginia Cancer Specialists","telecom":[{"extension":[{"url":"http://hl7.org/fhir/StructureDefinition/data-absent-reason","valueCode":"unknown"}]}],"address":[{"line":["4660 Kenmore Ave","Suite 1018"],"city":"Alexandria","state":"VA","postalCode":"22304"},{"line":["1100 North Glebe Road, Ste 1600"],"city":"Arlington","state":"VA","postalCode":"22201"},{"line":["1635 N George Mason Drive","Ste 170"],"city":"Arlington","state":"VA","postalCode":"22205"},{"line":["1701 N George Mason Drive","Ste G-101"],"city":"Arlington","state":"VA","postalCode":"22205"},{"line":["1100 N. Glebe Rd, Suite 1600"],"city":"Arlington","state":"VA","postalCode":"22201"},{"line":["7500 Old Georgetown Road","Suite 301"],"city":"Bethesda","state":"MD","postalCode":"20814"},{"line":["8503 Arlington Blvd","STE 340"],"city":"Fairfax","state":"VA","postalCode":"22031"},{"line":["5530 Wisconsin Ave","Suite 1660"],"city":"Chevy Chase","state":"MD","postalCode":"20815"},{"line":["3650 Joseph Siewick Dr","STE 200"],"city":"Fairfax","state":"VA","postalCode":"22033"},{"line":["3700 Joseph Siewick Dr, Ste 408"],"city":"Fairfax","state":"VA","postalCode":"22033"},{"line":["8503 Arlington Blvd","Suit 400"],"city":"Fairfax","state":"VA","postalCode":"22031"},{"line":["8613 Lee Hwy"],"city":"Fairfax","state":"VA","postalCode":"22031"},{"line":["8613 Lee Hwy"],"city":"Fairfax","state":"VA","postalCode":"22031"},{"line":["210 West Shirley Ave","Suite 111"],"city":"Warrenton","state":"VA","postalCode":"20186"},{"line":["7901 Lake Manassas Drive"],"city":"Gainesville","state":"VA","postalCode":"20155"},{"line":["44035 Riverside Pkwy"],"city":"Leesburg","state":"VA","postalCode":"20176"},{"line":["277 S Washington St","Suite 100"],"city":"Alexandria","state":"VA","postalCode":"22314"},{"line":["8613 Lee Hwy"],"city":"Fairfax","state":"VA","postalCode":"22031"},{"line":["8613 Lee Hwy"],"city":"Fairfax","state":"VA","postalCode":"22031"},{"line":["8613 Lee Hwy"],"city":"Fairfax","state":"VA","postalCode":"22031"},{"line":["8503 Arlington Blvd","STE 400"],"city":"Fairfax","state":"VA","postalCode":"22031"},{"line":["8503 Arlington Blvd","STE 400"],"city":"Fairfax","state":"VA","postalCode":"22031"},{"line":["1860 Town Center Dr","STE 460"],"city":"Reston","state":"VA","postalCode":"20190"},{"line":["1850 Town Center Pkwy"],"city":"Reston","state":"VA","postalCode":"20190"},{"line":["1860 Town Center Pkwy","Suite G100"],"city":"Reston","state":"VA","postalCode":"20190"},{"line":["9905 Medical Center Dr","STE 200"],"city":"Rockville","state":"MD","postalCode":"20850"},{"line":["8613 Lee Hwy"],"city":"Fairfax","state":"VA","postalCode":"22031"},{"line":["9450 INNOVATION DR"],"city":"MANASSAS","state":"VA","postalCode":"20110"},{"line":["44035 Riverside Parkway Ste. 310"],"city":"Leesburg","state":"VA","postalCode":"20176"},{"line":["3040 Williams Dr","Suite 100"],"city":"Fairfax","state":"VA","postalCode":"22031"},{"line":["2280 Opitz Blvd ","Suite 130"],"city":"Woodbridge","state":"VA","postalCode":"22191"},{"line":["2280 Opitz Blvd","Suite 300"],"city":"Woodbridge","state":"VA","postalCode":"22191"}],"endpoint":[{"reference":"Endpoint/b003-4871-b587-ff6ce4705fcb"}]}},{"fullUrl":"https://g2fhir.mckesson.com/xfhir/Organization/39E8045033E5223BE0540010E076CAE3","resource":{"resourceType":"Organization","id":"39E8045033E5223BE0540010E076CAE3","active":true,"type":[{"coding":[{"system":"http://terminology.hl7.org/CodeSystem/organization-type","code":"prov","display":"Healthcare Provider"}],"text":"Healthcare Provider"}],"name":"Graves Gilbert Clinic","telecom":[{"extension":[{"url":"http://hl7.org/fhir/StructureDefinition/data-absent-reason","valueCode":"unknown"}]}],"address":[{"line":["201 Park Street"],"city":"Bowling Green","state":"KY","postalCode":"42101"},{"line":["1330 N Race Street"],"city":"Glasgow","state":"KY","postalCode":"42141"},{"line":[" 1801 Ashley Cir"],"city":"Bowling Green","state":"KY","postalCode":"42104"},{"line":["250 Park St"],"city":"Bowling Green","state":"KY","postalCode":"42101"}],"endpoint":[{"reference":"Endpoint/b003-4871-b587-ff6ce4705fcb"}]}},{"fullUrl":"https://g2fhir.mckesson.com/xfhir/Organization/9436CDC71DED4AF7B0A08C1F16CA26A2","resource":{"resourceType":"Organization","id":"9436CDC71DED4AF7B0A08C1F16CA26A2","identifier":[{"system":"http://hl7.org/fhir/sid/us-npi","value":"1467547521"}],"active":true,"type":[{"coding":[{"system":"http://terminology.hl7.org/CodeSystem/organization-type","code":"prov","display":"Healthcare Provider"}],"text":"Healthcare Provider"}],"name":"Dublin Hematology and Oncology Care","telecom":[{"extension":[{"url":"http://hl7.org/fhir/StructureDefinition/data-absent-reason","valueCode":"unknown"}]}],"address":[{"line":["207 Fairview Park Dr"],"city":"Dublin","state":"GA","postalCode":"31021"}],"endpoint":[{"reference":"Endpoint/b003-4871-b587-ff6ce4705fcb"}]}},{"fullUrl":"https://g2fhir.mckesson.com/xfhir/Organization/A6F52116A52E4835B69D94137FD640D5","resource":{"resourceType":"Organization","id":"A6F52116A52E4835B69D94137FD640D5","active":true,"type":[{"coding":[{"system":"http://terminology.hl7.org/CodeSystem/organization-type","code":"prov","display":"Healthcare Provider"}],"text":"Healthcare Provider"}],"name":"Auxilio Centro de Cancer","telecom":[{"extension":[{"url":"http://hl7.org/fhir/StructureDefinition/data-absent-reason","valueCode":"unknown"}]}],"address":[{"line":["#715 AVE Ponce de Leon Pda 37 1/2"],"city":"Hato Rey","state":"PR","postalCode":"00918"},{"line":["#715 AVE Ponce de Leon Pda 37 1/2"],"city":"Hato Rey","state":"PR","postalCode":"00918"}],"endpoint":[{"reference":"Endpoint/b003-4871-b587-ff6ce4705fcb"}]}},{"fullUrl":"https://g2fhir.mckesson.com/xfhir/Organization/E16D0FE374BD4523A546AACE6F51939B","resource":{"resourceType":"Organization","id":"E16D0FE374BD4523A546AACE6F51939B","identifier":[{"system":"http://hl7.org/fhir/sid/us-npi","value":"1467551762"}],"active":true,"type":[{"coding":[{"system":"http://terminology.hl7.org/CodeSystem/organization-type","code":"prov","display":"Healthcare Provider"}],"text":"Healthcare Provider"}],"name":"Cancer Care Centers of Brevard","telecom":[{"extension":[{"url":"http://hl7.org/fhir/StructureDefinition/data-absent-reason","valueCode":"unknown"}]}],"address":[{"line":["2290 W Eau Gallie Blvd","STE 202"],"city":"Melbourne","state":"FL","postalCode":"32935"},{"line":["1430 S. Pine Street"],"city":"Melbourne","state":"FL","postalCode":"32901"},{"line":["20 San Filippo Dr SE"],"city":"Palm Bay","state":"FL","postalCode":"32909"},{"line":["20  San Filippo Dr. SE"],"city":"Palm Bay ","state":"FL","postalCode":"32909-2200"},{"line":["1048 Harvin Way"],"city":"Rockledge","state":"FL","postalCode":"32955"},{"line":["1541 South Wickham Road"],"city":"Melbourne","state":"FL","postalCode":"32904-3540"},{"line":["13050 US Highway 1"],"city":"Sebastian","state":"FL","postalCode":"32958"},{"line":["6450 N. Wickham Rd","Suite 105"],"city":"Melbourne","state":"FL","postalCode":"32940"},{"line":["850 Century Medical Dr."],"city":"Titusville","state":"FL","postalCode":"32796"}],"endpoint":[{"reference":"Endpoint/b003-4871-b587-ff6ce4705fcb"}]}},{"fullUrl":"https://g2fhir.mckesson.com/xfhir/Organization/9393A3DFD155449F881195CA9A647C5B","resource":{"resourceType":"Organization","id":"9393A3DFD155449F881195CA9A647C5B","active":true,"type":[{"coding":[{"system":"http://terminology.hl7.org/CodeSystem/organization-type","code":"prov","display":"Healthcare Provider"}],"text":"Healthcare Provider"}],"name":"New York Oncology Hematology","telecom":[{"extension":[{"url":"http://hl7.org/fhir/StructureDefinition/data-absent-reason","valueCode":"unknown"}]}],"address":[{"line":["400 Patroon Creek Blvd","Suite 1"],"city":"Albany","state":"NY","postalCode":"12206"},{"line":["43 New Scotland Ave"],"city":"Albany","state":"NY","postalCode":"12208"},{"line":["43 New Scotland Ave "],"city":"Albany","state":"NY","postalCode":"12208"},{"line":["400 Patroon Creek Blvd","Suite 1"],"city":"Albany","state":"NY","postalCode":"12206"},{"line":["1700 Riverfront Center"],"city":"Amsterdam","state":"NY","postalCode":"12010"},{"line":["1700 Riverfront Center"],"city":"Amsterdam","state":"NY","postalCode":"12010"},{"line":["3 Crossing Blvd"],"city":"Clifton Park","state":"NY","postalCode":"12065"},{"line":["3 Crossing Blvd"],"city":"Clifton Park","state":"NY","postalCode":"12065"},{"line":["400 Patroon Creek","Suite 1"],"city":"Albany","state":"NY","postalCode":"12206"},{"line":["69 Prospect Ave"],"city":"Hudson","state":"NY","postalCode":"12534"},{"line":["400 Patroon Creek Blvd","Suite 210"],"city":"Albany","state":"NY","postalCode":"12206-5014"},{"line":["400 Patroon Creek Blvd","Suite 211"],"city":"Albany","state":"NY","postalCode":"12206-5014"},{"line":["258 Hoosick Street","Suite 201"],"city":"Troy","state":"NY","postalCode":"12180"}],"endpoint":[{"reference":"Endpoint/b003-4871-b587-ff6ce4705fcb"}]}},{"fullUrl":"https://g2fhir.mckesson.com/xfhir/Organization/0BAA392FA301468A9BE93205D3464C8A","resource":{"resourceType":"Organization","id":"0BAA392FA301468A9BE93205D3464C8A","active":true,"type":[{"coding":[{"system":"http://terminology.hl7.org/CodeSystem/organization-type","code":"prov","display":"Healthcare Provider"}],"text":"Healthcare Provider"}],"name":"Affiliated Oncologists, LLC","telecom":[{"extension":[{"url":"http://hl7.org/fhir/StructureDefinition/data-absent-reason","valueCode":"unknown"}]}],"address":[{"line":["10604 Southwest Highway","Suite 200"],"city":"Chicago Ridge","state":"IL","postalCode":"60415"},{"line":["10604 Southwest Highway","Suite 109"],"city":"Chicago Ridge","state":"IL","postalCode":"60415"},{"line":["10604 Southwest Highway"],"city":"Chicago Ridge","state":"IL","postalCode":"60415"},{"line":["3825 Highland Ave Tower 2","Suite 301"],"city":"Downers Grove","state":"IL","postalCode":"60515"},{"line":["6700 W. 95th St.","Suite 330"],"city":"Oak Lawn","state":"IL","postalCode":"60453"},{"line":["12150 S. Harlem"],"city":"Palos Heights","state":"IL","postalCode":"60643"},{"line":["19060 Everett Blvd."],"city":"Mokena","state":"IL","postalCode":"60448"},{"line":["17850 S Kedzie Ave","Suite 1500"],"city":"Hazel Crest","state":"IL","postalCode":"60429"},{"line":["17850 Kedzie Ave","Suite 1500"],"city":"Hazel Crest","state":"IL","postalCode":"60429"},{"line":["4301 W. 95th St"],"city":"Oak Lawn","state":"IL","postalCode":"60453"},{"line":["82 Orland Square Drive"],"city":"Orland Park","state":"IL","postalCode":"60462"},{"line":["12150 S. Harlem"],"city":"Palos Heights","state":"IL","postalCode":"60643"},{"line":["1890 Silver Cross Blvd","Suite 535"],"city":"New Lennox","state":"IL","postalCode":"60451"},{"line":["1900 Silver Cross Blvd"],"city":"New Lenox","state":"IL","postalCode":"60451"},{"line":["19060 Everett Blvd.","Suite 112"],"city":"Mokena","state":"IL","postalCode":"60448"}],"endpoint":[{"reference":"Endpoint/b003-4871-b587-ff6ce4705fcb"}]}},{"fullUrl":"https://g2fhir.mckesson.com/xfhir/Organization/8708BB5E45CC40EE8A5C8065601E2A94","resource":{"resourceType":"Organization","id":"8708BB5E45CC40EE8A5C8065601E2A94","identifier":[{"system":"http://hl7.org/fhir/sid/us-npi","value":"1871609537"}],"active":true,"type":[{"coding":[{"system":"http://terminology.hl7.org/CodeSystem/organization-type","code":"prov","display":"Healthcare Provider"}],"text":"Healthcare Provider"}],"name":"Ricardo T.D.D. Carter, M.D., LLC","telecom":[{"extension":[{"url":"http://hl7.org/fhir/StructureDefinition/data-absent-reason","valueCode":"unknown"}]}],"address":[{"line":["310 Electric Avenue","Suite 231"],"city":"Lewistown","state":"PA","postalCode":"17044"}],"endpoint":[{"reference":"Endpoint/b003-4871-b587-ff6ce4705fcb"}]}},{"fullUrl":"https://g2fhir.mckesson.com/xfhir/Organization/7EB01E5A58F64441B2EA05F722F4D4B8","resource":{"resourceType":"Organization","id":"7EB01E5A58F64441B2EA05F722F4D4B8","identifier":[{"system":"http://hl7.org/fhir/sid/us-npi","value":"1578532081"}],"active":true,"type":[{"coding":[{"system":"http://terminology.hl7.org/CodeSystem/organization-type","code":"prov","display":"Healthcare Provider"}],"text":"Healthcare Provider"}],"name":"Central Care Cancer Center","telecom":[{"extension":[{"url":"http://hl7.org/fhir/StructureDefinition/data-absent-reason","valueCode":"unknown"}]}],"address":[{"line":["1501 North Oakland Ave"],"city":"Bolivar","state":"MO","postalCode":"65613"},{"line":["1501 North Oakland Ave"],"city":"Bolivar","state":"MO","postalCode":"65613"},{"line":["1401 West 12th Avenue"],"city":"Emporia","state":"KS","postalCode":"66801"},{"line":["1401 West 12th Avenue"],"city":"Emporia","state":"KS","postalCode":"66801"},{"line":["410 East Spruce Street"],"city":"Garden City","state":"KS","postalCode":"67846"},{"line":["204 Cleveland Street"],"city":"Great Bend","state":"KS","postalCode":"67530"},{"line":["204 Cleveland Street"],"city":"Great Bend","state":"KS","postalCode":"67530"},{"line":["410 East Spruce Street"],"city":"Garden City","state":"KS","postalCode":"67846"},{"line":["730 Medical Center Drive"],"city":"Newton ","state":"KS","postalCode":"67114"}],"endpoint":[{"reference":"Endpoint/b003-4871-b587-ff6ce4705fcb"}]}},{"fullUrl":"https://g2fhir.mckesson.com/xfhir/Organization/3D54B800E5AB4C9BAB5FAD33CECB9033","resource":{"resourceType":"Organization","id":"3D54B800E5AB4C9BAB5FAD33CECB9033","identifier":[{"system":"http://hl7.org/fhir/sid/us-npi","value":"1790778041"}],"active":true,"type":[{"coding":[{"system":"http://terminology.hl7.org/CodeSystem/organization-type","code":"prov","display":"Healthcare Provider"}],"text":"Healthcare Provider"}],"name":"Oncology Hematology Care","telecom":[{"extension":[{"url":"http://hl7.org/fhir/StructureDefinition/data-absent-reason","valueCode":"unknown"}]}],"address":[{"line":["8000 Five Mile Road"],"city":"Cincinnati","state":"OH","postalCode":"45230"},{"line":["4350 Malsbary Road","1st Floor"],"city":"Cincinnati","state":"OH","postalCode":"45242"},{"line":["2055 Hospital Drive","Suite 310"],"city":"Batavia","state":"OH","postalCode":"45103"},{"line":["71 E. Hollister Street"],"city":"Cincinnati","state":"OH","postalCode":"45219"},{"line":["601 Ivy Gateway","Suite 1100"],"city":"Cincinnati","state":"OH","postalCode":"45245"},{"line":["601 Ivy Gateway","Suite 2300"],"city":"Cincinnati","state":"OH","postalCode":"45245"},{"line":["2025 Reading Road"],"city":"Cincinnati","state":"OH","postalCode":"45202"},{"line":["3050 Mack Road","Suite 300"],"city":"Fairfield","state":"OH","postalCode":"45014"},{"line":["860 NW Washington Boulevard"],"city":"Hamilton","state":"OH","postalCode":"45013"},{"line":["4700 E. Galbraith Rd.","Suite 104"],"city":"Cincinnati","state":"OH","postalCode":"45236"},{"line":["4777 E. Galbraith Road"],"city":"Cincinnati","state":"OH","postalCode":"45236"},{"line":["4700 E Galbraith Road","Suite 104"],"city":"Cincinnati","state":"OH","postalCode":"45236"},{"line":["606 Wilson Creek Blvd.","Suite 130"],"city":"Lawrenceburg","state":"IN","postalCode":"47025"},{"line":["991 Medical Park Drive"],"city":"Maysville","state":"KY","postalCode":"41056"},{"line":["3301 Mercy Health Blvd."],"city":"Cincinnati","state":"OH","postalCode":"45211"},{"line":["4030 Smith Road Suite 300"],"city":"Cincinnati","state":"OH","postalCode":"45209"},{"line":["7675 Wellness Way","Suite 301"],"city":"West Chester","state":"OH","postalCode":"45069"},{"line":["3300 Mercy Health Blvd"],"city":"Cincinnati","state":"OH","postalCode":"45211"},{"line":["781 W. Locust St."],"city":"Wilmington","state":"OH","postalCode":"45177"}],"endpoint":[{"reference":"Endpoint/b003-4871-b587-ff6ce4705fcb"}]}},{"fullUrl":"https://g2fhir.mckesson.com/xfhir/Organization/AB152CDFB21649C0AFEE8A951C62713C","resource":{"resourceType":"Organization","id":"AB152CDFB21649C0AFEE8A951C62713C","identifier":[{"system":"http://hl7.org/fhir/sid/us-npi","value":"1598701039"}],"active":true,"type":[{"coding":[{"system":"http://terminology.hl7.org/CodeSystem/organization-type","code":"prov","display":"Healthcare Provider"}],"text":"Healthcare Provider"}],"name":"Hematology Oncology Associates of Boca Raton","telecom":[{"extension":[{"url":"http://hl7.org/fhir/StructureDefinition/data-absent-reason","valueCode":"unknown"}]}],"address":[{"line":["9970 Central Park Blvd. Suite 304"],"city":"Boca Raton","state":"FL","postalCode":"33428"}],"endpoint":[{"reference":"Endpoint/b003-4871-b587-ff6ce4705fcb"}]}},{"fullUrl":"https://g2fhir.mckesson.com/xfhir/Organization/FE6DFCA13BED48E6BD67B5DD950DE447","resource":{"resourceType":"Organization","id":"FE6DFCA13BED48E6BD67B5DD950DE447","identifier":[{"system":"http://hl7.org/fhir/sid/us-npi","value":"1366435299"}],"active":true,"type":[{"coding":[{"system":"http://terminology.hl7.org/CodeSystem/organization-type","code":"prov","display":"Healthcare Provider"}],"text":"Healthcare Provider"}],"name":"Howard H. Cheng, MD and Associates LLC","telecom":[{"extension":[{"url":"http://hl7.org/fhir/StructureDefinition/data-absent-reason","valueCode":"unknown"}]}],"address":[{"line":["24953 Paseo De Valencia #25B"],"city":"Laguna Hills","state":"CA","postalCode":"92653"}],"endpoint":[{"reference":"Endpoint/b003-4871-b587-ff6ce4705fcb"}]}},{"fullUrl":"https://g2fhir.mckesson.com/xfhir/Organization/4393F00927CE4E30929628CCF1B2A276","resource":{"resourceType":"Organization","id":"4393F00927CE4E30929628CCF1B2A276","identifier":[{"system":"http://hl7.org/fhir/sid/us-npi","value":"1831485267"}],"active":true,"type":[{"coding":[{"system":"http://terminology.hl7.org/CodeSystem/organization-type","code":"prov","display":"Healthcare Provider"}],"text":"Healthcare Provider"}],"name":"Robert Reynolds, MD PC","telecom":[{"extension":[{"url":"http://hl7.org/fhir/StructureDefinition/data-absent-reason","valueCode":"unknown"}]}],"address":[{"line":["100 N. 30th Street"],"city":"Clinton","state":"OK","postalCode":"73601"},{"line":["330 S 5TH ST","Suite 500"],"city":"ENID","state":"OK","postalCode":"73701"},{"line":["7530 NW 23rd Street"],"city":"Bethany","state":"OK","postalCode":"73008"},{"line":["301 North 32nd Street"],"city":"Muskogee","state":"OK","postalCode":"74401"},{"line":["11100 Hefner Pointe Drive"],"city":"Oklahoma City","state":"OK","postalCode":"73120"},{"line":["9800 Broadway Ext. # 200"],"city":"Oklahoma City ","state":"OK","postalCode":"73114"},{"line":["2408 East 81st Street","Suite 110"],"city":"Tulsa","state":"OK","postalCode":"74137"},{"line":["215 N Illinois St"],"city":"Weatherford","state":"OK","postalCode":"73096"}],"endpoint":[{"reference":"Endpoint/b003-4871-b587-ff6ce4705fcb"}]}},{"fullUrl":"https://g2fhir.mckesson.com/xfhir/Organization/DAE6D8BB3C434101986DBB2B426B4DF0","resource":{"resourceType":"Organization","id":"DAE6D8BB3C434101986DBB2B426B4DF0","identifier":[{"system":"http://hl7.org/fhir/sid/us-npi","value":"1588777049"}],"active":true,"type":[{"coding":[{"system":"http://terminology.hl7.org/CodeSystem/organization-type","code":"prov","display":"Healthcare Provider"}],"text":"Healthcare Provider"}],"name":"TLC Cancer Clinic","telecom":[{"extension":[{"url":"http://hl7.org/fhir/StructureDefinition/data-absent-reason","valueCode":"unknown"}]}],"address":[{"line":["1600 Sixth Avenue"],"city":"York","state":"PA","postalCode":"17403"}],"endpoint":[{"reference":"Endpoint/b003-4871-b587-ff6ce4705fcb"}]}},{"fullUrl":"https://g2fhir.mckesson.com/xfhir/Organization/39E8045033EE223BE0540010E076CAE3","resource":{"resourceType":"Organization","id":"39E8045033EE223BE0540010E076CAE3","active":true,"type":[{"coding":[{"system":"http://terminology.hl7.org/CodeSystem/organization-type","code":"prov","display":"Healthcare Provider"}],"text":"Healthcare Provider"}],"name":"Medical Associates Clinic, P,C.","telecom":[{"extension":[{"url":"http://hl7.org/fhir/StructureDefinition/data-absent-reason","valueCode":"unknown"}]}],"address":[{"line":["1500 Associates Dr."],"city":"Dubuque","state":"IA","postalCode":"52002"},{"line":["1500 Associates Dr."],"city":"Dubuque","state":"IA","postalCode":"52002"},{"line":["1500 Associates Dr."],"city":"Dubuque","state":"IA","postalCode":"52002"},{"line":["1500 Associates Dr."],"city":"Dubuque","state":"IA","postalCode":"52002"}],"endpoint":[{"reference":"Endpoint/b003-4871-b587-ff6ce4705fcb"}]}},{"fullUrl":"https://g2fhir.mckesson.com/xfhir/Organization/39E8045033F0223BE0540010E076CAE3","resource":{"resourceType":"Organization","id":"39E8045033F0223BE0540010E076CAE3","identifier":[{"system":"http://hl7.org/fhir/sid/us-npi","value":"1255397733"}],"active":true,"type":[{"coding":[{"system":"http://terminology.hl7.org/CodeSystem/organization-type","code":"prov","display":"Healthcare Provider"}],"text":"Healthcare Provider"}],"name":"Millennium Physicians Association, PLLC","telecom":[{"extension":[{"url":"http://hl7.org/fhir/StructureDefinition/data-absent-reason","valueCode":"unknown"}]}],"address":[{"line":["314 S San Jacinto Ave "],"city":"Cleveland","state":"TX","postalCode":"77327"},{"line":["4015 I-45 North Suite 230-1"],"city":"Conroe","state":"TX","postalCode":"77304"},{"line":["506 Medical Center Blvd","Suite 100"],"city":"Conroe","state":"TX","postalCode":"77304"},{"line":["27700 Northwest Freeway","Suite 580"],"city":"Cypress","state":"TX","postalCode":"77433"},{"line":["130 Medical CTR PKWY","Suite 5"],"city":"Huntsville","state":"TX","postalCode":"77340"},{"line":["22710 Professional Dr","Suite 100"],"city":"Kingwood","state":"TX","postalCode":"77339"},{"line":["522 Timberdale Lane"],"city":"Houston","state":"TX","postalCode":"77090"},{"line":["17323 Red Oak Drive"],"city":"Houston","state":"TX","postalCode":"77090"},{"line":["22730 Professional Drive ","Suite 110"],"city":"Kingwood","state":"TX","postalCode":"77339"},{"line":["9319 Pinecroft Drive ","Suite 110"],"city":"The Woodlands","state":"TX","postalCode":"77380"},{"line":["314 San Jacinto Ave"],"city":"Cleveland","state":"TX","postalCode":"77327"},{"line":["506 Medical Center Blvd ","Ste 100"],"city":"Conroe","state":"TX","postalCode":"77304"},{"line":["4015 IH-45 North","Suite 230-1"],"city":"Conroe","state":"TX","postalCode":"77304"},{"line":["27700 Northwest Freeway","Suite 580"],"city":"Cypress","state":"TX","postalCode":"77433"},{"line":["130 Medical Ctr Pkwy","Ste 5"],"city":"Huntsville","state":"TX","postalCode":"77340"},{"line":["22710 Professional Drive ","Suite 203"],"city":"Kingwood","state":"TX","postalCode":"77339"},{"line":["18488 Interstate 45 South"],"city":"Shenandoah","state":"TX","postalCode":"77384"},{"line":["506 Graham Drive ","Suite 120"],"city":"Tomball","state":"TX","postalCode":"77375"},{"line":["9319 Pinecroft Drive ","Suite 210"],"city":"The Woodlands","state":"TX","postalCode":"77380"},{"line":["17450 St Lukes Way","Ste 250"],"city":"The Woodlands","state":"TX","postalCode":"77384-8045"},{"line":["18488 Interstate 45 S"],"city":"Shenandoah","state":"TX","postalCode":"77384"},{"line":["9319 Pinecroft Dr","Suite 100"],"city":"The Woodlands","state":"TX","postalCode":"77380"},{"line":["506 Graham Drive","Ste 120"],"city":"Tomball","state":"TX","postalCode":"77375"}],"endpoint":[{"reference":"Endpoint/b003-4871-b587-ff6ce4705fcb"}]}},{"fullUrl":"https://g2fhir.mckesson.com/xfhir/Organization/39E8045033F2223BE0540010E076CAE3","resource":{"resourceType":"Organization","id":"39E8045033F2223BE0540010E076CAE3","identifier":[{"system":"http://hl7.org/fhir/sid/us-npi","value":"1770183717"}],"active":true,"type":[{"coding":[{"system":"http://terminology.hl7.org/CodeSystem/organization-type","code":"prov","display":"Healthcare Provider"}],"text":"Healthcare Provider"}],"name":"Serenity Cancer Center","telecom":[{"extension":[{"url":"http://hl7.org/fhir/StructureDefinition/data-absent-reason","valueCode":"unknown"}]}],"address":[{"line":["1805 E Fir Ave.","Suite 102"],"city":"Fresno","state":"CA","postalCode":"93720"}],"endpoint":[{"reference":"Endpoint/b003-4871-b587-ff6ce4705fcb"}]}},{"fullUrl":"https://g2fhir.mckesson.com/xfhir/Organization/39E8045033F3223BE0540010E076CAE3","resource":{"resourceType":"Organization","id":"39E8045033F3223BE0540010E076CAE3","active":true,"type":[{"coding":[{"system":"http://terminology.hl7.org/CodeSystem/organization-type","code":"prov","display":"Healthcare Provider"}],"text":"Healthcare Provider"}],"name":"Mary Bird Perkins Cancer Center","telecom":[{"extension":[{"url":"http://hl7.org/fhir/StructureDefinition/data-absent-reason","valueCode":"unknown"}]}],"address":[{"line":["1203 S. Tyler Street","Suite 230"],"city":"Covington","state":"LA","postalCode":"70433"}],"endpoint":[{"reference":"Endpoint/b003-4871-b587-ff6ce4705fcb"}]}},{"fullUrl":"https://g2fhir.mckesson.com/xfhir/Organization/39E8045033F5223BE0540010E076CAE3","resource":{"resourceType":"Organization","id":"39E8045033F5223BE0540010E076CAE3","identifier":[{"system":"http://hl7.org/fhir/sid/us-npi","value":"1356300958"}],"active":true,"type":[{"coding":[{"system":"http://terminology.hl7.org/CodeSystem/organization-type","code":"prov","display":"Healthcare Provider"}],"text":"Healthcare Provider"}],"name":"Florida Cancer Affiliates","telecom":[{"extension":[{"url":"http://hl7.org/fhir/StructureDefinition/data-absent-reason","valueCode":"unknown"}]}],"address":[{"line":["13940 US Highway 441 N","Suite 203"],"city":"Lady Lake","state":"FL","postalCode":"32159"},{"line":["3130 S.W. 32nd Ave"],"city":"Ocala","state":"FL","postalCode":"34474"},{"line":["2100 State Avenue"],"city":"Panama City","state":"FL","postalCode":"32405"},{"line":["2100 State Street Ave"],"city":"Panama City","state":"FL","postalCode":"32405"},{"line":["9401 SW State Rd 200 Building 700 STE 702"],"city":"Ocala","state":"FL","postalCode":"34481"}],"endpoint":[{"reference":"Endpoint/b003-4871-b587-ff6ce4705fcb"}]}},{"fullUrl":"https://g2fhir.mckesson.com/xfhir/Organization/D60CE5D98D4B4077BD8183ACC6087FCC","resource":{"resourceType":"Organization","id":"D60CE5D98D4B4077BD8183ACC6087FCC","identifier":[{"system":"http://hl7.org/fhir/sid/us-npi","value":"1629145719"}],"active":true,"type":[{"coding":[{"system":"http://terminology.hl7.org/CodeSystem/organization-type","code":"prov","display":"Healthcare Provider"}],"text":"Healthcare Provider"}],"name":"Natchez Oncology Clinic Inc.","telecom":[{"extension":[{"url":"http://hl7.org/fhir/StructureDefinition/data-absent-reason","valueCode":"unknown"}]}],"address":[{"line":["106 Jefferson Davis Blvd"],"city":"Natchez","state":"MS","postalCode":"39120"}],"endpoint":[{"reference":"Endpoint/b003-4871-b587-ff6ce4705fcb"}]}},{"fullUrl":"https://g2fhir.mckesson.com/xfhir/Organization/F2AF320F09CA4F2B814A5DCF9C443E04","resource":{"resourceType":"Organization","id":"F2AF320F09CA4F2B814A5DCF9C443E04","active":true,"type":[{"coding":[{"system":"http://terminology.hl7.org/CodeSystem/organization-type","code":"prov","display":"Healthcare Provider"}],"text":"Healthcare Provider"}],"name":"NW Georgia Hematology and Oncology PC","telecom":[{"extension":[{"url":"http://hl7.org/fhir/StructureDefinition/data-absent-reason","valueCode":"unknown"}]}],"address":[{"line":["1504 N Thornton Ave","STE 102"],"city":"Dalton","state":"GA","postalCode":"30720"}],"endpoint":[{"reference":"Endpoint/b003-4871-b587-ff6ce4705fcb"}]}},{"fullUrl":"https://g2fhir.mckesson.com/xfhir/Organization/53DB76DF66BE4503BB54EC34DD6A922F","resource":{"resourceType":"Organization","id":"53DB76DF66BE4503BB54EC34DD6A922F","identifier":[{"system":"http://hl7.org/fhir/sid/us-npi","value":"1740272459"}],"active":true,"type":[{"coding":[{"system":"http://terminology.hl7.org/CodeSystem/organization-type","code":"prov","display":"Healthcare Provider"}],"text":"Healthcare Provider"}],"name":"Raman Sood, MD","telecom":[{"extension":[{"url":"http://hl7.org/fhir/StructureDefinition/data-absent-reason","valueCode":"unknown"}]}],"address":[{"line":["529 Central Ave"],"city":"Dunkirk","state":"NY","postalCode":"14048"},{"line":["617 Central Ave"],"city":"Dunkirk","state":"NY","postalCode":"14048"}],"endpoint":[{"reference":"Endpoint/b003-4871-b587-ff6ce4705fcb"}]}},{"fullUrl":"https://g2fhir.mckesson.com/xfhir/Organization/39E804503407223BE0540010E076CAE3","resource":{"resourceType":"Organization","id":"39E804503407223BE0540010E076CAE3","active":true,"type":[{"coding":[{"system":"http://terminology.hl7.org/CodeSystem/organization-type","code":"prov","display":"Healthcare Provider"}],"text":"Healthcare Provider"}],"name":"New Horizon Cancer Care","telecom":[{"extension":[{"url":"http://hl7.org/fhir/StructureDefinition/data-absent-reason","valueCode":"unknown"}]}],"address":[{"line":["101 Medical Heights Dr.","Suite M"],"city":"Frankfort","state":"KY","postalCode":"40601"}],"endpoint":[{"reference":"Endpoint/b003-4871-b587-ff6ce4705fcb"}]}},{"fullUrl":"https://g2fhir.mckesson.com/xfhir/Organization/4ACEC2C2B3CD4B86A9176FE452B2FD7E","resource":{"resourceType":"Organization","id":"4ACEC2C2B3CD4B86A9176FE452B2FD7E","identifier":[{"system":"http://hl7.org/fhir/sid/us-npi","value":"1437157062"}],"active":true,"type":[{"coding":[{"system":"http://terminology.hl7.org/CodeSystem/organization-type","code":"prov","display":"Healthcare Provider"}],"text":"Healthcare Provider"}],"name":"Hematology and Medical Oncology of Southern Palm Beach County","telecom":[{"extension":[{"url":"http://hl7.org/fhir/StructureDefinition/data-absent-reason","valueCode":"unknown"}]}],"address":[{"line":["21020 State Road 7"],"city":"Boca Raton","state":"FL","postalCode":"33428"},{"line":["2623 South Seacrest Blvd","Suite LL 60"],"city":"Boynton Beach","state":"FL","postalCode":"33435"}],"endpoint":[{"reference":"Endpoint/b003-4871-b587-ff6ce4705fcb"}]}},{"fullUrl":"https://g2fhir.mckesson.com/xfhir/Organization/94A74FF97A2F4870A72562124C08F36B","resource":{"resourceType":"Organization","id":"94A74FF97A2F4870A72562124C08F36B","identifier":[{"system":"http://hl7.org/fhir/sid/us-npi","value":"1487621496"}],"active":true,"type":[{"coding":[{"system":"http://terminology.hl7.org/CodeSystem/organization-type","code":"prov","display":"Healthcare Provider"}],"text":"Healthcare Provider"}],"name":"Blue Ridge Cancer Care","telecom":[{"extension":[{"url":"http://hl7.org/fhir/StructureDefinition/data-absent-reason","valueCode":"unknown"}]}],"address":[{"line":["1 ARH Lane, Suite 300","Emmett Medical and Surgical Clinic"],"city":"Low Moor","state":"VA","postalCode":"24457"},{"line":["1710 Whitfield Drive"],"city":"Bedford","state":"VA","postalCode":"24523"},{"line":["2600 Research Center Dr.","Suite A"],"city":"Blacksburg","state":"VA","postalCode":"24060"},{"line":["390 South Main Street","Suite 103"],"city":"Rocky Mount","state":"VA","postalCode":"24151"},{"line":["108 Houston Street","Suite B"],"city":"Lexington","state":"VA","postalCode":"24450"},{"line":["1020 Terrace Drive","Suite 202"],"city":"Marion","state":"VA","postalCode":"24354"},{"line":["660 New Hope Road "],"city":"Princeton ","state":"WV","postalCode":"24740"},{"line":["2400 Lee Highway"],"city":"Pulaski","state":"VA","postalCode":"24301"},{"line":["2013 South Jefferson Street"],"city":"Roanoke","state":"VA","postalCode":"24014"},{"line":["1900 Electric Road"],"city":"Salem","state":"VA","postalCode":"24153"},{"line":["1995 West Ridge Road","Suite E"],"city":"Wytheville","state":"VA","postalCode":"24382"}],"endpoint":[{"reference":"Endpoint/b003-4871-b587-ff6ce4705fcb"}]}},{"fullUrl":"https://g2fhir.mckesson.com/xfhir/Organization/ECC1759823AE44869FE00B4BBD64B42B","resource":{"resourceType":"Organization","id":"ECC1759823AE44869FE00B4BBD64B42B","active":true,"type":[{"coding":[{"system":"http://terminology.hl7.org/CodeSystem/organization-type","code":"prov","display":"Healthcare Provider"}],"text":"Healthcare Provider"}],"name":"Hematology Oncology Specialists of Cape Cod, P.C.","telecom":[{"extension":[{"url":"http://hl7.org/fhir/StructureDefinition/data-absent-reason","valueCode":"unknown"}]}],"address":[{"line":["26 Edgerton Dr."],"city":"North Falmouth","state":"MA","postalCode":"02556"}],"endpoint":[{"reference":"Endpoint/b003-4871-b587-ff6ce4705fcb"}]}},{"fullUrl":"https://g2fhir.mckesson.com/xfhir/Organization/32E8C2FB0850457985B26940A1B4F228","resource":{"resourceType":"Organization","id":"32E8C2FB0850457985B26940A1B4F228","identifier":[{"system":"http://hl7.org/fhir/sid/us-npi","value":"1528399193"}],"active":true,"type":[{"coding":[{"system":"http://terminology.hl7.org/CodeSystem/organization-type","code":"prov","display":"Healthcare Provider"}],"text":"Healthcare Provider"}],"name":"Solano Hematology Oncology","telecom":[{"extension":[{"url":"http://hl7.org/fhir/StructureDefinition/data-absent-reason","valueCode":"unknown"}]}],"address":[{"line":["1360 Burton Drive","Suite 170"],"city":"Vacaville","state":"CA","postalCode":"95687"},{"line":["100 Hospital Drive","Suite 110"],"city":"Vallejo","state":"CA","postalCode":"94589"}],"endpoint":[{"reference":"Endpoint/b003-4871-b587-ff6ce4705fcb"}]}},{"fullUrl":"https://g2fhir.mckesson.com/xfhir/Organization/39E804503412223BE0540010E076CAE3","resource":{"resourceType":"Organization","id":"39E804503412223BE0540010E076CAE3","active":true,"type":[{"coding":[{"system":"http://terminology.hl7.org/CodeSystem/organization-type","code":"prov","display":"Healthcare Provider"}],"text":"Healthcare Provider"}],"name":"Hematology Oncology of Tysons, PLLC ","telecom":[{"extension":[{"url":"http://hl7.org/fhir/StructureDefinition/data-absent-reason","valueCode":"unknown"}]}],"address":[{"line":["8290 Old Courthouse Rd STE C"],"city":"Vienna","state":"VA","postalCode":"22182"}],"endpoint":[{"reference":"Endpoint/b003-4871-b587-ff6ce4705fcb"}]}},{"fullUrl":"https://g2fhir.mckesson.com/xfhir/Organization/43F8B20E494F4C3AA047F97FB93A641E","resource":{"resourceType":"Organization","id":"43F8B20E494F4C3AA047F97FB93A641E","active":true,"type":[{"coding":[{"system":"http://terminology.hl7.org/CodeSystem/organization-type","code":"prov","display":"Healthcare Provider"}],"text":"Healthcare Provider"}],"name":"Comprehensive Cancer Center of Nevada","telecom":[{"extension":[{"url":"http://hl7.org/fhir/StructureDefinition/data-absent-reason","valueCode":"unknown"}]}],"address":[{"line":["999 Adams Boulevard","Suite 102"],"city":"Boulder City","state":"NV","postalCode":"89005"},{"line":["655 N Town Center Drive"],"city":"Las Vegas","state":"NV","postalCode":"89144"},{"line":["2460 W. Horizon Ridge Parkway"],"city":"Henderson","state":"NV","postalCode":"89052"},{"line":["7445 Peak Drive"],"city":"Las Vegas","state":"NV","postalCode":"89128"},{"line":["10001 S. Eastern Avenue","Suite 108"],"city":"Henderson","state":"NV","postalCode":"89052"},{"line":["9280 W. Sunset Road","Suite 100"],"city":"Las Vegas","state":"NV","postalCode":"89148"},{"line":["1505 Wigwam Parkway","Suite 130"],"city":"Henderson","state":"NV","postalCode":"89074"},{"line":["655 N. Town Center Drive"],"city":"Las Vegas","state":"NV","postalCode":"89144"},{"line":["653 N Town Center Drive ","Suite 402"],"city":"Las Vegas","state":"NV","postalCode":"89144"},{"line":["3730 S. Eastern Avenue"],"city":"Las Vegas","state":"NV","postalCode":"89169"}],"endpoint":[{"reference":"Endpoint/b003-4871-b587-ff6ce4705fcb"}]}},{"fullUrl":"https://g2fhir.mckesson.com/xfhir/Organization/CBDB36CEE6EC4DD7A6B1F04DB2DA4940","resource":{"resourceType":"Organization","id":"CBDB36CEE6EC4DD7A6B1F04DB2DA4940","active":true,"type":[{"coding":[{"system":"http://terminology.hl7.org/CodeSystem/organization-type","code":"prov","display":"Healthcare Provider"}],"text":"Healthcare Provider"}],"name":"Northwest Cancer Centers","telecom":[{"extension":[{"url":"http://hl7.org/fhir/StructureDefinition/data-absent-reason","valueCode":"unknown"}]}],"address":[{"line":["342 E 109th"],"city":"Crown Point","state":"IN","postalCode":"46307"},{"line":["1001 Calumet Ave"],"city":"Dyer","state":"IN","postalCode":"46311"},{"line":["1600 S Lake Park Ave Suite 1101"],"city":"Hobart","state":"IN","postalCode":"46342"},{"line":["1331 State Street"],"city":"LaPorte","state":"IN","postalCode":"46350"},{"line":["1331 State Street"],"city":"LaPorte","state":"IN","postalCode":"46350"},{"line":["5510 Franklin Street"],"city":"Michigan City","state":"IN","postalCode":"46360-7842"},{"line":["3800 St. Mary Drive Ste 302"],"city":"Valparaiso","state":"IN","postalCode":"46383"},{"line":["2075 Indianapolis Blvd"],"city":"Whiting","state":"IN","postalCode":"46394"}],"endpoint":[{"reference":"Endpoint/b003-4871-b587-ff6ce4705fcb"}]}},{"fullUrl":"https://g2fhir.mckesson.com/xfhir/Organization/B79892E3C3244EB98D6CE5856B262CDE","resource":{"resourceType":"Organization","id":"B79892E3C3244EB98D6CE5856B262CDE","active":true,"type":[{"coding":[{"system":"http://terminology.hl7.org/CodeSystem/organization-type","code":"prov","display":"Healthcare Provider"}],"text":"Healthcare Provider"}],"name":"AMG Hematology and Oncology","telecom":[{"extension":[{"url":"http://hl7.org/fhir/StructureDefinition/data-absent-reason","valueCode":"unknown"}]}],"address":[{"line":["200 East State Street "],"city":"Alliance","state":"OH","postalCode":"44601"},{"line":["2600 Sixth Street SW"],"city":"Canton","state":"OH","postalCode":"44710"}],"endpoint":[{"reference":"Endpoint/b003-4871-b587-ff6ce4705fcb"}]}},{"fullUrl":"https://g2fhir.mckesson.com/xfhir/Organization/39E8045033B6223BE0540010E076CAE3","resource":{"resourceType":"Organization","id":"39E8045033B6223BE0540010E076CAE3","active":true,"type":[{"coding":[{"system":"http://terminology.hl7.org/CodeSystem/organization-type","code":"prov","display":"Healthcare Provider"}],"text":"Healthcare Provider"}],"name":"Anderson Area Cancer Center","telecom":[{"extension":[{"url":"http://hl7.org/fhir/StructureDefinition/data-absent-reason","valueCode":"unknown"}]}],"address":[{"line":["2000 E Greenville St.","Suite 5000"],"city":"Anderson","state":"SC","postalCode":"29621"}],"endpoint":[{"reference":"Endpoint/b003-4871-b587-ff6ce4705fcb"}]}},{"fullUrl":"https://g2fhir.mckesson.com/xfhir/Organization/EFD45C051CAB4F29AB4B2572F21659A1","resource":{"resourceType":"Organization","id":"EFD45C051CAB4F29AB4B2572F21659A1","identifier":[{"system":"http://hl7.org/fhir/sid/us-npi","value":"1578629556"}],"active":true,"type":[{"coding":[{"system":"http://terminology.hl7.org/CodeSystem/organization-type","code":"prov","display":"Healthcare Provider"}],"text":"Healthcare Provider"}],"name":"Southern Cancer Center - Huntsville","telecom":[{"extension":[{"url":"http://hl7.org/fhir/StructureDefinition/data-absent-reason","valueCode":"unknown"}]}],"address":[{"line":["201 Sivley Rd","Suite 200"],"city":"Huntsville","state":"AL","postalCode":"35801"},{"line":["101 Sivley Rd SW"],"city":"Huntsville","state":"AL","postalCode":"35801"},{"line":["245 Governors Drive"],"city":"Huntsville","state":"AL","postalCode":"35801"}],"endpoint":[{"reference":"Endpoint/b003-4871-b587-ff6ce4705fcb"}]}},{"fullUrl":"https://g2fhir.mckesson.com/xfhir/Organization/6988D60E6AD74D0DBF2A98AA821A33B7","resource":{"resourceType":"Organization","id":"6988D60E6AD74D0DBF2A98AA821A33B7","active":true,"type":[{"coding":[{"system":"http://terminology.hl7.org/CodeSystem/organization-type","code":"prov","display":"Healthcare Provider"}],"text":"Healthcare Provider"}],"name":"Hematology and Oncology Care","telecom":[{"extension":[{"url":"http://hl7.org/fhir/StructureDefinition/data-absent-reason","valueCode":"unknown"}]}],"address":[{"line":["1409 E Kimberly Rd"],"city":"Davenport","state":"IA","postalCode":"52807"},{"line":["600 John Deere Rd","Ste 301"],"city":"Moline","state":"IL","postalCode":"61265"}],"endpoint":[{"reference":"Endpoint/b003-4871-b587-ff6ce4705fcb"}]}},{"fullUrl":"https://g2fhir.mckesson.com/xfhir/Organization/N-D3CEB714712848ABBA8D5199DD2C0038","resource":{"resourceType":"Organization","id":"N-D3CEB714712848ABBA8D5199DD2C0038","identifier":[{"system":"http://hl7.org/fhir/sid/us-npi","value":"1518071315"}],"active":true,"type":[{"coding":[{"system":"http://terminology.hl7.org/CodeSystem/organization-type","code":"prov","display":"Healthcare Provider"}],"text":"Healthcare Provider"}],"name":"New Horizons Womens Cancer Care","telecom":[{"extension":[{"url":"http://hl7.org/fhir/StructureDefinition/data-absent-reason","valueCode":"unknown"}]}],"address":[{"line":["53 South French Broad Avenue","Suite 200"],"city":"Asheville","state":"NC","postalCode":"28801"},{"line":["2315  Asheville Highway"],"city":"Hendersonville","state":"NC","postalCode":"28791"}],"endpoint":[{"reference":"Endpoint/b003-4871-b587-ff6ce4705fcb"}]}},{"fullUrl":"https://g2fhir.mckesson.com/xfhir/Organization/39E8045033C8223BE0540010E076CAE3","resource":{"resourceType":"Organization","id":"39E8045033C8223BE0540010E076CAE3","identifier":[{"system":"http://hl7.org/fhir/sid/us-npi","value":"1346757135"}],"active":true,"type":[{"coding":[{"system":"http://terminology.hl7.org/CodeSystem/organization-type","code":"prov","display":"Healthcare Provider"}],"text":"Healthcare Provider"}],"name":"Hem and Onc Assoc of N Cali","telecom":[{"extension":[{"url":"http://hl7.org/fhir/StructureDefinition/data-absent-reason","valueCode":"unknown"}]}],"address":[{"line":["1631 Creekside Dr","#102"],"city":"Folsom","state":"CA","postalCode":"95630"},{"line":["9390 Big Horn Blvd.","Suite 145"],"city":"Elk Grove","state":"CA","postalCode":"95758"}],"endpoint":[{"reference":"Endpoint/b003-4871-b587-ff6ce4705fcb"}]}},{"fullUrl":"https://g2fhir.mckesson.com/xfhir/Organization/39E8045033C9223BE0540010E076CAE3","resource":{"resourceType":"Organization","id":"39E8045033C9223BE0540010E076CAE3","identifier":[{"system":"http://hl7.org/fhir/sid/us-npi","value":"1497277164"}],"active":true,"type":[{"coding":[{"system":"http://terminology.hl7.org/CodeSystem/organization-type","code":"prov","display":"Healthcare Provider"}],"text":"Healthcare Provider"}],"name":"Noah Lindenberg PC","telecom":[{"extension":[{"url":"http://hl7.org/fhir/StructureDefinition/data-absent-reason","valueCode":"unknown"}]}],"address":[{"line":["773 East Rte 70","Suite E125"],"city":"Marlton","state":"NJ","postalCode":"08053"}],"endpoint":[{"reference":"Endpoint/b003-4871-b587-ff6ce4705fcb"}]}},{"fullUrl":"https://g2fhir.mckesson.com/xfhir/Organization/39E8045033CD223BE0540010E076CAE3","resource":{"resourceType":"Organization","id":"39E8045033CD223BE0540010E076CAE3","identifier":[{"system":"http://hl7.org/fhir/sid/us-npi","value":"1790805877"}],"active":true,"type":[{"coding":[{"system":"http://terminology.hl7.org/CodeSystem/organization-type","code":"prov","display":"Healthcare Provider"}],"text":"Healthcare Provider"}],"name":"ROHIT KAPOOR, MD PA","telecom":[{"extension":[{"url":"http://hl7.org/fhir/StructureDefinition/data-absent-reason","valueCode":"unknown"}]}],"address":[{"line":["1905 E Hwy 97"],"city":"Jourdanton","state":"TX","postalCode":"78026-1504"},{"line":["7909 fredrickburg road"],"city":"San Antonio","state":"TX","postalCode":"78229"},{"line":["12602 Toepperwein Rd","Suite 114"],"city":"San Antonio","state":"TX","postalCode":"78233"}],"endpoint":[{"reference":"Endpoint/b003-4871-b587-ff6ce4705fcb"}]}},{"fullUrl":"https://g2fhir.mckesson.com/xfhir/Organization/39E8045033CE223BE0540010E076CAE3","resource":{"resourceType":"Organization","id":"39E8045033CE223BE0540010E076CAE3","identifier":[{"system":"http://hl7.org/fhir/sid/us-npi","value":"1821075599"}],"active":true,"type":[{"coding":[{"system":"http://terminology.hl7.org/CodeSystem/organization-type","code":"prov","display":"Healthcare Provider"}],"text":"Healthcare Provider"}],"name":"Physicians Clinic of Iowa","telecom":[{"extension":[{"url":"http://hl7.org/fhir/StructureDefinition/data-absent-reason","valueCode":"unknown"}]}],"address":[{"line":["202 10th St SE"],"city":"Cedar Rapids","state":"IA","postalCode":"52403"}],"endpoint":[{"reference":"Endpoint/b003-4871-b587-ff6ce4705fcb"}]}},{"fullUrl":"https://g2fhir.mckesson.com/xfhir/Organization/C5E523C67DC34FBE99FD4E0E068611A1","resource":{"resourceType":"Organization","id":"C5E523C67DC34FBE99FD4E0E068611A1","active":true,"type":[{"coding":[{"system":"http://terminology.hl7.org/CodeSystem/organization-type","code":"prov","display":"Healthcare Provider"}],"text":"Healthcare Provider"}],"name":"Illinois Cancer Specialists","telecom":[{"extension":[{"url":"http://hl7.org/fhir/StructureDefinition/data-absent-reason","valueCode":"unknown"}]}],"address":[{"line":["8915 W Golf Road","Third Floor"],"city":"Niles","state":"IL","postalCode":"60714"},{"line":["880 W. Central Rd","Suite 8200"],"city":"Arlington Heights","state":"IL","postalCode":"60005"},{"line":["7447 W Talcott Ave","Suite 1"],"city":"Chicago","state":"IL","postalCode":"60631"},{"line":["880 W. Central Rd","Suite 8200"],"city":"Arlington Heights","state":"IL","postalCode":"60005"},{"line":["8915 W. Golf Rd","Third Floor"],"city":"Niles","state":"IL","postalCode":"60714"},{"line":["8915 W Golf Road","Third Floor"],"city":"Niles","state":"IL","postalCode":"60714"},{"line":["7447 W Talcott Ave","Suite 1"],"city":"Chicago","state":"IL","postalCode":"60631"},{"line":["8915 W Golf Road","Third Floor"],"city":"Niles","state":"IL","postalCode":"60714"}],"endpoint":[{"reference":"Endpoint/b003-4871-b587-ff6ce4705fcb"}]}},{"fullUrl":"https://g2fhir.mckesson.com/xfhir/Organization/39E8045033E1223BE0540010E076CAE3","resource":{"resourceType":"Organization","id":"39E8045033E1223BE0540010E076CAE3","identifier":[{"system":"http://hl7.org/fhir/sid/us-npi","value":"1003139387"}],"active":true,"type":[{"coding":[{"system":"http://terminology.hl7.org/CodeSystem/organization-type","code":"prov","display":"Healthcare Provider"}],"text":"Healthcare Provider"}],"name":"CANCER CARE OF WESTERN AZ","telecom":[{"extension":[{"url":"http://hl7.org/fhir/StructureDefinition/data-absent-reason","valueCode":"unknown"}]}],"address":[{"line":["101 Civic Center Lane"],"city":"Lake Havasu City","state":"AZ","postalCode":"86402"}],"endpoint":[{"reference":"Endpoint/b003-4871-b587-ff6ce4705fcb"}]}},{"fullUrl":"https://g2fhir.mckesson.com/xfhir/Organization/B0FB9A92986C48338C04D29B8F0C3F61","resource":{"resourceType":"Organization","id":"B0FB9A92986C48338C04D29B8F0C3F61","identifier":[{"system":"http://hl7.org/fhir/sid/us-npi","value":"1821030206"}],"active":true,"type":[{"coding":[{"system":"http://terminology.hl7.org/CodeSystem/organization-type","code":"prov","display":"Healthcare Provider"}],"text":"Healthcare Provider"}],"name":"Katmai Oncology Group","telecom":[{"extension":[{"url":"http://hl7.org/fhir/StructureDefinition/data-absent-reason","valueCode":"unknown"}]}],"address":[{"line":["3851 Piper St. ","Suite U340"],"city":"Anchorage","state":"AK","postalCode":"99508"},{"line":["12001 Business Blvd","Suite 3C"],"city":"Eagle River","state":"AK","postalCode":"99577"}],"endpoint":[{"reference":"Endpoint/b003-4871-b587-ff6ce4705fcb"}]}},{"fullUrl":"https://g2fhir.mckesson.com/xfhir/Organization/39E8045033D9223BE0540010E076CAE3","resource":{"resourceType":"Organization","id":"39E8045033D9223BE0540010E076CAE3","identifier":[{"system":"http://hl7.org/fhir/sid/us-npi","value":"1881632339"}],"active":true,"type":[{"coding":[{"system":"http://terminology.hl7.org/CodeSystem/organization-type","code":"prov","display":"Healthcare Provider"}],"text":"Healthcare Provider"}],"name":"Wilmington Health","telecom":[{"extension":[{"url":"http://hl7.org/fhir/StructureDefinition/data-absent-reason","valueCode":"unknown"}]}],"address":[{"line":["2421 Silver Stream Lane","Suite 200"],"city":"Wilmington","state":"NC","postalCode":"28401"}],"endpoint":[{"reference":"Endpoint/b003-4871-b587-ff6ce4705fcb"}]}},{"fullUrl":"https://g2fhir.mckesson.com/xfhir/Organization/F3B1ACC766AC4AFF8FE8FCB37F5932C1","resource":{"resourceType":"Organization","id":"F3B1ACC766AC4AFF8FE8FCB37F5932C1","identifier":[{"system":"http://hl7.org/fhir/sid/us-npi","value":"1760779607"}],"active":true,"type":[{"coding":[{"system":"http://terminology.hl7.org/CodeSystem/organization-type","code":"prov","display":"Healthcare Provider"}],"text":"Healthcare Provider"}],"name":"Batesville Oncology","telecom":[{"extension":[{"url":"http://hl7.org/fhir/StructureDefinition/data-absent-reason","valueCode":"unknown"}]}],"address":[{"line":["1710 Harrison St"],"city":"Batesville","state":"AR","postalCode":"72501"}],"endpoint":[{"reference":"Endpoint/b003-4871-b587-ff6ce4705fcb"}]}},{"fullUrl":"https://g2fhir.mckesson.com/xfhir/Organization/39E8045033EC223BE0540010E076CAE3","resource":{"resourceType":"Organization","id":"39E8045033EC223BE0540010E076CAE3","identifier":[{"system":"http://hl7.org/fhir/sid/us-npi","value":"1659823573"}],"active":true,"type":[{"coding":[{"system":"http://terminology.hl7.org/CodeSystem/organization-type","code":"prov","display":"Healthcare Provider"}],"text":"Healthcare Provider"}],"name":"Covenant Oncology and Hematology","telecom":[{"extension":[{"url":"http://hl7.org/fhir/StructureDefinition/data-absent-reason","valueCode":"unknown"}]}],"address":[{"line":["617 Chamberlin Ave"],"city":"Frankfort","state":"KY","postalCode":"40601"}],"endpoint":[{"reference":"Endpoint/b003-4871-b587-ff6ce4705fcb"}]}},{"fullUrl":"https://g2fhir.mckesson.com/xfhir/Organization/39E8045033D1223BE0540010E076CAE3","resource":{"resourceType":"Organization","id":"39E8045033D1223BE0540010E076CAE3","active":true,"type":[{"coding":[{"system":"http://terminology.hl7.org/CodeSystem/organization-type","code":"prov","display":"Healthcare Provider"}],"text":"Healthcare Provider"}],"name":"Hematology Oncology Associates of New York","telecom":[{"extension":[{"url":"http://hl7.org/fhir/StructureDefinition/data-absent-reason","valueCode":"unknown"}]}],"address":[{"line":["9711 3rd Avenue "],"city":"Brooklyn","state":"NY","postalCode":"11209"},{"line":["9711 THIRD AVENUE","Lower Level"],"city":"BROOKLYN","state":"NY","postalCode":"11209"},{"line":["2101 Ave X"],"city":"Brooklyn","state":"NY","postalCode":"11235"},{"line":["787 Meacham Ave"],"city":"Meacham","state":"NY","postalCode":"11003-4718"},{"line":["380 2nd Ave #1000"],"city":"New York","state":"NY","postalCode":"10010"},{"line":["59-25 Kissena Blvd"],"city":"Flushing","state":"NY","postalCode":"11355"},{"line":["136-21 Hillside Ave","Ste 201"],"city":"RIchmond Hill","state":"NY","postalCode":"11418-1812"},{"line":["1545 Atlantic Avenue"],"city":"Brooklyn","state":"NY","postalCode":"11213-1122"},{"line":["56 45 Main Street"],"city":"Flushing","state":"NY","postalCode":"11355"},{"line":["121 DeKalb Avenue "],"city":"Brooklyn","state":"NY","postalCode":"11201"},{"line":["158-06 Northern Blvd"],"city":"Flushing","state":"NY","postalCode":"11358"},{"line":["136-21 Hillside Ave 2nd FL"],"city":"RIchmond Hill","state":"NY","postalCode":"11418-1962"},{"line":["61 East 77th Street"],"city":"New York","state":"NY","postalCode":"11075"},{"line":["4 east 76th street"],"city":"New York","state":"NY","postalCode":"10075"},{"line":["1 Hanson Place","Suite 710"],"city":"Brooklyn","state":"NY","postalCode":"11243"},{"line":["17-52 Francis Lewis"],"city":"Whitestone","state":"NY","postalCode":"11357-3247"}],"endpoint":[{"reference":"Endpoint/b003-4871-b587-ff6ce4705fcb"}]}},{"fullUrl":"https://g2fhir.mckesson.com/xfhir/Organization/79D4C1CA05DC46749562ABBCCAD0E4AB","resource":{"resourceType":"Organization","id":"79D4C1CA05DC46749562ABBCCAD0E4AB","active":true,"type":[{"coding":[{"system":"http://terminology.hl7.org/CodeSystem/organization-type","code":"prov","display":"Healthcare Provider"}],"text":"Healthcare Provider"}],"name":"Muhammad Zafar, MD","telecom":[{"extension":[{"url":"http://hl7.org/fhir/StructureDefinition/data-absent-reason","valueCode":"unknown"}]}],"address":[{"line":["122 South Main Street"],"city":"Flanagan","state":"IL","postalCode":"61740"},{"line":["111 Spring Street","Suite 531"],"city":"Streator","state":"IL","postalCode":"61364"}],"endpoint":[{"reference":"Endpoint/b003-4871-b587-ff6ce4705fcb"}]}},{"fullUrl":"https://g2fhir.mckesson.com/xfhir/Organization/700F1E885C514F07B29CA7712F30F765","resource":{"resourceType":"Organization","id":"700F1E885C514F07B29CA7712F30F765","identifier":[{"system":"http://hl7.org/fhir/sid/us-npi","value":"1205882867"}],"active":true,"type":[{"coding":[{"system":"http://terminology.hl7.org/CodeSystem/organization-type","code":"prov","display":"Healthcare Provider"}],"text":"Healthcare Provider"}],"name":"Hematology Oncology Associates Treasure Coast PA","telecom":[{"extension":[{"url":"http://hl7.org/fhir/StructureDefinition/data-absent-reason","valueCode":"unknown"}]}],"address":[{"line":["2100 Nebraska Ave","STE 107"],"city":"Ft. Pierce","state":"FL","postalCode":"34950"},{"line":["1871 SE Tiffany Ave","STE 100"],"city":"Port Saint Lucie","state":"FL","postalCode":"34952"},{"line":["140 SW Chambers Court","STE 300"],"city":"Port Saint Lucie","state":"FL","postalCode":"34986"},{"line":["2081 SE Ocean Blvd","2nd Floor"],"city":"Stuart","state":"FL","postalCode":"34996"}],"endpoint":[{"reference":"Endpoint/b003-4871-b587-ff6ce4705fcb"}]}},{"fullUrl":"https://g2fhir.mckesson.com/xfhir/Organization/817EF4F54179423CAD95C486B102F1AE","resource":{"resourceType":"Organization","id":"817EF4F54179423CAD95C486B102F1AE","identifier":[{"system":"http://hl7.org/fhir/sid/us-npi","value":"1891139317"}],"active":true,"type":[{"coding":[{"system":"http://terminology.hl7.org/CodeSystem/organization-type","code":"prov","display":"Healthcare Provider"}],"text":"Healthcare Provider"}],"name":"PCR Oncology","telecom":[{"extension":[{"url":"http://hl7.org/fhir/StructureDefinition/data-absent-reason","valueCode":"unknown"}]}],"address":[{"line":["584 Camino Mercado"],"city":"Arroyo Grande","state":"CA","postalCode":"93420"}],"endpoint":[{"reference":"Endpoint/b003-4871-b587-ff6ce4705fcb"}]}},{"fullUrl":"https://g2fhir.mckesson.com/xfhir/Organization/EA32FFA1AE0E42D9A5BC3D742D8D5BB3","resource":{"resourceType":"Organization","id":"EA32FFA1AE0E42D9A5BC3D742D8D5BB3","identifier":[{"system":"http://hl7.org/fhir/sid/us-npi","value":"1790875656"}],"active":true,"type":[{"coding":[{"system":"http://terminology.hl7.org/CodeSystem/organization-type","code":"prov","display":"Healthcare Provider"}],"text":"Healthcare Provider"}],"name":"Columbus Oncology and Hematology Associates","telecom":[{"extension":[{"url":"http://hl7.org/fhir/StructureDefinition/data-absent-reason","valueCode":"unknown"}]}],"address":[{"line":["6700 Perimeter Dr"],"city":"Dublin ","state":"OH","postalCode":"43016-8063"},{"line":["810 Jasonway Ave"],"city":"Columbus ","state":"OH","postalCode":"43214"},{"line":["300 Polaris Parkway","Suite 330"],"city":"Westerville ","state":"OH","postalCode":"43082"}],"endpoint":[{"reference":"Endpoint/b003-4871-b587-ff6ce4705fcb"}]}},{"fullUrl":"https://g2fhir.mckesson.com/xfhir/Organization/39E804503413223BE0540010E076CAE3","resource":{"resourceType":"Organization","id":"39E804503413223BE0540010E076CAE3","active":true,"type":[{"coding":[{"system":"http://terminology.hl7.org/CodeSystem/organization-type","code":"prov","display":"Healthcare Provider"}],"text":"Healthcare Provider"}],"name":"Maverick County Hospital District","telecom":[{"extension":[{"url":"http://hl7.org/fhir/StructureDefinition/data-absent-reason","valueCode":"unknown"}]}],"address":[{"line":["3406 Bob Rogers Dr, Suite 250"],"city":"Eagle Pass","state":"TX","postalCode":"78852"}],"endpoint":[{"reference":"Endpoint/b003-4871-b587-ff6ce4705fcb"}]}},{"fullUrl":"https://g2fhir.mckesson.com/xfhir/Organization/9E962A007A6243FF87A17FB035EDA6F4","resource":{"resourceType":"Organization","id":"9E962A007A6243FF87A17FB035EDA6F4","active":true,"type":[{"coding":[{"system":"http://terminology.hl7.org/CodeSystem/organization-type","code":"prov","display":"Healthcare Provider"}],"text":"Healthcare Provider"}],"name":"Cancer Center of Greenwood","telecom":[{"extension":[{"url":"http://hl7.org/fhir/StructureDefinition/data-absent-reason","valueCode":"unknown"}]}],"address":[{"line":["333 Hwy 82 West"],"city":"Greenwood","state":"MS","postalCode":"38930"}],"endpoint":[{"reference":"Endpoint/b003-4871-b587-ff6ce4705fcb"}]}},{"fullUrl":"https://g2fhir.mckesson.com/xfhir/Organization/AF45C682892B49B0A6865D37DEBD7F17","resource":{"resourceType":"Organization","id":"AF45C682892B49B0A6865D37DEBD7F17","identifier":[{"system":"http://hl7.org/fhir/sid/us-npi","value":"1518941186"}],"active":true,"type":[{"coding":[{"system":"http://terminology.hl7.org/CodeSystem/organization-type","code":"prov","display":"Healthcare Provider"}],"text":"Healthcare Provider"}],"name":"Rocky Mountain Cancer Centers","telecom":[{"extension":[{"url":"http://hl7.org/fhir/StructureDefinition/data-absent-reason","valueCode":"unknown"}]}],"address":[{"line":["1700 South Potomac St. "],"city":"Aurora","state":"CO","postalCode":"80012"},{"line":["1700 S. POTOMAC ST."],"city":"Aurora","state":"CO","postalCode":"80012"},{"line":["80 Health Park Drive","STE 270"],"city":"Louisville","state":"CO","postalCode":"80027"},{"line":["4715 Arapahoe Ave."],"city":"Boulder","state":"CO","postalCode":"80303-1385"},{"line":["4715 Arapahoe Avenue"],"city":"Boulder","state":"CO","postalCode":"80303"},{"line":["4715 ARAPAHOE AVE"],"city":"Boulder","state":"CO","postalCode":"80303"},{"line":["286 16th Street"],"city":"Burlington","state":"CO","postalCode":"80807"},{"line":["109 Latigo Lane, Suite E"],"city":"Canon City","state":"CO","postalCode":"81212"},{"line":["1189 S Perry St","Suite 230"],"city":"Castle Rock","state":"CO","postalCode":"80104"},{"line":["14000 East Arapahoe Road, Suite 160"],"city":"Centennial","state":"CO","postalCode":"80112"},{"line":["111 6th Street"],"city":"Hugo","state":"CO","postalCode":"80821"},{"line":["1100 Carson Avenue, Suite 201"],"city":"La Junta","state":"CO","postalCode":"81050"},{"line":["11750  W 2nd Place, Ste 160","Medical Plaza 1"],"city":"Lakewood","state":"CO","postalCode":"80228"},{"line":["22 West Dry Creek Circle"],"city":"Littleton","state":"CO","postalCode":"80120"},{"line":["22 W Dry Creek Circle"],"city":"Littleton","state":"CO","postalCode":"80120"},{"line":["1760 E Ken Pratt Blvd"," Suite 302"],"city":"Longmont","state":"CO","postalCode":"80504"},{"line":["1760 E Ken Pratt Blvd","Suite 301"],"city":"Longmont","state":"CO","postalCode":"80504"},{"line":["90 Health Park Drive","#340"],"city":"Louisville","state":"CO","postalCode":"80027"},{"line":["1800 Williams Street","Suite 200"],"city":"Denver","state":"CO","postalCode":"80218"},{"line":["1800 Williams Street #100"],"city":"Denver","state":"CO","postalCode":"80218"},{"line":["1800 Williams Street, Suite 200"],"city":"Denver","state":"CO","postalCode":"80218"},{"line":["8820 Huron Street"],"city":"Thornton","state":"CO","postalCode":"80260"},{"line":["2312 N. Nevada #400"],"city":"Colorado Springs ","state":"CO","postalCode":"80907"},{"line":["2312 N. Nevada Ave","Suite 400"],"city":"Colorado Springs","state":"CO","postalCode":"80907"},{"line":["525 WEST 15TH ST SUITE 200"],"city":"Pueblo","state":"CO","postalCode":"81003"},{"line":["701 East Hampden Avenue, Suite 300"],"city":"Englewood","state":"CO","postalCode":"80113"},{"line":["4700 East Hale Parkway, Suite 400"],"city":"Denver","state":"CO","postalCode":"80220"},{"line":["10107 RidgeGate Pkwy #g01"],"city":"Lonetree","state":"CO","postalCode":"80124"},{"line":["10107 RidgeGate Parkway, Suite 200"],"city":"Lone Tree","state":"CO","postalCode":"80124"},{"line":["6031 E. Woodmen Rd., Ste 200"],"city":"Colorado Springs","state":"CO","postalCode":"80923"},{"line":["1100 Central Park Drive","Ste. 2000"],"city":"Steamboat Springs","state":"CO","postalCode":"80487"},{"line":["8820 Huron Street"],"city":"Thornton","state":"CO","postalCode":"80260"},{"line":["8820 Huron Street"],"city":"Thornton","state":"CO","postalCode":"80260"}],"endpoint":[{"reference":"Endpoint/b003-4871-b587-ff6ce4705fcb"}]}},{"fullUrl":"https://g2fhir.mckesson.com/xfhir/Organization/3AE98E43B76E48E784C1A2E021A203EE","resource":{"resourceType":"Organization","id":"3AE98E43B76E48E784C1A2E021A203EE","active":true,"type":[{"coding":[{"system":"http://terminology.hl7.org/CodeSystem/organization-type","code":"prov","display":"Healthcare Provider"}],"text":"Healthcare Provider"}],"name":"Cancer Center of Las Cruces","telecom":[{"extension":[{"url":"http://hl7.org/fhir/StructureDefinition/data-absent-reason","valueCode":"unknown"}]}],"address":[{"line":["2801 Missouri","Ste 27"],"city":"Las Cruces","state":"NM","postalCode":"88011"}],"endpoint":[{"reference":"Endpoint/b003-4871-b587-ff6ce4705fcb"}]}},{"fullUrl":"https://g2fhir.mckesson.com/xfhir/Organization/4612305C5DE44CED80DB11C8C5AB0B96","resource":{"resourceType":"Organization","id":"4612305C5DE44CED80DB11C8C5AB0B96","identifier":[{"system":"http://hl7.org/fhir/sid/us-npi","value":"1013953025"}],"active":true,"type":[{"coding":[{"system":"http://terminology.hl7.org/CodeSystem/organization-type","code":"prov","display":"Healthcare Provider"}],"text":"Healthcare Provider"}],"name":"Oregon Oncology Specialists (HOOS)","telecom":[{"extension":[{"url":"http://hl7.org/fhir/StructureDefinition/data-absent-reason","valueCode":"unknown"}]}],"address":[{"line":["2720 Commercial St. SE","Suite #201"],"city":"Salem","state":"OR","postalCode":"97302"},{"line":["2700 SE Stratus Ave"],"city":"McMinnville","state":"OR","postalCode":"97128"},{"line":["875 Oak Street SE","Suite 4050"],"city":"Salem","state":"OR","postalCode":"97301"},{"line":["3025 Ryan Dr SE"],"city":"Salem","state":"OR","postalCode":"97301"},{"line":["875 Oak Street SE","Ste 4030"],"city":"Salem","state":"OR","postalCode":"97301"},{"line":["408 Welch St"],"city":"Silverton","state":"OR","postalCode":"97381"},{"line":["875 Oak Street SE","Ste 4030"],"city":"Salem","state":"OR","postalCode":"09301"},{"line":["1475 Mt Hood Ave"],"city":"Woodburn","state":"OR","postalCode":"97071"}],"endpoint":[{"reference":"Endpoint/b003-4871-b587-ff6ce4705fcb"}]}},{"fullUrl":"https://g2fhir.mckesson.com/xfhir/Organization/79E0BA7F7EF0495FAD586781F885DA8D","resource":{"resourceType":"Organization","id":"79E0BA7F7EF0495FAD586781F885DA8D","identifier":[{"system":"http://hl7.org/fhir/sid/us-npi","value":"1396710703"}],"active":true,"type":[{"coding":[{"system":"http://terminology.hl7.org/CodeSystem/organization-type","code":"prov","display":"Healthcare Provider"}],"text":"Healthcare Provider"}],"name":"Maryland Oncology Hematology","telecom":[{"extension":[{"url":"http://hl7.org/fhir/StructureDefinition/data-absent-reason","valueCode":"unknown"}]}],"address":[{"line":["810 Bestgate Road","Suite 400"],"city":"Annapolis","state":"MD","postalCode":"21401"},{"line":["6420 Rockledge Drive","Suite 4200"],"city":"Bethesda","state":"MD","postalCode":"20817"},{"line":["6420 Rockledge Drive","Suite 4200"],"city":"Bethesda","state":"MD","postalCode":"20817"},{"line":["7704 Matapeake Business Drive","Suite 200"],"city":"Brandywine","state":"MD","postalCode":"20613"},{"line":["8926 Woodyard Road","Suite 101"],"city":"Clinton","state":"MD","postalCode":"20735"},{"line":["10710 Charter Drive","Suite G020"],"city":"Columbia","state":"MD","postalCode":"21044"},{"line":["7211 Bank Court","Suite 110"],"city":"Frederick","state":"MD","postalCode":"21703"},{"line":["509 Idlewild Avenue","Suite 1"],"city":"Easton","state":"MD","postalCode":"21601"},{"line":["5961 Exchange Drive","Suite 100"],"city":"Eldersburg","state":"MD","postalCode":"21784"},{"line":["46-B Thomas Johnson Drive","Suite 200"],"city":"Frederick","state":"MD","postalCode":"21702"},{"line":["20330 Seneca Meadows Parkway","Suite B"],"city":"Germantown","state":"MD","postalCode":"20876"},{"line":["20330 Seneca Meadows Parkway","Suite B"],"city":"Germantown","state":"MD","postalCode":"20876"},{"line":["12200 Annapolis Road","Suite 118"],"city":"Glenn Dale","state":"MD","postalCode":"20769"},{"line":["6505 Belcrest Rd","Suite 110"],"city":"Hyattsville","state":"MD","postalCode":"20782"},{"line":["8116 Good Luck Road","Suite 100"],"city":"Lanham","state":"MD","postalCode":"20706"},{"line":["9333 Healthcare Way","Suite 4100"],"city":"Largo","state":"MD","postalCode":"20774"},{"line":["7140 Contee Road","Suite 3500"],"city":"Laurel","state":"MD","postalCode":"20707"},{"line":["7140 Contee Road","Suite 3500"],"city":"Laurel","state":"MD","postalCode":"20707"},{"line":["205 Center Street","Suite 200"],"city":"Mt. Airy","state":"MD","postalCode":"21771"},{"line":["1160 Varnum Street N.E.","Suite 318"],"city":"Washington DC","state":"DC","postalCode":"20017"},{"line":["4701 Randolph Road","Suite 201"],"city":"Rockville","state":"MD","postalCode":"20852"},{"line":["9905 Medical Center Drive","Suite 200"],"city":"Rockville","state":"MD","postalCode":"20850"},{"line":["9905 Medical Center Drive","Suite 100"],"city":"Rockville ","state":"MD","postalCode":"20850"},{"line":["9905 Medical Center Drive","Suite 300"],"city":"Rockville","state":"MD","postalCode":"20850"},{"line":["9905 Medical Center Drive","Suite 300"],"city":"Rockville","state":"MD","postalCode":"20850"},{"line":["9905 Medical Center Drive","Suite 330"],"city":"Rockville","state":"MD","postalCode":"20850"},{"line":["9905 Medical Center Drive","Suite 300"],"city":"Rockville","state":"MD","postalCode":"20850"},{"line":["11886 Healing Way","Suite 101"],"city":"Silver Spring","state":"MD","postalCode":"20904"},{"line":["11886 Healing Way","Suite 701"],"city":"Silver Spring","state":"MD","postalCode":"20904"},{"line":["9905 Medical Center Drive"],"city":"Rockville","state":"MD","postalCode":"20850"},{"line":["2730 University Blvd. West","Suite 400"],"city":"Wheaton","state":"MD","postalCode":"20902"},{"line":["11886 Healing Way","Suite 701"],"city":"Silver Spring","state":"MD","postalCode":"20904"}],"endpoint":[{"reference":"Endpoint/b003-4871-b587-ff6ce4705fcb"}]}},{"fullUrl":"https://g2fhir.mckesson.com/xfhir/Organization/39E8045033D8223BE0540010E076CAE3","resource":{"resourceType":"Organization","id":"39E8045033D8223BE0540010E076CAE3","identifier":[{"system":"http://hl7.org/fhir/sid/us-npi","value":"1073007787"}],"active":true,"type":[{"coding":[{"system":"http://terminology.hl7.org/CodeSystem/organization-type","code":"prov","display":"Healthcare Provider"}],"text":"Healthcare Provider"}],"name":"Southwest Cancer Care","telecom":[{"extension":[{"url":"http://hl7.org/fhir/StructureDefinition/data-absent-reason","valueCode":"unknown"}]}],"address":[{"line":["198 S Coronado Dr","Suite A"],"city":"Sierra Vista","state":"AZ","postalCode":"85635"}],"endpoint":[{"reference":"Endpoint/b003-4871-b587-ff6ce4705fcb"}]}},{"fullUrl":"https://g2fhir.mckesson.com/xfhir/Organization/39E8045033EB223BE0540010E076CAE3","resource":{"resourceType":"Organization","id":"39E8045033EB223BE0540010E076CAE3","identifier":[{"system":"http://hl7.org/fhir/sid/us-npi","value":"1811944101"}],"active":true,"type":[{"coding":[{"system":"http://terminology.hl7.org/CodeSystem/organization-type","code":"prov","display":"Healthcare Provider"}],"text":"Healthcare Provider"}],"name":"Texas Oncology","telecom":[{"extension":[{"url":"http://hl7.org/fhir/StructureDefinition/data-absent-reason","valueCode":"unknown"}]}],"address":[{"line":["3001 E President George Bush Hwy","Suite 100"],"city":"Richardson","state":"TX","postalCode":"75082"},{"line":["124 Bandera Road","STE 301"],"city":"Boerne","state":"TX","postalCode":"78006"},{"line":["1051 US Highway 90 E"],"city":"Castroville","state":"TX","postalCode":"78009"},{"line":["7219 Culebra Rd"],"city":"San Antonio","state":"TX","postalCode":"78251"},{"line":["1200 Brooklyn Ave.","STE 115"],"city":"San Antonio","state":"TX","postalCode":"78212"},{"line":["497 10th Street","STE 203"],"city":"Floresville","state":"TX","postalCode":"78114"},{"line":["506 W. Windcrest","STE 300"],"city":"Fredericksburg","state":"TX","postalCode":"78624"},{"line":["902 Bandera Road"],"city":"San Antonio","state":"TX","postalCode":"78228"},{"line":["610 31st Street"],"city":"Hondo","state":"TX","postalCode":"78861"},{"line":["1907 US Highway 97 E","STE 240"],"city":"Jourdanton","state":"TX","postalCode":"78026"},{"line":["694 Hill Country Drive"],"city":"Kerrville","state":"TX","postalCode":"78028"},{"line":["5206 Research Drive"],"city":"San Antonio","state":"TX","postalCode":"78240"},{"line":["7940 Floyd Curl Drive","Tower II STE 1010"],"city":"San Antonio","state":"TX","postalCode":"78229"},{"line":["1448 E. Common Street"],"city":"New Braunfels","state":"TX","postalCode":"78130"},{"line":["2130 NE Loop 410","STE 100"],"city":"San Antonio","state":"TX","postalCode":"78217"},{"line":["3327 Research Plaza","STE 102"],"city":"San Antonio","state":"TX","postalCode":"78235"},{"line":["18707 Hardy Oak Blvd.","STE 320"],"city":"San Antonio","state":"TX","postalCode":"78258"},{"line":["11130 Christus Hills","STE 210"],"city":"San Antonio","state":"TX","postalCode":"78251"},{"line":["6204 Balcones Drive"],"city":"Austin","state":"TX","postalCode":"78731"},{"line":["1015 East 32nd Street","STE 306"],"city":"Austin","state":"TX","postalCode":"78705"},{"line":["805 West 37th Street"],"city":"Austin","state":"TX","postalCode":"78705"},{"line":["901 West 38th Street","STE 200"],"city":"Austin","state":"TX","postalCode":"78705"},{"line":["901 West 38th Street","STE 300"],"city":"Austin","state":"TX","postalCode":"78705"},{"line":["805 West 37th Street"],"city":"Austin","state":"TX","postalCode":"78705"},{"line":["12221 Renfert Way","STE 120"],"city":"Austin","state":"TX","postalCode":"78758"},{"line":["12221 Renfert Way","STE 300"],"city":"Austin","state":"TX","postalCode":"78758"},{"line":["4101 James Casey Blvd.","STE 100"],"city":"Austin","state":"TX","postalCode":"78745"},{"line":["3107 Highway 71 East"],"city":"Bastrop","state":"TX","postalCode":"78602"},{"line":["2150 N. Expressway 83"],"city":"Brownsville","state":"TX","postalCode":"78521"},{"line":["1401 Medical Pkwy.","Building C, STE 200"],"city":"Cedar Park","state":"TX","postalCode":"78613"},{"line":["202 Posey Avenue"],"city":"Clifton","state":"TX","postalCode":"76634"},{"line":["1507 West Main Street"],"city":"Gatesville","state":"TX","postalCode":"76528"},{"line":["1500 Rivery Blvd.","STE 2215"],"city":"Georgetown","state":"TX","postalCode":"78628"},{"line":["701 McClintic Drive","Limestone Medical Center"],"city":"Groesbeck","state":"TX","postalCode":"76642"},{"line":["400 North Brown Street"],"city":"Hamilton","state":"TX","postalCode":"76531"},{"line":["800 W. Central Texas Expwy.","STE 305"],"city":"Harker Heights","state":"TX","postalCode":"76548"},{"line":["2121 Pease","STE 101"],"city":"Harlingen","state":"TX","postalCode":"78550"},{"line":["1323 E. Franklin Street","STE 103"],"city":"Hillsboro","state":"TX","postalCode":"76645"},{"line":["211 Elmhurst Drive","STE A"],"city":"Kyle","state":"TX","postalCode":"78640"},{"line":["2300 Lohmans Spur","STE 104"],"city":"Lakeway","state":"TX","postalCode":"78734"},{"line":["505 Saint Davids Loop","STE 311"],"city":"Leander","state":"TX","postalCode":"78641"},{"line":["104 Max Starcke Dam Road"],"city":"Marble Falls","state":"TX","postalCode":"78654"},{"line":["1901 S. Col Rowe Blvd."],"city":"McAllen","state":"TX","postalCode":"78503"},{"line":["514 S. Bonham Street","STE. A"],"city":"Mexia","state":"TX","postalCode":"76667"},{"line":["2410 Round Rock Ave.","STE 150"],"city":"Round Rock","state":"TX","postalCode":"78681"},{"line":["301 Seton Parkway","STE 104"],"city":"Round Rock","state":"TX","postalCode":"78665"},{"line":["1308 Wonder World Drive"],"city":"San Marcos","state":"TX","postalCode":"78666"},{"line":["101 West Expressway 83"],"city":"McAllen","state":"TX","postalCode":"78503"},{"line":["1700 W. State Highway 6"],"city":"Waco","state":"TX","postalCode":"76712"},{"line":["6520 Horizon Circle"],"city":"Waco","state":"TX","postalCode":"76712"},{"line":["1330 E. 6th Street","STE 204"],"city":"Weslaco","state":"TX","postalCode":"78596"},{"line":["7777 Forest Lane"],"city":"Dallas","state":"TX","postalCode":"75230"},{"line":["7777 Forest Lane","STE D220"],"city":"Dallas","state":"TX","postalCode":"75230"},{"line":["7777 Forest Lane","STE D400"],"city":"Dallas","state":"TX","postalCode":"75230"},{"line":["7777 Forest Lane","STE C585"],"city":"Dallas","state":"TX","postalCode":"75230"},{"line":["7777 Forest Lane","STE C614"],"city":"Dallas","state":"TX","postalCode":"75230"},{"line":["7777 Forest Lane","STE C850"],"city":"Dallas","state":"TX","postalCode":"75230"},{"line":["7777 Forest Lane","STE D110"],"city":"Dallas","state":"TX","postalCode":"75230"},{"line":["7777 Forest Lane","STE D220"],"city":"Dallas","state":"TX","postalCode":"75230"},{"line":["7777 Forest Lane","STE D400"],"city":"Dallas","state":"TX","postalCode":"75230"},{"line":["4700 N. Galloway Ave."],"city":"Mesquite","state":"TX","postalCode":"75150"},{"line":["2001 N. Jefferson","STE 300"],"city":"Mount Pleasant","state":"TX","postalCode":"75455"},{"line":["3709 W. 15th Street"],"city":"Plano","state":"TX","postalCode":"75075"},{"line":["3705 W. 15th Street"],"city":"Plano","state":"TX","postalCode":"75075"},{"line":["7211 Preston Road","3rd Floor, STE T3920"],"city":"Plano","state":"TX","postalCode":"75024"},{"line":["6300 W. Parker Road","STE 123"],"city":"Plano","state":"TX","postalCode":"75093"},{"line":["6957 W. Plano Parkway","STE 2000"],"city":"Plano","state":"TX","postalCode":"75093"},{"line":["8196 Walnut Hill Lane","STE 100"],"city":"Dallas","state":"TX","postalCode":"75231"},{"line":["8160 Walnut Hill Lane ","STE113"],"city":"Dallas","state":"TX","postalCode":"75231"},{"line":["3144 Horizon Road","STE 110"],"city":"Rockwall","state":"TX","postalCode":"75032"},{"line":["3410 Worth Street","STE 150"],"city":"Dallas","state":"TX","postalCode":"75246"},{"line":["3410 Worth Street","STE 100"],"city":"Dallas","state":"TX","postalCode":"75246"},{"line":["3410 Worth Street","STE 160"],"city":"Dallas","state":"TX","postalCode":"75246"},{"line":["3410 Worth Street","STE 300"],"city":"Dallas","state":"TX","postalCode":"75246"},{"line":["3410 Worth Street","STE 400"],"city":"Dallas","state":"TX","postalCode":"75246"},{"line":["3410 Worth Street","STE 730"],"city":"Dallas","state":"TX","postalCode":"75246"},{"line":["10425 N. Central Expressway"],"city":"Dallas","state":"TX","postalCode":"75231"},{"line":["151 RGV PKWY","STE 100"],"city":"Waxahachie","state":"TX","postalCode":"75165"},{"line":["906 West Randol Mill Road"],"city":"Arlington","state":"TX","postalCode":"76012"},{"line":["515 West Mayfield Road","STE 101"],"city":"Arlington","state":"TX","postalCode":"76014"},{"line":["324 N.W. Parkway","STE A"],"city":"Azle","state":"TX","postalCode":"76020"},{"line":["1609 Hospital Parkway"],"city":"Bedford","state":"TX","postalCode":"76022"},{"line":["191 Walls Drive"],"city":"Cleburne","state":"TX","postalCode":"76033"},{"line":["301 Hospital Drive"],"city":"Corsicana","state":"TX","postalCode":"75110"},{"line":["500 South Henderson Street"],"city":"Fort Worth","state":"TX","postalCode":"76104"},{"line":["6500 Harris Parkway"],"city":"Fort Worth","state":"TX","postalCode":"76132"},{"line":["1310B Paluxy Road ","STE 2000"],"city":"Granbury","state":"TX","postalCode":"76048"},{"line":["1631 Lancaster Drive","STE 150"],"city":"Grapevine","state":"TX","postalCode":"76051"},{"line":["2021 North MacArthur Blvd.","STE 400"],"city":"Irving","state":"TX","postalCode":"75061"},{"line":["2001 North MacArthur Blvd.","STE 120"],"city":"Irving","state":"TX","postalCode":"75061"},{"line":["9750 Hillwood Parkway"],"city":"Fort Worth","state":"TX","postalCode":"76177"},{"line":["7200 TX-Hwy. 161","STE 300"],"city":"Irving","state":"TX","postalCode":"75039"},{"line":["252 Matlock Road","STE 140 and 248"],"city":"Mansfield","state":"TX","postalCode":"76063"},{"line":["3555 W. Wheatland Road"],"city":"Dallas","state":"TX","postalCode":"75237"},{"line":["1441 N. Beckley Ave.","STE 101"],"city":"Dallas","state":"TX","postalCode":"75203"},{"line":["221 W. Colorado Blvd.","STE 532"],"city":"Dallas","state":"TX","postalCode":"75208"},{"line":["979 Don Floyd Drive","STE 104"],"city":"Midlothian","state":"TX","postalCode":"76065"},{"line":["150 River North Blvd. "],"city":"Stephenville","state":"TX","postalCode":"76401"},{"line":["1626 W Hwy 287","STE 102"],"city":"Waxahachie","state":"TX","postalCode":"75165"},{"line":["911 Foster Lane"],"city":"Weatherford","state":"TX","postalCode":"76086"},{"line":["1025 Birdsong Drive","STE C"],"city":"Baytown","state":"TX","postalCode":"77521"},{"line":["3010 Harrison Avenue"],"city":"Beaumont","state":"TX","postalCode":"77702"},{"line":["235 W. Palm Street","STE 108"],"city":"Bellville","state":"TX","postalCode":"77418"},{"line":["27700 Northwest Freeway","STE 390"],"city":"Cypress","state":"TX","postalCode":"77433"},{"line":["21216 Northwest Freeway","STE 140"],"city":"Cypress","state":"TX","postalCode":"77429"},{"line":["305 Sandy Corner Rd. ","STE 220"],"city":"El Campo","state":"TX","postalCode":"77437"},{"line":["7500 Fannin Street ","STE 100A and 100B"],"city":"Houston","state":"TX","postalCode":"77054"},{"line":["11920 Astoria Blvd.","STE 240"],"city":"Houston","state":"TX","postalCode":"77089"},{"line":["18980 W. Memorial Drive","STE 440"],"city":"Humble","state":"TX","postalCode":"77338"},{"line":["2014 S. Wheeler","STE 170"],"city":"Jasper","state":"TX","postalCode":"75951"},{"line":["1331 West Grand Parkway North","STE 340"],"city":"Katy","state":"TX","postalCode":"77493"},{"line":["925 Gessner Road","STE 310"],"city":"Houston","state":"TX","postalCode":"77024-2546"},{"line":["925 Gessner Road","STE 550"],"city":"Houston","state":"TX","postalCode":"77024"},{"line":["6901 Medical Center Dr., STE 200"],"city":"Orange","state":"TX","postalCode":"77630-1411"},{"line":["4000 Spencer Highway","STE 200"],"city":"Pasadena","state":"TX","postalCode":"77504"},{"line":["10970 Shadow Creek Pkwy.","STE 280"],"city":"Pearland","state":"TX","postalCode":"77584"},{"line":["2501 Jimmy Johnson Blvd.","STE 205"],"city":"Port Arthur","state":"TX","postalCode":"77640"},{"line":["1036 N Circle Dr. STE 102"],"city":"Sealy","state":"TX","postalCode":"77474"},{"line":["7515 South Main Street","STE 740"],"city":"Houston","state":"TX","postalCode":"77030"},{"line":["1350 First Colony Blvd."],"city":"Sugar Land","state":"TX","postalCode":"77479"},{"line":["6807 Emmett F. Lowry Expwy.","STE 304"],"city":"Texas City","state":"TX","postalCode":"77591"},{"line":["920 Medical Plaza Drive","STE 100"],"city":"The Woodlands","state":"TX","postalCode":"77380"},{"line":["9180 Pinecroft","STE 600"],"city":"Shenandoah","state":"TX","postalCode":"77380"},{"line":["920 Medical Plaza Drive","STE 100"],"city":"The Woodlands","state":"TX","postalCode":"77380"},{"line":["506 Graham Drive","STE 200"],"city":"Tomball","state":"TX","postalCode":"77375"},{"line":["501 West Medical Center Blvd."],"city":"Webster","state":"TX","postalCode":"77598"},{"line":["400 West Medical Center Blvd.","STE 205"],"city":"Webster","state":"TX","postalCode":"77598"},{"line":["450 West Medical Center Blvd.","STE 540"],"city":"Webster","state":"TX","postalCode":"77598"},{"line":["12121 Richmond Ave","STE115"],"city":"Houston","state":"TX","postalCode":"77082"},{"line":["13215 Dotson Road","STE 170"],"city":"Houston","state":"TX","postalCode":"77070"},{"line":["13215 Dotson Road","STE 300"],"city":"Houston","state":"TX","postalCode":"77070"},{"line":["7777 Forest Lane, Building C","Suite 707"],"city":"Dallas","state":"TX","postalCode":"75230"},{"line":["1105 Central Expressway ","STE 320"],"city":"Allen","state":"TX","postalCode":"75013"},{"line":["18780 Interstate 20"],"city":"Canton","state":"TX","postalCode":"75103"},{"line":["4352 N. Josey Lane"],"city":"Carrollton","state":"TX","postalCode":"75010"},{"line":["1713 S. FM 51","STE 201"],"city":"Decatur","state":"TX","postalCode":"76234"},{"line":["5125 Texoma Medical Center Drive","STE 100"],"city":"Denison","state":"TX","postalCode":"75020"},{"line":["2600 Scripture Street"],"city":"Denton","state":"TX","postalCode":"76201"},{"line":["4370 Medical Arts Drive","STE 100 and 315"],"city":"Flower Mound","state":"TX","postalCode":"75028"},{"line":["4461 Coit Road","STE 100"],"city":"Frisco","state":"TX","postalCode":"75035"},{"line":["5858 W. Main Street ","STE 120"],"city":"Frisco","state":"TX","postalCode":"75033"},{"line":["7150 N. President George Bush Hwy.","STE 200"],"city":"Garland","state":"TX","postalCode":"75044"},{"line":["4215 Joe Ramsey Blvd."],"city":"Greenville","state":"TX","postalCode":"75401"},{"line":["1425 E. Lincoln Road","STE B3"],"city":"Idabel","state":"OK","postalCode":"74745"},{"line":["2026 South Jackson"],"city":"Jacksonville","state":"TX","postalCode":"75766"},{"line":["500 W. Main Street","STE 350"],"city":"Lewisville","state":"TX","postalCode":"75057"},{"line":["1921 State Hwy 121","STE 200"],"city":"Lewisville","state":"TX","postalCode":"75056"},{"line":["1300 North 4th Street"],"city":"Longview","state":"TX","postalCode":"75601"},{"line":["1400 North 4th Street"],"city":"Longview","state":"TX","postalCode":"75601"},{"line":["815 S. Washington Ave.","STE 204"],"city":"Marshall","state":"TX","postalCode":"75670"},{"line":["5236 W. University Drive","STE 1000"],"city":"McKinney","state":"TX","postalCode":"75071"},{"line":["5236 W. University Drive","STE 1700"],"city":"McKinney","state":"TX","postalCode":"75071"},{"line":["4510 Medical Center Drive","STE 215"],"city":"McKinney","state":"TX","postalCode":"75069"},{"line":["506 S. State Hwy. 37"],"city":"Mount Vernon","state":"TX","postalCode":"75457"},{"line":["4800 NE Stallings STE 1500"],"city":"Nacogdoches ","state":"TX","postalCode":"75965"},{"line":["3415 South Loop 256"],"city":"Palestine","state":"TX","postalCode":"75801"},{"line":["3550 N.E. Loop 286"],"city":"Paris","state":"TX","postalCode":"75460"},{"line":["408 Quitman Street","STE B"],"city":"Pittsburg","state":"TX","postalCode":"75686"},{"line":["4708 Alliance Blvd. ","STE 150 and STE 475"],"city":"Plano","state":"TX","postalCode":"75093"},{"line":["4708 Alliance Blvd.","STE 750"],"city":"Plano","state":"TX","postalCode":"75093"},{"line":["5920 W. Parker Road","STE 100"],"city":"Plano","state":"TX","postalCode":"75093"},{"line":["1501 West Royal Lane"],"city":"Irving","state":"TX","postalCode":"75063"},{"line":["9100 Lakeview Parkway"],"city":"Rowlett","state":"TX","postalCode":"75088"},{"line":["1228 Church Street"],"city":"Sulphur Springs","state":"TX","postalCode":"75482"},{"line":["501 Saunders Ave."],"city":"Tyler","state":"TX","postalCode":"75702"},{"line":["12221 Merit Drive","Suite 500"],"city":"Dallas","state":"TX","postalCode":"75251"},{"line":["6204 Balcones Drive"],"city":"Austin","state":"TX","postalCode":"78731"},{"line":["1904 Pine Street ","STE 1A "],"city":"Abilene","state":"TX","postalCode":"79601"},{"line":["1957 Antilley Road"],"city":"Abilene","state":"TX","postalCode":"79606"},{"line":["1042 Hickory St."],"city":"Abilene","state":"TX","postalCode":"76901-4106"},{"line":["1826 Point West Pkwy"],"city":"Amarillo","state":"TX","postalCode":"79124"},{"line":["1411 N. Main Street"],"city":"Andrews","state":"TX","postalCode":"79714"},{"line":["1608 W. FM 700","STE. A"],"city":"Big Spring","state":"TX","postalCode":"79720"},{"line":["1010 N. Mill Street"],"city":"Bowie","state":"TX","postalCode":"76230"},{"line":["200 S. Geneva Street"],"city":"Breckenridge","state":"TX","postalCode":"76424"},{"line":["310 Pecos Street"],"city":"Coleman","state":"TX","postalCode":"76834"},{"line":["304 S. Daugherty"],"city":"Eastland","state":"TX","postalCode":"76448"},{"line":["7848 Gateway East"],"city":"El Paso","state":"TX","postalCode":"79915"},{"line":["1901 Grandview Avenue"],"city":"El Paso","state":"TX","postalCode":"79902"},{"line":["3270 Joe Battle","STE 312"],"city":"El Paso","state":"TX","postalCode":"79938"},{"line":["10460 Vista Del Sol Drive","STE 100"],"city":"El Paso","state":"TX","postalCode":"79925"},{"line":["1339 East Street"],"city":"Graham","state":"TX","postalCode":"76450"},{"line":["217 W. Belknap Street"],"city":"Jacksboro","state":"TX","postalCode":"76458"},{"line":["424 N Utica Ave"],"city":"Lubbock","state":"TX","postalCode":"79416"},{"line":["400 Rosalind Redfern Grover Pkwy.","STE 100, Craddick MOB"],"city":"Midland","state":"TX","postalCode":"79701"},{"line":["100 Park Road"],"city":"Nocona","state":"TX","postalCode":"76255"},{"line":["500 W. 3rd Street"],"city":"Odessa","state":"TX","postalCode":"79761"},{"line":["100 S. Avenue M"],"city":"Olney","state":"TX","postalCode":"76374"},{"line":["301 Jenny George Lane","BLDG B, STE 4"],"city":"Sweetwater","state":"TX","postalCode":"79556"},{"line":["4103 Wilbarger Street"],"city":"Vernon","state":"TX","postalCode":"76384"},{"line":["5400 Kell Boulevard"],"city":"Wichita Falls","state":"TX","postalCode":"76310"}],"endpoint":[{"reference":"Endpoint/b003-4871-b587-ff6ce4705fcb"}]}},{"fullUrl":"https://g2fhir.mckesson.com/xfhir/Organization/569A36AC94F54BCB86244A10C046A285","resource":{"resourceType":"Organization","id":"569A36AC94F54BCB86244A10C046A285","identifier":[{"system":"http://hl7.org/fhir/sid/us-npi","value":"1386001923"}],"active":true,"type":[{"coding":[{"system":"http://terminology.hl7.org/CodeSystem/organization-type","code":"prov","display":"Healthcare Provider"}],"text":"Healthcare Provider"}],"name":"Sequoia Regional Cancer Center","telecom":[{"extension":[{"url":"http://hl7.org/fhir/StructureDefinition/data-absent-reason","valueCode":"unknown"}]}],"address":[{"line":["857 Garner Ave"],"city":"Hanford","state":"CA","postalCode":"93230"},{"line":["4945 W. Cypress Ave","Suite C"],"city":"Visalia","state":"CA","postalCode":"93277"},{"line":["4945 W. Cypress Ave Suite C"],"city":"Visalia","state":"CA","postalCode":"93277"}],"endpoint":[{"reference":"Endpoint/b003-4871-b587-ff6ce4705fcb"}]}},{"fullUrl":"https://g2fhir.mckesson.com/xfhir/Organization/39E8045033CB223BE0540010E076CAE3","resource":{"resourceType":"Organization","id":"39E8045033CB223BE0540010E076CAE3","active":true,"type":[{"coding":[{"system":"http://terminology.hl7.org/CodeSystem/organization-type","code":"prov","display":"Healthcare Provider"}],"text":"Healthcare Provider"}],"name":"Iyengar Hematology Oncology Medical Center, LLC","telecom":[{"extension":[{"url":"http://hl7.org/fhir/StructureDefinition/data-absent-reason","valueCode":"unknown"}]}],"address":[{"line":["27 E 29th Street"],"city":"Bayonne","state":"NJ","postalCode":"07002"}],"endpoint":[{"reference":"Endpoint/b003-4871-b587-ff6ce4705fcb"}]}},{"fullUrl":"https://g2fhir.mckesson.com/xfhir/Organization/2928D85ADE48470E83974AA13B3878F2","resource":{"resourceType":"Organization","id":"2928D85ADE48470E83974AA13B3878F2","identifier":[{"system":"http://hl7.org/fhir/sid/us-npi","value":"1528035995"}],"active":true,"type":[{"coding":[{"system":"http://terminology.hl7.org/CodeSystem/organization-type","code":"prov","display":"Healthcare Provider"}],"text":"Healthcare Provider"}],"name":"Minnesota Oncology","telecom":[{"extension":[{"url":"http://hl7.org/fhir/StructureDefinition/data-absent-reason","valueCode":"unknown"}]}],"address":[{"line":["2550 University Avenue West","Suite 110-N"],"city":"St Paul","state":"MN","postalCode":"55114"},{"line":["675 East Nicollett Blvd Suite 100"],"city":"Burnsville","state":"MN","postalCode":"55337"},{"line":["110105 Pioneer Trail W","Ste 302"],"city":"Chaska","state":"MN","postalCode":"55318"},{"line":["11850 Blackfoot Street NW Suite 100"],"city":"Coon Rapids","state":"MN","postalCode":"55433"},{"line":["2550 University Avenue West","Suite 110-N"],"city":"St Paul ","state":"MN","postalCode":"55114"},{"line":["6545 France Ave. S","Suite 210"],"city":"Edina","state":"MN","postalCode":"55435"},{"line":["480 Osborne Road","Suite 220"],"city":"Fridley","state":"MN","postalCode":"55432"},{"line":["2651 Hillcrest Drive Ste 105"],"city":"Hudson","state":"WI","postalCode":"54016-4439"},{"line":["10150 Niagra Lane N.","Suite 100"],"city":"Maple Grove","state":"MN","postalCode":"55369-7588"},{"line":["1580 Beam Ave"],"city":"Maplewood","state":"MN","postalCode":"55109"},{"line":["910 E 26th Street","Suite 200"],"city":"Minneapolis","state":"MN","postalCode":"55404"},{"line":["2000 North Ave"],"city":"Northfield","state":"MN","postalCode":"55057"},{"line":["7760 France Ave. S","Suite 1000"],"city":"Bloomington","state":"MN","postalCode":"55435"},{"line":["2805 Campus Drive Suite 105","West Health"],"city":"Plymouth","state":"MN","postalCode":"55441"},{"line":["2550 University Ave W, Suite 105N"],"city":"Saint Paul","state":"MN","postalCode":"55114"},{"line":["250 Thompson St.","Suite 100"],"city":"St. Paul","state":"MN","postalCode":"55102"},{"line":["2550 University Avenue West","Suite 110-N"],"city":"St. Paul","state":"MN","postalCode":"55114"},{"line":["2550 University Avenue West","Suite 110-N"],"city":"St. Paul","state":"MN","postalCode":"55114"},{"line":["2651 Hillcrest Dr","Suite 301"],"city":"Hudson","state":"WI","postalCode":"54016"},{"line":["560 Maple Street S.","Suite 100"],"city":"Waconia","state":"MN","postalCode":"55387"},{"line":["6025 Lake Road","Suite 110"],"city":"Woodbury","state":"MN","postalCode":"55125"}],"endpoint":[{"reference":"Endpoint/b003-4871-b587-ff6ce4705fcb"}]}},{"fullUrl":"https://g2fhir.mckesson.com/xfhir/Organization/DE6FDB4D8A0241A0994EE4D31E07F3F0","resource":{"resourceType":"Organization","id":"DE6FDB4D8A0241A0994EE4D31E07F3F0","identifier":[{"system":"http://hl7.org/fhir/sid/us-npi","value":"1841251394"}],"active":true,"type":[{"coding":[{"system":"http://terminology.hl7.org/CodeSystem/organization-type","code":"prov","display":"Healthcare Provider"}],"text":"Healthcare Provider"}],"name":"Cancer Center of Kansas","telecom":[{"extension":[{"url":"http://hl7.org/fhir/StructureDefinition/data-absent-reason","valueCode":"unknown"}]}],"address":[{"line":["505 S. Plummer","Ashley Clinic"],"city":"Chanute","state":"KS","postalCode":"66720"},{"line":["116 W. Ross Blvd"],"city":"Dodge City","state":"KS","postalCode":"67801"},{"line":["700 W. Central, Ste 100","Susan B. Allen Memorial Hospital"],"city":"El Dorado","state":"KS","postalCode":"67042"},{"line":["9050 E 29th St N ","Suite 40"],"city":"Wichita","state":"KS","postalCode":"67226"},{"line":["510 N. Peter Pan Rd.","Independence Healthcare Center"],"city":"Independence","state":"KS","postalCode":"67301"},{"line":["1102 St Mary's Rd, Suite 202","Geary Community Hospital"],"city":"Junction City","state":"KS","postalCode":"66441-4139"},{"line":["750 W. Ave. D","Kingman Hospital"],"city":"Kingman","state":"KS","postalCode":"67068"},{"line":["818 N Emporia St.","Suite 100"],"city":"Wichita","state":"KS","postalCode":"67214"},{"line":["305 W. 15th St. ","Southwest Medical Center, Ste 203"],"city":"Liberal","state":"KS","postalCode":"67901"},{"line":["8301 Positano Dr"],"city":"Manhattan","state":"KS","postalCode":"66502-4861"},{"line":["708 N. 18th St."],"city":"Marysville","state":"KS","postalCode":"66508-1338"},{"line":["1000 Hospital Dr.","McPherson Memorial Hospital"],"city":"McPherson","state":"KS","postalCode":"67460"},{"line":["2600 Ottawa Rd","Wilson Medical Center"],"city":"Neodesha","state":"KS","postalCode":"66757"},{"line":["720 Medical Center Dr.","Newton Medical Center"],"city":"Newton","state":"KS","postalCode":"67114"},{"line":["1902 S. US Hwy 59, Building E, Suite 304","Labette Health"],"city":"Parsons","state":"KS","postalCode":"67357"},{"line":["124 Commodore, Suite A","Pratt Regional Medical Center"],"city":"Pratt","state":"KS","postalCode":"67124"},{"line":["600 S. Santa Fe","Suite E"],"city":"Salina","state":"KS","postalCode":"67401"},{"line":["507 E. 16th St.","Suite 1"],"city":"Wellington","state":"KS","postalCode":"67152"},{"line":["9050 E 29th N","Suite 100"],"city":"Wichita","state":"KS","postalCode":"67226"},{"line":["3243 E. Murdock St.","Suite 300"],"city":"Wichita","state":"KS","postalCode":"67208"},{"line":["818 N. Emporia St.","Suite 403"],"city":"Wichita","state":"KS","postalCode":"67214"},{"line":["1305 E 5th Ave","Winfield Health Care Center"],"city":"Winfield","state":"KS","postalCode":"67156"}],"endpoint":[{"reference":"Endpoint/b003-4871-b587-ff6ce4705fcb"}]}},{"fullUrl":"https://g2fhir.mckesson.com/xfhir/Organization/39E804503409223BE0540010E076CAE3","resource":{"resourceType":"Organization","id":"39E804503409223BE0540010E076CAE3","active":true,"type":[{"coding":[{"system":"http://terminology.hl7.org/CodeSystem/organization-type","code":"prov","display":"Healthcare Provider"}],"text":"Healthcare Provider"}],"name":"The Iowa Clinic","telecom":[{"extension":[{"url":"http://hl7.org/fhir/StructureDefinition/data-absent-reason","valueCode":"unknown"}]}],"address":[{"line":["5950 University Avenue","Suite 255"],"city":"West Des Moines","state":"IA","postalCode":"50266"}],"endpoint":[{"reference":"Endpoint/b003-4871-b587-ff6ce4705fcb"}]}},{"fullUrl":"https://g2fhir.mckesson.com/xfhir/Organization/E632419BCD80419797349F8880EEC62F","resource":{"resourceType":"Organization","id":"E632419BCD80419797349F8880EEC62F","identifier":[{"system":"http://hl7.org/fhir/sid/us-npi","value":"1952301947"}],"active":true,"type":[{"coding":[{"system":"http://terminology.hl7.org/CodeSystem/organization-type","code":"prov","display":"Healthcare Provider"}],"text":"Healthcare Provider"}],"name":"Southland Hematology Oncology Medical Group","telecom":[{"extension":[{"url":"http://hl7.org/fhir/StructureDefinition/data-absent-reason","valueCode":"unknown"}]}],"address":[{"line":["201 N. Laursen St."],"city":"Hemet","state":"CA","postalCode":"92543"},{"line":["25485 Medical Center Drive, Suite 204"],"city":"Murrieta","state":"CA","postalCode":"92562"}],"endpoint":[{"reference":"Endpoint/b003-4871-b587-ff6ce4705fcb"}]}},{"fullUrl":"https://g2fhir.mckesson.com/xfhir/Organization/8F5A210214AE4910A8418AF18947C9BE","resource":{"resourceType":"Organization","id":"8F5A210214AE4910A8418AF18947C9BE","identifier":[{"system":"http://hl7.org/fhir/sid/us-npi","value":"1407873409"}],"active":true,"type":[{"coding":[{"system":"http://terminology.hl7.org/CodeSystem/organization-type","code":"prov","display":"Healthcare Provider"}],"text":"Healthcare Provider"}],"name":"Pottsville Cancer Clinic","telecom":[{"extension":[{"url":"http://hl7.org/fhir/StructureDefinition/data-absent-reason","valueCode":"unknown"}]}],"address":[{"line":["700 Schuylkill Manor Drive, Ste. 7"],"city":"Pottsville","state":"PA","postalCode":"17901"}],"endpoint":[{"reference":"Endpoint/b003-4871-b587-ff6ce4705fcb"}]}},{"fullUrl":"https://g2fhir.mckesson.com/xfhir/Organization/59476942C0964ABDB6B6C1D9B6AB89FD","resource":{"resourceType":"Organization","id":"59476942C0964ABDB6B6C1D9B6AB89FD","identifier":[{"system":"http://hl7.org/fhir/sid/us-npi","value":"1306878350"}],"active":true,"type":[{"coding":[{"system":"http://terminology.hl7.org/CodeSystem/organization-type","code":"prov","display":"Healthcare Provider"}],"text":"Healthcare Provider"}],"name":"Vernon Internal Medicine, Inc","telecom":[{"extension":[{"url":"http://hl7.org/fhir/StructureDefinition/data-absent-reason","valueCode":"unknown"}]}],"address":[{"line":["1000 N 5th Street"],"city":"Leesville","state":"LA","postalCode":"71446"}],"endpoint":[{"reference":"Endpoint/b003-4871-b587-ff6ce4705fcb"}]}},{"fullUrl":"https://g2fhir.mckesson.com/xfhir/Organization/39E8045033F4223BE0540010E076CAE3","resource":{"resourceType":"Organization","id":"39E8045033F4223BE0540010E076CAE3","identifier":[{"system":"http://hl7.org/fhir/sid/us-npi","value":"1750626495"}],"active":true,"type":[{"coding":[{"system":"http://terminology.hl7.org/CodeSystem/organization-type","code":"prov","display":"Healthcare Provider"}],"text":"Healthcare Provider"}],"name":"Health First Cancer Institute","telecom":[{"extension":[{"url":"http://hl7.org/fhir/StructureDefinition/data-absent-reason","valueCode":"unknown"}]}],"address":[{"line":["1223 Gateway Blvd"],"city":"Melbourne","state":"FL","postalCode":"32901"},{"line":["1130 Hickory Street","Ste B"],"city":"Melbourne","state":"FL","postalCode":"32901"},{"line":["225 Cone Road"],"city":"Merritt Island","state":"FL","postalCode":"32952"},{"line":["1264 Malabar Road SE"],"city":"Palm Bay","state":"FL","postalCode":"32907"},{"line":["490 North Washington Ave"],"city":"Titusville","state":"FL","postalCode":"32796"},{"line":["8725 N. Wickham Rd.","Ste 103"],"city":"Melbourne","state":"FL","postalCode":"32940"}],"endpoint":[{"reference":"Endpoint/b003-4871-b587-ff6ce4705fcb"}]}},{"fullUrl":"https://g2fhir.mckesson.com/xfhir/Organization/A7454A743003475EB4DDEF4708B80576","resource":{"resourceType":"Organization","id":"A7454A743003475EB4DDEF4708B80576","identifier":[{"system":"http://hl7.org/fhir/sid/us-npi","value":"1700891256"}],"active":true,"type":[{"coding":[{"system":"http://terminology.hl7.org/CodeSystem/organization-type","code":"prov","display":"Healthcare Provider"}],"text":"Healthcare Provider"}],"name":"South Florida Oncology and Hematology Consultants","telecom":[{"extension":[{"url":"http://hl7.org/fhir/StructureDefinition/data-absent-reason","valueCode":"unknown"}]}],"address":[{"line":["8200 West Sunrise Blvd","Building C"],"city":"Plantation","state":"FL","postalCode":"33322"},{"line":["7301 N University Drive","STE 105"],"city":"Tamarac","state":"FL","postalCode":"33321"}],"endpoint":[{"reference":"Endpoint/b003-4871-b587-ff6ce4705fcb"}]}},{"fullUrl":"https://g2fhir.mckesson.com/xfhir/Organization/E3396ADA0D9D4F6790F3E5E000322B1C","resource":{"resourceType":"Organization","id":"E3396ADA0D9D4F6790F3E5E000322B1C","identifier":[{"system":"http://hl7.org/fhir/sid/us-npi","value":"1386012615"}],"active":true,"type":[{"coding":[{"system":"http://terminology.hl7.org/CodeSystem/organization-type","code":"prov","display":"Healthcare Provider"}],"text":"Healthcare Provider"}],"name":"GenesisCare Hematology Oncology","telecom":[{"extension":[{"url":"http://hl7.org/fhir/StructureDefinition/data-absent-reason","valueCode":"unknown"}]}],"address":[{"line":["20601 E Dixie Hwy, Suite 330 "],"city":"Aventura","state":"FL","postalCode":"33180"},{"line":["1680 South Central Blvd","Suite 112"],"city":"Jupiter","state":"FL","postalCode":"33458"},{"line":["78 SW 13th Avenue, Suite 200 "],"city":"Miami","state":"FL","postalCode":"33135"}],"endpoint":[{"reference":"Endpoint/b003-4871-b587-ff6ce4705fcb"}]}},{"fullUrl":"https://g2fhir.mckesson.com/xfhir/Organization/39E804503400223BE0540010E076CAE3","resource":{"resourceType":"Organization","id":"39E804503400223BE0540010E076CAE3","active":true,"type":[{"coding":[{"system":"http://terminology.hl7.org/CodeSystem/organization-type","code":"prov","display":"Healthcare Provider"}],"text":"Healthcare Provider"}],"name":"Nexus Health LLC","telecom":[{"extension":[{"url":"http://hl7.org/fhir/StructureDefinition/data-absent-reason","valueCode":"unknown"}]}],"address":[{"line":["4200 Beckner Road"],"city":"Santa Fe","state":"NM","postalCode":"87507"},{"line":["4200 Beckner Road"],"city":"Santa Fe","state":"NM","postalCode":"87507"},{"line":["4200 Beckner Road"],"city":"Santa Fe","state":"NM","postalCode":"87507"},{"line":["4200 Beckner Road"],"city":"Santa Fe","state":"NM","postalCode":"87507"},{"line":["4200 Beckner Road"],"city":"Santa Fe","state":"NM","postalCode":"87507"},{"line":["4200 Beckner Road"],"city":"Santa Fe","state":"NM","postalCode":"78507"},{"line":["4200 Beckner Road"],"city":"Santa Fe","state":"NM","postalCode":"87507"},{"line":["4200 Beckner Road"],"city":"Santa Fe","state":"NM","postalCode":"87507"},{"line":["4200 Beckner Road"],"city":"Santa Fe","state":"NM","postalCode":"87507"},{"line":["4200 Beckner Road"],"city":"Santa Fe","state":"NM","postalCode":"87507"},{"line":["4200 Beckner Road"],"city":"Santa Fe","state":"NM","postalCode":"87507"},{"line":["4200 Beckner Road"],"city":"Santa Fe","state":"NM","postalCode":"87507"},{"line":["4200 Beckner Road"],"city":"Santa Fe","state":"NM","postalCode":"87507"},{"line":["4200 Beckner Road"],"city":"Santa Fe","state":"NM","postalCode":"87507"},{"line":["4200 Beckner Road"],"city":"Santa Fe","state":"NM","postalCode":"87507"},{"line":["2085 S. Pacheco St"],"city":"Santa Fe","state":"NM","postalCode":"87505"},{"line":["4200 Beckner Road"],"city":"Santa Fe","state":"NM","postalCode":"87507"},{"line":["4200 Beckner Road"],"city":"Santa Fe","state":"NM","postalCode":"87507"},{"line":["2085 S Pacheco St"],"city":"Santa Fe","state":"NM","postalCode":"87505"},{"line":["2085 S Pacheco St"],"city":"Santa Fe","state":"NM","postalCode":"87505"},{"line":["2085 S Pacheco St"],"city":"Santa Fe","state":"NM","postalCode":"87505"},{"line":["2085 S Pacheco St"],"city":"Santa Fe","state":"NM","postalCode":"87505"},{"line":["2085 S Pacheco St"],"city":"Santa Fe","state":"NM","postalCode":"87505"}],"endpoint":[{"reference":"Endpoint/b003-4871-b587-ff6ce4705fcb"}]}},{"fullUrl":"https://g2fhir.mckesson.com/xfhir/Organization/39E804503402223BE0540010E076CAE3","resource":{"resourceType":"Organization","id":"39E804503402223BE0540010E076CAE3","active":true,"type":[{"coding":[{"system":"http://terminology.hl7.org/CodeSystem/organization-type","code":"prov","display":"Healthcare Provider"}],"text":"Healthcare Provider"}],"name":"Sage Hematology and Oncology PLC","telecom":[{"extension":[{"url":"http://hl7.org/fhir/StructureDefinition/data-absent-reason","valueCode":"unknown"}]}],"address":[{"line":["13943 N. 91st Ave., Bldg. H, ","Suite 101"],"city":"Peoria","state":"AZ","postalCode":"85381-3629"},{"line":["18715 North Reems Road","Suite 140"],"city":"Surprise","state":"AZ","postalCode":"85374"}],"endpoint":[{"reference":"Endpoint/b003-4871-b587-ff6ce4705fcb"}]}},{"fullUrl":"https://g2fhir.mckesson.com/xfhir/Organization/C6AACAE2BCAE4709A078FAABC7212F98","resource":{"resourceType":"Organization","id":"C6AACAE2BCAE4709A078FAABC7212F98","identifier":[{"system":"http://hl7.org/fhir/sid/us-npi","value":"1588783963"}],"active":true,"type":[{"coding":[{"system":"http://terminology.hl7.org/CodeSystem/organization-type","code":"prov","display":"Healthcare Provider"}],"text":"Healthcare Provider"}],"name":"Venkatasiva Peram, MD, PC","telecom":[{"extension":[{"url":"http://hl7.org/fhir/StructureDefinition/data-absent-reason","valueCode":"unknown"}]}],"address":[{"line":["5467 Hill 23 Drive"],"city":"Flint","state":"MI","postalCode":"48507"}],"endpoint":[{"reference":"Endpoint/b003-4871-b587-ff6ce4705fcb"}]}},{"fullUrl":"https://g2fhir.mckesson.com/xfhir/Organization/6FAA749AF01043349A327336F7639387","resource":{"resourceType":"Organization","id":"6FAA749AF01043349A327336F7639387","identifier":[{"system":"http://hl7.org/fhir/sid/us-npi","value":"1477891711"}],"active":true,"type":[{"coding":[{"system":"http://terminology.hl7.org/CodeSystem/organization-type","code":"prov","display":"Healthcare Provider"}],"text":"Healthcare Provider"}],"name":"CANCER CARE PARTNERSHIP","telecom":[{"extension":[{"url":"http://hl7.org/fhir/StructureDefinition/data-absent-reason","valueCode":"unknown"}]}],"address":[{"line":["1800 East Park Avenue"],"city":"State College","state":"PA","postalCode":"16803"},{"line":["1800 East Park Avenue"],"city":"State College","state":"PA","postalCode":"16803"}],"endpoint":[{"reference":"Endpoint/b003-4871-b587-ff6ce4705fcb"}]}}]}