{
  "resource": {
    "resourceType": "Organization",
    "id": "4b92fd18-a5e1-5c76-89c8-285ee8c9f0f5",
    "name": "Senior Care Medical Assocs",
    "endpoint": [
      {
        "reference": "Endpoint/27a4e967-47aa-5a9c-a572-b8297ee268a2"
      },
      {
        "reference": "Endpoint/8768b111-c8f0-5aae-974b-58eb10ddae3e"
      }
    ],
    "identifier": [
      {
        "system": "http://hl7.org/fhir/sid/us-npi",
        "value": "1790909042"
      }
    ],
    "address": [
      {
        "line": [
          "25351 Diana Circle"
        ],
        "city": "MISSION VIEJO",
        "state": "CA",
        "postalCode": "92691-4648"
      },
      {
        "line": [
          "29391 Valerio Ct"
        ],
        "city": "LAGUNA NIGUEL",
        "state": "CA",
        "postalCode": "92677-1850"
      },
      {
        "line": [
          "25411 Se Bluffs Drive"
        ],
        "city": "DANA POINT",
        "state": "CA",
        "postalCode": "92629-2190"
      },
      {
        "line": [
          "25665 Sabina Avenue"
        ],
        "city": "MISSION VIEJO",
        "state": "CA",
        "postalCode": "92691-3914"
      },
      {
        "line": [
          "32702 Seven Seas dr"
        ],
        "city": "DANA POINT",
        "state": "CA",
        "postalCode": "92629-3528"
      },
      {
        "line": [
          "3 Pursuit"
        ],
        "city": "ALISO VIEJO",
        "state": "CA",
        "postalCode": "92656-4213"
      },
      {
        "line": [
          "28891 Calle Juca"
        ],
        "city": "LAGUNA NIGUEL",
        "state": "CA",
        "postalCode": "92677-1417"
      },
      {
        "line": [
          "23962 Hillhurst Drive"
        ],
        "city": "LAGUNA NIGUEL",
        "state": "CA",
        "postalCode": "92677-2233"
      },
      {
        "line": [
          "29825 Andrea Way"
        ],
        "city": "LAGUNA NIGUEL",
        "state": "CA",
        "postalCode": "92677-1741"
      },
      {
        "line": [
          "721 Calle Amable"
        ],
        "city": "SAN CLEMENTE",
        "state": "CA",
        "postalCode": "92673-3046"
      }
    ],
    "extension": [
      {
        "url": "https://fhir.athena.io/StructureDefinition/ah-practice",
        "valueReference": {
          "reference": "Organization/a-1.Practice-11277"
        }
      },
      {
        "url": "https://fhir.athena.io/StructureDefinition/ah-brand",
        "valueReference": {
          "reference": "Organization/a-11277.Brand-1"
        }
      }
    ]
  },
  "fullUrl": "urn:uuid:4b92fd18-a5e1-5c76-89c8-285ee8c9f0f5"
}