{
  "resource": {
    "resourceType": "Organization",
    "id": "ee268640-1af3-5dc0-8756-4634fd01f44b",
    "name": "Darroch Brain and Spine Institute of Doctors Medical Center",
    "endpoint": [
      {
        "reference": "Endpoint/27a4e967-47aa-5a9c-a572-b8297ee268a2"
      },
      {
        "reference": "Endpoint/7a65017b-6c70-529a-a802-7d4a6af38f80"
      }
    ],
    "identifier": [
      {
        "system": "http://hl7.org/fhir/sid/us-npi",
        "value": "1023253101"
      },
      {
        "system": "http://hl7.org/fhir/sid/us-npi",
        "value": "1184654923"
      },
      {
        "system": "http://hl7.org/fhir/sid/us-npi",
        "value": "1770104606"
      },
      {
        "system": "http://hl7.org/fhir/sid/us-npi",
        "value": "1992736599"
      },
      {
        "system": "http://hl7.org/fhir/sid/us-npi",
        "value": "1912918962"
      },
      {
        "system": "http://hl7.org/fhir/sid/us-npi",
        "value": "1649056466"
      },
      {
        "system": "http://hl7.org/fhir/sid/us-npi",
        "value": "1619317716"
      },
      {
        "system": "http://hl7.org/fhir/sid/us-npi",
        "value": "1679718753"
      }
    ],
    "address": [
      {
        "line": [
          "4016 Dale Rd"
        ],
        "city": "MODESTO",
        "state": "CA",
        "postalCode": "95356-9268"
      },
      {
        "line": [
          "1700 Coffee Rd"
        ],
        "city": "MODESTO",
        "state": "CA",
        "postalCode": "95355-2803"
      },
      {
        "line": [
          "4016 DALE RD"
        ],
        "city": "MODESTO",
        "state": "CA",
        "postalCode": "95356-9268"
      },
      {
        "line": [
          "1421 OAKDALE RD"
        ],
        "city": "MODESTO",
        "state": "CA",
        "postalCode": "95355-3359"
      },
      {
        "line": [
          "1148 NORMAN DR STE 1"
        ],
        "city": "MANTECA",
        "state": "CA",
        "postalCode": "95336-5961"
      },
      {
        "line": [
          "1441 Florida Ave"
        ],
        "city": "MODESTO",
        "state": "CA",
        "postalCode": "95350-4044"
      },
      {
        "line": [
          "1300 MABLE AVE # 1"
        ],
        "city": "MODESTO",
        "state": "CA",
        "postalCode": "95355-1120"
      },
      {
        "line": [
          "145 TREVINO AVE"
        ],
        "city": "MANTECA",
        "state": "CA",
        "postalCode": "95337-4200"
      },
      {
        "line": [
          "1134 NORMAN DR"
        ],
        "city": "MANTECA",
        "state": "CA",
        "postalCode": "95336-5963"
      },
      {
        "line": [
          "4016 Dale Rd."
        ],
        "city": "MODESTO",
        "state": "CA",
        "postalCode": "95356-9268"
      },
      {
        "line": [
          "1205 E NORTH ST"
        ],
        "city": "MANTECA",
        "state": "CA",
        "postalCode": "95336-4932"
      }
    ],
    "extension": [
      {
        "url": "https://fhir.athena.io/StructureDefinition/ah-practice",
        "valueReference": {
          "reference": "Organization/a-1.Practice-16567"
        }
      },
      {
        "url": "https://fhir.athena.io/StructureDefinition/ah-brand",
        "valueReference": {
          "reference": "Organization/a-16567.Brand-3"
        }
      }
    ]
  },
  "fullUrl": "urn:uuid:ee268640-1af3-5dc0-8756-4634fd01f44b"
}