{
  "resource": {
    "resourceType": "Organization",
    "id": "7e0de636-a912-5938-83dd-083dd403a2a5",
    "name": "DRS. STEVE & KELLIE SMALDORE MDVIP PRACTICE",
    "endpoint": [
      {
        "reference": "Endpoint/27a4e967-47aa-5a9c-a572-b8297ee268a2"
      },
      {
        "reference": "Endpoint/de59dfda-1abc-565d-ab63-c9e134189335"
      }
    ],
    "identifier": [
      {
        "system": "http://hl7.org/fhir/sid/us-npi",
        "value": "1891854188"
      }
    ],
    "address": [
      {
        "line": [
          "415 South MARKET ST"
        ],
        "city": "HAVRE DE GRACE",
        "state": "MD",
        "postalCode": "21078-3301"
      },
      {
        "line": [
          "1909 Emmorton Rd"
        ],
        "city": "BEL AIR",
        "state": "MD",
        "postalCode": "21015-6256"
      },
      {
        "line": [
          "2227 Old Emmorton Rd Ste. 218"
        ],
        "city": "BEL AIR",
        "state": "MD",
        "postalCode": "21015-6189"
      },
      {
        "line": [
          "2007 KLEIN PLAZA DR"
        ],
        "city": "FOREST HILL",
        "state": "MD",
        "postalCode": "21050-2622"
      },
      {
        "line": [
          "1 Colgate Dr"
        ],
        "city": "FOREST HILL",
        "state": "MD",
        "postalCode": "21050-2618"
      },
      {
        "line": [
          "144 N. Hickory Ave"
        ],
        "city": "BEL AIR",
        "state": "MD",
        "postalCode": "21014-3240"
      },
      {
        "line": [
          "2227 OLD EMMORTON RD STE 218"
        ],
        "city": "BEL AIR",
        "state": "MD",
        "postalCode": "21015-6189"
      },
      {
        "line": [
          "1415 St. Francis Rd"
        ],
        "city": "BEL AIR",
        "state": "MD",
        "postalCode": "21014-2023"
      },
      {
        "line": [
          "300 W. Ring Factoru Rd"
        ],
        "city": "BEL AIR",
        "state": "MD",
        "postalCode": "21014-5387"
      },
      {
        "line": [
          "52 E BROADWAY"
        ],
        "city": "BEL AIR",
        "state": "MD",
        "postalCode": "21014-2902"
      },
      {
        "line": [
          "2227 Old Emmorton Rd Ste 218"
        ],
        "city": "BEL AIR",
        "state": "MD",
        "postalCode": "21015-6189"
      }
    ],
    "extension": [
      {
        "url": "https://fhir.athena.io/StructureDefinition/ah-practice",
        "valueReference": {
          "reference": "Organization/a-1.Practice-16300"
        }
      },
      {
        "url": "https://fhir.athena.io/StructureDefinition/ah-brand",
        "valueReference": {
          "reference": "Organization/a-16300.Brand-1"
        }
      }
    ]
  },
  "fullUrl": "urn:uuid:7e0de636-a912-5938-83dd-083dd403a2a5"
}