{
  "resource": {
    "resourceType": "Organization",
    "id": "a03e3a79-3a07-575e-816d-6d516412a515",
    "name": "Christopher D. Redding Foundation",
    "endpoint": [
      {
        "reference": "Endpoint/27a4e967-47aa-5a9c-a572-b8297ee268a2"
      },
      {
        "reference": "Endpoint/335663a5-1a74-5933-a542-202d80fec1fd"
      }
    ],
    "identifier": [
      {
        "system": "http://hl7.org/fhir/sid/us-npi",
        "value": "1265502728"
      }
    ],
    "address": [
      {
        "line": [
          "5516 S MAPLEWOOD AVE"
        ],
        "city": "CHICAGO",
        "state": "IL",
        "postalCode": "60629-1023"
      },
      {
        "line": [
          "10347 S EWING AVE"
        ],
        "city": "CHICAGO",
        "state": "IL",
        "postalCode": "60617-6028"
      },
      {
        "line": [
          "239 W ROOT ST"
        ],
        "city": "CHICAGO",
        "state": "IL",
        "postalCode": "60609-2848"
      },
      {
        "line": [
          "9725 S COMMERCIAL AVE"
        ],
        "city": "CHICAGO",
        "state": "IL",
        "postalCode": "60617-5404"
      },
      {
        "line": [
          "14811 TURNER AVE"
        ],
        "city": "MIDLOTHIAN",
        "state": "IL",
        "postalCode": "60445-3628"
      },
      {
        "line": [
          "1234 N MONTICELLO AVE"
        ],
        "city": "CHICAGO",
        "state": "IL",
        "postalCode": "60651-2217"
      },
      {
        "line": [
          "2434 S KILDARE AVE"
        ],
        "city": "CHICAGO",
        "state": "IL",
        "postalCode": "60623-3356"
      },
      {
        "line": [
          "7257 S STATE ST"
        ],
        "city": "CHICAGO",
        "state": "IL",
        "postalCode": "60619-1018"
      },
      {
        "line": [
          "6940 S MERRILL AVE"
        ],
        "city": "CHICAGO",
        "state": "IL",
        "postalCode": "60649-1721"
      },
      {
        "line": [
          "2200 N HAMLIN AVE"
        ],
        "city": "CHICAGO",
        "state": "IL",
        "postalCode": "60647-2222"
      },
      {
        "line": [
          "3930 E 105th St."
        ],
        "city": "CHICAGO",
        "state": "IL",
        "postalCode": "60617-6335"
      },
      {
        "line": [
          "3810 W 81ST PL"
        ],
        "city": "CHICAGO",
        "state": "IL",
        "postalCode": "60652-2400"
      },
      {
        "line": [
          "1841 N SPRINGFIELD AVE"
        ],
        "city": "CHICAGO",
        "state": "IL",
        "postalCode": "60647-4600"
      },
      {
        "line": [
          "1816 W GARFIELD BLVD"
        ],
        "city": "CHICAGO",
        "state": "IL",
        "postalCode": "60609-5606"
      },
      {
        "line": [
          "239 W ROOT ST"
        ],
        "city": "Chicago",
        "state": "IL",
        "postalCode": "60609-2848"
      },
      {
        "line": [
          "3221 N SACRAMENTO AVE"
        ],
        "city": "CHICAGO",
        "state": "IL",
        "postalCode": "60618-5825"
      },
      {
        "line": [
          "8734 S PAULINA ST"
        ],
        "city": "CHICAGO",
        "state": "IL",
        "postalCode": "60620-4815"
      },
      {
        "line": [
          "2643 S CENTRAL PARK AVE"
        ],
        "city": "CHICAGO",
        "state": "IL",
        "postalCode": "60623-4631"
      },
      {
        "line": [
          "3826 W 58TH ST"
        ],
        "city": "CHICAGO",
        "state": "IL",
        "postalCode": "60629-3849"
      },
      {
        "line": [
          "900 W GARFIELD BLVD"
        ],
        "city": "CHICAGO",
        "state": "IL",
        "postalCode": "60609-6165"
      },
      {
        "line": [
          "1518 W GRANVILLE AVE"
        ],
        "city": "CHICAGO",
        "state": "IL",
        "postalCode": "60660-1812"
      },
      {
        "line": [
          "4540 N. Hamlin"
        ],
        "city": "CHICAGO",
        "state": "IL",
        "postalCode": "60625-5928"
      },
      {
        "line": [
          "1954 W 48TH ST"
        ],
        "city": "CHICAGO",
        "state": "IL",
        "postalCode": "60609-4101"
      },
      {
        "line": [
          "2021 N POINT ST"
        ],
        "city": "CHICAGO",
        "state": "IL",
        "postalCode": "60647-4016"
      },
      {
        "line": [
          "4747 S MARSHFIELD AVE"
        ],
        "city": "CHICAGO",
        "state": "IL",
        "postalCode": "60609-4159"
      },
      {
        "line": [
          "32 E 115TH ST"
        ],
        "city": "CHICAGO",
        "state": "IL",
        "postalCode": "60628-5510"
      },
      {
        "line": [
          "9912 S AVENUE H"
        ],
        "city": "CHICAGO",
        "state": "IL",
        "postalCode": "60617-5597"
      },
      {
        "line": [
          "2620 S LAWNDALE AVE"
        ],
        "city": "CHICAGO",
        "state": "IL",
        "postalCode": "60623-4519"
      },
      {
        "line": [
          "5515 S SAWYER AVE"
        ],
        "city": "CHICAGO",
        "state": "IL",
        "postalCode": "60629-3125"
      },
      {
        "line": [
          "10425 S KOLMAR AVE"
        ],
        "city": "OAK LAWN",
        "state": "IL",
        "postalCode": "60453-4847"
      },
      {
        "line": [
          "160 W WENDELL ST"
        ],
        "city": "CHICAGO",
        "state": "IL",
        "postalCode": "60610-2727"
      },
      {
        "line": [
          "5825 S KOSTNER AVE"
        ],
        "city": "CHICAGO",
        "state": "IL",
        "postalCode": "60629-5238"
      },
      {
        "line": [
          "1040 N KEELER AVE"
        ],
        "city": "CHICAGO",
        "state": "IL",
        "postalCode": "60651-3514"
      },
      {
        "line": [
          "239 WEST ROOT STREET"
        ],
        "city": "CHICAGO",
        "state": "IL",
        "postalCode": "60609-2848"
      },
      {
        "line": [
          "4747  S. Winchester Ave"
        ],
        "city": "CHICAGO",
        "state": "IL",
        "postalCode": "60609-2848"
      },
      {
        "line": [
          "3651 W SCHUBERT AVE"
        ],
        "city": "CHICAGO",
        "state": "IL",
        "postalCode": "60647-1157"
      },
      {
        "line": [
          "10810 S AVENUE H"
        ],
        "city": "CHICAGO",
        "state": "IL",
        "postalCode": "60617-6726"
      },
      {
        "line": [
          "5815 S HOMAN AVE"
        ],
        "city": "CHICAGO",
        "state": "IL",
        "postalCode": "60629-3636"
      },
      {
        "line": [
          "11053 S VINCENNES AVE"
        ],
        "city": "CHICAGO",
        "state": "IL",
        "postalCode": "60643-3557"
      },
      {
        "line": [
          "2727 N. Long Ave"
        ],
        "city": "CHICAGO",
        "state": "IL",
        "postalCode": "60639-1529"
      },
      {
        "line": [
          "3621 151ST ST"
        ],
        "city": "MIDLOTHIAN",
        "state": "IL",
        "postalCode": "60445-3701"
      },
      {
        "line": [
          "3050 E 92ND ST"
        ],
        "city": "CHICAGO",
        "state": "IL",
        "postalCode": "60617-4602"
      },
      {
        "line": [
          "2121 N KEELER AVE"
        ],
        "city": "CHICAGO",
        "state": "IL",
        "postalCode": "60639-3603"
      },
      {
        "line": [
          "1241 W 19TH ST"
        ],
        "city": "CHICAGO",
        "state": "IL",
        "postalCode": "60608-3200"
      },
      {
        "line": [
          "3611 E 114TH ST"
        ],
        "city": "CHICAGO",
        "state": "IL",
        "postalCode": "60617-7498"
      },
      {
        "line": [
          "1951 W 19TH ST"
        ],
        "city": "CHICAGO",
        "state": "IL",
        "postalCode": "60608-2647"
      },
      {
        "line": [
          "4250 S. Rockwell St"
        ],
        "city": "CHICAGO",
        "state": "IL",
        "postalCode": "60632-1216"
      },
      {
        "line": [
          "535 E 35TH ST"
        ],
        "city": "CHICAGO",
        "state": "IL",
        "postalCode": "60616-4111"
      },
      {
        "line": [
          "1440 W 125TH ST"
        ],
        "city": "Calumet Park",
        "state": "IL",
        "postalCode": "60827-6025"
      },
      {
        "line": [
          "2728 S KOSTNER AVE"
        ],
        "city": "CHICAGO",
        "state": "IL",
        "postalCode": "60623-4218"
      },
      {
        "line": [
          "3525 S HONORE ST"
        ],
        "city": "CHICAGO",
        "state": "IL",
        "postalCode": "60609-1210"
      },
      {
        "line": [
          "2611 W 48TH ST"
        ],
        "city": "CHICAGO",
        "state": "IL",
        "postalCode": "60632-1402"
      },
      {
        "line": [
          "2712 S SAWYER AVE"
        ],
        "city": "CHICAGO",
        "state": "IL",
        "postalCode": "60623-4738"
      },
      {
        "line": [
          "13700 S STEWART AVE"
        ],
        "city": "RIVERDALE",
        "state": "IL",
        "postalCode": "60827-1629"
      },
      {
        "line": [
          "239 w root st."
        ],
        "city": "CHICAGO",
        "state": "IL",
        "postalCode": "60609-2848"
      },
      {
        "line": [
          "9811 S LOWE AVE"
        ],
        "city": "CHICAGO",
        "state": "IL",
        "postalCode": "60628-1014"
      },
      {
        "line": [
          "5411 W FULLERTON AVE"
        ],
        "city": "CHICAGO",
        "state": "IL",
        "postalCode": "60639-1459"
      },
      {
        "line": [
          "2216 W HIRSCH ST"
        ],
        "city": "CHICAGO",
        "state": "IL",
        "postalCode": "60622-1837"
      },
      {
        "line": [
          "6543 S CHAMPLAIN AVE"
        ],
        "city": "CHICAGO",
        "state": "IL",
        "postalCode": "60637-3427"
      },
      {
        "line": [
          "6018 S KARLOV AVE"
        ],
        "city": "CHICAGO",
        "state": "IL",
        "postalCode": "60629-4900"
      },
      {
        "line": [
          "431 N TROY ST"
        ],
        "city": "CHICAGO",
        "state": "IL",
        "postalCode": "60612-1713"
      },
      {
        "line": [
          "1440 W 125TH ST"
        ],
        "city": "RIVERDALE",
        "state": "IL",
        "postalCode": "60827-6025"
      },
      {
        "line": [
          "14620 SPRINGFIELD AVE"
        ],
        "city": "MIDLOTHIAN",
        "state": "IL",
        "postalCode": "60445-2833"
      },
      {
        "line": [
          "5247 S SPAULDING AVE"
        ],
        "city": "CHICAGO",
        "state": "IL",
        "postalCode": "60632-3132"
      },
      {
        "line": [
          "3847 W 135TH ST"
        ],
        "city": "ROBBINS",
        "state": "IL",
        "postalCode": "60472-3048"
      },
      {
        "line": [
          "3750 E 112TH ST"
        ],
        "city": "CHICAGO",
        "state": "IL",
        "postalCode": "60617-7096"
      }
    ],
    "extension": [
      {
        "url": "https://fhir.athena.io/StructureDefinition/ah-practice",
        "valueReference": {
          "reference": "Organization/a-1.Practice-26570"
        }
      },
      {
        "url": "https://fhir.athena.io/StructureDefinition/ah-brand",
        "valueReference": {
          "reference": "Organization/a-26570.Brand-1"
        }
      }
    ]
  },
  "fullUrl": "urn:uuid:a03e3a79-3a07-575e-816d-6d516412a515"
}