{
  "resource": {
    "resourceType": "Organization",
    "id": "20c5052f-7c57-51c4-89c1-5ee131140371",
    "name": "Conx Care Clinic",
    "endpoint": [
      {
        "reference": "Endpoint/27a4e967-47aa-5a9c-a572-b8297ee268a2"
      },
      {
        "reference": "Endpoint/a8caeabe-11c7-55a6-9931-8c3eceb8607e"
      }
    ],
    "identifier": [
      {
        "system": "http://hl7.org/fhir/sid/us-npi",
        "value": "1336384742"
      }
    ],
    "address": [
      {
        "line": [
          "14744 N SWAN RD"
        ],
        "city": "GULFPORT",
        "state": "MS",
        "postalCode": "39503-8582"
      },
      {
        "line": [
          "103 FOX CHASE DRIVE"
        ],
        "city": "HATTIESBURG",
        "state": "MS",
        "postalCode": "39402-2575"
      },
      {
        "line": [
          "107 FOX CHASE DRIVE"
        ],
        "city": "HATTIESBURG",
        "state": "MS",
        "postalCode": "39402-2574"
      },
      {
        "line": [
          "6766 U S HIGHWAY 98"
        ],
        "city": "HATTIESBURG",
        "state": "MS",
        "postalCode": "39402-8443"
      },
      {
        "line": [
          "200 Whispering Pines Blvd"
        ],
        "city": "HATTIESBURG",
        "state": "MS",
        "postalCode": "39401-6538"
      },
      {
        "line": [
          "1207 SOUTH FIR AVENUE"
        ],
        "city": "COLLINS",
        "state": "MS",
        "postalCode": "39428-3809"
      },
      {
        "line": [
          "15 KEYSTONE DRIVE SUITE E"
        ],
        "city": "HATTIESBURG",
        "state": "MS",
        "postalCode": "39402-6124"
      },
      {
        "line": [
          "2 COURTLAND DRIVE"
        ],
        "city": "HATTIESBURG",
        "state": "MS",
        "postalCode": "39402-8542"
      },
      {
        "line": [
          "1018 Alberta Avenue"
        ],
        "city": "COLUMBIA",
        "state": "MS",
        "postalCode": "39429-2552"
      },
      {
        "line": [
          "6428 US HIGHWAY 11"
        ],
        "city": "LUMBERTON",
        "state": "MS",
        "postalCode": "39455-7524"
      },
      {
        "line": [
          "246 WESTOVER DRIVE"
        ],
        "city": "HATTIESBURG",
        "state": "MS",
        "postalCode": "39402-1343"
      },
      {
        "line": [
          "11837 HIGHLAND CIR # 700"
        ],
        "city": "GULFPORT",
        "state": "MS",
        "postalCode": "39503-5035"
      },
      {
        "line": [
          "217 METHODIST HOSPITAL BLVD"
        ],
        "city": "HATTIESBURG",
        "state": "MS",
        "postalCode": "39402-1338"
      },
      {
        "line": [
          "34 Graham Rd"
        ],
        "city": "HATTIESBURG",
        "state": "MS",
        "postalCode": "39402-6627"
      },
      {
        "line": [
          "303 EAST IVY STREET"
        ],
        "city": "ELLISVILLE",
        "state": "MS",
        "postalCode": "39437-2746"
      },
      {
        "line": [
          "83 WHITE CHAPEL RD"
        ],
        "city": "CARRIERE",
        "state": "MS",
        "postalCode": "39426-7473"
      },
      {
        "line": [
          "1116 FRANCES AVE NW"
        ],
        "city": "MAGEE",
        "state": "MS",
        "postalCode": "39111-3476"
      },
      {
        "line": [
          "616 EAST 19TH ST"
        ],
        "city": "LAUREL",
        "state": "MS",
        "postalCode": "39440-2436"
      },
      {
        "line": [
          "2120 Enterprise Drive"
        ],
        "city": "BILOXI",
        "state": "MS",
        "postalCode": "39531-4039"
      },
      {
        "line": [
          "12170 HIGHLAND WAY"
        ],
        "city": "GULFPORT",
        "state": "MS",
        "postalCode": "39503-3665"
      }
    ],
    "extension": [
      {
        "url": "https://fhir.athena.io/StructureDefinition/ah-practice",
        "valueReference": {
          "reference": "Organization/a-1.Practice-8276"
        }
      },
      {
        "url": "https://fhir.athena.io/StructureDefinition/ah-brand",
        "valueReference": {
          "reference": "Organization/a-8276.Brand-1"
        }
      }
    ]
  },
  "fullUrl": "urn:uuid:20c5052f-7c57-51c4-89c1-5ee131140371"
}