{
  "resource": {
    "resourceType": "Organization",
    "id": "9395feb9-0f99-505d-afd9-98930dff5aa8",
    "name": "ARBORS AT GALLIPOLIS - TELEHEALTH",
    "endpoint": [
      {
        "reference": "Endpoint/27a4e967-47aa-5a9c-a572-b8297ee268a2"
      },
      {
        "reference": "Endpoint/2cd7634a-8978-5088-9da1-cd52b64676bb"
      }
    ],
    "identifier": [
      {
        "system": "http://hl7.org/fhir/sid/us-npi",
        "value": "1518386739"
      }
    ],
    "address": [
      {
        "line": [
          "721 HICKORY STREET"
        ],
        "city": "AKRON",
        "state": "OH",
        "postalCode": "44303-2213"
      },
      {
        "line": [
          "101 Potters Ln"
        ],
        "city": "CLARKSVILLE",
        "state": "IN",
        "postalCode": "47129-1017"
      },
      {
        "line": [
          "7465 Madison Ave"
        ],
        "city": "INDIANAPOLIS",
        "state": "IN",
        "postalCode": "46227-6564"
      },
      {
        "line": [
          "7770 COLUMBUS ROAD NE"
        ],
        "city": "LOUISVILLE",
        "state": "OH",
        "postalCode": "44641-9773"
      },
      {
        "line": [
          "1615 CELVELAND ROAD"
        ],
        "city": "WOOSTER",
        "state": "OH",
        "postalCode": "44691-2335"
      },
      {
        "line": [
          "405 GRAFTON AVE"
        ],
        "city": "DAYTON",
        "state": "OH",
        "postalCode": "45406-5202"
      },
      {
        "line": [
          "264 WILMINGTON AVE"
        ],
        "city": "DAYTON",
        "state": "OH",
        "postalCode": "45420-1989"
      },
      {
        "line": [
          "36 LEHMAN DR"
        ],
        "city": "CANAL WINCHESTER",
        "state": "OH",
        "postalCode": "43110-1006"
      },
      {
        "line": [
          "1302 MILLVILLE AVE"
        ],
        "city": "HAMILTON",
        "state": "OH",
        "postalCode": "45013-3961"
      },
      {
        "line": [
          "1209 Indiana Ave"
        ],
        "city": "SAINT MARYS",
        "state": "OH",
        "postalCode": "45885-1310"
      },
      {
        "line": [
          "2525 W Belvedere Ave"
        ],
        "city": "BALTIMORE",
        "state": "MD",
        "postalCode": "21215-5203"
      },
      {
        "line": [
          "531 Stevenson Lane"
        ],
        "city": "TOWSON",
        "state": "MD",
        "postalCode": "21286-7607"
      },
      {
        "line": [
          "141 WILLETSVILLE PIKE"
        ],
        "city": "HILLSBORO",
        "state": "OH",
        "postalCode": "45133-9476"
      },
      {
        "line": [
          "1800 PRINCETON ROAD"
        ],
        "city": "HAMILTON",
        "state": "OH",
        "postalCode": "45011-4742"
      },
      {
        "line": [
          "750 Dual Highway"
        ],
        "city": "HAGERSTOWN",
        "state": "MD",
        "postalCode": "21740-5909"
      },
      {
        "line": [
          "3550 SHAW AVE"
        ],
        "city": "CINCINNATI",
        "state": "OH",
        "postalCode": "45208-1416"
      },
      {
        "line": [
          "3434 OHIO 132"
        ],
        "city": "AMELIA",
        "state": "OH",
        "postalCode": "45102-2012"
      },
      {
        "line": [
          "3544 WASHINGTON AVENUE"
        ],
        "city": "CINCINNATI",
        "state": "OH",
        "postalCode": "45229-2618"
      },
      {
        "line": [
          "510 OAK STREET"
        ],
        "city": "CINCINNATI",
        "state": "OH",
        "postalCode": "45219-2507"
      },
      {
        "line": [
          "4400 VANNEST AVE"
        ],
        "city": "MIDDLETOWN",
        "state": "OH",
        "postalCode": "45043-2770"
      },
      {
        "line": [
          "3000 N Ridge Rd"
        ],
        "city": "ELLICOTT CITY",
        "state": "MD",
        "postalCode": "21043-3311"
      },
      {
        "line": [
          "6455 Pearl Rd,"
        ],
        "city": "CLEVELAND",
        "state": "OH",
        "postalCode": "44130-2984"
      },
      {
        "line": [
          "170 PINECREST DR"
        ],
        "city": "GALLIPOLIS",
        "state": "OH",
        "postalCode": "45631-1347"
      },
      {
        "line": [
          "2770 CLIME RD"
        ],
        "city": "COLUMBUS",
        "state": "OH",
        "postalCode": "43223-3626"
      },
      {
        "line": [
          "4734 GALLIA PIKE"
        ],
        "city": "FRANKLIN FURNACE",
        "state": "OH",
        "postalCode": "45629-8600"
      },
      {
        "line": [
          "250 Flank Rd"
        ],
        "city": "PETERSBURG",
        "state": "VA",
        "postalCode": "23805-9117"
      },
      {
        "line": [
          "1500 SHERMAN AVE"
        ],
        "city": "CINCINNATI",
        "state": "OH",
        "postalCode": "45212-2510"
      },
      {
        "line": [
          "6898 HAMILTON MIDDLETOWN ROAD"
        ],
        "city": "MIDDLETOWN",
        "state": "OH",
        "postalCode": "45044-7859"
      },
      {
        "line": [
          "7301 East 16th Street"
        ],
        "city": "INDIANAPOLIS",
        "state": "IN",
        "postalCode": "46219-2306"
      },
      {
        "line": [
          "751 KENSINGTON ST"
        ],
        "city": "MIDDLETOWN",
        "state": "OH",
        "postalCode": "45044-6017"
      },
      {
        "line": [
          "1223 Market Ave N"
        ],
        "city": "CANTON",
        "state": "OH",
        "postalCode": "44714-2603"
      },
      {
        "line": [
          "807 WEST AVE"
        ],
        "city": "ELYRIA",
        "state": "OH",
        "postalCode": "44035-5893"
      },
      {
        "line": [
          "175 COMMUNITY DR"
        ],
        "city": "MARION",
        "state": "OH",
        "postalCode": "43302-6487"
      },
      {
        "line": [
          "3015 17th St. NW"
        ],
        "city": "CANTON",
        "state": "OH",
        "postalCode": "44708-6004"
      },
      {
        "line": [
          "14751 Carey Rd"
        ],
        "city": "CARMEL",
        "state": "IN",
        "postalCode": "46033-9087"
      },
      {
        "line": [
          "155 Heritage Woods Dr."
        ],
        "city": "AKRON",
        "state": "OH",
        "postalCode": "44321-1398"
      },
      {
        "line": [
          "2125 ROYCE ST"
        ],
        "city": "PORTSMOUTH",
        "state": "OH",
        "postalCode": "45662-4714"
      },
      {
        "line": [
          "5226 E 82nd St"
        ],
        "city": "INDIANAPOLIS",
        "state": "IN",
        "postalCode": "46250-1628"
      },
      {
        "line": [
          "170 PINECREST DRIVE"
        ],
        "city": "GALLIPOLIS",
        "state": "OH",
        "postalCode": "45631-1347"
      },
      {
        "line": [
          "18840 Falling Water Rd."
        ],
        "city": "STRONGSVILLE",
        "state": "OH",
        "postalCode": "44136-4200"
      },
      {
        "line": [
          "1615 CLLEVELAND ROAD"
        ],
        "city": "WOOSTER",
        "state": "OH",
        "postalCode": "44691-2335"
      },
      {
        "line": [
          "377 Westridge Blvd"
        ],
        "city": "GREENWOOD",
        "state": "IN",
        "postalCode": "46142-2137"
      },
      {
        "line": [
          "4166 SOMERVILLE RD"
        ],
        "city": "SOMERVILLE",
        "state": "OH",
        "postalCode": "45064-9707"
      },
      {
        "line": [
          "200 Wyant Rd"
        ],
        "city": "AKRON",
        "state": "OH",
        "postalCode": "44313-4228"
      },
      {
        "line": [
          "200 Wyant Rd."
        ],
        "city": "AKRON",
        "state": "OH",
        "postalCode": "44313-4228"
      },
      {
        "line": [
          "315 Lilienthal St"
        ],
        "city": "CINCINNATI",
        "state": "OH",
        "postalCode": "45204-1170"
      },
      {
        "line": [
          "14751 Carey Rd"
        ],
        "city": "CARMEL",
        "state": "IN",
        "postalCode": "46033-9084"
      },
      {
        "line": [
          "4500 W Loomis Rd"
        ],
        "city": "MILWAUKEE",
        "state": "WI",
        "postalCode": "53220-4819"
      },
      {
        "line": [
          "1263 S George St"
        ],
        "city": "CHARLES TOWN",
        "state": "WV",
        "postalCode": "25414-4384"
      },
      {
        "line": [
          "3000 n ridge rd"
        ],
        "city": "ELLICOTT CITY",
        "state": "MD",
        "postalCode": "21043-3311"
      },
      {
        "line": [
          "7800 Jandaracres Drive"
        ],
        "city": "CINCINNATI",
        "state": "OH",
        "postalCode": "45248-2032"
      },
      {
        "line": [
          "3801 WOODRIDGE BLVD"
        ],
        "city": "FAIRFIELD",
        "state": "OH",
        "postalCode": "45014-3598"
      },
      {
        "line": [
          "3015 17TH Street NW"
        ],
        "city": "CANTON",
        "state": "OH",
        "postalCode": "44706-6004"
      },
      {
        "line": [
          "839 CHERRY STREET"
        ],
        "city": "BLANCHESTER",
        "state": "OH",
        "postalCode": "45107-1315"
      },
      {
        "line": [
          "1319 SPRING STREET"
        ],
        "city": "PORTSMOUTH",
        "state": "OH",
        "postalCode": "45662-2675"
      },
      {
        "line": [
          "463 EAST PIKE STREET"
        ],
        "city": "MORROW",
        "state": "OH",
        "postalCode": "45152-1221"
      },
      {
        "line": [
          "1155 ATWATER AVENUE"
        ],
        "city": "CIRCLEVILLE",
        "state": "OH",
        "postalCode": "43113-1301"
      },
      {
        "line": [
          "1800 PRINCETON RD"
        ],
        "city": "HAMILTON",
        "state": "OH",
        "postalCode": "45011-4742"
      },
      {
        "line": [
          "2300 Great Lakes Dr."
        ],
        "city": "DYER",
        "state": "IN",
        "postalCode": "46311-1917"
      },
      {
        "line": [
          "531 Stevenson Ln."
        ],
        "city": "TOWSON",
        "state": "MD",
        "postalCode": "21286-7607"
      },
      {
        "line": [
          "2222 Springdale rd"
        ],
        "city": "CINCINNATI",
        "state": "OH",
        "postalCode": "45231-1805"
      },
      {
        "line": [
          "7420 Marlboro Pike"
        ],
        "city": "DISTRICT HEIGHTS",
        "state": "MD",
        "postalCode": "20747-4343"
      },
      {
        "line": [
          "240 BEECHMONT DRIVE"
        ],
        "city": "CORYDON",
        "state": "IN",
        "postalCode": "47112-1718"
      },
      {
        "line": [
          "144 EAST BROAD STREET"
        ],
        "city": "PATASKALA",
        "state": "OH",
        "postalCode": "43062-7536"
      },
      {
        "line": [
          "463 EAST PIKE ST"
        ],
        "city": "MORROW",
        "state": "OH",
        "postalCode": "45152-1221"
      },
      {
        "line": [
          "4307 BRIDGETOWN ROAD"
        ],
        "city": "CINCINNATI",
        "state": "OH",
        "postalCode": "45211-4427"
      },
      {
        "line": [
          "2222 Margaret Avenue"
        ],
        "city": "TERRE HAUTE",
        "state": "IN",
        "postalCode": "47802-3339"
      },
      {
        "line": [
          "2171 HARRISON AVE"
        ],
        "city": "CINCINNATI",
        "state": "OH",
        "postalCode": "45211-8159"
      },
      {
        "line": [
          "1242 CEDARS COURT"
        ],
        "city": "CHARLOTTESVILLE",
        "state": "VA",
        "postalCode": "22903-4800"
      },
      {
        "line": [
          "4400 VANNEST AVE"
        ],
        "city": "MIDDLETOWN",
        "state": "OH",
        "postalCode": "45042-2770"
      },
      {
        "line": [
          "4301 CLIME ROAD NORTH"
        ],
        "city": "COLUMBUS",
        "state": "OH",
        "postalCode": "43228-3403"
      },
      {
        "line": [
          "1211 WEST MARKET STREET"
        ],
        "city": "AKRON",
        "state": "OH",
        "postalCode": "44313-7107"
      },
      {
        "line": [
          "7575 E Howard Rd."
        ],
        "city": "GLEN BURNIE",
        "state": "MD",
        "postalCode": "21060-8312"
      },
      {
        "line": [
          "150 Beechmond Dr. NE"
        ],
        "city": "CORYDON",
        "state": "IN",
        "postalCode": "47112-1717"
      },
      {
        "line": [
          "2222 E Margaret Ave."
        ],
        "city": "TERRE HAUTE",
        "state": "IN",
        "postalCode": "47802-3339"
      },
      {
        "line": [
          "750 Dual Hwy."
        ],
        "city": "HAGERSTOWN",
        "state": "MD",
        "postalCode": "21740-5909"
      },
      {
        "line": [
          "1150 W DOROTHY LANE"
        ],
        "city": "DAYTON",
        "state": "OH",
        "postalCode": "45409-1309"
      },
      {
        "line": [
          "3939 ERIE AVE"
        ],
        "city": "CINCINNATI",
        "state": "OH",
        "postalCode": "45208-1954"
      },
      {
        "line": [
          "36 LEHMAN DRIVE"
        ],
        "city": "CANAL WINCHESTER",
        "state": "OH",
        "postalCode": "43110-1006"
      },
      {
        "line": [
          "3364 Koble Rd"
        ],
        "city": "LORAIN",
        "state": "OH",
        "postalCode": "44053-1628"
      },
      {
        "line": [
          "7800 JANDARACRES DRIVE"
        ],
        "city": "CINCINNATI",
        "state": "OH",
        "postalCode": "45248-2032"
      },
      {
        "line": [
          "230 Welcome Way Blvd W Dr."
        ],
        "city": "INDIANAPOLIS",
        "state": "IN",
        "postalCode": "46214-3085"
      },
      {
        "line": [
          "2300 Great Lakes Drive"
        ],
        "city": "DYER",
        "state": "IN",
        "postalCode": "46311-1917"
      },
      {
        "line": [
          "625 PROBASCO ST"
        ],
        "city": "CINCINNATI",
        "state": "OH",
        "postalCode": "45220-2710"
      },
      {
        "line": [
          "429 W Lincoln Rd."
        ],
        "city": "KOKOMO",
        "state": "IN",
        "postalCode": "46902-3508"
      },
      {
        "line": [
          "9211 Stuart Ln."
        ],
        "city": "CLINTON",
        "state": "MD",
        "postalCode": "20735-2712"
      },
      {
        "line": [
          "299 COMMERCE DRIVE"
        ],
        "city": "SEAMAN",
        "state": "OH",
        "postalCode": "45679-7516"
      },
      {
        "line": [
          "4360 BRECKSVILLE ROAD"
        ],
        "city": "RICHFIELD",
        "state": "OH",
        "postalCode": "44286-9457"
      },
      {
        "line": [
          "1857-1859 GRAND AVE"
        ],
        "city": "CINCINNATI",
        "state": "OH",
        "postalCode": "45214-1503"
      },
      {
        "line": [
          "144 Washington Rd"
        ],
        "city": "EDGEWATER",
        "state": "MD",
        "postalCode": "21037-1412"
      },
      {
        "line": [
          "5040 PHILADELPHIA DR"
        ],
        "city": "DAYTON",
        "state": "OH",
        "postalCode": "45415-3604"
      },
      {
        "line": [
          "721 HICKORY ST"
        ],
        "city": "AKRON",
        "state": "OH",
        "postalCode": "44303-2213"
      },
      {
        "line": [
          "196 WEST MAIN STREET"
        ],
        "city": "NORWALK",
        "state": "OH",
        "postalCode": "44857-1915"
      },
      {
        "line": [
          "142 UNIVERSITY DRIVE"
        ],
        "city": "CHILLICOTHE",
        "state": "OH",
        "postalCode": "45601-2198"
      },
      {
        "line": [
          "1217 WEST FAYETTE STREET -telehealth"
        ],
        "city": "BALTIMORE",
        "state": "MD",
        "postalCode": "21223-1938"
      },
      {
        "line": [
          "924 CHARLES WAY"
        ],
        "city": "MONTPELIER",
        "state": "OH",
        "postalCode": "43543-1904"
      },
      {
        "line": [
          "8064 South Ave"
        ],
        "city": "YOUNGSTOWN",
        "state": "OH",
        "postalCode": "44512-6153"
      },
      {
        "line": [
          "315 lillenthal street"
        ],
        "city": "CINCINNATI",
        "state": "OH",
        "postalCode": "45204-1170"
      },
      {
        "line": [
          "5404 Georgetown road"
        ],
        "city": "INDIANAPOLIS",
        "state": "IN",
        "postalCode": "46254-3781"
      },
      {
        "line": [
          "711 DAYTON XENIA RD"
        ],
        "city": "XENIA",
        "state": "OH",
        "postalCode": "45385-2607"
      },
      {
        "line": [
          "6455 Pearl Rd."
        ],
        "city": "CLEVELAND",
        "state": "OH",
        "postalCode": "44130-2984"
      },
      {
        "line": [
          "1578 SHERMAN AVE"
        ],
        "city": "CINCINNATI",
        "state": "OH",
        "postalCode": "45212-2510"
      },
      {
        "line": [
          "4601 Pall Mall Rd."
        ],
        "city": "BALTIMORE",
        "state": "MD",
        "postalCode": "21215-6414"
      },
      {
        "line": [
          "142 UNIVERSITY DR"
        ],
        "city": "CHILLICOTHE",
        "state": "OH",
        "postalCode": "45601-2198"
      },
      {
        "line": [
          "230 CHERRY STREET"
        ],
        "city": "CHILLICOTHE",
        "state": "OH",
        "postalCode": "45601-2301"
      },
      {
        "line": [
          "4904 War Admiral Drive"
        ],
        "city": "INDIANAPOLIS",
        "state": "IN",
        "postalCode": "46237-9737"
      },
      {
        "line": [
          "3 Merit Dr"
        ],
        "city": "CLEVELAND",
        "state": "OH",
        "postalCode": "44143-1457"
      },
      {
        "line": [
          "2958 CANFIELD RD"
        ],
        "city": "YOUNGSTOWN",
        "state": "OH",
        "postalCode": "44511-2805"
      },
      {
        "line": [
          "1390 KING TREE DRIVE"
        ],
        "city": "DAYTON",
        "state": "OH",
        "postalCode": "45405-1401"
      },
      {
        "line": [
          "11760 PELLSTON COURT"
        ],
        "city": "CINCINNATI",
        "state": "OH",
        "postalCode": "45240-4122"
      },
      {
        "line": [
          "7800 Jandaracres Dr."
        ],
        "city": "CINCINNATI",
        "state": "OH",
        "postalCode": "45248-2032"
      },
      {
        "line": [
          "9090 MONTGOMERY ROAD"
        ],
        "city": "CINCINNATI",
        "state": "OH",
        "postalCode": "45242-7712"
      },
      {
        "line": [
          "2373 HARRISON AVE"
        ],
        "city": "CINCINNATI",
        "state": "OH",
        "postalCode": "45211-7927"
      },
      {
        "line": [
          "839 CHERRY ST"
        ],
        "city": "BLANCHESTER",
        "state": "OH",
        "postalCode": "45107-1315"
      },
      {
        "line": [
          "18840 falling water rd"
        ],
        "city": "STRONGSVILLE",
        "state": "OH",
        "postalCode": "44136-4200"
      },
      {
        "line": [
          "4102 Shore Dr."
        ],
        "city": "INDIANAPOLIS",
        "state": "IN",
        "postalCode": "46254-2608"
      },
      {
        "line": [
          "7301 E 16th St."
        ],
        "city": "INDIANAPOLIS",
        "state": "IN",
        "postalCode": "46219-2308"
      },
      {
        "line": [
          "620 Water St."
        ],
        "city": "CHARDON",
        "state": "OH",
        "postalCode": "44024-1149"
      },
      {
        "line": [
          "135 Reichart ave"
        ],
        "city": "Wintersville",
        "state": "OH",
        "postalCode": "43953-4050"
      },
      {
        "line": [
          "405 N PARK AVE"
        ],
        "city": "WELLSTON",
        "state": "OH",
        "postalCode": "45692-0001"
      },
      {
        "line": [
          "4904 War Admiral Dr."
        ],
        "city": "INDIANAPOLIS",
        "state": "IN",
        "postalCode": "46237-9737"
      },
      {
        "line": [
          "49 Sheldon Rd."
        ],
        "city": "BEREA",
        "state": "OH",
        "postalCode": "44017-1136"
      },
      {
        "line": [
          "100 Laurel Dr"
        ],
        "city": "ELKTON",
        "state": "MD",
        "postalCode": "21921-5328"
      },
      {
        "line": [
          "570 N Rocky River Dr."
        ],
        "city": "BEREA",
        "state": "OH",
        "postalCode": "44017-1613"
      },
      {
        "line": [
          "435 AVIS AVENUE NW"
        ],
        "city": "MASSILLON",
        "state": "OH",
        "postalCode": "44646-3555"
      },
      {
        "line": [
          "2586 LAFEUILLE AVE"
        ],
        "city": "CINCINNATI",
        "state": "OH",
        "postalCode": "45211-8209"
      },
      {
        "line": [
          " 3800 Summit Glen Dr"
        ],
        "city": "DAYTON",
        "state": "OH",
        "postalCode": "45449-3647"
      },
      {
        "line": [
          "2615 DERR ROAD"
        ],
        "city": "SPRINGFIELD",
        "state": "OH",
        "postalCode": "45503-2445"
      },
      {
        "line": [
          "5040 PHILADELPHIA DRIVE"
        ],
        "city": "DAYTON",
        "state": "OH",
        "postalCode": "45415-3604"
      },
      {
        "line": [
          "1599 ALUM CREEK DRIVE"
        ],
        "city": "COLUMBUS",
        "state": "OH",
        "postalCode": "43209-2596"
      },
      {
        "line": [
          "2222 Springdale Rd."
        ],
        "city": "CINCINNATI",
        "state": "OH",
        "postalCode": "45231-1805"
      },
      {
        "line": [
          "1857-1859 GRAND AVENUE"
        ],
        "city": "CINCINNATI",
        "state": "OH",
        "postalCode": "45214-1503"
      },
      {
        "line": [
          "5500 VERULAM AVE"
        ],
        "city": "CINCINNATI",
        "state": "OH",
        "postalCode": "45213-2418"
      },
      {
        "line": [
          "1599 ALUM CREEK DR"
        ],
        "city": "COLUMBUS",
        "state": "OH",
        "postalCode": "43209-2596"
      },
      {
        "line": [
          "4650 E GALBRAITH ROAD"
        ],
        "city": "CINCINNATI",
        "state": "OH",
        "postalCode": "45236-2792"
      },
      {
        "line": [
          "670 Jarvis Rd"
        ],
        "city": "AKRON",
        "state": "OH",
        "postalCode": "44319-2538"
      },
      {
        "line": [
          " 2511 Bentley Dr,"
        ],
        "city": "SALEM",
        "state": "OH",
        "postalCode": "44460-2305"
      },
      {
        "line": [
          "4166 SOMERVILLE ROAD"
        ],
        "city": "SOMERVILLE",
        "state": "OH",
        "postalCode": "45064-9707"
      },
      {
        "line": [
          "9211 Stuart ln"
        ],
        "city": "CLINTON",
        "state": "MD",
        "postalCode": "20735-2712"
      },
      {
        "line": [
          "6099 Fairfield Rd."
        ],
        "city": "OXFORD",
        "state": "OH",
        "postalCode": "45056-1507"
      },
      {
        "line": [
          "2923 HAMILTON-MASON ROAD"
        ],
        "city": "HAMILTON",
        "state": "OH",
        "postalCode": "45011-5355"
      },
      {
        "line": [
          "7800 JANDARACRES DR"
        ],
        "city": "CINCINNATI",
        "state": "OH",
        "postalCode": "45248-2032"
      },
      {
        "line": [
          "3 Merit Dr."
        ],
        "city": "CLEVELAND",
        "state": "OH",
        "postalCode": "44143-1457"
      },
      {
        "line": [
          "7575 E HOWARD  RD"
        ],
        "city": "GLEN BURNIE",
        "state": "MD",
        "postalCode": "21060-8312"
      },
      {
        "line": [
          "333 W Mishawaka Rd"
        ],
        "city": "ELKHART",
        "state": "IN",
        "postalCode": "46517-1921"
      },
      {
        "line": [
          "5227 East 82nd St"
        ],
        "city": "INDIANAPOLIS",
        "state": "IN",
        "postalCode": "46250-4625"
      },
      {
        "line": [
          "5404 Georgetown Rd."
        ],
        "city": "INDIANAPOLIS",
        "state": "IN",
        "postalCode": "46254-5500"
      },
      {
        "line": [
          "670 Jarvis Rd."
        ],
        "city": "AKRON",
        "state": "OH",
        "postalCode": "44319-2538"
      },
      {
        "line": [
          "7823 Old Highway 60"
        ],
        "city": "SELLERSBURG",
        "state": "IN",
        "postalCode": "47172-9283"
      },
      {
        "line": [
          "155 Heritage Woods Dr"
        ],
        "city": "AKRON",
        "state": "OH",
        "postalCode": "44321-1398"
      },
      {
        "line": [
          "150 Beechmont Drive"
        ],
        "city": "CORYDON",
        "state": "IN",
        "postalCode": "47112-1717"
      },
      {
        "line": [
          "711 DAYTON XENIA ROAD"
        ],
        "city": "XENIA",
        "state": "OH",
        "postalCode": "45385-2607"
      },
      {
        "line": [
          "4307 BRIDGETOWN RD"
        ],
        "city": "CINCINNATI",
        "state": "OH",
        "postalCode": "45211-4427"
      },
      {
        "line": [
          "6700 Columbia Pike"
        ],
        "city": "ANNANDALE",
        "state": "VA",
        "postalCode": "22003-3450"
      },
      {
        "line": [
          "813 1/2 MARION PIKE"
        ],
        "city": "IRONTON",
        "state": "OH",
        "postalCode": "45638-3070"
      },
      {
        "line": [
          "2500 Iowa Avenue"
        ],
        "city": "CONNERSVILLE",
        "state": "IN",
        "postalCode": "47331-2404"
      },
      {
        "line": [
          "3999 ERIE AVE"
        ],
        "city": "CINCINNATI",
        "state": "OH",
        "postalCode": "45208-1908"
      },
      {
        "line": [
          "6898 HAMILTON MIDDLETWON ROAD"
        ],
        "city": "MIDDLETOWN",
        "state": "OH",
        "postalCode": "45044-7895"
      },
      {
        "line": [
          "377 Westridge Blvd."
        ],
        "city": "GREENWOOD",
        "state": "IN",
        "postalCode": "46142-2137"
      },
      {
        "line": [
          "3800 SUMMIT GLEN DRIVE"
        ],
        "city": "DAYTON",
        "state": "OH",
        "postalCode": "45449-3647"
      },
      {
        "line": [
          "12021 livingston rd"
        ],
        "city": "FORT WASHINGTON",
        "state": "MD",
        "postalCode": "20744-4210"
      },
      {
        "line": [
          "2675 36th St"
        ],
        "city": "PARKERSBURG",
        "state": "WV",
        "postalCode": "26104-8024"
      },
      {
        "line": [
          "200 Green Meadows Drive"
        ],
        "city": "GREENFIELD",
        "state": "IN",
        "postalCode": "46140-1014"
      },
      {
        "line": [
          "8055 Addison Road SE"
        ],
        "city": "MASURY",
        "state": "OH",
        "postalCode": "44438-1204"
      },
      {
        "line": [
          "250 Continental D"
        ],
        "city": "SALEM",
        "state": "OH",
        "postalCode": "44460-2508"
      },
      {
        "line": [
          "2311 NAVE ROAD"
        ],
        "city": "MASSILLON",
        "state": "OH",
        "postalCode": "44646-8822"
      },
      {
        "line": [
          "101 Potters Lane"
        ],
        "city": "CLARKSVILLE",
        "state": "IN",
        "postalCode": "47129-1017"
      },
      {
        "line": [
          "300 OVERLOOK DR"
        ],
        "city": "PIKETON",
        "state": "OH",
        "postalCode": "45661-9760"
      },
      {
        "line": [
          "11760 PELLSTON CT"
        ],
        "city": "CINCINNATI",
        "state": "OH",
        "postalCode": "45240-4122"
      },
      {
        "line": [
          "218 ELM ST"
        ],
        "city": "LONDON",
        "state": "OH",
        "postalCode": "43140-2130"
      },
      {
        "line": [
          "2601 Bel Pre Rd"
        ],
        "city": "SILVER SPRING",
        "state": "MD",
        "postalCode": "20906-2313"
      },
      {
        "line": [
          "2958 Canfield Rd."
        ],
        "city": "YOUNGSTOWN",
        "state": "OH",
        "postalCode": "44511-2805"
      },
      {
        "line": [
          "1234 Washington Rd,"
        ],
        "city": "WESTMINSTER",
        "state": "MD",
        "postalCode": "21157-5854"
      },
      {
        "line": [
          "4601 Pall Mall RD"
        ],
        "city": "BALTIMORE",
        "state": "MD",
        "postalCode": "21215-6414"
      },
      {
        "line": [
          "955 GARDEN LAKE PARKWAY"
        ],
        "city": "TOLEDO",
        "state": "OH",
        "postalCode": "43614-2777"
      },
      {
        "line": [
          "7770 COLUMBUS RD NE"
        ],
        "city": "LOUISVILLE",
        "state": "OH",
        "postalCode": "44641-9773"
      },
      {
        "line": [
          "599 S SHAWNEE STREET"
        ],
        "city": "LIMA",
        "state": "OH",
        "postalCode": "45804-1461"
      },
      {
        "line": [
          "512 Winifred rd"
        ],
        "city": "CUMBERLAND",
        "state": "MD",
        "postalCode": "21502-6396"
      },
      {
        "line": [
          " 9850 Old Perry Hwy"
        ],
        "city": "WEXFORD",
        "state": "PA",
        "postalCode": "15090-9311"
      },
      {
        "line": [
          " 8111 Tis Well Dr,"
        ],
        "city": "ALEXANDRIA",
        "state": "VA",
        "postalCode": "22306-3211"
      },
      {
        "line": [
          "1390 KING TREE DR"
        ],
        "city": "DAYTON",
        "state": "OH",
        "postalCode": "45405-1401"
      },
      {
        "line": [
          "751 KENSINGTON STREET"
        ],
        "city": "MIDDLETOWN",
        "state": "OH",
        "postalCode": "45044-6017"
      },
      {
        "line": [
          "12021 Livingston Rd."
        ],
        "city": "FORT WASHINGTON",
        "state": "MD",
        "postalCode": "20744-4210"
      },
      {
        "line": [
          "10190 Fairmount Rd"
        ],
        "city": "NEWBURY",
        "state": "OH",
        "postalCode": "44065-9531"
      },
      {
        "line": [
          "49 Sheldon RD"
        ],
        "city": "BEREA",
        "state": "OH",
        "postalCode": "44017-1136"
      },
      {
        "line": [
          "563 Colony Park Dr."
        ],
        "city": "TALLMADGE",
        "state": "OH",
        "postalCode": "44278-2859"
      },
      {
        "line": [
          "299 COMMERCE DR"
        ],
        "city": "SEAMAN",
        "state": "OH",
        "postalCode": "45679-7516"
      },
      {
        "line": [
          "1615 CLEVELAND RD"
        ],
        "city": "WOOSTER",
        "state": "OH",
        "postalCode": "44691-2335"
      },
      {
        "line": [
          "4102 shore drive"
        ],
        "city": "INDIANAPOLIS",
        "state": "IN",
        "postalCode": "46254-2606"
      },
      {
        "line": [
          "144 Washington Rd."
        ],
        "city": "EDGEWATER",
        "state": "MD",
        "postalCode": "21037-1412"
      },
      {
        "line": [
          "1150 W. DOROTHY LANE"
        ],
        "city": "DAYTON",
        "state": "OH",
        "postalCode": "45409-1309"
      },
      {
        "line": [
          "620 Water ST"
        ],
        "city": "CHARDON",
        "state": "OH",
        "postalCode": "44024-1149"
      },
      {
        "line": [
          "1217 W Fayette St."
        ],
        "city": "BALTIMORE",
        "state": "MD",
        "postalCode": "21223-1938"
      },
      {
        "line": [
          "8064 SOUTH AVE #1,"
        ],
        "city": "YOUNGSTOWN",
        "state": "OH",
        "postalCode": "44512-6153"
      },
      {
        "line": [
          "570 N Rocky River Dr"
        ],
        "city": "BEREA",
        "state": "OH",
        "postalCode": "44017-1613"
      },
      {
        "line": [
          "200 W Green Meadows Dr."
        ],
        "city": "GREENFIELD",
        "state": "IN",
        "postalCode": "46140-1014"
      },
      {
        "line": [
          "625 PROBOSCO ST"
        ],
        "city": "CINCINNATI",
        "state": "OH",
        "postalCode": "45220-2714"
      },
      {
        "line": [
          "240 Beechmont Dr. NE"
        ],
        "city": "CORYDON",
        "state": "IN",
        "postalCode": "47112-1718"
      },
      {
        "line": [
          "650 S Meridian Rd"
        ],
        "city": "YOUNGSTOWN",
        "state": "OH",
        "postalCode": "44509-2932"
      },
      {
        "line": [
          "183 Holbrook Rd,"
        ],
        "city": "BUCKHANNON",
        "state": "WV",
        "postalCode": "26201-0029"
      },
      {
        "line": [
          "287 E South Blvd,"
        ],
        "city": "PETERSBURG",
        "state": "VA",
        "postalCode": "23805-2700"
      },
      {
        "line": [
          "3000 McComas Ave."
        ],
        "city": "KENSINGTON",
        "state": "MD",
        "postalCode": "20895-2316"
      },
      {
        "line": [
          "6099 Fairfield Road"
        ],
        "city": "OXFORD",
        "state": "OH",
        "postalCode": "45056-1507"
      },
      {
        "line": [
          "3364 Kolbe Rd."
        ],
        "city": "LORAIN",
        "state": "OH",
        "postalCode": "44053-1628"
      },
      {
        "line": [
          ": 135 Reichart Ave"
        ],
        "city": "STEUBENVILLE",
        "state": "OH",
        "postalCode": "43953-4000"
      },
      {
        "line": [
          "7420 Malboro Pike"
        ],
        "city": "DISTRICT HEIGHTS",
        "state": "MD",
        "postalCode": "20747-4343"
      }
    ],
    "extension": [
      {
        "url": "https://fhir.athena.io/StructureDefinition/ah-practice",
        "valueReference": {
          "reference": "Organization/a-1.Practice-15302"
        }
      },
      {
        "url": "https://fhir.athena.io/StructureDefinition/ah-brand",
        "valueReference": {
          "reference": "Organization/a-15302.Brand-1"
        }
      }
    ]
  },
  "fullUrl": "urn:uuid:9395feb9-0f99-505d-afd9-98930dff5aa8"
}