{
  "resource": {
    "resourceType": "Organization",
    "id": "c9edbb0f-8d0c-5d6b-b5c0-03156d46a521",
    "name": "Atria Lake Arlington",
    "endpoint": [
      {
        "reference": "Endpoint/27a4e967-47aa-5a9c-a572-b8297ee268a2"
      },
      {
        "reference": "Endpoint/7c25a7e9-9979-55a6-b430-d95ee1d2c97a"
      }
    ],
    "identifier": [
      {
        "system": "http://hl7.org/fhir/sid/us-npi",
        "value": "1235535105"
      }
    ],
    "address": [
      {
        "line": [
          "2601 W RANDOL MILL RD"
        ],
        "city": "ARLINGTON",
        "state": "TX",
        "postalCode": "76012-4289"
      },
      {
        "line": [
          "405 DUNCAN PERRY RD"
        ],
        "city": "ARLINGTON",
        "state": "TX",
        "postalCode": "76011-5412"
      },
      {
        "line": [
          "3443 N MACARTHUR BLVD"
        ],
        "city": "IRVING",
        "state": "TX",
        "postalCode": "75062-4411"
      },
      {
        "line": [
          "1500 AUTUMN DR"
        ],
        "city": "GRAPEVINE",
        "state": "TX",
        "postalCode": "76051-3103"
      },
      {
        "line": [
          "1997 Forest Ridge Dr"
        ],
        "city": "BEDFORD",
        "state": "TX",
        "postalCode": "76021-1825"
      },
      {
        "line": [
          "1999 Forest Ridge Drive"
        ],
        "city": "BEDFORD",
        "state": "TX",
        "postalCode": "76021-5724"
      },
      {
        "line": [
          "6621 N RIVERSIDE DR"
        ],
        "city": "FORT WORTH",
        "state": "TX",
        "postalCode": "76137-6640"
      },
      {
        "line": [
          "3729 IRA E WOODS AVE"
        ],
        "city": "GRAPEVINE",
        "state": "TX",
        "postalCode": "76051-4213"
      },
      {
        "line": [
          "7801 N RICHLAND BLVD"
        ],
        "city": "NORTH RICHLAND HILLS",
        "state": "TX",
        "postalCode": "76180-6415"
      },
      {
        "line": [
          "3421  West Story Rd"
        ],
        "city": "IRVING",
        "state": "TX",
        "postalCode": "75038-3571"
      },
      {
        "line": [
          "2021 SHOAF DR"
        ],
        "city": "IRVING",
        "state": "TX",
        "postalCode": "75061-2553"
      },
      {
        "line": [
          "2500 Woodside Dr"
        ],
        "city": "ARLINGTON",
        "state": "TX",
        "postalCode": "76016-1367"
      }
    ],
    "extension": [
      {
        "url": "https://fhir.athena.io/StructureDefinition/ah-practice",
        "valueReference": {
          "reference": "Organization/a-1.Practice-16562"
        }
      },
      {
        "url": "https://fhir.athena.io/StructureDefinition/ah-brand",
        "valueReference": {
          "reference": "Organization/a-16562.Brand-1"
        }
      }
    ]
  },
  "fullUrl": "urn:uuid:c9edbb0f-8d0c-5d6b-b5c0-03156d46a521"
}