{
  "resource": {
    "resourceType": "Organization",
    "id": "76647ab5-5102-5f1e-9cbd-d2aec70e7b94",
    "name": "Florida Kidney and Hypertension Clinic",
    "endpoint": [
      {
        "reference": "Endpoint/27a4e967-47aa-5a9c-a572-b8297ee268a2"
      },
      {
        "reference": "Endpoint/10f4a390-5401-5d2f-a086-1c601e90bf13"
      }
    ],
    "identifier": [
      {
        "system": "http://hl7.org/fhir/sid/us-npi",
        "value": "1780684795"
      }
    ],
    "address": [
      {
        "line": [
          "8021 PHILIPS HWY STE 15"
        ],
        "city": "JACKSONVILLE",
        "state": "FL",
        "postalCode": "32256-7460"
      },
      {
        "line": [
          "800 PRUDENTIAL DR"
        ],
        "city": "JACKSONVILLE",
        "state": "FL",
        "postalCode": "32207-8202"
      },
      {
        "line": [
          "425 N LEE ST"
        ],
        "city": "JACKSONVILLE",
        "state": "FL",
        "postalCode": "32204-1127"
      },
      {
        "line": [
          "1107 MYRA ST STE 101"
        ],
        "city": "JACKSONVILLE",
        "state": "FL",
        "postalCode": "32204-3321"
      },
      {
        "line": [
          "4575 US HIGHWAY 17 STE 301"
        ],
        "city": "FLEMING ISLAND",
        "state": "FL",
        "postalCode": "32003-4825"
      },
      {
        "line": [
          "2141 LOCH RANE BLVD STE 115"
        ],
        "city": "ORANGE PARK",
        "state": "FL",
        "postalCode": "32073-4239"
      },
      {
        "line": [
          "14965 Old St Augustine Rd",
          "Unit 114"
        ],
        "city": "JACKSONVILLE",
        "state": "FL",
        "postalCode": "32258-9480"
      },
      {
        "line": [
          "3599 UNIVERSITY BLVD S"
        ],
        "city": "JACKSONVILLE",
        "state": "FL",
        "postalCode": "32216-4252"
      },
      {
        "line": [
          "6541 SAINT JOHNS AVE"
        ],
        "city": "PALATKA",
        "state": "FL",
        "postalCode": "32177-3862"
      },
      {
        "line": [
          "2140 KINGSLEY AVE STE 10"
        ],
        "city": "ORANGE PARK",
        "state": "FL",
        "postalCode": "32073-5129"
      },
      {
        "line": [
          "400 COLLEGE DR BLDG 400"
        ],
        "city": "MIDDLEBURG",
        "state": "FL",
        "postalCode": "32068-8523"
      },
      {
        "line": [
          "3901 University Blvd S",
          "ste 111"
        ],
        "city": "JACKSONVILLE",
        "state": "FL",
        "postalCode": "32216-4374"
      },
      {
        "line": [
          "9143 PHILIPS HWY STE 110"
        ],
        "city": "JACKSONVILLE",
        "state": "FL",
        "postalCode": "32256-1365"
      },
      {
        "line": [
          "14444 BEACH BLVD STE B"
        ],
        "city": "JACKSONVILLE BEACH",
        "state": "FL",
        "postalCode": "32250-2010"
      },
      {
        "line": [
          "1784 BLANDING BLVD"
        ],
        "city": "MIDDLEBURG",
        "state": "FL",
        "postalCode": "32068-3807"
      },
      {
        "line": [
          "5276 BLANDING BLVD STE 26"
        ],
        "city": "JACKSONVILLE",
        "state": "FL",
        "postalCode": "32210-8176"
      },
      {
        "line": [
          "6196 LAKE GRAY BLVD STE 112"
        ],
        "city": "JACKSONVILLE",
        "state": "FL",
        "postalCode": "32244-5867"
      },
      {
        "line": [
          "10614 LEM TURNER RD"
        ],
        "city": "JACKSONVILLE",
        "state": "FL",
        "postalCode": "32218-4562"
      },
      {
        "line": [
          "2061 PROFESSIONAL CENTER DR"
        ],
        "city": "ORANGE PARK",
        "state": "FL",
        "postalCode": "32073-4461"
      },
      {
        "line": [
          "2001 KINGSLEY AVE"
        ],
        "city": "ORANGE PARK",
        "state": "FL",
        "postalCode": "32073-5148"
      },
      {
        "line": [
          "1670 ST VINCENTS WAY"
        ],
        "city": "MIDDLEBURG",
        "state": "FL",
        "postalCode": "32068-8447"
      },
      {
        "line": [
          "1215 DUNN AVE STE 8"
        ],
        "city": "JACKSONVILLE",
        "state": "FL",
        "postalCode": "32218-4897"
      },
      {
        "line": [
          "801 OAK ST"
        ],
        "city": "GREEN COVE SPRINGS",
        "state": "FL",
        "postalCode": "32043-4317"
      }
    ],
    "extension": [
      {
        "url": "https://fhir.athena.io/StructureDefinition/ah-practice",
        "valueReference": {
          "reference": "Organization/a-1.Practice-16880"
        }
      },
      {
        "url": "https://fhir.athena.io/StructureDefinition/ah-brand",
        "valueReference": {
          "reference": "Organization/a-16880.Brand-4"
        }
      }
    ]
  },
  "fullUrl": "urn:uuid:76647ab5-5102-5f1e-9cbd-d2aec70e7b94"
}