{
  "resource": {
    "resourceType": "Organization",
    "id": "267dcb29-a594-52ca-8769-f110ffa80fbc",
    "name": "MinuteClinic",
    "endpoint": [
      {
        "reference": "Endpoint/27a4e967-47aa-5a9c-a572-b8297ee268a2"
      },
      {
        "reference": "Endpoint/6909d271-6c33-56d2-b386-82f73744f1b3"
      }
    ],
    "identifier": [
      {
        "system": "http://hl7.org/fhir/sid/us-npi",
        "value": "1457323164"
      }
    ],
    "address": [
      {
        "line": [
          "10008 Parkside Dr"
        ],
        "city": "KNOXVILLE",
        "state": "TN",
        "postalCode": "37922-2209"
      },
      {
        "line": [
          "6670 STAGE RD"
        ],
        "city": "BARTLETT",
        "state": "TN",
        "postalCode": "38134-3810"
      },
      {
        "line": [
          "2115 union ave"
        ],
        "city": "MEMPHIS",
        "state": "TN",
        "postalCode": "38104-4233"
      },
      {
        "line": [
          "110 Majestic Grove Rd"
        ],
        "city": "KNOXVILLE",
        "state": "TN",
        "postalCode": "37920-6485"
      },
      {
        "line": [
          "6116 Quince Rd"
        ],
        "city": "MEMPHIS",
        "state": "TN",
        "postalCode": "38119-7254"
      },
      {
        "line": [
          "2424 N OCOEE ST"
        ],
        "city": "CLEVELAND",
        "state": "TN",
        "postalCode": "37311-3854"
      },
      {
        "line": [
          "4058 Franklin Rd"
        ],
        "city": "MURFREESBORO",
        "state": "TN",
        "postalCode": "37128-4165"
      },
      {
        "line": [
          "786 N Germantown Pkwy"
        ],
        "city": "CORDOVA",
        "state": "TN",
        "postalCode": "38018-6212"
      },
      {
        "line": [
          "570 HWY 321 N"
        ],
        "city": "LENOIR CITY",
        "state": "TN",
        "postalCode": "37771-6545"
      },
      {
        "line": [
          "1322 S Highland Ave"
        ],
        "city": "JACKSON",
        "state": "TN",
        "postalCode": "38301-7369"
      },
      {
        "line": [
          "903 memorial blvd"
        ],
        "city": "SPRINGFIELD",
        "state": "TN",
        "postalCode": "37172-2932"
      },
      {
        "line": [
          "9389 Dayton Pike"
        ],
        "city": "SODDY DAISY",
        "state": "TN",
        "postalCode": "37379-4824"
      },
      {
        "line": [
          "445 Great Circle Road"
        ],
        "city": "NASHVILLE",
        "state": "TN",
        "postalCode": "37228-1403"
      },
      {
        "line": [
          "122 Hwy 70 East"
        ],
        "city": "DICKSON",
        "state": "TN",
        "postalCode": "37055-2034"
      },
      {
        "line": [
          "2401 Cherahala Blvd"
        ],
        "city": "KNOXVILLE",
        "state": "TN",
        "postalCode": "37932-1567"
      }
    ],
    "extension": [
      {
        "url": "https://fhir.athena.io/StructureDefinition/ah-practice",
        "valueReference": {
          "reference": "Organization/a-1.Practice-1649"
        }
      },
      {
        "url": "https://fhir.athena.io/StructureDefinition/ah-brand",
        "valueReference": {
          "reference": "Organization/a-1649.Brand-1"
        }
      }
    ]
  },
  "fullUrl": "urn:uuid:267dcb29-a594-52ca-8769-f110ffa80fbc"
}