{
  "resource": {
    "resourceType": "Organization",
    "id": "7535998d-7087-546e-b8b1-bf946b26a054",
    "name": "CLOSED 10/4/2020 (Transition to EPIC)",
    "endpoint": [
      {
        "reference": "Endpoint/27a4e967-47aa-5a9c-a572-b8297ee268a2"
      },
      {
        "reference": "Endpoint/61e604b1-89ec-5844-a524-9d1b29b8927e"
      }
    ],
    "identifier": [
      {
        "system": "http://hl7.org/fhir/sid/us-npi",
        "value": "1457382947"
      },
      {
        "system": "http://hl7.org/fhir/sid/us-npi",
        "value": "1801808571"
      }
    ],
    "address": [
      {
        "line": [
          "2604 St Michael Dr Ste 425"
        ],
        "city": "TEXARKANA",
        "state": "TX",
        "postalCode": "75503-2378"
      },
      {
        "line": [
          "2602 St. Michael Dr. Ste 302A"
        ],
        "city": "TEXARKANA",
        "state": "TX",
        "postalCode": "75503-2387"
      },
      {
        "line": [
          "3510 Richmond Rd"
        ],
        "city": "TEXARKANA",
        "state": "TX",
        "postalCode": "75503-0714"
      },
      {
        "line": [
          "2602 St Michael Dr Ste 302A"
        ],
        "city": "TEXARKANA",
        "state": "TX",
        "postalCode": "75503-2387"
      },
      {
        "line": [
          "2602 St Michael Drive Suite 201B"
        ],
        "city": "TEXARKANA",
        "state": "TX",
        "postalCode": "75503-2320"
      },
      {
        "line": [
          "3502 Richmond Rd"
        ],
        "city": "TEXARKANA",
        "state": "TX",
        "postalCode": "75503-0705"
      },
      {
        "line": [
          "2006 MOORES LN"
        ],
        "city": "TEXARKANA",
        "state": "TX",
        "postalCode": "75503-1840"
      },
      {
        "line": [
          "2602 St. Michael Dr. Ste 302B"
        ],
        "city": "TEXARKANA",
        "state": "TX",
        "postalCode": "75503-2387"
      },
      {
        "line": [
          "2600 SAINT MICHAEL DR"
        ],
        "city": "TEXARKANA",
        "state": "TX",
        "postalCode": "75503-2372"
      },
      {
        "line": [
          "1920 GALLERIA OAKS DR"
        ],
        "city": "TEXARKANA",
        "state": "TX",
        "postalCode": "75503-4619"
      },
      {
        "line": [
          "910 James Bowie Drive"
        ],
        "city": "NEW BOSTON",
        "state": "TX",
        "postalCode": "75570-2335"
      },
      {
        "line": [
          "2602 St Michael Drive Suite 400"
        ],
        "city": "TEXARKANA",
        "state": "TX",
        "postalCode": "75503-5224"
      },
      {
        "line": [
          "805 Trinity Drive"
        ],
        "city": "HOPE",
        "state": "AR",
        "postalCode": "71801-3621"
      }
    ],
    "extension": [
      {
        "url": "https://fhir.athena.io/StructureDefinition/ah-practice",
        "valueReference": {
          "reference": "Organization/a-1.Practice-996"
        }
      },
      {
        "url": "https://fhir.athena.io/StructureDefinition/ah-brand",
        "valueReference": {
          "reference": "Organization/a-996.Brand-1"
        }
      }
    ]
  },
  "fullUrl": "urn:uuid:7535998d-7087-546e-b8b1-bf946b26a054"
}