{
  "resource": {
    "resourceType": "Organization",
    "id": "0fc4dd2f-1c6b-5a28-a695-469066c8a9ca",
    "name": "VALLEY MEDICAL GROUP",
    "endpoint": [
      {
        "reference": "Endpoint/27a4e967-47aa-5a9c-a572-b8297ee268a2"
      },
      {
        "reference": "Endpoint/e191ff23-a2e2-5e42-9981-a57500eeebf1"
      }
    ],
    "identifier": [
      {
        "system": "http://hl7.org/fhir/sid/us-npi",
        "value": "1467815928"
      }
    ],
    "address": [
      {
        "line": [
          "590 OLD HOOK RD"
        ],
        "city": "EMERSON",
        "state": "NJ",
        "postalCode": "07630-1378"
      },
      {
        "line": [
          "2020 ROUTE 23 N"
        ],
        "city": "WAYNE",
        "state": "NJ",
        "postalCode": "07470-8482"
      },
      {
        "line": [
          "622 W 168TH ST"
        ],
        "city": "NEW YORK",
        "state": "NY",
        "postalCode": "10032-3720"
      },
      {
        "line": [
          "1140 BLACK OAK RIDGE RD"
        ],
        "city": "WAYNE",
        "state": "NJ",
        "postalCode": "07470-6347"
      },
      {
        "line": [
          "703 MAIN ST"
        ],
        "city": "PATERSON",
        "state": "NJ",
        "postalCode": "07503-2621"
      },
      {
        "line": [
          "223 N VAN DIEN AVE"
        ],
        "city": "RIDGEWOOD",
        "state": "NJ",
        "postalCode": "07450-2726"
      },
      {
        "line": [
          "4 VALLEY HEALTH PLZ"
        ],
        "city": "PARAMUS",
        "state": "NJ",
        "postalCode": "07652-3819"
      },
      {
        "line": [
          "97 WEST PARKWAY"
        ],
        "city": "POMPTON PLAINS",
        "state": "NJ",
        "postalCode": "07444-1647"
      },
      {
        "line": [
          "85 HARRETON RD"
        ],
        "city": "ALLENDALE",
        "state": "NJ",
        "postalCode": "07401-1317"
      },
      {
        "line": [
          "100 W MAGNOLIA AVE"
        ],
        "city": "MAYWOOD",
        "state": "NJ",
        "postalCode": "07607-1121"
      },
      {
        "line": [
          "90 W RIDGEWOOD AVE"
        ],
        "city": "PARAMUS",
        "state": "NJ",
        "postalCode": "07652-2204"
      },
      {
        "line": [
          "30 PROSPECT AVE"
        ],
        "city": "HACKENSACK",
        "state": "NJ",
        "postalCode": "07601-1997"
      },
      {
        "line": [
          "304 S VAN DIEN AVE"
        ],
        "city": "RIDGEWOOD",
        "state": "NJ",
        "postalCode": "07450-5200"
      },
      {
        "line": [
          "493 BLACK OAK RIDGE RD"
        ],
        "city": "WAYNE",
        "state": "NJ",
        "postalCode": "07470-6501"
      },
      {
        "line": [
          "1 WEST RIDGEWOOD AVE",
          "SUITE 101"
        ],
        "city": "PARAMUS",
        "state": "NJ",
        "postalCode": "07652-2354"
      },
      {
        "line": [
          "20 BREAKNECK RD"
        ],
        "city": "OAKLAND",
        "state": "NJ",
        "postalCode": "07436-2402"
      },
      {
        "line": [
          "250 OLD HOOK RD"
        ],
        "city": "WESTWOOD",
        "state": "NJ",
        "postalCode": "07675-3122"
      },
      {
        "line": [
          "1 VALLEY HEALTH PLAZA"
        ],
        "city": "PARAMUS",
        "state": "NJ",
        "postalCode": "07652-3628"
      },
      {
        "line": [
          "1176 HAMBURG TPKE"
        ],
        "city": "WAYNE",
        "state": "NJ",
        "postalCode": "07470-5069"
      },
      {
        "line": [
          "350 BOULEVARD"
        ],
        "city": "PASSAIC",
        "state": "NJ",
        "postalCode": "07055-2840"
      },
      {
        "line": [
          "15 ESSEX RD"
        ],
        "city": "PARAMUS",
        "state": "NJ",
        "postalCode": "07652-1451"
      },
      {
        "line": [
          "120 NOYES AVE"
        ],
        "city": "PARK RIDGE",
        "state": "NJ",
        "postalCode": "07656-1294"
      },
      {
        "line": [
          "305 OLDHAM RD"
        ],
        "city": "WAYNE",
        "state": "NJ",
        "postalCode": "07470-2208"
      },
      {
        "line": [
          "301 SICOMAC AVE"
        ],
        "city": "WYCKOFF",
        "state": "NJ",
        "postalCode": "07481-2159"
      },
      {
        "line": [
          "718 TEANECK RD"
        ],
        "city": "TEANECK",
        "state": "NJ",
        "postalCode": "07666-4245"
      },
      {
        "line": [
          "155 HAZEL ST"
        ],
        "city": "CLIFTON",
        "state": "NJ",
        "postalCode": "07011-3423"
      },
      {
        "line": [
          "300 OLD HOOK RD"
        ],
        "city": "WESTWOOD",
        "state": "NJ",
        "postalCode": "07675-3122"
      },
      {
        "line": [
          "130 TERHUNE DR"
        ],
        "city": "WAYNE",
        "state": "NJ",
        "postalCode": "07470-7014"
      },
      {
        "line": [
          "1 BAY AVE"
        ],
        "city": "GLEN RIDGE",
        "state": "NJ",
        "postalCode": "07028-1505"
      },
      {
        "line": [
          "400 FRANKLIN TPKE"
        ],
        "city": "MAHWAH",
        "state": "NJ",
        "postalCode": "07430-3516"
      },
      {
        "line": [
          "296 HAMBURG TPKE"
        ],
        "city": "WAYNE",
        "state": "NJ",
        "postalCode": "07470-2150"
      },
      {
        "line": [
          "579 FRANKLIN TPKE"
        ],
        "city": "RIDGEWOOD",
        "state": "NJ",
        "postalCode": "07450-3957"
      },
      {
        "line": [
          "56 HAMILTON AVE"
        ],
        "city": "PASSAIC",
        "state": "NJ",
        "postalCode": "07055-5131"
      },
      {
        "line": [
          "222 CEDAR LN"
        ],
        "city": "TEANECK",
        "state": "NJ",
        "postalCode": "07666-4314"
      },
      {
        "line": [
          "250 OLD HOOK RD"
        ],
        "city": "WESTWOOD",
        "state": "NJ",
        "postalCode": "07675-3123"
      },
      {
        "line": [
          "499 PINE BROOK RD"
        ],
        "city": "LINCOLN PARK",
        "state": "NJ",
        "postalCode": "07035-1804"
      },
      {
        "line": [
          "94 SHORT HILLS RD"
        ],
        "city": "LIVINGSTON",
        "state": "NJ",
        "postalCode": "07039-5762"
      },
      {
        "line": [
          "466 OLD HOOK ROAD",
          "#14"
        ],
        "city": "EMERSON",
        "state": "NJ",
        "postalCode": "07630-1368"
      },
      {
        "line": [
          "224 HAMBURG TPKE"
        ],
        "city": "WAYNE",
        "state": "NJ",
        "postalCode": "07470-2111"
      },
      {
        "line": [
          "555 KINDERKAMACK RD"
        ],
        "city": "ORADELL",
        "state": "NJ",
        "postalCode": "07649-1517"
      },
      {
        "line": [
          "363 OLD HOOK RD"
        ],
        "city": "WESTWOOD",
        "state": "NJ",
        "postalCode": "07675-3201"
      },
      {
        "line": [
          "261 TERHUNE DR"
        ],
        "city": "WAYNE",
        "state": "NJ",
        "postalCode": "07470-7105"
      },
      {
        "line": [
          "140 FRANKLIN TURNPIKE"
        ],
        "city": "WALDWICK",
        "state": "NJ",
        "postalCode": "07463-1847"
      },
      {
        "line": [
          "555 CHESTNUT RIDGE RD"
        ],
        "city": "WOODCLIFF LAKE",
        "state": "NJ",
        "postalCode": "07677-8417"
      },
      {
        "line": [
          "100 W RIDGEWOOD AVE"
        ],
        "city": "PARAMUS",
        "state": "NJ",
        "postalCode": "07652-2204"
      },
      {
        "line": [
          "69 MAPLE RD"
        ],
        "city": "WEST MILFORD",
        "state": "NJ",
        "postalCode": "07480-2707"
      },
      {
        "line": [
          "600 KINDERKAMACK RD"
        ],
        "city": "ORADELL",
        "state": "NJ",
        "postalCode": "07649-1501"
      },
      {
        "line": [
          "360 CHESTNUT ST"
        ],
        "city": "PASSAIC",
        "state": "NJ",
        "postalCode": "07055-3124"
      },
      {
        "line": [
          "100 KINDERKAMACK RD"
        ],
        "city": "EMERSON",
        "state": "NJ",
        "postalCode": "07630-1828"
      },
      {
        "line": [
          "1124 E RIDGEWOOD AVE"
        ],
        "city": "RIDGEWOOD",
        "state": "NJ",
        "postalCode": "07450-3915"
      },
      {
        "line": [
          "36 FANER RD"
        ],
        "city": "MIDLAND PARK",
        "state": "NJ",
        "postalCode": "07432-1719"
      },
      {
        "line": [
          "532 FARVIEW AVE"
        ],
        "city": "PARAMUS",
        "state": "NJ",
        "postalCode": "07652-4130"
      },
      {
        "line": [
          "1945 ROUTE 33"
        ],
        "city": "NEPTUNE",
        "state": "NJ",
        "postalCode": "07753-4859"
      },
      {
        "line": [
          "703 MAIN ST"
        ],
        "city": "PATERSON",
        "state": "NJ",
        "postalCode": "07503-2111"
      },
      {
        "line": [
          "30 ENGLE ST"
        ],
        "city": "ENGLEWOOD",
        "state": "NJ",
        "postalCode": "07631-1808"
      },
      {
        "line": [
          "350 ENGLE ST"
        ],
        "city": "ENGLEWOOD",
        "state": "NJ",
        "postalCode": "07631-1808"
      },
      {
        "line": [
          "1200 E. RIDGEWOOD AVE"
        ],
        "city": "RIDGEWOOD",
        "state": "NJ",
        "postalCode": "07450-3937"
      },
      {
        "line": [
          "124 NOYES DR"
        ],
        "city": "PARK RIDGE",
        "state": "NJ",
        "postalCode": "07656-1294"
      },
      {
        "line": [
          "1120 ALPS RD"
        ],
        "city": "WAYNE",
        "state": "NJ",
        "postalCode": "07470-3704"
      }
    ],
    "extension": [
      {
        "url": "https://fhir.athena.io/StructureDefinition/ah-practice",
        "valueReference": {
          "reference": "Organization/a-1.Practice-5622"
        }
      },
      {
        "url": "https://fhir.athena.io/StructureDefinition/ah-brand",
        "valueReference": {
          "reference": "Organization/a-5622.Brand-34"
        }
      }
    ]
  },
  "fullUrl": "urn:uuid:0fc4dd2f-1c6b-5a28-a695-469066c8a9ca"
}