{
  "resource": {
    "resourceType": "Organization",
    "id": "6220528c-63f8-5ec5-9483-34d06b624a7b",
    "name": "A GENI ABRAHAM, MD",
    "endpoint": [
      {
        "reference": "Endpoint/27a4e967-47aa-5a9c-a572-b8297ee268a2"
      },
      {
        "reference": "Endpoint/750e6126-b1ae-59db-a192-6dc41b4e1fd7"
      }
    ],
    "identifier": [
      {
        "system": "http://hl7.org/fhir/sid/us-npi",
        "value": "1851334056"
      }
    ],
    "address": [
      {
        "line": [
          "2300 VILLAGE BLVD"
        ],
        "city": "WEST PALM BEACH",
        "state": "FL",
        "postalCode": "33409-7390"
      },
      {
        "line": [
          "6363 VERDE TRAIL"
        ],
        "city": "BOCA RATON",
        "state": "FL",
        "postalCode": "33433-7702"
      },
      {
        "line": [
          "8240 S STATE ROAD 7 STE 190"
        ],
        "city": "BOYNTON BEACH",
        "state": "FL",
        "postalCode": "33472-4515"
      },
      {
        "line": [
          "5352 LINTON BLVD"
        ],
        "city": "DELRAY BEACH",
        "state": "FL",
        "postalCode": "33484-6514"
      },
      {
        "line": [
          "10115 FOREST HILL BLVD",
          "STE 200"
        ],
        "city": "WELLINGTON",
        "state": "FL",
        "postalCode": "33414-3104"
      },
      {
        "line": [
          "12955 PALMS WEST DR STE 100 BLDG 8"
        ],
        "city": "LOXAHATCHEE",
        "state": "FL",
        "postalCode": "33470-9212"
      },
      {
        "line": [
          "3060 MELALEUCA LN"
        ],
        "city": "LAKE WORTH",
        "state": "FL",
        "postalCode": "33461-5174"
      },
      {
        "line": [
          "6347 VIA DE SONRISA DEL SUR"
        ],
        "city": "BOCA RATON",
        "state": "FL",
        "postalCode": "33433-8247"
      },
      {
        "line": [
          "501 GLADES RD"
        ],
        "city": "BOCA RATON",
        "state": "FL",
        "postalCode": "33432-1419"
      },
      {
        "line": [
          "300 EXECUTIVE CENTER DR"
        ],
        "city": "WEST PALM BEACH",
        "state": "FL",
        "postalCode": "33401-4842"
      },
      {
        "line": [
          "10115 FOREST HILL BLVD, STE 200"
        ],
        "city": "WELLINGTON",
        "state": "FL",
        "postalCode": "33414-3104"
      },
      {
        "line": [
          "3000 CORAL HILLS DR"
        ],
        "city": "POMPANO BEACH",
        "state": "FL",
        "postalCode": "33065-4108"
      },
      {
        "line": [
          "2801 N STATE ROAD 7"
        ],
        "city": "POMPANO BEACH",
        "state": "FL",
        "postalCode": "33063-5727"
      },
      {
        "line": [
          "3848 FAU BLVD"
        ],
        "city": "BOCA RATON",
        "state": "FL",
        "postalCode": "33431-6437"
      },
      {
        "line": [
          "7593 W BOYNTON BEACH BLVD STE 220"
        ],
        "city": "BOYNTON BEACH",
        "state": "FL",
        "postalCode": "33437-6162"
      },
      {
        "line": [
          "375 W YAMATO RD"
        ],
        "city": "BOCA RATON",
        "state": "FL",
        "postalCode": "33431-4773"
      },
      {
        "line": [
          "2550 WELLING BAY DR"
        ],
        "city": "WELLINGTON",
        "state": "FL",
        "postalCode": "33414-9312"
      },
      {
        "line": [
          "15340 S JOG RD STE 200"
        ],
        "city": "DELRAY BEACH",
        "state": "FL",
        "postalCode": "33446-2170"
      },
      {
        "line": [
          "6401 N FEDERAL HWY"
        ],
        "city": "FORT LAUDERDALE",
        "state": "FL",
        "postalCode": "33308-1427"
      },
      {
        "line": [
          "2792 DONNELLY DRIVE"
        ],
        "city": "LANTANA",
        "state": "FL",
        "postalCode": "33462-6431"
      },
      {
        "line": [
          "2351 S SEACREST BLVD"
        ],
        "city": "BOYNTON BEACH",
        "state": "FL",
        "postalCode": "33435-6759"
      },
      {
        "line": [
          "205 JFK DRIVE"
        ],
        "city": "ATLANTIS",
        "state": "FL",
        "postalCode": "33462-1151"
      },
      {
        "line": [
          "21044 95TH AVE SOUTH"
        ],
        "city": "BOCA RATON",
        "state": "FL",
        "postalCode": "33428-1524"
      },
      {
        "line": [
          "109 JOHN F KENNEDY DR STE C"
        ],
        "city": "ATLANTIS",
        "state": "FL",
        "postalCode": "33462-6617"
      },
      {
        "line": [
          "2501 N A ST"
        ],
        "city": "LAKE WORTH",
        "state": "FL",
        "postalCode": "33460-6013"
      },
      {
        "line": [
          "801 MEADOWS RD STE 110"
        ],
        "city": "BOCA RATON",
        "state": "FL",
        "postalCode": "33486-2347"
      },
      {
        "line": [
          "6152 N VERDE TRAIL"
        ],
        "city": "BOCA RATON",
        "state": "FL",
        "postalCode": "33433-2430"
      },
      {
        "line": [
          "7900 VENTURE CENTER WAY"
        ],
        "city": "BOYNTON BEACH",
        "state": "FL",
        "postalCode": "33437-7402"
      },
      {
        "line": [
          "4685 S. CONGRESS AVE",
          "STE 200"
        ],
        "city": "PALM SPRINGS",
        "state": "FL",
        "postalCode": "33461-4761"
      },
      {
        "line": [
          "6646 W ATLANTIC AVE"
        ],
        "city": "DELRAY BEACH",
        "state": "FL",
        "postalCode": "33446-1627"
      },
      {
        "line": [
          "15300 S JOG RD STE 205"
        ],
        "city": "DELRAY BEACH",
        "state": "FL",
        "postalCode": "33446-2166"
      },
      {
        "line": [
          "3001 S CONGRESS AVE"
        ],
        "city": "BOYNTON BEACH",
        "state": "FL",
        "postalCode": "33426-9012"
      },
      {
        "line": [
          "2792 DONNELLY DR"
        ],
        "city": "LAKE WORTH",
        "state": "FL",
        "postalCode": "33462-6431"
      },
      {
        "line": [
          "6363 VERDE TRL"
        ],
        "city": "BOCA RATON",
        "state": "FL",
        "postalCode": "33433-7702"
      },
      {
        "line": [
          "3005 S CONGRESS AVE"
        ],
        "city": "BOYNTON BEACH",
        "state": "FL",
        "postalCode": "33426-9045"
      },
      {
        "line": [
          "600 BUSINESS PARK WAY"
        ],
        "city": "WEST PALM BEACH",
        "state": "FL",
        "postalCode": "33411-1174"
      },
      {
        "line": [
          "5401 S CONGRESS AVE",
          "SUITE 102"
        ],
        "city": "ATLANTIS",
        "state": "FL",
        "postalCode": "33462-6636"
      },
      {
        "line": [
          "1626 DAVIS ROAD"
        ],
        "city": "WEST PALM BEACH",
        "state": "FL",
        "postalCode": "33406-5640"
      },
      {
        "line": [
          "5301 S CONGRESS AVE"
        ],
        "city": "ATLANTIS",
        "state": "FL",
        "postalCode": "33462-1149"
      },
      {
        "line": [
          "9868 S STATE RD 7",
          "BUILDING B STE 325"
        ],
        "city": "BOYNTON BEACH",
        "state": "FL",
        "postalCode": "33472-4477"
      },
      {
        "line": [
          "4725 N FEDERAL HWY"
        ],
        "city": "FORT LAUDERDALE",
        "state": "FL",
        "postalCode": "33308-4603"
      },
      {
        "line": [
          "851 N US HIGHWAY 1"
        ],
        "city": "JUPITER",
        "state": "FL",
        "postalCode": "33469-2348"
      },
      {
        "line": [
          "375 NW 51ST STREET"
        ],
        "city": "BOCA RATON",
        "state": "FL",
        "postalCode": "33431-4773"
      },
      {
        "line": [
          "1130 NW 15TH ST"
        ],
        "city": "BOCA RATON",
        "state": "FL",
        "postalCode": "33486-1333"
      },
      {
        "line": [
          "1905 CLINT MOORE RD STE 204"
        ],
        "city": "BOCA RATON",
        "state": "FL",
        "postalCode": "33496-2660"
      },
      {
        "line": [
          "16200 S JOG RD"
        ],
        "city": "DELRAY BEACH",
        "state": "FL",
        "postalCode": "33446-2321"
      },
      {
        "line": [
          "11375 PROSPERITY FARMS RD"
        ],
        "city": "PALM BEACH GARDENS",
        "state": "FL",
        "postalCode": "33410-3442"
      },
      {
        "line": [
          "9980 CENTRAL PARK BLVD N"
        ],
        "city": "BOCA RATON",
        "state": "FL",
        "postalCode": "33428-1762"
      },
      {
        "line": [
          "109 JOHN F KENNEDY DR",
          "STE C"
        ],
        "city": "LAKE WORTH",
        "state": "FL",
        "postalCode": "33462-6617"
      },
      {
        "line": [
          "1043 NE 46TH CT"
        ],
        "city": "FORT LAUDERDALE",
        "state": "FL",
        "postalCode": "33334-3834"
      },
      {
        "line": [
          "8240 S STATE ROAD 7 STE 180"
        ],
        "city": "BOYNTON BEACH",
        "state": "FL",
        "postalCode": "33472-4516"
      },
      {
        "line": [
          "880 NW 13TH ST STE 2A"
        ],
        "city": "BOCA RATON",
        "state": "FL",
        "postalCode": "33486-2342"
      },
      {
        "line": [
          "7593 BOYNTON BEACH BVLD",
          "ste 220"
        ],
        "city": "BOYNTON BEACH",
        "state": "FL",
        "postalCode": "33437-6162"
      },
      {
        "line": [
          "7300 DEL PRADO CIRCLE SOUTH"
        ],
        "city": "BOCA RATON",
        "state": "FL",
        "postalCode": "33433-3386"
      },
      {
        "line": [
          "10151 ENTERPRISE CTR"
        ],
        "city": "BOYNTON BEACH",
        "state": "FL",
        "postalCode": "33437-3759"
      }
    ],
    "extension": [
      {
        "url": "https://fhir.athena.io/StructureDefinition/ah-practice",
        "valueReference": {
          "reference": "Organization/a-1.Practice-11933"
        }
      },
      {
        "url": "https://fhir.athena.io/StructureDefinition/ah-brand",
        "valueReference": {
          "reference": "Organization/a-11933.Brand-6"
        }
      }
    ]
  },
  "fullUrl": "urn:uuid:6220528c-63f8-5ec5-9483-34d06b624a7b"
}