{
  "resource": {
    "resourceType": "Organization",
    "id": "19bd10fb-e451-56de-8517-99ad88571d36",
    "name": "Aunt Martha's Health and Wellness",
    "endpoint": [
      {
        "reference": "Endpoint/27a4e967-47aa-5a9c-a572-b8297ee268a2"
      },
      {
        "reference": "Endpoint/8ebe2760-eb57-536b-9121-cf604ebc4dbd"
      }
    ],
    "identifier": [
      {
        "system": "http://hl7.org/fhir/sid/us-npi",
        "value": "1619104098"
      }
    ],
    "address": [
      {
        "line": [
          "2219 W. Jefferson St."
        ],
        "city": "JOLIET",
        "state": "IL",
        "postalCode": "60435-8200"
      },
      {
        "line": [
          "5001 South Michigan Avenue"
        ],
        "city": "CHICAGO",
        "state": "IL",
        "postalCode": "60615-2112"
      },
      {
        "line": [
          "2124 Ogden Avenue",
          "Unit 201"
        ],
        "city": "AURORA",
        "state": "IL",
        "postalCode": "60504-7542"
      },
      {
        "line": [
          "800 N Logan Ave",
          "Suite 106"
        ],
        "city": "DANVILLE",
        "state": "IL",
        "postalCode": "61832-3741"
      },
      {
        "line": [
          "614 North Gilbert Street"
        ],
        "city": "DANVILLE",
        "state": "IL",
        "postalCode": "61832-3940"
      },
      {
        "line": [
          "3703 Doty Road",
          "MOB1 Suite 1"
        ],
        "city": "WOODSTOCK",
        "state": "IL",
        "postalCode": "60098-7517"
      },
      {
        "line": [
          "52 West 162nd Street"
        ],
        "city": "SOUTH HOLLAND",
        "state": "IL",
        "postalCode": "60473-2061"
      },
      {
        "line": [
          "1536 Vincennes Avenue"
        ],
        "city": "CHICAGO HEIGHTS",
        "state": "IL",
        "postalCode": "60411-3458"
      },
      {
        "line": [
          "500 Dixie Highway"
        ],
        "city": "CHICAGO HEIGHTS",
        "state": "IL",
        "postalCode": "60411-1744"
      },
      {
        "line": [
          "17850 South Kedzie Avenue",
          "Suite 1150"
        ],
        "city": "HAZEL CREST",
        "state": "IL",
        "postalCode": "60429-2058"
      },
      {
        "line": [
          "1401 E. State St",
          "Suite 3000"
        ],
        "city": "ROCKFORD",
        "state": "IL",
        "postalCode": "61104-2315"
      },
      {
        "line": [
          "1760 West Algonquin Road",
          "Suite 100"
        ],
        "city": "PALATINE",
        "state": "IL",
        "postalCode": "60067-4791"
      },
      {
        "line": [
          "1200 Eagle Street"
        ],
        "city": "JOLIET",
        "state": "IL",
        "postalCode": "60432-2010"
      },
      {
        "line": [
          "120 East Court Street"
        ],
        "city": "TOULON",
        "state": "IL",
        "postalCode": "61483-5388"
      },
      {
        "line": [
          "3003 Wakefield Drive"
        ],
        "city": "CARPENTERSVILLE",
        "state": "IL",
        "postalCode": "60110-2422"
      },
      {
        "line": [
          "420 NE Glen Oak Ave",
          "1st Floor"
        ],
        "city": "PEORIA",
        "state": "IL",
        "postalCode": "61603-3106"
      },
      {
        "line": [
          "3528 East 118th Street"
        ],
        "city": "CHICAGO",
        "state": "IL",
        "postalCode": "60617-7314"
      },
      {
        "line": [
          "1401 E State St",
          "Suite 3000"
        ],
        "city": "ROCKFORD",
        "state": "IL",
        "postalCode": "61104-2315"
      },
      {
        "line": [
          "233 West Joe Orr Road",
          "South Building"
        ],
        "city": "CHICAGO HEIGHTS",
        "state": "IL",
        "postalCode": "60411-1744"
      },
      {
        "line": [
          "3703 Doty Road",
          "MOB 1 Suite 1"
        ],
        "city": "WOODSTOCK",
        "state": "IL",
        "postalCode": "60098-7517"
      },
      {
        "line": [
          "1777 East Court Street"
        ],
        "city": "KANKAKEE",
        "state": "IL",
        "postalCode": "60901-2670"
      }
    ],
    "extension": [
      {
        "url": "https://fhir.athena.io/StructureDefinition/ah-practice",
        "valueReference": {
          "reference": "Organization/a-1.Practice-13826"
        }
      },
      {
        "url": "https://fhir.athena.io/StructureDefinition/ah-brand",
        "valueReference": {
          "reference": "Organization/a-13826.Brand-4"
        }
      }
    ]
  },
  "fullUrl": "urn:uuid:19bd10fb-e451-56de-8517-99ad88571d36"
}