{
  "resource": {
    "resourceType": "Organization",
    "id": "077ff0d1-840e-51ec-9f73-b723af50c8b9",
    "name": "Pathway to Wellness HealthCare Center",
    "endpoint": [
      {
        "reference": "Endpoint/27a4e967-47aa-5a9c-a572-b8297ee268a2"
      },
      {
        "reference": "Endpoint/83dc0a9f-c8c5-51fb-8346-b96b07cb0c6f"
      }
    ],
    "identifier": [
      {
        "system": "http://hl7.org/fhir/sid/us-npi",
        "value": "1265040380"
      }
    ],
    "address": [
      {
        "line": [
          "2902 LYNDHURST AVE"
        ],
        "city": "BALTIMORE",
        "state": "MD",
        "postalCode": "21216-1733"
      },
      {
        "line": [
          "1803 AIKEN ST"
        ],
        "city": "BALTIMORE",
        "state": "MD",
        "postalCode": "21213-2201"
      },
      {
        "line": [
          "3333 WINDSOR AVE"
        ],
        "city": "BALTIMORE",
        "state": "MD",
        "postalCode": "21216-2617"
      },
      {
        "line": [
          "7902 BELAIR RD"
        ],
        "city": "NOTTINGHAM",
        "state": "MD",
        "postalCode": "21236-3728"
      },
      {
        "line": [
          "3123 WOODHOME AVE"
        ],
        "city": "PARKVILLE",
        "state": "MD",
        "postalCode": "21234-7809"
      },
      {
        "line": [
          "3120 GREENMEAD RD"
        ],
        "city": "WINDSOR MILL",
        "state": "MD",
        "postalCode": "21244-1132"
      },
      {
        "line": [
          "4601 BOWLEYS LN"
        ],
        "city": "BALTIMORE",
        "state": "MD",
        "postalCode": "21206-6642"
      },
      {
        "line": [
          "507 NORMANDY AVE"
        ],
        "city": "BALTIMORE",
        "state": "MD",
        "postalCode": "21229-2955"
      },
      {
        "line": [
          "6507 Baltimore Ave"
        ],
        "city": "DUNDALK",
        "state": "MD",
        "postalCode": "21222-4002"
      },
      {
        "line": [
          "4303 LIBERTY HEIGHTS AVE"
        ],
        "city": "GWYNN OAK",
        "state": "MD",
        "postalCode": "21207-7551"
      },
      {
        "line": [
          "5502 ARABIA AVE"
        ],
        "city": "BALTIMORE",
        "state": "MD",
        "postalCode": "21214-2306"
      },
      {
        "line": [
          "2412 W LANVALE ST"
        ],
        "city": "BALTIMORE",
        "state": "MD",
        "postalCode": "21216-4846"
      },
      {
        "line": [
          "4511 MAINE AVE"
        ],
        "city": "GWYNN OAK",
        "state": "MD",
        "postalCode": "21207-7566"
      },
      {
        "line": [
          "1120 N CHARLES ST",
          "STE 400"
        ],
        "city": "BALTIMORE",
        "state": "MD",
        "postalCode": "21201-5594"
      },
      {
        "line": [
          "4408 FURLEY AVE"
        ],
        "city": "BALTIMORE",
        "state": "MD",
        "postalCode": "21206-5737"
      },
      {
        "line": [
          "2732 PELHAM AVE"
        ],
        "city": "BALTIMORE",
        "state": "MD",
        "postalCode": "21213-1119"
      },
      {
        "line": [
          "4205 PENHURST AVE"
        ],
        "city": "BALTIMORE",
        "state": "MD",
        "postalCode": "21215-4835"
      },
      {
        "line": [
          "8611 CHURCH LN"
        ],
        "city": "RANDALLSTOWN",
        "state": "MD",
        "postalCode": "21133-4632"
      },
      {
        "line": [
          "3412 MENLO DR"
        ],
        "city": "BALTIMORE",
        "state": "MD",
        "postalCode": "21215-3828"
      },
      {
        "line": [
          "105 DIHEDRAL DR"
        ],
        "city": "MIDDLE RIVER",
        "state": "MD",
        "postalCode": "21220-4634"
      },
      {
        "line": [
          "424 MAIN ST"
        ],
        "city": "REISTERSTOWN",
        "state": "MD",
        "postalCode": "21136-1906"
      },
      {
        "line": [
          "3415 WABASH AVE"
        ],
        "city": "BALTIMORE",
        "state": "MD",
        "postalCode": "21215-7431"
      },
      {
        "line": [
          "2633 GROGAN AVE"
        ],
        "city": "BALTIMORE",
        "state": "MD",
        "postalCode": "21213-3764"
      },
      {
        "line": [
          "6007 Sefton Ave"
        ],
        "city": "BALTIMORE",
        "state": "MD",
        "postalCode": "21214-0300"
      },
      {
        "line": [
          "422 LYNDHURST ST"
        ],
        "city": "BALTIMORE",
        "state": "MD",
        "postalCode": "21229-2953"
      },
      {
        "line": [
          "4200 EDMONDSON AVE"
        ],
        "city": "BALTIMORE",
        "state": "MD",
        "postalCode": "21229-1612"
      },
      {
        "line": [
          "4101 KATHLAND AVE"
        ],
        "city": "GWYNN OAK",
        "state": "MD",
        "postalCode": "21207-7418"
      },
      {
        "line": [
          "5813 EURITH AVE"
        ],
        "city": "BALTIMORE",
        "state": "MD",
        "postalCode": "21206-2736"
      },
      {
        "line": [
          "1120 N CHARLES ST STE 409"
        ],
        "city": "BALTIMORE",
        "state": "MD",
        "postalCode": "21201-5594"
      },
      {
        "line": [
          "620 GLENWOOD AVE"
        ],
        "city": "BALTIMORE",
        "state": "MD",
        "postalCode": "21212-4232"
      },
      {
        "line": [
          "3635 GREENMOUNT AVE"
        ],
        "city": "BALTIMORE",
        "state": "MD",
        "postalCode": "21218-2511"
      },
      {
        "line": [
          "6900 SCHISSLER AVE"
        ],
        "city": "Woodlawn",
        "state": "MD",
        "postalCode": "21207-4476"
      },
      {
        "line": [
          "5306 VALIQUET AVE"
        ],
        "city": "BALTIMORE",
        "state": "MD",
        "postalCode": "21206-3252"
      },
      {
        "line": [
          "3410 MENLO DR"
        ],
        "city": "BALTIMORE",
        "state": "MD",
        "postalCode": "21215-3828"
      }
    ],
    "extension": [
      {
        "url": "https://fhir.athena.io/StructureDefinition/ah-practice",
        "valueReference": {
          "reference": "Organization/a-1.Practice-22883"
        }
      },
      {
        "url": "https://fhir.athena.io/StructureDefinition/ah-brand",
        "valueReference": {
          "reference": "Organization/a-22883.Brand-1"
        }
      }
    ]
  },
  "fullUrl": "urn:uuid:077ff0d1-840e-51ec-9f73-b723af50c8b9"
}