{
  "resource": {
    "resourceType": "Organization",
    "id": "ec2945da-de2b-539d-bc11-6e138dbc839d",
    "name": "YMCA of Greater Cleveland",
    "endpoint": [
      {
        "reference": "Endpoint/27a4e967-47aa-5a9c-a572-b8297ee268a2"
      },
      {
        "reference": "Endpoint/abb5f7d5-468e-5806-be46-fb2282afef02"
      }
    ],
    "identifier": [
      {
        "system": "http://hl7.org/fhir/sid/us-npi",
        "value": "1295075018"
      }
    ],
    "address": [
      {
        "line": [
          "300 North Commons Blvd."
        ],
        "city": "CLEVELAND",
        "state": "OH",
        "postalCode": "44143-1589"
      },
      {
        "line": [
          "100 Avon Belden Rd."
        ],
        "city": "AVON LAKE",
        "state": "OH",
        "postalCode": "44012-1606"
      },
      {
        "line": [
          "1205 Broadway"
        ],
        "city": "LORAIN",
        "state": "OH",
        "postalCode": "44052-3409"
      },
      {
        "line": [
          "127 Park Place"
        ],
        "city": "WELLINGTON",
        "state": "OH",
        "postalCode": "44090-1339"
      },
      {
        "line": [
          "263 W. Prospect Rd."
        ],
        "city": "ASHTABULA",
        "state": "OH",
        "postalCode": "44004-5841"
      },
      {
        "line": [
          "15501 Lorain Ave"
        ],
        "city": "CLEVELAND",
        "state": "OH",
        "postalCode": "44111-5539"
      },
      {
        "line": [
          "285 S. Professor St."
        ],
        "city": "OBERLIN",
        "state": "OH",
        "postalCode": "44074-1581"
      },
      {
        "line": [
          "6805 Lear Nagle Rd."
        ],
        "city": "NORTH RIDGEVILLE",
        "state": "OH",
        "postalCode": "44039-3235"
      },
      {
        "line": [
          "7300 State Rd"
        ],
        "city": "CLEVELAND",
        "state": "OH",
        "postalCode": "44134-4906"
      },
      {
        "line": [
          "11409 State Road"
        ],
        "city": "NORTH ROYALTON",
        "state": "OH",
        "postalCode": "44133-3262"
      },
      {
        "line": [
          "5000 Mayfield Road"
        ],
        "city": "CLEVELAND",
        "state": "OH",
        "postalCode": "44124-2605"
      },
      {
        "line": [
          "1173 N. Ridge Rd. E."
        ],
        "city": "LORAIN",
        "state": "OH",
        "postalCode": "44055-3032"
      },
      {
        "line": [
          "1653 S. Main St."
        ],
        "city": "OBERLIN",
        "state": "OH",
        "postalCode": "44074-1773"
      },
      {
        "line": [
          "2010 Recreational Lane"
        ],
        "city": "AVON",
        "state": "OH",
        "postalCode": "44011-1234"
      },
      {
        "line": [
          "9464 Saw Mill Dr."
        ],
        "city": "NORTH RIDGEVILLE",
        "state": "OH",
        "postalCode": "44039-9718"
      },
      {
        "line": [
          "7001 W. Ridgewood Dr"
        ],
        "city": "CLEVELAND",
        "state": "OH",
        "postalCode": "44129-6922"
      },
      {
        "line": [
          "151 Commerce Drive"
        ],
        "city": "WELLINGTON",
        "state": "OH",
        "postalCode": "44090-8947"
      },
      {
        "line": [
          "1821 Middle Ave."
        ],
        "city": "ELYRIA",
        "state": "OH",
        "postalCode": "44035-7830"
      },
      {
        "line": [
          "1301 E. 9th St."
        ],
        "city": "CLEVELAND",
        "state": "OH",
        "postalCode": "44114-1804"
      },
      {
        "line": [
          "2800 Pearl Ave."
        ],
        "city": "LORAIN",
        "state": "OH",
        "postalCode": "44055-1821"
      },
      {
        "line": [
          "4433 Northfield Road"
        ],
        "city": "CLEVELAND",
        "state": "OH",
        "postalCode": "44128-4603"
      },
      {
        "line": [
          "233 Bond St."
        ],
        "city": "ELYRIA",
        "state": "OH",
        "postalCode": "44035-3507"
      },
      {
        "line": [
          "47160 Hollstein Dr."
        ],
        "city": "AMHERST",
        "state": "OH",
        "postalCode": "44001-3338"
      },
      {
        "line": [
          "6300 Wilson Mills Rd."
        ],
        "city": "CLEVELAND",
        "state": "OH",
        "postalCode": "44143-2109"
      },
      {
        "line": [
          "320 Aldrich Road"
        ],
        "city": "VERMILION",
        "state": "OH",
        "postalCode": "44089-2286"
      },
      {
        "line": [
          "807 West Ave."
        ],
        "city": "ELYRIA",
        "state": "OH",
        "postalCode": "44035-5898"
      },
      {
        "line": [
          "16915 Detroit Avenue"
        ],
        "city": "LAKEWOOD",
        "state": "OH",
        "postalCode": "44107-3620"
      },
      {
        "line": [
          "631 Babbit Road"
        ],
        "city": "EUCLID",
        "state": "OH",
        "postalCode": "44123-2025"
      },
      {
        "line": [
          "12460 Bass Lake Road"
        ],
        "city": "CHARDON",
        "state": "OH",
        "postalCode": "44024-8315"
      },
      {
        "line": [
          "14100 Cedar Rd"
        ],
        "city": "CLEVELAND",
        "state": "OH",
        "postalCode": "44121-3236"
      },
      {
        "line": [
          "1575 Columbia Road"
        ],
        "city": "WESTLAKE",
        "state": "OH",
        "postalCode": "44145-2497"
      },
      {
        "line": [
          "1801 Superior Ave., #130"
        ],
        "city": "CLEVELAND",
        "state": "OH",
        "postalCode": "44114-1234"
      }
    ],
    "extension": [
      {
        "url": "https://fhir.athena.io/StructureDefinition/ah-practice",
        "valueReference": {
          "reference": "Organization/a-1.Practice-14268"
        }
      },
      {
        "url": "https://fhir.athena.io/StructureDefinition/ah-brand",
        "valueReference": {
          "reference": "Organization/a-14268.Brand-1"
        }
      }
    ]
  },
  "fullUrl": "urn:uuid:ec2945da-de2b-539d-bc11-6e138dbc839d"
}