{
  "resource": {
    "resourceType": "Organization",
    "id": "20bd0d70-85c9-509a-a2d5-4b7830fbf444",
    "name": "MILLENNIUM PHYSICIAN GROUP",
    "endpoint": [
      {
        "reference": "Endpoint/27a4e967-47aa-5a9c-a572-b8297ee268a2"
      },
      {
        "reference": "Endpoint/7d30c303-1b17-5d05-889b-1e439223a9bd"
      }
    ],
    "identifier": [
      {
        "system": "http://hl7.org/fhir/sid/us-npi",
        "value": "1023733359"
      },
      {
        "system": "http://hl7.org/fhir/sid/us-npi",
        "value": "1538883111"
      },
      {
        "system": "http://hl7.org/fhir/sid/us-npi",
        "value": "1134739089"
      },
      {
        "system": "http://hl7.org/fhir/sid/us-npi",
        "value": "1396481255"
      },
      {
        "system": "http://hl7.org/fhir/sid/us-npi",
        "value": "1811122880"
      },
      {
        "system": "http://hl7.org/fhir/sid/us-npi",
        "value": "1568169845"
      },
      {
        "system": "http://hl7.org/fhir/sid/us-npi",
        "value": "1730804477"
      },
      {
        "system": "http://hl7.org/fhir/sid/us-npi",
        "value": "1578284246"
      },
      {
        "system": "http://hl7.org/fhir/sid/us-npi",
        "value": "1831804699"
      },
      {
        "system": "http://hl7.org/fhir/sid/us-npi",
        "value": "1962112326"
      },
      {
        "system": "http://hl7.org/fhir/sid/us-npi",
        "value": "1871218511"
      },
      {
        "system": "http://hl7.org/fhir/sid/us-npi",
        "value": "1366162885"
      },
      {
        "system": "http://hl7.org/fhir/sid/us-npi",
        "value": "1245950757"
      },
      {
        "system": "http://hl7.org/fhir/sid/us-npi",
        "value": "1285344150"
      }
    ],
    "address": [
      {
        "line": [
          "8354 Northfield Blvd",
          "Suite 3700"
        ],
        "city": "DENVER",
        "state": "CO",
        "postalCode": "80238-3135"
      },
      {
        "line": [
          "4720 Salisbury Rd"
        ],
        "city": "JACKSONVILLE",
        "state": "FL",
        "postalCode": "32256-6101"
      },
      {
        "line": [
          "111 W PORT PLZ",
          "6TH FL"
        ],
        "city": "SAINT LOUIS",
        "state": "MO",
        "postalCode": "63146-3011"
      },
      {
        "line": [
          "708 MAIN ST FL 10"
        ],
        "city": "HOUSTON",
        "state": "TX",
        "postalCode": "77002-3246"
      },
      {
        "line": [
          "2675 WINKLER AVE",
          "FL 2"
        ],
        "city": "FORT MYERS",
        "state": "FL",
        "postalCode": "33901-9342"
      },
      {
        "line": [
          "16081 DOCTORS BLVD"
        ],
        "city": "HAMMOND",
        "state": "LA",
        "postalCode": "70403-1479"
      },
      {
        "line": [
          "50 Fountain Plaza",
          "Suite 1400"
        ],
        "city": "BUFFALO",
        "state": "NY",
        "postalCode": "14202-2215"
      },
      {
        "line": [
          "2810 Crossroads Dr",
          "Suite 4000"
        ],
        "city": "MADISON",
        "state": "WI",
        "postalCode": "53718-8014"
      },
      {
        "line": [
          "1253 Canyon Rd, STE 15"
        ],
        "city": "MORGANTOWN",
        "state": "WV",
        "postalCode": "26508-9273"
      },
      {
        "line": [
          "222 S Main St",
          "5th Fl"
        ],
        "city": "SALT LAKE CITY",
        "state": "UT",
        "postalCode": "84101-2185"
      },
      {
        "line": [
          "140 E Ridgewood Ave",
          "Suite 415"
        ],
        "city": "PARAMUS",
        "state": "NJ",
        "postalCode": "07652-3915"
      },
      {
        "line": [
          "500 Marquette Ave NW",
          "Suite 1200"
        ],
        "city": "ALBUQUERQUE",
        "state": "NM",
        "postalCode": "87102-5312"
      },
      {
        "line": [
          "708 MAIN ST FL 10"
        ],
        "city": "HOUSTON",
        "state": "TX",
        "postalCode": "77002-3208"
      },
      {
        "line": [
          "2700 CORPORATE DR STE 200"
        ],
        "city": "BIRMINGHAM",
        "state": "AL",
        "postalCode": "35242-2733"
      },
      {
        "line": [
          "5410 MARYLAND WAY"
        ],
        "city": "BRENTWOOD",
        "state": "TN",
        "postalCode": "37027-5064"
      },
      {
        "line": [
          "1200 G St NW",
          "Suite 800"
        ],
        "city": "WASHINGTON",
        "state": "DC",
        "postalCode": "20005-6705"
      },
      {
        "line": [
          "397 HIGHWAY 21",
          "STE 602"
        ],
        "city": "MADISONVILLE",
        "state": "LA",
        "postalCode": "70447-3407"
      },
      {
        "line": [
          "143 War Horse Place"
        ],
        "city": "HOUMA",
        "state": "LA",
        "postalCode": "70360-1736"
      },
      {
        "line": [
          "128 MILLPORT CIR",
          "SUITE 200"
        ],
        "city": "GREENVILLE",
        "state": "SC",
        "postalCode": "29607-5573"
      },
      {
        "line": [
          "2400 ANSYS DR",
          "SUITE 102"
        ],
        "city": "CANONSBURG",
        "state": "PA",
        "postalCode": "15317-0403"
      },
      {
        "line": [
          "7500 College Blvd",
          "5th Floor"
        ],
        "city": "OVERLAND PARK",
        "state": "KS",
        "postalCode": "66210-4043"
      },
      {
        "line": [
          "170 GREENBRIER BLVD"
        ],
        "city": "COVINGTON",
        "state": "LA",
        "postalCode": "70433-7233"
      },
      {
        "line": [
          "5410 Maryland Way",
          "Suite 301"
        ],
        "city": "BRENTWOOD",
        "state": "TN",
        "postalCode": "37027-5064"
      },
      {
        "line": [
          "615 St George Sq Ct",
          "Suite 300"
        ],
        "city": "WINSTON SALEM",
        "state": "NC",
        "postalCode": "27103-1368"
      },
      {
        "line": [
          "724 Washington St"
        ],
        "city": "FRANKLINTON",
        "state": "LA",
        "postalCode": "70438-1790"
      },
      {
        "line": [
          "5410 MARYLAND WAY STE 301"
        ],
        "city": "BRENTWOOD",
        "state": "TN",
        "postalCode": "37027-5339"
      },
      {
        "line": [
          "333 City Blvd W",
          "Suite 362"
        ],
        "city": "ORANGE",
        "state": "CA",
        "postalCode": "92868-2972"
      },
      {
        "line": [
          "2900 WESTFORK DRIVE",
          "STE 401"
        ],
        "city": "BATON ROUGE",
        "state": "LA",
        "postalCode": "70827-0004"
      },
      {
        "line": [
          "3300 HENRY AVE # 4"
        ],
        "city": "PHILADELPHIA",
        "state": "PA",
        "postalCode": "19129-1141"
      },
      {
        "line": [
          "101 Park Ave",
          "Suite 1300"
        ],
        "city": "OKLAHOMA CITY",
        "state": "OK",
        "postalCode": "73102-7216"
      },
      {
        "line": [
          "2900 WESTFORK DR",
          "STE 401"
        ],
        "city": "BATON ROUGE",
        "state": "LA",
        "postalCode": "70827-0004"
      },
      {
        "line": [
          "1000 HIGHLAND COLONY PKWY",
          "BLDG 5000 SUITE 5203"
        ],
        "city": "RIDGELAND",
        "state": "MS",
        "postalCode": "39157-2079"
      },
      {
        "line": [
          "200 Continental Dr",
          "Suite 401"
        ],
        "city": "NEWARK",
        "state": "DE",
        "postalCode": "19713-4337"
      },
      {
        "line": [
          "800 POINT ST"
        ],
        "city": "HOUMA",
        "state": "LA",
        "postalCode": "70360-4743"
      },
      {
        "line": [
          "4620 E 53rd St",
          "Suite 200"
        ],
        "city": "DAVENPORT",
        "state": "IA",
        "postalCode": "52807-3627"
      },
      {
        "line": [
          "301 MAIN ST STE 2200",
          "Downtown"
        ],
        "city": "BATON ROUGE",
        "state": "LA",
        "postalCode": "70801-0014"
      },
      {
        "line": [
          "4720 SALISBURY RD"
        ],
        "city": "JACKSONVILLE",
        "state": "FL",
        "postalCode": "32256-6101"
      },
      {
        "line": [
          "2900 WESTFORK DRIVE",
          "STE 401"
        ],
        "city": "BATON ROUGE",
        "state": "LA",
        "postalCode": "70827-0010"
      },
      {
        "line": [
          "207 W MULBERRY ST"
        ],
        "city": "AMITE",
        "state": "LA",
        "postalCode": "70422-2409"
      },
      {
        "line": [
          "5410 Maryland Way",
          "STE 301"
        ],
        "city": "BRENTWOOD",
        "state": "TN",
        "postalCode": "37027-5064"
      },
      {
        "line": [
          "1603 Capitol Ave",
          "Suite 403"
        ],
        "city": "CHEYENNE",
        "state": "WY",
        "postalCode": "82001-4562"
      },
      {
        "line": [
          "1253 Canyon Rd"
        ],
        "city": "MORGANTOWN",
        "state": "WV",
        "postalCode": "26508-9273"
      },
      {
        "line": [
          "707 GRAND CAILLOU RD"
        ],
        "city": "HOUMA",
        "state": "LA",
        "postalCode": "70363-2800"
      },
      {
        "line": [
          "42286 VETERANS AVE"
        ],
        "city": "HAMMOND",
        "state": "LA",
        "postalCode": "70403-1423"
      },
      {
        "line": [
          "101 S Reid St",
          "Suite 307"
        ],
        "city": "SIOUX FALLS",
        "state": "SD",
        "postalCode": "57103-7045"
      }
    ],
    "extension": [
      {
        "url": "https://fhir.athena.io/StructureDefinition/ah-practice",
        "valueReference": {
          "reference": "Organization/a-1.Practice-22854"
        }
      },
      {
        "url": "https://fhir.athena.io/StructureDefinition/ah-brand",
        "valueReference": {
          "reference": "Organization/a-22854.Brand-1"
        }
      }
    ]
  },
  "fullUrl": "urn:uuid:20bd0d70-85c9-509a-a2d5-4b7830fbf444"
}