{
  "resource": {
    "resourceType": "Organization",
    "id": "64bc2412-0f49-5ebc-bbc2-369b89193d6b",
    "name": "Pine Park Health Clinic",
    "endpoint": [
      {
        "reference": "Endpoint/27a4e967-47aa-5a9c-a572-b8297ee268a2"
      },
      {
        "reference": "Endpoint/b991b314-0814-5e7b-802c-d5b9ed88db81"
      }
    ],
    "identifier": [
      {
        "system": "http://hl7.org/fhir/sid/us-npi",
        "value": "1346879848"
      }
    ],
    "address": [
      {
        "line": [
          "38801 Hastings St"
        ],
        "city": "FREMONT",
        "state": "CA",
        "postalCode": "94536-6176"
      },
      {
        "line": [
          "2235 Sacramento St"
        ],
        "city": "BERKELEY",
        "state": "CA",
        "postalCode": "94702-1968"
      },
      {
        "line": [
          "1450 Post St"
        ],
        "city": "San Francisco",
        "state": "CA",
        "postalCode": "94109-6500"
      },
      {
        "line": [
          "1400 Geary Blvd"
        ],
        "city": "SAN FRANCISCO",
        "state": "CA",
        "postalCode": "94109-6561"
      },
      {
        "line": [
          "21000 Mission Blvd"
        ],
        "city": "HAYWARD",
        "state": "CA",
        "postalCode": "94541-1817"
      },
      {
        "line": [
          "16 Coleman Pl"
        ],
        "city": "MENLO PARK",
        "state": "CA",
        "postalCode": "94025-2406"
      },
      {
        "line": [
          "830 Tamalpais Ave"
        ],
        "city": "NOVATO",
        "state": "CA",
        "postalCode": "94947-3012"
      },
      {
        "line": [
          "3950 Lone Tree Way"
        ],
        "city": "ANTIOCH",
        "state": "CA",
        "postalCode": "94509-6271"
      },
      {
        "line": [
          "73 Golden Hinde Blvd"
        ],
        "city": "SAN RAFAEL",
        "state": "CA",
        "postalCode": "94903-3848"
      },
      {
        "line": [
          "91 Napa Rd"
        ],
        "city": "SONOMA",
        "state": "CA",
        "postalCode": "95476-7691"
      },
      {
        "line": [
          "1111 Sir Francis Drake Blvd"
        ],
        "city": "Kentfield",
        "state": "CA",
        "postalCode": "94904-1418"
      },
      {
        "line": [
          "3431 Foothill Blvd"
        ],
        "city": "OAKLAND",
        "state": "CA",
        "postalCode": "94601-3172"
      },
      {
        "line": [
          "147 Crescent Ave"
        ],
        "city": "SUNNYVALE",
        "state": "CA",
        "postalCode": "94087-2723"
      },
      {
        "line": [
          "345 Davis St, #2795"
        ],
        "city": "SAN LEANDRO",
        "state": "CA",
        "postalCode": "94577-2796"
      },
      {
        "line": [
          "3121 FRUITVALE AVENUE"
        ],
        "city": "OAKLAND",
        "state": "CA",
        "postalCode": "94602-2112"
      },
      {
        "line": [
          "1960 W Lowell Ave"
        ],
        "city": "TRACY",
        "state": "CA",
        "postalCode": "95376-2239"
      },
      {
        "line": [
          "777 Montecillo Rd"
        ],
        "city": "SAN RAFAEL",
        "state": "CA",
        "postalCode": "94903-3135"
      },
      {
        "line": [
          "1081 Mohr Ln"
        ],
        "city": "CONCORD",
        "state": "CA",
        "postalCode": "94518-3757"
      },
      {
        "line": [
          "3121 FRUITVALE AVE"
        ],
        "city": "FAIRFIELD",
        "state": "CA",
        "postalCode": "94534-4249"
      },
      {
        "line": [
          "9199 Fircrest Lane"
        ],
        "city": "SAN RAMON",
        "state": "CA",
        "postalCode": "94583-4146"
      },
      {
        "line": [
          "700 Laurel Drive"
        ],
        "city": "OAKDALE",
        "state": "CA",
        "postalCode": "95361-2555"
      },
      {
        "line": [
          "501 via casitas ave"
        ],
        "city": "GREENBRAE",
        "state": "CA",
        "postalCode": "94904-1901"
      },
      {
        "line": [
          "4225 Wayvern Dr"
        ],
        "city": "SANTA ROSA",
        "state": "CA",
        "postalCode": "95409-7108"
      },
      {
        "line": [
          "23950 Mission Blvd"
        ],
        "city": "HAYWARD",
        "state": "CA",
        "postalCode": "94544-1002"
      },
      {
        "line": [
          "1 Thomas More Way"
        ],
        "city": "SAN FRANCISCO",
        "state": "CA",
        "postalCode": "94132-2914"
      },
      {
        "line": [
          "1110 Cass St"
        ],
        "city": "MONTEREY",
        "state": "CA",
        "postalCode": "93940-4510"
      },
      {
        "line": [
          "4855 San Felipe Rd"
        ],
        "city": "SAN JOSE",
        "state": "CA",
        "postalCode": "95135-1287"
      },
      {
        "line": [
          "1768 B St"
        ],
        "city": "HAYWARD",
        "state": "CA",
        "postalCode": "94541-3102"
      },
      {
        "line": [
          "515 Northgate Dr"
        ],
        "city": "SAN RAFAEL",
        "state": "CA",
        "postalCode": "94903-3611"
      },
      {
        "line": [
          "5555 Paradise Dr"
        ],
        "city": "CORTE MADERA",
        "state": "CA",
        "postalCode": "94925-1003"
      },
      {
        "line": [
          "598 Kernberry Dr"
        ],
        "city": "SAN RAFAEL",
        "state": "CA",
        "postalCode": "94903-1242"
      },
      {
        "line": [
          "245 Nova Albion Way"
        ],
        "city": "SAN RAFAEL",
        "state": "CA",
        "postalCode": "94903-3539"
      },
      {
        "line": [
          "1881 Bush Street"
        ],
        "city": "SAN FRANCISCO",
        "state": "CA",
        "postalCode": "94109-5285"
      },
      {
        "line": [
          "1660 Oak Park Blvd"
        ],
        "city": "PLEASANT HILL",
        "state": "CA",
        "postalCode": "94523-0171"
      },
      {
        "line": [
          "501 Portola Rd"
        ],
        "city": "PORTOLA VALLEY",
        "state": "CA",
        "postalCode": "94028-7654"
      },
      {
        "line": [
          "2361 E 29th St"
        ],
        "city": "OAKLAND",
        "state": "CA",
        "postalCode": "94606-3511"
      },
      {
        "line": [
          "165 Lennon Ln, Suite 105"
        ],
        "city": "WALNUT CREEK",
        "state": "CA",
        "postalCode": "94598-2409"
      },
      {
        "line": [
          "27350 Tampa Ave"
        ],
        "city": "HAYWARD",
        "state": "CA",
        "postalCode": "94544-4429"
      },
      {
        "line": [
          "4500 Gilbert St"
        ],
        "city": "OAKLAND",
        "state": "CA",
        "postalCode": "94611-4657"
      },
      {
        "line": [
          "140 Glen Cove Marina Rd"
        ],
        "city": "VALLEJO",
        "state": "CA",
        "postalCode": "94591-7286"
      },
      {
        "line": [
          "1320 Padre Drive"
        ],
        "city": "SALINAS",
        "state": "CA",
        "postalCode": "93901-2142"
      },
      {
        "line": [
          "40 Orange Tree Circle"
        ],
        "city": "VACAVILLE",
        "state": "CA",
        "postalCode": "95687-3137"
      },
      {
        "line": [
          "2456 Geary Blvd"
        ],
        "city": "SAN FRANCISCO",
        "state": "CA",
        "postalCode": "94115-3317"
      }
    ],
    "extension": [
      {
        "url": "https://fhir.athena.io/StructureDefinition/ah-practice",
        "valueReference": {
          "reference": "Organization/a-1.Practice-21048"
        }
      },
      {
        "url": "https://fhir.athena.io/StructureDefinition/ah-brand",
        "valueReference": {
          "reference": "Organization/a-21048.Brand-1"
        }
      }
    ]
  },
  "fullUrl": "urn:uuid:64bc2412-0f49-5ebc-bbc2-369b89193d6b"
}