{
  "resource": {
    "resourceType": "Organization",
    "id": "e5b94bc8-e6aa-5890-8c70-c14e10992e82",
    "name": "National Church Residences Permanent Supportive Ho",
    "endpoint": [
      {
        "reference": "Endpoint/27a4e967-47aa-5a9c-a572-b8297ee268a2"
      },
      {
        "reference": "Endpoint/b2eb299e-6311-5f9e-a5ee-8a5a8a29bca1"
      }
    ],
    "identifier": [
      {
        "system": "http://hl7.org/fhir/sid/us-npi",
        "value": "1003184367"
      }
    ],
    "address": [
      {
        "line": [
          "398 S. Grant Street"
        ],
        "city": "COLUMBUS",
        "state": "OH",
        "postalCode": "43215-5549"
      },
      {
        "line": [
          "5500 Millersfield Drive"
        ],
        "city": "COLUMBUS",
        "state": "OH",
        "postalCode": "43232-7758"
      },
      {
        "line": [
          "650 Van Buren Drive"
        ],
        "city": "COLUMBUS",
        "state": "OH",
        "postalCode": "43223-7501"
      },
      {
        "line": [
          "1065 Garden Lake Parkway"
        ],
        "city": "TOLEDO",
        "state": "OH",
        "postalCode": "43614-2800"
      },
      {
        "line": [
          "1280 Norton Avenue"
        ],
        "city": "COLUMBUS",
        "state": "OH",
        "postalCode": "43212-3125"
      },
      {
        "line": [
          "328 Buckingham Street"
        ],
        "city": "COLUMBUS",
        "state": "OH",
        "postalCode": "43215-2177"
      },
      {
        "line": [
          "355 Peachtree Street NW"
        ],
        "city": "ATLANTA",
        "state": "GA",
        "postalCode": "30308-3256"
      },
      {
        "line": [
          "3349 E. Livingston Avenue"
        ],
        "city": "COLUMBUS",
        "state": "OH",
        "postalCode": "43227-1949"
      }
    ],
    "extension": [
      {
        "url": "https://fhir.athena.io/StructureDefinition/ah-practice",
        "valueReference": {
          "reference": "Organization/a-1.Practice-4416"
        }
      },
      {
        "url": "https://fhir.athena.io/StructureDefinition/ah-brand",
        "valueReference": {
          "reference": "Organization/a-4416.Brand-1"
        }
      }
    ]
  },
  "fullUrl": "urn:uuid:e5b94bc8-e6aa-5890-8c70-c14e10992e82"
}