{
  "resource": {
    "resourceType": "Organization",
    "id": "ae79b419-75bb-5d91-af93-c9c6a527f054",
    "name": "ALARIS @ FOUNTAINS NORTH",
    "endpoint": [
      {
        "reference": "Endpoint/27a4e967-47aa-5a9c-a572-b8297ee268a2"
      },
      {
        "reference": "Endpoint/e479c66b-c277-537a-8a13-921327ea8eb6"
      }
    ],
    "identifier": [
      {
        "system": "http://hl7.org/fhir/sid/us-npi",
        "value": "1518934207"
      }
    ],
    "address": [
      {
        "line": [
          "508 31ST ST"
        ],
        "city": "UNION CITY",
        "state": "NJ",
        "postalCode": "07087-3907"
      },
      {
        "line": [
          "111 CENTRAL AVE"
        ],
        "city": "NEWARK",
        "state": "NJ",
        "postalCode": "07102-1909"
      },
      {
        "line": [
          "29 E. 29TH ST"
        ],
        "city": "BAYONNE",
        "state": "NJ",
        "postalCode": "07002-4654"
      },
      {
        "line": [
          "480 Chancellor Ave"
        ],
        "city": "IRVINGTON",
        "state": "NJ",
        "postalCode": "07111-4001"
      },
      {
        "line": [
          "1 CLARA MAASS DR"
        ],
        "city": "BELLEVILLE",
        "state": "NJ",
        "postalCode": "07109-3550"
      },
      {
        "line": [
          "111 NORTHFIELD AVE",
          "SUITE 311"
        ],
        "city": "WEST ORANGE",
        "state": "NJ",
        "postalCode": "07052-4703"
      },
      {
        "line": [
          "15 CARBON PL"
        ],
        "city": "JERSEY CITY",
        "state": "NJ",
        "postalCode": "07305-5295"
      },
      {
        "line": [
          "262 broad street"
        ],
        "city": "NEWARK",
        "state": "NJ",
        "postalCode": "07104-9999"
      },
      {
        "line": [
          "554A NEW YORK AVE"
        ],
        "city": "LYNDHURST",
        "state": "NJ",
        "postalCode": "07071-1532"
      },
      {
        "line": [
          "375 Mount Pleasant Ave",
          "Suite 340"
        ],
        "city": "WEST ORANGE",
        "state": "NJ",
        "postalCode": "07052-9999"
      },
      {
        "line": [
          "595 COUNTY AVE"
        ],
        "city": "SECAUCUS",
        "state": "NJ",
        "postalCode": "07094-2605"
      }
    ],
    "extension": [
      {
        "url": "https://fhir.athena.io/StructureDefinition/ah-practice",
        "valueReference": {
          "reference": "Organization/a-1.Practice-9736"
        }
      },
      {
        "url": "https://fhir.athena.io/StructureDefinition/ah-brand",
        "valueReference": {
          "reference": "Organization/a-9736.Brand-1"
        }
      }
    ]
  },
  "fullUrl": "urn:uuid:ae79b419-75bb-5d91-af93-c9c6a527f054"
}