{
  "resource": {
    "resourceType": "Organization",
    "id": "3d66d0f7-6082-598e-93ee-58c7f8c3f6c3",
    "name": "CharterCARE Medical Associates",
    "endpoint": [
      {
        "reference": "Endpoint/27a4e967-47aa-5a9c-a572-b8297ee268a2"
      },
      {
        "reference": "Endpoint/1735f3a8-c5e1-5304-b7b0-ee1c52855733"
      }
    ],
    "identifier": [
      {
        "system": "http://hl7.org/fhir/sid/us-npi",
        "value": "1629493135"
      }
    ],
    "address": [
      {
        "line": [
          "501 Wampanog Trail",
          "Suit 102"
        ],
        "city": "EAST PROVIDENCE",
        "state": "RI",
        "postalCode": "02915-1507"
      },
      {
        "line": [
          "6 BLACKSTONE VALLEY PL",
          "STE 502"
        ],
        "city": "LINCOLN",
        "state": "RI",
        "postalCode": "02865-1102"
      },
      {
        "line": [
          "50 MAUDE STREET 4TH FLOOR"
        ],
        "city": "PROVIDENCE",
        "state": "RI",
        "postalCode": "02908-4325"
      },
      {
        "line": [
          "41 Sanderson Road",
          "Suite 206B"
        ],
        "city": "SMITHFIELD",
        "state": "RI",
        "postalCode": "02917-0263"
      },
      {
        "line": [
          "50 Maude St 4th Floor"
        ],
        "city": "PROVIDENCE",
        "state": "RI",
        "postalCode": "02908-4325"
      },
      {
        "line": [
          "1195 North Main St"
        ],
        "city": "PROVIDENCE",
        "state": "RI",
        "postalCode": "02904-1824"
      },
      {
        "line": [
          "351 Budlong Road"
        ],
        "city": "CRANSTON",
        "state": "RI",
        "postalCode": "02920-6601"
      },
      {
        "line": [
          "387 WATERMAN AVE"
        ],
        "city": "EAST PROVIDENCE",
        "state": "RI",
        "postalCode": "02914-2618"
      },
      {
        "line": [
          "857 Post Road"
        ],
        "city": "WARWICK",
        "state": "RI",
        "postalCode": "02888-3360"
      },
      {
        "line": [
          "1500 Pontiac Avenue",
          "Suite 101"
        ],
        "city": "CRANSTON",
        "state": "RI",
        "postalCode": "02920-4486"
      },
      {
        "line": [
          "106 Nate Whipple Hwy",
          "Ste 101"
        ],
        "city": "CUMBERLAND",
        "state": "RI",
        "postalCode": "02864-1403"
      },
      {
        "line": [
          "2 Wake Robin Road"
        ],
        "city": "LINCOLN",
        "state": "RI",
        "postalCode": "02865-4295"
      },
      {
        "line": [
          "335 HOPE STREET"
        ],
        "city": "PROVIDENCE",
        "state": "RI",
        "postalCode": "02906-2322"
      },
      {
        "line": [
          "466 Putnam Pike"
        ],
        "city": "GREENVILLE",
        "state": "RI",
        "postalCode": "02828-3456"
      },
      {
        "line": [
          "1407 South County Trail Ste. 432"
        ],
        "city": "EAST GREENWICH",
        "state": "RI",
        "postalCode": "02818-1652"
      },
      {
        "line": [
          "1539 Atwood Ave",
          "Suite 304"
        ],
        "city": "JOHNSTON",
        "state": "RI",
        "postalCode": "02919-3262"
      },
      {
        "line": [
          "106 Nate Whipple Hgwy Suite 204"
        ],
        "city": "CUMBERLAND",
        "state": "RI",
        "postalCode": "02864-1416"
      },
      {
        "line": [
          "825 CHALKSTONE AVE"
        ],
        "city": "PROVIDENCE",
        "state": "RI",
        "postalCode": "02908-4325"
      },
      {
        "line": [
          "725 Reservoir Avenue",
          "Suite 202"
        ],
        "city": "CRANSTON",
        "state": "RI",
        "postalCode": "02910-2829"
      },
      {
        "line": [
          "593 EDDY ST"
        ],
        "city": "PROVIDENCE",
        "state": "RI",
        "postalCode": "02903-4923"
      },
      {
        "line": [
          "50 Maude Street 3rd Floor"
        ],
        "city": "PROVIDENCE",
        "state": "RI",
        "postalCode": "02908-4325"
      },
      {
        "line": [
          "215 TOLL GATE ROAD SUITE 201"
        ],
        "city": "WARWICK",
        "state": "RI",
        "postalCode": "02886-4458"
      },
      {
        "line": [
          "82 PASCOAG MAIN ST"
        ],
        "city": "PASCOAG",
        "state": "RI",
        "postalCode": "02859-3131"
      },
      {
        "line": [
          "50 MAUDE ST"
        ],
        "city": "PROVIDENCE",
        "state": "RI",
        "postalCode": "02908-4325"
      },
      {
        "line": [
          "600 Putnam Pike Suite 1"
        ],
        "city": "Greenville",
        "state": "RI",
        "postalCode": "02828-1487"
      },
      {
        "line": [
          "1500 Pontiac Avenue"
        ],
        "city": "CRANSTON",
        "state": "RI",
        "postalCode": "02920-4486"
      },
      {
        "line": [
          "725 Reservoir Ave",
          "Suite 103"
        ],
        "city": "CRANSTON",
        "state": "RI",
        "postalCode": "02910-4451"
      },
      {
        "line": [
          "1407 South County Trail Suite 432"
        ],
        "city": "EAST GREENWICH",
        "state": "RI",
        "postalCode": "02818-1652"
      },
      {
        "line": [
          "41 SANDERSON RD, STE 202"
        ],
        "city": "SMITHFIELD",
        "state": "RI",
        "postalCode": "02917-2603"
      },
      {
        "line": [
          "One Office Parkway 1st Floor"
        ],
        "city": "EAST PROVIDENCE",
        "state": "RI",
        "postalCode": "02914-1614"
      },
      {
        "line": [
          "869 Post Road"
        ],
        "city": "WARWICK",
        "state": "RI",
        "postalCode": "02888-5026"
      },
      {
        "line": [
          "725 Reservoir Ave"
        ],
        "city": "CRANSTON",
        "state": "RI",
        "postalCode": "02910-4448"
      },
      {
        "line": [
          "50 Maude Street"
        ],
        "city": "PROVIDENCE",
        "state": "RI",
        "postalCode": "02908-4325"
      },
      {
        "line": [
          "1351 South County Trail Suite 301"
        ],
        "city": "EAST GREENWICH",
        "state": "RI",
        "postalCode": "02818-5083"
      },
      {
        "line": [
          "725 Reservoir Ave Suite 6A"
        ],
        "city": "CRANSTON",
        "state": "RI",
        "postalCode": "02910-4451"
      },
      {
        "line": [
          "1180 Hope Street"
        ],
        "city": "BRISTOL",
        "state": "RI",
        "postalCode": "02809-1126"
      },
      {
        "line": [
          "851 Main Street"
        ],
        "city": "WARREN",
        "state": "RI",
        "postalCode": "02885-4380"
      },
      {
        "line": [
          "1524 Atwood Ave Suite LL6"
        ],
        "city": "JOHNSTON",
        "state": "RI",
        "postalCode": "02919-3228"
      },
      {
        "line": [
          "869 Post Road, Warwick, RI"
        ],
        "city": "WARWICK",
        "state": "RI",
        "postalCode": "02888-2889"
      },
      {
        "line": [
          "466 Putnam Pike"
        ],
        "city": "GREENVILLE",
        "state": "RI",
        "postalCode": "02828-3360"
      },
      {
        "line": [
          "869 Post Road"
        ],
        "city": "WARWICK",
        "state": "RI",
        "postalCode": "02888-3360"
      },
      {
        "line": [
          "525 Taunton Avenue"
        ],
        "city": "EAST PROVIDENCE",
        "state": "RI",
        "postalCode": "02914-1604"
      },
      {
        "line": [
          "2 WAKE ROBIN RD STE 204"
        ],
        "city": "LINCOLN",
        "state": "RI",
        "postalCode": "02865-4241"
      },
      {
        "line": [
          "215 TOLL GATE RD",
          "STE 201"
        ],
        "city": "WARWICK",
        "state": "RI",
        "postalCode": "02886-4466"
      },
      {
        "line": [
          "450 Veterans Memorial Parkway",
          "Bldg #1"
        ],
        "city": "EAST PROVIDENCE",
        "state": "RI",
        "postalCode": "02914-5300"
      },
      {
        "line": [
          "387 Waterman Ave."
        ],
        "city": "EAST PROVIDENCE",
        "state": "RI",
        "postalCode": "02914-1643"
      },
      {
        "line": [
          "6 Blackstone Valley Place, Suite 502"
        ],
        "city": "LINCOLN",
        "state": "RI",
        "postalCode": "02865-4241"
      },
      {
        "line": [
          "1444 WARWICK AVE"
        ],
        "city": "WARWICK",
        "state": "RI",
        "postalCode": "02888-5026"
      },
      {
        "line": [
          "851 Main St"
        ],
        "city": "WARREN",
        "state": "RI",
        "postalCode": "02885-4380"
      },
      {
        "line": [
          "1407 South County Trail, Suite 432"
        ],
        "city": "EAST GREENWICH",
        "state": "RI",
        "postalCode": "02818-1652"
      },
      {
        "line": [
          "174 Armistice Blvd"
        ],
        "city": "PAWTUCKET",
        "state": "RI",
        "postalCode": "02860-3280"
      },
      {
        "line": [
          "46 Wells Street"
        ],
        "city": "WESTERLY",
        "state": "RI",
        "postalCode": "02891-2924"
      },
      {
        "line": [
          "1407 South County Trail"
        ],
        "city": "EAST GREENWICH",
        "state": "RI",
        "postalCode": "02818-1652"
      },
      {
        "line": [
          "106 Nate Whipple Highway"
        ],
        "city": "CUMBERLAND",
        "state": "RI",
        "postalCode": "02864-1403"
      },
      {
        "line": [
          "50 Maude St"
        ],
        "city": "PROVIDENCE",
        "state": "RI",
        "postalCode": "02908-4325"
      },
      {
        "line": [
          "825 CHALKSTONE AVE"
        ],
        "city": "PROVIDENCE",
        "state": "RI",
        "postalCode": "02908-4728"
      },
      {
        "line": [
          "501 Wampanoag Trail Suite 102"
        ],
        "city": "EAST PROVIDENCE",
        "state": "RI",
        "postalCode": "02914-2618"
      },
      {
        "line": [
          "1195 North Main Street"
        ],
        "city": "PROVIDENCE",
        "state": "RI",
        "postalCode": "02904-1824"
      },
      {
        "line": [
          "1524 Atwood Ave Ste 345"
        ],
        "city": "JOHNSTON",
        "state": "RI",
        "postalCode": "02919-3228"
      },
      {
        "line": [
          "41 Sanderson Rd . Suite 207"
        ],
        "city": "SMITHFIELD",
        "state": "RI",
        "postalCode": "02917-2602"
      },
      {
        "line": [
          "50 Maude St 3rd Floor"
        ],
        "city": "PROVIDENCE",
        "state": "RI",
        "postalCode": "02908-4325"
      },
      {
        "line": [
          "1 Davol Square, Suite 302"
        ],
        "city": "PROVIDENCE",
        "state": "RI",
        "postalCode": "02903-4755"
      },
      {
        "line": [
          "501 WAMPANOAG TRL",
          "Suite 102"
        ],
        "city": "East Providence",
        "state": "RI",
        "postalCode": "02915-1507"
      },
      {
        "line": [
          "6 Blackstone Valley Place, Suite 502"
        ],
        "city": "LINCOLN",
        "state": "RI",
        "postalCode": "02865-1102"
      },
      {
        "line": [
          "2 Wake Robin Road Suite 205"
        ],
        "city": "LINCOLN",
        "state": "RI",
        "postalCode": "02865-4241"
      },
      {
        "line": [
          "1524 Atwood Avenue Suite 245"
        ],
        "city": "JOHNSTON",
        "state": "RI",
        "postalCode": "02919-3228"
      },
      {
        "line": [
          "1351 South County Trail",
          "Building 3, Suite 302"
        ],
        "city": "EAST GREENWICH",
        "state": "RI",
        "postalCode": "02818-1652"
      },
      {
        "line": [
          "One Office Parkway, 2nd Floor"
        ],
        "city": "EAST PROVIDENCE",
        "state": "RI",
        "postalCode": "02914-1643"
      },
      {
        "line": [
          "1515 Smith Street"
        ],
        "city": "NORTH PROVIDENCE",
        "state": "RI",
        "postalCode": "02911-2947"
      },
      {
        "line": [
          "106 Nate Whipple Highway Suite 204"
        ],
        "city": "CUMBERLAND",
        "state": "RI",
        "postalCode": "02864-1403"
      },
      {
        "line": [
          "41 Sanderson Road Suite 207"
        ],
        "city": "SMITHFIELD",
        "state": "RI",
        "postalCode": "02917-2603"
      },
      {
        "line": [
          "400 Massasoit Ave"
        ],
        "city": "EAST PROVIDENCE",
        "state": "RI",
        "postalCode": "02914-2012"
      },
      {
        "line": [
          "466 Putnam Pike"
        ],
        "city": "GREENVILLE",
        "state": "RI",
        "postalCode": "02828-2829"
      },
      {
        "line": [
          "One Office Parkway"
        ],
        "city": "EAST PROVIDENCE",
        "state": "RI",
        "postalCode": "02914-1643"
      },
      {
        "line": [
          "41 Sanderson Road Suite 108"
        ],
        "city": "SMITHFIELD",
        "state": "RI",
        "postalCode": "02917-2603"
      },
      {
        "line": [
          "1539 Atwood Ave"
        ],
        "city": "JOHNSTON",
        "state": "RI",
        "postalCode": "02919-3262"
      },
      {
        "line": [
          "1539 Atwood Avenue Ste 201"
        ],
        "city": "JOHNSTON",
        "state": "RI",
        "postalCode": "02919-3228"
      },
      {
        "line": [
          "41 Sanderson Road STE 206A"
        ],
        "city": "SMITHFIELD",
        "state": "RI",
        "postalCode": "02917-2603"
      },
      {
        "line": [
          "50 MAUDE STREET 4th FLOOR"
        ],
        "city": "PROVIDENCE",
        "state": "RI",
        "postalCode": "02908-4325"
      },
      {
        "line": [
          "320 Phillips Street Suite 201"
        ],
        "city": "NORTH KINGSTOWN",
        "state": "RI",
        "postalCode": "02852-5149"
      },
      {
        "line": [
          "1444 Warwick Avenue"
        ],
        "city": "WARWICK",
        "state": "RI",
        "postalCode": "02888-5026"
      },
      {
        "line": [
          "1407 SOUTH COUNTY TRAIL",
          "Suite 431"
        ],
        "city": "EAST GREENWICH",
        "state": "RI",
        "postalCode": "02818-1652"
      },
      {
        "line": [
          "41 Sanderson Rd, Suite 204"
        ],
        "city": "SMITHFIELD",
        "state": "RI",
        "postalCode": "02917-0263"
      },
      {
        "line": [
          "41 Sanderson Road Suite 202"
        ],
        "city": "SMITHFIELD",
        "state": "RI",
        "postalCode": "02917-2603"
      },
      {
        "line": [
          "1351 South County Trail Suite 302",
          "Suite 302"
        ],
        "city": "EAST GREENWICH",
        "state": "RI",
        "postalCode": "02818-5083"
      },
      {
        "line": [
          "14 OLD POCASSET LANE"
        ],
        "city": "JOHNSTON",
        "state": "RI",
        "postalCode": "02919-3143"
      },
      {
        "line": [
          "41 Sanderson Rd Ste 108"
        ],
        "city": "SMITHFIELD",
        "state": "RI",
        "postalCode": "02917-2603"
      },
      {
        "line": [
          "200 HIGH SERVICE AVE"
        ],
        "city": "PROVIDENCE",
        "state": "RI",
        "postalCode": "02904-5113"
      },
      {
        "line": [
          "235 Plain Street, Suite 305"
        ],
        "city": "PROVIDENCE",
        "state": "RI",
        "postalCode": "02905-3237"
      },
      {
        "line": [
          "877 CHALKSTONE AVE"
        ],
        "city": "PROVIDENCE",
        "state": "RI",
        "postalCode": "02908-4325"
      },
      {
        "line": [
          "652 George Washington Highway",
          "2nd Floor"
        ],
        "city": "LINCOLN",
        "state": "RI",
        "postalCode": "02865-4330"
      },
      {
        "line": [
          "10 WOODLAND DRIVE"
        ],
        "city": "COVENTRY",
        "state": "RI",
        "postalCode": "02816-6716"
      },
      {
        "line": [
          "215 Toll Gate Road, Suite 201"
        ],
        "city": "WARWICK",
        "state": "RI",
        "postalCode": "02886-4458"
      },
      {
        "line": [
          "1150 Reservoir Ave",
          "Suite #203"
        ],
        "city": "CRANSTON",
        "state": "RI",
        "postalCode": "02920-9998"
      },
      {
        "line": [
          "1539 Atwood Ave",
          "Suite 201"
        ],
        "city": "JOHNSTON",
        "state": "RI",
        "postalCode": "02919-3228"
      },
      {
        "line": [
          "1050 WARWICK AVE"
        ],
        "city": "WARWICK",
        "state": "RI",
        "postalCode": "02888-3655"
      },
      {
        "line": [
          "1524 Atwood Ave, Ste 125"
        ],
        "city": "JOHNSTON",
        "state": "RI",
        "postalCode": "02919-3322"
      },
      {
        "line": [
          "725 Reservoir Ave",
          "Suite 102"
        ],
        "city": "CRANSTON",
        "state": "RI",
        "postalCode": "02910-4451"
      }
    ],
    "extension": [
      {
        "url": "https://fhir.athena.io/StructureDefinition/ah-practice",
        "valueReference": {
          "reference": "Organization/a-1.Practice-9000"
        }
      },
      {
        "url": "https://fhir.athena.io/StructureDefinition/ah-brand",
        "valueReference": {
          "reference": "Organization/a-9000.Brand-2"
        }
      }
    ]
  },
  "fullUrl": "urn:uuid:3d66d0f7-6082-598e-93ee-58c7f8c3f6c3"
}