{
  "resource": {
    "resourceType": "Organization",
    "id": "a78f0478-933c-583e-ba47-2fe0c5271087",
    "name": "BARRINGTON INTERNAL MEDICINE - RUKSANA PAPA, M.D.",
    "endpoint": [
      {
        "reference": "Endpoint/27a4e967-47aa-5a9c-a572-b8297ee268a2"
      },
      {
        "reference": "Endpoint/a938b46a-0092-55f2-8d29-fac307a77168"
      }
    ],
    "identifier": [
      {
        "system": "http://hl7.org/fhir/sid/us-npi",
        "value": "1336197771"
      }
    ],
    "address": [
      {
        "line": [
          "1700 WEST CENTRAL ROAD",
          "SUITE 40"
        ],
        "city": "ARLINGTON HEIGHTS",
        "state": "IL",
        "postalCode": "60005-2477"
      },
      {
        "line": [
          "2300 IL ROUTE 53",
          "PREVIOUSLY ARBORIA"
        ],
        "city": "LAKE ZURICH",
        "state": "IL",
        "postalCode": "60047-5309"
      },
      {
        "line": [
          "555 AMERICA COURT"
        ],
        "city": "LAKE ZURICH",
        "state": "IL",
        "postalCode": "60047-2677"
      },
      {
        "line": [
          "21840 West Lake Cook"
        ],
        "city": "Deer Park",
        "state": "IL",
        "postalCode": "60010-3656"
      },
      {
        "line": [
          "21840 WEST LAKE COOK RD"
        ],
        "city": "DEER PARK",
        "state": "IL",
        "postalCode": "60010-3656"
      },
      {
        "line": [
          "1666 CHECKER RD"
        ],
        "city": "LAKE ZURICH",
        "state": "IL",
        "postalCode": "60047-5289"
      },
      {
        "line": [
          "777 CHURCH ST"
        ],
        "city": "LAKE ZURICH",
        "state": "IL",
        "postalCode": "60047-1404"
      },
      {
        "line": [
          "1250 WEST CENTRAL ROAD"
        ],
        "city": "ARLINGTON HEIGHTS",
        "state": "IL",
        "postalCode": "60005-2489"
      },
      {
        "line": [
          "1700 W Central Rd",
          "Ste 40"
        ],
        "city": "ARLINGTON HEIGHTS",
        "state": "IL",
        "postalCode": "60005-2477"
      },
      {
        "line": [
          "800 WEST CENTRAL ROAD"
        ],
        "city": "ARLINGTON HEIGHTS",
        "state": "IL",
        "postalCode": "60005-4602"
      },
      {
        "line": [
          "1301 LEE ST"
        ],
        "city": "DES PLAINES",
        "state": "IL",
        "postalCode": "60018-1514"
      },
      {
        "line": [
          "700 EAST EUCLID AVENUE"
        ],
        "city": "PROSPECT HEIGHTS",
        "state": "IL",
        "postalCode": "60070-3409"
      },
      {
        "line": [
          "1111 S Linneman Rd"
        ],
        "city": "MOUNT PROSPECT",
        "state": "IL",
        "postalCode": "60056-4128"
      },
      {
        "line": [
          "1700 W CENTRAL RD STE 40"
        ],
        "city": "ARLINGTON HEIGHTS",
        "state": "IL",
        "postalCode": "60005-2477"
      },
      {
        "line": [
          "1190 OLD MCHENRY ROAD"
        ],
        "city": "LONG GROVE",
        "state": "IL",
        "postalCode": "60047-5088"
      },
      {
        "line": [
          "811 E CENTRAL RD"
        ],
        "city": "ARLINGTON HEIGHTS",
        "state": "IL",
        "postalCode": "60005-3244"
      },
      {
        "line": [
          "1545 N. Barrington Rd."
        ],
        "city": "HOFFMAN ESTATES",
        "state": "IL",
        "postalCode": "60169-1018"
      },
      {
        "line": [
          "1625 SOUTH ARLINGTON HEIGHTS ROAD"
        ],
        "city": "ARLINGTON HEIGHTS",
        "state": "IL",
        "postalCode": "60005-3769"
      },
      {
        "line": [
          "2150 WEST GOLF ROAD"
        ],
        "city": "SCHAUMBURG",
        "state": "IL",
        "postalCode": "60194-5604"
      },
      {
        "line": [
          "24 SOUTH PLUM GROVE ROAD"
        ],
        "city": "PALATINE",
        "state": "IL",
        "postalCode": "60067-6243"
      },
      {
        "line": [
          "1200 NORTH ARLINGTON HEIGHTS ROAD"
        ],
        "city": "ARLINGTON HEIGHTS",
        "state": "IL",
        "postalCode": "60004-4741"
      },
      {
        "line": [
          "156 W DUNDEE RD"
        ],
        "city": "WHEELING",
        "state": "IL",
        "postalCode": "60090-3033"
      },
      {
        "line": [
          "215 S BARTLETT RD"
        ],
        "city": "BARRINGTON",
        "state": "IL",
        "postalCode": "60010-9443"
      },
      {
        "line": [
          "1700 W CENTRAL ROAD",
          "SUITE 40"
        ],
        "city": "ARLINGTON HEIGHTS",
        "state": "IL",
        "postalCode": "60005-2477"
      },
      {
        "line": [
          "1700 W Central Rd Ste"
        ],
        "city": "ARLINGTON HEIGHTS",
        "state": "IL",
        "postalCode": "60005-3244"
      },
      {
        "line": [
          "510 WEST NORTHWEST HIGWAY"
        ],
        "city": "BARRINGTON",
        "state": "IL",
        "postalCode": "60010-3051"
      },
      {
        "line": [
          "795 N Rand Rd"
        ],
        "city": "LAKE ZURICH",
        "state": "IL",
        "postalCode": "60047-2453"
      }
    ],
    "extension": [
      {
        "url": "https://fhir.athena.io/StructureDefinition/ah-practice",
        "valueReference": {
          "reference": "Organization/a-1.Practice-16551"
        }
      },
      {
        "url": "https://fhir.athena.io/StructureDefinition/ah-brand",
        "valueReference": {
          "reference": "Organization/a-16551.Brand-1"
        }
      }
    ]
  },
  "fullUrl": "urn:uuid:a78f0478-933c-583e-ba47-2fe0c5271087"
}