{
  "resource": {
    "resourceType": "Organization",
    "id": "2c019df5-0e42-5a3d-92a1-29b396fafbb1",
    "name": "AccessMed Healthcare",
    "endpoint": [
      {
        "reference": "Endpoint/27a4e967-47aa-5a9c-a572-b8297ee268a2"
      },
      {
        "reference": "Endpoint/fe7debbc-b3bb-5128-9a99-103c3264ec56"
      }
    ],
    "identifier": [
      {
        "system": "http://hl7.org/fhir/sid/us-npi",
        "value": "1093288896"
      }
    ],
    "address": [
      {
        "line": [
          "418 N HOUSTON AVE"
        ],
        "city": "HUMBLE",
        "state": "TX",
        "postalCode": "77338-3869"
      },
      {
        "line": [
          "9801 WESTHEIMER RD STE 300"
        ],
        "city": "HOUSTON",
        "state": "TX",
        "postalCode": "77042-3979"
      },
      {
        "line": [
          "8810 LONG POINT RD"
        ],
        "city": "HOUSTON",
        "state": "TX",
        "postalCode": "77055-3006"
      },
      {
        "line": [
          "2855 WESTMINSTER PLAZA DR"
        ],
        "city": "HOUSTON",
        "state": "TX",
        "postalCode": "77082-2960"
      },
      {
        "line": [
          "1324 LEMM ROAD 2"
        ],
        "city": "SPRING",
        "state": "TX",
        "postalCode": "77373-5788"
      },
      {
        "line": [
          "7400 CLAREWOOD DR"
        ],
        "city": "HOUSTON",
        "state": "TX",
        "postalCode": "77036-4380"
      },
      {
        "line": [
          "12702 HUNTING BROOK DR"
        ],
        "city": "HOUSTON",
        "state": "TX",
        "postalCode": "77099-2909"
      },
      {
        "line": [
          "11718 BEDFORD ST"
        ],
        "city": "HOUSTON",
        "state": "TX",
        "postalCode": "77031-2112"
      },
      {
        "line": [
          "1221 7TH ST"
        ],
        "city": "SUGAR LAND",
        "state": "TX",
        "postalCode": "77478-2774"
      },
      {
        "line": [
          "2021 FM 1092 RD"
        ],
        "city": "MISSOURI CITY",
        "state": "TX",
        "postalCode": "77459-1702"
      },
      {
        "line": [
          "15506 EVERGREEN PLACE DR"
        ],
        "city": "HOUSTON",
        "state": "TX",
        "postalCode": "77083-5544"
      },
      {
        "line": [
          "9889 KEMPWOOD DR"
        ],
        "city": "HOUSTON",
        "state": "TX",
        "postalCode": "77080-1111"
      },
      {
        "line": [
          "4620 BELLAIRE BLVD",
          "Rm 153"
        ],
        "city": "BELLAIRE",
        "state": "TX",
        "postalCode": "77401-4231"
      },
      {
        "line": [
          "12142 7TH ST"
        ],
        "city": "HOUSTON",
        "state": "TX",
        "postalCode": "77072-5322"
      },
      {
        "line": [
          "16700 ELLA BLVD"
        ],
        "city": "HOUSTON",
        "state": "TX",
        "postalCode": "77090-4214"
      },
      {
        "line": [
          "744 BROOKS ST"
        ],
        "city": "SUGAR LAND",
        "state": "TX",
        "postalCode": "77478-4597"
      },
      {
        "line": [
          "2029 FM 1092 RD"
        ],
        "city": "MISSOURI CITY",
        "state": "TX",
        "postalCode": "77459-1702"
      },
      {
        "line": [
          "21806 OLEASTER SPRINGS LN"
        ],
        "city": "RICHMOND",
        "state": "TX",
        "postalCode": "77469-3627"
      },
      {
        "line": [
          "21601 PROVINCIAL BLVD"
        ],
        "city": "KATY",
        "state": "TX",
        "postalCode": "77450-6510"
      },
      {
        "line": [
          "14814 WINDLEA LN"
        ],
        "city": "HOUSTON",
        "state": "TX",
        "postalCode": "77040-1478"
      },
      {
        "line": [
          "11608 SEGREST DR"
        ],
        "city": "HOUSTON",
        "state": "TX",
        "postalCode": "77047-1614"
      },
      {
        "line": [
          "8302 BEECHNUT ST"
        ],
        "city": "HOUSTON",
        "state": "TX",
        "postalCode": "77036-6854"
      },
      {
        "line": [
          "2000 HOLLY HALL ST"
        ],
        "city": "HOUSTON",
        "state": "TX",
        "postalCode": "77054-4032"
      },
      {
        "line": [
          "2555 S BRAESWOOD BLVD"
        ],
        "city": "HOUSTON",
        "state": "TX",
        "postalCode": "77025-2827"
      },
      {
        "line": [
          "1407 STUDEWOOD ST"
        ],
        "city": "HOUSTON",
        "state": "TX",
        "postalCode": "77008-4588"
      },
      {
        "line": [
          "1110 LAKEVIEW DR"
        ],
        "city": "SUGAR LAND",
        "state": "TX",
        "postalCode": "77478-3378"
      },
      {
        "line": [
          "6327 CYPRESSWOOD DR"
        ],
        "city": "SPRING",
        "state": "TX",
        "postalCode": "77379-8208"
      }
    ],
    "extension": [
      {
        "url": "https://fhir.athena.io/StructureDefinition/ah-practice",
        "valueReference": {
          "reference": "Organization/a-1.Practice-26099"
        }
      },
      {
        "url": "https://fhir.athena.io/StructureDefinition/ah-brand",
        "valueReference": {
          "reference": "Organization/a-26099.Brand-1"
        }
      }
    ]
  },
  "fullUrl": "urn:uuid:2c019df5-0e42-5a3d-92a1-29b396fafbb1"
}