{
  "resource": {
    "resourceType": "Organization",
    "id": "28854ab6-a16b-5bbd-8887-9cd12af156ac",
    "name": "Key West Physician Management LLC",
    "endpoint": [
      {
        "reference": "Endpoint/27a4e967-47aa-5a9c-a572-b8297ee268a2"
      },
      {
        "reference": "Endpoint/1f40fed8-7cb9-5c37-a066-f03efe0f6236"
      }
    ],
    "identifier": [
      {
        "system": "http://hl7.org/fhir/sid/us-npi",
        "value": "1871548651"
      }
    ],
    "address": [
      {
        "line": [
          "1111 12th St. Suite 210"
        ],
        "city": "KEY WEST",
        "state": "FL",
        "postalCode": "33040-4224"
      },
      {
        "line": [
          "931 Toppino Drive"
        ],
        "city": "KEY WEST",
        "state": "FL",
        "postalCode": "33040-4269"
      },
      {
        "line": [
          "600 Nokomis Ave S",
          "Suite 102"
        ],
        "city": "VENICE",
        "state": "FL",
        "postalCode": "34285-3206"
      },
      {
        "line": [
          "5200 College Rd"
        ],
        "city": "KEY WEST",
        "state": "FL",
        "postalCode": "33040-4342"
      },
      {
        "line": [
          "1664 DUNLAP DR"
        ],
        "city": "KEY WEST",
        "state": "FL",
        "postalCode": "33040-4435"
      },
      {
        "line": [
          "3428 N ROOSEVELT BLVD"
        ],
        "city": "KEY WEST",
        "state": "FL",
        "postalCode": "33040-4224"
      },
      {
        "line": [
          "5900 College Rd"
        ],
        "city": "KEY WEST",
        "state": "FL",
        "postalCode": "33040-4342"
      },
      {
        "line": [
          "29755 OVERSEAS HWY"
        ],
        "city": "BIG PINE KEY",
        "state": "FL",
        "postalCode": "33043-3370"
      },
      {
        "line": [
          "1111 12TH ST STE 207"
        ],
        "city": "KEY WEST",
        "state": "FL",
        "postalCode": "33040-4087"
      },
      {
        "line": [
          "1111 12th St. Suite 210"
        ],
        "city": "KEY WEST",
        "state": "FL",
        "postalCode": "33040-4087"
      },
      {
        "line": [
          "3224 N ROOSEVELT BLVD"
        ],
        "city": "KEY WEST",
        "state": "FL",
        "postalCode": "33040-4114"
      },
      {
        "line": [
          "5900 College Road"
        ],
        "city": "KEY WEST",
        "state": "FL",
        "postalCode": "33040-4342"
      },
      {
        "line": [
          "3224 N. Roosevelt Blvd."
        ],
        "city": "KEY WEST",
        "state": "FL",
        "postalCode": "33040-4114"
      },
      {
        "line": [
          "1111 12TH ST STE 109"
        ],
        "city": "KEY WEST",
        "state": "FL",
        "postalCode": "33040-4087"
      },
      {
        "line": [
          "1111 12TH ST STE 201"
        ],
        "city": "KEY WEST",
        "state": "FL",
        "postalCode": "33040-4087"
      },
      {
        "line": [
          "1111 12TH ST STE 203"
        ],
        "city": "KEY WEST",
        "state": "FL",
        "postalCode": "33040-3000"
      },
      {
        "line": [
          "1111 12TH ST STE 104"
        ],
        "city": "KEY WEST",
        "state": "FL",
        "postalCode": "33040-4084"
      }
    ],
    "extension": [
      {
        "url": "https://fhir.athena.io/StructureDefinition/ah-practice",
        "valueReference": {
          "reference": "Organization/a-1.Practice-4692"
        }
      },
      {
        "url": "https://fhir.athena.io/StructureDefinition/ah-brand",
        "valueReference": {
          "reference": "Organization/a-4692.Brand-2"
        }
      }
    ]
  },
  "fullUrl": "urn:uuid:28854ab6-a16b-5bbd-8887-9cd12af156ac"
}