{
  "resource": {
    "resourceType": "Organization",
    "id": "50fd98b0-a49e-57ee-8336-bad7017b7299",
    "name": "A Center for Hope and Change",
    "endpoint": [
      {
        "reference": "Endpoint/27a4e967-47aa-5a9c-a572-b8297ee268a2"
      },
      {
        "reference": "Endpoint/2e463909-3a68-520d-987d-59181ffa5499"
      }
    ],
    "identifier": [
      {
        "system": "http://hl7.org/fhir/sid/us-npi",
        "value": "1750808911"
      }
    ],
    "address": [
      {
        "line": [
          "209 Garfield Street"
        ],
        "city": "LAFAYETTE",
        "state": "LA",
        "postalCode": "70501-7029"
      },
      {
        "line": [
          "209 GARFIELD ST"
        ],
        "city": "LAFAYETTE",
        "state": "LA",
        "postalCode": "70501-7029"
      },
      {
        "line": [
          "209 GARFIELD STREET"
        ],
        "city": "LAFAYETTE",
        "state": "LA",
        "postalCode": "70501-7029"
      },
      {
        "line": [
          "102 WEST BAYOU"
        ],
        "city": "FARMERVILLE",
        "state": "LA",
        "postalCode": "71241-2802"
      },
      {
        "line": [
          "225 La Rue France"
        ],
        "city": "LAFAYETTE",
        "state": "LA",
        "postalCode": "70508-1031"
      },
      {
        "line": [
          "229 GARFIELD STREEET"
        ],
        "city": "LAFAYETTE",
        "state": "LA",
        "postalCode": "70501-7029"
      },
      {
        "line": [
          "225 La Rue France"
        ],
        "city": "LAFAYETTE",
        "state": "LA",
        "postalCode": "70508-3103"
      },
      {
        "line": [
          "209 GARFILED STREET"
        ],
        "city": "LAFAYETTE",
        "state": "LA",
        "postalCode": "70501-7029"
      },
      {
        "line": [
          "209 GRAFIELD STREET"
        ],
        "city": "LAFAYETTE",
        "state": "LA",
        "postalCode": "70501-7029"
      },
      {
        "line": [
          "209 Garfield Street"
        ],
        "city": "LAFAYETTE",
        "state": "LA",
        "postalCode": "70501-1000"
      },
      {
        "line": [
          "225 LA RUE FRANCE"
        ],
        "city": "LAFAYETTE",
        "state": "LA",
        "postalCode": "70508-3103"
      },
      {
        "line": [
          "209GARFILED STREET"
        ],
        "city": "LAFAYETTE",
        "state": "LA",
        "postalCode": "70501-7029"
      },
      {
        "line": [
          "209 Garfield St"
        ],
        "city": "LAFAYETTE",
        "state": "LA",
        "postalCode": "70501-7029"
      },
      {
        "line": [
          "209 GARFIELD STREEET"
        ],
        "city": "LAFAYETTE",
        "state": "LA",
        "postalCode": "70501-7029"
      },
      {
        "line": [
          "225 LA RUE FRANCE"
        ],
        "city": "LAFAYETTE",
        "state": "LA",
        "postalCode": "70508-2448"
      }
    ],
    "extension": [
      {
        "url": "https://fhir.athena.io/StructureDefinition/ah-practice",
        "valueReference": {
          "reference": "Organization/a-1.Practice-16738"
        }
      },
      {
        "url": "https://fhir.athena.io/StructureDefinition/ah-brand",
        "valueReference": {
          "reference": "Organization/a-16738.Brand-1"
        }
      }
    ]
  },
  "fullUrl": "urn:uuid:50fd98b0-a49e-57ee-8336-bad7017b7299"
}