{
  "resource": {
    "resourceType": "Organization",
    "id": "865f158d-f581-5909-9df5-d6cfd1bba0e3",
    "name": "Upperline Health",
    "endpoint": [
      {
        "reference": "Endpoint/27a4e967-47aa-5a9c-a572-b8297ee268a2"
      },
      {
        "reference": "Endpoint/34fc47b7-2b42-5e96-b0c9-dad70933b659"
      }
    ],
    "identifier": [
      {
        "system": "http://hl7.org/fhir/sid/us-npi",
        "value": "1225663826"
      }
    ],
    "address": [
      {
        "line": [
          "728 N Euclid Ave"
        ],
        "city": "ONTARIO",
        "state": "CA",
        "postalCode": "91762-2712"
      },
      {
        "line": [
          "1798 N. Garey Ave"
        ],
        "city": "POMONA",
        "state": "CA",
        "postalCode": "91767-2918"
      },
      {
        "line": [
          "1211 W 6TH ST"
        ],
        "city": "ONTARIO",
        "state": "CA",
        "postalCode": "91762-1103"
      },
      {
        "line": [
          "308 W 6TH ST",
          "Suite #205"
        ],
        "city": "CORONA",
        "state": "CA",
        "postalCode": "92882-3349"
      },
      {
        "line": [
          "2101 N. Waterman Ave."
        ],
        "city": "SAN BERNARDINO",
        "state": "CA",
        "postalCode": "92404-4836"
      },
      {
        "line": [
          "16465 Sierra Lakes Parkway",
          "#240"
        ],
        "city": "FONTANA",
        "state": "CA",
        "postalCode": "92336-1242"
      },
      {
        "line": [
          "999 San Bernardino Road"
        ],
        "city": "UPLAND",
        "state": "CA",
        "postalCode": "91786-4920"
      },
      {
        "line": [
          "800 S MAIN ST"
        ],
        "city": "CORONA",
        "state": "CA",
        "postalCode": "92882-3420"
      },
      {
        "line": [
          "5565 Grossmont Center Drive Suite 510"
        ],
        "city": "LA MESA",
        "state": "CA",
        "postalCode": "91942-3024"
      },
      {
        "line": [
          "901 San Bernardino Road",
          "Second Floor"
        ],
        "city": "UPLAND",
        "state": "CA",
        "postalCode": "91786-4912"
      },
      {
        "line": [
          "3600 CENTRAL AVE STE 4"
        ],
        "city": "RIVERSIDE",
        "state": "CA",
        "postalCode": "92506-5912"
      },
      {
        "line": [
          "308 W 6TH ST, STE 205"
        ],
        "city": "CORONA",
        "state": "CA",
        "postalCode": "92882-3349"
      },
      {
        "line": [
          "8945 MAGNOLIA AVE STE 200"
        ],
        "city": "RIVERSIDE",
        "state": "CA",
        "postalCode": "92503-4436"
      }
    ],
    "extension": [
      {
        "url": "https://fhir.athena.io/StructureDefinition/ah-practice",
        "valueReference": {
          "reference": "Organization/a-1.Practice-4399"
        }
      },
      {
        "url": "https://fhir.athena.io/StructureDefinition/ah-brand",
        "valueReference": {
          "reference": "Organization/a-4399.Brand-18"
        }
      }
    ]
  },
  "fullUrl": "urn:uuid:865f158d-f581-5909-9df5-d6cfd1bba0e3"
}