{
  "resource": {
    "resourceType": "Organization",
    "id": "534e37b8-ffc9-5aad-8c31-902cd13f5cb6",
    "name": "ARETE SURGICAL CENTER",
    "endpoint": [
      {
        "reference": "Endpoint/27a4e967-47aa-5a9c-a572-b8297ee268a2"
      },
      {
        "reference": "Endpoint/ce8f082e-338d-5d92-b579-2870bb21a2af"
      }
    ],
    "identifier": [
      {
        "system": "http://hl7.org/fhir/sid/us-npi",
        "value": "1245215862"
      },
      {
        "system": "http://hl7.org/fhir/sid/us-npi",
        "value": "1447461801"
      },
      {
        "system": "http://hl7.org/fhir/sid/us-npi",
        "value": "1861797243"
      }
    ],
    "address": [
      {
        "line": [
          "SEE PAPERWORK FOR ADDRESS"
        ],
        "city": "DENVER",
        "state": "CO",
        "postalCode": "80229-4384"
      },
      {
        "line": [
          "1608 TOPAZ DR"
        ],
        "city": "LOVELAND",
        "state": "CO",
        "postalCode": "80537-3210"
      },
      {
        "line": [
          "1000 LINCOLN STREET"
        ],
        "city": "FORT MORGAN",
        "state": "CO",
        "postalCode": "80701-3290"
      },
      {
        "line": [
          "9005 Grant Street Suite 200"
        ],
        "city": "DENVER",
        "state": "CO",
        "postalCode": "80229-4384"
      },
      {
        "line": [
          "1950 MOUNTAIN VIEW AVE # COMMON",
          "Common Spirit"
        ],
        "city": "LONGMONT",
        "state": "CO",
        "postalCode": "80501-3129"
      },
      {
        "line": [
          "9005 GRANT ST, SUITE 200"
        ],
        "city": "THORNTON",
        "state": "CO",
        "postalCode": "80229-4384"
      },
      {
        "line": [
          "1208 S RIVER ST"
        ],
        "city": "SARATOGA",
        "state": "WY",
        "postalCode": "82331-1019"
      },
      {
        "line": [
          "1000 Lincoln Street"
        ],
        "city": "FORT MORGAN",
        "state": "CO",
        "postalCode": "80701-3290"
      },
      {
        "line": [
          "1375 E 19TH AVE"
        ],
        "city": "DENVER",
        "state": "CO",
        "postalCode": "80218-1114"
      }
    ],
    "extension": [
      {
        "url": "https://fhir.athena.io/StructureDefinition/ah-practice",
        "valueReference": {
          "reference": "Organization/a-1.Practice-9093"
        }
      },
      {
        "url": "https://fhir.athena.io/StructureDefinition/ah-brand",
        "valueReference": {
          "reference": "Organization/a-9093.Brand-1"
        }
      }
    ]
  },
  "fullUrl": "urn:uuid:534e37b8-ffc9-5aad-8c31-902cd13f5cb6"
}