{
  "resource": {
    "resourceType": "Organization",
    "id": "7a2cd188-b6c1-5453-a137-ec373c5c0901",
    "name": "Good Shepherd Rehabilitation",
    "endpoint": [
      {
        "reference": "Endpoint/27a4e967-47aa-5a9c-a572-b8297ee268a2"
      },
      {
        "reference": "Endpoint/636e9ce0-dbfd-50f1-9079-3e8bd7b90b6c"
      }
    ],
    "identifier": [
      {
        "system": "http://hl7.org/fhir/sid/us-npi",
        "value": "1427035039"
      },
      {
        "system": "http://hl7.org/fhir/sid/us-npi",
        "value": "1568536480"
      }
    ],
    "address": [
      {
        "line": [
          "700 Lawn Ave"
        ],
        "city": "SELLERSVILLE",
        "state": "PA",
        "postalCode": "18960-1587"
      },
      {
        "line": [
          "850 South 5th Street"
        ],
        "city": "ALLENTOWN",
        "state": "PA",
        "postalCode": "18103-3308"
      },
      {
        "line": [
          "803 North Wahneta Street"
        ],
        "city": "ALLENTOWN",
        "state": "PA",
        "postalCode": "18109-2422"
      },
      {
        "line": [
          "5666 CLYMER RD"
        ],
        "city": "QUAKERTOWN",
        "state": "PA",
        "postalCode": "18951-3264"
      },
      {
        "line": [
          "4036 Bethlehem Pike"
        ],
        "city": "TELFORD",
        "state": "PA",
        "postalCode": "18969-1125"
      },
      {
        "line": [
          "1872 St. Luke's Blvd."
        ],
        "city": "EASTON",
        "state": "PA",
        "postalCode": "18045-5669"
      },
      {
        "line": [
          "175 East Brown Street"
        ],
        "city": "EAST STROUDSBURG",
        "state": "PA",
        "postalCode": "18301-3098"
      },
      {
        "line": [
          "3200 Center Valley Parkway"
        ],
        "city": "CENTER VALLEY",
        "state": "PA",
        "postalCode": "18034-9519"
      },
      {
        "line": [
          "634 East Broad Street"
        ],
        "city": "Bethlehem",
        "state": "PA",
        "postalCode": "18018-6362"
      },
      {
        "line": [
          "5 South Broadway"
        ],
        "city": "WIND GAP",
        "state": "PA",
        "postalCode": "18091-1423"
      }
    ],
    "extension": [
      {
        "url": "https://fhir.athena.io/StructureDefinition/ah-practice",
        "valueReference": {
          "reference": "Organization/a-1.Practice-11391"
        }
      },
      {
        "url": "https://fhir.athena.io/StructureDefinition/ah-brand",
        "valueReference": {
          "reference": "Organization/a-11391.Brand-1"
        }
      }
    ]
  },
  "fullUrl": "urn:uuid:7a2cd188-b6c1-5453-a137-ec373c5c0901"
}