{
  "resource": {
    "resourceType": "Organization",
    "id": "7553bfea-cfa6-5ed1-8aba-6b999e07deb4",
    "name": "Arizona Colorectal Experts, LLC",
    "endpoint": [
      {
        "reference": "Endpoint/27a4e967-47aa-5a9c-a572-b8297ee268a2"
      },
      {
        "reference": "Endpoint/45bf8c76-b822-5b02-991a-51afbe7c239f"
      }
    ],
    "identifier": [
      {
        "system": "http://hl7.org/fhir/sid/us-npi",
        "value": "1720744543"
      }
    ],
    "address": [
      {
        "line": [
          "1955 W FRYE RD"
        ],
        "city": "CHANDLER",
        "state": "AZ",
        "postalCode": "85224-6282"
      },
      {
        "line": [
          "7400 E OSBORN RD"
        ],
        "city": "SCOTTSDALE",
        "state": "AZ",
        "postalCode": "85251-6432"
      },
      {
        "line": [
          "4812 S MILL AVE"
        ],
        "city": "TEMPE",
        "state": "AZ",
        "postalCode": "85282-6730"
      },
      {
        "line": [
          "3535 N SCOTTSDALE RD"
        ],
        "city": "SCOTTSDALE",
        "state": "AZ",
        "postalCode": "85251-5625"
      },
      {
        "line": [
          "9003 E SHEA BLVD"
        ],
        "city": "SCOTTSDALE",
        "state": "AZ",
        "postalCode": "85260-6709"
      },
      {
        "line": [
          "2223 E BASELINE RD STE B"
        ],
        "city": "GILBERT",
        "state": "AZ",
        "postalCode": "85234-2336"
      },
      {
        "line": [
          "3555 S VAL VISTA DR"
        ],
        "city": "GILBERT",
        "state": "AZ",
        "postalCode": "85297-7323"
      },
      {
        "line": [
          "603 W BASELINE RD STE 101"
        ],
        "city": "MESA",
        "state": "AZ",
        "postalCode": "85210-6050"
      },
      {
        "line": [
          "1400 S DOBSON RD"
        ],
        "city": "MESA",
        "state": "AZ",
        "postalCode": "85202-4707"
      },
      {
        "line": [
          "3501 N SCOTTSDALE RD STE 346"
        ],
        "city": "SCOTTSDALE",
        "state": "AZ",
        "postalCode": "85251-5632"
      },
      {
        "line": [
          "950 N MCQUEEN RD"
        ],
        "city": "CHANDLER",
        "state": "AZ",
        "postalCode": "85225-8126"
      },
      {
        "line": [
          "2995 W ELLIOT RD",
          "SUITE 4"
        ],
        "city": "CHANDLER",
        "state": "AZ",
        "postalCode": "85224-1670"
      },
      {
        "line": [
          "5281 N 99TH AVE STE 100"
        ],
        "city": "GLENDALE",
        "state": "AZ",
        "postalCode": "85305-2209"
      },
      {
        "line": [
          "1500 S DOBSON RD STE 101"
        ],
        "city": "MESA",
        "state": "AZ",
        "postalCode": "85202-4722"
      }
    ],
    "extension": [
      {
        "url": "https://fhir.athena.io/StructureDefinition/ah-practice",
        "valueReference": {
          "reference": "Organization/a-1.Practice-24153"
        }
      },
      {
        "url": "https://fhir.athena.io/StructureDefinition/ah-brand",
        "valueReference": {
          "reference": "Organization/a-24153.Brand-1"
        }
      }
    ]
  },
  "fullUrl": "urn:uuid:7553bfea-cfa6-5ed1-8aba-6b999e07deb4"
}