{
  "resource": {
    "resourceType": "Organization",
    "id": "ff4d6870-23bd-56f8-9d2b-334e1167500e",
    "name": "Ambulatory Surgery Center",
    "endpoint": [
      {
        "reference": "Endpoint/27a4e967-47aa-5a9c-a572-b8297ee268a2"
      },
      {
        "reference": "Endpoint/7da700e5-5019-575e-97a3-ba776b11f1e7"
      }
    ],
    "identifier": [
      {
        "system": "http://hl7.org/fhir/sid/us-npi",
        "value": "1568454056"
      }
    ],
    "address": [
      {
        "line": [
          "1330 BOILING SPRINGS RD",
          "STE 1600"
        ],
        "city": "SPARTANBURG",
        "state": "SC",
        "postalCode": "29303-4219"
      },
      {
        "line": [
          "720 North Pine Street"
        ],
        "city": "Spartanburg",
        "state": "SC",
        "postalCode": "29303-3127"
      },
      {
        "line": [
          "525 OAK GROVE RD"
        ],
        "city": "SPARTANBURG",
        "state": "SC",
        "postalCode": "29301-3538"
      },
      {
        "line": [
          "1330 Boiling Springs Road, Suite 1600"
        ],
        "city": "SPARTANBURG",
        "state": "SC",
        "postalCode": "29303-4209"
      },
      {
        "line": [
          "101 HOSPITAL DR"
        ],
        "city": "COLUMBUS",
        "state": "NC",
        "postalCode": "28722-6418"
      },
      {
        "line": [
          "1330 BOILING SPRINGS ROAD",
          "STE 1600"
        ],
        "city": "SPARTANBURG",
        "state": "SC",
        "postalCode": "29303-4219"
      },
      {
        "line": [
          "115 DEACON TILLER CT"
        ],
        "city": "DUNCAN",
        "state": "SC",
        "postalCode": "29334-8880"
      },
      {
        "line": [
          "220 Roper Mountain Road Ext."
        ],
        "city": "GREENVILLE",
        "state": "SC",
        "postalCode": "29615-4886"
      },
      {
        "line": [
          "89 West Mills Street"
        ],
        "city": "COLUMBUS",
        "state": "NC",
        "postalCode": "28722-9450"
      }
    ],
    "extension": [
      {
        "url": "https://fhir.athena.io/StructureDefinition/ah-practice",
        "valueReference": {
          "reference": "Organization/a-1.Practice-26879"
        }
      },
      {
        "url": "https://fhir.athena.io/StructureDefinition/ah-brand",
        "valueReference": {
          "reference": "Organization/a-26879.Brand-1"
        }
      }
    ]
  },
  "fullUrl": "urn:uuid:ff4d6870-23bd-56f8-9d2b-334e1167500e"
}