{
  "resource": {
    "resourceType": "Organization",
    "id": "7f6a6cae-11fd-5862-8bfc-d814ce5707f9",
    "name": "CMG WOUND CARE AND HYPERBARIC MEDICINE CENTER",
    "endpoint": [
      {
        "reference": "Endpoint/27a4e967-47aa-5a9c-a572-b8297ee268a2"
      },
      {
        "reference": "Endpoint/c802a21d-e407-5241-99b8-196afbcfa92b"
      }
    ],
    "identifier": [
      {
        "system": "http://hl7.org/fhir/sid/us-npi",
        "value": "1285931089"
      },
      {
        "system": "http://hl7.org/fhir/sid/us-npi",
        "value": "1013031368"
      },
      {
        "system": "http://hl7.org/fhir/sid/us-npi",
        "value": "1649228966"
      },
      {
        "system": "http://hl7.org/fhir/sid/us-npi",
        "value": "1932402484"
      }
    ],
    "address": [
      {
        "line": [
          "3300 Rivermont Avenue"
        ],
        "city": "LYNCHBURG",
        "state": "VA",
        "postalCode": "24503-2030"
      },
      {
        "line": [
          "1901 TATE SPRINGS ROAD"
        ],
        "city": "LYNCHBURG",
        "state": "VA",
        "postalCode": "24501-1109"
      },
      {
        "line": [
          "1613 OAKWOOD STREET"
        ],
        "city": "BEDFORD",
        "state": "VA",
        "postalCode": "24523-1213"
      },
      {
        "line": [
          "BEDFORD MEMORIAL HOSPITAL",
          "1613 OAKWOOD STREET"
        ],
        "city": "BEDFORD",
        "state": "VA",
        "postalCode": "24523-1213"
      },
      {
        "line": [
          "2410 Atherholt Rd."
        ],
        "city": "LYNCHBURG",
        "state": "VA",
        "postalCode": "24501-1106"
      },
      {
        "line": [
          "3300 RIVERMONT AVENUE"
        ],
        "city": "LYNCHBURG",
        "state": "VA",
        "postalCode": "24503-2030"
      },
      {
        "line": [
          "3300 Rivermont Ave"
        ],
        "city": "LYNCHBURG",
        "state": "VA",
        "postalCode": "24503-2030"
      },
      {
        "line": [
          "3300 RIVERMONT AVE"
        ],
        "city": "LYNCHBURG",
        "state": "VA",
        "postalCode": "24503-2030"
      }
    ],
    "extension": [
      {
        "url": "https://fhir.athena.io/StructureDefinition/ah-practice",
        "valueReference": {
          "reference": "Organization/a-1.Practice-221"
        }
      },
      {
        "url": "https://fhir.athena.io/StructureDefinition/ah-brand",
        "valueReference": {
          "reference": "Organization/a-221.Brand-1"
        }
      }
    ]
  },
  "fullUrl": "urn:uuid:7f6a6cae-11fd-5862-8bfc-d814ce5707f9"
}