{
  "resource": {
    "resourceType": "Organization",
    "id": "496fef17-a3ac-5bd3-8dad-b7208a7af5d6",
    "name": "Vida Clinic",
    "endpoint": [
      {
        "reference": "Endpoint/27a4e967-47aa-5a9c-a572-b8297ee268a2"
      },
      {
        "reference": "Endpoint/a47a6256-e780-5f05-a9d1-fa3c04ab4fbd"
      }
    ],
    "identifier": [
      {
        "system": "http://hl7.org/fhir/sid/us-npi",
        "value": "1912389081"
      }
    ],
    "address": [
      {
        "line": [
          "2720 Planters Street"
        ],
        "city": "SUGAR LAND",
        "state": "TX",
        "postalCode": "77479-1816"
      },
      {
        "line": [
          "7601 Dixie Drive"
        ],
        "city": "AUSTIN",
        "state": "TX",
        "postalCode": "78744-7140"
      },
      {
        "line": [
          "4400 Franklin Park Drive"
        ],
        "city": "AUSTIN",
        "state": "TX",
        "postalCode": "78744-2929"
      },
      {
        "line": [
          "500 Waters Lake Blvd."
        ],
        "city": "MISSOURI CITY",
        "state": "TX",
        "postalCode": "77459-3256"
      },
      {
        "line": [
          "8401 Hathaway Drive"
        ],
        "city": "AUSTIN",
        "state": "TX",
        "postalCode": "78757-7029"
      },
      {
        "line": [
          "4455 Waterside Estates Dr."
        ],
        "city": "RICHMOND",
        "state": "TX",
        "postalCode": "77406-4089"
      },
      {
        "line": [
          "6401 N. Hampton Drive"
        ],
        "city": "AUSTIN",
        "state": "TX",
        "postalCode": "78723-2042"
      },
      {
        "line": [
          "5107 S IH 35 Frontage Rd",
          "A"
        ],
        "city": "AUSTIN",
        "state": "TX",
        "postalCode": "78744-2736"
      },
      {
        "line": [
          "1800 Chatham Ave."
        ],
        "city": "SUGAR LAND",
        "state": "TX",
        "postalCode": "77479-5353"
      },
      {
        "line": [
          "6200 Homeward Way Blvd."
        ],
        "city": "SUGAR LAND",
        "state": "TX",
        "postalCode": "77479-5873"
      },
      {
        "line": [
          "5409 Ponciana Drive"
        ],
        "city": "AUSTIN",
        "state": "TX",
        "postalCode": "78744-2833"
      },
      {
        "line": [
          "5005 Caswell Ave"
        ],
        "city": "AUSTIN",
        "state": "TX",
        "postalCode": "78751-2622"
      },
      {
        "line": [
          "10011 Steep Bank Trace"
        ],
        "city": "MISSOURI CITY",
        "state": "TX",
        "postalCode": "77459-6348"
      },
      {
        "line": [
          "1600 Chicon St"
        ],
        "city": "AUSTIN",
        "state": "TX",
        "postalCode": "78702-1230"
      },
      {
        "line": [
          "7007 Knights Court"
        ],
        "city": "MISSOURI CITY",
        "state": "TX",
        "postalCode": "77459-6111"
      },
      {
        "line": [
          "6711 Johnny Morris Road"
        ],
        "city": "AUSTIN",
        "state": "TX",
        "postalCode": "78724-3507"
      },
      {
        "line": [
          "2206 Blue Meadow Dr."
        ],
        "city": "AUSTIN",
        "state": "TX",
        "postalCode": "78744-5016"
      },
      {
        "line": [
          "314 Lakeview Drive"
        ],
        "city": "SUGAR LAND",
        "state": "TX",
        "postalCode": "77498-3010"
      },
      {
        "line": [
          "500 Mairo St"
        ],
        "city": "AUSTIN",
        "state": "TX",
        "postalCode": "78748-5456"
      },
      {
        "line": [
          "4510 Sweetwater Blvd"
        ],
        "city": "SUGAR LAND",
        "state": "TX",
        "postalCode": "77479-3009"
      },
      {
        "line": [
          "5601 Manchaca Rd."
        ],
        "city": "AUSTIN",
        "state": "TX",
        "postalCode": "78745-3633"
      },
      {
        "line": [
          "7201 Colony Loop Drive"
        ],
        "city": "AUSTIN",
        "state": "TX",
        "postalCode": "78724-5348"
      },
      {
        "line": [
          "12207 Brigadoon Lane"
        ],
        "city": "AUSTIN",
        "state": "TX",
        "postalCode": "78727-5345"
      },
      {
        "line": [
          "6201 Davis Lane"
        ],
        "city": "AUSTIN",
        "state": "TX",
        "postalCode": "78749-3431"
      },
      {
        "line": [
          "6800 Bill Hughes Road"
        ],
        "city": "AUSTIN",
        "state": "TX",
        "postalCode": "78745-5605"
      },
      {
        "line": [
          "1221 W Ben White Blvd",
          "Ste 210A"
        ],
        "city": "AUSTIN",
        "state": "TX",
        "postalCode": "78704-7182"
      },
      {
        "line": [
          "636 Glendale Lakes Drive"
        ],
        "city": "ROSHARON",
        "state": "TX",
        "postalCode": "77583-6150"
      },
      {
        "line": [
          "2800 Metcalfe Rd"
        ],
        "city": "AUSTIN",
        "state": "TX",
        "postalCode": "78741-5633"
      },
      {
        "line": [
          "1012 Arthur Stiles Road"
        ],
        "city": "AUSTIN",
        "state": "TX",
        "postalCode": "78721-3402"
      },
      {
        "line": [
          "3225 Austin Parkway"
        ],
        "city": "SUGAR LAND",
        "state": "TX",
        "postalCode": "77479-2700"
      },
      {
        "line": [
          "3025 CROSSCREEK DR"
        ],
        "city": "AUSTIN",
        "state": "TX",
        "postalCode": "78757-7535"
      },
      {
        "line": [
          "401 W. Braker Ln"
        ],
        "city": "AUSTIN",
        "state": "TX",
        "postalCode": "78753-3038"
      },
      {
        "line": [
          "14850 Bissonnet"
        ],
        "city": "HOUSTON",
        "state": "TX",
        "postalCode": "77083-5831"
      },
      {
        "line": [
          "1511 Cripple Creek Drive"
        ],
        "city": "AUSTIN",
        "state": "TX",
        "postalCode": "78758-5053"
      },
      {
        "line": [
          "2717 Kentish Drive"
        ],
        "city": "AUSTIN",
        "state": "TX",
        "postalCode": "78748-5142"
      },
      {
        "line": [
          "6241 McHard Road"
        ],
        "city": "HOUSTON",
        "state": "TX",
        "postalCode": "77053-5018"
      },
      {
        "line": [
          "700 Plantation Drive"
        ],
        "city": "RICHMOND",
        "state": "TX",
        "postalCode": "77406-8048"
      },
      {
        "line": [
          "12009 Buckingham Gate Road"
        ],
        "city": "AUSTIN",
        "state": "TX",
        "postalCode": "78748-1943"
      },
      {
        "line": [
          "4801 Monterey Oaks Blvd"
        ],
        "city": "AUSTIN",
        "state": "TX",
        "postalCode": "78749-1072"
      },
      {
        "line": [
          "3500 Quail Village Dr."
        ],
        "city": "MISSOURI CITY",
        "state": "TX",
        "postalCode": "77459-1906"
      },
      {
        "line": [
          "7005 Northledge Dr"
        ],
        "city": "AUSTIN",
        "state": "TX",
        "postalCode": "78731-2933"
      },
      {
        "line": [
          "84 Robert T. Martinez Jr. Street"
        ],
        "city": "AUSTIN",
        "state": "TX",
        "postalCode": "78702-4551"
      },
      {
        "line": [
          "4909 Commonwealth Blvd."
        ],
        "city": "SUGAR LAND",
        "state": "TX",
        "postalCode": "77479-3998"
      },
      {
        "line": [
          "7400 Discovery Lane"
        ],
        "city": "MISSOURI CITY",
        "state": "TX",
        "postalCode": "77459-2233"
      },
      {
        "line": [
          "3100 Lake Olympia Pkwy"
        ],
        "city": "MISSOURI CITY",
        "state": "TX",
        "postalCode": "77459-4103"
      },
      {
        "line": [
          "5913 La Crosse Ave"
        ],
        "city": "AUSTIN",
        "state": "TX",
        "postalCode": "78739-2020"
      },
      {
        "line": [
          "3601 Webberville Rd"
        ],
        "city": "AUSTIN",
        "state": "TX",
        "postalCode": "78702-3008"
      },
      {
        "line": [
          "7817 Grand Mission Blvd."
        ],
        "city": "RICHMOND",
        "state": "TX",
        "postalCode": "77407-5405"
      },
      {
        "line": [
          "16425 Mellow Oaks Lane"
        ],
        "city": "SUGAR LAND",
        "state": "TX",
        "postalCode": "77498-7144"
      },
      {
        "line": [
          "600 W. St. Elmo Road"
        ],
        "city": "AUSTIN",
        "state": "TX",
        "postalCode": "78745-1151"
      },
      {
        "line": [
          "550 Dulles Avenue"
        ],
        "city": "SUGAR LAND",
        "state": "TX",
        "postalCode": "77478-3746"
      },
      {
        "line": [
          "2610 West 10th Street"
        ],
        "city": "AUSTIN",
        "state": "TX",
        "postalCode": "78703-4351"
      },
      {
        "line": [
          "3808 Maplewood Ave"
        ],
        "city": "AUSTIN",
        "state": "TX",
        "postalCode": "78722-1514"
      },
      {
        "line": [
          "601 E. St. Johns Ave"
        ],
        "city": "AUSTIN",
        "state": "TX",
        "postalCode": "78752-2521"
      },
      {
        "line": [
          "17800 West Oaks Village Dr."
        ],
        "city": "RICHMOND",
        "state": "TX",
        "postalCode": "77407-9245"
      },
      {
        "line": [
          "7325 Clodine-Reddick Road"
        ],
        "city": "HOUSTON",
        "state": "TX",
        "postalCode": "77083-3625"
      },
      {
        "line": [
          "4001 Tannehill Lane"
        ],
        "city": "AUSTIN",
        "state": "TX",
        "postalCode": "78721-2307"
      },
      {
        "line": [
          "906 West Milton St"
        ],
        "city": "AUSTIN",
        "state": "TX",
        "postalCode": "78704-3436"
      },
      {
        "line": [
          "12300 University Blvd."
        ],
        "city": "SUGAR LAND",
        "state": "TX",
        "postalCode": "77479-6894"
      },
      {
        "line": [
          "4900 Fairview Drive"
        ],
        "city": "AUSTIN",
        "state": "TX",
        "postalCode": "78731-5422"
      },
      {
        "line": [
          "3700 Convict Hill Rd"
        ],
        "city": "AUSTIN",
        "state": "TX",
        "postalCode": "78749-2526"
      },
      {
        "line": [
          "3333 Hurricane Lane"
        ],
        "city": "MISSOURI CITY",
        "state": "TX",
        "postalCode": "77459-6353"
      },
      {
        "line": [
          "5106 Village Square Drive"
        ],
        "city": "AUSTIN",
        "state": "TX",
        "postalCode": "78744-4462"
      },
      {
        "line": [
          "3308 Hampton Rd"
        ],
        "city": "AUSTIN",
        "state": "TX",
        "postalCode": "78705-2504"
      },
      {
        "line": [
          "2010 Alameda Drive"
        ],
        "city": "AUSTIN",
        "state": "TX",
        "postalCode": "78704-4312"
      },
      {
        "line": [
          "2108 Barton Hills Drive"
        ],
        "city": "AUSTIN",
        "state": "TX",
        "postalCode": "78704-4656"
      },
      {
        "line": [
          "4500 Manchaca Road"
        ],
        "city": "AUSTIN",
        "state": "TX",
        "postalCode": "78745-1606"
      },
      {
        "line": [
          "2100 Squire Dobbins Drive"
        ],
        "city": "SUGAR LAND",
        "state": "TX",
        "postalCode": "77478-1835"
      },
      {
        "line": [
          "9400 Texas Oaks Dr"
        ],
        "city": "AUSTIN",
        "state": "TX",
        "postalCode": "78748-6328"
      },
      {
        "line": [
          "1203 Springdale Road"
        ],
        "city": "AUSTIN",
        "state": "TX",
        "postalCode": "78721-1338"
      },
      {
        "line": [
          "3434 Pheasant Creek Drive"
        ],
        "city": "SUGAR LAND",
        "state": "TX",
        "postalCode": "77498-4895"
      },
      {
        "line": [
          "6001 Westcreek Drive"
        ],
        "city": "AUSTIN",
        "state": "TX",
        "postalCode": "78749-1351"
      },
      {
        "line": [
          "1900 Bluebonnet Lane"
        ],
        "city": "AUSTIN",
        "state": "TX",
        "postalCode": "78704-3342"
      },
      {
        "line": [
          "17828 Winding Waters Lane"
        ],
        "city": "SUGAR LAND",
        "state": "TX",
        "postalCode": "77479-4742"
      },
      {
        "line": [
          "6101 Patton Ranch Rd"
        ],
        "city": "AUSTIN",
        "state": "TX",
        "postalCode": "78735-8511"
      },
      {
        "line": [
          "1757 Waters Lake Blvd."
        ],
        "city": "MISSOURI CITY",
        "state": "TX",
        "postalCode": "77459-2301"
      },
      {
        "line": [
          "1220 Buffalo Run"
        ],
        "city": "MISSOURI CITY",
        "state": "TX",
        "postalCode": "77489-1626"
      },
      {
        "line": [
          "15817 Blue Ridge Rd"
        ],
        "city": "MISSOURI CITY",
        "state": "TX",
        "postalCode": "77489-3403"
      },
      {
        "line": [
          "2613 Rogers Ave"
        ],
        "city": "AUSTIN",
        "state": "TX",
        "postalCode": "78722-1700"
      },
      {
        "line": [
          "1100 W. Sycamore"
        ],
        "city": "FRESNO",
        "state": "TX",
        "postalCode": "77545-8617"
      },
      {
        "line": [
          "500 Dulles Avenue"
        ],
        "city": "SUGAR LAND",
        "state": "TX",
        "postalCode": "77478-3746"
      },
      {
        "line": [
          "2335 Dulles Avenue"
        ],
        "city": "MISSOURI CITY",
        "state": "TX",
        "postalCode": "77459-2224"
      },
      {
        "line": [
          "1625 Hunter Green Lane"
        ],
        "city": "FRESNO",
        "state": "TX",
        "postalCode": "77545-9579"
      },
      {
        "line": [
          "515 Vargas Road"
        ],
        "city": "AUSTIN",
        "state": "TX",
        "postalCode": "78741-2455"
      },
      {
        "line": [
          "4020 Lost Oasis Hollow"
        ],
        "city": "AUSTIN",
        "state": "TX",
        "postalCode": "78739-5501"
      },
      {
        "line": [
          "621 Cunningham Creek Blvd."
        ],
        "city": "SUGAR LAND",
        "state": "TX",
        "postalCode": "77479-5319"
      },
      {
        "line": [
          "14777 Voss Road"
        ],
        "city": "SUGAR LAND",
        "state": "TX",
        "postalCode": "77498-2125"
      },
      {
        "line": [
          "3500 Susquehanna Lane"
        ],
        "city": "AUSTIN",
        "state": "TX",
        "postalCode": "78723-2817"
      },
      {
        "line": [
          "7447 FM 521 Rd."
        ],
        "city": "ROSHARON",
        "state": "TX",
        "postalCode": "77583-3570"
      },
      {
        "line": [
          "405 Denson Drive"
        ],
        "city": "AUSTIN",
        "state": "TX",
        "postalCode": "78752-4116"
      },
      {
        "line": [
          "501 West Mercer Street"
        ],
        "city": "DRIPPING SPRINGS",
        "state": "TX",
        "postalCode": "78620-5316"
      },
      {
        "line": [
          "1715 Cesar Chavez St"
        ],
        "city": "AUSTIN",
        "state": "TX",
        "postalCode": "78703-4605"
      },
      {
        "line": [
          "6707 FM 1464"
        ],
        "city": "RICHMOND",
        "state": "TX",
        "postalCode": "77407-7966"
      },
      {
        "line": [
          "1101 Wheatley Ave"
        ],
        "city": "AUSTIN",
        "state": "TX",
        "postalCode": "78752-1733"
      },
      {
        "line": [
          "5214 Duval Road"
        ],
        "city": "AUSTIN",
        "state": "TX",
        "postalCode": "78727-6613"
      },
      {
        "line": [
          "5605 Nuckols Crossing"
        ],
        "city": "AUSTIN",
        "state": "TX",
        "postalCode": "78744-4615"
      },
      {
        "line": [
          "9800 Curlew Dr."
        ],
        "city": "AUSTIN",
        "state": "TX",
        "postalCode": "78748-5854"
      },
      {
        "line": [
          "1106 Rio Grande St"
        ],
        "city": "AUSTIN",
        "state": "TX",
        "postalCode": "78701-2016"
      },
      {
        "line": [
          "7414 Johnny Morris Road"
        ],
        "city": "AUSTIN",
        "state": "TX",
        "postalCode": "78724-2902"
      },
      {
        "line": [
          "2710 Exposition Blvd"
        ],
        "city": "AUSTIN",
        "state": "TX",
        "postalCode": "78703-1762"
      },
      {
        "line": [
          "1135 Garland Ave"
        ],
        "city": "AUSTIN",
        "state": "TX",
        "postalCode": "78721-2625"
      },
      {
        "line": [
          "6700 Arroyo Sec"
        ],
        "city": "AUSTIN",
        "state": "TX",
        "postalCode": "78757-2506"
      },
      {
        "line": [
          "3800 S. Second St"
        ],
        "city": "AUSTIN",
        "state": "TX",
        "postalCode": "78704-7052"
      },
      {
        "line": [
          "1601 Haskell Street"
        ],
        "city": "AUSTIN",
        "state": "TX",
        "postalCode": "78702-5415"
      },
      {
        "line": [
          "10100 S. Mary Moore Searight Dr"
        ],
        "city": "AUSTIN",
        "state": "TX",
        "postalCode": "78748-1681"
      },
      {
        "line": [
          "6015 West Ridgecreek Drive"
        ],
        "city": "HOUSTON",
        "state": "TX",
        "postalCode": "77053-3423"
      },
      {
        "line": [
          "7309 Lazy Creek Drive"
        ],
        "city": "AUSTIN",
        "state": "TX",
        "postalCode": "78724-3211"
      },
      {
        "line": [
          "310 Robert T. Martinez Jr. St"
        ],
        "city": "AUSTIN",
        "state": "TX",
        "postalCode": "78702-4536"
      },
      {
        "line": [
          "18550 Old Richmond Rd."
        ],
        "city": "SUGAR LAND",
        "state": "TX",
        "postalCode": "77479-2700"
      },
      {
        "line": [
          "9000 Camp Sienna Trail"
        ],
        "city": "MISSOURI CITY",
        "state": "TX",
        "postalCode": "77459-2591"
      },
      {
        "line": [
          "10701 S. First Street"
        ],
        "city": "AUSTIN",
        "state": "TX",
        "postalCode": "78748-3807"
      },
      {
        "line": [
          "1909 Waters Lake Blvd."
        ],
        "city": "MISSOURI CITY",
        "state": "TX",
        "postalCode": "77459-2301"
      },
      {
        "line": [
          "1711 Wheless Lane"
        ],
        "city": "AUSTIN",
        "state": "TX",
        "postalCode": "78723-1910"
      },
      {
        "line": [
          "16650 S Post Oak Rd"
        ],
        "city": "HOUSTON",
        "state": "TX",
        "postalCode": "77053-5000"
      },
      {
        "line": [
          "7500 S. Pleasant Valley Road"
        ],
        "city": "AUSTIN",
        "state": "TX",
        "postalCode": "78744-6412"
      },
      {
        "line": [
          "7104 Berkman Dr."
        ],
        "city": "AUSTIN",
        "state": "TX",
        "postalCode": "78752-3403"
      },
      {
        "line": [
          "9000 Sienna Ranch Rd"
        ],
        "city": "MISSOURI CITY",
        "state": "TX",
        "postalCode": "77459-6954"
      },
      {
        "line": [
          "3015 Settlers Way Blvd"
        ],
        "city": "SUGAR LAND",
        "state": "TX",
        "postalCode": "77479-1619"
      },
      {
        "line": [
          "2022 Colonist Park"
        ],
        "city": "SUGAR LAND",
        "state": "TX",
        "postalCode": "77478-4437"
      },
      {
        "line": [
          "16053 Mission Glen"
        ],
        "city": "HOUSTON",
        "state": "TX",
        "postalCode": "77083-5360"
      },
      {
        "line": [
          "1510 Columbia Blue Dr."
        ],
        "city": "MISSOURI CITY",
        "state": "TX",
        "postalCode": "77489-5112"
      },
      {
        "line": [
          "17727 Abermore Lane"
        ],
        "city": "RICHMOND",
        "state": "TX",
        "postalCode": "77407-2200"
      },
      {
        "line": [
          "2117 W. 49th Street"
        ],
        "city": "AUSTIN",
        "state": "TX",
        "postalCode": "78756-2801"
      },
      {
        "line": [
          "3309 Kerbey Lane"
        ],
        "city": "AUSTIN",
        "state": "TX",
        "postalCode": "78703-1452"
      },
      {
        "line": [
          "2011 West Rundberg Lane"
        ],
        "city": "AUSTIN",
        "state": "TX",
        "postalCode": "78758-5946"
      },
      {
        "line": [
          "3440 Independence Blvd"
        ],
        "city": "MISSOURI CITY",
        "state": "TX",
        "postalCode": "77459-2301"
      },
      {
        "line": [
          "5601 Manchaca Rd"
        ],
        "city": "AUSTIN",
        "state": "TX",
        "postalCode": "78745-3633"
      },
      {
        "line": [
          "3830 Harvest Corner Dr."
        ],
        "city": "RICHMOND",
        "state": "TX",
        "postalCode": "77406-3200"
      },
      {
        "line": [
          "8403 Mesa Dr."
        ],
        "city": "AUSTIN",
        "state": "TX",
        "postalCode": "78759-8117"
      },
      {
        "line": [
          "4103 W Slaughter Ln"
        ],
        "city": "AUSTIN",
        "state": "TX",
        "postalCode": "78749-6953"
      },
      {
        "line": [
          "1607 Pennsylvania Ave"
        ],
        "city": "AUSTIN",
        "state": "TX",
        "postalCode": "78702-2020"
      },
      {
        "line": [
          "11325 Lake Woodbridge Dr."
        ],
        "city": "SUGAR LAND",
        "state": "TX",
        "postalCode": "77498-0954"
      },
      {
        "line": [
          "6405 Circle S Road"
        ],
        "city": "AUSTIN",
        "state": "TX",
        "postalCode": "78745-4501"
      },
      {
        "line": [
          "8125 Homeward Way"
        ],
        "city": "SUGAR LAND",
        "state": "TX",
        "postalCode": "77479-2700"
      },
      {
        "line": [
          "1201 Payton Gin Road"
        ],
        "city": "AUSTIN",
        "state": "TX",
        "postalCode": "78758-6166"
      },
      {
        "line": [
          "1221 W Ben White Blvd",
          "Ste 210A"
        ],
        "city": "AUSTIN",
        "state": "TX",
        "postalCode": "78704-7192"
      },
      {
        "line": [
          "16200 Beechnut"
        ],
        "city": "HOUSTON",
        "state": "TX",
        "postalCode": "77083-5320"
      },
      {
        "line": [
          "3019 FM 1092"
        ],
        "city": "MISSOURI CITY",
        "state": "TX",
        "postalCode": "77459-2301"
      },
      {
        "line": [
          "4208 Crow Valley Drive"
        ],
        "city": "MISSOURI CITY",
        "state": "TX",
        "postalCode": "77459-4272"
      },
      {
        "line": [
          "1555 Independence Blvd."
        ],
        "city": "MISSOURI CITY",
        "state": "TX",
        "postalCode": "77489-3104"
      },
      {
        "line": [
          "1001 West Braker LN"
        ],
        "city": "AUSTIN",
        "state": "TX",
        "postalCode": "78758-4114"
      },
      {
        "line": [
          "1211 East Oltorf"
        ],
        "city": "AUSTIN",
        "state": "TX",
        "postalCode": "78704-5711"
      },
      {
        "line": [
          "1200 E. Rundberg Ln."
        ],
        "city": "AUSTIN",
        "state": "TX",
        "postalCode": "78753-4934"
      },
      {
        "line": [
          "19001 Beechnut"
        ],
        "city": "RICHMOND",
        "state": "TX",
        "postalCode": "77407-5277"
      },
      {
        "line": [
          "84 Robert T. Martinez Jr. St"
        ],
        "city": "AUSTIN",
        "state": "TX",
        "postalCode": "78702-4551"
      },
      {
        "line": [
          "12120 Manchaca Road"
        ],
        "city": "AUSTIN",
        "state": "TX",
        "postalCode": "78748-2710"
      },
      {
        "line": [
          "1712 E. 11th St"
        ],
        "city": "AUSTIN",
        "state": "TX",
        "postalCode": "78702-2717"
      },
      {
        "line": [
          "3001 S 1st Street"
        ],
        "city": "AUSTIN",
        "state": "TX",
        "postalCode": "78704-6351"
      },
      {
        "line": [
          "3330 Old South Drive"
        ],
        "city": "RICHMOND",
        "state": "TX",
        "postalCode": "77406-6701"
      },
      {
        "line": [
          "102 E. Rundberg Lane"
        ],
        "city": "AUSTIN",
        "state": "TX",
        "postalCode": "78753-4714"
      },
      {
        "line": [
          "12200 Meridian Park Blvd"
        ],
        "city": "AUSTIN",
        "state": "TX",
        "postalCode": "78739-1502"
      },
      {
        "line": [
          "13927 Old Richmond Road"
        ],
        "city": "SUGAR LAND",
        "state": "TX",
        "postalCode": "77498-1501"
      },
      {
        "line": [
          "19101 Chimney Rock Rd"
        ],
        "city": "FRESNO",
        "state": "TX",
        "postalCode": "77545-6089"
      },
      {
        "line": [
          "4910 Raven Ridge Drive"
        ],
        "city": "HOUSTON",
        "state": "TX",
        "postalCode": "77053-4506"
      },
      {
        "line": [
          "3601 Govalle Ave"
        ],
        "city": "AUSTIN",
        "state": "TX",
        "postalCode": "78702-3715"
      },
      {
        "line": [
          "400 Cooper Drive"
        ],
        "city": "AUSTIN",
        "state": "TX",
        "postalCode": "78752-5030"
      },
      {
        "line": [
          "2200 Berkeley Ave"
        ],
        "city": "AUSTIN",
        "state": "TX",
        "postalCode": "78745-4334"
      },
      {
        "line": [
          "6310 Treadwell Blvd"
        ],
        "city": "AUSTIN",
        "state": "TX",
        "postalCode": "78757-4322"
      },
      {
        "line": [
          "302 Martin Lane"
        ],
        "city": "MISSOURI CITY",
        "state": "TX",
        "postalCode": "77489-1445"
      },
      {
        "line": [
          "3323 Mission Valley Drive"
        ],
        "city": "MISSOURI CITY",
        "state": "TX",
        "postalCode": "77459-2301"
      },
      {
        "line": [
          "695 Independence Blvd"
        ],
        "city": "MISSOURI CITY",
        "state": "TX",
        "postalCode": "77489-3263"
      },
      {
        "line": [
          "8601 Tallwood Drive"
        ],
        "city": "AUSTIN",
        "state": "TX",
        "postalCode": "78759-8126"
      },
      {
        "line": [
          "6201 Wynona St"
        ],
        "city": "AUSTIN",
        "state": "TX",
        "postalCode": "78757-2756"
      },
      {
        "line": [
          "19101 Chimney Rock Road"
        ],
        "city": "FRESNO",
        "state": "TX",
        "postalCode": "77545-6089"
      },
      {
        "line": [
          "1412 Norseman Terrace"
        ],
        "city": "AUSTIN",
        "state": "TX",
        "postalCode": "78758-6529"
      },
      {
        "line": [
          "630 Dulles Avenue"
        ],
        "city": "SUGAR LAND",
        "state": "TX",
        "postalCode": "77478-3747"
      },
      {
        "line": [
          "12037 Pender Lane"
        ],
        "city": "STAFFORD",
        "state": "TX",
        "postalCode": "77477-1622"
      },
      {
        "line": [
          "4400 Austin Parkway"
        ],
        "city": "SUGAR LAND",
        "state": "TX",
        "postalCode": "77479-2141"
      },
      {
        "line": [
          "16655 Bissonnet"
        ],
        "city": "HOUSTON",
        "state": "TX",
        "postalCode": "77083-3779"
      },
      {
        "line": [
          "1519 Coronado Hills Drive"
        ],
        "city": "AUSTIN",
        "state": "TX",
        "postalCode": "78752-2921"
      },
      {
        "line": [
          "13707 Jess Pirtle"
        ],
        "city": "SUGAR LAND",
        "state": "TX",
        "postalCode": "77498-5620"
      },
      {
        "line": [
          "2608 RichCreek"
        ],
        "city": "AUSTIN",
        "state": "TX",
        "postalCode": "78757-2147"
      },
      {
        "line": [
          "7412 W. Slaughter Lane"
        ],
        "city": "AUSTIN",
        "state": "TX",
        "postalCode": "78749-6519"
      },
      {
        "line": [
          "3100 East 4th Street"
        ],
        "city": "AUSTIN",
        "state": "TX",
        "postalCode": "78702-4813"
      },
      {
        "line": [
          "3700 N Hills Dr"
        ],
        "city": "AUSTIN",
        "state": "TX",
        "postalCode": "78731-3022"
      },
      {
        "line": [
          "5107 S INTERSTATE 35",
          "Ste A"
        ],
        "city": "AUSTIN",
        "state": "TX",
        "postalCode": "78744-2736"
      },
      {
        "line": [
          "3000 Jones Road"
        ],
        "city": "AUSTIN",
        "state": "TX",
        "postalCode": "78745-1337"
      },
      {
        "line": [
          "1010 Turtle Creek Blvd"
        ],
        "city": "AUSTIN",
        "state": "TX",
        "postalCode": "78745-2973"
      },
      {
        "line": [
          "5200 Freidrich Lane"
        ],
        "city": "AUSTIN",
        "state": "TX",
        "postalCode": "78744-2715"
      },
      {
        "line": [
          "4200 Elkins Road"
        ],
        "city": "SUGAR LAND",
        "state": "TX",
        "postalCode": "77479-2403"
      },
      {
        "line": [
          "1406 Dale DR"
        ],
        "city": "AUSTIN",
        "state": "TX",
        "postalCode": "78757-8310"
      },
      {
        "line": [
          "3100 Rogge Lane"
        ],
        "city": "AUSTIN",
        "state": "TX",
        "postalCode": "78723-4831"
      },
      {
        "line": [
          "5440 Elkins Road"
        ],
        "city": "SUGAR LAND",
        "state": "TX",
        "postalCode": "77479-2700"
      },
      {
        "line": [
          "16301 Chimney Rock Rd"
        ],
        "city": "HOUSTON",
        "state": "TX",
        "postalCode": "77053-4212"
      },
      {
        "line": [
          "2206 Prather Lane"
        ],
        "city": "AUSTIN",
        "state": "TX",
        "postalCode": "78704-6722"
      },
      {
        "line": [
          "202 Martin Lane"
        ],
        "city": "MISSOURI CITY",
        "state": "TX",
        "postalCode": "77489-1443"
      },
      {
        "line": [
          "6801 Northeast Drive"
        ],
        "city": "AUSTIN",
        "state": "TX",
        "postalCode": "78723-2130"
      },
      {
        "line": [
          "5600 Sunshine Drive"
        ],
        "city": "AUSTIN",
        "state": "TX",
        "postalCode": "78756-1513"
      },
      {
        "line": [
          "8101 Croftwood Dr"
        ],
        "city": "AUSTIN",
        "state": "TX",
        "postalCode": "78749-3255"
      },
      {
        "line": [
          "321 Seventh Street"
        ],
        "city": "SUGAR LAND",
        "state": "TX",
        "postalCode": "77498-2642"
      },
      {
        "line": [
          "906 West Lynn St"
        ],
        "city": "AUSTIN",
        "state": "TX",
        "postalCode": "78703-4758"
      },
      {
        "line": [
          "18702 Beechnut St."
        ],
        "city": "RICHMOND",
        "state": "TX",
        "postalCode": "77407-5223"
      },
      {
        "line": [
          "16510 Bissonnet"
        ],
        "city": "HOUSTON",
        "state": "TX",
        "postalCode": "77083-3600"
      },
      {
        "line": [
          "540 Dulles Ave."
        ],
        "city": "SUGAR LAND",
        "state": "TX",
        "postalCode": "77478-3746"
      },
      {
        "line": [
          "11211 Tom Adams Drive"
        ],
        "city": "AUSTIN",
        "state": "TX",
        "postalCode": "78753-3315"
      },
      {
        "line": [
          "11111 Harlem Road"
        ],
        "city": "RICHMOND",
        "state": "TX",
        "postalCode": "77406-3657"
      },
      {
        "line": [
          "201 E. Mary Street"
        ],
        "city": "AUSTIN",
        "state": "TX",
        "postalCode": "78704-3554"
      },
      {
        "line": [
          "7525 LaCrosse Ave"
        ],
        "city": "AUSTIN",
        "state": "TX",
        "postalCode": "78739-2102"
      },
      {
        "line": [
          "5408 Westminster Drive"
        ],
        "city": "AUSTIN",
        "state": "TX",
        "postalCode": "78723-3454"
      },
      {
        "line": [
          "8601 Vertex Blvd."
        ],
        "city": "AUSTIN",
        "state": "TX",
        "postalCode": "78744-8202"
      },
      {
        "line": [
          "8301 Furness Street"
        ],
        "city": "AUSTIN",
        "state": "TX",
        "postalCode": "78753-5826"
      }
    ],
    "extension": [
      {
        "url": "https://fhir.athena.io/StructureDefinition/ah-practice",
        "valueReference": {
          "reference": "Organization/a-1.Practice-13269"
        }
      },
      {
        "url": "https://fhir.athena.io/StructureDefinition/ah-brand",
        "valueReference": {
          "reference": "Organization/a-13269.Brand-1"
        }
      }
    ]
  },
  "fullUrl": "urn:uuid:496fef17-a3ac-5bd3-8dad-b7208a7af5d6"
}