{
  "resource": {
    "resourceType": "Organization",
    "id": "f460756e-eb28-59a3-b744-7c973bae16a9",
    "name": "SC House Calls/ Main Street Ph",
    "endpoint": [
      {
        "reference": "Endpoint/27a4e967-47aa-5a9c-a572-b8297ee268a2"
      },
      {
        "reference": "Endpoint/622da91e-381c-53b5-a522-d80572aed26f"
      }
    ],
    "identifier": [
      {
        "system": "http://hl7.org/fhir/sid/us-npi",
        "value": "1659114577"
      }
    ],
    "address": [
      {
        "line": [
          "471 SHORES BLVD"
        ],
        "city": "SAINT AUGUSTINE",
        "state": "FL",
        "postalCode": "32086-7350"
      },
      {
        "line": [
          "100 VINTAGE LN"
        ],
        "city": "PALATKA",
        "state": "FL",
        "postalCode": "32177-8555"
      },
      {
        "line": [
          "3 CLUB HOUSE DR"
        ],
        "city": "PALM COAST",
        "state": "FL",
        "postalCode": "32137-3870"
      },
      {
        "line": [
          "1301 PLANTATION ISLAND DR S STE 303B"
        ],
        "city": "SAINT AUGUSTINE",
        "state": "FL",
        "postalCode": "32080-3117"
      },
      {
        "line": [
          "1015 S 10TH ST"
        ],
        "city": "PALATKA",
        "state": "FL",
        "postalCode": "32177-6023"
      },
      {
        "line": [
          "650 COLBERT LN"
        ],
        "city": "PALM COAST",
        "state": "FL",
        "postalCode": "32137-4503"
      },
      {
        "line": [
          "115 BENTON LN"
        ],
        "city": "SAINT AUGUSTINE",
        "state": "FL",
        "postalCode": "32092-5102"
      },
      {
        "line": [
          "10660 Validus Dr"
        ],
        "city": "JACKSONVILLE",
        "state": "FL",
        "postalCode": "32256-4859"
      },
      {
        "line": [
          "165 SILVER LN"
        ],
        "city": "SAINT AUGUSTINE",
        "state": "FL",
        "postalCode": "32084-3914"
      },
      {
        "line": [
          "7024 WILEY RD"
        ],
        "city": "JACKSONVILLE",
        "state": "FL",
        "postalCode": "32210-2736"
      },
      {
        "line": [
          "70 TOWN CT"
        ],
        "city": "PALM COAST",
        "state": "FL",
        "postalCode": "32164-2493"
      },
      {
        "line": [
          "3339 HIGHWAY 17"
        ],
        "city": "GREEN COVE SPRINGS",
        "state": "FL",
        "postalCode": "32043-3797"
      },
      {
        "line": [
          "1101 Plantation Island Dr S"
        ],
        "city": "SAINT AUGUSTINE",
        "state": "FL",
        "postalCode": "32080-3117"
      },
      {
        "line": [
          "2201 HUSSON AVE"
        ],
        "city": "PALATKA",
        "state": "FL",
        "postalCode": "32177-6528"
      },
      {
        "line": [
          "203 S MOODY RD"
        ],
        "city": "PALATKA",
        "state": "FL",
        "postalCode": "32177-3903"
      },
      {
        "line": [
          "1724 VALENCIA AVE"
        ],
        "city": "ORMOND BEACH",
        "state": "FL",
        "postalCode": "32174-7242"
      },
      {
        "line": [
          "162 W ROBERTSON ST"
        ],
        "city": "BRANDON",
        "state": "FL",
        "postalCode": "33511-5112"
      },
      {
        "line": [
          "6561 SAN JUAN AVE"
        ],
        "city": "JACKSONVILLE",
        "state": "FL",
        "postalCode": "32210-2857"
      },
      {
        "line": [
          "1717 WESTOVER DR"
        ],
        "city": "PALATKA",
        "state": "FL",
        "postalCode": "32177-5339"
      },
      {
        "line": [
          "570 National Health Care Drive"
        ],
        "city": "DAYTONA BEACH",
        "state": "FL",
        "postalCode": "32114-1494"
      },
      {
        "line": [
          "115 Washington St"
        ],
        "city": "NEW SMYRNA BEACH",
        "state": "FL",
        "postalCode": "32168-7068"
      },
      {
        "line": [
          "150 MARINER HEALTH WAY"
        ],
        "city": "SAINT AUGUSTINE",
        "state": "FL",
        "postalCode": "32086-3215"
      },
      {
        "line": [
          "2901 KENNEDY ST"
        ],
        "city": "PALATKA",
        "state": "FL",
        "postalCode": "32177-4165"
      },
      {
        "line": [
          "2125 PALM HARBOR PKWY"
        ],
        "city": "PALM COAST",
        "state": "FL",
        "postalCode": "32137-8000"
      },
      {
        "line": [
          "6401 SAINT JOHNS AVE"
        ],
        "city": "PALATKA",
        "state": "FL",
        "postalCode": "32177-6822"
      },
      {
        "line": [
          "4915 EHRLICH RD"
        ],
        "city": "TAMPA",
        "state": "FL",
        "postalCode": "33624-2038"
      },
      {
        "line": [
          "10141 OLD ST AUGUSTINE RD"
        ],
        "city": "JACKSONVILLE",
        "state": "FL",
        "postalCode": "32257-6501"
      },
      {
        "line": [
          "2 CORPORATE DR"
        ],
        "city": "PALM COAST",
        "state": "FL",
        "postalCode": "32137-4712"
      }
    ],
    "extension": [
      {
        "url": "https://fhir.athena.io/StructureDefinition/ah-practice",
        "valueReference": {
          "reference": "Organization/a-1.Practice-7602"
        }
      },
      {
        "url": "https://fhir.athena.io/StructureDefinition/ah-brand",
        "valueReference": {
          "reference": "Organization/a-7602.Brand-2"
        }
      }
    ]
  },
  "fullUrl": "urn:uuid:f460756e-eb28-59a3-b744-7c973bae16a9"
}