{
  "resource": {
    "resourceType": "Organization",
    "id": "9f26a02b-4e50-5cc5-bc49-842c8e77a858",
    "name": "Lakeside Cosmetic Center",
    "endpoint": [
      {
        "reference": "Endpoint/27a4e967-47aa-5a9c-a572-b8297ee268a2"
      },
      {
        "reference": "Endpoint/705c8b52-d250-5c31-ab3d-f8ea0973c824"
      }
    ],
    "identifier": [
      {
        "system": "http://hl7.org/fhir/sid/us-npi",
        "value": "1841211836"
      }
    ],
    "address": [
      {
        "line": [
          "229B PARRISH STREET",
          "STE 260"
        ],
        "city": "CANANDAIGUA",
        "state": "NY",
        "postalCode": "14424-1791"
      },
      {
        "line": [
          "229 Parrish Street",
          "Ste 250"
        ],
        "city": "CANANDAIGUA",
        "state": "NY",
        "postalCode": "14424-1791"
      },
      {
        "line": [
          "215 Summit St"
        ],
        "city": "BATAVIA",
        "state": "NY",
        "postalCode": "14020-1649"
      },
      {
        "line": [
          "164 WASHINGTON AVE"
        ],
        "city": "BATAVIA",
        "state": "NY",
        "postalCode": "14020-2113"
      },
      {
        "line": [
          "2 COULTER ROAD"
        ],
        "city": "CLIFTON SPRINGS",
        "state": "NY",
        "postalCode": "14432-1122"
      },
      {
        "line": [
          "360 PARRISH STREET"
        ],
        "city": "CANANDAIGUA",
        "state": "NY",
        "postalCode": "14424-1789"
      },
      {
        "line": [
          "196 NORTH ST"
        ],
        "city": "GENEVA",
        "state": "NY",
        "postalCode": "14456-1651"
      },
      {
        "line": [
          "3700 Pre Emption Road"
        ],
        "city": "GENEVA",
        "state": "NY",
        "postalCode": "14456-1651"
      },
      {
        "line": [
          "2601 LAC DE VILLE BLVD"
        ],
        "city": "ROCHESTER",
        "state": "NY",
        "postalCode": "14618-5644"
      }
    ],
    "extension": [
      {
        "url": "https://fhir.athena.io/StructureDefinition/ah-practice",
        "valueReference": {
          "reference": "Organization/a-1.Practice-20310"
        }
      },
      {
        "url": "https://fhir.athena.io/StructureDefinition/ah-brand",
        "valueReference": {
          "reference": "Organization/a-20310.Brand-1"
        }
      }
    ]
  },
  "fullUrl": "urn:uuid:9f26a02b-4e50-5cc5-bc49-842c8e77a858"
}