{
  "resource": {
    "resourceType": "Organization",
    "id": "b4c2157c-cc42-5ec0-975a-adcb33fed2b7",
    "name": "Ansible Health Medical Group, PA",
    "endpoint": [
      {
        "reference": "Endpoint/27a4e967-47aa-5a9c-a572-b8297ee268a2"
      },
      {
        "reference": "Endpoint/cd5c14ac-1022-56b8-adf8-615fb14c8acf"
      }
    ],
    "identifier": [
      {
        "system": "http://hl7.org/fhir/sid/us-npi",
        "value": "1093592644"
      },
      {
        "system": "http://hl7.org/fhir/sid/us-npi",
        "value": "1205588324"
      }
    ],
    "address": [
      {
        "line": [
          "322 LAMAR AVE STE 107"
        ],
        "city": "CHARLOTTE",
        "state": "NC",
        "postalCode": "28204-2436"
      },
      {
        "line": [
          "6417 PENN AVE S STE 7"
        ],
        "city": "MINNEAPOLIS",
        "state": "MN",
        "postalCode": "55423-1196"
      },
      {
        "line": [
          "7121 W CRAIG RD STE 113"
        ],
        "city": "LAS VEGAS",
        "state": "NV",
        "postalCode": "89129-6038"
      },
      {
        "line": [
          "470 W BROAD ST"
        ],
        "city": "COLUMBUS",
        "state": "OH",
        "postalCode": "43215-2759"
      },
      {
        "line": [
          "804 MEADOW ST"
        ],
        "city": "LITTLETON",
        "state": "NH",
        "postalCode": "03561-3606"
      },
      {
        "line": [
          "7402 N 56TH ST STE 355"
        ],
        "city": "TAMPA",
        "state": "FL",
        "postalCode": "33617-7700"
      },
      {
        "line": [
          "249 BEAUVOIR ROAD B2"
        ],
        "city": "BILOXI",
        "state": "MS",
        "postalCode": "39531-4008"
      },
      {
        "line": [
          "300 SOUTH MAIN ST"
        ],
        "city": "RUTLAND",
        "state": "VT",
        "postalCode": "05701-4725"
      },
      {
        "line": [
          "600 1ST AVE STE 102"
        ],
        "city": "SEATTLE",
        "state": "WA",
        "postalCode": "98104-2287"
      },
      {
        "line": [
          "9029 JEFFERSON HWY STE D"
        ],
        "city": "NEW ORLEANS",
        "state": "LA",
        "postalCode": "70123-3500"
      },
      {
        "line": [
          "105 ZIEBACH ST"
        ],
        "city": "BELLE FOURCHE",
        "state": "SD",
        "postalCode": "57717-2321"
      },
      {
        "line": [
          "8 GURNET RD STE 7"
        ],
        "city": "BRUNSWICK",
        "state": "ME",
        "postalCode": "04011-2766"
      },
      {
        "line": [
          "1019 MAIN ST"
        ],
        "city": "BRIDGEPORT",
        "state": "CT",
        "postalCode": "06604-4221"
      },
      {
        "line": [
          "7929 EASTERN AVE"
        ],
        "city": "BALTIMORE",
        "state": "MD",
        "postalCode": "21224-2141"
      },
      {
        "line": [
          "407 E AYRE ST"
        ],
        "city": "WILMINGTON",
        "state": "DE",
        "postalCode": "19804-2512"
      },
      {
        "line": [
          "160 OLD TOWER HILL ROAD"
        ],
        "city": "WAKEFIELD",
        "state": "RI",
        "postalCode": "02879-3742"
      },
      {
        "line": [
          "2232 DELL RANGE BLVD SUITE 242"
        ],
        "city": "CHEYENNE",
        "state": "WY",
        "postalCode": "82009-4979"
      },
      {
        "line": [
          "6705 W HIGHWAY 290 SUITE 607"
        ],
        "city": "AUSTIN",
        "state": "TX",
        "postalCode": "78735-8408"
      },
      {
        "line": [
          "249 Central Park Ave",
          "SUITE 300"
        ],
        "city": "VIRGINIA BEACH",
        "state": "VA",
        "postalCode": "23462-3271"
      },
      {
        "line": [
          "200 N VINEYARD BLVD"
        ],
        "city": "HONOLULU",
        "state": "HI",
        "postalCode": "96817-3950"
      },
      {
        "line": [
          "3058 BARDSTOWN RD"
        ],
        "city": "LOUISVILLE",
        "state": "KY",
        "postalCode": "40205-3020"
      },
      {
        "line": [
          "1141 E GLENDALE AVE"
        ],
        "city": "PHOENIX",
        "state": "AZ",
        "postalCode": "85020-5316"
      },
      {
        "line": [
          "1802 VERNON ST NW"
        ],
        "city": "WASHINGTON",
        "state": "DC",
        "postalCode": "20009-1217"
      },
      {
        "line": [
          "4703 W 30TH ST"
        ],
        "city": "INDIANAPOLIS",
        "state": "IN",
        "postalCode": "46222-1513"
      },
      {
        "line": [
          "1130 S CANAL ST"
        ],
        "city": "CHICAGO",
        "state": "IL",
        "postalCode": "60607-5058"
      },
      {
        "line": [
          "3558 N JEFFERSON ST STE 5"
        ],
        "city": "LEWISBURG",
        "state": "WV",
        "postalCode": "24901-9504"
      },
      {
        "line": [
          "3609 AUSTIN BLUFFS PKWY STE 31"
        ],
        "city": "COLORADO SPRINGS",
        "state": "CO",
        "postalCode": "80918-6658"
      },
      {
        "line": [
          "867 BOYLSTON ST 5TH FL"
        ],
        "city": "BOSTON",
        "state": "MA",
        "postalCode": "02116-2774"
      },
      {
        "line": [
          "2821 RACE ST STE C"
        ],
        "city": "JONESBORO",
        "state": "AR",
        "postalCode": "72401-7324"
      },
      {
        "line": [
          "3556 S 5600 W"
        ],
        "city": "SALT LAKE CITY",
        "state": "UT",
        "postalCode": "84120-2815"
      },
      {
        "line": [
          "6001 MENAUL BLVD NE"
        ],
        "city": "ALBUQUERQUE",
        "state": "NM",
        "postalCode": "87110-3379"
      },
      {
        "line": [
          "6907 PAGE AVE"
        ],
        "city": "SAINT LOUIS",
        "state": "MO",
        "postalCode": "63133-1507"
      },
      {
        "line": [
          "606 W WISCONSIN AVE STE 202"
        ],
        "city": "MILWAUKEE",
        "state": "WI",
        "postalCode": "53203-1924"
      },
      {
        "line": [
          "105 WEST 125TH ST FRONT 1"
        ],
        "city": "NEW YORK",
        "state": "NY",
        "postalCode": "10027-4444"
      },
      {
        "line": [
          "19 8TH ST SOUTH"
        ],
        "city": "FARGO",
        "state": "ND",
        "postalCode": "58103-1804"
      },
      {
        "line": [
          "750 W DIMOND BLVD STE 103"
        ],
        "city": "ANCHORAGE",
        "state": "AK",
        "postalCode": "99515-1500"
      },
      {
        "line": [
          "6111 SHALLOWFORD RD STE 105D"
        ],
        "city": "CHATTANOOGA",
        "state": "TN",
        "postalCode": "37421-7800"
      },
      {
        "line": [
          "4784 N LOMBARD ST SUITE B"
        ],
        "city": "PORTLAND",
        "state": "OR",
        "postalCode": "97203-4565"
      },
      {
        "line": [
          "111 N OAK ST"
        ],
        "city": "SALLISAW",
        "state": "OK",
        "postalCode": "74955-4637"
      },
      {
        "line": [
          "115 4TH AVE S"
        ],
        "city": "CLINTON",
        "state": "IA",
        "postalCode": "52732-4107"
      },
      {
        "line": [
          "210 WEST GRANT STREET SUITE 109"
        ],
        "city": "LANCASTER",
        "state": "PA",
        "postalCode": "17603-3707"
      },
      {
        "line": [
          "534 SAINT ANDREWS ROAD SUITE B"
        ],
        "city": "COLUMBIA",
        "state": "SC",
        "postalCode": "29210-4580"
      },
      {
        "line": [
          "1055 HOWELL MILL RD NW STE 8082"
        ],
        "city": "ATLANTA",
        "state": "GA",
        "postalCode": "30318-5557"
      },
      {
        "line": [
          "1401 DOUG BAKER BLVD STE 107"
        ],
        "city": "BIRMINGHAM",
        "state": "AL",
        "postalCode": "35242-4975"
      },
      {
        "line": [
          "22725 GREATER MACK AVE 301B"
        ],
        "city": "SAINT CLAIR SHORES",
        "state": "MI",
        "postalCode": "48080-2023"
      }
    ],
    "extension": [
      {
        "url": "https://fhir.athena.io/StructureDefinition/ah-practice",
        "valueReference": {
          "reference": "Organization/a-1.Practice-25005"
        }
      },
      {
        "url": "https://fhir.athena.io/StructureDefinition/ah-brand",
        "valueReference": {
          "reference": "Organization/a-25005.Brand-1"
        }
      }
    ]
  },
  "fullUrl": "urn:uuid:b4c2157c-cc42-5ec0-975a-adcb33fed2b7"
}