{
  "resource": {
    "resourceType": "Organization",
    "id": "9b93ed42-bcab-59b1-afa4-0a237f909389",
    "name": "Star Foot and Ankle Specialists",
    "endpoint": [
      {
        "reference": "Endpoint/27a4e967-47aa-5a9c-a572-b8297ee268a2"
      },
      {
        "reference": "Endpoint/61c8ff3a-4d54-5185-b1a3-88a0ccac4bbb"
      }
    ],
    "identifier": [
      {
        "system": "http://hl7.org/fhir/sid/us-npi",
        "value": "1356013486"
      }
    ],
    "address": [
      {
        "line": [
          "12400 DALLAS PKWY"
        ],
        "city": "FRISCO",
        "state": "TX",
        "postalCode": "75033-4224"
      },
      {
        "line": [
          "2301 MARSH LN STE 200"
        ],
        "city": "PLANO",
        "state": "TX",
        "postalCode": "75093-8497"
      },
      {
        "line": [
          "5500 FRISCO SQUARE BLVD"
        ],
        "city": "FRISCO",
        "state": "TX",
        "postalCode": "75034-3305"
      },
      {
        "line": [
          "5601 WARREN PKWY"
        ],
        "city": "FRISCO",
        "state": "TX",
        "postalCode": "75034-4069"
      },
      {
        "line": [
          "1190 NORTH HASKELL AVE."
        ],
        "city": "DALLAS",
        "state": "TX",
        "postalCode": "75204-2927"
      },
      {
        "line": [
          "8200 WALNUT HILL LANE"
        ],
        "city": "DALLAS",
        "state": "TX",
        "postalCode": "75231-4402"
      },
      {
        "line": [
          "3550 PARKWOOD BLVD STE 702"
        ],
        "city": "FRISCO",
        "state": "TX",
        "postalCode": "75034-1920"
      },
      {
        "line": [
          "6957 W PLANO PKWY STE 1000"
        ],
        "city": "PLANO",
        "state": "TX",
        "postalCode": "75093-1621"
      },
      {
        "line": [
          "610 N. COIT RD",
          "SUITE 2120"
        ],
        "city": "RICHARDSON",
        "state": "TX",
        "postalCode": "75080-5462"
      },
      {
        "line": [
          "8300 ELDORADO PKWY"
        ],
        "city": "MCKINNEY",
        "state": "TX",
        "postalCode": "75070-5946"
      }
    ],
    "extension": [
      {
        "url": "https://fhir.athena.io/StructureDefinition/ah-practice",
        "valueReference": {
          "reference": "Organization/a-1.Practice-25292"
        }
      },
      {
        "url": "https://fhir.athena.io/StructureDefinition/ah-brand",
        "valueReference": {
          "reference": "Organization/a-25292.Brand-1"
        }
      }
    ]
  },
  "fullUrl": "urn:uuid:9b93ed42-bcab-59b1-afa4-0a237f909389"
}