{
  "resource": {
    "resourceType": "Organization",
    "id": "3654fe0a-4aa6-5087-8613-5c856e45e2e3",
    "name": "Autumn Ridge",
    "endpoint": [
      {
        "reference": "Endpoint/27a4e967-47aa-5a9c-a572-b8297ee268a2"
      },
      {
        "reference": "Endpoint/90a07f78-7871-52db-b41c-845545e37ee8"
      }
    ],
    "identifier": [
      {
        "system": "http://hl7.org/fhir/sid/us-npi",
        "value": "1689022469"
      },
      {
        "system": "http://hl7.org/fhir/sid/us-npi",
        "value": "1659326395"
      },
      {
        "system": "http://hl7.org/fhir/sid/us-npi",
        "value": "1922185750"
      }
    ],
    "address": [
      {
        "line": [
          "2760 E YODER DR"
        ],
        "city": "MIDLAND",
        "state": "MI",
        "postalCode": "48640-8533"
      },
      {
        "line": [
          "915 N River Rd"
        ],
        "city": "SAGINAW",
        "state": "MI",
        "postalCode": "48609-6831"
      },
      {
        "line": [
          "1332 PROSPECT AVE"
        ],
        "city": "CARO",
        "state": "MI",
        "postalCode": "48723-9288"
      },
      {
        "line": [
          "1525 W CARO RD"
        ],
        "city": "CARO",
        "state": "MI",
        "postalCode": "48723-9686"
      },
      {
        "line": [
          "351 N Mid- Bay County Line Rd,"
        ],
        "city": "MIDLAND",
        "state": "MI",
        "postalCode": "48642-9626"
      },
      {
        "line": [
          "202 PLAINVIEW DR"
        ],
        "city": "AUBURN",
        "state": "MI",
        "postalCode": "48611-9303"
      },
      {
        "line": [
          "110 N AUBURN RD"
        ],
        "city": "AUBURN",
        "state": "MI",
        "postalCode": "48611-9412"
      },
      {
        "line": [
          "1900 Columbus Ave"
        ],
        "city": "BAY CITY",
        "state": "MI",
        "postalCode": "48708-6831"
      },
      {
        "line": [
          "4710 STEPHANIE ST"
        ],
        "city": "AUBURN",
        "state": "MI",
        "postalCode": "48611-9220"
      },
      {
        "line": [
          "1010 ALICE ST"
        ],
        "city": "EAST TAWAS",
        "state": "MI",
        "postalCode": "48730-9645"
      },
      {
        "line": [
          "2250 MCCLURE CEMETERY RD"
        ],
        "city": "GLADWIN",
        "state": "MI",
        "postalCode": "48624-9772"
      },
      {
        "line": [
          "18900 16 MILE RD"
        ],
        "city": "BIG RAPIDS",
        "state": "MI",
        "postalCode": "49307-8727"
      },
      {
        "line": [
          "6405 RICHFIELD RD"
        ],
        "city": "FLINT",
        "state": "MI",
        "postalCode": "48506-2211"
      },
      {
        "line": [
          "255 Mayer Rd"
        ],
        "city": "FRANKENMUTH",
        "state": "MI",
        "postalCode": "48734-0191"
      },
      {
        "line": [
          "3138 CURTIS DR"
        ],
        "city": "FLINT",
        "state": "MI",
        "postalCode": "48507-1220"
      },
      {
        "line": [
          "700 Cooper Ave"
        ],
        "city": "SAGINAW",
        "state": "MI",
        "postalCode": "48602-5383"
      },
      {
        "line": [
          "1017 WOODLAWN PARK DR"
        ],
        "city": "FLINT",
        "state": "MI",
        "postalCode": "48503-2762"
      },
      {
        "line": [
          "9445 Creekbend Trail"
        ],
        "city": "DAVISON",
        "state": "MI",
        "postalCode": "48423-8626"
      },
      {
        "line": [
          "5366 W ROLLING HILLS DR"
        ],
        "city": "BRIDGEPORT",
        "state": "MI",
        "postalCode": "48722-9671"
      },
      {
        "line": [
          "300 KENNELY RD"
        ],
        "city": "SAGINAW",
        "state": "MI",
        "postalCode": "48609-7700"
      },
      {
        "line": [
          "521 W Ohmer Rd"
        ],
        "city": "MAYVILLE",
        "state": "MI",
        "postalCode": "48744-6551"
      },
      {
        "line": [
          "2160 N CENTER RD"
        ],
        "city": "SAGINAW",
        "state": "MI",
        "postalCode": "48603-3717"
      },
      {
        "line": [
          "725 W Genesee St"
        ],
        "city": "FRANKENMUTH",
        "state": "MI",
        "postalCode": "48734-1316"
      },
      {
        "line": [
          "5566 SUGAR BUSH LN"
        ],
        "city": "FLINT",
        "state": "MI",
        "postalCode": "48532-2239"
      },
      {
        "line": [
          "208 W BURNSIDE ST"
        ],
        "city": "CARO",
        "state": "MI",
        "postalCode": "48723-1501"
      },
      {
        "line": [
          "22111 WOODWARD AVE"
        ],
        "city": "FERNDALE",
        "state": "MI",
        "postalCode": "48220-4500"
      },
      {
        "line": [
          "504 RANDOM LN"
        ],
        "city": "GAYLORD",
        "state": "MI",
        "postalCode": "49735-8346"
      },
      {
        "line": [
          "201 S Front St"
        ],
        "city": "CHESANING",
        "state": "MI",
        "postalCode": "48616-1328"
      },
      {
        "line": [
          "120 GRANDVIEW BLVD"
        ],
        "city": "GAGETOWN",
        "state": "MI",
        "postalCode": "48735-2025"
      },
      {
        "line": [
          "2575 MCLEOD DR N"
        ],
        "city": "SAGINAW",
        "state": "MI",
        "postalCode": "48604-2857"
      },
      {
        "line": [
          "2425 Austins Parkway Suite 1"
        ],
        "city": "FLINT",
        "state": "MI",
        "postalCode": "48507-1344"
      },
      {
        "line": [
          "1106 HEATHERWOODE RD"
        ],
        "city": "FLINT",
        "state": "MI",
        "postalCode": "48532-2336"
      },
      {
        "line": [
          "130 MARY ANN ST"
        ],
        "city": "GRAYLING",
        "state": "MI",
        "postalCode": "49738-7037"
      },
      {
        "line": [
          "34020 PLYMOUTH RD"
        ],
        "city": "LIVONIA",
        "state": "MI",
        "postalCode": "48150-1512"
      },
      {
        "line": [
          "1525 W CARO RD",
          "STE A"
        ],
        "city": "CARO",
        "state": "MI",
        "postalCode": "48723-9686"
      },
      {
        "line": [
          "800 S Washington Ave"
        ],
        "city": "SAGINAW",
        "state": "MI",
        "postalCode": "48601-2551"
      },
      {
        "line": [
          "3200 Hospital Rd"
        ],
        "city": "SAGINAW",
        "state": "MI",
        "postalCode": "48608-9622"
      },
      {
        "line": [
          "22109 Professional Dr."
        ],
        "city": "REED CITY",
        "state": "MI",
        "postalCode": "49677-7509"
      },
      {
        "line": [
          "8163 COLDWATER RD"
        ],
        "city": "FLUSHING",
        "state": "MI",
        "postalCode": "48433-1121"
      },
      {
        "line": [
          "1301 WOODLAWN PARK DR"
        ],
        "city": "FLINT",
        "state": "MI",
        "postalCode": "48503-2767"
      },
      {
        "line": [
          "4141 MCCARTY RD"
        ],
        "city": "SAGINAW",
        "state": "MI",
        "postalCode": "48603-9323"
      },
      {
        "line": [
          "1945 Churchill Blvd"
        ],
        "city": "MOUNT PLEASANT",
        "state": "MI",
        "postalCode": "48858-9193"
      },
      {
        "line": [
          "5351 3 Mile Rd"
        ],
        "city": "BAY CITY",
        "state": "MI",
        "postalCode": "48706-5353"
      },
      {
        "line": [
          "2800 COURT ST"
        ],
        "city": "SAGINAW",
        "state": "MI",
        "postalCode": "48602-3640"
      },
      {
        "line": [
          "616 W GILFORD RD"
        ],
        "city": "CARO",
        "state": "MI",
        "postalCode": "48723-1009"
      },
      {
        "line": [
          "4180 Tittabawassee Rd"
        ],
        "city": "SAGINAW",
        "state": "MI",
        "postalCode": "48604-9413"
      },
      {
        "line": [
          "3363 HOSPITAL RD"
        ],
        "city": "SAGINAW",
        "state": "MI",
        "postalCode": "48603-9622"
      },
      {
        "line": [
          "8454 WESLEY DR"
        ],
        "city": "FLUSHING",
        "state": "MI",
        "postalCode": "48433-1165"
      },
      {
        "line": [
          "727 East St"
        ],
        "city": "FLINT",
        "state": "MI",
        "postalCode": "48503-2030"
      },
      {
        "line": [
          "1614 WOODLAWN PARK DR"
        ],
        "city": "FLINT",
        "state": "MI",
        "postalCode": "48503-2771"
      },
      {
        "line": [
          "6294 TANBARK CT"
        ],
        "city": "FLINT",
        "state": "MI",
        "postalCode": "48532-2157"
      },
      {
        "line": [
          "5775 W ISABELLA RD"
        ],
        "city": "MOUNT PLEASANT",
        "state": "MI",
        "postalCode": "48858-9302"
      },
      {
        "line": [
          "3611 CARPENTER ST",
          "STE 6"
        ],
        "city": "HAMTRAMCK",
        "state": "MI",
        "postalCode": "48212-2784"
      },
      {
        "line": [
          "2400 WHISTLE STOP LN"
        ],
        "city": "HOLLY",
        "state": "MI",
        "postalCode": "48442-8387"
      },
      {
        "line": [
          "1525 W Caro Rd Ste A"
        ],
        "city": "CARO",
        "state": "MI",
        "postalCode": "48723-8723"
      }
    ],
    "extension": [
      {
        "url": "https://fhir.athena.io/StructureDefinition/ah-practice",
        "valueReference": {
          "reference": "Organization/a-1.Practice-20296"
        }
      },
      {
        "url": "https://fhir.athena.io/StructureDefinition/ah-brand",
        "valueReference": {
          "reference": "Organization/a-20296.Brand-1"
        }
      }
    ]
  },
  "fullUrl": "urn:uuid:3654fe0a-4aa6-5087-8613-5c856e45e2e3"
}