{
  "resource": {
    "resourceType": "Organization",
    "id": "0838460c-7555-5daa-af92-7c9f36fd22db",
    "name": "BERNARDO A ROJAS MD, PLLC",
    "endpoint": [
      {
        "reference": "Endpoint/27a4e967-47aa-5a9c-a572-b8297ee268a2"
      },
      {
        "reference": "Endpoint/d1b1fc36-27a3-55c1-b8f7-e7ff8e595e63"
      }
    ],
    "identifier": [
      {
        "system": "http://hl7.org/fhir/sid/us-npi",
        "value": "1437568953"
      }
    ],
    "address": [
      {
        "line": [
          "6257 TELEGRAPH RD"
        ],
        "city": "BLOOMFIELD HILLS",
        "state": "MI",
        "postalCode": "48301-1622"
      },
      {
        "line": [
          "58969 NORTHPOINTE BLVD"
        ],
        "city": "UTICA",
        "state": "MI",
        "postalCode": "48315-5803"
      },
      {
        "line": [
          "5700 WATER TOWER PL"
        ],
        "city": "CLARKSTON",
        "state": "MI",
        "postalCode": "48346-2668"
      },
      {
        "line": [
          "5655 CLARKSTON RD"
        ],
        "city": "CLARKSTON",
        "state": "MI",
        "postalCode": "48348-3714"
      },
      {
        "line": [
          "6710 W MAPLE RD"
        ],
        "city": "WEST BLOOMFIELD",
        "state": "MI",
        "postalCode": "48322-3014"
      },
      {
        "line": [
          "1900 N WASHINGTON AVE"
        ],
        "city": "ROYAL OAK",
        "state": "MI",
        "postalCode": "48073-4161"
      },
      {
        "line": [
          "19794 21 Mile Rd"
        ],
        "city": "UTICA",
        "state": "MI",
        "postalCode": "48315-4854"
      },
      {
        "line": [
          "49880 HAYES"
        ],
        "city": "MACOMB",
        "state": "MI",
        "postalCode": "48044-1007"
      },
      {
        "line": [
          "14151 E 15 MILE RD"
        ],
        "city": "STERLING HEIGHTS",
        "state": "MI",
        "postalCode": "48312-5507"
      },
      {
        "line": [
          "42400 12 MILE RD"
        ],
        "city": "NOVI",
        "state": "MI",
        "postalCode": "48377-3015"
      },
      {
        "line": [
          "27950 DRAKE RD"
        ],
        "city": "FARMINGTON",
        "state": "MI",
        "postalCode": "48331-3133"
      },
      {
        "line": [
          "29891 23 MILE RD"
        ],
        "city": "NEW BALTIMORE",
        "state": "MI",
        "postalCode": "48047-1842"
      },
      {
        "line": [
          "2105 S CENTER RD"
        ],
        "city": "BURTON",
        "state": "MI",
        "postalCode": "48519-1153"
      },
      {
        "line": [
          "500 E UNIVERSITY DR"
        ],
        "city": "ROCHESTER",
        "state": "MI",
        "postalCode": "48307-2196"
      },
      {
        "line": [
          "2400 E LINCOLN ST"
        ],
        "city": "BIRMINGHAM",
        "state": "MI",
        "postalCode": "48009-7102"
      },
      {
        "line": [
          "313 SHERWOOD ST"
        ],
        "city": "HOLLY",
        "state": "MI",
        "postalCode": "48442-1232"
      },
      {
        "line": [
          "925 W SOUTH BLVD"
        ],
        "city": "TROY",
        "state": "MI",
        "postalCode": "48085-1502"
      },
      {
        "line": [
          "21260 MACK AVE"
        ],
        "city": "GROSSE POINTE",
        "state": "MI",
        "postalCode": "48236-1046"
      },
      {
        "line": [
          "1775 S ROCHESTER"
        ],
        "city": "ROCHESTER",
        "state": "MI",
        "postalCode": "48307-3058"
      },
      {
        "line": [
          "901 PINECREEK DRIVE"
        ],
        "city": "FENTON",
        "state": "MI",
        "postalCode": "48430-1978"
      },
      {
        "line": [
          "25700 LAHSER RD"
        ],
        "city": "SOUTHFIELD",
        "state": "MI",
        "postalCode": "48033-5809"
      },
      {
        "line": [
          "2095 E BIG BEAVER RD",
          "STE 375"
        ],
        "city": "TROY",
        "state": "MI",
        "postalCode": "48083-2374"
      },
      {
        "line": [
          "6790 TELEGRAPH"
        ],
        "city": "BLOOMFIELD HILLS",
        "state": "MI",
        "postalCode": "48302-0247"
      },
      {
        "line": [
          "44600 5 MILE RD"
        ],
        "city": "NORTHVILLE",
        "state": "MI",
        "postalCode": "48168-9602"
      },
      {
        "line": [
          "205 FRANCIS RD"
        ],
        "city": "HOWELL",
        "state": "MI",
        "postalCode": "48843-8824"
      },
      {
        "line": [
          "6870 CROOKS"
        ],
        "city": "TROY",
        "state": "MI",
        "postalCode": "48098-1704"
      },
      {
        "line": [
          "7373 SASHABAW RD"
        ],
        "city": "CLARKSTON",
        "state": "MI",
        "postalCode": "48348-4743"
      },
      {
        "line": [
          "17255 COMMON ROAD"
        ],
        "city": "ROSEVILLE",
        "state": "MI",
        "postalCode": "48066-1951"
      },
      {
        "line": [
          "14750 LAKESIDE CIRCLE"
        ],
        "city": "STERLING HEIGHTS",
        "state": "MI",
        "postalCode": "48313-1375"
      },
      {
        "line": [
          "450 S WILLIAMS LAKE RD"
        ],
        "city": "WHITE LAKE",
        "state": "MI",
        "postalCode": "48386-6789"
      },
      {
        "line": [
          "252 MEADOWFIELD DR"
        ],
        "city": "ROCHESTER",
        "state": "MI",
        "postalCode": "48307-3058"
      },
      {
        "line": [
          "7005 PONTIAC TRAIL"
        ],
        "city": "WEST BLOOMFIELD",
        "state": "MI",
        "postalCode": "48323-2181"
      },
      {
        "line": [
          "29750 FARMINGTON RD"
        ],
        "city": "FARMINGTON",
        "state": "MI",
        "postalCode": "48334-1922"
      },
      {
        "line": [
          "42400 W 12 MILE RD"
        ],
        "city": "NOVI",
        "state": "MI",
        "postalCode": "48377-3015"
      },
      {
        "line": [
          "8240 MILLER RD"
        ],
        "city": "SWARTZ CREEK",
        "state": "MI",
        "postalCode": "48473-1360"
      },
      {
        "line": [
          "40500 GARFIELD RD"
        ],
        "city": "CLINTON TOWNSHIP",
        "state": "MI",
        "postalCode": "48038-5907"
      },
      {
        "line": [
          "5080 E Baldwin Road"
        ],
        "city": "HOLLY",
        "state": "MI",
        "postalCode": "48442-9306"
      },
      {
        "line": [
          "3139 E BALDWIN ROAD"
        ],
        "city": "GRAND BLANC",
        "state": "MI",
        "postalCode": "48439-7374"
      },
      {
        "line": [
          "15100 W 10 MILE RD"
        ],
        "city": "OAK PARK",
        "state": "MI",
        "postalCode": "48237-1473"
      },
      {
        "line": [
          "1401 N ROCHESTER"
        ],
        "city": "ROCHESTER",
        "state": "MI",
        "postalCode": "48307-1192"
      },
      {
        "line": [
          "14480 N HOLLY RD"
        ],
        "city": "HOLLY",
        "state": "MI",
        "postalCode": "48442-8418"
      },
      {
        "line": [
          "44315 N GRATIOT AVE"
        ],
        "city": "CLINTON TOWNSHIP",
        "state": "MI",
        "postalCode": "48036-1332"
      },
      {
        "line": [
          "985 N LAPEER RD"
        ],
        "city": "LAKE ORION",
        "state": "MI",
        "postalCode": "48362-1681"
      },
      {
        "line": [
          "3617 S ADMAS RD"
        ],
        "city": "ROCHESTER",
        "state": "MI",
        "postalCode": "48309-4736"
      },
      {
        "line": [
          "100 W. SQUARE LAKE RD"
        ],
        "city": "BLOOMFIELD HILLS",
        "state": "MI",
        "postalCode": "48302-0463"
      },
      {
        "line": [
          "1725 CHESTER ST"
        ],
        "city": "ROYAL OAK",
        "state": "MI",
        "postalCode": "48073-1925"
      },
      {
        "line": [
          "3033 N SQUIRREL"
        ],
        "city": "AUBURN HILLS",
        "state": "MI",
        "postalCode": "48326-3927"
      },
      {
        "line": [
          "2101 OPDYKE RD"
        ],
        "city": "BLOOMFIELD HILLS",
        "state": "MI",
        "postalCode": "48304-2246"
      },
      {
        "line": [
          "3033 N SQUIRREL RD"
        ],
        "city": "AUBURN HILLS",
        "state": "MI",
        "postalCode": "48326-3927"
      },
      {
        "line": [
          "2080 S TELEGRAPH"
        ],
        "city": "BLOOMFIELD HILLS",
        "state": "MI",
        "postalCode": "48301-3134"
      },
      {
        "line": [
          "3250 UNIVERSITY DR"
        ],
        "city": "ROCHESTER",
        "state": "MI",
        "postalCode": "48309-1275"
      },
      {
        "line": [
          "6800 TRILLIUM VILLAGE DR"
        ],
        "city": "CLARKSTON",
        "state": "MI",
        "postalCode": "48346-5208"
      },
      {
        "line": [
          "910 SOUTH BLVD W"
        ],
        "city": "ROCHESTER",
        "state": "MI",
        "postalCode": "48307-4937"
      },
      {
        "line": [
          "3151 E WALTON BLVD"
        ],
        "city": "AUBURN HILLS",
        "state": "MI",
        "postalCode": "48326-2487"
      },
      {
        "line": [
          "5850 WHITE LAKE RD"
        ],
        "city": "CLARKSTON",
        "state": "MI",
        "postalCode": "48346-2658"
      },
      {
        "line": [
          "38200 SCHOENHERR"
        ],
        "city": "STERLING HEIGHTS",
        "state": "MI",
        "postalCode": "48312-1700"
      },
      {
        "line": [
          "2791 WALTON BLVD"
        ],
        "city": "ROCHESTER",
        "state": "MI",
        "postalCode": "48309-1415"
      },
      {
        "line": [
          "2095 E BIG BEAVER RD SUITE 375"
        ],
        "city": "TROY",
        "state": "MI",
        "postalCode": "48083-2356"
      },
      {
        "line": [
          "4850 NORTHFIELD PWKY"
        ],
        "city": "TROY",
        "state": "MI",
        "postalCode": "48098-4433"
      }
    ],
    "extension": [
      {
        "url": "https://fhir.athena.io/StructureDefinition/ah-practice",
        "valueReference": {
          "reference": "Organization/a-1.Practice-23439"
        }
      },
      {
        "url": "https://fhir.athena.io/StructureDefinition/ah-brand",
        "valueReference": {
          "reference": "Organization/a-23439.Brand-1"
        }
      }
    ]
  },
  "fullUrl": "urn:uuid:0838460c-7555-5daa-af92-7c9f36fd22db"
}