{
  "resource": {
    "resourceType": "Organization",
    "id": "d0efe82e-89d1-5d63-99f3-f512a6be6835",
    "name": "Home Physicians Medical Group",
    "endpoint": [
      {
        "reference": "Endpoint/27a4e967-47aa-5a9c-a572-b8297ee268a2"
      },
      {
        "reference": "Endpoint/c10fd4bf-c669-508b-b208-d9fd6adc3fdc"
      }
    ],
    "identifier": [
      {
        "system": "http://hl7.org/fhir/sid/us-npi",
        "value": "1770523169"
      }
    ],
    "address": [
      {
        "line": [
          "69814 Fatima way"
        ],
        "city": "CATHEDRAL CITY",
        "state": "CA",
        "postalCode": "92234-2518"
      },
      {
        "line": [
          "137 Playa Del Rey Ave"
        ],
        "city": "OCEANSIDE",
        "state": "CA",
        "postalCode": "92058-7965"
      },
      {
        "line": [
          "8738 Covina Street"
        ],
        "city": "SAN DIEGO",
        "state": "CA",
        "postalCode": "92126-3625"
      },
      {
        "line": [
          "1222 Mariposa Rd."
        ],
        "city": "CARLSBAD",
        "state": "CA",
        "postalCode": "92011-4206"
      },
      {
        "line": [
          "11424 Camino Ruiz"
        ],
        "city": "SAN DIEGO",
        "state": "CA",
        "postalCode": "92126-1340"
      },
      {
        "line": [
          "10030 Grandview Drive"
        ],
        "city": "LA MESA",
        "state": "CA",
        "postalCode": "91941-6838"
      },
      {
        "line": [
          "3423 Channel Way"
        ],
        "city": "SAN DIEGO",
        "state": "CA",
        "postalCode": "92110-5104"
      },
      {
        "line": [
          "69584 Pleasant Grove"
        ],
        "city": "CATHEDRAL CITY",
        "state": "CA",
        "postalCode": "92234-7510"
      },
      {
        "line": [
          "2465 SARBONNE DRIVE"
        ],
        "city": "OCEANSIDE",
        "state": "CA",
        "postalCode": "92054-5737"
      },
      {
        "line": [
          "1666 Sagebrush Road"
        ],
        "city": "PALM SPRINGS",
        "state": "CA",
        "postalCode": "92264-8558"
      },
      {
        "line": [
          "4603 Rainier Ave."
        ],
        "city": "SAN DIEGO",
        "state": "CA",
        "postalCode": "92120-2519"
      },
      {
        "line": [
          "72-201 Country Club Dr"
        ],
        "city": "RANCHO MIRAGE",
        "state": "CA",
        "postalCode": "92270-4001"
      },
      {
        "line": [
          "2644 Canyon Rd."
        ],
        "city": "ESCONDIDO",
        "state": "CA",
        "postalCode": "92025-7415"
      },
      {
        "line": [
          "2657 Crisie Ln"
        ],
        "city": "ESCONDIDO",
        "state": "CA",
        "postalCode": "92025-7417"
      },
      {
        "line": [
          "1889 Almagro Lane"
        ],
        "city": "ESCONDIDO",
        "state": "CA",
        "postalCode": "92026-1728"
      },
      {
        "line": [
          "2735 East San Angelo Rd"
        ],
        "city": "PALM SPRINGS",
        "state": "CA",
        "postalCode": "92262-3803"
      },
      {
        "line": [
          "9290 Murray Drive"
        ],
        "city": "LA MESA",
        "state": "CA",
        "postalCode": "91942-3501"
      },
      {
        "line": [
          "4518 54th Street"
        ],
        "city": "SAN DIEGO",
        "state": "CA",
        "postalCode": "92115-3527"
      },
      {
        "line": [
          "571 Berry Hill Drive"
        ],
        "city": "SAN MARCOS",
        "state": "CA",
        "postalCode": "92069-2002"
      },
      {
        "line": [
          "2775 vista sereno court"
        ],
        "city": "LEMON GROVE",
        "state": "CA",
        "postalCode": "91945-3436"
      },
      {
        "line": [
          "1266 Pleiades Drive"
        ],
        "city": "VISTA",
        "state": "CA",
        "postalCode": "92084-6531"
      },
      {
        "line": [
          "1150 Hoover Street"
        ],
        "city": "ESCONDIDO",
        "state": "CA",
        "postalCode": "92027-1413"
      },
      {
        "line": [
          "8515 Costa Verde Blvd"
        ],
        "city": "SAN DIEGO",
        "state": "CA",
        "postalCode": "92122-4589"
      },
      {
        "line": [
          "10666 Falcon Rim Point"
        ],
        "city": "SAN DIEGO",
        "state": "CA",
        "postalCode": "92131-2309"
      },
      {
        "line": [
          "12631 Casa Avenida"
        ],
        "city": "POWAY",
        "state": "CA",
        "postalCode": "92064-2532"
      },
      {
        "line": [
          "461 Estrelita Drive"
        ],
        "city": "VISTA",
        "state": "CA",
        "postalCode": "92084-7833"
      },
      {
        "line": [
          "884 Gretna Green Way"
        ],
        "city": "ESCONDIDO",
        "state": "CA",
        "postalCode": "92025-7419"
      },
      {
        "line": [
          "1073 South Lincoln Ave."
        ],
        "city": "EL CAJON",
        "state": "CA",
        "postalCode": "92021-6248"
      },
      {
        "line": [
          "1717 Katy Place"
        ],
        "city": "ESCONDIDO",
        "state": "CA",
        "postalCode": "92026-1855"
      },
      {
        "line": [
          "1691 Lone Oak Road"
        ],
        "city": "VISTA",
        "state": "CA",
        "postalCode": "92084-7725"
      },
      {
        "line": [
          "30758 Bloomsbury Lane"
        ],
        "city": "CATHEDRAL CITY",
        "state": "CA",
        "postalCode": "92234-2580"
      },
      {
        "line": [
          "7020 Manzanita Street"
        ],
        "city": "CARLSBAD",
        "state": "CA",
        "postalCode": "92011-5123"
      },
      {
        "line": [
          "45010 DESERT FOX DR"
        ],
        "city": "LA QUINTA",
        "state": "CA",
        "postalCode": "92253-4554"
      },
      {
        "line": [
          "113 Polk Street"
        ],
        "city": "OCEANSIDE",
        "state": "CA",
        "postalCode": "92057-3637"
      },
      {
        "line": [
          "7630 fay ave"
        ],
        "city": "LA JOLLA",
        "state": "CA",
        "postalCode": "92037-4841"
      },
      {
        "line": [
          "2325 Proctor Valley Rd"
        ],
        "city": "CHULA VISTA",
        "state": "CA",
        "postalCode": "91914-2099"
      },
      {
        "line": [
          "1342 N. Escondido Blvd."
        ],
        "city": "ESCONDIDO",
        "state": "CA",
        "postalCode": "92026-2508"
      },
      {
        "line": [
          "2835 E. Plaza Blvd."
        ],
        "city": "NATIONAL CITY",
        "state": "CA",
        "postalCode": "91950-4020"
      },
      {
        "line": [
          "1010 Metcalf Street"
        ],
        "city": "ESCONDIDO",
        "state": "CA",
        "postalCode": "92026-2302"
      },
      {
        "line": [
          "79105 Arbola Circle"
        ],
        "city": "LA QUINTA",
        "state": "CA",
        "postalCode": "92253-3996"
      },
      {
        "line": [
          "10975 Janice Court"
        ],
        "city": "SAN DIEGO",
        "state": "CA",
        "postalCode": "92126-4814"
      },
      {
        "line": [
          "3709 Glen Verde Ct"
        ],
        "city": "BONITA",
        "state": "CA",
        "postalCode": "91902-2622"
      },
      {
        "line": [
          "7909 Western Trail Drive"
        ],
        "city": "EL CAJON",
        "state": "CA",
        "postalCode": "92021-3630"
      },
      {
        "line": [
          "143 Sun Villa Ct"
        ],
        "city": "VISTA",
        "state": "CA",
        "postalCode": "92084-5851"
      },
      {
        "line": [
          "3739 Millikin Ave"
        ],
        "city": "SAN DIEGO",
        "state": "CA",
        "postalCode": "92122-2415"
      },
      {
        "line": [
          "5426 Avenida Fiesta"
        ],
        "city": "LA JOLLA",
        "state": "CA",
        "postalCode": "92037-7202"
      },
      {
        "line": [
          "1103 Manzana Way"
        ],
        "city": "SAN DIEGO",
        "state": "CA",
        "postalCode": "92139-1438"
      },
      {
        "line": [
          "12285 Frontera Road"
        ],
        "city": "SAN DIEGO",
        "state": "CA",
        "postalCode": "92128-2145"
      },
      {
        "line": [
          "4282 Balboa Ave"
        ],
        "city": "SAN DIEGO",
        "state": "CA",
        "postalCode": "92117-5544"
      },
      {
        "line": [
          "1350 S. El Camino Real"
        ],
        "city": "ENCINITAS",
        "state": "CA",
        "postalCode": "92024-4904"
      },
      {
        "line": [
          "8301 Clearwater Court"
        ],
        "city": "SPRING VALLEY",
        "state": "CA",
        "postalCode": "91977-6116"
      },
      {
        "line": [
          "3474 Angwin Drive."
        ],
        "city": "SAN DIEGO",
        "state": "CA",
        "postalCode": "92123-2606"
      },
      {
        "line": [
          "14 Normandy"
        ],
        "city": "RANCHO MIRAGE",
        "state": "CA",
        "postalCode": "92270-1635"
      },
      {
        "line": [
          "14249 High Valley Road"
        ],
        "city": "POWAY",
        "state": "CA",
        "postalCode": "92064-2701"
      },
      {
        "line": [
          "760 East Bobier Drive"
        ],
        "city": "VISTA",
        "state": "CA",
        "postalCode": "92084-3806"
      },
      {
        "line": [
          "3717 Sarasona Way"
        ],
        "city": "BONITA",
        "state": "CA",
        "postalCode": "91902-1059"
      },
      {
        "line": [
          "13101 Hartfield Ave."
        ],
        "city": "SAN DIEGO",
        "state": "CA",
        "postalCode": "92130-1511"
      },
      {
        "line": [
          "68842 Risueno Road"
        ],
        "city": "CATHEDRAL CITY",
        "state": "CA",
        "postalCode": "92234-3800"
      },
      {
        "line": [
          "211 Saxony Road"
        ],
        "city": "ENCINITAS",
        "state": "CA",
        "postalCode": "92024-2791"
      },
      {
        "line": [
          "32175 CATHEDRAL CANYON DRIVE"
        ],
        "city": "CATHEDRAL CITY",
        "state": "CA",
        "postalCode": "92234-4008"
      },
      {
        "line": [
          "1830 Goodwin Drive"
        ],
        "city": "VISTA",
        "state": "CA",
        "postalCode": "92084-3035"
      },
      {
        "line": [
          "7232 Glenflora Ave"
        ],
        "city": "SAN DIEGO",
        "state": "CA",
        "postalCode": "92119-2442"
      },
      {
        "line": [
          "44610 monterey ave"
        ],
        "city": "PALM DESERT",
        "state": "CA",
        "postalCode": "92260-3326"
      },
      {
        "line": [
          "282 Avenida Del Sol"
        ],
        "city": "PALM DESERT",
        "state": "CA",
        "postalCode": "92260-2102"
      },
      {
        "line": [
          "31495 Avenida Del Padre"
        ],
        "city": "CATHEDRAL CITY",
        "state": "CA",
        "postalCode": "92234-3098"
      },
      {
        "line": [
          "6217 Acorn Street"
        ],
        "city": "SAN DIEGO",
        "state": "CA",
        "postalCode": "92115-4030"
      },
      {
        "line": [
          "8536 Menker Road"
        ],
        "city": "SAN DIEGO",
        "state": "CA",
        "postalCode": "92126-1329"
      },
      {
        "line": [
          "1433 Ferrara Court"
        ],
        "city": "ESCONDIDO",
        "state": "CA",
        "postalCode": "92025-5549"
      },
      {
        "line": [
          "514 Second Ave"
        ],
        "city": "CHULA VISTA",
        "state": "CA",
        "postalCode": "91910-4827"
      },
      {
        "line": [
          "1560 Security Place"
        ],
        "city": "SAN MARCOS",
        "state": "CA",
        "postalCode": "92078-4061"
      },
      {
        "line": [
          "4626 Twain Ave"
        ],
        "city": "SAN DIEGO",
        "state": "CA",
        "postalCode": "92120-4109"
      },
      {
        "line": [
          "2211 Massachusetts Ave"
        ],
        "city": "LEMON GROVE",
        "state": "CA",
        "postalCode": "91945-3616"
      },
      {
        "line": [
          "1420 E. Palomar Street"
        ],
        "city": "CHULA VISTA",
        "state": "CA",
        "postalCode": "91913-1800"
      },
      {
        "line": [
          "3728 Linda Vista Drive"
        ],
        "city": "SAN MARCOS",
        "state": "CA",
        "postalCode": "92078-2326"
      },
      {
        "line": [
          "2880 Wanek Road"
        ],
        "city": "ESCONDIDO",
        "state": "CA",
        "postalCode": "92027-2889"
      },
      {
        "line": [
          "5740 Lake Murray Blvd"
        ],
        "city": "LA MESA",
        "state": "CA",
        "postalCode": "91942-2217"
      },
      {
        "line": [
          "1205 Sunset Heights Rd."
        ],
        "city": "ESCONDIDO",
        "state": "CA",
        "postalCode": "92026-1748"
      },
      {
        "line": [
          "6665 Decanture Street"
        ],
        "city": "SAN DIEGO",
        "state": "CA",
        "postalCode": "92120-2138"
      },
      {
        "line": [
          "9166 camino lago vista"
        ],
        "city": "SPRING VALLEY",
        "state": "CA",
        "postalCode": "91977-6425"
      },
      {
        "line": [
          "1440 S. Melrose Drive"
        ],
        "city": "OCEANSIDE",
        "state": "CA",
        "postalCode": "92056-5394"
      },
      {
        "line": [
          "5638 Plumas Street"
        ],
        "city": "SAN DIEGO",
        "state": "CA",
        "postalCode": "92139-1513"
      },
      {
        "line": [
          "7450 Olivetas Ave"
        ],
        "city": "LA JOLLA",
        "state": "CA",
        "postalCode": "92037-4924"
      },
      {
        "line": [
          "9345 Monona Drive"
        ],
        "city": "LA MESA",
        "state": "CA",
        "postalCode": "91942-3912"
      },
      {
        "line": [
          "4380 Highland drive"
        ],
        "city": "CARLSBAD",
        "state": "CA",
        "postalCode": "92008-4225"
      },
      {
        "line": [
          "14934 HUNTINGTON GATE DRIVE POWAY"
        ],
        "city": "POWAY",
        "state": "CA",
        "postalCode": "92064-6709"
      },
      {
        "line": [
          "72331 Magnesia Falls"
        ],
        "city": "RANCHO MIRAGE",
        "state": "CA",
        "postalCode": "92270-4943"
      },
      {
        "line": [
          "168 Evvia Street"
        ],
        "city": "VISTA",
        "state": "CA",
        "postalCode": "92083-7732"
      },
      {
        "line": [
          "70201 Mirage Cove Drive"
        ],
        "city": "RANCHO MIRAGE",
        "state": "CA",
        "postalCode": "92270-2906"
      },
      {
        "line": [
          "3111 LEVANTE ST"
        ],
        "city": "CARLSBAD",
        "state": "CA",
        "postalCode": "92009-8333"
      },
      {
        "line": [
          "3410 Highland drive"
        ],
        "city": "CARLSBAD",
        "state": "CA",
        "postalCode": "92008-2524"
      },
      {
        "line": [
          "5474 Marengo Ave."
        ],
        "city": "LA MESA",
        "state": "CA",
        "postalCode": "91941-4700"
      },
      {
        "line": [
          "322 Keyport Street"
        ],
        "city": "OCEANSIDE",
        "state": "CA",
        "postalCode": "92057-4263"
      },
      {
        "line": [
          "1173 San Marino Drive"
        ],
        "city": "SAN MARCOS",
        "state": "CA",
        "postalCode": "92078-4644"
      },
      {
        "line": [
          "2150 North Palm Canyon Drive."
        ],
        "city": "PALM SPRINGS",
        "state": "CA",
        "postalCode": "92262-2832"
      },
      {
        "line": [
          "171 Fourth Ave."
        ],
        "city": "CHULA VISTA",
        "state": "CA",
        "postalCode": "91910-2519"
      },
      {
        "line": [
          "680 Pomelo Drive"
        ],
        "city": "VISTA",
        "state": "CA",
        "postalCode": "92081-6304"
      },
      {
        "line": [
          "627 S. Highland Drive"
        ],
        "city": "PALM SPRINGS",
        "state": "CA",
        "postalCode": "92264-1017"
      },
      {
        "line": [
          "14550 Victoria Estates Lane"
        ],
        "city": "POWAY",
        "state": "CA",
        "postalCode": "92064-2966"
      },
      {
        "line": [
          "7971 Culowee Street"
        ],
        "city": "LA MESA",
        "state": "CA",
        "postalCode": "91942-5509"
      },
      {
        "line": [
          "7141 Bullock Drive"
        ],
        "city": "SAN DIEGO",
        "state": "CA",
        "postalCode": "92114-7886"
      },
      {
        "line": [
          "1780 E Baristo Rd"
        ],
        "city": "PALM SPRINGS",
        "state": "CA",
        "postalCode": "92262-7114"
      },
      {
        "line": [
          "34560 Bob Hope Drive"
        ],
        "city": "RANCHO MIRAGE",
        "state": "CA",
        "postalCode": "92270-1343"
      },
      {
        "line": [
          "750 Vine Street"
        ],
        "city": "ESCONDIDO",
        "state": "CA",
        "postalCode": "92025-3832"
      },
      {
        "line": [
          "8019 New Salem Street"
        ],
        "city": "SAN DIEGO",
        "state": "CA",
        "postalCode": "92126-2229"
      },
      {
        "line": [
          "3434 Bonita Rd"
        ],
        "city": "CHULA VISTA",
        "state": "CA",
        "postalCode": "91910-3209"
      },
      {
        "line": [
          "262 Silvergreek Glen"
        ],
        "city": "ESCONDIDO",
        "state": "CA",
        "postalCode": "92029-6806"
      },
      {
        "line": [
          "9214 Harness Street"
        ],
        "city": "SPRING VALLEY",
        "state": "CA",
        "postalCode": "91977-4210"
      },
      {
        "line": [
          "929 Chumash Trail"
        ],
        "city": "VISTA",
        "state": "CA",
        "postalCode": "92084-1010"
      },
      {
        "line": [
          "8 Via Solana"
        ],
        "city": "RANCHO MIRAGE",
        "state": "CA",
        "postalCode": "92270-5200"
      },
      {
        "line": [
          "825 Challenge Ave"
        ],
        "city": "BEAUMONT",
        "state": "CA",
        "postalCode": "92223-8512"
      },
      {
        "line": [
          "8937 Gramercy Drive"
        ],
        "city": "SAN DIEGO",
        "state": "CA",
        "postalCode": "92123-2329"
      },
      {
        "line": [
          "8748 Covina Street"
        ],
        "city": "SAN DIEGO",
        "state": "CA",
        "postalCode": "92126-3625"
      },
      {
        "line": [
          "70603 Independent Circle"
        ],
        "city": "RANCHO MIRAGE",
        "state": "CA",
        "postalCode": "92270-2213"
      },
      {
        "line": [
          "1882 Euclid Ave"
        ],
        "city": "EL CAJON",
        "state": "CA",
        "postalCode": "92019-2050"
      },
      {
        "line": [
          "196 pacific view lane"
        ],
        "city": "ENCINITAS",
        "state": "CA",
        "postalCode": "92024-7724"
      },
      {
        "line": [
          "147 Tasman Place"
        ],
        "city": "SAN DIEGO",
        "state": "CA",
        "postalCode": "92114-7923"
      },
      {
        "line": [
          "1325 Las Villas Way"
        ],
        "city": "ESCONDIDO",
        "state": "CA",
        "postalCode": "92026-1946"
      },
      {
        "line": [
          "8292 Run of the Knolls"
        ],
        "city": "SAN DIEGO",
        "state": "CA",
        "postalCode": "92127-2532"
      },
      {
        "line": [
          "2 Dickens Court"
        ],
        "city": "RANCHO MIRAGE",
        "state": "CA",
        "postalCode": "92270-1659"
      },
      {
        "line": [
          "409 Prather Place"
        ],
        "city": "SPRING VALLEY",
        "state": "CA",
        "postalCode": "91977-5843"
      },
      {
        "line": [
          "8243 Hydra Lane"
        ],
        "city": "SAN DIEGO",
        "state": "CA",
        "postalCode": "92126-1725"
      },
      {
        "line": [
          "2150 N. Palm Canyon Drive"
        ],
        "city": "palm springs",
        "state": "CA",
        "postalCode": "92262-2832"
      },
      {
        "line": [
          "543 Guidero way"
        ],
        "city": "ENCINITAS",
        "state": "CA",
        "postalCode": "92024-2500"
      },
      {
        "line": [
          "1340 Myra Court"
        ],
        "city": "CHULA VISTA",
        "state": "CA",
        "postalCode": "91911-4504"
      },
      {
        "line": [
          "13660 Mountain View Road"
        ],
        "city": "DESERT HOT SPRINGS",
        "state": "CA",
        "postalCode": "92240-6454"
      },
      {
        "line": [
          "8031 Montara Ave"
        ],
        "city": "SAN DIEGO",
        "state": "CA",
        "postalCode": "92126-1116"
      },
      {
        "line": [
          "660 Van Houten Ave."
        ],
        "city": "EL CAJON",
        "state": "CA",
        "postalCode": "92019-5134"
      },
      {
        "line": [
          "5171 Almosa Park Drive"
        ],
        "city": "OCEANSIDE",
        "state": "CA",
        "postalCode": "92057-6303"
      },
      {
        "line": [
          "69850 Van gogh"
        ],
        "city": "CATHEDRAL CITY",
        "state": "CA",
        "postalCode": "92234-8934"
      },
      {
        "line": [
          "31221 El Toro Rd."
        ],
        "city": "CATHEDRAL CITY",
        "state": "CA",
        "postalCode": "92234-3267"
      },
      {
        "line": [
          "566 Parkwood Drive"
        ],
        "city": "SAN DIEGO",
        "state": "CA",
        "postalCode": "92139-1304"
      },
      {
        "line": [
          "9041 Inverness road"
        ],
        "city": "SANTEE",
        "state": "CA",
        "postalCode": "92071-2218"
      },
      {
        "line": [
          "6655 Crampton Ct."
        ],
        "city": "SAN DIEGO",
        "state": "CA",
        "postalCode": "92119-2409"
      },
      {
        "line": [
          "74050 Scholar Ln. W"
        ],
        "city": "PALM DESERT",
        "state": "CA",
        "postalCode": "92211-2073"
      },
      {
        "line": [
          "2042 North Nutmeg Street"
        ],
        "city": "ESCONDIDO",
        "state": "CA",
        "postalCode": "92026-3316"
      },
      {
        "line": [
          "4500 Cannon Rd."
        ],
        "city": "OCEANSIDE",
        "state": "CA",
        "postalCode": "92056-4976"
      },
      {
        "line": [
          "81300 Avenida Blanca"
        ],
        "city": "INDIO",
        "state": "CA",
        "postalCode": "92201-6698"
      },
      {
        "line": [
          "11945 Via Hacienda"
        ],
        "city": "EL CAJON",
        "state": "CA",
        "postalCode": "92019-4093"
      },
      {
        "line": [
          "350 Cedar Road."
        ],
        "city": "VISTA",
        "state": "CA",
        "postalCode": "92083-5121"
      },
      {
        "line": [
          "3232 Thunder Drive"
        ],
        "city": "OCEANSIDE",
        "state": "CA",
        "postalCode": "92056-4447"
      },
      {
        "line": [
          "6140 Crofford Street"
        ],
        "city": "SAN DIEGO",
        "state": "CA",
        "postalCode": "92120-3508"
      },
      {
        "line": [
          "33420 Shifting Sands Trail"
        ],
        "city": "CATHEDRAL CITY",
        "state": "CA",
        "postalCode": "92234-4417"
      },
      {
        "line": [
          "1564 Malta Ave"
        ],
        "city": "CHULA VISTA",
        "state": "CA",
        "postalCode": "91911-5903"
      },
      {
        "line": [
          "13608 Audrey Street"
        ],
        "city": "POWAY",
        "state": "CA",
        "postalCode": "92064-3402"
      },
      {
        "line": [
          "31760 Avenida del Padre"
        ],
        "city": "CATHEDRAL CITY",
        "state": "CA",
        "postalCode": "92234-3120"
      },
      {
        "line": [
          "498 Huff Street"
        ],
        "city": "VISTA",
        "state": "CA",
        "postalCode": "92083-5583"
      },
      {
        "line": [
          "168 Evvia Court"
        ],
        "city": "VISTA",
        "state": "CA",
        "postalCode": "92083-7732"
      },
      {
        "line": [
          "9412 Hilmer Drive"
        ],
        "city": "LA MESA",
        "state": "CA",
        "postalCode": "91942-3914"
      },
      {
        "line": [
          "14530 GARDEN RD"
        ],
        "city": "POWAY",
        "state": "CA",
        "postalCode": "92064-5126"
      },
      {
        "line": [
          "3245 Star Acres Drive"
        ],
        "city": "SPRING VALLEY",
        "state": "CA",
        "postalCode": "91978-2303"
      },
      {
        "line": [
          "12979 Rancho Penasquitos Blvd."
        ],
        "city": "SAN DIEGO",
        "state": "CA",
        "postalCode": "92129-2922"
      },
      {
        "line": [
          "222 Washington street"
        ],
        "city": "VISTA",
        "state": "CA",
        "postalCode": "92084-5449"
      },
      {
        "line": [
          "657 Highland Drive"
        ],
        "city": "PALM SPRINGS",
        "state": "CA",
        "postalCode": "92264-1017"
      },
      {
        "line": [
          "6255 Nyguard Street"
        ],
        "city": "CARLSBAD",
        "state": "CA",
        "postalCode": "92009-3001"
      },
      {
        "line": [
          "3524 Lake Blvd"
        ],
        "city": "OCEANSIDE",
        "state": "CA",
        "postalCode": "92056-4600"
      },
      {
        "line": [
          "8830 Keremeos Way"
        ],
        "city": "SAN DIEGO",
        "state": "CA",
        "postalCode": "92126-1420"
      },
      {
        "line": [
          "1950 Calle Barcelona"
        ],
        "city": "CARLSBAD",
        "state": "CA",
        "postalCode": "92009-8401"
      },
      {
        "line": [
          "3505 Sparling Street"
        ],
        "city": "SAN DIEGO",
        "state": "CA",
        "postalCode": "92115-6906"
      },
      {
        "line": [
          "386 Sandy Street"
        ],
        "city": "EL CAJON",
        "state": "CA",
        "postalCode": "92020-5839"
      },
      {
        "line": [
          "4960 Mills Street"
        ],
        "city": "LA MESA",
        "state": "CA",
        "postalCode": "91942-2511"
      },
      {
        "line": [
          "1152 Sal Lane"
        ],
        "city": "VISTA",
        "state": "CA",
        "postalCode": "92084-4428"
      },
      {
        "line": [
          "68215 Risueno Rd."
        ],
        "city": "CATHEDRAL CITY",
        "state": "CA",
        "postalCode": "92234-3861"
      },
      {
        "line": [
          "74039 Kokopelli circle"
        ],
        "city": "PALM DESERT",
        "state": "CA",
        "postalCode": "92211-2075"
      },
      {
        "line": [
          "4929 Mount Longs Drive"
        ],
        "city": "SAN DIEGO",
        "state": "CA",
        "postalCode": "92117-3054"
      },
      {
        "line": [
          "2690 Cowley Way"
        ],
        "city": "SAN DIEGO",
        "state": "CA",
        "postalCode": "92110-1001"
      },
      {
        "line": [
          "2465 Sarbonne Drive"
        ],
        "city": "OCEANSIDE",
        "state": "CA",
        "postalCode": "92054-5737"
      },
      {
        "line": [
          "41505 Carlotta Drive"
        ],
        "city": "SAN DIEGO",
        "state": "CA",
        "postalCode": "92111-3279"
      },
      {
        "line": [
          "2189 Crown Hills Road"
        ],
        "city": "SAN DIEGO",
        "state": "CA",
        "postalCode": "92109-1423"
      },
      {
        "line": [
          "1255 North Broadway"
        ],
        "city": "ESCONDIDO",
        "state": "CA",
        "postalCode": "92026-2863"
      },
      {
        "line": [
          "950 L Ave"
        ],
        "city": "NATIONAL CITY",
        "state": "CA",
        "postalCode": "91950-3785"
      },
      {
        "line": [
          "955 Grand Ave"
        ],
        "city": "SAN DIEGO",
        "state": "CA",
        "postalCode": "92109-4042"
      },
      {
        "line": [
          "69584 Cypress Rd."
        ],
        "city": "CATHEDRAL CITY",
        "state": "CA",
        "postalCode": "92234-7507"
      },
      {
        "line": [
          "10864 Worthing Avenue"
        ],
        "city": "SAN DIEGO",
        "state": "CA",
        "postalCode": "92126-2219"
      },
      {
        "line": [
          "1921 Felicita"
        ],
        "city": "ESCONDIDO",
        "state": "CA",
        "postalCode": "92025-5921"
      },
      {
        "line": [
          "850 Duncan Rd."
        ],
        "city": "CHULA VISTA",
        "state": "CA",
        "postalCode": "91914-6006"
      },
      {
        "line": [
          "8693 Celestine Ave"
        ],
        "city": "SAN DIEGO",
        "state": "CA",
        "postalCode": "92123-3432"
      },
      {
        "line": [
          "3218 Mira Mesa Ave"
        ],
        "city": "OCEANSIDE",
        "state": "CA",
        "postalCode": "92056-4302"
      },
      {
        "line": [
          "30875 Avenida Juarez"
        ],
        "city": "CATHEDRAL CITY",
        "state": "CA",
        "postalCode": "92234-2989"
      },
      {
        "line": [
          "3108 Azahar Street"
        ],
        "city": "CARLSBAD",
        "state": "CA",
        "postalCode": "92009-8362"
      },
      {
        "line": [
          "13101 Hartfield Ave"
        ],
        "city": "SAN DIEGO",
        "state": "CA",
        "postalCode": "92130-1511"
      },
      {
        "line": [
          "966 Bollenbacher street"
        ],
        "city": "SAN DIEGO",
        "state": "CA",
        "postalCode": "92114-1833"
      },
      {
        "line": [
          "2360 Albatross St"
        ],
        "city": "SAN DIEGO",
        "state": "CA",
        "postalCode": "92101-1402"
      },
      {
        "line": [
          "14740 Via Fiesta"
        ],
        "city": "SAN DIEGO",
        "state": "CA",
        "postalCode": "92127-3810"
      },
      {
        "line": [
          "3664 Governor Drive"
        ],
        "city": "SAN DIEGO",
        "state": "CA",
        "postalCode": "92122-2418"
      },
      {
        "line": [
          "82397 strativery road"
        ],
        "city": "INDIO",
        "state": "CA",
        "postalCode": "92203-3825"
      },
      {
        "line": [
          "4171 camino del rio south"
        ],
        "city": "SAN DIEGO",
        "state": "CA",
        "postalCode": "92108-4103"
      },
      {
        "line": [
          "3008 Melbourne Drive"
        ],
        "city": "SAN DIEGO",
        "state": "CA",
        "postalCode": "92123-3133"
      },
      {
        "line": [
          "1046 Helix Ave"
        ],
        "city": "CHULA VISTA",
        "state": "CA",
        "postalCode": "91911-2232"
      },
      {
        "line": [
          "13944 Powers Road"
        ],
        "city": "POWAY",
        "state": "CA",
        "postalCode": "92064-3200"
      },
      {
        "line": [
          "15158 Jenell Street"
        ],
        "city": "POWAY",
        "state": "CA",
        "postalCode": "92064-2616"
      },
      {
        "line": [
          "8632 Spring Vista Way"
        ],
        "city": "SPRING VALLEY",
        "state": "CA",
        "postalCode": "91977-4021"
      },
      {
        "line": [
          "4478 San Joaquin Street"
        ],
        "city": "OCEANSIDE",
        "state": "CA",
        "postalCode": "92057-6028"
      },
      {
        "line": [
          "852 Crest Dr."
        ],
        "city": "CHULA VISTA",
        "state": "CA",
        "postalCode": "91910-6505"
      },
      {
        "line": [
          "800 Lantern Crest Way"
        ],
        "city": "SANTEE",
        "state": "CA",
        "postalCode": "92071-4646"
      },
      {
        "line": [
          "13653 Cuesta Del Sol"
        ],
        "city": "LAKESIDE",
        "state": "CA",
        "postalCode": "92040-4809"
      },
      {
        "line": [
          "627 Highalnd Drive"
        ],
        "city": "PALM SPRINGS",
        "state": "CA",
        "postalCode": "92262-1017"
      },
      {
        "line": [
          "5706 Tulane Street"
        ],
        "city": "SAN DIEGO",
        "state": "CA",
        "postalCode": "92122-2237"
      },
      {
        "line": [
          "214 Manzanita Drive"
        ],
        "city": "OCEANSIDE",
        "state": "CA",
        "postalCode": "92057-5401"
      },
      {
        "line": [
          "14755 Budwin Lane"
        ],
        "city": "POWAY",
        "state": "CA",
        "postalCode": "92064-3006"
      },
      {
        "line": [
          "2108 El Camino Real"
        ],
        "city": "OCEANSIDE",
        "state": "CA",
        "postalCode": "92054-6203"
      },
      {
        "line": [
          "14536 Garden Road"
        ],
        "city": "POWAY",
        "state": "CA",
        "postalCode": "92064-5126"
      },
      {
        "line": [
          "12750 Gateway Park Road"
        ],
        "city": "POWAY",
        "state": "CA",
        "postalCode": "92064-2050"
      },
      {
        "line": [
          "233 Prospect"
        ],
        "city": "LA JOLLA",
        "state": "CA",
        "postalCode": "92037-4600"
      },
      {
        "line": [
          "4224 Emet Court"
        ],
        "city": "SAN DIEGO",
        "state": "CA",
        "postalCode": "92117-5530"
      },
      {
        "line": [
          "10603 Rancho Bernardo Rd."
        ],
        "city": "SAN DIEGO",
        "state": "CA",
        "postalCode": "92127-5722"
      },
      {
        "line": [
          "12515 Springhurst Drive"
        ],
        "city": "SAN DIEGO",
        "state": "CA",
        "postalCode": "92128-6305"
      },
      {
        "line": [
          "2590 Majella Road"
        ],
        "city": "VISTA",
        "state": "CA",
        "postalCode": "92084-1627"
      },
      {
        "line": [
          "18 Napolian Drive"
        ],
        "city": "RANCHO MIRAGE",
        "state": "CA",
        "postalCode": "92270-2743"
      },
      {
        "line": [
          "7142 Bobhurd Drive"
        ],
        "city": "SAN DIEGO",
        "state": "CA",
        "postalCode": "92119-1404"
      },
      {
        "line": [
          "12979 Rancho Penasquitos Blvd."
        ],
        "city": "SAN DIEGO",
        "state": "CA",
        "postalCode": "92109-2922"
      },
      {
        "line": [
          "8100 Binney Place"
        ],
        "city": "LA MESA",
        "state": "CA",
        "postalCode": "91942-2621"
      },
      {
        "line": [
          "7027 Cowles Mountain Blvd"
        ],
        "city": "SAN DIEGO",
        "state": "CA",
        "postalCode": "92119-1343"
      },
      {
        "line": [
          "350 South Vine Street"
        ],
        "city": "ESCONDIDO",
        "state": "CA",
        "postalCode": "92025-3858"
      },
      {
        "line": [
          "1697 Donax Ave"
        ],
        "city": "SAN DIEGO",
        "state": "CA",
        "postalCode": "92154-1004"
      },
      {
        "line": [
          "8250 Calle Nueva"
        ],
        "city": "SAN DIEGO",
        "state": "CA",
        "postalCode": "92126-1220"
      },
      {
        "line": [
          "1727 Tobacco Road"
        ],
        "city": "ESCONDIDO",
        "state": "CA",
        "postalCode": "92026-2119"
      },
      {
        "line": [
          "106 Estrella Street"
        ],
        "city": "RANCHO MIRAGE",
        "state": "CA",
        "postalCode": "92270-3949"
      },
      {
        "line": [
          "12295 Frentera Road"
        ],
        "city": "SAN DIEGO",
        "state": "CA",
        "postalCode": "92128-2145"
      },
      {
        "line": [
          "8715 Stanwell Street"
        ],
        "city": "SAN DIEGO",
        "state": "CA",
        "postalCode": "92126-3211"
      },
      {
        "line": [
          "942 Daisy Ave."
        ],
        "city": "CARLSBAD",
        "state": "CA",
        "postalCode": "92011-4815"
      },
      {
        "line": [
          "39 G ST"
        ],
        "city": "CHULA VISTA",
        "state": "CA",
        "postalCode": "91910-3138"
      },
      {
        "line": [
          "47965 Via Nice"
        ],
        "city": "LA QUINTA",
        "state": "CA",
        "postalCode": "92253-2158"
      },
      {
        "line": [
          "810 Turquoise Street"
        ],
        "city": "SAN DIEGO",
        "state": "CA",
        "postalCode": "92109-1126"
      },
      {
        "line": [
          "12536 Jackson Hill Lane"
        ],
        "city": "EL CAJON",
        "state": "CA",
        "postalCode": "92021-1710"
      },
      {
        "line": [
          "690 Helen Drive"
        ],
        "city": "OCEANSIDE",
        "state": "CA",
        "postalCode": "92057-3637"
      },
      {
        "line": [
          "3131 Crane Ave"
        ],
        "city": "ESCONDIDO",
        "state": "CA",
        "postalCode": "92027-6222"
      },
      {
        "line": [
          "13110 Gate Drive"
        ],
        "city": "POWAY",
        "state": "CA",
        "postalCode": "92064-5844"
      },
      {
        "line": [
          "300 Amparo Drive"
        ],
        "city": "ESCONDIDO",
        "state": "CA",
        "postalCode": "92025-6656"
      },
      {
        "line": [
          "1780 E. Baristo Road"
        ],
        "city": "PALM SPRINGS",
        "state": "CA",
        "postalCode": "92262-7114"
      },
      {
        "line": [
          "73685 Catalina Way"
        ],
        "city": "PALM DESERT",
        "state": "CA",
        "postalCode": "92260-2988"
      },
      {
        "line": [
          "452 Foussat Road"
        ],
        "city": "OCEANSIDE",
        "state": "CA",
        "postalCode": "92054-4709"
      },
      {
        "line": [
          "66338 4th street"
        ],
        "city": "DESERT HOT SPRINGS",
        "state": "CA",
        "postalCode": "92240-3108"
      },
      {
        "line": [
          "3035 Island Ave"
        ],
        "city": "SAN DIEGO",
        "state": "CA",
        "postalCode": "92102-3235"
      },
      {
        "line": [
          "444 Prescott Ave."
        ],
        "city": "EL CAJON",
        "state": "CA",
        "postalCode": "92020-5200"
      },
      {
        "line": [
          "4145 Poncedeleon Drive"
        ],
        "city": "LA MESA",
        "state": "CA",
        "postalCode": "91941-8200"
      },
      {
        "line": [
          "1817 Avenida Del Diablo"
        ],
        "city": "ESCONDIDO",
        "state": "CA",
        "postalCode": "92029-3112"
      },
      {
        "line": [
          "228 Iron Drive"
        ],
        "city": "VISTA",
        "state": "CA",
        "postalCode": "92083-4404"
      },
      {
        "line": [
          "1784 Foothill View Place"
        ],
        "city": "ESCONDIDO",
        "state": "CA",
        "postalCode": "92026-0490"
      },
      {
        "line": [
          "15042 Amso street"
        ],
        "city": "POWAY",
        "state": "CA",
        "postalCode": "92064-2602"
      },
      {
        "line": [
          "9619 CHESAPEAKE DRIVE",
          "Suite 12"
        ],
        "city": "SAN DIEGO",
        "state": "CA",
        "postalCode": "92123-1373"
      },
      {
        "line": [
          "14203 Midland Road"
        ],
        "city": "POWAY",
        "state": "CA",
        "postalCode": "92064-3405"
      },
      {
        "line": [
          "1255 Adventure Lane"
        ],
        "city": "SAN MARCOS",
        "state": "CA",
        "postalCode": "92069-3201"
      },
      {
        "line": [
          "47930 Via Firenze"
        ],
        "city": "LA QUINTA",
        "state": "CA",
        "postalCode": "92253-2155"
      },
      {
        "line": [
          "2650 Teal Place"
        ],
        "city": "SAN DIEGO",
        "state": "CA",
        "postalCode": "92123-3307"
      },
      {
        "line": [
          "1245 finch place"
        ],
        "city": "CHULA VISTA",
        "state": "CA",
        "postalCode": "91911-3810"
      },
      {
        "line": [
          "12750 Monte Vista Rd"
        ],
        "city": "POWAY",
        "state": "CA",
        "postalCode": "92064-2524"
      },
      {
        "line": [
          "45160 Seeley Drive."
        ],
        "city": "LA QUINTA",
        "state": "CA",
        "postalCode": "92253-6890"
      },
      {
        "line": [
          "1080 Arcadia Ave"
        ],
        "city": "VISTA",
        "state": "CA",
        "postalCode": "92084-3214"
      },
      {
        "line": [
          "2579 Arundel Ave"
        ],
        "city": "CARLSBAD",
        "state": "CA",
        "postalCode": "92009-3066"
      },
      {
        "line": [
          "4490 Mesa Drive"
        ],
        "city": "OCEANSIDE",
        "state": "CA",
        "postalCode": "92056-2646"
      },
      {
        "line": [
          "677 Highland Drive"
        ],
        "city": "PALM SPRINGS",
        "state": "CA",
        "postalCode": "92262-1017"
      },
      {
        "line": [
          "2525 Reed Road"
        ],
        "city": "ESCONDIDO",
        "state": "CA",
        "postalCode": "92027-4218"
      },
      {
        "line": [
          "2512 Heather Place"
        ],
        "city": "ESCONDIDO",
        "state": "CA",
        "postalCode": "92027-3534"
      },
      {
        "line": [
          "10863 El Nopal"
        ],
        "city": "SANTEE",
        "state": "CA",
        "postalCode": "92071-5025"
      },
      {
        "line": [
          "740 Santa Paula"
        ],
        "city": "SOLANA BEACH",
        "state": "CA",
        "postalCode": "92075-1526"
      },
      {
        "line": [
          "1863 Devon Place"
        ],
        "city": "VISTA",
        "state": "CA",
        "postalCode": "92084-7624"
      },
      {
        "line": [
          "1810 Carriage Lane"
        ],
        "city": "PALM SPRINGS",
        "state": "CA",
        "postalCode": "92262-3586"
      },
      {
        "line": [
          "12695 Monte Vista Rd"
        ],
        "city": "POWAY",
        "state": "CA",
        "postalCode": "92064-2523"
      },
      {
        "line": [
          "44-600 Monterey Ave."
        ],
        "city": "PALM DESERT",
        "state": "CA",
        "postalCode": "92260-3323"
      },
      {
        "line": [
          "11105 Hidden Glen Circle"
        ],
        "city": "SAN DIEGO",
        "state": "CA",
        "postalCode": "92131-1702"
      },
      {
        "line": [
          "3271 Innuit Ave."
        ],
        "city": "SAN DIEGO",
        "state": "CA",
        "postalCode": "92117-3521"
      },
      {
        "line": [
          "8515 Costa Verde Blvd"
        ],
        "city": "SAN DIEGO",
        "state": "CA",
        "postalCode": "92122-3035"
      },
      {
        "line": [
          "10163 embassy way"
        ],
        "city": "SAN DIEGO",
        "state": "CA",
        "postalCode": "92126-3443"
      },
      {
        "line": [
          "28661 Meadow Glenn West"
        ],
        "city": "ESCONDIDO",
        "state": "CA",
        "postalCode": "92026-6836"
      },
      {
        "line": [
          "504 South El Camino Real"
        ],
        "city": "ENCINITAS",
        "state": "CA",
        "postalCode": "92024-4152"
      },
      {
        "line": [
          "7623 Primavera Way"
        ],
        "city": "CARLSBAD",
        "state": "CA",
        "postalCode": "92009-8237"
      },
      {
        "line": [
          "7010 Jackson Drive"
        ],
        "city": "SAN DIEGO",
        "state": "CA",
        "postalCode": "92119-3007"
      },
      {
        "line": [
          "1777 Pinnacle Ct"
        ],
        "city": "VISTA",
        "state": "CA",
        "postalCode": "92081-5480"
      },
      {
        "line": [
          "5723 Bounty Street"
        ],
        "city": "SAN DIEGO",
        "state": "CA",
        "postalCode": "92120-2916"
      },
      {
        "line": [
          "40-235 Portola Ave"
        ],
        "city": "PALM DESERT",
        "state": "CA",
        "postalCode": "92260-1620"
      },
      {
        "line": [
          "3698 Valley Vista Road"
        ],
        "city": "BONITA",
        "state": "CA",
        "postalCode": "91902-1123"
      },
      {
        "line": [
          "803 Hollyridge Drive"
        ],
        "city": "ENCINITAS",
        "state": "CA",
        "postalCode": "92024-4730"
      },
      {
        "line": [
          "10136 Zapata Ave"
        ],
        "city": "SAN DIEGO",
        "state": "CA",
        "postalCode": "92126-1124"
      },
      {
        "line": [
          "1292 Conway Drive"
        ],
        "city": "ESCONDIDO",
        "state": "CA",
        "postalCode": "92027-1465"
      },
      {
        "line": [
          "33420 B. Shifting Sands Trail"
        ],
        "city": "CATHEDRAL CITY",
        "state": "CA",
        "postalCode": "92234-4417"
      },
      {
        "line": [
          "1154 Catspaw"
        ],
        "city": "ESCONDIDO",
        "state": "CA",
        "postalCode": "92029-3125"
      },
      {
        "line": [
          "12848 Neddick Avenue"
        ],
        "city": "POWAY",
        "state": "CA",
        "postalCode": "92064-5938"
      },
      {
        "line": [
          "6860 Condon Drive"
        ],
        "city": "SAN DIEGO",
        "state": "CA",
        "postalCode": "92122-2301"
      },
      {
        "line": [
          "3760 Calle De Carlos"
        ],
        "city": "PALM SPRINGS",
        "state": "CA",
        "postalCode": "92264-1224"
      },
      {
        "line": [
          "28200 Horizon Rd"
        ],
        "city": "CATHEDRAL CITY",
        "state": "CA",
        "postalCode": "92234-3789"
      },
      {
        "line": [
          "612 Tranquility Glen"
        ],
        "city": "ESCONDIDO",
        "state": "CA",
        "postalCode": "92027-3984"
      },
      {
        "line": [
          "164 Old ranch road"
        ],
        "city": "CHULA VISTA",
        "state": "CA",
        "postalCode": "91910-5011"
      },
      {
        "line": [
          "69272 Tacoma Ct."
        ],
        "city": "CATHEDRAL CITY",
        "state": "CA",
        "postalCode": "92234-0811"
      },
      {
        "line": [
          "2354 Watson Way"
        ],
        "city": "VISTA",
        "state": "CA",
        "postalCode": "92081-7925"
      },
      {
        "line": [
          "4416 San Joaquin Street"
        ],
        "city": "OCEANSIDE",
        "state": "CA",
        "postalCode": "92057-6021"
      },
      {
        "line": [
          "1995 Sunset Drive"
        ],
        "city": "ESCONDIDO",
        "state": "CA",
        "postalCode": "92025-6606"
      },
      {
        "line": [
          "670 Highland Drive"
        ],
        "city": "PALM SPRINGS",
        "state": "CA",
        "postalCode": "92264-1018"
      },
      {
        "line": [
          "2740 East 4th Street"
        ],
        "city": "NATIONAL CITY",
        "state": "CA",
        "postalCode": "91950-3006"
      },
      {
        "line": [
          "335 SAXONY RD"
        ],
        "city": "ENCINITAS",
        "state": "CA",
        "postalCode": "92024-2723"
      },
      {
        "line": [
          "5557 Soledad Mountain Road"
        ],
        "city": "LA JOLLA",
        "state": "CA",
        "postalCode": "92037-7255"
      },
      {
        "line": [
          "69835 Bluegrass Way"
        ],
        "city": "CATHEDRAL CITY",
        "state": "CA",
        "postalCode": "92234-2517"
      },
      {
        "line": [
          "11588 Via Rancho San Diego"
        ],
        "city": "EL CAJON",
        "state": "CA",
        "postalCode": "92019-5277"
      },
      {
        "line": [
          "34560 Bob Hope Drive"
        ],
        "city": "RANCHO MIRAGE",
        "state": "CA",
        "postalCode": "92270-1727"
      },
      {
        "line": [
          "2350 Warmlands Ave"
        ],
        "city": "VISTA",
        "state": "CA",
        "postalCode": "92084-2720"
      },
      {
        "line": [
          "3090 Chavez Rd."
        ],
        "city": "SAN DIEGO",
        "state": "CA",
        "postalCode": "92154-4243"
      },
      {
        "line": [
          "819 Wulff Street"
        ],
        "city": "SAN MARCOS",
        "state": "CA",
        "postalCode": "92069-2134"
      },
      {
        "line": [
          "73137 Somera Rd"
        ],
        "city": "PALM DESERT",
        "state": "CA",
        "postalCode": "92260-6036"
      },
      {
        "line": [
          "1420 East Palomar"
        ],
        "city": "CHULA VISTA",
        "state": "CA",
        "postalCode": "91913-1800"
      },
      {
        "line": [
          "1261 E. Washington Ave"
        ],
        "city": "ESCONDIDO",
        "state": "CA",
        "postalCode": "92027-1950"
      },
      {
        "line": [
          "1560 Security Place"
        ],
        "city": "SAN MARCOS",
        "state": "CA",
        "postalCode": "92069-4061"
      },
      {
        "line": [
          "3880 Nobel Drive"
        ],
        "city": "SAN DIEGO",
        "state": "CA",
        "postalCode": "92122-5700"
      },
      {
        "line": [
          "45911 Paseo Coronado"
        ],
        "city": "INDIAN WELLS",
        "state": "CA",
        "postalCode": "92210-8788"
      },
      {
        "line": [
          "3302 Bonita Rd"
        ],
        "city": "CHULA VISTA",
        "state": "CA",
        "postalCode": "91910-3207"
      },
      {
        "line": [
          "2579 Windmill View Drive"
        ],
        "city": "EL CAJON",
        "state": "CA",
        "postalCode": "92020-1048"
      },
      {
        "line": [
          "9112 Wakarusa Street"
        ],
        "city": "LA MESA",
        "state": "CA",
        "postalCode": "91942-3308"
      },
      {
        "line": [
          "1127 2nd Ave"
        ],
        "city": "CHULA VISTA",
        "state": "CA",
        "postalCode": "91911-3316"
      },
      {
        "line": [
          "760 E. Bobier Drive"
        ],
        "city": "VISTA",
        "state": "CA",
        "postalCode": "92084-3806"
      },
      {
        "line": [
          "5308 Munroe Ave"
        ],
        "city": "SAN DIEGO",
        "state": "CA",
        "postalCode": "92115-3427"
      },
      {
        "line": [
          "79870 Barcelona Drive"
        ],
        "city": "LA QUINTA",
        "state": "CA",
        "postalCode": "92253-8809"
      },
      {
        "line": [
          "3500 Lake Blvd"
        ],
        "city": "OCEANSIDE",
        "state": "CA",
        "postalCode": "92056-4600"
      },
      {
        "line": [
          "1440 South Melrose Drive"
        ],
        "city": "OCEANSIDE",
        "state": "CA",
        "postalCode": "92056-5548"
      },
      {
        "line": [
          "7766 Prairie Mound Way"
        ],
        "city": "SAN DIEGO",
        "state": "CA",
        "postalCode": "92139-1410"
      },
      {
        "line": [
          "306 Shady Lane"
        ],
        "city": "EL CAJON",
        "state": "CA",
        "postalCode": "92021-7034"
      },
      {
        "line": [
          "1540 Darling Drive"
        ],
        "city": "ESCONDIDO",
        "state": "CA",
        "postalCode": "92026-7812"
      },
      {
        "line": [
          "1342 N ESCONDIDO BLVD"
        ],
        "city": "ESCONDIDO",
        "state": "CA",
        "postalCode": "92026-2508"
      },
      {
        "line": [
          "2331 Monte Vista Drive"
        ],
        "city": "VISTA",
        "state": "CA",
        "postalCode": "92084-6529"
      },
      {
        "line": [
          "5508 AVENIDA PACIFICA WAY"
        ],
        "city": "OCEANSIDE",
        "state": "CA",
        "postalCode": "92057-5549"
      },
      {
        "line": [
          "1040 Mills Dr"
        ],
        "city": "ESCONDIDO",
        "state": "CA",
        "postalCode": "92027-1458"
      },
      {
        "line": [
          "511 30th Street"
        ],
        "city": "SAN DIEGO",
        "state": "CA",
        "postalCode": "92102-3203"
      },
      {
        "line": [
          "37859 KENNET ST"
        ],
        "city": "INDIO",
        "state": "CA",
        "postalCode": "92203-4804"
      },
      {
        "line": [
          "3357 Palm Street"
        ],
        "city": "SAN DIEGO",
        "state": "CA",
        "postalCode": "92104-5260"
      },
      {
        "line": [
          "6530 Boon Lake Ave"
        ],
        "city": "SAN DIEGO",
        "state": "CA",
        "postalCode": "92119-2614"
      },
      {
        "line": [
          "3012 Bear Valley Parkway South"
        ],
        "city": "ESCONDIDO",
        "state": "CA",
        "postalCode": "92025-7634"
      },
      {
        "line": [
          "31222 El Toro Rd"
        ],
        "city": "CATHEDRAL CITY",
        "state": "CA",
        "postalCode": "92234-3266"
      },
      {
        "line": [
          "11025 Avenida Del Gato"
        ],
        "city": "SAN DIEGO",
        "state": "CA",
        "postalCode": "92127-1710"
      },
      {
        "line": [
          "47805 Caleo Bay Drive"
        ],
        "city": "LA QUINTA",
        "state": "CA",
        "postalCode": "92253-6385"
      },
      {
        "line": [
          "677 Jonathon Place"
        ],
        "city": "ESCONDIDO",
        "state": "CA",
        "postalCode": "92027-1807"
      },
      {
        "line": [
          "1515 Jamacha Way"
        ],
        "city": "EL CAJON",
        "state": "CA",
        "postalCode": "92019-4123"
      },
      {
        "line": [
          "8904 Revelstoke Way"
        ],
        "city": "SAN DIEGO",
        "state": "CA",
        "postalCode": "92126-1431"
      },
      {
        "line": [
          "2641 Abedul Street"
        ],
        "city": "CARLSBAD",
        "state": "CA",
        "postalCode": "92009-5308"
      },
      {
        "line": [
          "1088 Laguna Drive"
        ],
        "city": "CARLSBAD",
        "state": "CA",
        "postalCode": "92008-1858"
      },
      {
        "line": [
          "1592 Silvertree"
        ],
        "city": "ESCONDIDO",
        "state": "CA",
        "postalCode": "92026-7813"
      },
      {
        "line": [
          "4025 Pulitzer Place"
        ],
        "city": "SAN DIEGO",
        "state": "CA",
        "postalCode": "92122-4220"
      },
      {
        "line": [
          "13597 Paseo Cardiel"
        ],
        "city": "SAN DIEGO",
        "state": "CA",
        "postalCode": "92129-2818"
      },
      {
        "line": [
          "1780 East Baristo Road"
        ],
        "city": "PALM SPRINGS",
        "state": "CA",
        "postalCode": "92262-7114"
      },
      {
        "line": [
          "69275 el canto rd"
        ],
        "city": "CATHEDRAL CITY",
        "state": "CA",
        "postalCode": "92234-3030"
      },
      {
        "line": [
          "1890 Lendee Drive"
        ],
        "city": "ESCONDIDO",
        "state": "CA",
        "postalCode": "92025-6345"
      },
      {
        "line": [
          "215 steiger lane"
        ],
        "city": "OCEANSIDE",
        "state": "CA",
        "postalCode": "92056-3119"
      },
      {
        "line": [
          "849 Coast Blvd"
        ],
        "city": "LA JOLLA",
        "state": "CA",
        "postalCode": "92037-4223"
      },
      {
        "line": [
          "11881 Calle Albara"
        ],
        "city": "EL CAJON",
        "state": "CA",
        "postalCode": "92019-4087"
      },
      {
        "line": [
          "14125 Tarzana Road"
        ],
        "city": "POWAY",
        "state": "CA",
        "postalCode": "92064-2825"
      },
      {
        "line": [
          "1682 Daybreak place"
        ],
        "city": "ESCONDIDO",
        "state": "CA",
        "postalCode": "92027-1023"
      },
      {
        "line": [
          "44-277 Portola Ave"
        ],
        "city": "PALM DESERT",
        "state": "CA",
        "postalCode": "92260-2917"
      },
      {
        "line": [
          "3140 El Camino Real"
        ],
        "city": "CARLSBAD",
        "state": "CA",
        "postalCode": "92008-2108"
      },
      {
        "line": [
          "500 E. Valley Pkwy"
        ],
        "city": "ESCONDIDO",
        "state": "CA",
        "postalCode": "92025-3054"
      },
      {
        "line": [
          "727 Ascot Drive"
        ],
        "city": "VISTA",
        "state": "CA",
        "postalCode": "92083-4208"
      },
      {
        "line": [
          "18655 West Bernardo Drive"
        ],
        "city": "SAN DIEGO",
        "state": "CA",
        "postalCode": "92127-3002"
      },
      {
        "line": [
          "201 S. Sunrise Way"
        ],
        "city": "PALM SPRINGS",
        "state": "CA",
        "postalCode": "92262-6738"
      },
      {
        "line": [
          "5996 Sagebrush Rd."
        ],
        "city": "LA JOLLA",
        "state": "CA",
        "postalCode": "92037-7039"
      },
      {
        "line": [
          "1340 Bosworth Street"
        ],
        "city": "EL CAJON",
        "state": "CA",
        "postalCode": "92019-2337"
      },
      {
        "line": [
          "2830 Cazadero Street"
        ],
        "city": "CARLSBAD",
        "state": "CA",
        "postalCode": "92009-5901"
      },
      {
        "line": [
          "11419 Westonhill Drive"
        ],
        "city": "SAN DIEGO",
        "state": "CA",
        "postalCode": "92126-1450"
      },
      {
        "line": [
          "2855 Carlsbad Blvd."
        ],
        "city": "CARLSBAD",
        "state": "CA",
        "postalCode": "92008-2902"
      },
      {
        "line": [
          "7541 Milky Way Pointe"
        ],
        "city": "SAN DIEGO",
        "state": "CA",
        "postalCode": "92120-2018"
      },
      {
        "line": [
          "2440 Grand Ave."
        ],
        "city": "SAN DIEGO",
        "state": "CA",
        "postalCode": "92109-4858"
      },
      {
        "line": [
          "29635 Santa Rosa Street"
        ],
        "city": "CATHEDRAL CITY",
        "state": "CA",
        "postalCode": "92234-4953"
      },
      {
        "line": [
          "15237 Calle Juanito"
        ],
        "city": "SAN DIEGO",
        "state": "CA",
        "postalCode": "92129-1010"
      },
      {
        "line": [
          "3434 Bonita Road"
        ],
        "city": "CHULA VISTA",
        "state": "CA",
        "postalCode": "91910-3209"
      },
      {
        "line": [
          "3219 Canyon Street"
        ],
        "city": "SAN DIEGO",
        "state": "CA",
        "postalCode": "92109-2512"
      },
      {
        "line": [
          "5706 TULANE ST"
        ],
        "city": "SAN DIEGO",
        "state": "CA",
        "postalCode": "92122-3220"
      },
      {
        "line": [
          "8914 Troy Street"
        ],
        "city": "SPRING VALLEY",
        "state": "CA",
        "postalCode": "91977-2609"
      },
      {
        "line": [
          "12979 Rancho Penasquitos"
        ],
        "city": "SAN DIEGO",
        "state": "CA",
        "postalCode": "92129-3404"
      },
      {
        "line": [
          "6897 Freed Manor Ln"
        ],
        "city": "SAN DIEGO",
        "state": "CA",
        "postalCode": "92114-7810"
      },
      {
        "line": [
          "8 Tourmaline street"
        ],
        "city": "CHULA VISTA",
        "state": "CA",
        "postalCode": "91911-5335"
      },
      {
        "line": [
          "558 Similax Rd"
        ],
        "city": "SAN MARCOS",
        "state": "CA",
        "postalCode": "92078-6112"
      },
      {
        "line": [
          "3993 Caseman Ave."
        ],
        "city": "SAN DIEGO",
        "state": "CA",
        "postalCode": "92154-2508"
      },
      {
        "line": [
          "9619 CHESAPEAKE DRIVE",
          "SUITE 102"
        ],
        "city": "SAN DIEGO",
        "state": "CA",
        "postalCode": "92123-1373"
      },
      {
        "line": [
          "4459 San Joaquin"
        ],
        "city": "OCEANSIDE",
        "state": "CA",
        "postalCode": "92057-6026"
      },
      {
        "line": [
          "1351 E. Washington Ave"
        ],
        "city": "ESCONDIDO",
        "state": "CA",
        "postalCode": "92027-1934"
      },
      {
        "line": [
          "39905 Via Scena"
        ],
        "city": "PALM DESERT",
        "state": "CA",
        "postalCode": "92260-1822"
      },
      {
        "line": [
          "1780 East Baristo Rd"
        ],
        "city": "PALM SPRINGS",
        "state": "CA",
        "postalCode": "92262-7114"
      },
      {
        "line": [
          "9724 eucalyptus Court"
        ],
        "city": "SANTEE",
        "state": "CA",
        "postalCode": "92071-2774"
      },
      {
        "line": [
          "772 Jamacha Rod"
        ],
        "city": "EL CAJON",
        "state": "CA",
        "postalCode": "92020-3201"
      },
      {
        "line": [
          "8666 Octans Street"
        ],
        "city": "SAN DIEGO",
        "state": "CA",
        "postalCode": "92126-1342"
      },
      {
        "line": [
          "41505 Carlotta Drive"
        ],
        "city": "PALM DESERT",
        "state": "CA",
        "postalCode": "92211-3279"
      },
      {
        "line": [
          "344 North Sunrise Way"
        ],
        "city": "PALM SPRINGS",
        "state": "CA",
        "postalCode": "92262-0318"
      },
      {
        "line": [
          "712 Bozanich Circle"
        ],
        "city": "VISTA",
        "state": "CA",
        "postalCode": "92084-6217"
      },
      {
        "line": [
          "12695 monte vista rd"
        ],
        "city": "POWAY",
        "state": "CA",
        "postalCode": "92064-2523"
      },
      {
        "line": [
          "68640 Senora Road"
        ],
        "city": "CATHEDRAL CITY",
        "state": "CA",
        "postalCode": "92234-3810"
      },
      {
        "line": [
          "350 Cole Ranch Rd"
        ],
        "city": "ENCINITAS",
        "state": "CA",
        "postalCode": "92024-6416"
      },
      {
        "line": [
          "12708 Monte Vista Road"
        ],
        "city": "POWAY",
        "state": "CA",
        "postalCode": "92064-2522"
      },
      {
        "line": [
          "119 Azzuro Drive"
        ],
        "city": "PALM DESERT",
        "state": "CA",
        "postalCode": "92211-0792"
      },
      {
        "line": [
          "2231 Fowler Drive"
        ],
        "city": "SAN DIEGO",
        "state": "CA",
        "postalCode": "92139-2518"
      },
      {
        "line": [
          "1233 Cresthill Road"
        ],
        "city": "EL CAJON",
        "state": "CA",
        "postalCode": "92021-3305"
      },
      {
        "line": [
          "13750 Powers Rd."
        ],
        "city": "POWAY",
        "state": "CA",
        "postalCode": "92064-3618"
      },
      {
        "line": [
          "146 Wedgewood Drive"
        ],
        "city": "SAN DIEGO",
        "state": "CA",
        "postalCode": "92114-7416"
      },
      {
        "line": [
          "316 Crestview Drive"
        ],
        "city": "BONITA",
        "state": "CA",
        "postalCode": "91902-4286"
      },
      {
        "line": [
          "1464 Kostner Ave"
        ],
        "city": "SAN DIEGO",
        "state": "CA",
        "postalCode": "92154-3832"
      },
      {
        "line": [
          "299 Prospect Place"
        ],
        "city": "CORONADO",
        "state": "CA",
        "postalCode": "92118-1967"
      },
      {
        "line": [
          "5219 Clairemont Mesa Blvd."
        ],
        "city": "SAN DIEGO",
        "state": "CA",
        "postalCode": "92117-2206"
      },
      {
        "line": [
          "2080 Heights Court"
        ],
        "city": "ESCONDIDO",
        "state": "CA",
        "postalCode": "92027-4751"
      },
      {
        "line": [
          "1119 Via Vera Cruz"
        ],
        "city": "SAN MARCOS",
        "state": "CA",
        "postalCode": "92078-1380"
      },
      {
        "line": [
          "12695 Monte Vista Road"
        ],
        "city": "POWAY",
        "state": "CA",
        "postalCode": "92064-2523"
      },
      {
        "line": [
          "877 Muirfield Drive"
        ],
        "city": "OCEANSIDE",
        "state": "CA",
        "postalCode": "92058-7017"
      },
      {
        "line": [
          "78805 Nolan Circle"
        ],
        "city": "LA QUINTA",
        "state": "CA",
        "postalCode": "92253-6823"
      },
      {
        "line": [
          "6396 Lake Decator Ave"
        ],
        "city": "SAN DIEGO",
        "state": "CA",
        "postalCode": "92119-3127"
      },
      {
        "line": [
          "11085 Zagala Ct"
        ],
        "city": "SAN DIEGO",
        "state": "CA",
        "postalCode": "92124-2206"
      },
      {
        "line": [
          "2404 Loring Street"
        ],
        "city": "SAN DIEGO",
        "state": "CA",
        "postalCode": "92109-2347"
      },
      {
        "line": [
          "31318 Newma Drive"
        ],
        "city": "CATHEDRAL CITY",
        "state": "CA",
        "postalCode": "92234-3095"
      },
      {
        "line": [
          "1080 Avacado Ave"
        ],
        "city": "ESCONDIDO",
        "state": "CA",
        "postalCode": "92026-2414"
      },
      {
        "line": [
          "735 arcadia ave"
        ],
        "city": "NATIONAL CITY",
        "state": "CA",
        "postalCode": "91950-3949"
      },
      {
        "line": [
          "72750 Country Club Drive"
        ],
        "city": "RANCHO MIRAGE",
        "state": "CA",
        "postalCode": "92270-4083"
      },
      {
        "line": [
          "13075 Evening Creek Dr."
        ],
        "city": "SAN DIEGO",
        "state": "CA",
        "postalCode": "92128-8101"
      },
      {
        "line": [
          "3223 Duke Street"
        ],
        "city": "SAN DIEGO",
        "state": "CA",
        "postalCode": "92110-5401"
      },
      {
        "line": [
          "11775 Walnut Road."
        ],
        "city": "LAKESIDE",
        "state": "CA",
        "postalCode": "92040-5624"
      },
      {
        "line": [
          "16006 Camino Deliciada"
        ],
        "city": "RANCHO SANTA FE",
        "state": "CA",
        "postalCode": "92091-4361"
      },
      {
        "line": [
          "93 Avenida Descanso"
        ],
        "city": "OCEANSIDE",
        "state": "CA",
        "postalCode": "92057-6041"
      },
      {
        "line": [
          "2567 2nd ave"
        ],
        "city": "SAN DIEGO",
        "state": "CA",
        "postalCode": "92103-6508"
      },
      {
        "line": [
          "704 Via Ladera"
        ],
        "city": "VISTA",
        "state": "CA",
        "postalCode": "92029-6708"
      },
      {
        "line": [
          "9208 Bellagio Rd."
        ],
        "city": "SANTEE",
        "state": "CA",
        "postalCode": "92071-2101"
      },
      {
        "line": [
          "14215 Midland Road."
        ],
        "city": "POWAY",
        "state": "CA",
        "postalCode": "92064-3405"
      },
      {
        "line": [
          "7960 Gaylen Road"
        ],
        "city": "SAN DIEGO",
        "state": "CA",
        "postalCode": "92126-2613"
      },
      {
        "line": [
          "799 Marsopa Drive"
        ],
        "city": "VISTA",
        "state": "CA",
        "postalCode": "92081-6438"
      },
      {
        "line": [
          "1739 Summer Place Drive"
        ],
        "city": "EL CAJON",
        "state": "CA",
        "postalCode": "92021-1236"
      },
      {
        "line": [
          "3815 Jodi Street"
        ],
        "city": "SAN DIEGO",
        "state": "CA",
        "postalCode": "92115-6525"
      },
      {
        "line": [
          "10264 Ambassador Ave"
        ],
        "city": "SAN DIEGO",
        "state": "CA",
        "postalCode": "92126-3406"
      },
      {
        "line": [
          "1312 leaf terrace"
        ],
        "city": "SAN DIEGO",
        "state": "CA",
        "postalCode": "92114-6816"
      },
      {
        "line": [
          "1290 Santa Rosa Drive"
        ],
        "city": "CHULA VISTA",
        "state": "CA",
        "postalCode": "91913-1849"
      },
      {
        "line": [
          "3028 Delfina Place"
        ],
        "city": "CARLSBAD",
        "state": "CA",
        "postalCode": "92009-8208"
      },
      {
        "line": [
          "44277 portola avenue"
        ],
        "city": "PALM DESERT",
        "state": "CA",
        "postalCode": "92260-2917"
      },
      {
        "line": [
          "4750 Leathers Street"
        ],
        "city": "SAN DIEGO",
        "state": "CA",
        "postalCode": "92117-2436"
      },
      {
        "line": [
          "10584 Fuerte Drive"
        ],
        "city": "LA MESA",
        "state": "CA",
        "postalCode": "91941-4351"
      },
      {
        "line": [
          "8950 Johnson Drive"
        ],
        "city": "LA MESA",
        "state": "CA",
        "postalCode": "91941-5422"
      },
      {
        "line": [
          "4706 Leathers Street"
        ],
        "city": "SAN DIEGO",
        "state": "CA",
        "postalCode": "92117-2436"
      },
      {
        "line": [
          "12323 Julian Ave"
        ],
        "city": "LAKESIDE",
        "state": "CA",
        "postalCode": "92040-4103"
      },
      {
        "line": [
          "6325 DENNISON ST"
        ],
        "city": "SAN DIEGO",
        "state": "CA",
        "postalCode": "92122-2401"
      },
      {
        "line": [
          "6602 Avenida Mirola"
        ],
        "city": "LA JOLLA",
        "state": "CA",
        "postalCode": "92037-6233"
      },
      {
        "line": [
          "183 Third Ave"
        ],
        "city": "CHULA VISTA",
        "state": "CA",
        "postalCode": "91910-1822"
      },
      {
        "line": [
          "3535 ManchesterAve"
        ],
        "city": "CARDIFF BY THE SEA",
        "state": "CA",
        "postalCode": "92007-1520"
      },
      {
        "line": [
          "5700 Bounty Street"
        ],
        "city": "SAN DIEGO",
        "state": "CA",
        "postalCode": "92120-2916"
      },
      {
        "line": [
          "2045 Skyline Srive"
        ],
        "city": "LEMON GROVE",
        "state": "CA",
        "postalCode": "91945-4221"
      },
      {
        "line": [
          "5874 Honors Drive"
        ],
        "city": "SAN DIEGO",
        "state": "CA",
        "postalCode": "92122-2237"
      },
      {
        "line": [
          "69647 N. Hampton Ave"
        ],
        "city": "CATHEDRAL CITY",
        "state": "CA",
        "postalCode": "92234-1104"
      },
      {
        "line": [
          "12708 Monte Vista Rd"
        ],
        "city": "POWAY",
        "state": "CA",
        "postalCode": "92064-2522"
      },
      {
        "line": [
          "6255 Mchaney Court"
        ],
        "city": "SAN DIEGO",
        "state": "CA",
        "postalCode": "92114-6906"
      },
      {
        "line": [
          "3219 Canon Street"
        ],
        "city": "SAN DIEGO",
        "state": "CA",
        "postalCode": "92106-2512"
      },
      {
        "line": [
          "4849 Ronson Court",
          "SUITE 217"
        ],
        "city": "SAN DIEGO",
        "state": "CA",
        "postalCode": "92111-1805"
      },
      {
        "line": [
          "3810 Governor Drive"
        ],
        "city": "SAN DIEGO",
        "state": "CA",
        "postalCode": "92122-2441"
      },
      {
        "line": [
          "4951 Chalet Drive"
        ],
        "city": "OCEANSIDE",
        "state": "CA",
        "postalCode": "92057-6926"
      },
      {
        "line": [
          "77632 Barons Circle"
        ],
        "city": "PALM DESERT",
        "state": "CA",
        "postalCode": "92211-0409"
      },
      {
        "line": [
          "69920 Matisse Road"
        ],
        "city": "CATHEDRAL CITY",
        "state": "CA",
        "postalCode": "92234-8929"
      },
      {
        "line": [
          "1925 Vermel Ave"
        ],
        "city": "ESCONDIDO",
        "state": "CA",
        "postalCode": "92029-3024"
      },
      {
        "line": [
          "44645 san onofre ave"
        ],
        "city": "PALM DESERT",
        "state": "CA",
        "postalCode": "92260-3713"
      },
      {
        "line": [
          "78335 Via Dijon"
        ],
        "city": "LA QUINTA",
        "state": "CA",
        "postalCode": "92253-2382"
      },
      {
        "line": [
          "5105 Bancroft Drive"
        ],
        "city": "LA MESA",
        "state": "CA",
        "postalCode": "91941-4204"
      },
      {
        "line": [
          "6333 Rancho Mission Rd"
        ],
        "city": "SAN DIEGO",
        "state": "CA",
        "postalCode": "92108-2001"
      },
      {
        "line": [
          "1997 Calle Madrigal"
        ],
        "city": "LA JOLLA",
        "state": "CA",
        "postalCode": "92037-6408"
      },
      {
        "line": [
          "4025 Pultizer Place"
        ],
        "city": "SAN DIEGO",
        "state": "CA",
        "postalCode": "92122-4220"
      },
      {
        "line": [
          "72201 Country Club drive"
        ],
        "city": "RANCHO MIRAGE",
        "state": "CA",
        "postalCode": "92270-4001"
      },
      {
        "line": [
          "508 Berland Way"
        ],
        "city": "CHULA VISTA",
        "state": "CA",
        "postalCode": "91910-6425"
      },
      {
        "line": [
          "6281 Jackson Drive"
        ],
        "city": "SAN DIEGO",
        "state": "CA",
        "postalCode": "92119-3409"
      },
      {
        "line": [
          "6749 radcliffe drive"
        ],
        "city": "SAN DIEGO",
        "state": "CA",
        "postalCode": "92122-2447"
      },
      {
        "line": [
          "17737 Hunters Ridge Road"
        ],
        "city": "SAN DIEGO",
        "state": "CA",
        "postalCode": "92127-7612"
      },
      {
        "line": [
          "423 Avacado Ave"
        ],
        "city": "EL CAJON",
        "state": "CA",
        "postalCode": "92020-4607"
      },
      {
        "line": [
          "7675 Family Circle"
        ],
        "city": "SAN DIEGO",
        "state": "CA",
        "postalCode": "92111-5304"
      },
      {
        "line": [
          "793 Wichita Ave"
        ],
        "city": "EL CAJON",
        "state": "CA",
        "postalCode": "92019-2608"
      },
      {
        "line": [
          "1765 Maple Street"
        ],
        "city": "ESCONDIDO",
        "state": "CA",
        "postalCode": "92025-6105"
      },
      {
        "line": [
          "3131 Crane Ave."
        ],
        "city": "ESCONDIDO",
        "state": "CA",
        "postalCode": "92027-6222"
      },
      {
        "line": [
          "434 E. Oxford Street"
        ],
        "city": "CHULA VISTA",
        "state": "CA",
        "postalCode": "91911-3812"
      },
      {
        "line": [
          "1537 Brighton Glen Rd."
        ],
        "city": "SAN MARCOS",
        "state": "CA",
        "postalCode": "92078-5495"
      },
      {
        "line": [
          "1687 Arnheim Ct."
        ],
        "city": "EL CAJON",
        "state": "CA",
        "postalCode": "92021-3651"
      },
      {
        "line": [
          "81657 Hidden Links Drive"
        ],
        "city": "LA QUINTA",
        "state": "CA",
        "postalCode": "92253-9069"
      },
      {
        "line": [
          "16916 Hierba Drive."
        ],
        "city": "SAN DIEGO",
        "state": "CA",
        "postalCode": "92128-2687"
      },
      {
        "line": [
          "950 L Ave."
        ],
        "city": "NATIONAL CITY",
        "state": "CA",
        "postalCode": "91950-3785"
      },
      {
        "line": [
          "5720 Desert View Drive"
        ],
        "city": "LA JOLLA",
        "state": "CA",
        "postalCode": "92037-7240"
      },
      {
        "line": [
          "2041 W. Vista Way"
        ],
        "city": "VISTA",
        "state": "CA",
        "postalCode": "92083-6013"
      },
      {
        "line": [
          "1575 Elm Drive"
        ],
        "city": "VISTA",
        "state": "CA",
        "postalCode": "92084-4155"
      },
      {
        "line": [
          "196 Pacific View Lane"
        ],
        "city": "ENCINITAS",
        "state": "CA",
        "postalCode": "92024-7724"
      },
      {
        "line": [
          "1725 Tobacco Rd."
        ],
        "city": "ESCONDIDO",
        "state": "CA",
        "postalCode": "92026-2119"
      },
      {
        "line": [
          "504 S. El Camino Real"
        ],
        "city": "ENCINITAS",
        "state": "CA",
        "postalCode": "92024-4152"
      },
      {
        "line": [
          "72-750 Country Club Drive"
        ],
        "city": "RANCHO MIRAGE",
        "state": "CA",
        "postalCode": "92270-4083"
      },
      {
        "line": [
          "14548 Garden Road"
        ],
        "city": "POWAY",
        "state": "CA",
        "postalCode": "92064-5126"
      },
      {
        "line": [
          "68640 SENORA AVE"
        ],
        "city": "CATHEDRAL CITY",
        "state": "CA",
        "postalCode": "92234-3810"
      },
      {
        "line": [
          "2921 Murat Street"
        ],
        "city": "SAN DIEGO",
        "state": "CA",
        "postalCode": "92117-2447"
      },
      {
        "line": [
          "1965 Edwin Lane"
        ],
        "city": "SAN MARCOS",
        "state": "CA",
        "postalCode": "92069-9709"
      },
      {
        "line": [
          "44-300 San Pasqual"
        ],
        "city": "PALM DESERT",
        "state": "CA",
        "postalCode": "92260-2920"
      },
      {
        "line": [
          "9431 Reagan Rd"
        ],
        "city": "SAN DIEGO",
        "state": "CA",
        "postalCode": "92126-2203"
      },
      {
        "line": [
          "69647 Northhampton Ave"
        ],
        "city": "CATHEDRAL CITY",
        "state": "CA",
        "postalCode": "92234-1104"
      },
      {
        "line": [
          "4415 Park Drive"
        ],
        "city": "CARLSBAD",
        "state": "CA",
        "postalCode": "92008-4256"
      },
      {
        "line": [
          "603 Maybritt circle"
        ],
        "city": "SAN MARCOS",
        "state": "CA",
        "postalCode": "92069-5834"
      },
      {
        "line": [
          "9000 Murray Drive"
        ],
        "city": "LA MESA",
        "state": "CA",
        "postalCode": "91942-3572"
      },
      {
        "line": [
          "850 Del Mar Downs"
        ],
        "city": "SOLANA BEACH",
        "state": "CA",
        "postalCode": "92075-2725"
      },
      {
        "line": [
          "558 Smilax Road"
        ],
        "city": "SAN MARCOS",
        "state": "CA",
        "postalCode": "92078-6112"
      },
      {
        "line": [
          "2045 Skyline Drive"
        ],
        "city": "LEMON GROVE",
        "state": "CA",
        "postalCode": "91945-4221"
      },
      {
        "line": [
          "1576 Casteel Court"
        ],
        "city": "SAN DIEGO",
        "state": "CA",
        "postalCode": "92114-6913"
      },
      {
        "line": [
          "8429 Flanders Drive"
        ],
        "city": "SAN DIEGO",
        "state": "CA",
        "postalCode": "92126-3244"
      },
      {
        "line": [
          "222 Washington St"
        ],
        "city": "VISTA",
        "state": "CA",
        "postalCode": "92084-5449"
      },
      {
        "line": [
          "12738 Monte Vista Rd"
        ],
        "city": "POWAY",
        "state": "CA",
        "postalCode": "92064-2524"
      },
      {
        "line": [
          "4745 Calle de Vida"
        ],
        "city": "SAN DIEGO",
        "state": "CA",
        "postalCode": "92124-2307"
      }
    ],
    "extension": [
      {
        "url": "https://fhir.athena.io/StructureDefinition/ah-practice",
        "valueReference": {
          "reference": "Organization/a-1.Practice-10731"
        }
      },
      {
        "url": "https://fhir.athena.io/StructureDefinition/ah-brand",
        "valueReference": {
          "reference": "Organization/a-10731.Brand-1"
        }
      }
    ]
  },
  "fullUrl": "urn:uuid:d0efe82e-89d1-5d63-99f3-f512a6be6835"
}