{
  "resource": {
    "resourceType": "Organization",
    "id": "8771c860-21b5-5d63-aa50-8dbdb039ad37",
    "name": "EUSTASIS",
    "endpoint": [
      {
        "reference": "Endpoint/27a4e967-47aa-5a9c-a572-b8297ee268a2"
      },
      {
        "reference": "Endpoint/f0a89fe8-980b-5872-9c87-1c0734238b7b"
      }
    ],
    "identifier": [
      {
        "system": "http://hl7.org/fhir/sid/us-npi",
        "value": "1548760820"
      }
    ],
    "address": [
      {
        "line": [
          "5548 N. Farmer Branch Rd"
        ],
        "city": "OZARK",
        "state": "MO",
        "postalCode": "65721-5315"
      },
      {
        "line": [
          "1505 E Bradford Parkway"
        ],
        "city": "SPRINGFIELD",
        "state": "MO",
        "postalCode": "65804-6566"
      },
      {
        "line": [
          "3600 S NATIONAL AVE"
        ],
        "city": "SPRINGFIELD",
        "state": "MO",
        "postalCode": "65807-7347"
      },
      {
        "line": [
          "2000 S PROMENADE BLVD STE 202"
        ],
        "city": "ROGERS",
        "state": "AR",
        "postalCode": "72758-8609"
      },
      {
        "line": [
          "3017 BROOKING PARK AVE"
        ],
        "city": "SEDALIA",
        "state": "MO",
        "postalCode": "65301-9029"
      },
      {
        "line": [
          "23628 RESTORE RD."
        ],
        "city": "WAYNESVILLE",
        "state": "MO",
        "postalCode": "65528-3216"
      },
      {
        "line": [
          "2034 W College St"
        ],
        "city": "SPRINGFIELD",
        "state": "MO",
        "postalCode": "65806-1524"
      },
      {
        "line": [
          "2005 W ELM ST"
        ],
        "city": "ROGERS",
        "state": "AR",
        "postalCode": "72758-4018"
      },
      {
        "line": [
          "1505 E BRADFORD PKWY"
        ],
        "city": "SPRINGFIELD",
        "state": "MO",
        "postalCode": "65804-6566"
      },
      {
        "line": [
          "287 COUNTY ROAD 275"
        ],
        "city": "MYRTLE",
        "state": "MO",
        "postalCode": "65778-8341"
      },
      {
        "line": [
          "3600 S NATIONAL AVE"
        ],
        "city": "SPRINGFIELD",
        "state": "MO",
        "postalCode": "65807-7311"
      },
      {
        "line": [
          "25466 Hwy N"
        ],
        "city": "LEBANON",
        "state": "MO",
        "postalCode": "65536-7706"
      },
      {
        "line": [
          "2915 S Fremont Ave"
        ],
        "city": "SPRINGFIELD",
        "state": "MO",
        "postalCode": "65804-3608"
      },
      {
        "line": [
          "2000 S Promenade BLVD",
          "Ste 202"
        ],
        "city": "ROGERS",
        "state": "AR",
        "postalCode": "72758-8609"
      },
      {
        "line": [
          "2005 E Elm"
        ],
        "city": "ROGERS",
        "state": "AR",
        "postalCode": "72758-4018"
      },
      {
        "line": [
          "2030 WEST MOUNT VERNON STREET"
        ],
        "city": "SPRINGFIELD",
        "state": "MO",
        "postalCode": "65802-4846"
      },
      {
        "line": [
          "1505 E Bradford PKWY"
        ],
        "city": "SPRINGFIELD",
        "state": "MO",
        "postalCode": "65804-6566"
      },
      {
        "line": [
          "2032 E KEARNEY STE. 214"
        ],
        "city": "SPRINGFIELD",
        "state": "MO",
        "postalCode": "65803-4662"
      },
      {
        "line": [
          "3100 S National Ave",
          "STE 103"
        ],
        "city": "SPRINGFIELD",
        "state": "MO",
        "postalCode": "65807-7347"
      },
      {
        "line": [
          "3100 S National Ave",
          "Ste 103"
        ],
        "city": "SPRINGFIELD",
        "state": "MO",
        "postalCode": "65807-7345"
      },
      {
        "line": [
          "5548 N FARMER BRANCH RD"
        ],
        "city": "OZARK",
        "state": "MO",
        "postalCode": "65721-5315"
      },
      {
        "line": [
          "3100 S NATIONAL AVE STE 103"
        ],
        "city": "SPRINGFIELD",
        "state": "MO",
        "postalCode": "65807-7347"
      },
      {
        "line": [
          "3600 S National Ave"
        ],
        "city": "SPRINGFIELD",
        "state": "MO",
        "postalCode": "65807-7311"
      },
      {
        "line": [
          "2915 s fremont ave"
        ],
        "city": "SPRINGFIELD",
        "state": "MO",
        "postalCode": "65804-3608"
      }
    ],
    "extension": [
      {
        "url": "https://fhir.athena.io/StructureDefinition/ah-practice",
        "valueReference": {
          "reference": "Organization/a-1.Practice-21190"
        }
      },
      {
        "url": "https://fhir.athena.io/StructureDefinition/ah-brand",
        "valueReference": {
          "reference": "Organization/a-21190.Brand-1"
        }
      }
    ]
  },
  "fullUrl": "urn:uuid:8771c860-21b5-5d63-aa50-8dbdb039ad37"
}