{
  "resource": {
    "resourceType": "Organization",
    "id": "5d904038-a0e6-50eb-92b9-c34c3faa006f",
    "name": "MINUTECLINIC DIAGNOSTIC OF KANSAS",
    "endpoint": [
      {
        "reference": "Endpoint/27a4e967-47aa-5a9c-a572-b8297ee268a2"
      },
      {
        "reference": "Endpoint/2f670611-142b-5a1b-897e-29bc846ecdbb"
      }
    ],
    "identifier": [
      {
        "system": "http://hl7.org/fhir/sid/us-npi",
        "value": "1629005558"
      }
    ],
    "address": [
      {
        "line": [
          "8021 Watson Rd"
        ],
        "city": "SAINT LOUIS",
        "state": "MO",
        "postalCode": "63119-5304"
      },
      {
        "line": [
          "3825 NOLAND RD"
        ],
        "city": "INDEPENDENCE",
        "state": "MO",
        "postalCode": "64055-3344"
      },
      {
        "line": [
          "8101 Clayton Road"
        ],
        "city": "SAINT LOUIS",
        "state": "MO",
        "postalCode": "63117-1103"
      },
      {
        "line": [
          "7501 METCALF AVE"
        ],
        "city": "OVERLAND PARK",
        "state": "KS",
        "postalCode": "66204-2927"
      },
      {
        "line": [
          "1215 W FOXWOOD DR"
        ],
        "city": "RAYMORE",
        "state": "MO",
        "postalCode": "64083-8301"
      },
      {
        "line": [
          "400 S Truman Blvd."
        ],
        "city": "CRYSTAL CITY",
        "state": "MO",
        "postalCode": "63019-1726"
      },
      {
        "line": [
          "11560 OLIVE BLVD"
        ],
        "city": "SAINT LOUIS",
        "state": "MO",
        "postalCode": "63141-7111"
      },
      {
        "line": [
          "10711 N CONGRESS AVE"
        ],
        "city": "KANSAS CITY",
        "state": "MO",
        "postalCode": "64153-1230"
      },
      {
        "line": [
          "11729 ROE AVE"
        ],
        "city": "LEAWOOD",
        "state": "KS",
        "postalCode": "66211-2605"
      }
    ],
    "extension": [
      {
        "url": "https://fhir.athena.io/StructureDefinition/ah-practice",
        "valueReference": {
          "reference": "Organization/a-1.Practice-1636"
        }
      },
      {
        "url": "https://fhir.athena.io/StructureDefinition/ah-brand",
        "valueReference": {
          "reference": "Organization/a-1636.Brand-1"
        }
      }
    ]
  },
  "fullUrl": "urn:uuid:5d904038-a0e6-50eb-92b9-c34c3faa006f"
}