{
  "resource": {
    "resourceType": "Organization",
    "id": "459aae3f-621d-5a33-b22b-29e337fee6f3",
    "name": "Windy City Anesthesia",
    "endpoint": [
      {
        "reference": "Endpoint/27a4e967-47aa-5a9c-a572-b8297ee268a2"
      },
      {
        "reference": "Endpoint/ce2f4886-44a5-5a18-80c4-587d741d0096"
      }
    ],
    "identifier": [
      {
        "system": "http://hl7.org/fhir/sid/us-npi",
        "value": "1932248622"
      },
      {
        "system": "http://hl7.org/fhir/sid/us-npi",
        "value": "1609130228"
      },
      {
        "system": "http://hl7.org/fhir/sid/us-npi",
        "value": "1558884072"
      }
    ],
    "address": [
      {
        "line": [
          "30 E 15th Street",
          "Suite 306"
        ],
        "city": "CHICAGO HEIGHTS",
        "state": "IL",
        "postalCode": "60411-3459"
      },
      {
        "line": [
          "1147 S. Wabash Ave Suite 200"
        ],
        "city": "CHICAGO",
        "state": "IL",
        "postalCode": "60605-2348"
      },
      {
        "line": [
          "1800 MCDONOUGH ROAD",
          "SUITE 100"
        ],
        "city": "HOFFMAN ESTATES",
        "state": "IL",
        "postalCode": "60192-4566"
      },
      {
        "line": [
          "15324 W. Beloit Rd",
          "Suite 300A"
        ],
        "city": "NEW BERLIN",
        "state": "WI",
        "postalCode": "53151-7447"
      },
      {
        "line": [
          "12800 S RIDGELAND AVE",
          "SUITE F"
        ],
        "city": "PALOS HEIGHTS",
        "state": "IL",
        "postalCode": "60463-2190"
      },
      {
        "line": [
          "2415 S Michigan Ave"
        ],
        "city": "CHICAGO",
        "state": "IL",
        "postalCode": "60616-2301"
      },
      {
        "line": [
          "7 N GRANT ST  ST 1"
        ],
        "city": "HINSDALE",
        "state": "IL",
        "postalCode": "60521-3366"
      },
      {
        "line": [
          "1205 OAK ST"
        ],
        "city": "NORTH AURORA",
        "state": "IL",
        "postalCode": "60542-2006"
      },
      {
        "line": [
          "2651 N LARAMIE AVE"
        ],
        "city": "CHICAGO",
        "state": "IL",
        "postalCode": "60639-1613"
      },
      {
        "line": [
          "6123 GREEN BAY RD",
          "SUITE 100"
        ],
        "city": "KENOSHA",
        "state": "WI",
        "postalCode": "53142-2927"
      },
      {
        "line": [
          "2101 S. Arlington Heights Rd, Suite 165"
        ],
        "city": "ARLINGTON HEIGHTS",
        "state": "IL",
        "postalCode": "60005-4142"
      },
      {
        "line": [
          "15234 S HARLEM AVE"
        ],
        "city": "ORLAND PARK",
        "state": "IL",
        "postalCode": "60462-4330"
      },
      {
        "line": [
          "618 W Fulton St"
        ],
        "city": "CHICAGO",
        "state": "IL",
        "postalCode": "60661-1144"
      },
      {
        "line": [
          "5851 W. 95th St",
          "1609150234"
        ],
        "city": "OAK LAWN",
        "state": "IL",
        "postalCode": "60453-2394"
      },
      {
        "line": [
          "1900 Silver Cross Blvd"
        ],
        "city": "NEW LENOX",
        "state": "IL",
        "postalCode": "60451-9509"
      },
      {
        "line": [
          "10547 S Ewing Ave"
        ],
        "city": "CHICAGO",
        "state": "IL",
        "postalCode": "60617-6220"
      },
      {
        "line": [
          "908 N. Elm Street Suite 301"
        ],
        "city": "HINSDALE",
        "state": "IL",
        "postalCode": "60521-3625"
      },
      {
        "line": [
          "10784 V.Street"
        ],
        "city": "OMAHA",
        "state": "NE",
        "postalCode": "68127-2952"
      },
      {
        "line": [
          "7620 N. University"
        ],
        "city": "PEORIA",
        "state": "IL",
        "postalCode": "61614-1297"
      },
      {
        "line": [
          "12339 Strtford Drive"
        ],
        "city": "CLIVE",
        "state": "IA",
        "postalCode": "50325-8148"
      },
      {
        "line": [
          "3535 College ave"
        ],
        "city": "ALTON",
        "state": "IL",
        "postalCode": "62002-5009"
      },
      {
        "line": [
          "2500 N MAYFAIR RD STE 420"
        ],
        "city": "MILWAUKEE",
        "state": "WI",
        "postalCode": "53226-1443"
      },
      {
        "line": [
          "6039 West Belmont Ave"
        ],
        "city": "CHICAGO",
        "state": "IL",
        "postalCode": "60634-5150"
      },
      {
        "line": [
          "2246 Weber Rd"
        ],
        "city": "CREST HILL",
        "state": "IL",
        "postalCode": "60403-0928"
      },
      {
        "line": [
          "30 N. Michigan Ave Unit 300"
        ],
        "city": "CHICAGO",
        "state": "IL",
        "postalCode": "60602-4495"
      },
      {
        "line": [
          "375 north Wall Street Suite P630"
        ],
        "city": "KANKAKEE",
        "state": "IL",
        "postalCode": "60901-3698"
      },
      {
        "line": [
          "1580 West Lake Street"
        ],
        "city": "ADDISON",
        "state": "IL",
        "postalCode": "60101-1171"
      },
      {
        "line": [
          "2800 North Sheridan Rd Set 602"
        ],
        "city": "CHICAGO",
        "state": "IL",
        "postalCode": "60657-6183"
      },
      {
        "line": [
          "10400 SOUTHWEST HWY"
        ],
        "city": "CHICAGO RIDGE",
        "state": "IL",
        "postalCode": "60415-2091"
      },
      {
        "line": [
          "1600 167th Street"
        ],
        "city": "CALUMET CITY",
        "state": "IL",
        "postalCode": "60409-5457"
      },
      {
        "line": [
          "544 West Pershing Road Suite A"
        ],
        "city": "DECATUR",
        "state": "IL",
        "postalCode": "62526-3226"
      },
      {
        "line": [
          "1012 West 95th Street Suite 3"
        ],
        "city": "NAPERVILLE",
        "state": "IL",
        "postalCode": "60564-5040"
      },
      {
        "line": [
          "5440 N Cumberland Suite 105"
        ],
        "city": "CHICAGO",
        "state": "IL",
        "postalCode": "60656-4700"
      },
      {
        "line": [
          "2631 Williamsburg Ave Suite 301"
        ],
        "city": "GENEVA",
        "state": "IL",
        "postalCode": "60134-1101"
      },
      {
        "line": [
          "17001 Lakeside Hills Plaza - Suite 100"
        ],
        "city": "OMAHA",
        "state": "NE",
        "postalCode": "68130-4670"
      },
      {
        "line": [
          "16604 107th Ct"
        ],
        "city": "ORLAND PARK",
        "state": "IL",
        "postalCode": "60467-8898"
      },
      {
        "line": [
          "467 W Erie St."
        ],
        "city": "CHICAGO",
        "state": "IL",
        "postalCode": "60654-5704"
      },
      {
        "line": [
          "10 ORLAND SQUARE DR"
        ],
        "city": "ORLAND PARK",
        "state": "IL",
        "postalCode": "60462-3207"
      },
      {
        "line": [
          "5207 Main St 2A"
        ],
        "city": "DOWNERS GROVE",
        "state": "IL",
        "postalCode": "60515-5071"
      },
      {
        "line": [
          "4 EXECUTIVE CT"
        ],
        "city": "BARRINGTON",
        "state": "IL",
        "postalCode": "60010-9519"
      },
      {
        "line": [
          "3213 S 24th"
        ],
        "city": "Omaha",
        "state": "NE",
        "postalCode": "61808-1832"
      },
      {
        "line": [
          "5311 South Harlem Ave"
        ],
        "city": "CHICAGO",
        "state": "IL",
        "postalCode": "60638-1006"
      },
      {
        "line": [
          "1400 S MICHIGAN AVE APT 1203"
        ],
        "city": "CHICAGO",
        "state": "IL",
        "postalCode": "60605-3720"
      },
      {
        "line": [
          "15234 S HARLEM",
          "MAIN FLOOR"
        ],
        "city": "ORLAND PARK",
        "state": "IL",
        "postalCode": "60462-4330"
      },
      {
        "line": [
          "1220 Hobson Rd. Suite 116"
        ],
        "city": "NAPERVILLE",
        "state": "IL",
        "postalCode": "60540-8137"
      },
      {
        "line": [
          "17495 W. Capitol Road"
        ],
        "city": "BROOKFIELD",
        "state": "WI",
        "postalCode": "53045-2059"
      },
      {
        "line": [
          "31 W DUNDEE RD"
        ],
        "city": "WHEELING",
        "state": "IL",
        "postalCode": "60090-4863"
      },
      {
        "line": [
          "1S210 Summit Ave."
        ],
        "city": "OAK BROOK TERRACE",
        "state": "IL",
        "postalCode": "60181-3933"
      },
      {
        "line": [
          "1010 W US Route 6"
        ],
        "city": "MORRIS",
        "state": "IL",
        "postalCode": "60450-8942"
      },
      {
        "line": [
          "680 N Lake Shore Dr. Suite 114"
        ],
        "city": "CHICAGO",
        "state": "IL",
        "postalCode": "60611-4448"
      },
      {
        "line": [
          "303 N Wm. Kumpf Blvd"
        ],
        "city": "PEORIA",
        "state": "IL",
        "postalCode": "61605-2507"
      },
      {
        "line": [
          "3201 S 24th st"
        ],
        "city": "OMAHA",
        "state": "NE",
        "postalCode": "68108-1825"
      },
      {
        "line": [
          "10444 S WESTERN AVE SUITE A"
        ],
        "city": "CHICAGO",
        "state": "IL",
        "postalCode": "60643-2508"
      },
      {
        "line": [
          "1S280 Summit Ave",
          "A-1"
        ],
        "city": "OAK BROOK TERRACE",
        "state": "IL",
        "postalCode": "60181-3984"
      },
      {
        "line": [
          "1192 E PERSHING RD"
        ],
        "city": "DECATUR",
        "state": "IL",
        "postalCode": "62526-4753"
      },
      {
        "line": [
          "2350 Ravine Way",
          "Suite 400"
        ],
        "city": "GLENVIEW",
        "state": "IL",
        "postalCode": "60025-7621"
      },
      {
        "line": [
          "5744 N. Broadway St"
        ],
        "city": "CHICAGO",
        "state": "IL",
        "postalCode": "60660-4302"
      },
      {
        "line": [
          "4202 W Layton Ave",
          "Ste 200"
        ],
        "city": "FRANKLIN",
        "state": "WI",
        "postalCode": "53132-9118"
      },
      {
        "line": [
          "1050 SOUTH MILWAUKEE AVE",
          "SUITE 102"
        ],
        "city": "BURLINGTON",
        "state": "WI",
        "postalCode": "53105-1955"
      },
      {
        "line": [
          "3612 Lake Ave"
        ],
        "city": "WILMETTE",
        "state": "IL",
        "postalCode": "60091-1000"
      },
      {
        "line": [
          "680 N. Lake Shore Drive Suite 930"
        ],
        "city": "CHICAGO",
        "state": "IL",
        "postalCode": "60611-8700"
      },
      {
        "line": [
          "1763 Freedom Drive Suite 117"
        ],
        "city": "NAPERVILLE",
        "state": "IL",
        "postalCode": "60563-3553"
      },
      {
        "line": [
          "10095 W Lincoln Hwy"
        ],
        "city": "FRANKFORT",
        "state": "IL",
        "postalCode": "60423-1272"
      },
      {
        "line": [
          "1999 Springbrook Square  Dr",
          "Suite 101"
        ],
        "city": "NAPERVILLE",
        "state": "IL",
        "postalCode": "60564-5946"
      },
      {
        "line": [
          "1702 W. Lawrence Ave"
        ],
        "city": "CHICAGO",
        "state": "IL",
        "postalCode": "60640-4412"
      },
      {
        "line": [
          "2600 Patriot Blvd, Unit J"
        ],
        "city": "GLENVIEW",
        "state": "IL",
        "postalCode": "60026-8024"
      },
      {
        "line": [
          "2651 N Laramie Ave"
        ],
        "city": "CHICAGO",
        "state": "IL",
        "postalCode": "60639-3108"
      },
      {
        "line": [
          "3 N WASHINGTON ST"
        ],
        "city": "NAPERVILLE",
        "state": "IL",
        "postalCode": "60540-4780"
      },
      {
        "line": [
          "205 West Commerce Suite B"
        ],
        "city": "GRAYSLAKE",
        "state": "IL",
        "postalCode": "60030-1646"
      },
      {
        "line": [
          "112 Salt Creek Ln",
          "Ste 104"
        ],
        "city": "HINSDALE",
        "state": "IL",
        "postalCode": "60521-8606"
      },
      {
        "line": [
          "1845 W.Army Trail Rd"
        ],
        "city": "ADDISON",
        "state": "IL",
        "postalCode": "60101-2500"
      },
      {
        "line": [
          "2340 S Wabash Ave"
        ],
        "city": "CHICAGO",
        "state": "IL",
        "postalCode": "60616-2301"
      },
      {
        "line": [
          "1S210 Summit Ave"
        ],
        "city": "OAK BROOK TERRACE",
        "state": "IL",
        "postalCode": "60181-3904"
      },
      {
        "line": [
          "2406 E Empire St"
        ],
        "city": "BLOOMINGTON",
        "state": "IL",
        "postalCode": "61704-3630"
      },
      {
        "line": [
          "6803 Kingery HWY"
        ],
        "city": "WILLOWBROOK",
        "state": "IL",
        "postalCode": "60527-5154"
      },
      {
        "line": [
          "1256 Waterford Drive"
        ],
        "city": "AURORA",
        "state": "IL",
        "postalCode": "60504-4510"
      },
      {
        "line": [
          "5241 S. Cicero Ave"
        ],
        "city": "CHICAGO",
        "state": "IL",
        "postalCode": "60632-4967"
      },
      {
        "line": [
          "3412 W FULLERTON AVE"
        ],
        "city": "CHICAGO",
        "state": "IL",
        "postalCode": "60647-2416"
      },
      {
        "line": [
          "4425 Montgomery Rd Suite 102"
        ],
        "city": "NAPERVILLE",
        "state": "IL",
        "postalCode": "60564-9542"
      },
      {
        "line": [
          "2333 N. Harlem Avenue"
        ],
        "city": "Chicago",
        "state": "IL",
        "postalCode": "60707-2718"
      },
      {
        "line": [
          "203 E. Irving Park Rd"
        ],
        "city": "WOOD DALE",
        "state": "IL",
        "postalCode": "60191-2045"
      },
      {
        "line": [
          "2000 Ogden Ave"
        ],
        "city": "AURORA",
        "state": "IL",
        "postalCode": "60504-7222"
      },
      {
        "line": [
          "1401 Lakewood Dr.",
          "Unit 3"
        ],
        "city": "MORRIS",
        "state": "IL",
        "postalCode": "60450-3352"
      },
      {
        "line": [
          "1319 Butterfield Rd",
          "Suite 506"
        ],
        "city": "DOWNERS GROVE",
        "state": "IL",
        "postalCode": "60515-5601"
      },
      {
        "line": [
          "350 South Waukegan Rd Suite 150"
        ],
        "city": "DEERFIELD",
        "state": "IL",
        "postalCode": "60015-5239"
      },
      {
        "line": [
          "5723 W. Fullerton"
        ],
        "city": "CHICAGO",
        "state": "IL",
        "postalCode": "60639-2306"
      },
      {
        "line": [
          "3100 W HIGGINS RD STE 150"
        ],
        "city": "HOFFMAN ESTATES",
        "state": "IL",
        "postalCode": "60169-7256"
      },
      {
        "line": [
          "1925 e Rand Rd"
        ],
        "city": "ARLINGTON HEIGHTS",
        "state": "IL",
        "postalCode": "60004-4366"
      },
      {
        "line": [
          "1851 SILVER CROSS BLVD STE 250 # PAVILION"
        ],
        "city": "NEW LENOX",
        "state": "IL",
        "postalCode": "60451-9629"
      },
      {
        "line": [
          "757 Park Ave West Suite 3800"
        ],
        "city": "HIGHLAND PARK",
        "state": "IL",
        "postalCode": "60035-2558"
      },
      {
        "line": [
          "511 W TALCOTT RD"
        ],
        "city": "PARK RIDGE",
        "state": "IL",
        "postalCode": "60068-5338"
      },
      {
        "line": [
          "17495 W. Capitol Dr Suite K"
        ],
        "city": "BROOKFIELD",
        "state": "WI",
        "postalCode": "53045-2059"
      },
      {
        "line": [
          "3471 Green Bay Rd"
        ],
        "city": "NORTH CHICAGO",
        "state": "IL",
        "postalCode": "60064-3090"
      },
      {
        "line": [
          "5610 w Cermak",
          "Unit 2"
        ],
        "city": "CICERO",
        "state": "IL",
        "postalCode": "60804-2219"
      },
      {
        "line": [
          "5140 North California Ave"
        ],
        "city": "CHICAGO",
        "state": "IL",
        "postalCode": "60625-3645"
      },
      {
        "line": [
          "355 E Grand Ave",
          "Ste 2800"
        ],
        "city": "CHICAGO",
        "state": "IL",
        "postalCode": "60611-5389"
      },
      {
        "line": [
          "2910 MacArthur Blvd"
        ],
        "city": "NORTHBROOK",
        "state": "IL",
        "postalCode": "60062-2129"
      },
      {
        "line": [
          "123 N WAUKEGAN RD"
        ],
        "city": "LAKE BLUFF",
        "state": "IL",
        "postalCode": "60044-1696"
      },
      {
        "line": [
          "5700 W Cermak Rd"
        ],
        "city": "CICERO",
        "state": "IL",
        "postalCode": "60804-2128"
      },
      {
        "line": [
          "14290 S. Lagrange Rd"
        ],
        "city": "ORLAND PARK",
        "state": "IL",
        "postalCode": "60462-2023"
      },
      {
        "line": [
          "17901 GOVERNORS HWY STE 102"
        ],
        "city": "HOMEWOOD",
        "state": "IL",
        "postalCode": "60430-1145"
      },
      {
        "line": [
          "3050 Finley Rd"
        ],
        "city": "DOWNERS GROVE",
        "state": "IL",
        "postalCode": "60515-1196"
      },
      {
        "line": [
          "5401 N Knoxville Ave Suite 102"
        ],
        "city": "PEORIA",
        "state": "IL",
        "postalCode": "61614-5021"
      },
      {
        "line": [
          "340 W. Butterfield Rd Suite 1B"
        ],
        "city": "ELMHURST",
        "state": "IL",
        "postalCode": "60126-5047"
      },
      {
        "line": [
          "62 63RD St"
        ],
        "city": "WILLOWBROOK",
        "state": "IL",
        "postalCode": "60527-2982"
      },
      {
        "line": [
          "3213 S 24th ST",
          "STE 101-B"
        ],
        "city": "OMAHA",
        "state": "NE",
        "postalCode": "68108-1832"
      },
      {
        "line": [
          "537 W 31st Street"
        ],
        "city": "CHICAGO",
        "state": "IL",
        "postalCode": "60616-3130"
      },
      {
        "line": [
          "17 West Grand Avenue"
        ],
        "city": "CHICAGO",
        "state": "IL",
        "postalCode": "60654-4844"
      },
      {
        "line": [
          "3918 W. 63rd St"
        ],
        "city": "CHICAGO",
        "state": "IL",
        "postalCode": "60629-4604"
      },
      {
        "line": [
          "1550 S INDIANA AVE SUITE 100"
        ],
        "city": "CHICAGO",
        "state": "IL",
        "postalCode": "60605-2857"
      },
      {
        "line": [
          "813 W Moreland Blvd"
        ],
        "city": "WAUKESHA",
        "state": "WI",
        "postalCode": "53188-2963"
      },
      {
        "line": [
          "820 W JACKSON BLVD",
          "SUITE 310"
        ],
        "city": "CHICAGO",
        "state": "IL",
        "postalCode": "60607-3026"
      },
      {
        "line": [
          "545 Plainfield Rd Suite C"
        ],
        "city": "WILLOWBROOK",
        "state": "IL",
        "postalCode": "60527-7601"
      },
      {
        "line": [
          "7319 West North Ave"
        ],
        "city": "RIVER FOREST",
        "state": "IL",
        "postalCode": "60305-1220"
      },
      {
        "line": [
          "823 129th Infantry Drive"
        ],
        "city": "JOLIET",
        "state": "IL",
        "postalCode": "60435-6685"
      },
      {
        "line": [
          "3055 W Armitage Ave"
        ],
        "city": "CHICAGO",
        "state": "IL",
        "postalCode": "60647-3862"
      },
      {
        "line": [
          "3691 Willowcreek Rd Suite 100"
        ],
        "city": "PORTAGE",
        "state": "IN",
        "postalCode": "46368-5076"
      },
      {
        "line": [
          "1212 N. LaSalle Suite 100"
        ],
        "city": "CHICAGO",
        "state": "IL",
        "postalCode": "60610-2379"
      },
      {
        "line": [
          "1890 Silver Cross Blvd Suite 210 Pav A"
        ],
        "city": "NEW LENOX",
        "state": "IL",
        "postalCode": "60451-9626"
      },
      {
        "line": [
          "5600 W ADDISON ST STE 305"
        ],
        "city": "CHICAGO",
        "state": "IL",
        "postalCode": "60634-4468"
      },
      {
        "line": [
          "1630 45th St. Suite 104"
        ],
        "city": "MUNSTER",
        "state": "IN",
        "postalCode": "46321-3959"
      },
      {
        "line": [
          "1338 E 47TH ST"
        ],
        "city": "CHICAGO",
        "state": "IL",
        "postalCode": "60653-4508"
      },
      {
        "line": [
          "9050 W. 81st St"
        ],
        "city": "JUSTICE",
        "state": "IL",
        "postalCode": "60458-1350"
      },
      {
        "line": [
          "3260 W 111TH STREET"
        ],
        "city": "CHICAGO",
        "state": "IL",
        "postalCode": "60655-2205"
      },
      {
        "line": [
          "2019 DEAN ST"
        ],
        "city": "SAINT CHARLES",
        "state": "IL",
        "postalCode": "60174-4801"
      },
      {
        "line": [
          "16450 104th Avenue"
        ],
        "city": "ORLAND PARK",
        "state": "IL",
        "postalCode": "60467-5413"
      },
      {
        "line": [
          "911",
          "Wall Street"
        ],
        "city": "VALPARAISO",
        "state": "IN",
        "postalCode": "46383-2361"
      },
      {
        "line": [
          "8153 S. 27th Street Suite 500"
        ],
        "city": "FRANKLIN",
        "state": "WI",
        "postalCode": "53132-9557"
      },
      {
        "line": [
          "1110 W SHICK RD"
        ],
        "city": "BARTLETT",
        "state": "IL",
        "postalCode": "60103-3007"
      },
      {
        "line": [
          "676 N. St Clair Suite 1880"
        ],
        "city": "CHICAGO",
        "state": "IL",
        "postalCode": "60611-3139"
      },
      {
        "line": [
          "1550 Todd Farm Drive"
        ],
        "city": "ELGIN",
        "state": "IL",
        "postalCode": "60123-1287"
      },
      {
        "line": [
          "500 N. Michigan Ave Suite 2100"
        ],
        "city": "CHICAGO",
        "state": "IL",
        "postalCode": "60611-3773"
      },
      {
        "line": [
          "60 E DELAWARE PL"
        ],
        "city": "CHICAGO",
        "state": "IL",
        "postalCode": "60611-1495"
      },
      {
        "line": [
          "950 N York Rd. Suite 101"
        ],
        "city": "HINSDALE",
        "state": "IL",
        "postalCode": "60521-8608"
      },
      {
        "line": [
          "4211 N Cicero Ave",
          "Suite 400"
        ],
        "city": "CHICAGO",
        "state": "IL",
        "postalCode": "60641-1651"
      },
      {
        "line": [
          "10400 W Higgins Rd - Ste 100"
        ],
        "city": "ROSEMONT",
        "state": "IL",
        "postalCode": "60018-3703"
      },
      {
        "line": [
          "17495 W Capital Drive"
        ],
        "city": "BROOKFIELD",
        "state": "WI",
        "postalCode": "53045-2059"
      },
      {
        "line": [
          "10762 W. 167th Street"
        ],
        "city": "ORLAND PARK",
        "state": "IL",
        "postalCode": "60467-5434"
      },
      {
        "line": [
          "10811 W 143RD ST STE 250"
        ],
        "city": "ORLAND PARK",
        "state": "IL",
        "postalCode": "60467-1913"
      },
      {
        "line": [
          "1S210 Summit Ave"
        ],
        "city": "OAK BROOK TERRACE",
        "state": "IL",
        "postalCode": "60181-3933"
      },
      {
        "line": [
          "22285 N PEPPER RD SUITE 303"
        ],
        "city": "BARRINGTON",
        "state": "IL",
        "postalCode": "60010-2541"
      },
      {
        "line": [
          "2455 Dean St Suite A"
        ],
        "city": "SAINT CHARLES",
        "state": "IL",
        "postalCode": "60175-4830"
      },
      {
        "line": [
          "3201 S 24TH ST"
        ],
        "city": "OMAHA",
        "state": "NE",
        "postalCode": "68108-1825"
      },
      {
        "line": [
          "9700 E GOLF RD"
        ],
        "city": "DES PLAINES",
        "state": "IL",
        "postalCode": "60016-1566"
      },
      {
        "line": [
          "2425 West 22nd Street Suite 101"
        ],
        "city": "OAK BROOK",
        "state": "IL",
        "postalCode": "60523-4642"
      },
      {
        "line": [
          "1614 N. Harlem Ave"
        ],
        "city": "ELMWOOD PARK",
        "state": "IL",
        "postalCode": "60707-4302"
      }
    ],
    "extension": [
      {
        "url": "https://fhir.athena.io/StructureDefinition/ah-practice",
        "valueReference": {
          "reference": "Organization/a-1.Practice-15893"
        }
      },
      {
        "url": "https://fhir.athena.io/StructureDefinition/ah-brand",
        "valueReference": {
          "reference": "Organization/a-15893.Brand-1"
        }
      }
    ]
  },
  "fullUrl": "urn:uuid:459aae3f-621d-5a33-b22b-29e337fee6f3"
}