{
  "resource": {
    "resourceType": "Organization",
    "id": "bebf0bb3-29db-5c6b-8ce9-da2ae3be3669",
    "name": "Associates In Internal Medicine",
    "endpoint": [
      {
        "reference": "Endpoint/27a4e967-47aa-5a9c-a572-b8297ee268a2"
      },
      {
        "reference": "Endpoint/4e04d412-61aa-5415-8c3a-0a71eac45d24"
      }
    ],
    "identifier": [
      {
        "system": "http://hl7.org/fhir/sid/us-npi",
        "value": "1689030595"
      },
      {
        "system": "http://hl7.org/fhir/sid/us-npi",
        "value": "1770941742"
      },
      {
        "system": "http://hl7.org/fhir/sid/us-npi",
        "value": "1790143766"
      },
      {
        "system": "http://hl7.org/fhir/sid/us-npi",
        "value": "1770943631"
      },
      {
        "system": "http://hl7.org/fhir/sid/us-npi",
        "value": "1902264971"
      },
      {
        "system": "http://hl7.org/fhir/sid/us-npi",
        "value": "1659885754"
      },
      {
        "system": "http://hl7.org/fhir/sid/us-npi",
        "value": "1659921740"
      },
      {
        "system": "http://hl7.org/fhir/sid/us-npi",
        "value": "1689034548"
      }
    ],
    "address": [
      {
        "line": [
          "1657 Bernardin Ave suite 200B"
        ],
        "city": "COLUMBIA",
        "state": "SC",
        "postalCode": "29204-2041"
      },
      {
        "line": [
          "1659 Bernardin Ave Suite 200B"
        ],
        "city": "COLUMBIA",
        "state": "SC",
        "postalCode": "29204-2043"
      },
      {
        "line": [
          "2720 Sunset BLVD"
        ],
        "city": "WEST COLUMBIA",
        "state": "SC",
        "postalCode": "29169-4810"
      },
      {
        "line": [
          "2720 SUNSET BLVD"
        ],
        "city": "WEST COLUMBIA",
        "state": "SC",
        "postalCode": "29169-4810"
      },
      {
        "line": [
          "3000 St Matthews Rd"
        ],
        "city": "ORANGEBURG",
        "state": "SC",
        "postalCode": "29118-1442"
      },
      {
        "line": [
          "2750 Laurel Street",
          "Suite 303"
        ],
        "city": "COLUMBIA",
        "state": "SC",
        "postalCode": "29204-2025"
      },
      {
        "line": [
          "1660 Bernardin Ave Suite 200B"
        ],
        "city": "COLUMBIA",
        "state": "SC",
        "postalCode": "29204-2044"
      },
      {
        "line": [
          "120 Gateway Corp Blvd"
        ],
        "city": "COLUMBIA",
        "state": "SC",
        "postalCode": "29203-9611"
      },
      {
        "line": [
          "2435 Forest Dr."
        ],
        "city": "COLUMBIA",
        "state": "SC",
        "postalCode": "29204-2026"
      },
      {
        "line": [
          "124 Battleship Road"
        ],
        "city": "CAMDEN",
        "state": "SC",
        "postalCode": "29020-2060"
      },
      {
        "line": [
          "114 GATEWAY CORPORATE BLVD",
          "Ste 420"
        ],
        "city": "COLUMBIA",
        "state": "SC",
        "postalCode": "29203-9785"
      },
      {
        "line": [
          "2750 Laurel Street"
        ],
        "city": "COLUMBIA",
        "state": "SC",
        "postalCode": "29204-2025"
      },
      {
        "line": [
          "3001 ST MATTHEWS RD"
        ],
        "city": "ORANGEBURG",
        "state": "SC",
        "postalCode": "29118-1443"
      },
      {
        "line": [
          "3002 ST MATTHEWS RD"
        ],
        "city": "ORANGEBURG",
        "state": "SC",
        "postalCode": "29118-1444"
      },
      {
        "line": [
          "5 Richland Medical Park"
        ],
        "city": "COLUMBIA",
        "state": "SC",
        "postalCode": "29203-6863"
      },
      {
        "line": [
          "2001 Laurel St.",
          "Suite 300"
        ],
        "city": "COLUMBIA",
        "state": "SC",
        "postalCode": "29204-1018"
      },
      {
        "line": [
          "120 Gateway Corporate Blvd"
        ],
        "city": "COLUMBIA",
        "state": "SC",
        "postalCode": "29203-9611"
      },
      {
        "line": [
          "1655 Bernardin Ave suite 200B"
        ],
        "city": "COLUMBIA",
        "state": "SC",
        "postalCode": "29204-2039"
      },
      {
        "line": [
          "120 GATEWAY CORP BLVD"
        ],
        "city": "COLUMBIA",
        "state": "SC",
        "postalCode": "29203-9611"
      },
      {
        "line": [
          "330 Seven Springs Way"
        ],
        "city": "COLUMBIA",
        "state": "SC",
        "postalCode": "29204-4556"
      },
      {
        "line": [
          "1658 Bernardin Ave suite 200B"
        ],
        "city": "COLUMBIA",
        "state": "SC",
        "postalCode": "29204-2042"
      },
      {
        "line": [
          "110 Gateway Corporate Blvd Ste 150"
        ],
        "city": "COLUMBIA",
        "state": "SC",
        "postalCode": "29203-8923"
      },
      {
        "line": [
          "114 Gateway Corporate Blvd.",
          "Suite 350"
        ],
        "city": "COLUMBIA",
        "state": "SC",
        "postalCode": "29203-9785"
      },
      {
        "line": [
          "1659 Bernardin Ave suite 200B"
        ],
        "city": "COLUMBIA",
        "state": "SC",
        "postalCode": "29204-2043"
      },
      {
        "line": [
          "2750 Laurel Street",
          "Suite 305"
        ],
        "city": "COLUMBIA",
        "state": "SC",
        "postalCode": "29204-2025"
      },
      {
        "line": [
          "2601 Laurel St.",
          "Ste 130"
        ],
        "city": "COLUMBIA",
        "state": "SC",
        "postalCode": "29204-2034"
      },
      {
        "line": [
          "1304 W BOBO NEWSOM HWY"
        ],
        "city": "HARTSVILLE",
        "state": "SC",
        "postalCode": "29550-4710"
      },
      {
        "line": [
          "1656 Bernardin Ave suite 200B"
        ],
        "city": "COLUMBIA",
        "state": "SC",
        "postalCode": "29204-2040"
      },
      {
        "line": [
          "2750 Laurel Street",
          "Suite 104"
        ],
        "city": "COLUMBIA",
        "state": "SC",
        "postalCode": "29204-2025"
      },
      {
        "line": [
          "2351 Augusta Highway"
        ],
        "city": "LEXINGTON",
        "state": "SC",
        "postalCode": "29072-2213"
      },
      {
        "line": [
          "610 Columbiana Dr."
        ],
        "city": "COLUMBIA",
        "state": "SC",
        "postalCode": "29212-0728"
      },
      {
        "line": [
          "114 Gateway Corporate Blvd",
          "Ste 210"
        ],
        "city": "COLUMBIA",
        "state": "SC",
        "postalCode": "29203-8800"
      },
      {
        "line": [
          "2435 Forest Dr"
        ],
        "city": "COLUMBIA",
        "state": "SC",
        "postalCode": "29204-2026"
      },
      {
        "line": [
          "2437 FOREST DRIVE"
        ],
        "city": "COLUMBIA",
        "state": "SC",
        "postalCode": "29203-1236"
      },
      {
        "line": [
          "121 GATEWAY CORP BLVD"
        ],
        "city": "COLUMBIA",
        "state": "SC",
        "postalCode": "29203-9612"
      },
      {
        "line": [
          "2436 FOREST DRIVE"
        ],
        "city": "COLUMBIA",
        "state": "SC",
        "postalCode": "29203-1235"
      },
      {
        "line": [
          "1656 Bernardin Ave Suite 200B"
        ],
        "city": "COLUMBIA",
        "state": "SC",
        "postalCode": "29204-2040"
      },
      {
        "line": [
          "110 GATEWAY CORPORATE BLVD SUITE 160"
        ],
        "city": "COLUMBIA",
        "state": "SC",
        "postalCode": "29203-9685"
      },
      {
        "line": [
          "1315 Roberts St."
        ],
        "city": "CAMDEN",
        "state": "SC",
        "postalCode": "29020-3737"
      },
      {
        "line": [
          "1661 Bernardin Ave Suite 200B"
        ],
        "city": "COLUMBIA",
        "state": "SC",
        "postalCode": "29204-2045"
      },
      {
        "line": [
          "1657 Bernardin Ave Suite 200B"
        ],
        "city": "COLUMBIA",
        "state": "SC",
        "postalCode": "29204-2041"
      },
      {
        "line": [
          "1304 W Bobo Newsom Hwy"
        ],
        "city": "HARTSVILLE",
        "state": "SC",
        "postalCode": "29550-4710"
      },
      {
        "line": [
          "1660 Bernardin Ave suite 200B"
        ],
        "city": "COLUMBIA",
        "state": "SC",
        "postalCode": "29204-2044"
      },
      {
        "line": [
          "3000 ST MATTHEWS RD"
        ],
        "city": "ORANGEBURG",
        "state": "SC",
        "postalCode": "29118-1442"
      },
      {
        "line": [
          "1661 Bernardin Ave suite 200B"
        ],
        "city": "COLUMBIA",
        "state": "SC",
        "postalCode": "29204-2045"
      },
      {
        "line": [
          "1330 Taylor St"
        ],
        "city": "COLUMBIA",
        "state": "SC",
        "postalCode": "29201-2915"
      },
      {
        "line": [
          "1655 Bernardin Ave Ste 350A"
        ],
        "city": "COLUMBIA",
        "state": "SC",
        "postalCode": "29204-2039"
      },
      {
        "line": [
          "1655 Bernardin Ave Suite 200B"
        ],
        "city": "COLUMBIA",
        "state": "SC",
        "postalCode": "29204-2039"
      },
      {
        "line": [
          "1655 Bernardin Avenue",
          "STE 350"
        ],
        "city": "COLUMBIA",
        "state": "SC",
        "postalCode": "29204-2039"
      },
      {
        "line": [
          "2601 Laurel St.",
          "Ste 120"
        ],
        "city": "COLUMBIA",
        "state": "SC",
        "postalCode": "29204-2034"
      },
      {
        "line": [
          "2435 FOREST DRIVE"
        ],
        "city": "COLUMBIA",
        "state": "SC",
        "postalCode": "29203-1234"
      },
      {
        "line": [
          "122 GATEWAY CORP BLVD"
        ],
        "city": "COLUMBIA",
        "state": "SC",
        "postalCode": "29203-9613"
      },
      {
        "line": [
          "114 GATEWAY CORPORATE BLVD",
          "SUITE 450"
        ],
        "city": "COLUMBIA",
        "state": "SC",
        "postalCode": "29203-9785"
      },
      {
        "line": [
          "114 Gateway Corporate Blvd",
          "Suite 440"
        ],
        "city": "COLUMBIA",
        "state": "SC",
        "postalCode": "29203-9785"
      }
    ],
    "extension": [
      {
        "url": "https://fhir.athena.io/StructureDefinition/ah-practice",
        "valueReference": {
          "reference": "Organization/a-1.Practice-12688"
        }
      },
      {
        "url": "https://fhir.athena.io/StructureDefinition/ah-brand",
        "valueReference": {
          "reference": "Organization/a-12688.Brand-1"
        }
      }
    ]
  },
  "fullUrl": "urn:uuid:bebf0bb3-29db-5c6b-8ce9-da2ae3be3669"
}