{
  "resource": {
    "resourceType": "Organization",
    "id": "74724c35-6147-50f7-84c6-552b17a8956b",
    "name": "BROTMAN MEDICAL CENTER",
    "endpoint": [
      {
        "reference": "Endpoint/27a4e967-47aa-5a9c-a572-b8297ee268a2"
      },
      {
        "reference": "Endpoint/554ea9d4-ac1b-54b4-9137-8ab550cb4774"
      }
    ],
    "identifier": [
      {
        "system": "http://hl7.org/fhir/sid/us-npi",
        "value": "1508160664"
      }
    ],
    "address": [
      {
        "line": [
          "16530 S. Broadway St."
        ],
        "city": "GARDENA",
        "state": "CA",
        "postalCode": "90248-2741"
      },
      {
        "line": [
          "28650 NEWHALL RANCH RD"
        ],
        "city": "VALENCIA",
        "state": "CA",
        "postalCode": "91355-6066"
      },
      {
        "line": [
          "3033 W Orange Ave"
        ],
        "city": "ANAHEIM",
        "state": "CA",
        "postalCode": "92804-3183"
      },
      {
        "line": [
          "619 N FAIRFAX AVE"
        ],
        "city": "LOS ANGELES",
        "state": "CA",
        "postalCode": "90036-1714"
      },
      {
        "line": [
          "201 N Crescent Dr."
        ],
        "city": "BEVERLY HILLS",
        "state": "CA",
        "postalCode": "90210-4898"
      },
      {
        "line": [
          "555 E HARDY ST"
        ],
        "city": "INGLEWOOD",
        "state": "CA",
        "postalCode": "90301-4011"
      },
      {
        "line": [
          "1154 S ALVARADO ST"
        ],
        "city": "LOS ANGELES",
        "state": "CA",
        "postalCode": "90006-4110"
      },
      {
        "line": [
          "831 S. Lake Street"
        ],
        "city": "LOS ANGELES",
        "state": "CA",
        "postalCode": "90057-4013"
      },
      {
        "line": [
          "2250 29TH ST"
        ],
        "city": "SANTA MONICA",
        "state": "CA",
        "postalCode": "90405-2008"
      },
      {
        "line": [
          "3828 DELMAS TERRACE"
        ],
        "city": "CULVER CITY",
        "state": "CA",
        "postalCode": "90232-2713"
      },
      {
        "line": [
          "9200 W SUNSET BLVD"
        ],
        "city": "WEST HOLLYWOOD",
        "state": "CA",
        "postalCode": "90069-3502"
      },
      {
        "line": [
          "24070 COPPER HILL DR"
        ],
        "city": "VALENCIA",
        "state": "CA",
        "postalCode": "91354-4402"
      },
      {
        "line": [
          "2828 PICO BLVD"
        ],
        "city": "SANTA MONICA",
        "state": "CA",
        "postalCode": "90405-1920"
      },
      {
        "line": [
          "3737 DON FELIPE DR"
        ],
        "city": "LOS ANGELES",
        "state": "CA",
        "postalCode": "90008-4210"
      },
      {
        "line": [
          "812 W MAIN ST"
        ],
        "city": "TURLOCK",
        "state": "CA",
        "postalCode": "95380-4645"
      },
      {
        "line": [
          "4115 E BROADWAY"
        ],
        "city": "LONG BEACH",
        "state": "CA",
        "postalCode": "90803-1532"
      },
      {
        "line": [
          "28202 CABOT RD STE 412"
        ],
        "city": "LAGUNA NIGUEL",
        "state": "CA",
        "postalCode": "92677-1271"
      },
      {
        "line": [
          "7901 WALKER ST"
        ],
        "city": "LA PALMA",
        "state": "CA",
        "postalCode": "90623-1722"
      },
      {
        "line": [
          "330 N Hayworth Ave"
        ],
        "city": "LOS ANGELES",
        "state": "CA",
        "postalCode": "90048-2702"
      },
      {
        "line": [
          "5044 BUFFINGTON ROAD"
        ],
        "city": "EL MONTE",
        "state": "CA",
        "postalCode": "91732-1466"
      },
      {
        "line": [
          "6054 Franklin Ave"
        ],
        "city": "LOS ANGELES",
        "state": "CA",
        "postalCode": "90028-5521"
      },
      {
        "line": [
          "2615 GRAND AVENUE"
        ],
        "city": "LONG BEACH",
        "state": "CA",
        "postalCode": "90815-1708"
      },
      {
        "line": [
          "1516 SAWTELLE BLVD"
        ],
        "city": "LOS ANGELES",
        "state": "CA",
        "postalCode": "90025-3207"
      },
      {
        "line": [
          "8920 WILSHIRE BLVD"
        ],
        "city": "BEVERLY HILLS",
        "state": "CA",
        "postalCode": "90211-2007"
      },
      {
        "line": [
          "580 S SAN VICENTE BLVD"
        ],
        "city": "LOS ANGELES",
        "state": "CA",
        "postalCode": "90048-4621"
      }
    ],
    "extension": [
      {
        "url": "https://fhir.athena.io/StructureDefinition/ah-practice",
        "valueReference": {
          "reference": "Organization/a-1.Practice-3580"
        }
      },
      {
        "url": "https://fhir.athena.io/StructureDefinition/ah-brand",
        "valueReference": {
          "reference": "Organization/a-3580.Brand-1"
        }
      }
    ]
  },
  "fullUrl": "urn:uuid:74724c35-6147-50f7-84c6-552b17a8956b"
}