{
  "resource": {
    "resourceType": "Organization",
    "id": "ca91ca54-1e6e-5bf0-a362-bd7b1f8abc77",
    "name": "ALDEN ESTATES OF COUNTRYSIDE",
    "endpoint": [
      {
        "reference": "Endpoint/27a4e967-47aa-5a9c-a572-b8297ee268a2"
      },
      {
        "reference": "Endpoint/980e60ba-d608-5755-b32d-d16e454398b7"
      }
    ],
    "identifier": [
      {
        "system": "http://hl7.org/fhir/sid/us-npi",
        "value": "1760931026"
      }
    ],
    "address": [
      {
        "line": [
          "414 S COUNTY ROAD Y"
        ],
        "city": "JEFFERSON",
        "state": "WI",
        "postalCode": "53549-9567"
      },
      {
        "line": [
          "9234 E Bowers Lake Rd"
        ],
        "city": "MILTON",
        "state": "WI",
        "postalCode": "53563-9388"
      },
      {
        "line": [
          "125 Hospital Dr A"
        ],
        "city": "WATERTOWN",
        "state": "WI",
        "postalCode": "53098-3303"
      },
      {
        "line": [
          "1 MILWAUKEE AVE W"
        ],
        "city": "FORT ATKINSON",
        "state": "WI",
        "postalCode": "53538-2037"
      },
      {
        "line": [
          "5 Hartwig Drive"
        ],
        "city": "JOHNSON CREEK",
        "state": "WI",
        "postalCode": "53038-9462"
      },
      {
        "line": [
          "5 HARTWIG DR"
        ],
        "city": "JOHNSON CREEK",
        "state": "WI",
        "postalCode": "53038-9630"
      },
      {
        "line": [
          "1113 LISBON ST"
        ],
        "city": "WATERTOWN",
        "state": "WI",
        "postalCode": "53098-2414"
      },
      {
        "line": [
          "1 HARTWIG DRIVE"
        ],
        "city": "JOHNSON CREEK",
        "state": "WI",
        "postalCode": "53038-9314"
      },
      {
        "line": [
          "161 Goehl Rd"
        ],
        "city": "WATERLOO",
        "state": "WI",
        "postalCode": "53594-2208"
      },
      {
        "line": [
          "305 goehl rd"
        ],
        "city": "WATERLOO",
        "state": "WI",
        "postalCode": "53594-2210"
      },
      {
        "line": [
          "111 E REYNOLDS ST"
        ],
        "city": "COTTAGE GROVE",
        "state": "WI",
        "postalCode": "53527-9397"
      },
      {
        "line": [
          "200 S WATER ST W"
        ],
        "city": "FORT ATKINSON",
        "state": "WI",
        "postalCode": "53538-2086"
      },
      {
        "line": [
          "125 HOspital dr"
        ],
        "city": "WATERTOWN",
        "state": "WI",
        "postalCode": "53098-3303"
      },
      {
        "line": [
          "1010 Pine Ridge Court"
        ],
        "city": "OCONOMOWOC",
        "state": "WI",
        "postalCode": "53066-2600"
      }
    ],
    "extension": [
      {
        "url": "https://fhir.athena.io/StructureDefinition/ah-practice",
        "valueReference": {
          "reference": "Organization/a-1.Practice-14711"
        }
      },
      {
        "url": "https://fhir.athena.io/StructureDefinition/ah-brand",
        "valueReference": {
          "reference": "Organization/a-14711.Brand-1"
        }
      }
    ]
  },
  "fullUrl": "urn:uuid:ca91ca54-1e6e-5bf0-a362-bd7b1f8abc77"
}