{
  "resource": {
    "resourceType": "Organization",
    "id": "8a2d9b9a-26f4-536e-b61e-23f4688428eb",
    "name": "YMCA of the Greater Houston Area",
    "endpoint": [
      {
        "reference": "Endpoint/27a4e967-47aa-5a9c-a572-b8297ee268a2"
      },
      {
        "reference": "Endpoint/abb5f7d5-468e-5806-be46-fb2282afef02"
      }
    ],
    "identifier": [
      {
        "system": "http://hl7.org/fhir/sid/us-npi",
        "value": "1598207821"
      }
    ],
    "address": [
      {
        "line": [
          "1234 W 34th St"
        ],
        "city": "HOUSTON",
        "state": "TX",
        "postalCode": "77018-6208"
      },
      {
        "line": [
          "6952 Garth Rd"
        ],
        "city": "BAYTOWN",
        "state": "TX",
        "postalCode": "77521-9646"
      },
      {
        "line": [
          "9551 N. Wayside"
        ],
        "city": "HOUSTON",
        "state": "TX",
        "postalCode": "77028-1131"
      },
      {
        "line": [
          "5202 Griggs Rd"
        ],
        "city": "HOUSTON",
        "state": "TX",
        "postalCode": "77021-3760"
      },
      {
        "line": [
          "705 Cavalcade"
        ],
        "city": "HOUSTON",
        "state": "TX",
        "postalCode": "77009-2752"
      },
      {
        "line": [
          "4433 Cartwright Rd"
        ],
        "city": "MISSOURI CITY",
        "state": "TX",
        "postalCode": "77459-2970"
      },
      {
        "line": [
          "460 Cullen Loop"
        ],
        "city": "TRINITY",
        "state": "TX",
        "postalCode": "75862-8834"
      },
      {
        "line": [
          "16725 Longenbaugh Dr"
        ],
        "city": "HOUSTON",
        "state": "TX",
        "postalCode": "77095-4235"
      },
      {
        "line": [
          "3201 South Hwy 35"
        ],
        "city": "ALVIN",
        "state": "TX",
        "postalCode": "77511-4153"
      },
      {
        "line": [
          "22807 Westheimer Pkwy"
        ],
        "city": "KATY",
        "state": "TX",
        "postalCode": "77494-3599"
      },
      {
        "line": [
          "2700 YMCA Dr"
        ],
        "city": "PEARLAND",
        "state": "TX",
        "postalCode": "77581-4874"
      },
      {
        "line": [
          "1331 Augusta Dr"
        ],
        "city": "HOUSTON",
        "state": "TX",
        "postalCode": "77057-2499"
      },
      {
        "line": [
          "911 Thompson Rd"
        ],
        "city": "RICHMOND",
        "state": "TX",
        "postalCode": "77469-4251"
      },
      {
        "line": [
          "7101 Stella Link Dr"
        ],
        "city": "HOUSTON",
        "state": "TX",
        "postalCode": "77025-1006"
      },
      {
        "line": [
          "19915 State Hwy 249"
        ],
        "city": "HOUSTON",
        "state": "TX",
        "postalCode": "77070-3105"
      },
      {
        "line": [
          "15055 Wallisville Rd"
        ],
        "city": "HOUSTON",
        "state": "TX",
        "postalCode": "77049-4621"
      },
      {
        "line": [
          "7850 Howell Sugar Land Rd"
        ],
        "city": "HOUSTON",
        "state": "TX",
        "postalCode": "77083-3345"
      },
      {
        "line": [
          "6145 Shadow Bend Pl"
        ],
        "city": "SPRING",
        "state": "TX",
        "postalCode": "77381-4164"
      },
      {
        "line": [
          "2906 Old Houston Road"
        ],
        "city": "HUNTSVILLE",
        "state": "TX",
        "postalCode": "77340-3160"
      },
      {
        "line": [
          "14650 Highway 3"
        ],
        "city": "WEBSTER",
        "state": "TX",
        "postalCode": "77598-1831"
      },
      {
        "line": [
          "2600 North Loop West Suite 300"
        ],
        "city": "HOUSTON",
        "state": "TX",
        "postalCode": "77092-8915"
      },
      {
        "line": [
          "7903 S Loop E"
        ],
        "city": "HOUSTON",
        "state": "TX",
        "postalCode": "77012-4299"
      },
      {
        "line": [
          "808 Pease"
        ],
        "city": "HOUSTON",
        "state": "TX",
        "postalCode": "77002-8025"
      },
      {
        "line": [
          "10245 Owen Dr"
        ],
        "city": "CONROE",
        "state": "TX",
        "postalCode": "77304-3200"
      },
      {
        "line": [
          "10960 North Freeway"
        ],
        "city": "HOUSTON",
        "state": "TX",
        "postalCode": "77037-1108"
      },
      {
        "line": [
          "10655 Clay Rd"
        ],
        "city": "HOUSTON",
        "state": "TX",
        "postalCode": "77041-8755"
      },
      {
        "line": [
          "2420 W Lake Houston Pkwy"
        ],
        "city": "KINGWOOD",
        "state": "TX",
        "postalCode": "77339-5210"
      },
      {
        "line": [
          "1700 League City Prkwy West"
        ],
        "city": "LEAGUE CITY",
        "state": "TX",
        "postalCode": "77573-5147"
      },
      {
        "line": [
          "5801 West Orem Drive"
        ],
        "city": "HOUSTON",
        "state": "TX",
        "postalCode": "77085-1267"
      }
    ],
    "extension": [
      {
        "url": "https://fhir.athena.io/StructureDefinition/ah-practice",
        "valueReference": {
          "reference": "Organization/a-1.Practice-14268"
        }
      },
      {
        "url": "https://fhir.athena.io/StructureDefinition/ah-brand",
        "valueReference": {
          "reference": "Organization/a-14268.Brand-1"
        }
      }
    ]
  },
  "fullUrl": "urn:uuid:8a2d9b9a-26f4-536e-b61e-23f4688428eb"
}