{
  "resource": {
    "resourceType": "Organization",
    "id": "cc80b8e0-2fe8-5982-a7ac-c35c3499e9cc",
    "name": "MinuteClinic",
    "endpoint": [
      {
        "reference": "Endpoint/27a4e967-47aa-5a9c-a572-b8297ee268a2"
      },
      {
        "reference": "Endpoint/83bd8bfb-d56d-516f-90b9-b4f2cd5d24f7"
      }
    ],
    "identifier": [
      {
        "system": "http://hl7.org/fhir/sid/us-npi",
        "value": "1073780730"
      },
      {
        "system": "http://hl7.org/fhir/sid/us-npi",
        "value": "1134191836"
      }
    ],
    "address": [
      {
        "line": [
          "152 Front Street"
        ],
        "city": "PONTE VEDRA BEACH",
        "state": "FL",
        "postalCode": "32082-3058"
      },
      {
        "line": [
          "7930 WOODLAND CENTER BLVD., SUITE 500"
        ],
        "city": "TAMPA",
        "state": "FL",
        "postalCode": "33614-2435"
      },
      {
        "line": [
          "5585 Golden Gate Parkway"
        ],
        "city": "NAPLES",
        "state": "FL",
        "postalCode": "34116-7547"
      },
      {
        "line": [
          "5800 S University Dr"
        ],
        "city": "FORT LAUDERDALE",
        "state": "FL",
        "postalCode": "33328-6102"
      },
      {
        "line": [
          "2500 53 Street"
        ],
        "city": "VERO BEACH",
        "state": "FL",
        "postalCode": "32967-7609"
      },
      {
        "line": [
          "260 South US Highway 1"
        ],
        "city": "Tequesta",
        "state": "FL",
        "postalCode": "33469-2702"
      },
      {
        "line": [
          "650 N CONGRESS AVE"
        ],
        "city": "BOYNTON BEACH",
        "state": "FL",
        "postalCode": "33426-3445"
      },
      {
        "line": [
          "3035 APALACHEE PARKWAY"
        ],
        "city": "TALLAHASSEE",
        "state": "FL",
        "postalCode": "32301-5104"
      },
      {
        "line": [
          "9100 Atlantic Blvd"
        ],
        "city": "JACKSONVILLE",
        "state": "FL",
        "postalCode": "32211-8215"
      },
      {
        "line": [
          "1300 SW Saint Lucie Blvd"
        ],
        "city": "PORT SAINT LUCIE",
        "state": "FL",
        "postalCode": "34986-2109"
      },
      {
        "line": [
          "2401 SW 27th Ave"
        ],
        "city": "OCALA",
        "state": "FL",
        "postalCode": "34471-0807"
      },
      {
        "line": [
          "1891 LPGA Boulevard"
        ],
        "city": "DAYTONA BEACH",
        "state": "FL",
        "postalCode": "32117-7108"
      },
      {
        "line": [
          "5590 N Wickham Rd"
        ],
        "city": "MELBOURNE",
        "state": "FL",
        "postalCode": "32940-7303"
      },
      {
        "line": [
          "5208 E County Road 466"
        ],
        "city": "The Villages",
        "state": "FL",
        "postalCode": "32162-9303"
      },
      {
        "line": [
          "1956 Hwy A1A"
        ],
        "city": "SATELLITE BEACH",
        "state": "FL",
        "postalCode": "32937-5420"
      },
      {
        "line": [
          "737 Cape Coral Pkwy E"
        ],
        "city": "CAPE CORAL",
        "state": "FL",
        "postalCode": "33904-8551"
      },
      {
        "line": [
          "5905 US Highway 301 S"
        ],
        "city": "RIVERVIEW",
        "state": "FL",
        "postalCode": "33578-3800"
      },
      {
        "line": [
          "1820 Cheney Highway"
        ],
        "city": "TITUSVILLE",
        "state": "FL",
        "postalCode": "32780-6022"
      },
      {
        "line": [
          "8201 Chancellor Drive"
        ],
        "city": "ORLANDO",
        "state": "FL",
        "postalCode": "32809-7657"
      },
      {
        "line": [
          "50 Duval Station Rd"
        ],
        "city": "JACKSONVILLE",
        "state": "FL",
        "postalCode": "32218-6801"
      },
      {
        "line": [
          "15129 Madeira Way"
        ],
        "city": "Madeira Beach",
        "state": "FL",
        "postalCode": "33708-1920"
      },
      {
        "line": [
          "2400 Tamiami Trl"
        ],
        "city": "PUNTA GORDA",
        "state": "FL",
        "postalCode": "33950-5928"
      },
      {
        "line": [
          "2375 Vanderbilt Beach Road"
        ],
        "city": "NAPLES",
        "state": "FL",
        "postalCode": "34109-2653"
      },
      {
        "line": [
          "5403 University Parkway"
        ],
        "city": "University Park",
        "state": "FL",
        "postalCode": "34201-2012"
      },
      {
        "line": [
          "430 State Rd 13"
        ],
        "city": "JACKSONVILLE",
        "state": "FL",
        "postalCode": "32259-2835"
      },
      {
        "line": [
          "10101 W Flagler St"
        ],
        "city": "MIAMI",
        "state": "FL",
        "postalCode": "33174-1808"
      },
      {
        "line": [
          "505 Bay Isles Parkway"
        ],
        "city": "LONGBOAT KEY",
        "state": "FL",
        "postalCode": "34228-3133"
      },
      {
        "line": [
          "4500 Pleasant Hill Rd.,"
        ],
        "city": "KISSIMMEE",
        "state": "FL",
        "postalCode": "34746-2724"
      },
      {
        "line": [
          "7800 SW 104th St"
        ],
        "city": "MIAMI",
        "state": "FL",
        "postalCode": "33156-2631"
      },
      {
        "line": [
          "1350 Lee Blvd"
        ],
        "city": "LEHIGH ACRES",
        "state": "FL",
        "postalCode": "33936-4846"
      },
      {
        "line": [
          "10155 Okeechobee Blvd"
        ],
        "city": "WEST PALM BEACH",
        "state": "FL",
        "postalCode": "33411-1404"
      },
      {
        "line": [
          "9675 NW 117TH AVENUE; STE 202"
        ],
        "city": "MIAMI",
        "state": "FL",
        "postalCode": "33178-1231"
      },
      {
        "line": [
          "11241 Miramar Sq Blvd"
        ],
        "city": "ESTERO",
        "state": "FL",
        "postalCode": "33928-6229"
      },
      {
        "line": [
          "N. Military Trail, Suite 100"
        ],
        "city": "BOCA RATON",
        "state": "FL",
        "postalCode": "33496-2402"
      },
      {
        "line": [
          "4302 Cortez Rd W"
        ],
        "city": "BRADENTON",
        "state": "FL",
        "postalCode": "34210-3139"
      },
      {
        "line": [
          "16801 NW 67TH AVE"
        ],
        "city": "HIALEAH",
        "state": "FL",
        "postalCode": "33015-4203"
      },
      {
        "line": [
          "8546 S. Tamriami Trl"
        ],
        "city": "SARASOTA",
        "state": "FL",
        "postalCode": "34238-3031"
      },
      {
        "line": [
          "301 3rd St S"
        ],
        "city": "SAINT PETERSBURG",
        "state": "FL",
        "postalCode": "33701-4228"
      },
      {
        "line": [
          "8831 Immokalee Rd"
        ],
        "city": "NAPLES",
        "state": "FL",
        "postalCode": "34120-3914"
      },
      {
        "line": [
          "6651 N. Military Trail, Suite 100"
        ],
        "city": "BOCA RATON",
        "state": "FL",
        "postalCode": "33496-2402"
      },
      {
        "line": [
          "2187 Howland Blvd"
        ],
        "city": "DELTONA",
        "state": "FL",
        "postalCode": "32738-3441"
      }
    ],
    "extension": [
      {
        "url": "https://fhir.athena.io/StructureDefinition/ah-practice",
        "valueReference": {
          "reference": "Organization/a-1.Practice-1651"
        }
      },
      {
        "url": "https://fhir.athena.io/StructureDefinition/ah-brand",
        "valueReference": {
          "reference": "Organization/a-1651.Brand-1"
        }
      }
    ]
  },
  "fullUrl": "urn:uuid:cc80b8e0-2fe8-5982-a7ac-c35c3499e9cc"
}