{
  "resource": {
    "resourceType": "Organization",
    "id": "97ba088d-4256-5025-8f52-3868b9f6d44d",
    "name": "Advent Healthcare",
    "endpoint": [
      {
        "reference": "Endpoint/27a4e967-47aa-5a9c-a572-b8297ee268a2"
      },
      {
        "reference": "Endpoint/94e40019-a307-52e4-94e0-7d19112a0af1"
      }
    ],
    "identifier": [
      {
        "system": "http://hl7.org/fhir/sid/us-npi",
        "value": "1699863936"
      }
    ],
    "address": [
      {
        "line": [
          "658 NW Avens St"
        ],
        "city": "PORT SAINT LUCIE",
        "state": "FL",
        "postalCode": "34983-1104"
      },
      {
        "line": [
          "2792 Donnelly Dr"
        ],
        "city": "lantana",
        "state": "FL",
        "postalCode": "33462-6431"
      },
      {
        "line": [
          "3366 SW VENDOME ST"
        ],
        "city": "PORT SAINT LUCIE",
        "state": "FL",
        "postalCode": "34953-3407"
      },
      {
        "line": [
          "537 SW Whitmore"
        ],
        "city": "PORT SAINT LUCIE",
        "state": "FL",
        "postalCode": "34984-3566"
      },
      {
        "line": [
          "900 SE Salerno Rd"
        ],
        "city": "STUART",
        "state": "FL",
        "postalCode": "34997-6405"
      },
      {
        "line": [
          "501 N.W. CASHMERE BOULEVARD"
        ],
        "city": "PORT SAINT LUCIE",
        "state": "FL",
        "postalCode": "34986-1908"
      },
      {
        "line": [
          "701 SW Tulip"
        ],
        "city": "PORT SAINT LUCIE",
        "state": "FL",
        "postalCode": "34953-3304"
      },
      {
        "line": [
          "9825 Federal Hwy"
        ],
        "city": "PORT SAINT LUCIE",
        "state": "FL",
        "postalCode": "34952-5626"
      },
      {
        "line": [
          "10685 SW Stony Creek Way"
        ],
        "city": "PORT SAINT LUCIE",
        "state": "FL",
        "postalCode": "34987-2741"
      },
      {
        "line": [
          "2560 Commerce"
        ],
        "city": "PALM CITY",
        "state": "FL",
        "postalCode": "34990-8149"
      },
      {
        "line": [
          "3401 Aster Lane"
        ],
        "city": "STUART",
        "state": "FL",
        "postalCode": "34994-5533"
      },
      {
        "line": [
          "860 SE Central Pkwy"
        ],
        "city": "STUART",
        "state": "FL",
        "postalCode": "34994-3978"
      },
      {
        "line": [
          "125 NW Jensen Beach Blvd"
        ],
        "city": "JENSEN BEACH",
        "state": "FL",
        "postalCode": "34957-4486"
      },
      {
        "line": [
          "279 NW California Blvd"
        ],
        "city": "PORT SAINT LUCIE",
        "state": "FL",
        "postalCode": "34986-2505"
      },
      {
        "line": [
          "3400 Aster Ln"
        ],
        "city": "STUART",
        "state": "FL",
        "postalCode": "34994-5516"
      },
      {
        "line": [
          "2680 SE Brevard Ave"
        ],
        "city": "PORT SAINT LUCIE",
        "state": "FL",
        "postalCode": "34952-7203"
      },
      {
        "line": [
          "9286 Birmingham Dr"
        ],
        "city": "PALM BEACH GARDENS",
        "state": "FL",
        "postalCode": "33410-5924"
      },
      {
        "line": [
          "4900 SE Willoughby Blvd"
        ],
        "city": "STUART",
        "state": "FL",
        "postalCode": "34997-4002"
      },
      {
        "line": [
          "`700 Indian River Dr"
        ],
        "city": "JENSEN BEACH",
        "state": "FL",
        "postalCode": "34957-5853"
      },
      {
        "line": [
          "1537 Cedar Lane"
        ],
        "city": "JENSEN BEACH",
        "state": "FL",
        "postalCode": "34957-4808"
      },
      {
        "line": [
          "3700 Jennings Dr"
        ],
        "city": "PORT SAINT LUCIE",
        "state": "FL",
        "postalCode": "34952-7772"
      }
    ],
    "extension": [
      {
        "url": "https://fhir.athena.io/StructureDefinition/ah-practice",
        "valueReference": {
          "reference": "Organization/a-1.Practice-11640"
        }
      },
      {
        "url": "https://fhir.athena.io/StructureDefinition/ah-brand",
        "valueReference": {
          "reference": "Organization/a-11640.Brand-14"
        }
      }
    ]
  },
  "fullUrl": "urn:uuid:97ba088d-4256-5025-8f52-3868b9f6d44d"
}