{
  "resource": {
    "resourceType": "Organization",
    "id": "382b5ef5-a4b3-58f2-a926-bd67870e2157",
    "name": "Genesis Medical Group",
    "endpoint": [
      {
        "reference": "Endpoint/27a4e967-47aa-5a9c-a572-b8297ee268a2"
      },
      {
        "reference": "Endpoint/d848de1c-766d-5810-93b4-5ba168a19940"
      }
    ],
    "identifier": [
      {
        "system": "http://hl7.org/fhir/sid/us-npi",
        "value": "1245777440"
      },
      {
        "system": "http://hl7.org/fhir/sid/us-npi",
        "value": "1255987434"
      }
    ],
    "address": [
      {
        "line": [
          "11355 TOEPPERWEIN RD"
        ],
        "city": "SAN ANTONIO",
        "state": "TX",
        "postalCode": "78233-3000"
      },
      {
        "line": [
          "1475 Farm to Market 1960 Bypass Rd E"
        ],
        "city": "HUMBLE",
        "state": "TX",
        "postalCode": "77338-3909"
      },
      {
        "line": [
          "130 MEDICAL CENTER PKWY",
          "STE 6"
        ],
        "city": "HUNTSVILLE",
        "state": "TX",
        "postalCode": "77340-4943"
      },
      {
        "line": [
          "710 FM 1960 West"
        ],
        "city": "HOUSTON",
        "state": "TX",
        "postalCode": "77090-3402"
      },
      {
        "line": [
          "20635 Kuykendahl Rd"
        ],
        "city": "SPRING",
        "state": "TX",
        "postalCode": "77379-3533"
      },
      {
        "line": [
          "605 HOLDERRIETH BLVD"
        ],
        "city": "TOMBALL",
        "state": "TX",
        "postalCode": "77375-6445"
      },
      {
        "line": [
          "18951 Memorial North"
        ],
        "city": "HUMBLE",
        "state": "TX",
        "postalCode": "77338-4217"
      },
      {
        "line": [
          "2255 E. Mossy Oaks Rd",
          "Suite 500"
        ],
        "city": "SPRING",
        "state": "TX",
        "postalCode": "77389-1813"
      },
      {
        "line": [
          "1246 N Farm to Market 3083 Rd W"
        ],
        "city": "CONROE",
        "state": "TX",
        "postalCode": "77304-5339"
      },
      {
        "line": [
          "5001 SCHERTZ PKWY"
        ],
        "city": "SCHERTZ",
        "state": "TX",
        "postalCode": "78154-1478"
      },
      {
        "line": [
          "102 MEDICAL PARK LN STE A"
        ],
        "city": "HUNTSVILLE",
        "state": "TX",
        "postalCode": "77340-4975"
      },
      {
        "line": [
          "2755 Chestnut Ridge Dr"
        ],
        "city": "KINGWOOD",
        "state": "TX",
        "postalCode": "77339-2565"
      },
      {
        "line": [
          "17200 St. Lukes Way"
        ],
        "city": "CONROE",
        "state": "TX",
        "postalCode": "77378-8007"
      },
      {
        "line": [
          "130 Medical Center Pkwy"
        ],
        "city": "HUNTSVILLE",
        "state": "TX",
        "postalCode": "77340-4980"
      },
      {
        "line": [
          "17322 Red Oak Dr"
        ],
        "city": "HOUSTON",
        "state": "TX",
        "postalCode": "77090-1244"
      },
      {
        "line": [
          "2255 East Mossy Oaks Road",
          "Ste 500"
        ],
        "city": "SPRING",
        "state": "TX",
        "postalCode": "77389-1813"
      },
      {
        "line": [
          "790 GENERATIONS DR STE 500"
        ],
        "city": "NEW BRAUNFELS",
        "state": "TX",
        "postalCode": "78130-2613"
      },
      {
        "line": [
          "215 KINGWOOD EXECUTIVE DR STE 200"
        ],
        "city": "KINGWOOD",
        "state": "TX",
        "postalCode": "77339-2764"
      },
      {
        "line": [
          "24727 State Highway 249",
          "Suite 100"
        ],
        "city": "TOMBALL",
        "state": "TX",
        "postalCode": "77375-7877"
      },
      {
        "line": [
          "22001 NORTHPARK DR STE 220"
        ],
        "city": "KINGWOOD",
        "state": "TX",
        "postalCode": "77339-3811"
      },
      {
        "line": [
          "22751 Professional Dr",
          "Suite 140"
        ],
        "city": "KINGWOOD",
        "state": "TX",
        "postalCode": "77339-3775"
      },
      {
        "line": [
          "22751 PROFESSIONAL DR STE 140"
        ],
        "city": "KINGWOOD",
        "state": "TX",
        "postalCode": "77339-6024"
      },
      {
        "line": [
          "350 Kingwood Medical Drive",
          "Suite 250"
        ],
        "city": "KINGWOOD",
        "state": "TX",
        "postalCode": "77339-6021"
      },
      {
        "line": [
          "9250 Pinecroft Dr"
        ],
        "city": "SPRING",
        "state": "TX",
        "postalCode": "77380-3218"
      },
      {
        "line": [
          "7600 Fannin St"
        ],
        "city": "HOUSTON",
        "state": "TX",
        "postalCode": "77054-1906"
      },
      {
        "line": [
          "108A N MAIN ST"
        ],
        "city": "DAYTON",
        "state": "TX",
        "postalCode": "77535-2642"
      },
      {
        "line": [
          "3466 Discovery Creek Blvd",
          "ste 600"
        ],
        "city": "SPRING",
        "state": "TX",
        "postalCode": "77386-7129"
      },
      {
        "line": [
          "100 MEDICAL CENTER PKWY STE 600"
        ],
        "city": "HUNTSVILLE",
        "state": "TX",
        "postalCode": "77340-4965"
      },
      {
        "line": [
          "6450 Kings Parkway"
        ],
        "city": "HUMBLE",
        "state": "TX",
        "postalCode": "77346-4028"
      },
      {
        "line": [
          "18220 State Highway 249"
        ],
        "city": "HOUSTON",
        "state": "TX",
        "postalCode": "77070-4347"
      },
      {
        "line": [
          "16750 Red Oak Drive"
        ],
        "city": "HOUSTON",
        "state": "TX",
        "postalCode": "77090-2543"
      },
      {
        "line": [
          "300 KINGWOOD MEDICAL DR"
        ],
        "city": "KINGWOOD",
        "state": "TX",
        "postalCode": "77339-6400"
      },
      {
        "line": [
          "504 MEDICAL CENTER BLVD"
        ],
        "city": "CONROE",
        "state": "TX",
        "postalCode": "77304-2808"
      },
      {
        "line": [
          "22999 Hwy 59 North"
        ],
        "city": "KINGWOOD",
        "state": "TX",
        "postalCode": "77339-4412"
      },
      {
        "line": [
          "8845 Six Pines Drive",
          "Ste 200"
        ],
        "city": "THE WOODLANDS",
        "state": "TX",
        "postalCode": "77380-2675"
      },
      {
        "line": [
          "155 SCHOOL ST",
          "STE 260"
        ],
        "city": "TOMBALL",
        "state": "TX",
        "postalCode": "77375-3518"
      },
      {
        "line": [
          "135 VISION PARK BLVD"
        ],
        "city": "SHENANDOAH",
        "state": "TX",
        "postalCode": "77384-3001"
      },
      {
        "line": [
          "10020 Research Forest Dr"
        ],
        "city": "MAGNOLIA",
        "state": "TX",
        "postalCode": "77354-6780"
      },
      {
        "line": [
          "24727 Tomball Parkway",
          "Ste 120"
        ],
        "city": "TOMBALL",
        "state": "TX",
        "postalCode": "77375-7877"
      },
      {
        "line": [
          "24721 Tomball Parkway"
        ],
        "city": "TOMBALL",
        "state": "TX",
        "postalCode": "77375-7727"
      },
      {
        "line": [
          "221 HUNTERS VLG STE B"
        ],
        "city": "NEW BRAUNFELS",
        "state": "TX",
        "postalCode": "78132-4899"
      },
      {
        "line": [
          "17080 Red Oak Dr"
        ],
        "city": "HOUSTON",
        "state": "TX",
        "postalCode": "77090-2602"
      },
      {
        "line": [
          "504 Medical Center Blvd"
        ],
        "city": "CONROE",
        "state": "TX",
        "postalCode": "77304-2808"
      },
      {
        "line": [
          "9520 Pinecroft"
        ],
        "city": "SPRING",
        "state": "TX",
        "postalCode": "77380-3218"
      },
      {
        "line": [
          "19701 Kingwood Drive",
          "Bldg 8B"
        ],
        "city": "KINGWOOD",
        "state": "TX",
        "postalCode": "77339-3775"
      },
      {
        "line": [
          "205 Hollow Tree Lane"
        ],
        "city": "HOUSTON",
        "state": "TX",
        "postalCode": "77090-2801"
      },
      {
        "line": [
          "2401 Green Oak Dr"
        ],
        "city": "KINGWOOD",
        "state": "TX",
        "postalCode": "77339-2027"
      },
      {
        "line": [
          "1820 E COMMON ST"
        ],
        "city": "NEW BRAUNFELS",
        "state": "TX",
        "postalCode": "78130-3467"
      },
      {
        "line": [
          "16601 CENTRAL GREEN BLVD STE 300"
        ],
        "city": "HOUSTON",
        "state": "TX",
        "postalCode": "77032-5143"
      },
      {
        "line": [
          "4019 Interstate 45 N",
          "Suite 150"
        ],
        "city": "CONROE",
        "state": "TX",
        "postalCode": "77304-2953"
      },
      {
        "line": [
          "10225 Cypresswood Dr"
        ],
        "city": "HOUSTON",
        "state": "TX",
        "postalCode": "77070-3407"
      },
      {
        "line": [
          "100 Medcial Center Blvd.",
          "Suite 100"
        ],
        "city": "CONROE",
        "state": "TX",
        "postalCode": "77304-2888"
      },
      {
        "line": [
          "790 GENERATIONS DR",
          "STE 405"
        ],
        "city": "NEW BRAUNFELS",
        "state": "TX",
        "postalCode": "78130-2613"
      },
      {
        "line": [
          "17200 St. Lukes Way"
        ],
        "city": "CONROE",
        "state": "TX",
        "postalCode": "77384-8007"
      },
      {
        "line": [
          "17201 Interstate 45"
        ],
        "city": "CONROE",
        "state": "TX",
        "postalCode": "77385-3311"
      },
      {
        "line": [
          "431 Nursery Road",
          "Suite A700"
        ],
        "city": "SPRING",
        "state": "TX",
        "postalCode": "77380-1985"
      },
      {
        "line": [
          "7700 Fannin St"
        ],
        "city": "HOUSTON",
        "state": "TX",
        "postalCode": "77054-1906"
      },
      {
        "line": [
          "22751 Professional Dr",
          "Suite 270"
        ],
        "city": "KINGWOOD",
        "state": "TX",
        "postalCode": "77339-3775"
      },
      {
        "line": [
          "3466 DISCOVERY CREEK BLVD"
        ],
        "city": "SPRING",
        "state": "TX",
        "postalCode": "77386-7125"
      },
      {
        "line": [
          "22751 Professional Drive",
          "Ste 140"
        ],
        "city": "KINGWOOD",
        "state": "TX",
        "postalCode": "77339-6021"
      },
      {
        "line": [
          "25615 Spring Ridge Drive"
        ],
        "city": "SPRING",
        "state": "TX",
        "postalCode": "77386-1517"
      },
      {
        "line": [
          "110 MEMORIAL HOSPITAL DR"
        ],
        "city": "HUNTSVILLE",
        "state": "TX",
        "postalCode": "77340-4940"
      },
      {
        "line": [
          "2255 E MOSSY OAKS RD STE 500",
          "Suite 500"
        ],
        "city": "SPRING",
        "state": "TX",
        "postalCode": "77389-1813"
      },
      {
        "line": [
          "7400 Fannin St, Suite 850"
        ],
        "city": "HOUSTON",
        "state": "TX",
        "postalCode": "77054-1951"
      },
      {
        "line": [
          "22999 HWY 59 NORTH"
        ],
        "city": "KINGWOOD",
        "state": "TX",
        "postalCode": "77339-4412"
      },
      {
        "line": [
          "26940 Kuykendahl Rd",
          "STE 100"
        ],
        "city": "TOMBALL",
        "state": "TX",
        "postalCode": "77375-3515"
      },
      {
        "line": [
          "27800 NW FWY"
        ],
        "city": "CYPRESS",
        "state": "TX",
        "postalCode": "77433-5302"
      },
      {
        "line": [
          "2300 FM 3009"
        ],
        "city": "SCHERTZ",
        "state": "TX",
        "postalCode": "78154-2785"
      },
      {
        "line": [
          "16750 RED OAK DRIVE"
        ],
        "city": "HOUSTON",
        "state": "TX",
        "postalCode": "77090-2543"
      },
      {
        "line": [
          "8845 SIX PINES DR STE 200"
        ],
        "city": "SPRING",
        "state": "TX",
        "postalCode": "77380-2675"
      },
      {
        "line": [
          "26710 I-45",
          "Suite B-100"
        ],
        "city": "SPRING",
        "state": "TX",
        "postalCode": "77386-1015"
      },
      {
        "line": [
          "1210 Masters Way"
        ],
        "city": "KINGWOOD",
        "state": "TX",
        "postalCode": "77339-3022"
      },
      {
        "line": [
          "1710 W LAKE HOUSTON PKWY STE 260",
          "Ste 260"
        ],
        "city": "KINGWOOD",
        "state": "TX",
        "postalCode": "77339-2674"
      },
      {
        "line": [
          "10847 Kuykendahl Rd",
          "Ste 150"
        ],
        "city": "SPRING",
        "state": "TX",
        "postalCode": "77382-2932"
      },
      {
        "line": [
          "9863 FM 1097 RD W"
        ],
        "city": "WILLIS",
        "state": "TX",
        "postalCode": "77318-4937"
      },
      {
        "line": [
          "24721 State Hwy 249"
        ],
        "city": "TOMBALL",
        "state": "TX",
        "postalCode": "77375-7727"
      },
      {
        "line": [
          "21214 NORTHWEST FWY"
        ],
        "city": "CYPRESS",
        "state": "TX",
        "postalCode": "77429-2105"
      },
      {
        "line": [
          "18951 MEMORIAL NORTH DRIVE"
        ],
        "city": "HUMBLE",
        "state": "TX",
        "postalCode": "77338-4217"
      },
      {
        "line": [
          "13628 Michel Road"
        ],
        "city": "TOMBALL",
        "state": "TX",
        "postalCode": "77375-6492"
      },
      {
        "line": [
          "800 Peakwood, Suite 4F"
        ],
        "city": "HOUSTON",
        "state": "TX",
        "postalCode": "77090-3943"
      },
      {
        "line": [
          "17400 St. Lukes way"
        ],
        "city": "Woodlands",
        "state": "TX",
        "postalCode": "77384-8036"
      },
      {
        "line": [
          "26940 KUYKENDAHL RD",
          "STE 200"
        ],
        "city": "TOMBALL",
        "state": "TX",
        "postalCode": "77375-3515"
      },
      {
        "line": [
          "130 Medical Center Pkwy",
          "Suite 6"
        ],
        "city": "HUNTSVILLE",
        "state": "TX",
        "postalCode": "77340-4980"
      },
      {
        "line": [
          "26940 KUYKENDAHL RD",
          "Ste 106"
        ],
        "city": "TOMBALL",
        "state": "TX",
        "postalCode": "77375-3515"
      },
      {
        "line": [
          "350 KINGWOOD MEDICAL DR STE 140"
        ],
        "city": "KINGWOOD",
        "state": "TX",
        "postalCode": "77339-6406"
      },
      {
        "line": [
          "1929 STATE HIGHWAY 46 W STE 105"
        ],
        "city": "NEW BRAUNFELS",
        "state": "TX",
        "postalCode": "78132-5337"
      },
      {
        "line": [
          "150 PINE FOREST DR",
          "STE 702"
        ],
        "city": "CONROE",
        "state": "TX",
        "postalCode": "77384-5317"
      },
      {
        "line": [
          "750 FISH CREEK THOROUGHFARE",
          "STE 150"
        ],
        "city": "MONTGOMERY",
        "state": "TX",
        "postalCode": "77316-6967"
      },
      {
        "line": [
          "8845 Six Pines Drive",
          "Ste 200"
        ],
        "city": "SPRING",
        "state": "TX",
        "postalCode": "77380-2675"
      },
      {
        "line": [
          "845 FM 1960 West Rd",
          "Ste 104"
        ],
        "city": "HOUSTON",
        "state": "TX",
        "postalCode": "77090-3943"
      },
      {
        "line": [
          "1626 West Baker Road"
        ],
        "city": "BAYTOWN",
        "state": "TX",
        "postalCode": "77521-2271"
      },
      {
        "line": [
          "19701 Kingwood Dr BLDG 10"
        ],
        "city": "KINGWOOD",
        "state": "TX",
        "postalCode": "77339-3775"
      },
      {
        "line": [
          "26940 KUYKENDAHL RD STE 200"
        ],
        "city": "TOMBALL",
        "state": "TX",
        "postalCode": "77375-0159"
      },
      {
        "line": [
          "800 Peakwood, Suite 3A"
        ],
        "city": "HOUSTON",
        "state": "TX",
        "postalCode": "77090-3943"
      },
      {
        "line": [
          "911 Southern Hills Road"
        ],
        "city": "KINGWOOD",
        "state": "TX",
        "postalCode": "77339-2928"
      },
      {
        "line": [
          "17990 W LAKE HOUSTON PKWY"
        ],
        "city": "HUMBLE",
        "state": "TX",
        "postalCode": "77346-3881"
      },
      {
        "line": [
          "22955 Eastex Fwy"
        ],
        "city": "KINGWOOD",
        "state": "TX",
        "postalCode": "77339-4412"
      },
      {
        "line": [
          "4801 Bissonnet St."
        ],
        "city": "BELLAIRE",
        "state": "TX",
        "postalCode": "77401-4028"
      },
      {
        "line": [
          "710 Cypress Creek Pkwy"
        ],
        "city": "HOUSTON",
        "state": "TX",
        "postalCode": "77090-3402"
      },
      {
        "line": [
          "9950 Woodlands Pkwy"
        ],
        "city": "SPRING",
        "state": "TX",
        "postalCode": "77382-2940"
      },
      {
        "line": [
          "22955 Eastex Freeway"
        ],
        "city": "KINGWOOD",
        "state": "TX",
        "postalCode": "77339-4412"
      },
      {
        "line": [
          "9303 Pinecroft Drive",
          "Suite 340"
        ],
        "city": "SPRING",
        "state": "TX",
        "postalCode": "77380-3183"
      },
      {
        "line": [
          "9200 PINECROFT DR STE 200"
        ],
        "city": "SPRING",
        "state": "TX",
        "postalCode": "77380-3282"
      },
      {
        "line": [
          "1501 River Pointe Drive"
        ],
        "city": "CONROE",
        "state": "TX",
        "postalCode": "77304-2656"
      },
      {
        "line": [
          "5600 CHENEVERT ST"
        ],
        "city": "HOUSTON",
        "state": "TX",
        "postalCode": "77004-7228"
      },
      {
        "line": [
          "24721 Tomball Parkway",
          "Ste 100"
        ],
        "city": "TOMBALL",
        "state": "TX",
        "postalCode": "77375-7727"
      },
      {
        "line": [
          "816 EVERYDAY WAY"
        ],
        "city": "CIBOLO",
        "state": "TX",
        "postalCode": "78108-4080"
      },
      {
        "line": [
          "19414 Atasca Oaks Dr"
        ],
        "city": "HUMBLE",
        "state": "TX",
        "postalCode": "77346-5400"
      },
      {
        "line": [
          "14100 RANCH ROAD 12 UNIT 900"
        ],
        "city": "WIMBERLEY",
        "state": "TX",
        "postalCode": "78676-5332"
      },
      {
        "line": [
          "9303 New Trails Drive",
          "Ste 180"
        ],
        "city": "SPRING",
        "state": "TX",
        "postalCode": "77381-5023"
      },
      {
        "line": [
          "24727 Tomball Parkway",
          "Suite 120"
        ],
        "city": "TOMBALL",
        "state": "TX",
        "postalCode": "77375-7727"
      },
      {
        "line": [
          "690 SOUTH LOOP 336 WEST",
          "STE 130"
        ],
        "city": "CONROE",
        "state": "TX",
        "postalCode": "77304-3330"
      },
      {
        "line": [
          "3466 Discovery Creek Blvd",
          "Ste 600"
        ],
        "city": "SPRING",
        "state": "TX",
        "postalCode": "77386-7129"
      }
    ],
    "extension": [
      {
        "url": "https://fhir.athena.io/StructureDefinition/ah-practice",
        "valueReference": {
          "reference": "Organization/a-1.Practice-19704"
        }
      },
      {
        "url": "https://fhir.athena.io/StructureDefinition/ah-brand",
        "valueReference": {
          "reference": "Organization/a-19704.Brand-1"
        }
      }
    ]
  },
  "fullUrl": "urn:uuid:382b5ef5-a4b3-58f2-a926-bd67870e2157"
}