{
  "resource": {
    "resourceType": "Organization",
    "id": "8fa1aca1-d4ac-5610-b9da-6cfd6198764b",
    "name": "Central Coast YMCA",
    "endpoint": [
      {
        "reference": "Endpoint/27a4e967-47aa-5a9c-a572-b8297ee268a2"
      },
      {
        "reference": "Endpoint/abb5f7d5-468e-5806-be46-fb2282afef02"
      }
    ],
    "identifier": [
      {
        "system": "http://hl7.org/fhir/sid/us-npi",
        "value": "1396292280"
      }
    ],
    "address": [
      {
        "line": [
          "2920 2nd avenue"
        ],
        "city": "MARINA",
        "state": "CA",
        "postalCode": "93933-6244"
      },
      {
        "line": [
          "125 Pajaro Circle"
        ],
        "city": "FREEDOM",
        "state": "CA",
        "postalCode": "95019-2936"
      },
      {
        "line": [
          "438 Benito St"
        ],
        "city": "SOLEDAD",
        "state": "CA",
        "postalCode": "93960-2566"
      },
      {
        "line": [
          "1000 S. Main St., Ste. 301"
        ],
        "city": "SALINAS",
        "state": "CA",
        "postalCode": "93901-2356"
      },
      {
        "line": [
          "1441 Constitution Blvd",
          "Bld 151 Ste 16"
        ],
        "city": "SALINAS",
        "state": "CA",
        "postalCode": "93906-3100"
      },
      {
        "line": [
          "229 Stanford St."
        ],
        "city": "WATSONVILLE",
        "state": "CA",
        "postalCode": "95076-3266"
      },
      {
        "line": [
          "204 E. Beach st"
        ],
        "city": "WATSONVILLE",
        "state": "CA",
        "postalCode": "95076-4809"
      },
      {
        "line": [
          "351 Tres Pinos Road, Suite A-201"
        ],
        "city": "HOLLISTER",
        "state": "CA",
        "postalCode": "95023-5588"
      },
      {
        "line": [
          "450 E Romie Ln",
          " # C"
        ],
        "city": "SALINAS",
        "state": "CA",
        "postalCode": "93901-4029"
      },
      {
        "line": [
          "17 E. Gabilan"
        ],
        "city": "SALINAS",
        "state": "CA",
        "postalCode": "93901-3414"
      },
      {
        "line": [
          "212 San Jose St"
        ],
        "city": "SALINAS",
        "state": "CA",
        "postalCode": "93901-3928"
      },
      {
        "line": [
          "808 N Main St"
        ],
        "city": "SALINAS",
        "state": "CA",
        "postalCode": "93906-4060"
      },
      {
        "line": [
          "45 Nielson ST"
        ],
        "city": "WATSONVILLE",
        "state": "CA",
        "postalCode": "95076-2468"
      },
      {
        "line": [
          "45 Stewart Ave"
        ],
        "city": "FREEDOM",
        "state": "CA",
        "postalCode": "95019-3123"
      },
      {
        "line": [
          "911 Sunset Dr"
        ],
        "city": "HOLLISTER",
        "state": "CA",
        "postalCode": "95023-5606"
      },
      {
        "line": [
          "901 Blanco Circle"
        ],
        "city": "SALINAS",
        "state": "CA",
        "postalCode": "93901-4401"
      },
      {
        "line": [
          "450 E. Romie Ln."
        ],
        "city": "SALINAS",
        "state": "CA",
        "postalCode": "93901-4029"
      },
      {
        "line": [
          "600 Camino El Estero"
        ],
        "city": "MONTEREY",
        "state": "CA",
        "postalCode": "93940-3243"
      },
      {
        "line": [
          "110 Market St"
        ],
        "city": "SOLEDAD",
        "state": "CA",
        "postalCode": "93960-2659"
      },
      {
        "line": [
          "500 Lincoln Ave"
        ],
        "city": "SALINAS",
        "state": "CA",
        "postalCode": "93901-2705"
      },
      {
        "line": [
          "599 E Alisal St Ste 200",
          "#201"
        ],
        "city": "SALINAS",
        "state": "CA",
        "postalCode": "93905-2516"
      },
      {
        "line": [
          "119 E. Alisal St"
        ],
        "city": "SALINAS",
        "state": "CA",
        "postalCode": "93901-3501"
      },
      {
        "line": [
          "1156 Fremont Blvd."
        ],
        "city": "SEASIDE",
        "state": "CA",
        "postalCode": "93955-5756"
      },
      {
        "line": [
          "1300 Rider Ave."
        ],
        "city": "SALINAS",
        "state": "CA",
        "postalCode": "93905-1263"
      },
      {
        "line": [
          "1834 Chablis Way"
        ],
        "city": "GONZALES",
        "state": "CA",
        "postalCode": "93926-9244"
      },
      {
        "line": [
          "1051 Paseo Grande"
        ],
        "city": "SALINAS",
        "state": "CA",
        "postalCode": "93905-4101"
      },
      {
        "line": [
          "351 Tres Pinos Rd. Ste A-201"
        ],
        "city": "HOLLISTER",
        "state": "CA",
        "postalCode": "95023-5627"
      },
      {
        "line": [
          "528 East Market St."
        ],
        "city": "SALINAS",
        "state": "CA",
        "postalCode": "93905-2199"
      },
      {
        "line": [
          "500 Lincoln Ave"
        ],
        "city": "SALINAS",
        "state": "CA",
        "postalCode": "93901-2515"
      },
      {
        "line": [
          "925 N Sanborn rd"
        ],
        "city": "SALINAS",
        "state": "CA",
        "postalCode": "93905-1308"
      },
      {
        "line": [
          "930 Sunnyslope Rd.",
          "Ste A-2"
        ],
        "city": "HOLLISTER",
        "state": "CA",
        "postalCode": "95023-5616"
      }
    ],
    "extension": [
      {
        "url": "https://fhir.athena.io/StructureDefinition/ah-practice",
        "valueReference": {
          "reference": "Organization/a-1.Practice-14268"
        }
      },
      {
        "url": "https://fhir.athena.io/StructureDefinition/ah-brand",
        "valueReference": {
          "reference": "Organization/a-14268.Brand-1"
        }
      }
    ]
  },
  "fullUrl": "urn:uuid:8fa1aca1-d4ac-5610-b9da-6cfd6198764b"
}