{
  "resource": {
    "resourceType": "Organization",
    "id": "9ef00b61-4ed1-5474-9f39-9dfb9372982d",
    "name": "CLOSED 5/9/2021 (Transition to Epic)",
    "endpoint": [
      {
        "reference": "Endpoint/27a4e967-47aa-5a9c-a572-b8297ee268a2"
      },
      {
        "reference": "Endpoint/61e604b1-89ec-5844-a524-9d1b29b8927e"
      }
    ],
    "identifier": [
      {
        "system": "http://hl7.org/fhir/sid/us-npi",
        "value": "1801808571"
      },
      {
        "system": "http://hl7.org/fhir/sid/us-npi",
        "value": "1457382947"
      }
    ],
    "address": [
      {
        "line": [
          "9220 Ellerbe Rd Suite 700"
        ],
        "city": "SHREVEPORT",
        "state": "LA",
        "postalCode": "71106-6709"
      },
      {
        "line": [
          "2539 Viking DR"
        ],
        "city": "BOSSIER CITY",
        "state": "LA",
        "postalCode": "71111-1611"
      },
      {
        "line": [
          "1460 E Bert Kouns Ind loop",
          " Suite 700"
        ],
        "city": "SHREVEPORT",
        "state": "LA",
        "postalCode": "71105-5644"
      },
      {
        "line": [
          "1633 MARVEL ST."
        ],
        "city": "COUSHATTA",
        "state": "LA",
        "postalCode": "71019-9022"
      },
      {
        "line": [
          "1453 E. Bert Kouns Industrial Loop, Suite 319"
        ],
        "city": "SHREVEPORT",
        "state": "LA",
        "postalCode": "71105-6800"
      },
      {
        "line": [
          "1505 E Bert Kouns Industrial Loop Suite 101"
        ],
        "city": "SHREVEPORT",
        "state": "LA",
        "postalCode": "71105-5723"
      },
      {
        "line": [
          "1453 East Bert Kouns Ind Loop"
        ],
        "city": "SHREVEPORT",
        "state": "LA",
        "postalCode": "71105-6800"
      },
      {
        "line": [
          "1453 E BERT KOUNS"
        ],
        "city": "SHREVEPORT",
        "state": "LA",
        "postalCode": "71105-5634"
      },
      {
        "line": [
          "1701 Jimmie Davis Hwy",
          "Suite 200"
        ],
        "city": "BOSSIER CITY",
        "state": "LA",
        "postalCode": "71112-4515"
      }
    ],
    "extension": [
      {
        "url": "https://fhir.athena.io/StructureDefinition/ah-practice",
        "valueReference": {
          "reference": "Organization/a-1.Practice-996"
        }
      },
      {
        "url": "https://fhir.athena.io/StructureDefinition/ah-brand",
        "valueReference": {
          "reference": "Organization/a-996.Brand-1"
        }
      }
    ]
  },
  "fullUrl": "urn:uuid:9ef00b61-4ed1-5474-9f39-9dfb9372982d"
}