{
  "resource": {
    "resourceType": "Organization",
    "id": "6f63a354-7d19-5043-930c-c284fd2dca1e",
    "name": "TEXAS PANHANDLE ORTHOPEDICS PLLC",
    "endpoint": [
      {
        "reference": "Endpoint/27a4e967-47aa-5a9c-a572-b8297ee268a2"
      },
      {
        "reference": "Endpoint/bc4b0131-2eba-5e3e-ad3e-011cf967d8dc"
      }
    ],
    "identifier": [
      {
        "system": "http://hl7.org/fhir/sid/us-npi",
        "value": "1962063438"
      }
    ],
    "address": [
      {
        "line": [
          "1301 S COULTER ST STE 103"
        ],
        "city": "AMARILLO",
        "state": "TX",
        "postalCode": "79106-1764"
      },
      {
        "line": [
          "6819 PLUM CREEK DR"
        ],
        "city": "AMARILLO",
        "state": "TX",
        "postalCode": "79106-1602"
      },
      {
        "line": [
          "3501 S SONCY RD"
        ],
        "city": "AMARILLO",
        "state": "TX",
        "postalCode": "79119-6407"
      },
      {
        "line": [
          "1501 S COULTER ST"
        ],
        "city": "AMARILLO",
        "state": "TX",
        "postalCode": "79106-1770"
      },
      {
        "line": [
          "3101 GARRETT DR"
        ],
        "city": "PERRYTON",
        "state": "TX",
        "postalCode": "79070-5323"
      },
      {
        "line": [
          "7100 SW 9TH AVE"
        ],
        "city": "AMARILLO",
        "state": "TX",
        "postalCode": "79106-1704"
      },
      {
        "line": [
          "1010 S. COULTER ST"
        ],
        "city": "AMARILLO",
        "state": "TX",
        "postalCode": "79106-1781"
      },
      {
        "line": [
          "1600 WALLACE BLVD"
        ],
        "city": "AMARILLO",
        "state": "TX",
        "postalCode": "79106-1799"
      }
    ],
    "extension": [
      {
        "url": "https://fhir.athena.io/StructureDefinition/ah-practice",
        "valueReference": {
          "reference": "Organization/a-1.Practice-19929"
        }
      },
      {
        "url": "https://fhir.athena.io/StructureDefinition/ah-brand",
        "valueReference": {
          "reference": "Organization/a-19929.Brand-1"
        }
      }
    ]
  },
  "fullUrl": "urn:uuid:6f63a354-7d19-5043-930c-c284fd2dca1e"
}