{
  "resource": {
    "resourceType": "Organization",
    "id": "5e73ded6-096f-5252-b8a4-3054412cbb0a",
    "name": "Nephrology Specialists",
    "endpoint": [
      {
        "reference": "Endpoint/27a4e967-47aa-5a9c-a572-b8297ee268a2"
      },
      {
        "reference": "Endpoint/99dad57e-3b9b-54da-b99d-6f6ce956190f"
      }
    ],
    "identifier": [
      {
        "system": "http://hl7.org/fhir/sid/us-npi",
        "value": "1578645107"
      }
    ],
    "address": [
      {
        "line": [
          "1602 SKIPWITH ROAD"
        ],
        "city": "HENRICO",
        "state": "VA",
        "postalCode": "23229-5298"
      },
      {
        "line": [
          "8400 North Run Medical Dr Ste 200"
        ],
        "city": "MECHANICSVILLE",
        "state": "VA",
        "postalCode": "23116-2319"
      },
      {
        "line": [
          "7605 FOREST AVENUE",
          "SUITE 109"
        ],
        "city": "HENRICO",
        "state": "VA",
        "postalCode": "23229-4938"
      },
      {
        "line": [
          "5801 BREMO ROAD"
        ],
        "city": "RICHMOND",
        "state": "VA",
        "postalCode": "23226-1907"
      },
      {
        "line": [
          "5320 PATTERSON AVE STE 200"
        ],
        "city": "RICHMOND",
        "state": "VA",
        "postalCode": "23226-1536"
      },
      {
        "line": [
          "8260 ATLEE ROAD"
        ],
        "city": "MECHANICSVILLE",
        "state": "VA",
        "postalCode": "23116-2319"
      },
      {
        "line": [
          "1603 SANTA ROSA ROAD",
          "TYLER BUILDING SUITE 100"
        ],
        "city": "HENRICO",
        "state": "VA",
        "postalCode": "23229-5010"
      },
      {
        "line": [
          "3384 CREIGHTON ROAD"
        ],
        "city": "RICHMOND",
        "state": "VA",
        "postalCode": "23223-2618"
      },
      {
        "line": [
          "7700 EAST PARHAM ROAD"
        ],
        "city": "HENRICO",
        "state": "VA",
        "postalCode": "23294-4301"
      },
      {
        "line": [
          "5320 PATTERSON AVENUE"
        ],
        "city": "RICHMOND",
        "state": "VA",
        "postalCode": "23226-1536"
      },
      {
        "line": [
          "1850 Pocahontas Trail"
        ],
        "city": "QUINTON",
        "state": "VA",
        "postalCode": "23141-1657"
      },
      {
        "line": [
          "8254 Atlee Road"
        ],
        "city": "MECHANICSVILLE",
        "state": "VA",
        "postalCode": "23116-1844"
      },
      {
        "line": [
          "4817 SOUTH LABURNUM AVENUE"
        ],
        "city": "RICHMOND",
        "state": "VA",
        "postalCode": "23221-2713"
      },
      {
        "line": [
          "4709 Richmond Road"
        ],
        "city": "WARSAW",
        "state": "VA",
        "postalCode": "22572-3143"
      },
      {
        "line": [
          "8400 NORTH RUN MEDICAL DRIVE"
        ],
        "city": "MECHANICSVILLE",
        "state": "VA",
        "postalCode": "23116-2319"
      },
      {
        "line": [
          "4709 RICHMOND RD"
        ],
        "city": "WARSAW",
        "state": "VA",
        "postalCode": "22572-3143"
      },
      {
        "line": [
          "500 EAST LABURNUM AVENUE",
          "RACEWAY PLAZA"
        ],
        "city": "RICHMOND",
        "state": "VA",
        "postalCode": "23222-2123"
      }
    ],
    "extension": [
      {
        "url": "https://fhir.athena.io/StructureDefinition/ah-practice",
        "valueReference": {
          "reference": "Organization/a-1.Practice-20471"
        }
      },
      {
        "url": "https://fhir.athena.io/StructureDefinition/ah-brand",
        "valueReference": {
          "reference": "Organization/a-20471.Brand-1"
        }
      }
    ]
  },
  "fullUrl": "urn:uuid:5e73ded6-096f-5252-b8a4-3054412cbb0a"
}