{
  "resource": {
    "resourceType": "Organization",
    "id": "d6ba073b-f603-57b1-aaec-a61526ce27ac",
    "name": "Consensus Health",
    "endpoint": [
      {
        "reference": "Endpoint/27a4e967-47aa-5a9c-a572-b8297ee268a2"
      },
      {
        "reference": "Endpoint/b731ce10-afb5-58e0-8b4d-58da76b2d1ee"
      }
    ],
    "identifier": [
      {
        "system": "http://hl7.org/fhir/sid/us-npi",
        "value": "1942778014"
      },
      {
        "system": "http://hl7.org/fhir/sid/us-npi",
        "value": "1811466881"
      }
    ],
    "address": [
      {
        "line": [
          "794 N FORKLANDING RD"
        ],
        "city": "MAPLE SHADE",
        "state": "NJ",
        "postalCode": "08052-1049"
      },
      {
        "line": [
          "1700 WYNWOOD DR"
        ],
        "city": "RIVERTON",
        "state": "NJ",
        "postalCode": "08077-2440"
      },
      {
        "line": [
          "210 ST. MARYS DRIVE"
        ],
        "city": "CHERRY HILL",
        "state": "NJ",
        "postalCode": "08003-2517"
      },
      {
        "line": [
          "870 ROUTE 70 EAST"
        ],
        "city": "MARLTON",
        "state": "NJ",
        "postalCode": "08053-5566"
      },
      {
        "line": [
          "5101 N PARK DR"
        ],
        "city": "MERCHANTVILLE",
        "state": "NJ",
        "postalCode": "08109-4643"
      },
      {
        "line": [
          "92 BRICK RD"
        ],
        "city": "MARLTON",
        "state": "NJ",
        "postalCode": "08053-2177"
      },
      {
        "line": [
          "895 WESTFIELD RD"
        ],
        "city": "MOORESTOWN",
        "state": "NJ",
        "postalCode": "08057-2123"
      },
      {
        "line": [
          "1700 Wynwood Dr"
        ],
        "city": "RIVERTON",
        "state": "NJ",
        "postalCode": "08077-2440"
      },
      {
        "line": [
          "1086 DUMONT CIRCLE"
        ],
        "city": "VOORHEES",
        "state": "NJ",
        "postalCode": "08043-3500"
      },
      {
        "line": [
          "1412 MARLTON PIKE EAST"
        ],
        "city": "CHERRY HILL",
        "state": "NJ",
        "postalCode": "08034-2230"
      },
      {
        "line": [
          "1302 LAUREL OAK RD"
        ],
        "city": "VOORHEES",
        "state": "NJ",
        "postalCode": "08043-4310"
      },
      {
        "line": [
          "18 W LAUREL RD"
        ],
        "city": "STRATFORD",
        "state": "NJ",
        "postalCode": "08084-1718"
      },
      {
        "line": [
          "210 ST MARY'S DR"
        ],
        "city": "CHERRY HILL",
        "state": "NJ",
        "postalCode": "08003-2517"
      },
      {
        "line": [
          "3025 CHAPEL AVE"
        ],
        "city": "CHERRY HILL",
        "state": "NJ",
        "postalCode": "08002-1503"
      },
      {
        "line": [
          "467 COOPER ST"
        ],
        "city": "WOODBURY",
        "state": "NJ",
        "postalCode": "08096-2519"
      },
      {
        "line": [
          "425 WOODBURY TURNERSVILLE RD"
        ],
        "city": "BLACKWOOD",
        "state": "NJ",
        "postalCode": "08012-2960"
      },
      {
        "line": [
          "3001 E EVESHAM RD"
        ],
        "city": "VOORHEES",
        "state": "NJ",
        "postalCode": "08043-9547"
      },
      {
        "line": [
          "1399 Chapel Ave"
        ],
        "city": "CHERRY HILL",
        "state": "NJ",
        "postalCode": "08002-2233"
      },
      {
        "line": [
          "1399 CHAPEL AVENUE"
        ],
        "city": "CHERRY HILL",
        "state": "NJ",
        "postalCode": "08002-2233"
      },
      {
        "line": [
          "185 TUCKERTON RD"
        ],
        "city": "MEDFORD",
        "state": "NJ",
        "postalCode": "08055-8803"
      },
      {
        "line": [
          "1417 BRACE RD"
        ],
        "city": "CHERRY HILL",
        "state": "NJ",
        "postalCode": "08034-3524"
      },
      {
        "line": [
          "1399 CHAPEL AVE"
        ],
        "city": "CHERRY HILL",
        "state": "NJ",
        "postalCode": "08002-2233"
      },
      {
        "line": [
          "396 S WHITE HORSE PIKE"
        ],
        "city": "BERLIN",
        "state": "NJ",
        "postalCode": "08009-1997"
      },
      {
        "line": [
          "4900 RT 33"
        ],
        "city": "NEPTUNE",
        "state": "NJ",
        "postalCode": "07753-6825"
      },
      {
        "line": [
          "3025chapel ave"
        ],
        "city": "CHERRY HILL",
        "state": "NJ",
        "postalCode": "08002-1503"
      },
      {
        "line": [
          "396 S WHITE HOARSE PIKE"
        ],
        "city": "BERLIN",
        "state": "NJ",
        "postalCode": "08009-1997"
      },
      {
        "line": [
          "212 MARTER AVE"
        ],
        "city": "MOORESTOWN",
        "state": "NJ",
        "postalCode": "08057-3114"
      },
      {
        "line": [
          "3001 EAST EVESHAM RD"
        ],
        "city": "VOORHEES",
        "state": "NJ",
        "postalCode": "08043-9547"
      }
    ],
    "extension": [
      {
        "url": "https://fhir.athena.io/StructureDefinition/ah-practice",
        "valueReference": {
          "reference": "Organization/a-1.Practice-18614"
        }
      },
      {
        "url": "https://fhir.athena.io/StructureDefinition/ah-brand",
        "valueReference": {
          "reference": "Organization/a-18614.Brand-1"
        }
      }
    ]
  },
  "fullUrl": "urn:uuid:d6ba073b-f603-57b1-aaec-a61526ce27ac"
}