{
  "resource": {
    "resourceType": "Organization",
    "id": "b1c14299-1033-5f7f-a9df-9430b6a0cf6f",
    "name": "MyPlace Health",
    "endpoint": [
      {
        "reference": "Endpoint/27a4e967-47aa-5a9c-a572-b8297ee268a2"
      },
      {
        "reference": "Endpoint/2c0f6b0e-9749-55bb-82b0-3749b1f09680"
      }
    ],
    "identifier": [
      {
        "system": "http://hl7.org/fhir/sid/us-npi",
        "value": "1588345268"
      }
    ],
    "address": [
      {
        "line": [
          "420 E 3RD ST",
          "STE 805"
        ],
        "city": "LOS ANGELES",
        "state": "CA",
        "postalCode": "90013-1646"
      },
      {
        "line": [
          "1832 W 7TH ST"
        ],
        "city": "LOS ANGELES",
        "state": "CA",
        "postalCode": "90057-4102"
      },
      {
        "line": [
          "11480 BROOKSHIRE AVE",
          "STE 108"
        ],
        "city": "DOWNEY",
        "state": "CA",
        "postalCode": "90241-5020"
      },
      {
        "line": [
          "10565 CIVIC CENTER DR",
          "BLDG SUITE165"
        ],
        "city": "RANCHO CUCAMONGA",
        "state": "CA",
        "postalCode": "91730-3853"
      },
      {
        "line": [
          "409 W GLENOAKS BLVD"
        ],
        "city": "GLENDALE",
        "state": "CA",
        "postalCode": "91202-2916"
      },
      {
        "line": [
          "1700 E CESAR E CHAVEZ AVE",
          "STE 2600"
        ],
        "city": "LOS ANGELES",
        "state": "CA",
        "postalCode": "90033-2434"
      },
      {
        "line": [
          "10625 LEFFINGWELL RD"
        ],
        "city": "NORWALK",
        "state": "CA",
        "postalCode": "90650-3434"
      },
      {
        "line": [
          "1955 CITRACADO PKWY",
          "STE 203"
        ],
        "city": "ESCONDIDO",
        "state": "CA",
        "postalCode": "92029-4112"
      },
      {
        "line": [
          "2080 CENTURY PARK E",
          "STE 1005"
        ],
        "city": "LOS ANGELES",
        "state": "CA",
        "postalCode": "90067-2013"
      },
      {
        "line": [
          "12215 TELEGRAPH RD",
          "STE 204"
        ],
        "city": "SANTA FE SPRINGS",
        "state": "CA",
        "postalCode": "90670-3344"
      },
      {
        "line": [
          "1495 W CAMERON AVE"
        ],
        "city": "WEST COVINA",
        "state": "CA",
        "postalCode": "91790-2710"
      },
      {
        "line": [
          "1200 N STATE ST"
        ],
        "city": "LOS ANGELES",
        "state": "CA",
        "postalCode": "90089-1001"
      },
      {
        "line": [
          "1245 WILSHIRE BLVD",
          "STE 303"
        ],
        "city": "LOS ANGELES",
        "state": "CA",
        "postalCode": "90017-4803"
      },
      {
        "line": [
          "3650 SOUTH ST",
          "STE 212"
        ],
        "city": "LAKEWOOD",
        "state": "CA",
        "postalCode": "90712-1528"
      },
      {
        "line": [
          "1127 WILSHIRE BLVD",
          "STE 805"
        ],
        "city": "LOS ANGELES",
        "state": "CA",
        "postalCode": "90017-3909"
      },
      {
        "line": [
          "100 N STATE COLLEGE BLVD",
          "STE H"
        ],
        "city": "FULLERTON",
        "state": "CA",
        "postalCode": "92831-4236"
      },
      {
        "line": [
          "4060 WHITTIER BLVD"
        ],
        "city": "LOS ANGELES",
        "state": "CA",
        "postalCode": "90023-2526"
      },
      {
        "line": [
          "50 BELLEFONTAINE ST",
          "STE 302"
        ],
        "city": "PASADENA",
        "state": "CA",
        "postalCode": "91105-3132"
      },
      {
        "line": [
          "18840 VENTURA BLVD",
          "STE 204"
        ],
        "city": "TARZANA",
        "state": "CA",
        "postalCode": "91356-6340"
      },
      {
        "line": [
          "139 S ALVARADO ST"
        ],
        "city": "LOS ANGELES",
        "state": "CA",
        "postalCode": "90057-2201"
      },
      {
        "line": [
          "15211 VANOWEN ST",
          "STE 300"
        ],
        "city": "VAN NUYS",
        "state": "CA",
        "postalCode": "91405-3617"
      },
      {
        "line": [
          "10942 RAMONA BLVD",
          "STE A"
        ],
        "city": "EL MONTE",
        "state": "CA",
        "postalCode": "91731-2644"
      },
      {
        "line": [
          "1513 S GRAND AVE",
          "STE 330"
        ],
        "city": "LOS ANGELES",
        "state": "CA",
        "postalCode": "90015-3070"
      },
      {
        "line": [
          "6041 CADILLAC AVE"
        ],
        "city": "LOS ANGELES",
        "state": "CA",
        "postalCode": "90034-1702"
      },
      {
        "line": [
          "1505 WILSON TER",
          "STE 310"
        ],
        "city": "GLENDALE",
        "state": "CA",
        "postalCode": "91206-4073"
      },
      {
        "line": [
          "137 S ASPEN ST",
          "STE A"
        ],
        "city": "VISALIA",
        "state": "CA",
        "postalCode": "93291-5381"
      },
      {
        "line": [
          "292 S LA CIENEGA BLVD",
          "STE 100"
        ],
        "city": "BEVERLY HILLS",
        "state": "CA",
        "postalCode": "90211-3337"
      },
      {
        "line": [
          "1251 W REDONDO BEACH BLVD",
          "FL 3"
        ],
        "city": "GARDENA",
        "state": "CA",
        "postalCode": "90247-3464"
      },
      {
        "line": [
          "101 E BEVERLY BLVD",
          "STE 205"
        ],
        "city": "MONTEBELLO",
        "state": "CA",
        "postalCode": "90640-4315"
      },
      {
        "line": [
          "1208 S CENTRAL AVE"
        ],
        "city": "GLENDALE",
        "state": "CA",
        "postalCode": "91204-2504"
      },
      {
        "line": [
          "4300 CRENSHAW BLVD"
        ],
        "city": "LOS ANGELES",
        "state": "CA",
        "postalCode": "90008-4902"
      },
      {
        "line": [
          "5901 W OLYMPIC BLVD",
          "STE 105"
        ],
        "city": "LOS ANGELES",
        "state": "CA",
        "postalCode": "90036-4680"
      },
      {
        "line": [
          "7715 GARVEY AVE"
        ],
        "city": "ROSEMEAD",
        "state": "CA",
        "postalCode": "91770-3003"
      },
      {
        "line": [
          "1145 W REDONDO BEACH BLVD"
        ],
        "city": "GARDENA",
        "state": "CA",
        "postalCode": "90247-3511"
      },
      {
        "line": [
          "1127 WILSHIRE BLVD",
          "STE 408"
        ],
        "city": "LOS ANGELES",
        "state": "CA",
        "postalCode": "90017-3901"
      },
      {
        "line": [
          "2715 E FLORENCE AVE"
        ],
        "city": "HUNTINGTON PARK",
        "state": "CA",
        "postalCode": "90255-5746"
      },
      {
        "line": [
          "3808 W Riverside Dr",
          "ste 302"
        ],
        "city": "TARZANA",
        "state": "CA",
        "postalCode": "91356-6340"
      },
      {
        "line": [
          "3434 MIDWAY DR",
          "STE 2001"
        ],
        "city": "SAN DIEGO",
        "state": "CA",
        "postalCode": "92110-4924"
      },
      {
        "line": [
          "231 W VERNON AVE",
          "STE 202"
        ],
        "city": "LOS ANGELES",
        "state": "CA",
        "postalCode": "90037-2779"
      },
      {
        "line": [
          "9435 VENICE BLVD"
        ],
        "city": "CULVER CITY",
        "state": "CA",
        "postalCode": "90232-2623"
      },
      {
        "line": [
          "1300 N VERMONT AVE",
          "STE 902"
        ],
        "city": "LOS ANGELES",
        "state": "CA",
        "postalCode": "90027-6094"
      },
      {
        "line": [
          "3616 E 1ST ST"
        ],
        "city": "LOS ANGELES",
        "state": "CA",
        "postalCode": "90063-2326"
      },
      {
        "line": [
          "511 E GARVEY AVE",
          "STE 201"
        ],
        "city": "MONTEREY PARK",
        "state": "CA",
        "postalCode": "91755-1974"
      },
      {
        "line": [
          "6070 W PICO BLVD"
        ],
        "city": "LOS ANGELES",
        "state": "CA",
        "postalCode": "90035-2647"
      },
      {
        "line": [
          "3400 LOMITA BLVD",
          "STE 306"
        ],
        "city": "TORRANCE",
        "state": "CA",
        "postalCode": "90505-4926"
      },
      {
        "line": [
          "2900 E DEL MAR BLVD"
        ],
        "city": "PASADENA",
        "state": "CA",
        "postalCode": "91107-4375"
      },
      {
        "line": [
          "5451 LA PALMA AVE",
          "STE 25"
        ],
        "city": "LA PALMA",
        "state": "CA",
        "postalCode": "90623-1730"
      },
      {
        "line": [
          "1245 WILSHIRE BLVD",
          "STE 514"
        ],
        "city": "LOS ANGELES",
        "state": "CA",
        "postalCode": "90017-4805"
      },
      {
        "line": [
          "1700 E CESAR E CHAVEZ AVE",
          "STE 2200"
        ],
        "city": "LOS ANGELES",
        "state": "CA",
        "postalCode": "90033-2476"
      },
      {
        "line": [
          "50 BELLEFONTAINE ST",
          "STE 409"
        ],
        "city": "PASADENA",
        "state": "CA",
        "postalCode": "91105-3132"
      },
      {
        "line": [
          "50 ALESSANDRO PL",
          "STE 310"
        ],
        "city": "PASADENA",
        "state": "CA",
        "postalCode": "91105-4000"
      },
      {
        "line": [
          "3929 E 1ST ST"
        ],
        "city": "LOS ANGELES",
        "state": "CA",
        "postalCode": "90063-3634"
      },
      {
        "line": [
          "18040 SHERMAN WAY",
          "STE 200"
        ],
        "city": "RESEDA",
        "state": "CA",
        "postalCode": "91335-4656"
      },
      {
        "line": [
          "3630 E IMPERIAL HWY"
        ],
        "city": "LYNWOOD",
        "state": "CA",
        "postalCode": "90262-2609"
      },
      {
        "line": [
          "2063 S ATLANTIC BLVD",
          "STE 300"
        ],
        "city": "MONTEREY PARK",
        "state": "CA",
        "postalCode": "91754-6366"
      },
      {
        "line": [
          "1019 S CENTRAL AVE"
        ],
        "city": "GLENDALE",
        "state": "CA",
        "postalCode": "91204-2210"
      },
      {
        "line": [
          "1200 North State Street"
        ],
        "city": "LOS ANGELES",
        "state": "CA",
        "postalCode": "90033-1083"
      },
      {
        "line": [
          "1414 S GRAND AVE",
          "STE 475"
        ],
        "city": "LOS ANGELES",
        "state": "CA",
        "postalCode": "90015-3079"
      },
      {
        "line": [
          "850 S ATLANTIC BLVD",
          "STE 305"
        ],
        "city": "MONTEREY PARK",
        "state": "CA",
        "postalCode": "91754-6714"
      }
    ],
    "extension": [
      {
        "url": "https://fhir.athena.io/StructureDefinition/ah-practice",
        "valueReference": {
          "reference": "Organization/a-1.Practice-32907"
        }
      },
      {
        "url": "https://fhir.athena.io/StructureDefinition/ah-brand",
        "valueReference": {
          "reference": "Organization/a-32907.Brand-1"
        }
      }
    ]
  },
  "fullUrl": "urn:uuid:b1c14299-1033-5f7f-a9df-9430b6a0cf6f"
}