{
  "resource": {
    "resourceType": "Organization",
    "id": "b12f15c1-a13d-5ffd-9903-fd3a661cfd47",
    "name": "MUSC Health Community Physicians",
    "endpoint": [
      {
        "reference": "Endpoint/27a4e967-47aa-5a9c-a572-b8297ee268a2"
      },
      {
        "reference": "Endpoint/2c93a3b1-975f-5bf5-8818-b2d55e229c08"
      }
    ],
    "identifier": [
      {
        "system": "http://hl7.org/fhir/sid/us-npi",
        "value": "1841878006"
      },
      {
        "system": "http://hl7.org/fhir/sid/us-npi",
        "value": "1992383145"
      }
    ],
    "address": [
      {
        "line": [
          "1330 Taylor St"
        ],
        "city": "COLUMBIA",
        "state": "SC",
        "postalCode": "29201-2915"
      },
      {
        "line": [
          "1315 Roberts St"
        ],
        "city": "CAMDEN",
        "state": "SC",
        "postalCode": "29020-3737"
      },
      {
        "line": [
          "146 Battleship Road"
        ],
        "city": "CAMDEN",
        "state": "SC",
        "postalCode": "29020-3737"
      },
      {
        "line": [
          "610 Columbiana Dr."
        ],
        "city": "COLUMBIA",
        "state": "SC",
        "postalCode": "29212-0728"
      },
      {
        "line": [
          "1315 Roberts St"
        ],
        "city": "CAMDEN",
        "state": "SC",
        "postalCode": "29020-3076"
      },
      {
        "line": [
          "2750 Laurel Street",
          "Suite 104"
        ],
        "city": "COLUMBIA",
        "state": "SC",
        "postalCode": "29204-2025"
      },
      {
        "line": [
          "5 Richland Medical Park"
        ],
        "city": "COLUMBIA",
        "state": "SC",
        "postalCode": "29203-6863"
      },
      {
        "line": [
          "114 Gateway Corporate Blvd.",
          "Suite 450"
        ],
        "city": "COLUMBIA",
        "state": "SC",
        "postalCode": "29203-9785"
      },
      {
        "line": [
          "2435 Forest Dr"
        ],
        "city": "COLUMBIA",
        "state": "SC",
        "postalCode": "29204-2026"
      },
      {
        "line": [
          "120 Gateway Corp Blvd"
        ],
        "city": "COLUMBIA",
        "state": "SC",
        "postalCode": "29203-9611"
      },
      {
        "line": [
          "1304 W BOBO NEWSOM HWY"
        ],
        "city": "HARTSVILLE",
        "state": "SC",
        "postalCode": "29550-4710"
      },
      {
        "line": [
          "29204-2026"
        ],
        "city": "COLUMBIA",
        "state": "SC",
        "postalCode": "29204-2026"
      },
      {
        "line": [
          "3000 St Matthews Rd"
        ],
        "city": "ORANGEBURG",
        "state": "SC",
        "postalCode": "29118-1442"
      },
      {
        "line": [
          "2437 FOREST DRIVE"
        ],
        "city": "COLUMBIA",
        "state": "SC",
        "postalCode": "29203-1236"
      },
      {
        "line": [
          "1655 BERNADIN ST",
          "STE 350"
        ],
        "city": "COLUMBIA",
        "state": "SC",
        "postalCode": "29204-2026"
      }
    ],
    "extension": [
      {
        "url": "https://fhir.athena.io/StructureDefinition/ah-practice",
        "valueReference": {
          "reference": "Organization/a-1.Practice-12688"
        }
      },
      {
        "url": "https://fhir.athena.io/StructureDefinition/ah-brand",
        "valueReference": {
          "reference": "Organization/a-12688.Brand-4"
        }
      }
    ]
  },
  "fullUrl": "urn:uuid:b12f15c1-a13d-5ffd-9903-fd3a661cfd47"
}