{
  "resource": {
    "resourceType": "Organization",
    "id": "d416b89d-5c2c-581e-816e-0589069ae301",
    "name": "MHPP - Geriatrics",
    "endpoint": [
      {
        "reference": "Endpoint/27a4e967-47aa-5a9c-a572-b8297ee268a2"
      },
      {
        "reference": "Endpoint/b646eae2-dcb5-5dab-aace-addd15b24463"
      }
    ],
    "identifier": [
      {
        "system": "http://hl7.org/fhir/sid/us-npi",
        "value": "1962933416"
      },
      {
        "system": "http://hl7.org/fhir/sid/us-npi",
        "value": "1447456173"
      },
      {
        "system": "http://hl7.org/fhir/sid/us-npi",
        "value": "1952340911"
      },
      {
        "system": "http://hl7.org/fhir/sid/us-npi",
        "value": "1376862151"
      },
      {
        "system": "http://hl7.org/fhir/sid/us-npi",
        "value": "1457863565"
      },
      {
        "system": "http://hl7.org/fhir/sid/us-npi",
        "value": "1538430533"
      },
      {
        "system": "http://hl7.org/fhir/sid/us-npi",
        "value": "1154584373"
      },
      {
        "system": "http://hl7.org/fhir/sid/us-npi",
        "value": "1083014914"
      },
      {
        "system": "http://hl7.org/fhir/sid/us-npi",
        "value": "1902002272"
      },
      {
        "system": "http://hl7.org/fhir/sid/us-npi",
        "value": "1760599906"
      },
      {
        "system": "http://hl7.org/fhir/sid/us-npi",
        "value": "1245769744"
      },
      {
        "system": "http://hl7.org/fhir/sid/us-npi",
        "value": "1063917425"
      },
      {
        "system": "http://hl7.org/fhir/sid/us-npi",
        "value": "1639111057"
      },
      {
        "system": "http://hl7.org/fhir/sid/us-npi",
        "value": "1528556750"
      }
    ],
    "address": [
      {
        "line": [
          "2000 32nd St"
        ],
        "city": "GRAND RAPIDS",
        "state": "MI",
        "postalCode": "49508-7910"
      },
      {
        "line": [
          "1010 Edison Ave NW"
        ],
        "city": "GRAND RAPIDS",
        "state": "MI",
        "postalCode": "49504-3918"
      },
      {
        "line": [
          "153 Lakeside NE"
        ],
        "city": "GRAND RAPIDS",
        "state": "MI",
        "postalCode": "49546-3854"
      },
      {
        "line": [
          "2589 44th St SE"
        ],
        "city": "GRAND RAPIDS",
        "state": "MI",
        "postalCode": "49512-3877"
      },
      {
        "line": [
          "1900 - 44th Street SE"
        ],
        "city": "Kentwood",
        "state": "MI",
        "postalCode": "49508-5008"
      },
      {
        "line": [
          "1050 4 Mile Rd NW"
        ],
        "city": "GRAND RAPIDS",
        "state": "MI",
        "postalCode": "49504-1505"
      },
      {
        "line": [
          "2161 Leonard St NW"
        ],
        "city": "GRAND RAPIDS",
        "state": "MI",
        "postalCode": "49504-3829"
      },
      {
        "line": [
          "200 Leonard St NE"
        ],
        "city": "GRAND RAPIDS",
        "state": "MI",
        "postalCode": "49506-1030"
      },
      {
        "line": [
          "1845 Boston St SE"
        ],
        "city": "GRAND RAPIDS",
        "state": "MI",
        "postalCode": "49506-4401"
      },
      {
        "line": [
          "3400 Wilson Ave SW"
        ],
        "city": "GRAND RAPIDS",
        "state": "MI",
        "postalCode": "49518-8203"
      },
      {
        "line": [
          "2121 Raybrook Ave SE"
        ],
        "city": "GRAND RAPIDS",
        "state": "MI",
        "postalCode": "49546-5793"
      },
      {
        "line": [
          "200 Jefferson Ave SE"
        ],
        "city": "GRAND RAPIDS",
        "state": "MI",
        "postalCode": "49508-5008"
      },
      {
        "line": [
          "1551 Franklin Ave SE"
        ],
        "city": "GRAND RAPIDS",
        "state": "MI",
        "postalCode": "49506-8203"
      },
      {
        "line": [
          "2499 Forest Hill SE"
        ],
        "city": "GRAND RAPIDS",
        "state": "MI",
        "postalCode": "49546-8257"
      },
      {
        "line": [
          "1450 E Fulton"
        ],
        "city": "GRAND RAPIDS",
        "state": "MI",
        "postalCode": "49503-3854"
      },
      {
        "line": [
          "1000 Edison Ave NW"
        ],
        "city": "GRAND RAPIDS",
        "state": "MI",
        "postalCode": "49504-3918"
      },
      {
        "line": [
          "200 Jefferson Street SE"
        ],
        "city": "GRAND RAPIDS",
        "state": "MI",
        "postalCode": "49503-4502"
      },
      {
        "line": [
          "200 Jefferson Ave SE"
        ],
        "city": "GRAND RAPIDS",
        "state": "MI",
        "postalCode": "49503-4502"
      }
    ],
    "extension": [
      {
        "url": "https://fhir.athena.io/StructureDefinition/ah-practice",
        "valueReference": {
          "reference": "Organization/a-1.Practice-11692"
        }
      },
      {
        "url": "https://fhir.athena.io/StructureDefinition/ah-brand",
        "valueReference": {
          "reference": "Organization/a-11692.Brand-1"
        }
      }
    ]
  },
  "fullUrl": "urn:uuid:d416b89d-5c2c-581e-816e-0589069ae301"
}