{
  "resource": {
    "resourceType": "Organization",
    "id": "89a05b2e-4fe0-5a30-8507-b5d2d688291f",
    "name": "Holy Cross OBGYN",
    "endpoint": [
      {
        "reference": "Endpoint/27a4e967-47aa-5a9c-a572-b8297ee268a2"
      },
      {
        "reference": "Endpoint/644552f1-dbef-5c27-af5c-01e4483a0330"
      }
    ],
    "identifier": [
      {
        "system": "http://hl7.org/fhir/sid/us-npi",
        "value": "1720581432"
      }
    ],
    "address": [
      {
        "line": [
          "1011 N GALLOWAY AVENUE"
        ],
        "city": "MESQUITE",
        "state": "TX",
        "postalCode": "75149-2433"
      },
      {
        "line": [
          "3500 GASTON AVENUE"
        ],
        "city": "DALLAS",
        "state": "TX",
        "postalCode": "75246-2017"
      },
      {
        "line": [
          "7 MEDICAL PARKWAY"
        ],
        "city": "DALLAS",
        "state": "TX",
        "postalCode": "75234-7823"
      },
      {
        "line": [
          "9440 POPPY DRIVE"
        ],
        "city": "DALLAS",
        "state": "TX",
        "postalCode": "75218-3652"
      },
      {
        "line": [
          "231 S. COLLINS ROAD"
        ],
        "city": "SUNNYVALE",
        "state": "TX",
        "postalCode": "75182-4624"
      },
      {
        "line": [
          "6800 Scenic Dr."
        ],
        "city": "ROWLETT",
        "state": "TX",
        "postalCode": "75088-1200"
      },
      {
        "line": [
          "1010 N BELT LINE ROAD",
          "SUITE 104"
        ],
        "city": "MESQUITE",
        "state": "TX",
        "postalCode": "75149-1770"
      },
      {
        "line": [
          "6800 Scenic DR."
        ],
        "city": "ROWLETT",
        "state": "TX",
        "postalCode": "75088-1200"
      }
    ],
    "extension": [
      {
        "url": "https://fhir.athena.io/StructureDefinition/ah-practice",
        "valueReference": {
          "reference": "Organization/a-1.Practice-17627"
        }
      },
      {
        "url": "https://fhir.athena.io/StructureDefinition/ah-brand",
        "valueReference": {
          "reference": "Organization/a-17627.Brand-1"
        }
      }
    ]
  },
  "fullUrl": "urn:uuid:89a05b2e-4fe0-5a30-8507-b5d2d688291f"
}