{
  "resource": {
    "resourceType": "Organization",
    "id": "f8cddc26-88f3-5b95-beff-abace439a92a",
    "name": "Renal Specialists of Houston PA",
    "endpoint": [
      {
        "reference": "Endpoint/27a4e967-47aa-5a9c-a572-b8297ee268a2"
      },
      {
        "reference": "Endpoint/c2ab2e54-b2f3-543a-9fff-1a588c28ec44"
      }
    ],
    "identifier": [
      {
        "system": "http://hl7.org/fhir/sid/us-npi",
        "value": "1275649402"
      }
    ],
    "address": [
      {
        "line": [
          "5208 ATASCOCITA RD"
        ],
        "city": "HUMBLE",
        "state": "TX",
        "postalCode": "77346-2843"
      },
      {
        "line": [
          "21927 CLAY RD STE 100"
        ],
        "city": "KATY",
        "state": "TX",
        "postalCode": "77449-0817"
      },
      {
        "line": [
          "2254 HOLCOMBE BLVD"
        ],
        "city": "HOUSTON",
        "state": "TX",
        "postalCode": "77030-4224"
      },
      {
        "line": [
          "100 East NASA Parkway Suite 35"
        ],
        "city": "WEBSTER",
        "state": "TX",
        "postalCode": "77598-5300"
      },
      {
        "line": [
          "2121 BUSINESS CENTER DR"
        ],
        "city": "PEARLAND",
        "state": "TX",
        "postalCode": "77584-2153"
      },
      {
        "line": [
          "4600 E SAM HOUSTON PKWY S"
        ],
        "city": "PASADENA",
        "state": "TX",
        "postalCode": "77505-3948"
      },
      {
        "line": [
          "1210 SOUTHMORE AVE"
        ],
        "city": "PASADENA",
        "state": "TX",
        "postalCode": "77502-1206"
      },
      {
        "line": [
          "655 E MEDICAL CENTER BLVD"
        ],
        "city": "WEBSTER",
        "state": "TX",
        "postalCode": "77598-4328"
      },
      {
        "line": [
          "11600 Broadway Street"
        ],
        "city": "PEARLAND",
        "state": "TX",
        "postalCode": "77584-3780"
      },
      {
        "line": [
          "4000 SPENCER HWY"
        ],
        "city": "PASADENA",
        "state": "TX",
        "postalCode": "77504-1202"
      },
      {
        "line": [
          "16100 SOUTH FWY"
        ],
        "city": "PEARLAND",
        "state": "TX",
        "postalCode": "77584-1895"
      },
      {
        "line": [
          "1003 N CLEVELAND ST"
        ],
        "city": "DAYTON",
        "state": "TX",
        "postalCode": "77535-2131"
      },
      {
        "line": [
          "9126 EASTEX FWY"
        ],
        "city": "HOUSTON",
        "state": "TX",
        "postalCode": "77093-7020"
      },
      {
        "line": [
          "8340 COFFEE ST"
        ],
        "city": "HOUSTON",
        "state": "TX",
        "postalCode": "77033-3733"
      },
      {
        "line": [
          "2276 Business Center Dr"
        ],
        "city": "PEARLAND",
        "state": "TX",
        "postalCode": "77584-1357"
      },
      {
        "line": [
          "21927 Clay Rd Ste 100"
        ],
        "city": "KATY",
        "state": "TX",
        "postalCode": "77449-0816"
      },
      {
        "line": [
          "400 RIVER POINTE DR"
        ],
        "city": "CONROE",
        "state": "TX",
        "postalCode": "77304-3911"
      },
      {
        "line": [
          "1300 BINZ ST FL 3"
        ],
        "city": "HOUSTON",
        "state": "TX",
        "postalCode": "77004-7016"
      },
      {
        "line": [
          "2920 FULTON ST"
        ],
        "city": "HOUSTON",
        "state": "TX",
        "postalCode": "77009-5738"
      },
      {
        "line": [
          "3800 HUGHES CT"
        ],
        "city": "DICKINSON",
        "state": "TX",
        "postalCode": "77539-6205"
      },
      {
        "line": [
          "11914 ASTORIA BLVD STE 420"
        ],
        "city": "HOUSTON",
        "state": "TX",
        "postalCode": "77089-6049"
      },
      {
        "line": [
          "6624 FANNIN ST STE 2200"
        ],
        "city": "HOUSTON",
        "state": "TX",
        "postalCode": "77030-2334"
      },
      {
        "line": [
          "5230 FM 2920 RD"
        ],
        "city": "SPRING",
        "state": "TX",
        "postalCode": "77388-3003"
      },
      {
        "line": [
          "1644 RESEARCH FOREST DR STE 150"
        ],
        "city": "SPRING",
        "state": "TX",
        "postalCode": "77381-4396"
      },
      {
        "line": [
          "1265 Rock Canyon Dr"
        ],
        "city": "KATY",
        "state": "TX",
        "postalCode": "77450-3831"
      },
      {
        "line": [
          "2002 Holcombe Blvd"
        ],
        "city": "HOUSTON",
        "state": "TX",
        "postalCode": "77030-4211"
      },
      {
        "line": [
          "2711 LITTLE YORK RD STE 201"
        ],
        "city": "HOUSTON",
        "state": "TX",
        "postalCode": "77093-3442"
      },
      {
        "line": [
          "11800 ASTORIA BLVD"
        ],
        "city": "HOUSTON",
        "state": "TX",
        "postalCode": "77089-6041"
      },
      {
        "line": [
          "777 Sheldon Rd Suite C"
        ],
        "city": "CHANNELVIEW",
        "state": "TX",
        "postalCode": "77530-3579"
      },
      {
        "line": [
          "10923 Scarsdale Blvd"
        ],
        "city": "HOUSTON",
        "state": "TX",
        "postalCode": "77089-6024"
      },
      {
        "line": [
          "5435 ALDINE MAIL ROUTE RD"
        ],
        "city": "HOUSTON",
        "state": "TX",
        "postalCode": "77039-4921"
      },
      {
        "line": [
          "12727 BEAMER RD"
        ],
        "city": "HOUSTON",
        "state": "TX",
        "postalCode": "77089-1550"
      },
      {
        "line": [
          "16750 Highway 3"
        ],
        "city": "WEBSTER",
        "state": "TX",
        "postalCode": "77598-2000"
      },
      {
        "line": [
          "6445 MAIN ST # 26"
        ],
        "city": "HOUSTON",
        "state": "TX",
        "postalCode": "77030-1502"
      },
      {
        "line": [
          "11665 FUQUA ST STE C301"
        ],
        "city": "HOUSTON",
        "state": "TX",
        "postalCode": "77034-4632"
      },
      {
        "line": [
          "1830 BROADWAY ST"
        ],
        "city": "PEARLAND",
        "state": "TX",
        "postalCode": "77581-5606"
      },
      {
        "line": [
          "212 Gulf Fwy S Suite G3"
        ],
        "city": "LEAGUE CITY",
        "state": "TX",
        "postalCode": "77573-3956"
      },
      {
        "line": [
          "6720 BERTNER AVE"
        ],
        "city": "HOUSTON",
        "state": "TX",
        "postalCode": "77030-2604"
      },
      {
        "line": [
          "4675 SWEETWATER BLVD STE B"
        ],
        "city": "SUGAR LAND",
        "state": "TX",
        "postalCode": "77479-3012"
      },
      {
        "line": [
          "1313 LA CONCHA LN"
        ],
        "city": "HOUSTON",
        "state": "TX",
        "postalCode": "77054-1809"
      },
      {
        "line": [
          "9449 GROGANS MILL RD"
        ],
        "city": "SPRING",
        "state": "TX",
        "postalCode": "77380-3623"
      },
      {
        "line": [
          "15917B S POST OAK RD"
        ],
        "city": "HOUSTON",
        "state": "TX",
        "postalCode": "77053-3553"
      },
      {
        "line": [
          "6720 Bertner Ave MC2114C"
        ],
        "city": "HOUSTON",
        "state": "TX",
        "postalCode": "77030-2604"
      },
      {
        "line": [
          "21755 PROVINCIAL BLVD"
        ],
        "city": "KATY",
        "state": "TX",
        "postalCode": "77450-6508"
      },
      {
        "line": [
          "2743 SMITH RANCH RD UNIT 803"
        ],
        "city": "PEARLAND",
        "state": "TX",
        "postalCode": "77584-5220"
      },
      {
        "line": [
          "4401 GARTH RD"
        ],
        "city": "BAYTOWN",
        "state": "TX",
        "postalCode": "77521-2122"
      },
      {
        "line": [
          "11100 SHADOW CREEK PKWY"
        ],
        "city": "PEARLAND",
        "state": "TX",
        "postalCode": "77584-7285"
      },
      {
        "line": [
          "150 BLUE HERON PKWY"
        ],
        "city": "BAYTOWN",
        "state": "TX",
        "postalCode": "77521-3766"
      },
      {
        "line": [
          "18648 MCKAY DR STE 130"
        ],
        "city": "HUMBLE",
        "state": "TX",
        "postalCode": "77338-5724"
      },
      {
        "line": [
          "2850 KIRBY DR"
        ],
        "city": "PEARLAND",
        "state": "TX",
        "postalCode": "77584-1954"
      },
      {
        "line": [
          "4407 YOAKUM BLVD"
        ],
        "city": "HOUSTON",
        "state": "TX",
        "postalCode": "77006-5861"
      },
      {
        "line": [
          "8303 CREEKBEND DR"
        ],
        "city": "HOUSTON",
        "state": "TX",
        "postalCode": "77071-1147"
      },
      {
        "line": [
          "500 W MEDICAL CENTER BLVD"
        ],
        "city": "WEBSTER",
        "state": "TX",
        "postalCode": "77598-4220"
      },
      {
        "line": [
          "18300 HOUSTON METHODIST DR"
        ],
        "city": "HOUSTON",
        "state": "TX",
        "postalCode": "77058-6302"
      },
      {
        "line": [
          "8925 HIGHWAY 6 N",
          "STE 100"
        ],
        "city": "HOUSTON",
        "state": "TX",
        "postalCode": "77095-2457"
      },
      {
        "line": [
          "1213 HERMANN DR STE 540"
        ],
        "city": "HOUSTON",
        "state": "TX",
        "postalCode": "77004-7089"
      },
      {
        "line": [
          "6107 FM 2100 RD"
        ],
        "city": "CROSBY",
        "state": "TX",
        "postalCode": "77532-5611"
      },
      {
        "line": [
          "2625 S BYPASS 35 STE 154"
        ],
        "city": "ALVIN",
        "state": "TX",
        "postalCode": "77511-4795"
      },
      {
        "line": [
          "4625 CENTER ST"
        ],
        "city": "DEER PARK",
        "state": "TX",
        "postalCode": "77536-6352"
      },
      {
        "line": [
          "1333 OLD SPANISH TRL STE J"
        ],
        "city": "HOUSTON",
        "state": "TX",
        "postalCode": "77054-1841"
      },
      {
        "line": [
          "4901 E SAM HOUSTON PKWY S"
        ],
        "city": "PASADENA",
        "state": "TX",
        "postalCode": "77505-1520"
      },
      {
        "line": [
          "7520 Spencer Hwy"
        ],
        "city": "PASADENA",
        "state": "TX",
        "postalCode": "77505-1917"
      },
      {
        "line": [
          "5040 CRENSHAW RD STE 200"
        ],
        "city": "PASADENA",
        "state": "TX",
        "postalCode": "77505-3047"
      },
      {
        "line": [
          "2215 ROLLINGBROOK DR STE 140"
        ],
        "city": "BAYTOWN",
        "state": "TX",
        "postalCode": "77521-3693"
      },
      {
        "line": [
          "1550 LIVE OAK ST"
        ],
        "city": "WEBSTER",
        "state": "TX",
        "postalCode": "77598-4137"
      },
      {
        "line": [
          "6516 Broadway St Suite 122"
        ],
        "city": "PEARLAND",
        "state": "TX",
        "postalCode": "77581-7879"
      },
      {
        "line": [
          "3333 BAYSHORE BLVD STE 270"
        ],
        "city": "PASADENA",
        "state": "TX",
        "postalCode": "77504-1944"
      },
      {
        "line": [
          "709 W MEDICAL CENTER BLVD"
        ],
        "city": "WEBSTER",
        "state": "TX",
        "postalCode": "77598-4005"
      },
      {
        "line": [
          "1307 W FAIRMONT PKWY STE A"
        ],
        "city": "LA PORTE",
        "state": "TX",
        "postalCode": "77571-6157"
      },
      {
        "line": [
          "7112 STUEBNER AIRLINE RD"
        ],
        "city": "HOUSTON",
        "state": "TX",
        "postalCode": "77091-2408"
      },
      {
        "line": [
          "7580 Fannin St Ste 230"
        ],
        "city": "HOUSTON",
        "state": "TX",
        "postalCode": "77054-1939"
      },
      {
        "line": [
          "10655 Eastex Freeway"
        ],
        "city": "HOUSTON",
        "state": "TX",
        "postalCode": "77093-4323"
      },
      {
        "line": [
          "10424 Interstate 10 E Suite 100"
        ],
        "city": "BAYTOWN",
        "state": "TX",
        "postalCode": "77523-0816"
      },
      {
        "line": [
          "1671 ROLLINGBROOK DR"
        ],
        "city": "BAYTOWN",
        "state": "TX",
        "postalCode": "77521-3666"
      },
      {
        "line": [
          "3402 BURKE RD"
        ],
        "city": "PASADENA",
        "state": "TX",
        "postalCode": "77504-1805"
      },
      {
        "line": [
          "6441 MAIN ST"
        ],
        "city": "HOUSTON",
        "state": "TX",
        "postalCode": "77030-1502"
      },
      {
        "line": [
          "350 BLOSSOM ST"
        ],
        "city": "WEBSTER",
        "state": "TX",
        "postalCode": "77598-4206"
      },
      {
        "line": [
          "400 RIVER POINTE DR"
        ],
        "city": "CONROE",
        "state": "TX",
        "postalCode": "77304-2836"
      },
      {
        "line": [
          "6830 CAPITOL ST"
        ],
        "city": "HOUSTON",
        "state": "TX",
        "postalCode": "77011-4622"
      },
      {
        "line": [
          "4665 Garth Rd Ste 900"
        ],
        "city": "BAYTOWN",
        "state": "TX",
        "postalCode": "77521-2261"
      },
      {
        "line": [
          "400 W MEDICAL CENTER BLVD STE 125"
        ],
        "city": "WEBSTER",
        "state": "TX",
        "postalCode": "77598-4416"
      },
      {
        "line": [
          "12734 WOODFOREST BLVD"
        ],
        "city": "HOUSTON",
        "state": "TX",
        "postalCode": "77015-2774"
      },
      {
        "line": [
          "20171 CHASEWOOD PARK DR"
        ],
        "city": "HOUSTON",
        "state": "TX",
        "postalCode": "77070-1437"
      },
      {
        "line": [
          "9767 FM 1960 BYPASS RD W"
        ],
        "city": "HUMBLE",
        "state": "TX",
        "postalCode": "77338-4067"
      },
      {
        "line": [
          "6750 E SAM HOUSTON PKWY N STE 220"
        ],
        "city": "HOUSTON",
        "state": "TX",
        "postalCode": "77049-2545"
      },
      {
        "line": [
          "3333 Bayshore Blvd"
        ],
        "city": "PASADENA",
        "state": "TX",
        "postalCode": "77504-1952"
      },
      {
        "line": [
          "7065 East Fwy"
        ],
        "city": "HOUSTON",
        "state": "TX",
        "postalCode": "77020-5328"
      },
      {
        "line": [
          "1914 CAROLINE ST"
        ],
        "city": "HOUSTON",
        "state": "TX",
        "postalCode": "77002-8210"
      },
      {
        "line": [
          "1111 HIGHWAY 6 STE 174"
        ],
        "city": "SUGAR LAND",
        "state": "TX",
        "postalCode": "77478-4913"
      },
      {
        "line": [
          "1823 Broadway St"
        ],
        "city": "PEARLAND",
        "state": "TX",
        "postalCode": "77581-5605"
      },
      {
        "line": [
          "4816 EAST CHASE ST"
        ],
        "city": "BAYTOWN",
        "state": "TX",
        "postalCode": "77521-3387"
      },
      {
        "line": [
          "4751 W Fuqua St"
        ],
        "city": "HOUSTON",
        "state": "TX",
        "postalCode": "77045-6104"
      },
      {
        "line": [
          "11430 East Fwy Ste 330"
        ],
        "city": "HOUSTON",
        "state": "TX",
        "postalCode": "77029-1959"
      },
      {
        "line": [
          "8537 GULF FWY STE A"
        ],
        "city": "HOUSTON",
        "state": "TX",
        "postalCode": "77017-5103"
      },
      {
        "line": [
          "2202 ROLLINGBROOK DR"
        ],
        "city": "BAYTOWN",
        "state": "TX",
        "postalCode": "77521-3655"
      },
      {
        "line": [
          "5610 Almeda Rd"
        ],
        "city": "HOUSTON",
        "state": "TX",
        "postalCode": "77004-7515"
      },
      {
        "line": [
          "2133 LOCKWOOD DR"
        ],
        "city": "HOUSTON",
        "state": "TX",
        "postalCode": "77020-4421"
      },
      {
        "line": [
          "4810 E SAM HOUSTON PKWY N"
        ],
        "city": "HOUSTON",
        "state": "TX",
        "postalCode": "77015-3240"
      },
      {
        "line": [
          "6565 FANNIN ST"
        ],
        "city": "HOUSTON",
        "state": "TX",
        "postalCode": "77030-2703"
      },
      {
        "line": [
          "13311 Pike Rd"
        ],
        "city": "STAFFORD",
        "state": "TX",
        "postalCode": "77477-5111"
      },
      {
        "line": [
          "110 E MEDICAL CENTER BLVD"
        ],
        "city": "WEBSTER",
        "state": "TX",
        "postalCode": "77598-4301"
      },
      {
        "line": [
          "12098 EAST FWY"
        ],
        "city": "HOUSTON",
        "state": "TX",
        "postalCode": "77029-1916"
      }
    ],
    "extension": [
      {
        "url": "https://fhir.athena.io/StructureDefinition/ah-practice",
        "valueReference": {
          "reference": "Organization/a-1.Practice-19285"
        }
      },
      {
        "url": "https://fhir.athena.io/StructureDefinition/ah-brand",
        "valueReference": {
          "reference": "Organization/a-19285.Brand-3"
        }
      }
    ]
  },
  "fullUrl": "urn:uuid:f8cddc26-88f3-5b95-beff-abace439a92a"
}