{
  "resource": {
    "resourceType": "Organization",
    "id": "8024da6c-da92-564c-9921-3d6aadaddbab",
    "name": "Missoula Birth Center at Origin Health",
    "endpoint": [
      {
        "reference": "Endpoint/27a4e967-47aa-5a9c-a572-b8297ee268a2"
      },
      {
        "reference": "Endpoint/5b55a4a2-4de1-5b0f-8596-739787d68fd0"
      }
    ],
    "identifier": [
      {
        "system": "http://hl7.org/fhir/sid/us-npi",
        "value": "1841835113"
      }
    ],
    "address": [
      {
        "line": [
          "2827 Fort Missoula Rd"
        ],
        "city": "MISSOULA",
        "state": "MT",
        "postalCode": "59804-7408"
      },
      {
        "line": [
          "1101 26th St S"
        ],
        "city": "GREAT FALLS",
        "state": "MT",
        "postalCode": "59405-5161"
      },
      {
        "line": [
          "2475 E BROADWAY ST"
        ],
        "city": "HELENA",
        "state": "MT",
        "postalCode": "59601-4928"
      },
      {
        "line": [
          "2831 FORT MISSOULA RD STE 232"
        ],
        "city": "MISSOULA",
        "state": "MT",
        "postalCode": "59804-7479"
      },
      {
        "line": [
          "400 South Clark Street"
        ],
        "city": "BUTTE",
        "state": "MT",
        "postalCode": "59701-2328"
      },
      {
        "line": [
          "2831 Fort Missoula Road, Suite 232"
        ],
        "city": "MISSOULA",
        "state": "MT",
        "postalCode": "59803-3219"
      },
      {
        "line": [
          "2827 FORT MISSOULA RD"
        ],
        "city": "MISSOULA",
        "state": "MT",
        "postalCode": "59804-7408"
      },
      {
        "line": [
          "310 Sunnyview Lane"
        ],
        "city": "KALISPELL",
        "state": "MT",
        "postalCode": "59901-3129"
      }
    ],
    "extension": [
      {
        "url": "https://fhir.athena.io/StructureDefinition/ah-practice",
        "valueReference": {
          "reference": "Organization/a-1.Practice-21046"
        }
      },
      {
        "url": "https://fhir.athena.io/StructureDefinition/ah-brand",
        "valueReference": {
          "reference": "Organization/a-21046.Brand-1"
        }
      }
    ]
  },
  "fullUrl": "urn:uuid:8024da6c-da92-564c-9921-3d6aadaddbab"
}