{
  "resource": {
    "resourceType": "Organization",
    "id": "40ca97da-62b3-5234-b665-ba77b6920bcc",
    "name": "YMCA of Metropolitan Dallas",
    "endpoint": [
      {
        "reference": "Endpoint/27a4e967-47aa-5a9c-a572-b8297ee268a2"
      },
      {
        "reference": "Endpoint/abb5f7d5-468e-5806-be46-fb2282afef02"
      }
    ],
    "identifier": [
      {
        "system": "http://hl7.org/fhir/sid/us-npi",
        "value": "1164970745"
      }
    ],
    "address": [
      {
        "line": [
          "601 N Akard St"
        ],
        "city": "DALLAS",
        "state": "TX",
        "postalCode": "75201-3303"
      },
      {
        "line": [
          "3737 Goldman Bldg A Ste 300"
        ],
        "city": "DALLAS",
        "state": "TX",
        "postalCode": "75212-2471"
      },
      {
        "line": [
          "2727 Chemsearch Road"
        ],
        "city": "IRVING",
        "state": "TX",
        "postalCode": "75062-6454"
      },
      {
        "line": [
          "1420 Viceroy Dr"
        ],
        "city": "DALLAS",
        "state": "TX",
        "postalCode": "75235-2208"
      },
      {
        "line": [
          "5615 High Point Dr"
        ],
        "city": "IRVING",
        "state": "TX",
        "postalCode": "75038-2453"
      },
      {
        "line": [
          "1601 Elm St"
        ],
        "city": "DALLAS",
        "state": "TX",
        "postalCode": "75201-4701"
      },
      {
        "line": [
          "601 Akard St"
        ],
        "city": "DALLAS",
        "state": "TX",
        "postalCode": "75201-3303"
      },
      {
        "line": [
          "305 Century Parkway"
        ],
        "city": "ALLEN",
        "state": "TX",
        "postalCode": "75013-8042"
      },
      {
        "line": [
          "2500 Romine Ave"
        ],
        "city": "DALLAS",
        "state": "TX",
        "postalCode": "75215-3899"
      },
      {
        "line": [
          "2702 Lovefield Drive"
        ],
        "city": "DALLAS",
        "state": "TX",
        "postalCode": "75235-1908"
      },
      {
        "line": [
          "8920 Stults Rd"
        ],
        "city": "DALLAS",
        "state": "TX",
        "postalCode": "75243-4145"
      },
      {
        "line": [
          "6000 Preston Rd"
        ],
        "city": "DALLAS",
        "state": "TX",
        "postalCode": "75205-2020"
      },
      {
        "line": [
          "1750 E Airport Freeway"
        ],
        "city": "IRVING",
        "state": "TX",
        "postalCode": "75062-4825"
      },
      {
        "line": [
          "3300 McDermott"
        ],
        "city": "PLANO",
        "state": "TX",
        "postalCode": "75025-4506"
      },
      {
        "line": [
          "1210 N Goliad St"
        ],
        "city": "ROCKWALL",
        "state": "TX",
        "postalCode": "75087-7203"
      },
      {
        "line": [
          "300 Kodak Blvd."
        ],
        "city": "LONGVIEW",
        "state": "TX",
        "postalCode": "75602-1234"
      },
      {
        "line": [
          "3415 Main Street"
        ],
        "city": "FRISCO",
        "state": "TX",
        "postalCode": "75034-4245"
      },
      {
        "line": [
          "100 YMCA Dr"
        ],
        "city": "WAXAHACHIE",
        "state": "TX",
        "postalCode": "75168-0711"
      },
      {
        "line": [
          "907 E Ledbetter Dr"
        ],
        "city": "DALLAS",
        "state": "TX",
        "postalCode": "75216-6859"
      },
      {
        "line": [
          "1950 S Valley Pkwy",
          "#A"
        ],
        "city": "LEWISVILLE",
        "state": "TX",
        "postalCode": "75067-5400"
      },
      {
        "line": [
          "6701 S Hampton rd"
        ],
        "city": "DALLAS",
        "state": "TX",
        "postalCode": "75232-3320"
      },
      {
        "line": [
          "300 Ridge Rd"
        ],
        "city": "MCKINNEY",
        "state": "TX",
        "postalCode": "75070-5100"
      },
      {
        "line": [
          "3500 W Wheatland Rd"
        ],
        "city": "DALLAS",
        "state": "TX",
        "postalCode": "75237-3460"
      },
      {
        "line": [
          "4441 W Airport Freeway"
        ],
        "city": "IRVING",
        "state": "TX",
        "postalCode": "75062-5822"
      },
      {
        "line": [
          "4332 Northaven Rd"
        ],
        "city": "DALLAS",
        "state": "TX",
        "postalCode": "75229-4122"
      },
      {
        "line": [
          "2021 Cross Timbers Rd"
        ],
        "city": "FLOWER MOUND",
        "state": "TX",
        "postalCode": "75028-2604"
      },
      {
        "line": [
          "3604 Live Oak St.",
          "Suite 100"
        ],
        "city": "DALLAS",
        "state": "TX",
        "postalCode": "75204-6169"
      },
      {
        "line": [
          "14055 Dennis Ln"
        ],
        "city": "DALLAS",
        "state": "TX",
        "postalCode": "75234-3534"
      },
      {
        "line": [
          "7301 Gaston Ave"
        ],
        "city": "DALLAS",
        "state": "TX",
        "postalCode": "75214-4131"
      },
      {
        "line": [
          "2222 Wellborn"
        ],
        "city": "DALLAS",
        "state": "TX",
        "postalCode": "75219-3924"
      },
      {
        "line": [
          "2200 W Irving Blvd"
        ],
        "city": "IRVING",
        "state": "TX",
        "postalCode": "75061-4358"
      },
      {
        "line": [
          "1441 N. Beckley Ave"
        ],
        "city": "DALLAS",
        "state": "TX",
        "postalCode": "75203-1201"
      },
      {
        "line": [
          "146 Town Ctr Blvd"
        ],
        "city": "COPPELL",
        "state": "TX",
        "postalCode": "75019-4924"
      },
      {
        "line": [
          "4556 S. Carrier Pkwy"
        ],
        "city": "GRAND PRAIRIE",
        "state": "TX",
        "postalCode": "75052-3305"
      },
      {
        "line": [
          "821 Custer Rd"
        ],
        "city": "RICHARDSON",
        "state": "TX",
        "postalCode": "75080-5139"
      }
    ],
    "extension": [
      {
        "url": "https://fhir.athena.io/StructureDefinition/ah-practice",
        "valueReference": {
          "reference": "Organization/a-1.Practice-14268"
        }
      },
      {
        "url": "https://fhir.athena.io/StructureDefinition/ah-brand",
        "valueReference": {
          "reference": "Organization/a-14268.Brand-1"
        }
      }
    ]
  },
  "fullUrl": "urn:uuid:40ca97da-62b3-5234-b665-ba77b6920bcc"
}