{
  "resource": {
    "resourceType": "Organization",
    "id": "680186d9-9042-56cb-938a-2fb815caecb7",
    "name": "Fondren Orthopedic Group",
    "endpoint": [
      {
        "reference": "Endpoint/27a4e967-47aa-5a9c-a572-b8297ee268a2"
      },
      {
        "reference": "Endpoint/23fe1177-9c47-5277-9be1-d22420e7bfdb"
      }
    ],
    "identifier": [
      {
        "system": "http://hl7.org/fhir/sid/us-npi",
        "value": "1205845369"
      },
      {
        "system": "http://hl7.org/fhir/sid/us-npi",
        "value": "1346244688"
      },
      {
        "system": "http://hl7.org/fhir/sid/us-npi",
        "value": "1942860176"
      },
      {
        "system": "http://hl7.org/fhir/sid/us-npi",
        "value": "1679501746"
      }
    ],
    "address": [
      {
        "line": [
          "11250 Fallbrook"
        ],
        "city": "HOUSTON",
        "state": "TX",
        "postalCode": "77065-4229"
      },
      {
        "line": [
          "200 Blossom"
        ],
        "city": "WEBSTER",
        "state": "TX",
        "postalCode": "77598-4204"
      },
      {
        "line": [
          "20171 Chasewood Park Drive"
        ],
        "city": "HOUSTON",
        "state": "TX",
        "postalCode": "77070-1437"
      },
      {
        "line": [
          "11100 Shadow Creek Parkway"
        ],
        "city": "PEARLAND",
        "state": "TX",
        "postalCode": "77584-7285"
      },
      {
        "line": [
          "1313 Hermann Drive"
        ],
        "city": "HOUSTON",
        "state": "TX",
        "postalCode": "77004-7005"
      },
      {
        "line": [
          "7401 MAIN ST"
        ],
        "city": "HOUSTON",
        "state": "TX",
        "postalCode": "77030-4509"
      },
      {
        "line": [
          "2525 West Bellfort, Suite 150"
        ],
        "city": "HOUSTON",
        "state": "TX",
        "postalCode": "77054-5099"
      },
      {
        "line": [
          "18220 STATE HIGHWAY 249 STE 330"
        ],
        "city": "HOUSTON",
        "state": "TX",
        "postalCode": "77070-4349"
      },
      {
        "line": [
          "4401 Garth Road"
        ],
        "city": "BAYTOWN",
        "state": "TX",
        "postalCode": "77521-2122"
      },
      {
        "line": [
          "11800 Astoria Blvd"
        ],
        "city": "HOUSTON",
        "state": "TX",
        "postalCode": "77089-6041"
      },
      {
        "line": [
          "9889 BELLAIRE BLVD STE E219A"
        ],
        "city": "HOUSTON",
        "state": "TX",
        "postalCode": "77036-3499"
      },
      {
        "line": [
          "1120 Business Center Drive, Suite 110"
        ],
        "city": "HOUSTON",
        "state": "TX",
        "postalCode": "77043-2735"
      },
      {
        "line": [
          "6655 Travis"
        ],
        "city": "HOUSTON",
        "state": "TX",
        "postalCode": "77030-1312"
      },
      {
        "line": [
          "16906 SOUTHWEST FWY"
        ],
        "city": "SUGAR LAND",
        "state": "TX",
        "postalCode": "77479-2350"
      },
      {
        "line": [
          "8731 KATY FWY",
          "STE 420"
        ],
        "city": "HOUSTON",
        "state": "TX",
        "postalCode": "77024-1736"
      },
      {
        "line": [
          "12141 Richmond Avenue"
        ],
        "city": "HOUSTON",
        "state": "TX",
        "postalCode": "77082-2408"
      },
      {
        "line": [
          "4000 Spencer Highway"
        ],
        "city": "PASADENA",
        "state": "TX",
        "postalCode": "77504-1202"
      },
      {
        "line": [
          "1626 West Baker Road"
        ],
        "city": "BAYTOWN",
        "state": "TX",
        "postalCode": "77521-2271"
      },
      {
        "line": [
          "10223 BROADWAY ST",
          "STE A"
        ],
        "city": "PEARLAND",
        "state": "TX",
        "postalCode": "77584-7881"
      },
      {
        "line": [
          "2635 W BAKER RD"
        ],
        "city": "BAYTOWN",
        "state": "TX",
        "postalCode": "77521-2206"
      },
      {
        "line": [
          "21216 NORTHWEST FWY",
          "STE 620"
        ],
        "city": "CYPRESS",
        "state": "TX",
        "postalCode": "77429-1439"
      },
      {
        "line": [
          "504 Medical Center Blvd"
        ],
        "city": "CONROE",
        "state": "TX",
        "postalCode": "77304-2808"
      },
      {
        "line": [
          "6641 Main Street"
        ],
        "city": "HOUSTON",
        "state": "TX",
        "postalCode": "77030-4509"
      },
      {
        "line": [
          "9250 PINECROFT DR"
        ],
        "city": "Shenandoah",
        "state": "TX",
        "postalCode": "77380-3280"
      },
      {
        "line": [
          "7718 GARTH RD"
        ],
        "city": "BAYTOWN",
        "state": "TX",
        "postalCode": "77521-2206"
      },
      {
        "line": [
          "502 West Medical Center Blvd"
        ],
        "city": "WEBSTER",
        "state": "TX",
        "postalCode": "77598-4220"
      },
      {
        "line": [
          "14851 Southwest Freeway"
        ],
        "city": "SUGAR LAND",
        "state": "TX",
        "postalCode": "77478-5016"
      },
      {
        "line": [
          "22999 US Highway 59 North"
        ],
        "city": "KINGWOOD",
        "state": "TX",
        "postalCode": "77339-4412"
      },
      {
        "line": [
          "4126 Southwest Freeway, Suite 225"
        ],
        "city": "HOUSTON",
        "state": "TX",
        "postalCode": "77027-7310"
      },
      {
        "line": [
          "1626 W Baker Road"
        ],
        "city": "BAYTOWN",
        "state": "TX",
        "postalCode": "77521-2271"
      },
      {
        "line": [
          "17510 W Grand Parkway South, Suite 200"
        ],
        "city": "SUGAR LAND",
        "state": "TX",
        "postalCode": "77479-2647"
      },
      {
        "line": [
          "7401 Main St"
        ],
        "city": "HOUSTON",
        "state": "TX",
        "postalCode": "77030-4509"
      },
      {
        "line": [
          "7401 South Main"
        ],
        "city": "HOUSTON",
        "state": "TX",
        "postalCode": "77030-4509"
      },
      {
        "line": [
          "6560 Fannin Street"
        ],
        "city": "HOUSTON",
        "state": "TX",
        "postalCode": "77030-2703"
      },
      {
        "line": [
          "22751 PROFESSIONAL DR STE 250"
        ],
        "city": "KINGWOOD",
        "state": "TX",
        "postalCode": "77339-6028"
      },
      {
        "line": [
          "500 Medical Center Blvd"
        ],
        "city": "WEBSTER",
        "state": "TX",
        "postalCode": "77598-4220"
      },
      {
        "line": [
          "4200 Twelve Oaks Drive"
        ],
        "city": "HOUSTON",
        "state": "TX",
        "postalCode": "77027-3812"
      },
      {
        "line": [
          "300 Kingwood Medical Drive"
        ],
        "city": "KINGWOOD",
        "state": "TX",
        "postalCode": "77339-6400"
      },
      {
        "line": [
          "5445 La Branch"
        ],
        "city": "HOUSTON",
        "state": "TX",
        "postalCode": "77004-6835"
      },
      {
        "line": [
          "18951 Memorial North"
        ],
        "city": "HUMBLE",
        "state": "TX",
        "postalCode": "77338-4217"
      },
      {
        "line": [
          "7401 Main Street"
        ],
        "city": "HOUSTON",
        "state": "TX",
        "postalCode": "77030-4509"
      },
      {
        "line": [
          "1317  Lake Point Parkway"
        ],
        "city": "SUGAR LAND",
        "state": "TX",
        "postalCode": "77478-3997"
      },
      {
        "line": [
          "21214 Highway 290"
        ],
        "city": "CYPRESS",
        "state": "TX",
        "postalCode": "77429-3373"
      },
      {
        "line": [
          "605 Holderrieth Blvd"
        ],
        "city": "TOMBALL",
        "state": "TX",
        "postalCode": "77375-6445"
      },
      {
        "line": [
          "1401 St Joseph Parkway"
        ],
        "city": "HOUSTON",
        "state": "TX",
        "postalCode": "77002-8301"
      },
      {
        "line": [
          "12950 East Freeway"
        ],
        "city": "HOUSTON",
        "state": "TX",
        "postalCode": "77015-5710"
      },
      {
        "line": [
          "6720 Bertner"
        ],
        "city": "HOUSTON",
        "state": "TX",
        "postalCode": "77030-2604"
      },
      {
        "line": [
          "12835 Gulf Freeway"
        ],
        "city": "HOUSTON",
        "state": "TX",
        "postalCode": "77034-4807"
      },
      {
        "line": [
          "1211 Highway 6, Suite 70"
        ],
        "city": "SUGAR LAND",
        "state": "TX",
        "postalCode": "77478-4940"
      },
      {
        "line": [
          "750 Westgreen Blvd Suite 103"
        ],
        "city": "KATY",
        "state": "TX",
        "postalCode": "77450-2799"
      },
      {
        "line": [
          "4600 E Sam Houston Pkwy South"
        ],
        "city": "PASADENA",
        "state": "TX",
        "postalCode": "77505-3948"
      },
      {
        "line": [
          "17500 West Grand Parkway South"
        ],
        "city": "SUGAR LAND",
        "state": "TX",
        "postalCode": "77479-2562"
      },
      {
        "line": [
          "1317 Lake Point Parkway"
        ],
        "city": "SUGAR LAND",
        "state": "TX",
        "postalCode": "77478-3997"
      },
      {
        "line": [
          "22999 Highway 59 North"
        ],
        "city": "KINGWOOD",
        "state": "TX",
        "postalCode": "77339-4412"
      },
      {
        "line": [
          "520 BLOSSOM ST"
        ],
        "city": "WEBSTER",
        "state": "TX",
        "postalCode": "77598-4210"
      },
      {
        "line": [
          "333 North Texas Avenue"
        ],
        "city": "WEBSTER",
        "state": "TX",
        "postalCode": "77598-4966"
      },
      {
        "line": [
          "7830 W Grand Parkway South"
        ],
        "city": "RICHMOND",
        "state": "TX",
        "postalCode": "77406-5816"
      },
      {
        "line": [
          "2001 Hermann Drive"
        ],
        "city": "HOUSTON",
        "state": "TX",
        "postalCode": "77004-7643"
      },
      {
        "line": [
          "18500 Katy Freeway"
        ],
        "city": "HOUSTON",
        "state": "TX",
        "postalCode": "77094-1110"
      },
      {
        "line": [
          "7600 FANNIN ST"
        ],
        "city": "HOUSTON",
        "state": "TX",
        "postalCode": "77054-1906"
      },
      {
        "line": [
          "7600 Beechnut"
        ],
        "city": "HOUSTON",
        "state": "TX",
        "postalCode": "77074-4302"
      },
      {
        "line": [
          "411 North First Street"
        ],
        "city": "BELLAIRE",
        "state": "TX",
        "postalCode": "77401-4027"
      },
      {
        "line": [
          "16906 Southwest Freeway"
        ],
        "city": "SUGAR LAND",
        "state": "TX",
        "postalCode": "77479-2350"
      },
      {
        "line": [
          "15300 Southwest Freeway, Suite 100"
        ],
        "city": "SUGAR LAND",
        "state": "TX",
        "postalCode": "77478-3827"
      },
      {
        "line": [
          "10655 Steepletop Drive"
        ],
        "city": "HOUSTON",
        "state": "TX",
        "postalCode": "77065-4222"
      },
      {
        "line": [
          "7515 Main St, Suite 800"
        ],
        "city": "HOUSTON",
        "state": "TX",
        "postalCode": "77030-4518"
      },
      {
        "line": [
          "6621 Fannin Street"
        ],
        "city": "HOUSTON",
        "state": "TX",
        "postalCode": "77030-2358"
      },
      {
        "line": [
          "1677 W BAKER RD"
        ],
        "city": "BAYTOWN",
        "state": "TX",
        "postalCode": "77521-2422"
      },
      {
        "line": [
          "921 GESSNER RD"
        ],
        "city": "HOUSTON",
        "state": "TX",
        "postalCode": "77024-2501"
      },
      {
        "line": [
          "3801 VISTA RD STE 360"
        ],
        "city": "PASADENA",
        "state": "TX",
        "postalCode": "77504-2161"
      },
      {
        "line": [
          "13440 UNIVERSITY BLVD STE 100"
        ],
        "city": "SUGAR LAND",
        "state": "TX",
        "postalCode": "77479-4907"
      },
      {
        "line": [
          "9180 Katy Freeway, Suite 250"
        ],
        "city": "HOUSTON",
        "state": "TX",
        "postalCode": "77055-7454"
      },
      {
        "line": [
          "22751 PROFESSIONAL DR STE 240"
        ],
        "city": "KINGWOOD",
        "state": "TX",
        "postalCode": "77339-6028"
      },
      {
        "line": [
          "9250 PINECROFT DR"
        ],
        "city": "Shenandoah",
        "state": "TX",
        "postalCode": "77380-3218"
      },
      {
        "line": [
          "6011 West Sam Houston Parkway South"
        ],
        "city": "HOUSTON",
        "state": "TX",
        "postalCode": "77036-1646"
      },
      {
        "line": [
          "18220 State Highway 249"
        ],
        "city": "HOUSTON",
        "state": "TX",
        "postalCode": "77070-4347"
      },
      {
        "line": [
          "6565 Fannin Street"
        ],
        "city": "HOUSTON",
        "state": "TX",
        "postalCode": "77030-2703"
      },
      {
        "line": [
          "6400 Fannin, Suite 1500"
        ],
        "city": "HOUSTON",
        "state": "TX",
        "postalCode": "77030-1526"
      },
      {
        "line": [
          "7600 Fannin"
        ],
        "city": "HOUSTON",
        "state": "TX",
        "postalCode": "77054-1906"
      },
      {
        "line": [
          "10223 Broadway St, STE A"
        ],
        "city": "PEARLAND",
        "state": "TX",
        "postalCode": "77584-7881"
      },
      {
        "line": [
          "6411 Fannin Street"
        ],
        "city": "HOUSTON",
        "state": "TX",
        "postalCode": "77030-1501"
      },
      {
        "line": [
          "21216 NORTHWEST FWY STE 620"
        ],
        "city": "CYPRESS",
        "state": "TX",
        "postalCode": "77429-4699"
      },
      {
        "line": [
          "16100 South Freeway"
        ],
        "city": "PEARLAND",
        "state": "TX",
        "postalCode": "77584-1895"
      },
      {
        "line": [
          "921 Gessner Rd"
        ],
        "city": "HOUSTON",
        "state": "TX",
        "postalCode": "77024-2314"
      },
      {
        "line": [
          "402 PARK GROVE DR"
        ],
        "city": "KATY",
        "state": "TX",
        "postalCode": "77450-1571"
      },
      {
        "line": [
          "16655 Southwest Freeway"
        ],
        "city": "SUGAR LAND",
        "state": "TX",
        "postalCode": "77479-2329"
      }
    ],
    "extension": [
      {
        "url": "https://fhir.athena.io/StructureDefinition/ah-practice",
        "valueReference": {
          "reference": "Organization/a-1.Practice-15533"
        }
      },
      {
        "url": "https://fhir.athena.io/StructureDefinition/ah-brand",
        "valueReference": {
          "reference": "Organization/a-15533.Brand-8"
        }
      }
    ]
  },
  "fullUrl": "urn:uuid:680186d9-9042-56cb-938a-2fb815caecb7"
}