{
  "resource": {
    "resourceType": "Organization",
    "id": "87cc4744-dc0a-5efa-a054-13d871bf3c53",
    "name": "TEXAS PODIATRY SERVICES",
    "endpoint": [
      {
        "reference": "Endpoint/27a4e967-47aa-5a9c-a572-b8297ee268a2"
      },
      {
        "reference": "Endpoint/2ee33d63-1c9d-596d-b86c-182fa2631e0f"
      }
    ],
    "identifier": [
      {
        "system": "http://hl7.org/fhir/sid/us-npi",
        "value": "1295295947"
      }
    ],
    "address": [
      {
        "line": [
          "1400 HI LINE DR APT 2015"
        ],
        "city": "DALLAS",
        "state": "TX",
        "postalCode": "75207-3451"
      },
      {
        "line": [
          "152 POINSETTA CIR"
        ],
        "city": "TERRELL",
        "state": "TX",
        "postalCode": "75160-5025"
      },
      {
        "line": [
          "7615 MEADOW RD"
        ],
        "city": "DALLAS",
        "state": "TX",
        "postalCode": "75230-4828"
      },
      {
        "line": [
          "4014 VILLA GROVE DR"
        ],
        "city": "DALLAS",
        "state": "TX",
        "postalCode": "75287-6760"
      },
      {
        "line": [
          "17217 GRAYSTONE DR"
        ],
        "city": "DALLAS",
        "state": "TX",
        "postalCode": "75248-1613"
      },
      {
        "line": [
          "7048 HILLWOOD LN"
        ],
        "city": "DALLAS",
        "state": "TX",
        "postalCode": "75248-5152"
      },
      {
        "line": [
          "7210 DUFFIELD DR"
        ],
        "city": "DALLAS",
        "state": "TX",
        "postalCode": "75248-7422"
      },
      {
        "line": [
          "131 POINSETTA CIR"
        ],
        "city": "TERRELL",
        "state": "TX",
        "postalCode": "75160-5024"
      },
      {
        "line": [
          "13812 HIRAM RD"
        ],
        "city": "WILLS POINT",
        "state": "TX",
        "postalCode": "75169-8652"
      },
      {
        "line": [
          "515 CHESTNUT TRAIL"
        ],
        "city": "FORNEY",
        "state": "TX",
        "postalCode": "75126-0019"
      },
      {
        "line": [
          "2501 OAK HILL DR"
        ],
        "city": "ARLINGTON",
        "state": "TX",
        "postalCode": "76006-4809"
      },
      {
        "line": [
          "7405 HILLWOOD LN"
        ],
        "city": "DALLAS",
        "state": "TX",
        "postalCode": "75248-5241"
      },
      {
        "line": [
          "11240 HILLCREST RD"
        ],
        "city": "DALLAS",
        "state": "TX",
        "postalCode": "75230-3501"
      },
      {
        "line": [
          "800 PARKWAY BLVD"
        ],
        "city": "COPPELL",
        "state": "TX",
        "postalCode": "75019-6017"
      },
      {
        "line": [
          "330 W PEMBROKE AVE"
        ],
        "city": "DALLAS",
        "state": "TX",
        "postalCode": "75208-6532"
      },
      {
        "line": [
          "2212 BLUEBONNET DR"
        ],
        "city": "RICHARDSON",
        "state": "TX",
        "postalCode": "75082-2320"
      },
      {
        "line": [
          "9010 WOODHURST DR"
        ],
        "city": "DALLAS",
        "state": "TX",
        "postalCode": "75243-6354"
      }
    ],
    "extension": [
      {
        "url": "https://fhir.athena.io/StructureDefinition/ah-practice",
        "valueReference": {
          "reference": "Organization/a-1.Practice-27206"
        }
      },
      {
        "url": "https://fhir.athena.io/StructureDefinition/ah-brand",
        "valueReference": {
          "reference": "Organization/a-27206.Brand-1"
        }
      }
    ]
  },
  "fullUrl": "urn:uuid:87cc4744-dc0a-5efa-a054-13d871bf3c53"
}