{
  "resource": {
    "resourceType": "Organization",
    "id": "60f72f04-431a-5235-9798-2fe0d29deb01",
    "name": "Centaur Medical Center",
    "endpoint": [
      {
        "reference": "Endpoint/27a4e967-47aa-5a9c-a572-b8297ee268a2"
      },
      {
        "reference": "Endpoint/95a0787e-5dfa-535b-83ff-73ca8e06ac50"
      }
    ],
    "identifier": [
      {
        "system": "http://hl7.org/fhir/sid/us-npi",
        "value": "1912685413"
      }
    ],
    "address": [
      {
        "line": [
          "100 W GORE ST",
          "STE 605"
        ],
        "city": "ORLANDO",
        "state": "FL",
        "postalCode": "32806-1051"
      },
      {
        "line": [
          "4201 NOLTE RD"
        ],
        "city": "SAINT CLOUD",
        "state": "FL",
        "postalCode": "34772-7158"
      },
      {
        "line": [
          "980 GATEWAY DR"
        ],
        "city": "ALTAMONTE SPRINGS",
        "state": "FL",
        "postalCode": "32714-4807"
      },
      {
        "line": [
          "601 E ROLLINS ST"
        ],
        "city": "ORLANDO",
        "state": "FL",
        "postalCode": "32803-1248"
      },
      {
        "line": [
          "2250 BEDFORD RD"
        ],
        "city": "ORLANDO",
        "state": "FL",
        "postalCode": "32803-1443"
      },
      {
        "line": [
          "2511 N JOHN YOUNG PKWY"
        ],
        "city": "KISSIMMEE",
        "state": "FL",
        "postalCode": "34741-1653"
      },
      {
        "line": [
          "541 WINTER GARDEN VINELAND RD"
        ],
        "city": "WINTER GARDEN",
        "state": "FL",
        "postalCode": "34787-5207"
      },
      {
        "line": [
          "4950 CALYPSO CAY WAY"
        ],
        "city": "KISSIMMEE",
        "state": "FL",
        "postalCode": "34746-5520"
      }
    ],
    "extension": [
      {
        "url": "https://fhir.athena.io/StructureDefinition/ah-practice",
        "valueReference": {
          "reference": "Organization/a-1.Practice-27439"
        }
      },
      {
        "url": "https://fhir.athena.io/StructureDefinition/ah-brand",
        "valueReference": {
          "reference": "Organization/a-27439.Brand-1"
        }
      }
    ]
  },
  "fullUrl": "urn:uuid:60f72f04-431a-5235-9798-2fe0d29deb01"
}