{
  "resource": {
    "resourceType": "Organization",
    "id": "b17da971-9e08-53eb-8689-a86ba7862181",
    "name": "Davita Dialysis Center",
    "endpoint": [
      {
        "reference": "Endpoint/27a4e967-47aa-5a9c-a572-b8297ee268a2"
      },
      {
        "reference": "Endpoint/0f2721c3-85ca-5019-92ee-6d0b25be3743"
      }
    ],
    "identifier": [
      {
        "system": "http://hl7.org/fhir/sid/us-npi",
        "value": "1568858686"
      },
      {
        "system": "http://hl7.org/fhir/sid/us-npi",
        "value": "1942254347"
      }
    ],
    "address": [
      {
        "line": [
          "434-436 Broadway"
        ],
        "city": "BAYONNE",
        "state": "NJ",
        "postalCode": "07002-3628"
      },
      {
        "line": [
          "241 Durham Ave"
        ],
        "city": "SOUTH PLAINFIELD",
        "state": "NJ",
        "postalCode": "07080-2504"
      },
      {
        "line": [
          "2121 ROUTE  22 W"
        ],
        "city": "BOUND BROOK",
        "state": "NJ",
        "postalCode": "08805-1546"
      },
      {
        "line": [
          "1139 SPRUCE DR"
        ],
        "city": "MOUNTAINSIDE",
        "state": "NJ",
        "postalCode": "07092-2221"
      },
      {
        "line": [
          "100 Madison Ave"
        ],
        "city": "MORRISTOWN",
        "state": "NJ",
        "postalCode": "07960-7357"
      },
      {
        "line": [
          "1260 US HIGHWAY 22"
        ],
        "city": "PLAINFIELD",
        "state": "NJ",
        "postalCode": "07060-3518"
      },
      {
        "line": [
          "375 Mount Pleasant"
        ],
        "city": "WEST ORANGE",
        "state": "NJ",
        "postalCode": "07052-2750"
      },
      {
        "line": [
          "25 E Willow Street Suite 2"
        ],
        "city": "MILLBURN",
        "state": "NJ",
        "postalCode": "07041-1416"
      },
      {
        "line": [
          "900 Lanidex Plaza"
        ],
        "city": "PARSIPPANY",
        "state": "NJ",
        "postalCode": "07054-2707"
      },
      {
        "line": [
          "175 Righter Road"
        ],
        "city": "SUCCASUNNA",
        "state": "NJ",
        "postalCode": "07876-1324"
      },
      {
        "line": [
          "1200 RANDOLPH ROAD"
        ],
        "city": "PLAINFIELD",
        "state": "NJ",
        "postalCode": "07060-3361"
      },
      {
        "line": [
          "800 Harrison St"
        ],
        "city": "RAHWAY",
        "state": "NJ",
        "postalCode": "07065-3512"
      },
      {
        "line": [
          "1529 North Broad Street"
        ],
        "city": "HILLSIDE",
        "state": "NJ",
        "postalCode": "07205-1603"
      },
      {
        "line": [
          "1139 SPRUCE DRIVE"
        ],
        "city": "MOUNTAINSIDE",
        "state": "NJ",
        "postalCode": "07092-2221"
      },
      {
        "line": [
          "29 MERIDAN ROAD"
        ],
        "city": "EDISON",
        "state": "NJ",
        "postalCode": "08820-2823"
      },
      {
        "line": [
          "7 E Clinton St"
        ],
        "city": "NEWTON",
        "state": "NJ",
        "postalCode": "07860-1801"
      }
    ],
    "extension": [
      {
        "url": "https://fhir.athena.io/StructureDefinition/ah-practice",
        "valueReference": {
          "reference": "Organization/a-1.Practice-2983"
        }
      },
      {
        "url": "https://fhir.athena.io/StructureDefinition/ah-brand",
        "valueReference": {
          "reference": "Organization/a-2983.Brand-1"
        }
      }
    ]
  },
  "fullUrl": "urn:uuid:b17da971-9e08-53eb-8689-a86ba7862181"
}