{
  "resource": {
    "resourceType": "Organization",
    "id": "0f7b59ef-4fdd-5d88-80bd-0af27f2aa7d3",
    "name": "Revere Medical",
    "endpoint": [
      {
        "reference": "Endpoint/27a4e967-47aa-5a9c-a572-b8297ee268a2"
      },
      {
        "reference": "Endpoint/dbdc447f-1e32-59fc-bc6a-e8a4b616875e"
      }
    ],
    "identifier": [
      {
        "system": "http://hl7.org/fhir/sid/us-npi",
        "value": "1073054458"
      },
      {
        "system": "http://hl7.org/fhir/sid/us-npi",
        "value": "1104367630"
      },
      {
        "system": "http://hl7.org/fhir/sid/us-npi",
        "value": "1104496819"
      },
      {
        "system": "http://hl7.org/fhir/sid/us-npi",
        "value": "1902347438"
      }
    ],
    "address": [
      {
        "line": [
          "77 Warren Street",
          "5th Floor"
        ],
        "city": "BRIGHTON",
        "state": "MA",
        "postalCode": "02135-3601"
      },
      {
        "line": [
          "400 NORTH BEACON ST"
        ],
        "city": "WATERTOWN",
        "state": "MA",
        "postalCode": "02472-5788"
      },
      {
        "line": [
          "77 Warren Street"
        ],
        "city": "BRIGHTON",
        "state": "MA",
        "postalCode": "02135-3601"
      },
      {
        "line": [
          "address"
        ],
        "city": "ROCKLEDGE",
        "state": "FL",
        "postalCode": "32955-5908"
      },
      {
        "line": [
          "13840 US HWY 1"
        ],
        "city": "SEBASTIAN",
        "state": "FL",
        "postalCode": "32958-3296"
      },
      {
        "line": [
          "3745 11TH CIR STE 105"
        ],
        "city": "VERO BEACH",
        "state": "FL",
        "postalCode": "32960-4838"
      },
      {
        "line": [
          "7765 144th Street, Suite 6"
        ],
        "city": "SEBASTIAN",
        "state": "FL",
        "postalCode": "32958-3206"
      },
      {
        "line": [
          "8055 Spyglass Hill Road"
        ],
        "city": "MELBOURNE",
        "state": "FL",
        "postalCode": "32940-8564"
      }
    ],
    "extension": [
      {
        "url": "https://fhir.athena.io/StructureDefinition/ah-practice",
        "valueReference": {
          "reference": "Organization/a-1.Practice-15594"
        }
      },
      {
        "url": "https://fhir.athena.io/StructureDefinition/ah-brand",
        "valueReference": {
          "reference": "Organization/a-15594.Brand-5"
        }
      }
    ]
  },
  "fullUrl": "urn:uuid:0f7b59ef-4fdd-5d88-80bd-0af27f2aa7d3"
}