{
  "resource": {
    "resourceType": "Organization",
    "id": "11789909-352e-597f-8eab-644b9e5801a0",
    "name": "United Surgical Associates and Bariatrics",
    "endpoint": [
      {
        "reference": "Endpoint/27a4e967-47aa-5a9c-a572-b8297ee268a2"
      },
      {
        "reference": "Endpoint/ed01af38-975f-50a5-9745-863cb12f8ac0"
      }
    ],
    "identifier": [
      {
        "system": "http://hl7.org/fhir/sid/us-npi",
        "value": "1568440493"
      }
    ],
    "address": [
      {
        "line": [
          "19101 E Valley View Parkway",
          "Suite B"
        ],
        "city": "INDEPENDENCE",
        "state": "MO",
        "postalCode": "64055-6907"
      },
      {
        "line": [
          "201 NORTHWEST RD MIZE RD"
        ],
        "city": "BLUE SPRINGS",
        "state": "MO",
        "postalCode": "64014-2513"
      },
      {
        "line": [
          "1301 S MAIN ST"
        ],
        "city": "OTTAWA",
        "state": "KS",
        "postalCode": "66067-3537"
      },
      {
        "line": [
          "100 NE ST LUKES BLVD"
        ],
        "city": "LEES SUMMIT",
        "state": "MO",
        "postalCode": "64086-6000"
      },
      {
        "line": [
          "19550 E. 39TH ST, SUITE 100"
        ],
        "city": "INDEPENDENCE",
        "state": "MO",
        "postalCode": "64057-1917"
      },
      {
        "line": [
          "19600 EAST 39TH STREET"
        ],
        "city": "INDEPENDENCE",
        "state": "MO",
        "postalCode": "64057-2301"
      },
      {
        "line": [
          "19101 E VALLEY VIEW PKWY STE D"
        ],
        "city": "INDEPENDENCE",
        "state": "MO",
        "postalCode": "64055-6907"
      },
      {
        "line": [
          "2100 SOUTHEAST BLUE PARKWAY"
        ],
        "city": "LEES SUMMIT",
        "state": "MO",
        "postalCode": "64063-1007"
      },
      {
        "line": [
          "9100 W 74TH STREET",
          "SUITE 269"
        ],
        "city": "OVERLAND PARK",
        "state": "KS",
        "postalCode": "66204-4404"
      },
      {
        "line": [
          "930 CARONDELET DRIVE"
        ],
        "city": "KANSAS CITY",
        "state": "MO",
        "postalCode": "64114-4855"
      },
      {
        "line": [
          "19550 E 39TH ST S STE 430"
        ],
        "city": "INDEPENDENCE",
        "state": "MO",
        "postalCode": "64057-2307"
      },
      {
        "line": [
          "1000 CARONDELET DRIVE",
          "203B"
        ],
        "city": "KANSAS CITY",
        "state": "MO",
        "postalCode": "64114-4673"
      },
      {
        "line": [
          "2100 SE Blue Pkwy"
        ],
        "city": "LEES SUMMIT",
        "state": "MO",
        "postalCode": "64063-1007"
      },
      {
        "line": [
          "19101 E VALLEY VIEW PRKWY STE B"
        ],
        "city": "INDEPENDENCE",
        "state": "MO",
        "postalCode": "64055-6907"
      },
      {
        "line": [
          "10951 LAKEVIEW AVE"
        ],
        "city": "LENEXA",
        "state": "KS",
        "postalCode": "66219-1331"
      },
      {
        "line": [
          "4901 College Blvd"
        ],
        "city": "LEAWOOD",
        "state": "KS",
        "postalCode": "66211-1602"
      },
      {
        "line": [
          "120 NE ST LUKES BLVD"
        ],
        "city": "LEES SUMMIT",
        "state": "MO",
        "postalCode": "64086-6000"
      },
      {
        "line": [
          "19101 E Valley View Parkway Suite D"
        ],
        "city": "INDEPENDENCE",
        "state": "MO",
        "postalCode": "64055-6907"
      },
      {
        "line": [
          "10730 NALL AVE, 1366"
        ],
        "city": "LEAWOOD",
        "state": "KS",
        "postalCode": "66211-1366"
      },
      {
        "line": [
          "203 NW R.D. MIZE RD, STE218"
        ],
        "city": "BLUE SPRINGS",
        "state": "MO",
        "postalCode": "64014-2545"
      },
      {
        "line": [
          "20511 E TRINITY PL"
        ],
        "city": "BLUE SPRINGS",
        "state": "MO",
        "postalCode": "64015-9501"
      }
    ],
    "extension": [
      {
        "url": "https://fhir.athena.io/StructureDefinition/ah-practice",
        "valueReference": {
          "reference": "Organization/a-1.Practice-24152"
        }
      },
      {
        "url": "https://fhir.athena.io/StructureDefinition/ah-brand",
        "valueReference": {
          "reference": "Organization/a-24152.Brand-1"
        }
      }
    ]
  },
  "fullUrl": "urn:uuid:11789909-352e-597f-8eab-644b9e5801a0"
}