{
  "resource": {
    "resourceType": "Organization",
    "id": "4a1292bd-5efa-5f56-a5c3-c105fe549d93",
    "name": "VALLEY MEDICAL SERVICES INC",
    "endpoint": [
      {
        "reference": "Endpoint/27a4e967-47aa-5a9c-a572-b8297ee268a2"
      },
      {
        "reference": "Endpoint/e191ff23-a2e2-5e42-9981-a57500eeebf1"
      }
    ],
    "identifier": [
      {
        "system": "http://hl7.org/fhir/sid/us-npi",
        "value": "1417310970"
      }
    ],
    "address": [
      {
        "line": [
          "250 OLD HOOK RD"
        ],
        "city": "WESTWOOD",
        "state": "NJ",
        "postalCode": "07675-3123"
      },
      {
        "line": [
          "350 ENGLE ST"
        ],
        "city": "ENGLEWOOD",
        "state": "NJ",
        "postalCode": "07631-1808"
      },
      {
        "line": [
          "223 N VAN DIEN AVE"
        ],
        "city": "RIDGEWOOD",
        "state": "NJ",
        "postalCode": "07450-2726"
      },
      {
        "line": [
          "223 NORTH VAN DIEN AVENUE"
        ],
        "city": "RIDGEWOOD",
        "state": "NJ",
        "postalCode": "07450-2726"
      },
      {
        "line": [
          "230 E. RIDGEWOOD AVE"
        ],
        "city": "PARAMUS",
        "state": "NJ",
        "postalCode": "07652-4142"
      },
      {
        "line": [
          "223 NORTH VAN DIEN AVE"
        ],
        "city": "RIDGEWOOD",
        "state": "NJ",
        "postalCode": "07450-2726"
      },
      {
        "line": [
          "350 ENGLE STREET"
        ],
        "city": "ENGLEWOOD",
        "state": "NJ",
        "postalCode": "07631-1808"
      },
      {
        "line": [
          "1124 East Ridgewood Ave"
        ],
        "city": "RIDGEWOOD",
        "state": "NJ",
        "postalCode": "07450-3915"
      },
      {
        "line": [
          "223 NORTH VAN DIEN"
        ],
        "city": "RIDGEWOOD",
        "state": "NJ",
        "postalCode": "07450-2726"
      },
      {
        "line": [
          "230 E. Ridgewood Ave"
        ],
        "city": "PARAMUS",
        "state": "NJ",
        "postalCode": "07652-4142"
      },
      {
        "line": [
          "250 Old Hook Road"
        ],
        "city": "WESTWOOD",
        "state": "NJ",
        "postalCode": "07675-3123"
      },
      {
        "line": [
          "133 N KINDERKAMACK RD"
        ],
        "city": "MONTVALE",
        "state": "NJ",
        "postalCode": "07645-1313"
      },
      {
        "line": [
          "97 WEST PARKWAY"
        ],
        "city": "POMPTON PLAINS",
        "state": "NJ",
        "postalCode": "07444-1647"
      },
      {
        "line": [
          "223 NO VAN DIEN AVE"
        ],
        "city": "RIDGEWOOD",
        "state": "NJ",
        "postalCode": "07450-2726"
      },
      {
        "line": [
          "ONE VALLEY HEALTH PLAZA",
          "2ND FLOOR"
        ],
        "city": "PARAMUS",
        "state": "NJ",
        "postalCode": "07652-3628"
      },
      {
        "line": [
          "250 OLD HOOK ROAD"
        ],
        "city": "WESTWOOD",
        "state": "NJ",
        "postalCode": "07675-3123"
      }
    ],
    "extension": [
      {
        "url": "https://fhir.athena.io/StructureDefinition/ah-practice",
        "valueReference": {
          "reference": "Organization/a-1.Practice-5622"
        }
      },
      {
        "url": "https://fhir.athena.io/StructureDefinition/ah-brand",
        "valueReference": {
          "reference": "Organization/a-5622.Brand-34"
        }
      }
    ]
  },
  "fullUrl": "urn:uuid:4a1292bd-5efa-5f56-a5c3-c105fe549d93"
}