{
  "resource": {
    "resourceType": "Organization",
    "id": "2360ce1f-f87c-50cc-902b-5fd88a21c495",
    "name": "West Metro Fire Rescue",
    "endpoint": [
      {
        "reference": "Endpoint/27a4e967-47aa-5a9c-a572-b8297ee268a2"
      },
      {
        "reference": "Endpoint/17fe0a51-f856-54cc-8edd-4b4adf11f691"
      }
    ],
    "identifier": [
      {
        "system": "http://hl7.org/fhir/sid/us-npi",
        "value": "1083328496"
      }
    ],
    "address": [
      {
        "line": [
          "421 S FENTON ST"
        ],
        "city": "DENVER",
        "state": "CO",
        "postalCode": "80226-3556"
      },
      {
        "line": [
          "10100 W 38TH AVE"
        ],
        "city": "WHEAT RIDGE",
        "state": "CO",
        "postalCode": "80033-4000"
      },
      {
        "line": [
          "1085 VIVIAN ST"
        ],
        "city": "GOLDEN",
        "state": "CO",
        "postalCode": "80401-4756"
      },
      {
        "line": [
          "5344 S KIPLING PKWY"
        ],
        "city": "LITTLETON",
        "state": "CO",
        "postalCode": "80127-1738"
      },
      {
        "line": [
          "555 S PIERCE ST"
        ],
        "city": "DENVER",
        "state": "CO",
        "postalCode": "80226-3470"
      },
      {
        "line": [
          "1625 CARR ST"
        ],
        "city": "DENVER",
        "state": "CO",
        "postalCode": "80214-5926"
      },
      {
        "line": [
          "5361 W 26TH AVE"
        ],
        "city": "DENVER",
        "state": "CO",
        "postalCode": "80214-8510"
      },
      {
        "line": [
          "8271 S CONTINENTAL DIVIDE RD"
        ],
        "city": "LITTLETON",
        "state": "CO",
        "postalCode": "80127-3890"
      },
      {
        "line": [
          "7465 W 48TH AVE"
        ],
        "city": "WHEAT RIDGE",
        "state": "CO",
        "postalCode": "80033-3427"
      },
      {
        "line": [
          "11975 W 22ND PL"
        ],
        "city": "LAKEWOOD",
        "state": "CO",
        "postalCode": "80215-1111"
      },
      {
        "line": [
          "1325 VANCE ST"
        ],
        "city": "DENVER",
        "state": "CO",
        "postalCode": "80214-4281"
      },
      {
        "line": [
          "4802 S WADSWORTH BLVD"
        ],
        "city": "LITTLETON",
        "state": "CO",
        "postalCode": "80123-2415"
      },
      {
        "line": [
          "1900 UPHAM ST"
        ],
        "city": "Lakewood",
        "state": "CO",
        "postalCode": "80214-5828"
      },
      {
        "line": [
          "3845 DEPEW ST"
        ],
        "city": "DENVER",
        "state": "CO",
        "postalCode": "80212-7212"
      },
      {
        "line": [
          "7390 W EASTMAN PL"
        ],
        "city": "DENVER",
        "state": "CO",
        "postalCode": "80227-5039"
      },
      {
        "line": [
          "2121 WADSWORTH BLVD"
        ],
        "city": "DENVER",
        "state": "CO",
        "postalCode": "80214-5706"
      },
      {
        "line": [
          "2800 YOUNGFIELD ST"
        ],
        "city": "DENVER",
        "state": "CO",
        "postalCode": "80215-7210"
      },
      {
        "line": [
          "155 S HOYT ST"
        ],
        "city": "DENVER",
        "state": "CO",
        "postalCode": "80226-1078"
      },
      {
        "line": [
          "1432 S. Depew St."
        ],
        "city": "Lakewood",
        "state": "CO",
        "postalCode": "80214-2237"
      },
      {
        "line": [
          "5275 S KIPLING PKWY"
        ],
        "city": "LITTLETON",
        "state": "CO",
        "postalCode": "80127-1705"
      },
      {
        "line": [
          "115 INGALLS ST"
        ],
        "city": "DENVER",
        "state": "CO",
        "postalCode": "80226-1815"
      },
      {
        "line": [
          "3151 S WADSWORTH BLVD"
        ],
        "city": "DENVER",
        "state": "CO",
        "postalCode": "80227-4802"
      },
      {
        "line": [
          "7825 W ALAMEDA AVE"
        ],
        "city": "DENVER",
        "state": "CO",
        "postalCode": "80226-3005"
      },
      {
        "line": [
          "433 S ALLISON PKWY"
        ],
        "city": "DENVER",
        "state": "CO",
        "postalCode": "80226-3133"
      },
      {
        "line": [
          "9232 W TEXAS DR"
        ],
        "city": "DENVER",
        "state": "CO",
        "postalCode": "80232-5100"
      },
      {
        "line": [
          "5301 W 1ST AVE"
        ],
        "city": "DENVER",
        "state": "CO",
        "postalCode": "80226-2434"
      },
      {
        "line": [
          "3315 SHERIDAN BLVD"
        ],
        "city": "DENVER",
        "state": "CO",
        "postalCode": "80212-7053"
      },
      {
        "line": [
          "5275 S. Kipling Pkwy"
        ],
        "city": "LITTLETON",
        "state": "CO",
        "postalCode": "80127-2015"
      },
      {
        "line": [
          "1805 S. Balsalm St."
        ],
        "city": "DENVER",
        "state": "CO",
        "postalCode": "80232-6717"
      },
      {
        "line": [
          "7850 W 44TH AVE"
        ],
        "city": "WHEAT RIDGE",
        "state": "CO",
        "postalCode": "80033-4504"
      },
      {
        "line": [
          "80 YUKON ST"
        ],
        "city": "DENVER",
        "state": "CO",
        "postalCode": "80226-1530"
      },
      {
        "line": [
          "6270 W 38TH AVE"
        ],
        "city": "WHEAT RIDGE",
        "state": "CO",
        "postalCode": "80033-5071"
      },
      {
        "line": [
          "8201 W JEWELL AVE"
        ],
        "city": "DENVER",
        "state": "CO",
        "postalCode": "80232-6717"
      },
      {
        "line": [
          "1655 EATON ST"
        ],
        "city": "DENVER",
        "state": "CO",
        "postalCode": "80214-1628"
      },
      {
        "line": [
          "12791 W ALAMEDA PKWY"
        ],
        "city": "DENVER",
        "state": "CO",
        "postalCode": "80228-2838"
      },
      {
        "line": [
          "7205 W QUINCY AVE"
        ],
        "city": "DENVER",
        "state": "CO",
        "postalCode": "80235-3080"
      }
    ],
    "extension": [
      {
        "url": "https://fhir.athena.io/StructureDefinition/ah-practice",
        "valueReference": {
          "reference": "Organization/a-1.Practice-26919"
        }
      },
      {
        "url": "https://fhir.athena.io/StructureDefinition/ah-brand",
        "valueReference": {
          "reference": "Organization/a-26919.Brand-1"
        }
      }
    ]
  },
  "fullUrl": "urn:uuid:2360ce1f-f87c-50cc-902b-5fd88a21c495"
}