{
  "resource": {
    "resourceType": "Organization",
    "id": "ac4b3237-2a64-5205-98ec-45de8e3853da",
    "name": "Ascension Medical Group Seton Orthopedics Surgery",
    "endpoint": [
      {
        "reference": "Endpoint/27a4e967-47aa-5a9c-a572-b8297ee268a2"
      },
      {
        "reference": "Endpoint/9cc18d86-9cfd-51f4-8362-613d94d57769"
      }
    ],
    "identifier": [
      {
        "system": "http://hl7.org/fhir/sid/us-npi",
        "value": "1275290694"
      },
      {
        "system": "http://hl7.org/fhir/sid/us-npi",
        "value": "1962025148"
      },
      {
        "system": "http://hl7.org/fhir/sid/us-npi",
        "value": "1588997233"
      },
      {
        "system": "http://hl7.org/fhir/sid/us-npi",
        "value": "1730412388"
      },
      {
        "system": "http://hl7.org/fhir/sid/us-npi",
        "value": "1508489782"
      },
      {
        "system": "http://hl7.org/fhir/sid/us-npi",
        "value": "1629538491"
      }
    ],
    "address": [
      {
        "line": [
          "1111 W 34th St Ste 300"
        ],
        "city": "AUSTIN",
        "state": "TX",
        "postalCode": "78705-1916"
      },
      {
        "line": [
          "1401 Medical Pkwy",
          "STE C # 100"
        ],
        "city": "CEDAR PARK",
        "state": "TX",
        "postalCode": "78613-7886"
      },
      {
        "line": [
          "4900 Mueller Blvd"
        ],
        "city": "AUSTIN",
        "state": "TX",
        "postalCode": "78723-3051"
      },
      {
        "line": [
          "919 E 32nd St"
        ],
        "city": "AUSTIN",
        "state": "TX",
        "postalCode": "78705-2703"
      },
      {
        "line": [
          "1500 Red River St"
        ],
        "city": "AUSTIN",
        "state": "TX",
        "postalCode": "78701-1918"
      },
      {
        "line": [
          "201 Seton Pkwy"
        ],
        "city": "ROUND ROCK",
        "state": "TX",
        "postalCode": "78665-8000"
      },
      {
        "line": [
          "5656 Bee Caves Rd STE M 302"
        ],
        "city": "WEST LAKE HILLS",
        "state": "TX",
        "postalCode": "78746-5280"
      },
      {
        "line": [
          "7900 FM 1826"
        ],
        "city": "AUSTIN",
        "state": "TX",
        "postalCode": "78737-1407"
      },
      {
        "line": [
          "3003 Bee Cave Rd"
        ],
        "city": "AUSTIN",
        "state": "TX",
        "postalCode": "78758-2401"
      },
      {
        "line": [
          "351 Cypress Creek Rd  Ste 102"
        ],
        "city": "CEDAR PARK",
        "state": "TX",
        "postalCode": "78613-4655"
      },
      {
        "line": [
          "1201 W 38th St"
        ],
        "city": "AUSTIN",
        "state": "TX",
        "postalCode": "78705-1006"
      },
      {
        "line": [
          "11113 Research Blvd"
        ],
        "city": "AUSTIN",
        "state": "TX",
        "postalCode": "78759-5236"
      },
      {
        "line": [
          "1891 Medical Pkwy"
        ],
        "city": "SAN MARCOS",
        "state": "TX",
        "postalCode": "78666-7559"
      },
      {
        "line": [
          "901 W Ben White Blvd"
        ],
        "city": "AUSTIN",
        "state": "TX",
        "postalCode": "78704-6903"
      },
      {
        "line": [
          "12221 N Mopac Expy"
        ],
        "city": "AUSTIN",
        "state": "TX",
        "postalCode": "78758-2401"
      },
      {
        "line": [
          "7600 N Capital of Texas Hwy",
          "STE 100, BLDG A"
        ],
        "city": "AUSTIN",
        "state": "TX",
        "postalCode": "78731-1184"
      },
      {
        "line": [
          "12201 Renfert Way Ste 120"
        ],
        "city": "AUSTIN",
        "state": "TX",
        "postalCode": "78758-5367"
      },
      {
        "line": [
          "4207 James Casey Ste 203"
        ],
        "city": "AUSTIN",
        "state": "TX",
        "postalCode": "78745-1192"
      },
      {
        "line": [
          "301 SETON PKWY STE 200"
        ],
        "city": "ROUND ROCK",
        "state": "TX",
        "postalCode": "78665-8032"
      },
      {
        "line": [
          "900 W 38th St Ste 200"
        ],
        "city": "AUSTIN",
        "state": "TX",
        "postalCode": "78705-1129"
      },
      {
        "line": [
          "2400 Round Rock Ave"
        ],
        "city": "ROUND ROCK",
        "state": "TX",
        "postalCode": "78681-4004"
      },
      {
        "line": [
          "4611 Guadalupe St Ste 100"
        ],
        "city": "AUSTIN",
        "state": "TX",
        "postalCode": "78751-2928"
      },
      {
        "line": [
          "4307 James Casey St"
        ],
        "city": "AUSTIN",
        "state": "TX",
        "postalCode": "78745-3365"
      },
      {
        "line": [
          "16030 Park Valley Dr"
        ],
        "city": "ROUND ROCK",
        "state": "TX",
        "postalCode": "78681-3647"
      },
      {
        "line": [
          "6001 Kyle Pkwy"
        ],
        "city": "KYLE",
        "state": "TX",
        "postalCode": "78640-6112"
      },
      {
        "line": [
          "6818 AUSTIN CENTER BLVD Suite 100"
        ],
        "city": "AUSTIN",
        "state": "TX",
        "postalCode": "78731-3100"
      }
    ],
    "extension": [
      {
        "url": "https://fhir.athena.io/StructureDefinition/ah-practice",
        "valueReference": {
          "reference": "Organization/a-1.Practice-8363"
        }
      },
      {
        "url": "https://fhir.athena.io/StructureDefinition/ah-brand",
        "valueReference": {
          "reference": "Organization/a-8363.Brand-1"
        }
      }
    ]
  },
  "fullUrl": "urn:uuid:ac4b3237-2a64-5205-98ec-45de8e3853da"
}