{
  "resource": {
    "resourceType": "Organization",
    "id": "9150014a-36ea-515d-bed1-52f322ac4800",
    "name": "YMCA of Boise City Idaho",
    "endpoint": [
      {
        "reference": "Endpoint/27a4e967-47aa-5a9c-a572-b8297ee268a2"
      },
      {
        "reference": "Endpoint/abb5f7d5-468e-5806-be46-fb2282afef02"
      }
    ],
    "identifier": [
      {
        "system": "http://hl7.org/fhir/sid/us-npi",
        "value": "1427504398"
      }
    ],
    "address": [
      {
        "line": [
          "1050 W State Street"
        ],
        "city": "BOISE",
        "state": "ID",
        "postalCode": "83702-5442"
      },
      {
        "line": [
          "801 Pole Line Road W."
        ],
        "city": "TWIN FALLS",
        "state": "ID",
        "postalCode": "83301-5810"
      },
      {
        "line": [
          "895 N 6th E St"
        ],
        "city": "MOUNTAIN HOME",
        "state": "ID",
        "postalCode": "83647-2207"
      },
      {
        "line": [
          "936 W. Taylor Ave."
        ],
        "city": "MERIDIAN",
        "state": "ID",
        "postalCode": "83642-8047"
      },
      {
        "line": [
          "101 saddle rd"
        ],
        "city": "KETCHUM",
        "state": "ID",
        "postalCode": "83340-1234"
      },
      {
        "line": [
          "5959 N Discovery Way"
        ],
        "city": "BOISE",
        "state": "ID",
        "postalCode": "83713-1556"
      },
      {
        "line": [
          "1177 W. State St."
        ],
        "city": "BOISE",
        "state": "ID",
        "postalCode": "83702-8364"
      },
      {
        "line": [
          "1150 W State Street"
        ],
        "city": "BOISE",
        "state": "ID",
        "postalCode": "83702-5327"
      },
      {
        "line": [
          "12650 W Bridger St #100"
        ],
        "city": "BOISE",
        "state": "ID",
        "postalCode": "83713-1234"
      },
      {
        "line": [
          "6151 N. Discovery Way"
        ],
        "city": "BOISE",
        "state": "ID",
        "postalCode": "83713-1556"
      },
      {
        "line": [
          "3720 S. Indiana"
        ],
        "city": "CALDWELL",
        "state": "ID",
        "postalCode": "83605-6457"
      }
    ],
    "extension": [
      {
        "url": "https://fhir.athena.io/StructureDefinition/ah-practice",
        "valueReference": {
          "reference": "Organization/a-1.Practice-14268"
        }
      },
      {
        "url": "https://fhir.athena.io/StructureDefinition/ah-brand",
        "valueReference": {
          "reference": "Organization/a-14268.Brand-1"
        }
      }
    ]
  },
  "fullUrl": "urn:uuid:9150014a-36ea-515d-bed1-52f322ac4800"
}