{
  "resource": {
    "resourceType": "Organization",
    "id": "fea19dcf-f949-550b-bd78-b6977397e95c",
    "name": "Life Line Community Healthcare",
    "endpoint": [
      {
        "reference": "Endpoint/27a4e967-47aa-5a9c-a572-b8297ee268a2"
      },
      {
        "reference": "Endpoint/62fb0446-281c-5add-9487-50c6fd7b90e3"
      }
    ],
    "identifier": [
      {
        "system": "http://hl7.org/fhir/sid/us-npi",
        "value": "1093118853"
      },
      {
        "system": "http://hl7.org/fhir/sid/us-npi",
        "value": "1598193062"
      },
      {
        "system": "http://hl7.org/fhir/sid/us-npi",
        "value": "1033519657"
      },
      {
        "system": "http://hl7.org/fhir/sid/us-npi",
        "value": "1942629746"
      }
    ],
    "address": [
      {
        "line": [
          "3 Executive Drive",
          "Ste 278"
        ],
        "city": "BEDFORD",
        "state": "NH",
        "postalCode": "03110-7067"
      },
      {
        "line": [
          "5111 Abercorn Street"
        ],
        "city": "SAVANNAH",
        "state": "GA",
        "postalCode": "31405-5214"
      },
      {
        "line": [
          "14925 North Blvd"
        ],
        "city": "TAMPA",
        "state": "FL",
        "postalCode": "33613-1503"
      },
      {
        "line": [
          "1039 West Mason Str"
        ],
        "city": "GREEN BAY",
        "state": "WI",
        "postalCode": "54303-1842"
      },
      {
        "line": [
          "945 Concord Street"
        ],
        "city": "FRAMINGHAM",
        "state": "MA",
        "postalCode": "01701-4613"
      },
      {
        "line": [
          "1629 K Street NW",
          "Ste 300"
        ],
        "city": "WASHINGTON",
        "state": "DC",
        "postalCode": "20006-1631"
      },
      {
        "line": [
          "1997 Annapolis Exchange Pkwy",
          "Suite 300"
        ],
        "city": "ANNAPOLIS",
        "state": "MD",
        "postalCode": "21401-3273"
      },
      {
        "line": [
          "3900 Westerre Pkwy",
          "Ste 300"
        ],
        "city": "HENRICO",
        "state": "VA",
        "postalCode": "23233-1339"
      },
      {
        "line": [
          "2535 E Broadway St"
        ],
        "city": "PEARLAND",
        "state": "TX",
        "postalCode": "77581-4901"
      },
      {
        "line": [
          "101 S Reid St",
          "Ste 307"
        ],
        "city": "SIOUX FALLS",
        "state": "SD",
        "postalCode": "57103-7045"
      },
      {
        "line": [
          "16500 Houston National Blvd"
        ],
        "city": "HOUSTON",
        "state": "TX",
        "postalCode": "77095-6908"
      },
      {
        "line": [
          "901 S. Mopac Expy, Bld. 2, Suite 130"
        ],
        "city": "AUSTIN",
        "state": "TX",
        "postalCode": "78746-5776"
      },
      {
        "line": [
          "309 Court Avenue",
          "Ste 816"
        ],
        "city": "DES MOINES",
        "state": "IA",
        "postalCode": "50309-2282"
      },
      {
        "line": [
          "5 Washington Street",
          "Ste 300-77"
        ],
        "city": "VALPARAISO",
        "state": "IN",
        "postalCode": "46383-4768"
      },
      {
        "line": [
          "5505 Hansel Ave"
        ],
        "city": "ORLANDO",
        "state": "FL",
        "postalCode": "32809-3404"
      },
      {
        "line": [
          "3970 Post Road"
        ],
        "city": "WARWICK",
        "state": "RI",
        "postalCode": "02886-9235"
      },
      {
        "line": [
          "625 Kenmoor Avenue S.E., Suite 301,"
        ],
        "city": "GRAND RAPIDS",
        "state": "MI",
        "postalCode": "49546-2395"
      },
      {
        "line": [
          "5615 Savoy Dr"
        ],
        "city": "HOUSTON",
        "state": "TX",
        "postalCode": "77036-2548"
      },
      {
        "line": [
          "301 Grant St",
          "Ste 270"
        ],
        "city": "PITTSBURGH",
        "state": "PA",
        "postalCode": "15219-1408"
      },
      {
        "line": [
          "9850 Von Allmen Court",
          "Ste 201"
        ],
        "city": "LOUISVILLE",
        "state": "KY",
        "postalCode": "40241-2855"
      },
      {
        "line": [
          "18444 N 25th Avenue",
          "#420"
        ],
        "city": "PHOENIX",
        "state": "AZ",
        "postalCode": "85023-1261"
      },
      {
        "line": [
          "714 Alpine St"
        ],
        "city": "LOS ANGELES",
        "state": "CA",
        "postalCode": "90012-2904"
      },
      {
        "line": [
          "9005 Overlook Blvd"
        ],
        "city": "BRENTWOOD",
        "state": "TN",
        "postalCode": "37027-5269"
      },
      {
        "line": [
          "9427 Joseph Campau St"
        ],
        "city": "HAMTRAMCK",
        "state": "MI",
        "postalCode": "48212-3435"
      },
      {
        "line": [
          "166 Edwards ST NW"
        ],
        "city": "ATLANTA",
        "state": "GA",
        "postalCode": "30314-2135"
      },
      {
        "line": [
          "706 N. 129th Str.",
          "Ste. 100"
        ],
        "city": "OMAHA",
        "state": "NE",
        "postalCode": "68154-6116"
      },
      {
        "line": [
          "7380 W Sand Road",
          "Suite 500"
        ],
        "city": "ORLANDO",
        "state": "FL",
        "postalCode": "32819-5257"
      },
      {
        "line": [
          "75-47 Metropolitan Ave"
        ],
        "city": "MIDDLE VILLAGE",
        "state": "NY",
        "postalCode": "11379-2638"
      },
      {
        "line": [
          "730 Mandalay Road"
        ],
        "city": "JACKSONVILLE",
        "state": "FL",
        "postalCode": "32216-3202"
      },
      {
        "line": [
          "5129 S Indiana Ave"
        ],
        "city": "CHICAGO",
        "state": "IL",
        "postalCode": "60615-3407"
      },
      {
        "line": [
          "800 West Main Street",
          "Ste 1460"
        ],
        "city": "BOISE",
        "state": "ID",
        "postalCode": "83702-5983"
      },
      {
        "line": [
          "111 W Jackson Blvd",
          "Suite 1700"
        ],
        "city": "CHICAGO",
        "state": "IL",
        "postalCode": "60604-3597"
      },
      {
        "line": [
          "7900 International Drive",
          "Ste 300"
        ],
        "city": "Bloomington",
        "state": "MN",
        "postalCode": "55425-2562"
      },
      {
        "line": [
          "355 S. Teller Street",
          "#200"
        ],
        "city": "DENVER",
        "state": "CO",
        "postalCode": "80226-7391"
      },
      {
        "line": [
          "70 Niagara Str",
          "Ste 013"
        ],
        "city": "BUFFALO",
        "state": "NY",
        "postalCode": "14202-3407"
      },
      {
        "line": [
          "1000 N West St",
          "Suite 1200"
        ],
        "city": "WILMINGTON",
        "state": "DE",
        "postalCode": "19801-1058"
      },
      {
        "line": [
          "4145 SW Watson Ave",
          "Ste 350"
        ],
        "city": "BEAVERTON",
        "state": "OR",
        "postalCode": "97005-2191"
      },
      {
        "line": [
          "7400 Dahlia St"
        ],
        "city": "HOUSTON",
        "state": "TX",
        "postalCode": "77012-2963"
      },
      {
        "line": [
          "400 Chesterfield Center",
          "Ste 400"
        ],
        "city": "CHESTERFIELD",
        "state": "MO",
        "postalCode": "63017-4800"
      },
      {
        "line": [
          "1 EVES DR STE 111"
        ],
        "city": "MARLTON",
        "state": "NJ",
        "postalCode": "08053-3125"
      },
      {
        "line": [
          "63 Federal St",
          "Ste 15"
        ],
        "city": "PORTLAND",
        "state": "ME",
        "postalCode": "04101-4222"
      },
      {
        "line": [
          "4711 Westside Dr"
        ],
        "city": "DALLAS",
        "state": "TX",
        "postalCode": "75209-6021"
      },
      {
        "line": [
          "315 Madison Ave",
          "3rd Floor PMB #3057"
        ],
        "city": "NEW YORK",
        "state": "NY",
        "postalCode": "10017-5455"
      },
      {
        "line": [
          "4801 Lang Ave. NE",
          "Ste 110"
        ],
        "city": "ALBUQUERQUE",
        "state": "NM",
        "postalCode": "87109-4475"
      },
      {
        "line": [
          "7034 Tierwester St"
        ],
        "city": "HOUSTON",
        "state": "TX",
        "postalCode": "77021-4634"
      },
      {
        "line": [
          "1224 Culebra Rd Suite A"
        ],
        "city": "SAN ANTONIO",
        "state": "TX",
        "postalCode": "78201-6051"
      },
      {
        "line": [
          "406 S Boulder Ave.",
          "Ste 400"
        ],
        "city": "TULSA",
        "state": "OK",
        "postalCode": "74103-3800"
      },
      {
        "line": [
          "109 E 17ths Street",
          "Ste 4984"
        ],
        "city": "CHEYENNE",
        "state": "WY",
        "postalCode": "82001-4543"
      },
      {
        "line": [
          "145 Pine Haven Shores Rd",
          "Ste 1000"
        ],
        "city": "SHELBURNE",
        "state": "VT",
        "postalCode": "05482-7812"
      },
      {
        "line": [
          "20071 James Couzens Fwy"
        ],
        "city": "DETROIT",
        "state": "MI",
        "postalCode": "48235-1843"
      },
      {
        "line": [
          "1000 Parkwood Circle",
          "Suite 900"
        ],
        "city": "ATLANTA",
        "state": "GA",
        "postalCode": "30339-2140"
      },
      {
        "line": [
          "1340 Poydras Street",
          "Ste 2000"
        ],
        "city": "NEW ORLEANS",
        "state": "LA",
        "postalCode": "70112-5212"
      },
      {
        "line": [
          "400 West Capitol Avenue",
          "Ste 1700"
        ],
        "city": "LITTLE ROCK",
        "state": "AR",
        "postalCode": "72201-3436"
      },
      {
        "line": [
          "205 Capitol Str.",
          "Ste 208"
        ],
        "city": "CHARLESTON",
        "state": "WV",
        "postalCode": "25301-2231"
      },
      {
        "line": [
          "1201 Pacific Ave",
          "6th Floor"
        ],
        "city": "TACOMA",
        "state": "WA",
        "postalCode": "98402-4393"
      },
      {
        "line": [
          "525 NTryon St",
          "Suite 1600"
        ],
        "city": "CHARLOTTE",
        "state": "NC",
        "postalCode": "28202-0213"
      },
      {
        "line": [
          "25350 Magic Mountain Pkwy",
          "Suite 326"
        ],
        "city": "VALENCIA",
        "state": "CA",
        "postalCode": "91355-1151"
      },
      {
        "line": [
          "800 Joseph E Boone Blvd"
        ],
        "city": "ATLANTA",
        "state": "GA",
        "postalCode": "30314-3340"
      },
      {
        "line": [
          "5220 N Canfield Ave"
        ],
        "city": "CHICAGO",
        "state": "IL",
        "postalCode": "60656-9000"
      },
      {
        "line": [
          "13894 S Bangerter Pkwy",
          "Ste 200"
        ],
        "city": "DRAPER",
        "state": "UT",
        "postalCode": "84020-5320"
      },
      {
        "line": [
          "5455 Flat Shoals Pkwy"
        ],
        "city": "Decatur",
        "state": "GA",
        "postalCode": "30034-5405"
      },
      {
        "line": [
          "900 Trail Ridge Rd",
          "FL 1"
        ],
        "city": "AIKEN",
        "state": "SC",
        "postalCode": "29803-7765"
      },
      {
        "line": [
          "8700 Monrovia St, Ste 310"
        ],
        "city": "LENEXA",
        "state": "KS",
        "postalCode": "66215-3500"
      },
      {
        "line": [
          "836 57th Street",
          "Ste 410"
        ],
        "city": "SACRAMENTO",
        "state": "CA",
        "postalCode": "95819-3327"
      },
      {
        "line": [
          "3058 W Van Buren St"
        ],
        "city": "CHICAGO",
        "state": "IL",
        "postalCode": "60612-2760"
      },
      {
        "line": [
          "7455 Arroyo Crossing",
          "Ste 220"
        ],
        "city": "LAS VEGAS",
        "state": "NV",
        "postalCode": "89113-4088"
      },
      {
        "line": [
          "1925 Grand Avenue",
          "Ste 127"
        ],
        "city": "BILLINGS",
        "state": "MT",
        "postalCode": "59102-2776"
      },
      {
        "line": [
          "193 Ninth St"
        ],
        "city": "BROOKLYN",
        "state": "NY",
        "postalCode": "11215-3901"
      },
      {
        "line": [
          "6111 Oak Tree Blvd, Suite 301"
        ],
        "city": "INDEPENDENCE",
        "state": "OH",
        "postalCode": "44131-2585"
      },
      {
        "line": [
          "10001 66th St. N."
        ],
        "city": "PINELLAS PARK",
        "state": "FL",
        "postalCode": "33782-3014"
      },
      {
        "line": [
          "61-43 186 Str."
        ],
        "city": "FRESH MEADOWS",
        "state": "NY",
        "postalCode": "11365-2710"
      },
      {
        "line": [
          "19 8th Street South",
          "Ste 106"
        ],
        "city": "FARGO",
        "state": "ND",
        "postalCode": "58103-1804"
      },
      {
        "line": [
          "1695 Washington Ave"
        ],
        "city": "BRONX",
        "state": "NY",
        "postalCode": "10457-7403"
      },
      {
        "line": [
          "615 West Johnson Ave",
          "Ste 202"
        ],
        "city": "CHESHIRE",
        "state": "CT",
        "postalCode": "06410-4532"
      },
      {
        "line": [
          "820 Bethsaida Rd"
        ],
        "city": "RIVERDALE",
        "state": "GA",
        "postalCode": "30274-2971"
      }
    ],
    "extension": [
      {
        "url": "https://fhir.athena.io/StructureDefinition/ah-practice",
        "valueReference": {
          "reference": "Organization/a-1.Practice-21667"
        }
      },
      {
        "url": "https://fhir.athena.io/StructureDefinition/ah-brand",
        "valueReference": {
          "reference": "Organization/a-21667.Brand-1"
        }
      }
    ]
  },
  "fullUrl": "urn:uuid:fea19dcf-f949-550b-bd78-b6977397e95c"
}