{
  "resource": {
    "resourceType": "Organization",
    "id": "5e50dd3d-26c0-5afa-9e16-65e44e26c6c0",
    "name": "Permian Basin Kidney Center",
    "endpoint": [
      {
        "reference": "Endpoint/27a4e967-47aa-5a9c-a572-b8297ee268a2"
      },
      {
        "reference": "Endpoint/376d440c-6f5f-5107-90dd-b3ac6a8098d3"
      }
    ],
    "identifier": [
      {
        "system": "http://hl7.org/fhir/sid/us-npi",
        "value": "1285199026"
      }
    ],
    "address": [
      {
        "line": [
          "410 N HANCOCK AVE"
        ],
        "city": "ODESSA",
        "state": "TX",
        "postalCode": "79761-5140"
      },
      {
        "line": [
          "3302 W GOLF COURSE RD"
        ],
        "city": "MIDLAND",
        "state": "TX",
        "postalCode": "79703-5117"
      },
      {
        "line": [
          "410 N Hancock Ave"
        ],
        "city": "ODESSA",
        "state": "TX",
        "postalCode": "79761-5140"
      },
      {
        "line": [
          "511 W Missouri Ave"
        ],
        "city": "MIDLAND",
        "state": "TX",
        "postalCode": "79701-5016"
      },
      {
        "line": [
          "520 E 6TH ST"
        ],
        "city": "ODESSA",
        "state": "TX",
        "postalCode": "79761-4527"
      },
      {
        "line": [
          "400 ROSALIND REDFERN GROVER PKWY"
        ],
        "city": "MIDLAND",
        "state": "TX",
        "postalCode": "79701-5846"
      },
      {
        "line": [
          "410 N Hancock"
        ],
        "city": "ODESSA",
        "state": "TX",
        "postalCode": "79761-5140"
      },
      {
        "line": [
          "500 W 4TH ST FL 4"
        ],
        "city": "ODESSA",
        "state": "TX",
        "postalCode": "79761-5001"
      },
      {
        "line": [
          "500 W 4TH ST"
        ],
        "city": "ODESSA",
        "state": "TX",
        "postalCode": "79761-5001"
      },
      {
        "line": [
          "207 Tradewinds Blvd"
        ],
        "city": "MIDLAND",
        "state": "TX",
        "postalCode": "79706-2807"
      },
      {
        "line": [
          "501 BIRDWELL LN STE 10"
        ],
        "city": "BIG SPRING",
        "state": "TX",
        "postalCode": "79720-3332"
      },
      {
        "line": [
          "387 W INTERSTATE 10 STE C"
        ],
        "city": "FORT STOCKTON",
        "state": "TX",
        "postalCode": "79735-2710"
      },
      {
        "line": [
          "230 N WASHINGTON AVE"
        ],
        "city": "ODESSA",
        "state": "TX",
        "postalCode": "79761-5424"
      },
      {
        "line": [
          "1216 E 8th St"
        ],
        "city": "ODESSA",
        "state": "TX",
        "postalCode": "79761-4638"
      },
      {
        "line": [
          "800 N Texas Ave"
        ],
        "city": "ODESSA",
        "state": "TX",
        "postalCode": "79761-4012"
      },
      {
        "line": [
          "207 TRADEWINDS BLVD STE B"
        ],
        "city": "MIDLAND",
        "state": "TX",
        "postalCode": "79706-2807"
      },
      {
        "line": [
          "1800 HERITAGE BLVD"
        ],
        "city": "MIDLAND",
        "state": "TX",
        "postalCode": "79707-9750"
      }
    ],
    "extension": [
      {
        "url": "https://fhir.athena.io/StructureDefinition/ah-practice",
        "valueReference": {
          "reference": "Organization/a-1.Practice-19285"
        }
      },
      {
        "url": "https://fhir.athena.io/StructureDefinition/ah-brand",
        "valueReference": {
          "reference": "Organization/a-19285.Brand-5"
        }
      }
    ]
  },
  "fullUrl": "urn:uuid:5e50dd3d-26c0-5afa-9e16-65e44e26c6c0"
}