{
  "resource": {
    "resourceType": "Organization",
    "id": "e08fed2a-8227-580f-8153-08cfa677b33e",
    "name": "Autism Diagnostic Center",
    "endpoint": [
      {
        "reference": "Endpoint/27a4e967-47aa-5a9c-a572-b8297ee268a2"
      },
      {
        "reference": "Endpoint/cebbd5e2-734e-563b-a4ce-02dd84e59241"
      }
    ],
    "identifier": [
      {
        "system": "http://hl7.org/fhir/sid/us-npi",
        "value": "1649228966"
      },
      {
        "system": "http://hl7.org/fhir/sid/us-npi",
        "value": "1932402484"
      },
      {
        "system": "http://hl7.org/fhir/sid/us-npi",
        "value": "1285931089"
      },
      {
        "system": "http://hl7.org/fhir/sid/us-npi",
        "value": "1013031368"
      }
    ],
    "address": [
      {
        "line": [
          "441 Piney Forest Road"
        ],
        "city": "DANVILLE",
        "state": "VA",
        "postalCode": "24540-4154"
      },
      {
        "line": [
          "12318 Boydton Plank Road"
        ],
        "city": "DINWIDDIE",
        "state": "VA",
        "postalCode": "23841-2454"
      },
      {
        "line": [
          "30 Pulte Dr."
        ],
        "city": "FREDERICKSBURG",
        "state": "VA",
        "postalCode": "22406-9998"
      },
      {
        "line": [
          "693 Leesville Road"
        ],
        "city": "LYNCHBURG",
        "state": "VA",
        "postalCode": "24502-2828"
      },
      {
        "line": [
          "5163 CLEVELAND STREET"
        ],
        "city": "VIRGINIA BEACH",
        "state": "VA",
        "postalCode": "23462-6501"
      },
      {
        "line": [
          "1314 Riverland Rd. SE"
        ],
        "city": "ROANOKE",
        "state": "VA",
        "postalCode": "24014-3610"
      },
      {
        "line": [
          "800 Oak St."
        ],
        "city": "FARMVILLE",
        "state": "VA",
        "postalCode": "23901-1199"
      },
      {
        "line": [
          "34 MAGNOLIA SQ."
        ],
        "city": "LEXINGTON",
        "state": "VA",
        "postalCode": "24450-9998"
      },
      {
        "line": [
          "1200 Sterrett Rd."
        ],
        "city": "FAIRFIELD",
        "state": "VA",
        "postalCode": "24435-9998"
      }
    ],
    "extension": [
      {
        "url": "https://fhir.athena.io/StructureDefinition/ah-practice",
        "valueReference": {
          "reference": "Organization/a-1.Practice-221"
        }
      },
      {
        "url": "https://fhir.athena.io/StructureDefinition/ah-brand",
        "valueReference": {
          "reference": "Organization/a-221.Brand-1"
        }
      }
    ]
  },
  "fullUrl": "urn:uuid:e08fed2a-8227-580f-8153-08cfa677b33e"
}