{
  "resource": {
    "resourceType": "Organization",
    "id": "df318a9f-da35-5aa6-8dc1-0af2977d8b5a",
    "name": "THOMAS LI CONSULTING LLC",
    "endpoint": [
      {
        "reference": "Endpoint/27a4e967-47aa-5a9c-a572-b8297ee268a2"
      },
      {
        "reference": "Endpoint/88ded5d3-a5a6-5685-8480-73b3628cb18a"
      }
    ],
    "identifier": [
      {
        "system": "http://hl7.org/fhir/sid/us-npi",
        "value": "1013689512"
      }
    ],
    "address": [
      {
        "line": [
          "2741 N SALISBURY ST"
        ],
        "city": "WEST LAFAYETTE",
        "state": "IN",
        "postalCode": "47906-1431"
      },
      {
        "line": [
          "300 WINDY HILL DR"
        ],
        "city": "LAFAYETTE",
        "state": "IN",
        "postalCode": "47905-2862"
      },
      {
        "line": [
          "1120 N MAIN ST"
        ],
        "city": "MONTICELLO",
        "state": "IN",
        "postalCode": "47960-1500"
      },
      {
        "line": [
          "1750 LINDBERG RD"
        ],
        "city": "WEST LAFAYETTE",
        "state": "IN",
        "postalCode": "47906-4956"
      },
      {
        "line": [
          "2201 CASON ST"
        ],
        "city": "LAFAYETTE",
        "state": "IN",
        "postalCode": "47904-2613"
      },
      {
        "line": [
          "200 SHORT ST"
        ],
        "city": "WILLIAMSPORT",
        "state": "IN",
        "postalCode": "47993-1031"
      },
      {
        "line": [
          "814 S 6TH ST"
        ],
        "city": "MONTICELLO",
        "state": "IN",
        "postalCode": "47960-8199"
      },
      {
        "line": [
          "1750 CREASY LANE"
        ],
        "city": "LAFAYETTE",
        "state": "IN",
        "postalCode": "47905-4911"
      },
      {
        "line": [
          "502 W JACKSON ST"
        ],
        "city": "MULBERRY",
        "state": "IN",
        "postalCode": "46058-9538"
      },
      {
        "line": [
          "3575 SENIOR PL"
        ],
        "city": "WEST LAFAYETTE",
        "state": "IN",
        "postalCode": "47906-8656"
      },
      {
        "line": [
          "2402 SOUTH ST"
        ],
        "city": "LAFAYETTE",
        "state": "IN",
        "postalCode": "47904-3063"
      },
      {
        "line": [
          "1287 E MAIN ST"
        ],
        "city": "ATTICA",
        "state": "IN",
        "postalCode": "47918-8053"
      },
      {
        "line": [
          "3401 SOLDIERS HOME RD"
        ],
        "city": "WEST LAFAYETTE",
        "state": "IN",
        "postalCode": "47906-1222"
      },
      {
        "line": [
          "370 E MAIN ST"
        ],
        "city": "ROSSVILLE",
        "state": "IN",
        "postalCode": "46065-9495"
      },
      {
        "line": [
          "1700 LINDBERG RD"
        ],
        "city": "WEST LAFAYETTE",
        "state": "IN",
        "postalCode": "47906-7317"
      },
      {
        "line": [
          "427 MAIN ST., SUITE 210"
        ],
        "city": "LAFAYETTE",
        "state": "IN",
        "postalCode": "47901-1369"
      },
      {
        "line": [
          "208 BECK LANE"
        ],
        "city": "LAFAYETTE",
        "state": "IN",
        "postalCode": "47909-3033"
      },
      {
        "line": [
          "701 ARMORY RD"
        ],
        "city": "DELPHI",
        "state": "IN",
        "postalCode": "46923-1915"
      },
      {
        "line": [
          "1051 CUMBERLAND AVE"
        ],
        "city": "WEST LAFAYETTE",
        "state": "IN",
        "postalCode": "47906-1447"
      },
      {
        "line": [
          "1205 N 14TH ST"
        ],
        "city": "LAFAYETTE",
        "state": "IN",
        "postalCode": "47904-2024"
      },
      {
        "line": [
          "2741 N SALSBURY ST"
        ],
        "city": "WEST LAFAYETTE",
        "state": "IN",
        "postalCode": "47906-1431"
      },
      {
        "line": [
          "5307 N 50 W"
        ],
        "city": "WEST LAFAYETTE",
        "state": "IN",
        "postalCode": "47906-9736"
      },
      {
        "line": [
          "427 Main St"
        ],
        "city": "LAFAYETTE",
        "state": "IN",
        "postalCode": "47901-1369"
      },
      {
        "line": [
          "741 PARK E BLVD"
        ],
        "city": "LAFAYETTE",
        "state": "IN",
        "postalCode": "47905-0797"
      }
    ],
    "extension": [
      {
        "url": "https://fhir.athena.io/StructureDefinition/ah-practice",
        "valueReference": {
          "reference": "Organization/a-1.Practice-25124"
        }
      },
      {
        "url": "https://fhir.athena.io/StructureDefinition/ah-brand",
        "valueReference": {
          "reference": "Organization/a-25124.Brand-1"
        }
      }
    ]
  },
  "fullUrl": "urn:uuid:df318a9f-da35-5aa6-8dc1-0af2977d8b5a"
}