{
  "resource": {
    "resourceType": "Organization",
    "id": "d7117fd3-6392-54d1-a0f5-6e3dd43769f7",
    "name": "ARNP Services, Limited Company",
    "endpoint": [
      {
        "reference": "Endpoint/27a4e967-47aa-5a9c-a572-b8297ee268a2"
      },
      {
        "reference": "Endpoint/4e431fe6-6db9-50db-9581-d4fc0b1f48da"
      }
    ],
    "identifier": [
      {
        "system": "http://hl7.org/fhir/sid/us-npi",
        "value": "1376762575"
      }
    ],
    "address": [
      {
        "line": [
          "13300 S. CLEVELAND AVE",
          "SUITE 206"
        ],
        "city": "FORT MYERS",
        "state": "FL",
        "postalCode": "33907-3886"
      },
      {
        "line": [
          "7460 LAKE BREEZE DR"
        ],
        "city": "FORT MYERS",
        "state": "FL",
        "postalCode": "33907-8090"
      },
      {
        "line": [
          "825 SANTA BARBARA BLVD"
        ],
        "city": "CAPE CORAL",
        "state": "FL",
        "postalCode": "33991-2072"
      },
      {
        "line": [
          "18440 COCHRAN BOULEVARD"
        ],
        "city": "PORT CHARLOTTE",
        "state": "FL",
        "postalCode": "33948-3339"
      },
      {
        "line": [
          "2621 SW 37 TERRACE"
        ],
        "city": "CAPE CORAL",
        "state": "FL",
        "postalCode": "33914-4888"
      },
      {
        "line": [
          "925 S RIVER RD."
        ],
        "city": "ENGLEWOOD",
        "state": "FL",
        "postalCode": "34223-3909"
      },
      {
        "line": [
          "1222 SE 47TH ST STE 119-120"
        ],
        "city": "CAPE CORAL",
        "state": "FL",
        "postalCode": "33904-9661"
      },
      {
        "line": [
          "1318 SANTA BARBARA BLVD"
        ],
        "city": "CAPE CORAL",
        "state": "FL",
        "postalCode": "33991-2855"
      },
      {
        "line": [
          "9461 HEALTHPARK CIR"
        ],
        "city": "FORT MYERS",
        "state": "FL",
        "postalCode": "33908-3614"
      },
      {
        "line": [
          "13410 PARKER COMMONS BLVD STE 105"
        ],
        "city": "FORT MYERS",
        "state": "FL",
        "postalCode": "33912-1867"
      },
      {
        "line": [
          "6722 WINKLER RD."
        ],
        "city": "FORT MYERS",
        "state": "FL",
        "postalCode": "33919-7204"
      },
      {
        "line": [
          "17 NE 8TH PL"
        ],
        "city": "CAPE CORAL",
        "state": "FL",
        "postalCode": "33909-2561"
      },
      {
        "line": [
          "3625 HIDDEN TREE LANE"
        ],
        "city": "FORT MYERS",
        "state": "FL",
        "postalCode": "33901-3833"
      },
      {
        "line": [
          "1416 COUNTRY CLUB BLVD."
        ],
        "city": "CAPE CORAL",
        "state": "FL",
        "postalCode": "33990-2199"
      },
      {
        "line": [
          "1727 NW 19TH TER"
        ],
        "city": "CAPE CORAL",
        "state": "FL",
        "postalCode": "33993-4915"
      },
      {
        "line": [
          "1209 NW 35TH PLACE"
        ],
        "city": "CAPE CORAL",
        "state": "FL",
        "postalCode": "33993-9408"
      },
      {
        "line": [
          "911 SANTA BARBARA BLVD"
        ],
        "city": "CAPE CORAL",
        "state": "FL",
        "postalCode": "33991-2074"
      },
      {
        "line": [
          "103 SHAW BLVD"
        ],
        "city": "FORT MYERS",
        "state": "FL",
        "postalCode": "33905-2632"
      },
      {
        "line": [
          "13300 S CLEVELAND AVE STE 206"
        ],
        "city": "FORT MYERS",
        "state": "FL",
        "postalCode": "33907-3886"
      },
      {
        "line": [
          "4920 VICEROY CT"
        ],
        "city": "CAPE CORAL",
        "state": "FL",
        "postalCode": "33904-9048"
      },
      {
        "line": [
          "3501 HANCOCK BRIDGE PKWY"
        ],
        "city": "NORTH FORT MYERS",
        "state": "FL",
        "postalCode": "33903-7126"
      },
      {
        "line": [
          "1909 NW 12TH AVE"
        ],
        "city": "CAPE CORAL",
        "state": "FL",
        "postalCode": "33993-3971"
      },
      {
        "line": [
          "1333 SANTA BARBARA BLVD"
        ],
        "city": "CAPE CORAL",
        "state": "FL",
        "postalCode": "33991-2803"
      },
      {
        "line": [
          "6225 PRESIDENTIAL CT STE 100"
        ],
        "city": "FORT MYERS",
        "state": "FL",
        "postalCode": "33919-3530"
      },
      {
        "line": [
          "711 CRESTLINE AVE S."
        ],
        "city": "LEHIGH ACRES",
        "state": "FL",
        "postalCode": "33974-0723"
      },
      {
        "line": [
          "2704 NW 45TH PL"
        ],
        "city": "CAPE CORAL",
        "state": "FL",
        "postalCode": "33993-8015"
      },
      {
        "line": [
          "3501 HANCOCK BRIDGE PKWY"
        ],
        "city": "NORTH FORT MYERS",
        "state": "FL",
        "postalCode": "33903-7160"
      },
      {
        "line": [
          "212 SE 21ST ST"
        ],
        "city": "CAPE CORAL",
        "state": "FL",
        "postalCode": "33990-4359"
      },
      {
        "line": [
          "208 SW 22 ST"
        ],
        "city": "CAPE CORAL",
        "state": "FL",
        "postalCode": "33991-4329"
      },
      {
        "line": [
          "4616 SW 7TH PL"
        ],
        "city": "CAPE CORAL",
        "state": "FL",
        "postalCode": "33914-6442"
      },
      {
        "line": [
          "1251 BUSINESS WAY"
        ],
        "city": "LEHIGH ACRES",
        "state": "FL",
        "postalCode": "33936-6046"
      },
      {
        "line": [
          "550 ROTONDA BLVD W"
        ],
        "city": "ROTONDA WEST",
        "state": "FL",
        "postalCode": "33947-2533"
      },
      {
        "line": [
          "804 SE 16TH PLACE"
        ],
        "city": "CAPE CORAL",
        "state": "FL",
        "postalCode": "33990-1645"
      },
      {
        "line": [
          "1041 NE PINE ISLAND LANE"
        ],
        "city": "CAPE CORAL",
        "state": "FL",
        "postalCode": "33909-2176"
      },
      {
        "line": [
          "12995 S CLEVELAND AVE STE 232"
        ],
        "city": "FORT MYERS",
        "state": "FL",
        "postalCode": "33907-3809"
      },
      {
        "line": [
          "101 NE 9TH CT"
        ],
        "city": "CAPE CORAL",
        "state": "FL",
        "postalCode": "33909-2674"
      }
    ],
    "extension": [
      {
        "url": "https://fhir.athena.io/StructureDefinition/ah-practice",
        "valueReference": {
          "reference": "Organization/a-1.Practice-22946"
        }
      },
      {
        "url": "https://fhir.athena.io/StructureDefinition/ah-brand",
        "valueReference": {
          "reference": "Organization/a-22946.Brand-1"
        }
      }
    ]
  },
  "fullUrl": "urn:uuid:d7117fd3-6392-54d1-a0f5-6e3dd43769f7"
}