{
  "resource": {
    "resourceType": "Organization",
    "id": "acd50dd8-ec9a-552c-b0a7-519ac4adfc4b",
    "name": "Main Office",
    "endpoint": [
      {
        "reference": "Endpoint/27a4e967-47aa-5a9c-a572-b8297ee268a2"
      },
      {
        "reference": "Endpoint/8b1559a0-f3f3-5fc0-a8fb-725fb4cc95dd"
      }
    ],
    "identifier": [
      {
        "system": "http://hl7.org/fhir/sid/us-npi",
        "value": "1215475173"
      }
    ],
    "address": [
      {
        "line": [
          "520 Main Street"
        ],
        "city": "MANISTIQUE",
        "state": "MI",
        "postalCode": "49854-1598"
      },
      {
        "line": [
          "2532 West Cadillac Drive"
        ],
        "city": "FARWELL",
        "state": "MI",
        "postalCode": "48622-9757"
      },
      {
        "line": [
          "517 Erie St South"
        ],
        "city": "THREE RIVERS",
        "state": "MI",
        "postalCode": "49093-2029"
      },
      {
        "line": [
          "3601 SOUTH 9TH ST."
        ],
        "city": "KALAMAZOO",
        "state": "MI",
        "postalCode": "49009-9538"
      },
      {
        "line": [
          "7855 Currier Drive"
        ],
        "city": "PORTAGE",
        "state": "MI",
        "postalCode": "49002-4314"
      },
      {
        "line": [
          "3145 W MOUNT HOPE AVE"
        ],
        "city": "LANSING",
        "state": "MI",
        "postalCode": "48911-1655"
      },
      {
        "line": [
          "600 Denmark St"
        ],
        "city": "BALDWIN",
        "state": "MI",
        "postalCode": "49304-7500"
      },
      {
        "line": [
          "425 Elm St"
        ],
        "city": "WAYLAND",
        "state": "MI",
        "postalCode": "49348-1109"
      }
    ],
    "extension": [
      {
        "url": "https://fhir.athena.io/StructureDefinition/ah-practice",
        "valueReference": {
          "reference": "Organization/a-1.Practice-15275"
        }
      },
      {
        "url": "https://fhir.athena.io/StructureDefinition/ah-brand",
        "valueReference": {
          "reference": "Organization/a-15275.Brand-1"
        }
      }
    ]
  },
  "fullUrl": "urn:uuid:acd50dd8-ec9a-552c-b0a7-519ac4adfc4b"
}