{
  "resource": {
    "resourceType": "Organization",
    "id": "398a525a-fa93-5536-8fa9-0f640665220f",
    "name": "Family Foot and Ankle Center of San Antonio",
    "endpoint": [
      {
        "reference": "Endpoint/27a4e967-47aa-5a9c-a572-b8297ee268a2"
      },
      {
        "reference": "Endpoint/de827b15-167d-5e8c-affd-204d3a540a42"
      }
    ],
    "identifier": [
      {
        "system": "http://hl7.org/fhir/sid/us-npi",
        "value": "1770235616"
      }
    ],
    "address": [
      {
        "line": [
          "6510 BABCOCK RD STE 105"
        ],
        "city": "SAN ANTONIO",
        "state": "TX",
        "postalCode": "78249-2302"
      },
      {
        "line": [
          "9522 HUEBNER RD"
        ],
        "city": "SAN ANTONIO",
        "state": "TX",
        "postalCode": "78240-1548"
      },
      {
        "line": [
          "9150 HUEBNER RD STE 345"
        ],
        "city": "SAN ANTONIO",
        "state": "TX",
        "postalCode": "78240-1558"
      },
      {
        "line": [
          "7700 FLOYD CURL DR"
        ],
        "city": "SAN ANTONIO",
        "state": "TX",
        "postalCode": "78229-3902"
      },
      {
        "line": [
          "2827 BABCOCK RD"
        ],
        "city": "SAN ANTONIO",
        "state": "TX",
        "postalCode": "78229-4813"
      },
      {
        "line": [
          "5711 UNIVERSITY HTS STE 105"
        ],
        "city": "SAN ANTONIO",
        "state": "TX",
        "postalCode": "78249-3555"
      },
      {
        "line": [
          "9150 huebner"
        ],
        "city": "SAN ANTONIO",
        "state": "TX",
        "postalCode": "78229-0000"
      },
      {
        "line": [
          "7930 FLOYD CURL DR"
        ],
        "city": "SAN ANTONIO",
        "state": "TX",
        "postalCode": "78229-3925"
      },
      {
        "line": [
          "110 MENGER SPGS"
        ],
        "city": "BOERNE",
        "state": "TX",
        "postalCode": "78006-7214"
      },
      {
        "line": [
          "11212 STATE HIGHWAY 151"
        ],
        "city": "SAN ANTONIO",
        "state": "TX",
        "postalCode": "78251-4498"
      }
    ],
    "extension": [
      {
        "url": "https://fhir.athena.io/StructureDefinition/ah-practice",
        "valueReference": {
          "reference": "Organization/a-1.Practice-24928"
        }
      },
      {
        "url": "https://fhir.athena.io/StructureDefinition/ah-brand",
        "valueReference": {
          "reference": "Organization/a-24928.Brand-1"
        }
      }
    ]
  },
  "fullUrl": "urn:uuid:398a525a-fa93-5536-8fa9-0f640665220f"
}