{
  "resource": {
    "resourceType": "Organization",
    "id": "983bcb5d-ce97-5c87-8a5c-f357dfab3a39",
    "name": "JAMES J CHAO, MD, FACS A PROFESSIONAL CORPORATION",
    "endpoint": [
      {
        "reference": "Endpoint/27a4e967-47aa-5a9c-a572-b8297ee268a2"
      },
      {
        "reference": "Endpoint/0b79344a-e5c4-5719-8cdf-0467425aa561"
      }
    ],
    "identifier": [
      {
        "system": "http://hl7.org/fhir/sid/us-npi",
        "value": "1861746703"
      }
    ],
    "address": [
      {
        "line": [
          "5555 GROSSMONT CENTER DR"
        ],
        "city": "LA MESA",
        "state": "CA",
        "postalCode": "91942-3019"
      },
      {
        "line": [
          "2185 CITRACADO PARKWAY"
        ],
        "city": "ESCONDIDO",
        "state": "CA",
        "postalCode": "92029-4159"
      },
      {
        "line": [
          "499 N. El Camino Real",
          "Suite C-200"
        ],
        "city": "ENCINITAS",
        "state": "CA",
        "postalCode": "92024-1358"
      },
      {
        "line": [
          "28062 BAXTER RD"
        ],
        "city": "MURRIETA",
        "state": "CA",
        "postalCode": "92563-1401"
      },
      {
        "line": [
          "25495 MEDICAL CENTER DR # 101"
        ],
        "city": "MURRIETA",
        "state": "CA",
        "postalCode": "92562-4902"
      },
      {
        "line": [
          "8901 ACTIVITY RD."
        ],
        "city": "SAN DIEGO",
        "state": "CA",
        "postalCode": "92126-4426"
      },
      {
        "line": [
          "5555 GROSSMONT SENTER DR"
        ],
        "city": "LA MESA",
        "state": "CA",
        "postalCode": "91942-3019"
      },
      {
        "line": [
          "354 RANCHO SANTA FE"
        ],
        "city": "SAN DIEGO",
        "state": "CA",
        "postalCode": "92103-2105"
      }
    ],
    "extension": [
      {
        "url": "https://fhir.athena.io/StructureDefinition/ah-practice",
        "valueReference": {
          "reference": "Organization/a-1.Practice-10269"
        }
      },
      {
        "url": "https://fhir.athena.io/StructureDefinition/ah-brand",
        "valueReference": {
          "reference": "Organization/a-10269.Brand-2"
        }
      }
    ]
  },
  "fullUrl": "urn:uuid:983bcb5d-ce97-5c87-8a5c-f357dfab3a39"
}