{
  "resource": {
    "resourceType": "Organization",
    "id": "4d7f3afd-8b47-50d1-965e-5cef57ed7c18",
    "name": "NWCare Inc",
    "endpoint": [
      {
        "reference": "Endpoint/27a4e967-47aa-5a9c-a572-b8297ee268a2"
      },
      {
        "reference": "Endpoint/d8971d00-940b-5ed1-91c8-2012396424f7"
      }
    ],
    "identifier": [
      {
        "system": "http://hl7.org/fhir/sid/us-npi",
        "value": "1528653995"
      }
    ],
    "address": [
      {
        "line": [
          "515 GRANT AVE"
        ],
        "city": "COTTAGE GROVE",
        "state": "OR",
        "postalCode": "97424-2967"
      },
      {
        "line": [
          "745 NE 122ND AVE"
        ],
        "city": "PORTLAND",
        "state": "OR",
        "postalCode": "97230-2001"
      },
      {
        "line": [
          "7071 SW RICE CT"
        ],
        "city": "PORTLAND",
        "state": "OR",
        "postalCode": "97223-1362"
      },
      {
        "line": [
          "950 N CASCADE DR"
        ],
        "city": "WOODBURN",
        "state": "OR",
        "postalCode": "97071-3103"
      },
      {
        "line": [
          "3325 COLUMBIA VIEW DR"
        ],
        "city": "THE DALLES",
        "state": "OR",
        "postalCode": "97058-9740"
      },
      {
        "line": [
          "33910 E COLUMBIA AVE"
        ],
        "city": "SCAPPOOSE",
        "state": "OR",
        "postalCode": "97056-3309"
      },
      {
        "line": [
          "421 SE EVANS ST"
        ],
        "city": "MCMINNVILLE",
        "state": "OR",
        "postalCode": "97128-6111"
      },
      {
        "line": [
          "5353 COLUMBUS ST SE"
        ],
        "city": "ALBANY",
        "state": "OR",
        "postalCode": "97322-7136"
      },
      {
        "line": [
          "4254 WEATHERS ST NE"
        ],
        "city": "SALEM",
        "state": "OR",
        "postalCode": "97301-1933"
      },
      {
        "line": [
          "1005 NE 17TH AVE"
        ],
        "city": "HILLSBORO",
        "state": "OR",
        "postalCode": "97124-2701"
      },
      {
        "line": [
          "6135 E ST"
        ],
        "city": "SPRINGFIELD",
        "state": "OR",
        "postalCode": "97478-7023"
      },
      {
        "line": [
          "6452 A ST"
        ],
        "city": "SPRINGFIELD",
        "state": "OR",
        "postalCode": "97478-7049"
      },
      {
        "line": [
          "2669 S CLOVERLEAF LOOP"
        ],
        "city": "SPRINGFIELD",
        "state": "OR",
        "postalCode": "97477-1179"
      },
      {
        "line": [
          "2599 NE STUDIO RD"
        ],
        "city": "BEND",
        "state": "OR",
        "postalCode": "97701-9878"
      },
      {
        "line": [
          "365 SW BELAIR DR"
        ],
        "city": "CLATSKANIE",
        "state": "OR",
        "postalCode": "97016-7414"
      },
      {
        "line": [
          "155 S EVERGREEN RD"
        ],
        "city": "WOODBURN",
        "state": "OR",
        "postalCode": "97071-2974"
      },
      {
        "line": [
          "1420 REDWOOD CIR"
        ],
        "city": "GRANTS PASS",
        "state": "OR",
        "postalCode": "97527-5536"
      },
      {
        "line": [
          "835 E MAIN ST"
        ],
        "city": "MOLALLA",
        "state": "OR",
        "postalCode": "97038-8117"
      },
      {
        "line": [
          "2890 OCEAN BLVD SE"
        ],
        "city": "COOS BAY",
        "state": "OR",
        "postalCode": "97420-3530"
      },
      {
        "line": [
          "1805 WALN DR SE"
        ],
        "city": "SALEM",
        "state": "OR",
        "postalCode": "97306-2990"
      },
      {
        "line": [
          "707 SW 37TH ST"
        ],
        "city": "PENDLETON",
        "state": "OR",
        "postalCode": "97801-3605"
      },
      {
        "line": [
          "3491 GAME FARM RD"
        ],
        "city": "SPRINGFIELD",
        "state": "OR",
        "postalCode": "97477-7522"
      },
      {
        "line": [
          "6921 N ROBERTS AVE"
        ],
        "city": "PORTLAND",
        "state": "OR",
        "postalCode": "97203-6361"
      },
      {
        "line": [
          "131 ALDER ST"
        ],
        "city": "CENTRAL POINT",
        "state": "OR",
        "postalCode": "97502-2200"
      },
      {
        "line": [
          "2950 BOONE RD SE"
        ],
        "city": "SALEM",
        "state": "OR",
        "postalCode": "97306-9399"
      },
      {
        "line": [
          "2630 LONE OAK WAY"
        ],
        "city": "EUGENE",
        "state": "OR",
        "postalCode": "97404-2547"
      },
      {
        "line": [
          "4050 12TH ST CUT OFF SE"
        ],
        "city": "SALEM",
        "state": "OR",
        "postalCode": "97302-1775"
      },
      {
        "line": [
          "2800 14TH AVE SE"
        ],
        "city": "ALBANY",
        "state": "OR",
        "postalCode": "97322-7079"
      },
      {
        "line": [
          "5881 WOODSIDE DR SE"
        ],
        "city": "SALEM",
        "state": "OR",
        "postalCode": "97306-9695"
      },
      {
        "line": [
          "210 ROE DAVIS AVE"
        ],
        "city": "HINES",
        "state": "OR",
        "postalCode": "97738-9406"
      },
      {
        "line": [
          "175 NE 16TH ST"
        ],
        "city": "MADRAS",
        "state": "OR",
        "postalCode": "97741-2219"
      },
      {
        "line": [
          "625 STEVENS ST"
        ],
        "city": "MEDFORD",
        "state": "OR",
        "postalCode": "97504-6719"
      },
      {
        "line": [
          "6003 SE 136TH AVE"
        ],
        "city": "PORTLAND",
        "state": "OR",
        "postalCode": "97236-4567"
      },
      {
        "line": [
          "3321 OAK ST"
        ],
        "city": "FLORENCE",
        "state": "OR",
        "postalCode": "97439-9515"
      },
      {
        "line": [
          "20215 POWERS RD"
        ],
        "city": "BEND",
        "state": "OR",
        "postalCode": "97702-3705"
      },
      {
        "line": [
          "2321 Ollalie Ln"
        ],
        "city": "WARM SPRINGS",
        "state": "OR",
        "postalCode": "97761-0006"
      },
      {
        "line": [
          "3720 N CLAREY ST"
        ],
        "city": "EUGENE",
        "state": "OR",
        "postalCode": "97402-8744"
      },
      {
        "line": [
          "178 COMMONS DR"
        ],
        "city": "EUGENE",
        "state": "OR",
        "postalCode": "97401-8923"
      },
      {
        "line": [
          "872 GOLF VIEW DR"
        ],
        "city": "MEDFORD",
        "state": "OR",
        "postalCode": "97504-9651"
      },
      {
        "line": [
          "65W W 30TH AVE"
        ],
        "city": "EUGENE",
        "state": "OR",
        "postalCode": "97405-3373"
      },
      {
        "line": [
          "119 SE WILSON AVE"
        ],
        "city": "BEND",
        "state": "OR",
        "postalCode": "97702-1714"
      },
      {
        "line": [
          "3535 E GAME FARM RD"
        ],
        "city": "SPRINGFIELD",
        "state": "OR",
        "postalCode": "97477-1002"
      },
      {
        "line": [
          "4156 MARKET ST NE"
        ],
        "city": "SALEM",
        "state": "OR",
        "postalCode": "97301-2165"
      },
      {
        "line": [
          "250 KENNEL AVE"
        ],
        "city": "MOLALLA",
        "state": "OR",
        "postalCode": "97038-9330"
      },
      {
        "line": [
          "735 S 2ND ST"
        ],
        "city": "CRESWELL",
        "state": "OR",
        "postalCode": "97426-7507"
      },
      {
        "line": [
          "525 SW ANIQUE LN"
        ],
        "city": "GRANTS PASS",
        "state": "OR",
        "postalCode": "97526-5416"
      },
      {
        "line": [
          "17999 SE RIVER RD"
        ],
        "city": "PORTLAND",
        "state": "OR",
        "postalCode": "97267-5885"
      },
      {
        "line": [
          "1795 8TH ST"
        ],
        "city": "HOOD RIVER",
        "state": "OR",
        "postalCode": "97031-2902"
      },
      {
        "line": [
          "1500 VILLAGE DR"
        ],
        "city": "COTTAGE GROVE",
        "state": "OR",
        "postalCode": "97424-9700"
      },
      {
        "line": [
          "1153 MOLALLA AVE"
        ],
        "city": "OREGON CITY",
        "state": "OR",
        "postalCode": "97045-4713"
      },
      {
        "line": [
          "17950 SW 115TH AVE"
        ],
        "city": "TUALATIN",
        "state": "OR",
        "postalCode": "97062-7044"
      },
      {
        "line": [
          "1290 SW SILVER LAKE BLVD"
        ],
        "city": "BEND",
        "state": "OR",
        "postalCode": "97702-2236"
      },
      {
        "line": [
          "813 NE KELLY AVE"
        ],
        "city": "GRESHAM",
        "state": "OR",
        "postalCode": "97030-5638"
      },
      {
        "line": [
          "39 NE 102nd Ave"
        ],
        "city": "PORTLAND",
        "state": "OR",
        "postalCode": "97220-4103"
      },
      {
        "line": [
          "760 SPRING ST"
        ],
        "city": "MEDFORD",
        "state": "OR",
        "postalCode": "97504-6131"
      },
      {
        "line": [
          "12221 SE KELLY ST"
        ],
        "city": "PORTLAND",
        "state": "OR",
        "postalCode": "97236-3231"
      },
      {
        "line": [
          "2621 LONE OAK WAY"
        ],
        "city": "EUGENE",
        "state": "OR",
        "postalCode": "97404-2554"
      },
      {
        "line": [
          "1425 DAUGHERTY AVE"
        ],
        "city": "COTTAGE GROVE",
        "state": "OR",
        "postalCode": "97424-4837"
      },
      {
        "line": [
          "160 NE CONIFER BLVD"
        ],
        "city": "CORVALLIS",
        "state": "OR",
        "postalCode": "97330-4162"
      },
      {
        "line": [
          "320 SW HILL RD"
        ],
        "city": "MCMINNVILLE",
        "state": "OR",
        "postalCode": "97128-9133"
      },
      {
        "line": [
          "13033 SE HOLGATE BLVD"
        ],
        "city": "PORTLAND",
        "state": "OR",
        "postalCode": "97236-3913"
      },
      {
        "line": [
          "3500 12TH ST"
        ],
        "city": "TILLAMOOK",
        "state": "OR",
        "postalCode": "97141-2637"
      },
      {
        "line": [
          "1635 KELLENBECK AVE"
        ],
        "city": "GRANTS PASS",
        "state": "OR",
        "postalCode": "97527-4247"
      },
      {
        "line": [
          "8330 CASON RD"
        ],
        "city": "GLADSTONE",
        "state": "OR",
        "postalCode": "97027-6401"
      },
      {
        "line": [
          "3760 N CLAREY ST"
        ],
        "city": "EUGENE",
        "state": "OR",
        "postalCode": "97402-8744"
      },
      {
        "line": [
          "281 SUNSET DR"
        ],
        "city": "ONTARIO",
        "state": "OR",
        "postalCode": "97914-2021"
      },
      {
        "line": [
          "2490 NW EDENBOWER BLVD"
        ],
        "city": "ROSEBURG",
        "state": "OR",
        "postalCode": "97471-8847"
      },
      {
        "line": [
          "22514 SE STARK ST"
        ],
        "city": "GRESHAM",
        "state": "OR",
        "postalCode": "97030-2637"
      },
      {
        "line": [
          "450 CLAGGETT CT N"
        ],
        "city": "SALEM",
        "state": "OR",
        "postalCode": "97303-4446"
      },
      {
        "line": [
          "2146 BROOKHURST ST"
        ],
        "city": "MEDFORD",
        "state": "OR",
        "postalCode": "97504-5480"
      },
      {
        "line": [
          "2901 E BARNETT RD"
        ],
        "city": "MEDFORD",
        "state": "OR",
        "postalCode": "97504-8308"
      },
      {
        "line": [
          "1390 DOWELL RD"
        ],
        "city": "GRANTS PASS",
        "state": "OR",
        "postalCode": "97527-6097"
      },
      {
        "line": [
          "2144 NW HEIDI LN"
        ],
        "city": "GRANTS PASS",
        "state": "OR",
        "postalCode": "97526-6323"
      },
      {
        "line": [
          "3853 ARROWHEAD DR"
        ],
        "city": "MEDFORD",
        "state": "OR",
        "postalCode": "97504-7209"
      },
      {
        "line": [
          "2625 KOOS BAY BLVD"
        ],
        "city": "COOS BAY",
        "state": "OR",
        "postalCode": "97420-4907"
      },
      {
        "line": [
          "65 W 30TH AVE"
        ],
        "city": "EUGENE",
        "state": "OR",
        "postalCode": "97405-3485"
      },
      {
        "line": [
          "301 RIDINGS AVE"
        ],
        "city": "MOLALLA",
        "state": "OR",
        "postalCode": "97038-9201"
      },
      {
        "line": [
          "140 GREEN LN"
        ],
        "city": "EUGENE",
        "state": "OR",
        "postalCode": "97404-2441"
      },
      {
        "line": [
          "3988 12 St SE"
        ],
        "city": "SALEM",
        "state": "OR",
        "postalCode": "97302-3472"
      },
      {
        "line": [
          "1401 S 12TH ST"
        ],
        "city": "LEBANON",
        "state": "OR",
        "postalCode": "97355-1201"
      },
      {
        "line": [
          "16500 SW CENTURY DR"
        ],
        "city": "SHERWOOD",
        "state": "OR",
        "postalCode": "97140-6100"
      },
      {
        "line": [
          "2201 NW HIGHLAND AVE"
        ],
        "city": "GRANTS PASS",
        "state": "OR",
        "postalCode": "97526-3365"
      },
      {
        "line": [
          "148 HOOD ST"
        ],
        "city": "OREGON CITY",
        "state": "OR",
        "postalCode": "97045-3642"
      },
      {
        "line": [
          "389 W 29TH AVE"
        ],
        "city": "EUGENE",
        "state": "OR",
        "postalCode": "97405-2726"
      },
      {
        "line": [
          "5030 WEST PORT ST"
        ],
        "city": "EUGENE",
        "state": "OR",
        "postalCode": "97402-1100"
      },
      {
        "line": [
          "14370 SE OREGON TRAIL DR"
        ],
        "city": "CLACKAMAS",
        "state": "OR",
        "postalCode": "97015-6290"
      },
      {
        "line": [
          "3150 JUANIPERO WAY"
        ],
        "city": "MEDFORD",
        "state": "OR",
        "postalCode": "97504-8648"
      },
      {
        "line": [
          "740 NE DALLAS ST"
        ],
        "city": "CAMAS",
        "state": "WA",
        "postalCode": "98607-2058"
      },
      {
        "line": [
          "1890 NEWBERG HWY"
        ],
        "city": "WOODBURN",
        "state": "OR",
        "postalCode": "97071-3100"
      },
      {
        "line": [
          "703 EVERGREEN RD"
        ],
        "city": "WOODBURN",
        "state": "OR",
        "postalCode": "97071-2909"
      },
      {
        "line": [
          "8360 CASON RD"
        ],
        "city": "GLADSTONE",
        "state": "OR",
        "postalCode": "97027-6413"
      },
      {
        "line": [
          "943 N CASCADE DR"
        ],
        "city": "WOODBURN",
        "state": "OR",
        "postalCode": "97071-3140"
      },
      {
        "line": [
          "1951 21ST ST"
        ],
        "city": "FLORENCE",
        "state": "OR",
        "postalCode": "97439-9771"
      },
      {
        "line": [
          "4452 LANCASTER DR NE"
        ],
        "city": "SALEM",
        "state": "OR",
        "postalCode": "97305-1697"
      },
      {
        "line": [
          "1701 GEORGE JACKSON RD"
        ],
        "city": "MAUPIN",
        "state": "OR",
        "postalCode": "97037-9205"
      },
      {
        "line": [
          "4795 SKYLINE RD S"
        ],
        "city": "SALEM",
        "state": "OR",
        "postalCode": "97306-2404"
      },
      {
        "line": [
          "1655 NE 18TH ST"
        ],
        "city": "GRESHAM",
        "state": "OR",
        "postalCode": "97030-4113"
      },
      {
        "line": [
          "827 SW KINSINGTON CT"
        ],
        "city": "GRANTS PASS",
        "state": "OR",
        "postalCode": "97526-7905"
      },
      {
        "line": [
          "812 SE 48TH AVE"
        ],
        "city": "PORTLAND",
        "state": "OR",
        "postalCode": "97215-1724"
      },
      {
        "line": [
          "2690 NE YACHT AVE"
        ],
        "city": "LINCOLN CITY",
        "state": "OR",
        "postalCode": "97367-5161"
      },
      {
        "line": [
          "2525 47TH AVE SE"
        ],
        "city": "ALBANY",
        "state": "OR",
        "postalCode": "97322-8842"
      },
      {
        "line": [
          "1625 CENTER ST NE"
        ],
        "city": "SALEM",
        "state": "OR",
        "postalCode": "97301-4277"
      },
      {
        "line": [
          "819 NE 122ND AVE"
        ],
        "city": "PORTLAND",
        "state": "OR",
        "postalCode": "97230-2002"
      },
      {
        "line": [
          "112 VALLEY VIEW DR"
        ],
        "city": "JOHN DAY",
        "state": "OR",
        "postalCode": "97845-1286"
      },
      {
        "line": [
          "1400 NE 2ND AVE"
        ],
        "city": "PORTLAND",
        "state": "OR",
        "postalCode": "97232-1148"
      },
      {
        "line": [
          "51485 MORSON ST"
        ],
        "city": "LA PINE",
        "state": "OR",
        "postalCode": "97739-9481"
      },
      {
        "line": [
          "2660 NE MARY ROSE PL"
        ],
        "city": "BEND",
        "state": "OR",
        "postalCode": "97701-5540"
      },
      {
        "line": [
          "600 RANCH RD"
        ],
        "city": "REEDSPORT",
        "state": "OR",
        "postalCode": "97467-1720"
      },
      {
        "line": [
          "375 9TH ST"
        ],
        "city": "FLORENCE",
        "state": "OR",
        "postalCode": "97439-9471"
      },
      {
        "line": [
          "835 CRATER LAKE AVE"
        ],
        "city": "MEDFORD",
        "state": "OR",
        "postalCode": "97504-6505"
      },
      {
        "line": [
          "830 NE ELM ST"
        ],
        "city": "PRINEVILLE",
        "state": "OR",
        "postalCode": "97754-1603"
      },
      {
        "line": [
          "1333 1ST ST"
        ],
        "city": "SPRINGFIELD",
        "state": "OR",
        "postalCode": "97477-3002"
      },
      {
        "line": [
          "1410 NE CLEVELAND AVE"
        ],
        "city": "GRESHAM",
        "state": "OR",
        "postalCode": "97030-4283"
      },
      {
        "line": [
          "950 NE ELM ST"
        ],
        "city": "PRINEVILLE",
        "state": "OR",
        "postalCode": "97754-1619"
      },
      {
        "line": [
          "1680 MOLALLA AVE"
        ],
        "city": "OREGON CITY",
        "state": "OR",
        "postalCode": "97045-4008"
      },
      {
        "line": [
          "820 GOLD CT"
        ],
        "city": "GRANTS PASS",
        "state": "OR",
        "postalCode": "97527-4786"
      },
      {
        "line": [
          "12140 SE FOSTER RD"
        ],
        "city": "PORTLAND",
        "state": "OR",
        "postalCode": "97266-4043"
      },
      {
        "line": [
          "1372 SW 8TH AVE"
        ],
        "city": "ONTARIO",
        "state": "OR",
        "postalCode": "97914-3271"
      },
      {
        "line": [
          "2855 NW 7TH ST"
        ],
        "city": "REDMOND",
        "state": "OR",
        "postalCode": "97756-2159"
      },
      {
        "line": [
          "127 SE WILSON AVE"
        ],
        "city": "BEND",
        "state": "OR",
        "postalCode": "97702-1788"
      },
      {
        "line": [
          "955 KENTUCKY AVE"
        ],
        "city": "COOS BAY",
        "state": "OR",
        "postalCode": "97420-6807"
      },
      {
        "line": [
          "19751 SE STARK ST"
        ],
        "city": "PORTLAND",
        "state": "OR",
        "postalCode": "97233-6037"
      },
      {
        "line": [
          "1589 S IVY ST"
        ],
        "city": "CANBY",
        "state": "OR",
        "postalCode": "97013-4341"
      },
      {
        "line": [
          "2268 WILLIAMS HWY"
        ],
        "city": "GRANTS PASS",
        "state": "OR",
        "postalCode": "97527-5670"
      },
      {
        "line": [
          "2636 TABLE ROCK RD"
        ],
        "city": "MEDFORD",
        "state": "OR",
        "postalCode": "97501-1525"
      },
      {
        "line": [
          "18321 SW PACIFIC HWY"
        ],
        "city": "TUALATIN",
        "state": "OR",
        "postalCode": "97062-8862"
      },
      {
        "line": [
          "7617 SE MAIN ST"
        ],
        "city": "PORTLAND",
        "state": "OR",
        "postalCode": "97215-3075"
      },
      {
        "line": [
          "406 NW 2ND AVE"
        ],
        "city": "CANBY",
        "state": "OR",
        "postalCode": "97013-3518"
      },
      {
        "line": [
          "960 BOONE RD SE"
        ],
        "city": "SALEM",
        "state": "OR",
        "postalCode": "97306-1527"
      },
      {
        "line": [
          "1096 22nd St SE"
        ],
        "city": "SALEM",
        "state": "OR",
        "postalCode": "97301-6556"
      },
      {
        "line": [
          "1010 NE PURCELL BLVD"
        ],
        "city": "BEND",
        "state": "OR",
        "postalCode": "97701-5113"
      },
      {
        "line": [
          "2855 NE CUMULUS AVE"
        ],
        "city": "MCMINNVILLE",
        "state": "OR",
        "postalCode": "97128-8864"
      },
      {
        "line": [
          "4398 GLENCOE ST NE"
        ],
        "city": "SALEM",
        "state": "OR",
        "postalCode": "97301-2172"
      },
      {
        "line": [
          "411 SE SHERIDAN RD"
        ],
        "city": "SHERIDAN",
        "state": "OR",
        "postalCode": "97378-1938"
      },
      {
        "line": [
          "1165 MCGEE CT NE"
        ],
        "city": "Keizer",
        "state": "OR",
        "postalCode": "97303-9492"
      }
    ],
    "extension": [
      {
        "url": "https://fhir.athena.io/StructureDefinition/ah-practice",
        "valueReference": {
          "reference": "Organization/a-1.Practice-24143"
        }
      },
      {
        "url": "https://fhir.athena.io/StructureDefinition/ah-brand",
        "valueReference": {
          "reference": "Organization/a-24143.Brand-1"
        }
      }
    ]
  },
  "fullUrl": "urn:uuid:4d7f3afd-8b47-50d1-965e-5cef57ed7c18"
}