{
  "resource": {
    "resourceType": "Organization",
    "id": "4a8ad83f-bf20-5e69-9201-896af2a47ca7",
    "name": "The Bright Clinic",
    "endpoint": [
      {
        "reference": "Endpoint/27a4e967-47aa-5a9c-a572-b8297ee268a2"
      },
      {
        "reference": "Endpoint/ae44e88e-899c-59e7-b85b-f8a6752526e6"
      }
    ],
    "identifier": [
      {
        "system": "http://hl7.org/fhir/sid/us-npi",
        "value": "1275104473"
      }
    ],
    "address": [
      {
        "line": [
          "207 JEFFERSON ST"
        ],
        "city": "MANSFIELD",
        "state": "LA",
        "postalCode": "71052-2603"
      },
      {
        "line": [
          "4005 NORTH BLVD, BATON ROUGE, LA 70806"
        ],
        "city": "BATON ROUGE",
        "state": "LA",
        "postalCode": "70806-3830"
      },
      {
        "line": [
          "106 BUSINESS PARK DR"
        ],
        "city": "DENHAM SPRINGS",
        "state": "LA",
        "postalCode": "70726-7825"
      },
      {
        "line": [
          "11546 FLORIDA BLVD, BATON ROUGE, LA 70815"
        ],
        "city": "BATON ROUGE",
        "state": "LA",
        "postalCode": "70815-2405"
      },
      {
        "line": [
          "8225 SUMMA AVENUE"
        ],
        "city": "BATON ROUGE",
        "state": "LA",
        "postalCode": "70809-3422"
      },
      {
        "line": [
          "311 LOUISIANA AVE"
        ],
        "city": "BOGALUSA",
        "state": "LA",
        "postalCode": "70427-3839"
      },
      {
        "line": [
          "311 LOUISIANA AVE"
        ],
        "city": "BOGALUSA",
        "state": "LA",
        "postalCode": "70427-8003"
      },
      {
        "line": [
          "106 BUSINESS PARK AVENUE"
        ],
        "city": "DENHAM SPRINGS",
        "state": "LA",
        "postalCode": "70726-7825"
      }
    ],
    "extension": [
      {
        "url": "https://fhir.athena.io/StructureDefinition/ah-practice",
        "valueReference": {
          "reference": "Organization/a-1.Practice-25419"
        }
      },
      {
        "url": "https://fhir.athena.io/StructureDefinition/ah-brand",
        "valueReference": {
          "reference": "Organization/a-25419.Brand-1"
        }
      }
    ]
  },
  "fullUrl": "urn:uuid:4a8ad83f-bf20-5e69-9201-896af2a47ca7"
}