{
  "resource": {
    "resourceType": "Organization",
    "id": "f6b150a9-9173-58e0-9d35-0d95b9ebd4b0",
    "name": "Barrow Brain and Spine",
    "endpoint": [
      {
        "reference": "Endpoint/27a4e967-47aa-5a9c-a572-b8297ee268a2"
      },
      {
        "reference": "Endpoint/7d506aaa-d8d8-5dce-ac8c-ba0bc840bc1a"
      }
    ],
    "identifier": [
      {
        "system": "http://hl7.org/fhir/sid/us-npi",
        "value": "1043202484"
      }
    ],
    "address": [
      {
        "line": [
          "350 W Thomas Rd"
        ],
        "city": "PHOENIX",
        "state": "AZ",
        "postalCode": "85013-4409"
      },
      {
        "line": [
          "3555 S Val Vista Drive"
        ],
        "city": "GILBERT",
        "state": "AZ",
        "postalCode": "85297-7323"
      },
      {
        "line": [
          "19829 N 27th Avenue"
        ],
        "city": "PHOENIX",
        "state": "AZ",
        "postalCode": "85027-4001"
      },
      {
        "line": [
          "33400 N 32nd Avenue"
        ],
        "city": "PHOENIX",
        "state": "AZ",
        "postalCode": "85085-8876"
      },
      {
        "line": [
          "2910 N 3rd Avenue",
          "Suite 200"
        ],
        "city": "PHOENIX",
        "state": "AZ",
        "postalCode": "85013-4434"
      },
      {
        "line": [
          "19646 N 27th Ave Ste 108"
        ],
        "city": "PHOENIX",
        "state": "AZ",
        "postalCode": "85027-4025"
      },
      {
        "line": [
          "240 West Thomas Rd",
          "Suite A"
        ],
        "city": "PHOENIX",
        "state": "AZ",
        "postalCode": "85013-4407"
      },
      {
        "line": [
          "1919 E THOMAS RD"
        ],
        "city": "PHOENIX",
        "state": "AZ",
        "postalCode": "85016-7710"
      },
      {
        "line": [
          "2910 N 3rd Ave",
          "Suite 200"
        ],
        "city": "PHOENIX",
        "state": "AZ",
        "postalCode": "85013-4434"
      },
      {
        "line": [
          "3686 S Rome St"
        ],
        "city": "GILBERT",
        "state": "AZ",
        "postalCode": "85297-7341"
      },
      {
        "line": [
          "4530 E. Muirwood Dr.",
          "Suite 110"
        ],
        "city": "PHOENIX",
        "state": "AZ",
        "postalCode": "85048-7693"
      },
      {
        "line": [
          "33300 N 32nd Avenue",
          "Suite 310"
        ],
        "city": "PHOENIX",
        "state": "AZ",
        "postalCode": "85085-8877"
      },
      {
        "line": [
          "7242 E OSBORN RD # 420"
        ],
        "city": "SCOTTSDALE",
        "state": "AZ",
        "postalCode": "85251-5600"
      },
      {
        "line": [
          "7400 E OSBORN RD"
        ],
        "city": "SCOTTSDALE",
        "state": "AZ",
        "postalCode": "85251-6432"
      },
      {
        "line": [
          "10611 North Hayden Road",
          "Ste D102"
        ],
        "city": "SCOTTSDALE",
        "state": "AZ",
        "postalCode": "85260-8530"
      },
      {
        "line": [
          "3535 N Scottsdale Rd"
        ],
        "city": "SCOTTSDALE",
        "state": "AZ",
        "postalCode": "85251-5625"
      },
      {
        "line": [
          "6245 N 24th Pkway",
          "Ste 112"
        ],
        "city": "PHOENIX",
        "state": "AZ",
        "postalCode": "85016-2029"
      },
      {
        "line": [
          "3645 South Rome Street, Suite 116"
        ],
        "city": "GILBERT",
        "state": "AZ",
        "postalCode": "85297-7337"
      },
      {
        "line": [
          "4611 E SHEA BLVD"
        ],
        "city": "PHOENIX",
        "state": "AZ",
        "postalCode": "85028-4254"
      },
      {
        "line": [
          "7242 E OSBORN RD STE 420"
        ],
        "city": "SCOTTSDALE",
        "state": "AZ",
        "postalCode": "85251-6494"
      },
      {
        "line": [
          "3090 N 3rd Ave"
        ],
        "city": "PHOENIX",
        "state": "AZ",
        "postalCode": "85013-4402"
      },
      {
        "line": [
          "1875 W Frye Rd, Ste 300"
        ],
        "city": "CHANDLER",
        "state": "AZ",
        "postalCode": "85224-6184"
      },
      {
        "line": [
          "750 N 40TH ST"
        ],
        "city": "PHOENIX",
        "state": "AZ",
        "postalCode": "85008-6486"
      },
      {
        "line": [
          "19636 North 27th Avenue",
          "Suite 203"
        ],
        "city": "PHOENIX",
        "state": "AZ",
        "postalCode": "85027-4022"
      },
      {
        "line": [
          "250 E Dunlap Ave"
        ],
        "city": "PHOENIX",
        "state": "AZ",
        "postalCode": "85020-2825"
      },
      {
        "line": [
          "4530 E Muirwood Dr #110"
        ],
        "city": "PHOENIX",
        "state": "AZ",
        "postalCode": "85048-7693"
      },
      {
        "line": [
          "475 S Dobson Road"
        ],
        "city": "CHANDLER",
        "state": "AZ",
        "postalCode": "85224-5605"
      },
      {
        "line": [
          "7400 E Thompson Peak Pkwy"
        ],
        "city": "SCOTTSDALE",
        "state": "AZ",
        "postalCode": "85255-4109"
      },
      {
        "line": [
          "3090 N. 3rd Avenue"
        ],
        "city": "PHOENIX",
        "state": "AZ",
        "postalCode": "85013-4402"
      },
      {
        "line": [
          "3420 South Mercy Rd.",
          "Suite 221"
        ],
        "city": "GILBERT",
        "state": "AZ",
        "postalCode": "85297-0424"
      },
      {
        "line": [
          "9400 E Shea Blvd"
        ],
        "city": "SCOTTSDALE",
        "state": "AZ",
        "postalCode": "85260-6709"
      },
      {
        "line": [
          "20401 N 73RD ST STE 155"
        ],
        "city": "SCOTTSDALE",
        "state": "AZ",
        "postalCode": "85255-4149"
      },
      {
        "line": [
          "9003 E Shea Blvd"
        ],
        "city": "SCOTTSDALE",
        "state": "AZ",
        "postalCode": "85260-6709"
      },
      {
        "line": [
          "7337 E 2nd Street"
        ],
        "city": "SCOTTSDALE",
        "state": "AZ",
        "postalCode": "85251-5603"
      },
      {
        "line": [
          "475 S Dobson Rd"
        ],
        "city": "CHANDLER",
        "state": "AZ",
        "postalCode": "85224-5605"
      }
    ],
    "extension": [
      {
        "url": "https://fhir.athena.io/StructureDefinition/ah-practice",
        "valueReference": {
          "reference": "Organization/a-1.Practice-31799"
        }
      },
      {
        "url": "https://fhir.athena.io/StructureDefinition/ah-brand",
        "valueReference": {
          "reference": "Organization/a-31799.Brand-1"
        }
      }
    ]
  },
  "fullUrl": "urn:uuid:f6b150a9-9173-58e0-9d35-0d95b9ebd4b0"
}