{
  "resource": {
    "resourceType": "Organization",
    "id": "a5a849ee-4247-5fac-be79-8d8bfb6dc285",
    "name": "Southwest Minnesota Orthopedics & Sports Medicine",
    "endpoint": [
      {
        "reference": "Endpoint/27a4e967-47aa-5a9c-a572-b8297ee268a2"
      },
      {
        "reference": "Endpoint/a34cac35-b32e-530f-b02e-61ab04e65ba3"
      }
    ],
    "identifier": [
      {
        "system": "http://hl7.org/fhir/sid/us-npi",
        "value": "1083778021"
      }
    ],
    "address": [
      {
        "line": [
          "30 S Behl St"
        ],
        "city": "APPLETON",
        "state": "MN",
        "postalCode": "56208-1616"
      },
      {
        "line": [
          "1282 WALNUT ST"
        ],
        "city": "DAWSON",
        "state": "MN",
        "postalCode": "56232-2333"
      },
      {
        "line": [
          "824 North 11th Street"
        ],
        "city": "MONTEVIDEO",
        "state": "MN",
        "postalCode": "56265-1629"
      },
      {
        "line": [
          "824 N 11th St"
        ],
        "city": "MONTEVIDEO",
        "state": "MN",
        "postalCode": "56265-1629"
      },
      {
        "line": [
          "824 N 11TH ST"
        ],
        "city": "MONTEVIDEO",
        "state": "MN",
        "postalCode": "56265-1629"
      },
      {
        "line": [
          "1401 Nwakama Street"
        ],
        "city": "MARSHALL",
        "state": "MN",
        "postalCode": "56258-5532"
      },
      {
        "line": [
          "1401 Nwakama Street"
        ],
        "city": "MARSHALL",
        "state": "MN",
        "postalCode": "56258-5529"
      },
      {
        "line": [
          "2042 JUNIPER AVE"
        ],
        "city": "SLAYTON",
        "state": "MN",
        "postalCode": "56172-1017"
      },
      {
        "line": [
          "2331 20th Street"
        ],
        "city": "SLAYTON",
        "state": "MN",
        "postalCode": "56172-1004"
      },
      {
        "line": [
          "30 S BEHL ST"
        ],
        "city": "APPLETON",
        "state": "MN",
        "postalCode": "56208-1616"
      }
    ],
    "extension": [
      {
        "url": "https://fhir.athena.io/StructureDefinition/ah-practice",
        "valueReference": {
          "reference": "Organization/a-1.Practice-14746"
        }
      },
      {
        "url": "https://fhir.athena.io/StructureDefinition/ah-brand",
        "valueReference": {
          "reference": "Organization/a-14746.Brand-7"
        }
      }
    ]
  },
  "fullUrl": "urn:uuid:a5a849ee-4247-5fac-be79-8d8bfb6dc285"
}