{
  "resource": {
    "resourceType": "Organization",
    "id": "525cd413-4d55-5079-a593-286dc9e0d5ad",
    "name": "Lifestream Health Center",
    "endpoint": [
      {
        "reference": "Endpoint/27a4e967-47aa-5a9c-a572-b8297ee268a2"
      },
      {
        "reference": "Endpoint/11260464-2eac-586a-b175-d911dc440465"
      }
    ],
    "identifier": [
      {
        "system": "http://hl7.org/fhir/sid/us-npi",
        "value": "1245981810"
      },
      {
        "system": "http://hl7.org/fhir/sid/us-npi",
        "value": "1881728996"
      }
    ],
    "address": [
      {
        "line": [
          "4000 MITCHELLVILLE RD",
          "SUITE B322"
        ],
        "city": "BOWIE",
        "state": "MD",
        "postalCode": "20716-3176"
      },
      {
        "line": [
          "9403 HARTFORD ROAD",
          "OFFICE 1"
        ],
        "city": "PARKVILLE",
        "state": "MD",
        "postalCode": "21234-3123"
      },
      {
        "line": [
          "4600 WILKENS AVE",
          "102"
        ],
        "city": "BALTIMORE",
        "state": "MD",
        "postalCode": "21229-4843"
      },
      {
        "line": [
          "1308 EASTERN BLVD"
        ],
        "city": "ESSEX",
        "state": "MD",
        "postalCode": "21221-3423"
      },
      {
        "line": [
          "3401 ERDMAN AVE STE A"
        ],
        "city": "BALTIMORE",
        "state": "MD",
        "postalCode": "21213-1956"
      },
      {
        "line": [
          "4201 Northview Dr",
          "SUITE 101"
        ],
        "city": "BOWIE",
        "state": "MD",
        "postalCode": "20716-2644"
      },
      {
        "line": [
          "1103 North Point Blvd",
          "Suite 404"
        ],
        "city": "BALTIMORE",
        "state": "MD",
        "postalCode": "21224-3469"
      },
      {
        "line": [
          "4395 NICOLE DR"
        ],
        "city": "LANHAM",
        "state": "MD",
        "postalCode": "20706-4349"
      },
      {
        "line": [
          "23000 MOAKLEY ST STE 203D"
        ],
        "city": "LEONARDTOWN",
        "state": "MD",
        "postalCode": "20650-2917"
      },
      {
        "line": [
          "6666 Security Boulevard",
          "SUITE 4"
        ],
        "city": "GWYNN OAK",
        "state": "MD",
        "postalCode": "21207-4025"
      },
      {
        "line": [
          "7389 BALTIMORE ANNAPOLIS BLVD",
          "L"
        ],
        "city": "GLEN BURNIE",
        "state": "MD",
        "postalCode": "21061-3228"
      },
      {
        "line": [
          "2563 Forest Dr #201"
        ],
        "city": "ANNAPOLIS",
        "state": "MD",
        "postalCode": "21401-3869"
      },
      {
        "line": [
          "6810 PARK HEIGHTS AVE",
          "C4"
        ],
        "city": "BALTIMORE",
        "state": "MD",
        "postalCode": "21215-1634"
      },
      {
        "line": [
          "2373 Rolling Rd"
        ],
        "city": "WINDSOR MILL",
        "state": "MD",
        "postalCode": "21244-2373"
      },
      {
        "line": [
          "2005 EASTERN AVENUE"
        ],
        "city": "BALTIMORE",
        "state": "MD",
        "postalCode": "21231-3062"
      }
    ],
    "extension": [
      {
        "url": "https://fhir.athena.io/StructureDefinition/ah-practice",
        "valueReference": {
          "reference": "Organization/a-1.Practice-20459"
        }
      },
      {
        "url": "https://fhir.athena.io/StructureDefinition/ah-brand",
        "valueReference": {
          "reference": "Organization/a-20459.Brand-1"
        }
      }
    ]
  },
  "fullUrl": "urn:uuid:525cd413-4d55-5079-a593-286dc9e0d5ad"
}