{
  "resource": {
    "resourceType": "Organization",
    "id": "741f6cf9-bf13-59d3-8d14-3d07d793c1a7",
    "name": "Hurdle Health",
    "endpoint": [
      {
        "reference": "Endpoint/27a4e967-47aa-5a9c-a572-b8297ee268a2"
      },
      {
        "reference": "Endpoint/a578723f-3436-5309-9d50-57d34227316b"
      }
    ],
    "identifier": [
      {
        "system": "http://hl7.org/fhir/sid/us-npi",
        "value": "1952077703"
      },
      {
        "system": "http://hl7.org/fhir/sid/us-npi",
        "value": "1770248338"
      },
      {
        "system": "http://hl7.org/fhir/sid/us-npi",
        "value": "1235606542"
      },
      {
        "system": "http://hl7.org/fhir/sid/us-npi",
        "value": "1316614811"
      }
    ],
    "address": [
      {
        "line": [
          "605 N Michigan Ave",
          "4th Floor"
        ],
        "city": "CHICAGO",
        "state": "IL",
        "postalCode": "60611-3141"
      },
      {
        "line": [
          "703 MAIN ST"
        ],
        "city": "PATERSON",
        "state": "NJ",
        "postalCode": "07503-2621"
      },
      {
        "line": [
          "720 South Colorado Blvd",
          "13th Floor"
        ],
        "city": "DENVER",
        "state": "CO",
        "postalCode": "80246-1904"
      },
      {
        "line": [
          "100 S Ashley Drive",
          "Suite 600"
        ],
        "city": "Tampa",
        "state": "FL",
        "postalCode": "33602-5300"
      },
      {
        "line": [
          "1301 K ST. NW, FLOOR 3"
        ],
        "city": "WASHINGTON",
        "state": "DC",
        "postalCode": "20005-3307"
      },
      {
        "line": [
          "5800 S Eastern Ave",
          "Suite 500"
        ],
        "city": "Commerce",
        "state": "CA",
        "postalCode": "90040-4033"
      },
      {
        "line": [
          "1555 W. Shoreline Drive",
          "Suite 100"
        ],
        "city": "BOISE",
        "state": "ID",
        "postalCode": "83702-9107"
      },
      {
        "line": [
          "4400 Easton Commons Way",
          "Suite 125"
        ],
        "city": "Columbus",
        "state": "OH",
        "postalCode": "43219-6223"
      },
      {
        "line": [
          "1301 K St, NW Floor 3"
        ],
        "city": "WASHINGTON",
        "state": "DC",
        "postalCode": "20005-3307"
      },
      {
        "line": [
          "711 Capitol Way S.",
          "Suite 204"
        ],
        "city": "OLYMPIA",
        "state": "WA",
        "postalCode": "98501-1267"
      },
      {
        "line": [
          "240 Elm Street",
          "2nd & 3rd Floors"
        ],
        "city": "SOMERVILLE",
        "state": "MA",
        "postalCode": "02144-2935"
      },
      {
        "line": [
          "301 S. Beford St.",
          "Suite 1"
        ],
        "city": "MADISON",
        "state": "WI",
        "postalCode": "53703-3691"
      },
      {
        "line": [
          "600 N. 2nd St",
          "Suite 401"
        ],
        "city": "HARRISBURG",
        "state": "PA",
        "postalCode": "17101-1071"
      },
      {
        "line": [
          "1266 E. Main St",
          "Suite 700R"
        ],
        "city": "STAMFORD",
        "state": "CT",
        "postalCode": "06902-3507"
      },
      {
        "line": [
          "160 Mine Lake Ct",
          "Suite 200"
        ],
        "city": "RALEIGH",
        "state": "NC",
        "postalCode": "27615-6417"
      },
      {
        "line": [
          "3500 Lenox Road",
          "Suite 1500"
        ],
        "city": "Atlanta",
        "state": "GA",
        "postalCode": "30326-4231"
      },
      {
        "line": [
          "2 Office Park Ct",
          "Suite 103"
        ],
        "city": "COLUMBIA",
        "state": "SC",
        "postalCode": "29223-5948"
      },
      {
        "line": [
          "40 Burton Hills Blvd",
          "Suite 200"
        ],
        "city": "Nashville",
        "state": "TN",
        "postalCode": "37215-5902"
      },
      {
        "line": [
          "3800 N Central Ave",
          "Suite 460"
        ],
        "city": "PHOENIX",
        "state": "AZ",
        "postalCode": "85012-1995"
      },
      {
        "line": [
          "40600 Ann Arbor Rd E",
          "Suite 201"
        ],
        "city": "PLYMOUTH",
        "state": "MI",
        "postalCode": "48170-4675"
      },
      {
        "line": [
          "1108 E. South Union Ave"
        ],
        "city": "MIDVALE",
        "state": "UT",
        "postalCode": "84047-2904"
      },
      {
        "line": [
          "2950 North Loop W",
          "Suite 500"
        ],
        "city": "HOUSTON",
        "state": "TX",
        "postalCode": "77092-8830"
      },
      {
        "line": [
          "112 SW 7th Street",
          "Suite 3C"
        ],
        "city": "TOPEKA",
        "state": "KS",
        "postalCode": "66603-3858"
      },
      {
        "line": [
          "445 Minnesota Street",
          "Suite 1500"
        ],
        "city": "Saint Paul",
        "state": "MN",
        "postalCode": "55101-2269"
      },
      {
        "line": [
          "780 Commercial St SE",
          "Suite 100"
        ],
        "city": "SALEM",
        "state": "OR",
        "postalCode": "97301-3465"
      },
      {
        "line": [
          "99 Hudson St",
          "5th Floor"
        ],
        "city": "NEW YORK",
        "state": "NY",
        "postalCode": "10013-2815"
      }
    ],
    "extension": [
      {
        "url": "https://fhir.athena.io/StructureDefinition/ah-practice",
        "valueReference": {
          "reference": "Organization/a-1.Practice-23252"
        }
      },
      {
        "url": "https://fhir.athena.io/StructureDefinition/ah-brand",
        "valueReference": {
          "reference": "Organization/a-23252.Brand-2"
        }
      }
    ]
  },
  "fullUrl": "urn:uuid:741f6cf9-bf13-59d3-8d14-3d07d793c1a7"
}