{
  "resource": {
    "resourceType": "Organization",
    "id": "cda0bfac-1c7d-563a-9f25-4c055dc35005",
    "name": "USRC",
    "endpoint": [
      {
        "reference": "Endpoint/27a4e967-47aa-5a9c-a572-b8297ee268a2"
      },
      {
        "reference": "Endpoint/2dc78f24-36c8-5183-a2c0-a03456069fb9"
      }
    ],
    "identifier": [
      {
        "system": "http://hl7.org/fhir/sid/us-npi",
        "value": "1861082117"
      },
      {
        "system": "http://hl7.org/fhir/sid/us-npi",
        "value": "1487126124"
      },
      {
        "system": "http://hl7.org/fhir/sid/us-npi",
        "value": "1558181636"
      }
    ],
    "address": [
      {
        "line": [
          "86-120 FARRINGTON HWY STE 211"
        ],
        "city": "WAIANAE",
        "state": "HI",
        "postalCode": "96792-3072"
      },
      {
        "line": [
          "1401 E BROADWAY ST"
        ],
        "city": "ALTUS",
        "state": "OK",
        "postalCode": "73521-5705"
      },
      {
        "line": [
          "91-919 FORT WEAVER RD STE 110"
        ],
        "city": "EWA BEACH",
        "state": "HI",
        "postalCode": "96706-2257"
      },
      {
        "line": [
          "850 KILANI AVE"
        ],
        "city": "WAHIAWA",
        "state": "HI",
        "postalCode": "96786-2004"
      },
      {
        "line": [
          "555 FARRINGTON HWY"
        ],
        "city": "KAPOLEI",
        "state": "HI",
        "postalCode": "96707-2001"
      },
      {
        "line": [
          "1520 LILIHA ST",
          "FL 1"
        ],
        "city": "HONOLULU",
        "state": "HI",
        "postalCode": "96817-3562"
      },
      {
        "line": [
          "91 Perimeter Road",
          "Suite 140"
        ],
        "city": "ROME",
        "state": "NY",
        "postalCode": "13441-4018"
      },
      {
        "line": [
          "10 EATON ST",
          "STE 102"
        ],
        "city": "HAMILTON",
        "state": "NY",
        "postalCode": "13346-1142"
      },
      {
        "line": [
          "2875 UNION RD",
          "STE 13"
        ],
        "city": "BUFFALO",
        "state": "NY",
        "postalCode": "14227-1463"
      },
      {
        "line": [
          "2880 Sheridan Dr"
        ],
        "city": "TONAWANDA",
        "state": "NY",
        "postalCode": "14150-9419"
      },
      {
        "line": [
          "1676 SUNSET AVE"
        ],
        "city": "UTICA",
        "state": "NY",
        "postalCode": "13502-5416"
      },
      {
        "line": [
          "2861 HARLEM RD"
        ],
        "city": "BUFFALO",
        "state": "NY",
        "postalCode": "14225-3038"
      },
      {
        "line": [
          "2055 N. King St Suite 201"
        ],
        "city": "HONOLULU",
        "state": "HI",
        "postalCode": "96819-3462"
      },
      {
        "line": [
          "889 KAMOKILA BLVD STE 200"
        ],
        "city": "KAPOLEI",
        "state": "HI",
        "postalCode": "96707-2061"
      },
      {
        "line": [
          "201 E STATE ST"
        ],
        "city": "HERKIMER",
        "state": "NY",
        "postalCode": "13350-2389"
      },
      {
        "line": [
          "7964 TRANSIT RD",
          "STE 8-A"
        ],
        "city": "BUFFALO",
        "state": "NY",
        "postalCode": "14221-4117"
      },
      {
        "line": [
          "220 S COLLINS RD"
        ],
        "city": "SUNNYVALE",
        "state": "TX",
        "postalCode": "75182-4625"
      },
      {
        "line": [
          "2150 BLEECKER ST"
        ],
        "city": "UTICA",
        "state": "NY",
        "postalCode": "13501-1738"
      },
      {
        "line": [
          "111 E Puainako Street Suite 655"
        ],
        "city": "HILO",
        "state": "HI",
        "postalCode": "96720-5278"
      },
      {
        "line": [
          "39 N PLANK RD",
          "STE 5"
        ],
        "city": "NEWBURGH",
        "state": "NY",
        "postalCode": "12550-2124"
      },
      {
        "line": [
          "3860 McKinley Parkway",
          "Suite 120"
        ],
        "city": "BUFFALO",
        "state": "NY",
        "postalCode": "14219-2983"
      },
      {
        "line": [
          "131 MAIN ST"
        ],
        "city": "ONEIDA",
        "state": "NY",
        "postalCode": "13421-1645"
      },
      {
        "line": [
          "98-1005 MOANALUA RD SPC 422"
        ],
        "city": "AIEA",
        "state": "HI",
        "postalCode": "96701-4702"
      },
      {
        "line": [
          "3161 EGGERT RD"
        ],
        "city": "TONAWANDA",
        "state": "NY",
        "postalCode": "14150-7156"
      },
      {
        "line": [
          "1650 CHAMPLIN AVE"
        ],
        "city": "NEW HARTFORD",
        "state": "NY",
        "postalCode": "13413-1067"
      },
      {
        "line": [
          "900 MIRON LN"
        ],
        "city": "KINGSTON",
        "state": "NY",
        "postalCode": "12401-1567"
      },
      {
        "line": [
          "2585 SOUTH RD",
          "STE 15"
        ],
        "city": "POUGHKEEPSIE",
        "state": "NY",
        "postalCode": "12601-7001"
      },
      {
        "line": [
          "2055 N. King St Suite 100"
        ],
        "city": "HONOLULU",
        "state": "HI",
        "postalCode": "96819-3462"
      },
      {
        "line": [
          "924 SW 38TH ST"
        ],
        "city": "LAWTON",
        "state": "OK",
        "postalCode": "73505-7021"
      }
    ],
    "extension": [
      {
        "url": "https://fhir.athena.io/StructureDefinition/ah-practice",
        "valueReference": {
          "reference": "Organization/a-1.Practice-19427"
        }
      },
      {
        "url": "https://fhir.athena.io/StructureDefinition/ah-brand",
        "valueReference": {
          "reference": "Organization/a-19427.Brand-4"
        }
      }
    ]
  },
  "fullUrl": "urn:uuid:cda0bfac-1c7d-563a-9f25-4c055dc35005"
}