{
  "resource": {
    "resourceType": "Organization",
    "id": "34fd0568-14f0-5a9a-8f1f-a0a27d95720b",
    "name": "Atlantic Foot and Ankle Associates",
    "endpoint": [
      {
        "reference": "Endpoint/27a4e967-47aa-5a9c-a572-b8297ee268a2"
      },
      {
        "reference": "Endpoint/8b10332c-cbcb-5ffe-abf2-ed89323fe810"
      }
    ],
    "identifier": [
      {
        "system": "http://hl7.org/fhir/sid/us-npi",
        "value": "1154349082"
      }
    ],
    "address": [
      {
        "line": [
          "701 West Plymouth Avenue"
        ],
        "city": "DELAND",
        "state": "FL",
        "postalCode": "32720-3236"
      },
      {
        "line": [
          "800 PRUDENTIAL DR"
        ],
        "city": "JACKSONVILLE",
        "state": "FL",
        "postalCode": "32207-8202"
      },
      {
        "line": [
          "819 East Oak Street"
        ],
        "city": "KISSIMMEE",
        "state": "FL",
        "postalCode": "34744-5842"
      },
      {
        "line": [
          "401 PALMETTO ST"
        ],
        "city": "NEW SMYRNA BEACH",
        "state": "FL",
        "postalCode": "32168-7322"
      },
      {
        "line": [
          "7021 A C SKINNER PKWY"
        ],
        "city": "JACKSONVILLE",
        "state": "FL",
        "postalCode": "32256-6932"
      },
      {
        "line": [
          "1401 W SEMINOLE BLVD"
        ],
        "city": "SANFORD",
        "state": "FL",
        "postalCode": "32771-6743"
      },
      {
        "line": [
          "6705 NW 10TH PL"
        ],
        "city": "GAINESVILLE",
        "state": "FL",
        "postalCode": "32605-4212"
      },
      {
        "line": [
          "1890 LPGA Boulevard",
          "Suite 230"
        ],
        "city": "DAYTONA BEACH",
        "state": "FL",
        "postalCode": "32117-7131"
      },
      {
        "line": [
          "11 Florida Park Drive North"
        ],
        "city": "PALM COAST",
        "state": "FL",
        "postalCode": "32137-3866"
      },
      {
        "line": [
          "595 W Granada Blvd",
          "Suite F"
        ],
        "city": "ORMOND BEACH",
        "state": "FL",
        "postalCode": "32174-5182"
      },
      {
        "line": [
          "701 W PLYMOUTH AVE"
        ],
        "city": "DELAND",
        "state": "FL",
        "postalCode": "32720-3236"
      },
      {
        "line": [
          "60 Memorial Medical Pkwy"
        ],
        "city": "PALM COAST",
        "state": "FL",
        "postalCode": "32164-2454"
      },
      {
        "line": [
          "3635 Clyde Morris Blvd",
          "Ste 500"
        ],
        "city": "PORT ORANGE",
        "state": "FL",
        "postalCode": "32129-9611"
      },
      {
        "line": [
          "1 ADVENTHEALTH WAY"
        ],
        "city": "PALM COAST",
        "state": "FL",
        "postalCode": "32137-4702"
      },
      {
        "line": [
          "1350 13TH AVE S"
        ],
        "city": "JACKSONVILLE BEACH",
        "state": "FL",
        "postalCode": "32250-3203"
      },
      {
        "line": [
          "3300 Halifax Crossing Blvd."
        ],
        "city": "DELTONA",
        "state": "FL",
        "postalCode": "32725-2911"
      },
      {
        "line": [
          "1055 SAXON BLVD"
        ],
        "city": "ORANGE CITY",
        "state": "FL",
        "postalCode": "32763-8468"
      },
      {
        "line": [
          "1055 Saxon Blvd"
        ],
        "city": "ORANGE CITY",
        "state": "FL",
        "postalCode": "32763-8468"
      },
      {
        "line": [
          "392 Rinehart Rd"
        ],
        "city": "LAKE MARY",
        "state": "FL",
        "postalCode": "32746-2527"
      },
      {
        "line": [
          "345 W MADISON ST"
        ],
        "city": "STARKE",
        "state": "FL",
        "postalCode": "32091-3923"
      },
      {
        "line": [
          "14550 OLD SAINT AUGUSTINE RD"
        ],
        "city": "JACKSONVILLE",
        "state": "FL",
        "postalCode": "32258-2460"
      },
      {
        "line": [
          "21 Hospital Drive",
          "Ste 220"
        ],
        "city": "PALM COAST",
        "state": "FL",
        "postalCode": "32164-2453"
      },
      {
        "line": [
          "3316 South 3rd Street",
          "Suite 200"
        ],
        "city": "JACKSONVILLE BEACH",
        "state": "FL",
        "postalCode": "32250-6091"
      },
      {
        "line": [
          "508 PALMETTO ST"
        ],
        "city": "NEW SMYRNA BEACH",
        "state": "FL",
        "postalCode": "32168-7325"
      },
      {
        "line": [
          "240 Ponte Vedra Park Drive",
          "Unit 150"
        ],
        "city": "PONTE VEDRA BEACH",
        "state": "FL",
        "postalCode": "32082-6601"
      },
      {
        "line": [
          "303 N Clyde Morris Blvd"
        ],
        "city": "DAYTONA BEACH",
        "state": "FL",
        "postalCode": "32114-2709"
      },
      {
        "line": [
          "1041 Dunlawton Ave"
        ],
        "city": "PORT ORANGE",
        "state": "FL",
        "postalCode": "32127-7968"
      },
      {
        "line": [
          "3300 Halifax Crossing Blvd"
        ],
        "city": "DELTONA",
        "state": "FL",
        "postalCode": "32725-2911"
      },
      {
        "line": [
          "1401 West Seminole Blvd"
        ],
        "city": "SANFORD",
        "state": "FL",
        "postalCode": "32771-6743"
      },
      {
        "line": [
          "2836 Enterprise Road",
          "suite 2"
        ],
        "city": "DEBARY",
        "state": "FL",
        "postalCode": "32713-5210"
      },
      {
        "line": [
          "975 TOWN CENTER DR"
        ],
        "city": "ORANGE CITY",
        "state": "FL",
        "postalCode": "32763-8269"
      },
      {
        "line": [
          "790 Dunlawton",
          "Suite C"
        ],
        "city": "PORT ORANGE",
        "state": "FL",
        "postalCode": "32127-4222"
      },
      {
        "line": [
          "301 Memorial Medical Parkway"
        ],
        "city": "DAYTONA BEACH",
        "state": "FL",
        "postalCode": "32117-5167"
      },
      {
        "line": [
          "340 NW COMMERCE DR"
        ],
        "city": "LAKE CITY",
        "state": "FL",
        "postalCode": "32055-4709"
      },
      {
        "line": [
          "4201 BELFORT RD"
        ],
        "city": "JACKSONVILLE",
        "state": "FL",
        "postalCode": "32216-1431"
      },
      {
        "line": [
          "180 SOUTHPARK BLVD"
        ],
        "city": "SAINT AUGUSTINE",
        "state": "FL",
        "postalCode": "32086-4120"
      },
      {
        "line": [
          "2777 Enterprise Rd"
        ],
        "city": "ORANGE CITY",
        "state": "FL",
        "postalCode": "32763-8310"
      },
      {
        "line": [
          "1053 Medical Center Drive"
        ],
        "city": "ORANGE CITY",
        "state": "FL",
        "postalCode": "32763-8260"
      },
      {
        "line": [
          "922 East Call Street"
        ],
        "city": "STARKE",
        "state": "FL",
        "postalCode": "32091-3616"
      },
      {
        "line": [
          "2835 W DE LEON ST",
          "STE 101"
        ],
        "city": "TAMPA",
        "state": "FL",
        "postalCode": "33609-4130"
      },
      {
        "line": [
          "125 FLORIDA MEMORIAL PKWY"
        ],
        "city": "NEW SMYRNA BEACH",
        "state": "FL",
        "postalCode": "32168-9311"
      },
      {
        "line": [
          "208 SW Prosperity Pl"
        ],
        "city": "LAKE CITY",
        "state": "FL",
        "postalCode": "32024-0684"
      },
      {
        "line": [
          "460 St.Charles Court"
        ],
        "city": "LAKE MARY",
        "state": "FL",
        "postalCode": "32746-2103"
      },
      {
        "line": [
          "800 Prudential Drive"
        ],
        "city": "JACKSONVILLE",
        "state": "FL",
        "postalCode": "32207-8202"
      },
      {
        "line": [
          "1890 LPGA BLVD STE 250"
        ],
        "city": "DAYTONA BEACH",
        "state": "FL",
        "postalCode": "32117-7131"
      },
      {
        "line": [
          "21 Hospital Drive",
          "Suite 170A"
        ],
        "city": "PALM COAST",
        "state": "FL",
        "postalCode": "32164-2454"
      },
      {
        "line": [
          "1140 S.W Bascom Norris Drive"
        ],
        "city": "LAKE CITY",
        "state": "FL",
        "postalCode": "32025-1329"
      },
      {
        "line": [
          "6500 W NEWBERRY RD"
        ],
        "city": "GAINESVILLE",
        "state": "FL",
        "postalCode": "32605-4309"
      },
      {
        "line": [
          "630 Jacksonville Dr"
        ],
        "city": "JACKSONVILLE BEACH",
        "state": "FL",
        "postalCode": "32250-3814"
      },
      {
        "line": [
          "1890 LPGA Blvd",
          "200"
        ],
        "city": "DAYTONA BEACH",
        "state": "FL",
        "postalCode": "32117-7138"
      },
      {
        "line": [
          "975 Town Center Drive",
          "Suite 200"
        ],
        "city": "ORANGE CITY",
        "state": "FL",
        "postalCode": "32763-8254"
      },
      {
        "line": [
          "8075 Gate Pkwy W",
          "Suite 301"
        ],
        "city": "JACKSONVILLE",
        "state": "FL",
        "postalCode": "32216-3685"
      }
    ],
    "extension": [
      {
        "url": "https://fhir.athena.io/StructureDefinition/ah-practice",
        "valueReference": {
          "reference": "Organization/a-1.Practice-4399"
        }
      },
      {
        "url": "https://fhir.athena.io/StructureDefinition/ah-brand",
        "valueReference": {
          "reference": "Organization/a-4399.Brand-5"
        }
      }
    ]
  },
  "fullUrl": "urn:uuid:34fd0568-14f0-5a9a-8f1f-a0a27d95720b"
}