{
  "resource": {
    "resourceType": "Organization",
    "id": "00dbeae7-79af-5bc8-868c-6265b408bdc6",
    "name": "JACKSON MAIN CLINIC",
    "endpoint": [
      {
        "reference": "Endpoint/27a4e967-47aa-5a9c-a572-b8297ee268a2"
      },
      {
        "reference": "Endpoint/25e3184c-ac53-5cab-860c-92adae03ba46"
      }
    ],
    "identifier": [
      {
        "system": "http://hl7.org/fhir/sid/us-npi",
        "value": "1891529715"
      }
    ],
    "address": [
      {
        "line": [
          "21644 STATE ROAD 7"
        ],
        "city": "BOCA RATON",
        "state": "FL",
        "postalCode": "33428-1842"
      },
      {
        "line": [
          "8950 N KENDALL DR"
        ],
        "city": "MIAMI",
        "state": "FL",
        "postalCode": "33176-2144"
      },
      {
        "line": [
          "9970 CENTRAL PARK BLVD N"
        ],
        "city": "BOCA RATON",
        "state": "FL",
        "postalCode": "33428-2231"
      },
      {
        "line": [
          "1611 NW 12TH AVE"
        ],
        "city": "MIAMI",
        "state": "FL",
        "postalCode": "33136-1005"
      },
      {
        "line": [
          "2815 S SEACREST BLVD"
        ],
        "city": "BOYNTON BEACH",
        "state": "FL",
        "postalCode": "33435-7969"
      },
      {
        "line": [
          "1611 NW 12TH AVE STE C150"
        ],
        "city": "MIAMI",
        "state": "FL",
        "postalCode": "33136-1005"
      },
      {
        "line": [
          "3200 SW 60TH CT STE 104"
        ],
        "city": "MIAMI",
        "state": "FL",
        "postalCode": "33155-4069"
      },
      {
        "line": [
          "901 45TH ST"
        ],
        "city": "WEST PALM BEACH",
        "state": "FL",
        "postalCode": "33407-2413"
      },
      {
        "line": [
          "123 Main Street"
        ],
        "city": "MIAMI",
        "state": "FL",
        "postalCode": "33155-4069"
      },
      {
        "line": [
          "1210 S OLD DIXIE HWY"
        ],
        "city": "JUPITER",
        "state": "FL",
        "postalCode": "33458-7205"
      },
      {
        "line": [
          "3501 JOHNSON ST"
        ],
        "city": "HOLLYWOOD",
        "state": "FL",
        "postalCode": "33021-5421"
      },
      {
        "line": [
          "3100 SW 62ND AVE"
        ],
        "city": "MIAMI",
        "state": "FL",
        "postalCode": "33155-3009"
      },
      {
        "line": [
          "13001 SOUTHERN BLVD"
        ],
        "city": "LOXAHATCHEE",
        "state": "FL",
        "postalCode": "33470-9203"
      },
      {
        "line": [
          "6200 SW 73RD ST"
        ],
        "city": "MIAMI",
        "state": "FL",
        "postalCode": "33143-4679"
      },
      {
        "line": [
          "11750 SW 40TH ST"
        ],
        "city": "MIAMI",
        "state": "FL",
        "postalCode": "33175-3530"
      },
      {
        "line": [
          "1600 S ANDREWS AVE"
        ],
        "city": "FORT LAUDERDALE",
        "state": "FL",
        "postalCode": "33316-2510"
      },
      {
        "line": [
          "800 SW 108TH AVE"
        ],
        "city": "MIAMI",
        "state": "FL",
        "postalCode": "33174-2555"
      }
    ],
    "extension": [
      {
        "url": "https://fhir.athena.io/StructureDefinition/ah-practice",
        "valueReference": {
          "reference": "Organization/a-1.Practice-32200"
        }
      },
      {
        "url": "https://fhir.athena.io/StructureDefinition/ah-brand",
        "valueReference": {
          "reference": "Organization/a-32200.Brand-1"
        }
      }
    ]
  },
  "fullUrl": "urn:uuid:00dbeae7-79af-5bc8-868c-6265b408bdc6"
}