{
  "resource": {
    "resourceType": "Organization",
    "id": "0f9b973e-99da-5fd1-9b46-430a3d1f44b7",
    "name": "CORRY MEMORIAL HOSPITAL RURAL HEALTH CLINIC",
    "endpoint": [
      {
        "reference": "Endpoint/27a4e967-47aa-5a9c-a572-b8297ee268a2"
      },
      {
        "reference": "Endpoint/0705de24-f3f5-570a-b986-af55612b7a21"
      }
    ],
    "identifier": [
      {
        "system": "http://hl7.org/fhir/sid/us-npi",
        "value": "1255922043"
      },
      {
        "system": "http://hl7.org/fhir/sid/us-npi",
        "value": "1255967956"
      },
      {
        "system": "http://hl7.org/fhir/sid/us-npi",
        "value": "1124406376"
      },
      {
        "system": "http://hl7.org/fhir/sid/us-npi",
        "value": "1538240684"
      },
      {
        "system": "http://hl7.org/fhir/sid/us-npi",
        "value": "1124156765"
      }
    ],
    "address": [
      {
        "line": [
          "100 SAINT FRANCIS DR"
        ],
        "city": "BRADFORD",
        "state": "PA",
        "postalCode": "16701-1868"
      },
      {
        "line": [
          "1521 W 54TH ST"
        ],
        "city": "ERIE",
        "state": "PA",
        "postalCode": "16509-2620"
      },
      {
        "line": [
          "701 Rouse Ave"
        ],
        "city": "YOUNGSVILLE",
        "state": "PA",
        "postalCode": "16371-1605"
      },
      {
        "line": [
          "682 Pleasant Drive"
        ],
        "city": "WARREN",
        "state": "PA",
        "postalCode": "16365-3468"
      },
      {
        "line": [
          "14714 Park Ave Ext"
        ],
        "city": "MEADVILLE",
        "state": "PA",
        "postalCode": "16335-9400"
      },
      {
        "line": [
          "17083 ROUTE 6"
        ],
        "city": "SMETHPORT",
        "state": "PA",
        "postalCode": "16749-4025"
      },
      {
        "line": [
          "10 VO TECH DR"
        ],
        "city": "OIL CITY",
        "state": "PA",
        "postalCode": "16301-3502"
      },
      {
        "line": [
          "200 Pleasant St"
        ],
        "city": "BRADFORD",
        "state": "PA",
        "postalCode": "16701-1065"
      },
      {
        "line": [
          "20881 STATE HIGHWAY 198"
        ],
        "city": "SAEGERTOWN",
        "state": "PA",
        "postalCode": "16433-6159"
      },
      {
        "line": [
          "205 Water St"
        ],
        "city": "WARREN",
        "state": "PA",
        "postalCode": "16365-2307"
      },
      {
        "line": [
          "50 Langmaid Lane"
        ],
        "city": "BRADFORD",
        "state": "PA",
        "postalCode": "16701-3987"
      }
    ],
    "extension": [
      {
        "url": "https://fhir.athena.io/StructureDefinition/ah-practice",
        "valueReference": {
          "reference": "Organization/a-1.Practice-10044"
        }
      },
      {
        "url": "https://fhir.athena.io/StructureDefinition/ah-brand",
        "valueReference": {
          "reference": "Organization/a-10044.Brand-1"
        }
      }
    ]
  },
  "fullUrl": "urn:uuid:0f9b973e-99da-5fd1-9b46-430a3d1f44b7"
}