{
  "resource": {
    "resourceType": "Organization",
    "id": "12943d11-c1af-56db-8f90-4ec780b22fae",
    "name": "MEDEXPRESS URGENT CARE TEXAS PA",
    "endpoint": [
      {
        "reference": "Endpoint/27a4e967-47aa-5a9c-a572-b8297ee268a2"
      },
      {
        "reference": "Endpoint/e85bdcf6-b8ff-51cd-ab92-4414e5a19d17"
      }
    ],
    "identifier": [
      {
        "system": "http://hl7.org/fhir/sid/us-npi",
        "value": "1649791179"
      }
    ],
    "address": [
      {
        "line": [
          "4050 FM 762 Road"
        ],
        "city": "RICHMOND",
        "state": "TX",
        "postalCode": "77469-5880"
      },
      {
        "line": [
          "3700 S. Cooper Street"
        ],
        "city": "ARLINGTON",
        "state": "TX",
        "postalCode": "76015-3413"
      },
      {
        "line": [
          "14201 N. Dallas Pkwy."
        ],
        "city": "DALLAS",
        "state": "TX",
        "postalCode": "75254-2916"
      },
      {
        "line": [
          "2780 Lake Vista Dr."
        ],
        "city": "LEWISVILLE",
        "state": "TX",
        "postalCode": "75067-3884"
      },
      {
        "line": [
          "4750 Fairmont Parkway"
        ],
        "city": "PASADENA",
        "state": "TX",
        "postalCode": "77504-3330"
      },
      {
        "line": [
          "4894 Louetta Road"
        ],
        "city": "SPRING",
        "state": "TX",
        "postalCode": "77388-4421"
      },
      {
        "line": [
          "14800 Frye Rd."
        ],
        "city": "FORT WORTH",
        "state": "TX",
        "postalCode": "76115-2732"
      },
      {
        "line": [
          "16307 FM 529 Rd"
        ],
        "city": "HOUSTON",
        "state": "TX",
        "postalCode": "77095-1417"
      }
    ],
    "extension": [
      {
        "url": "https://fhir.athena.io/StructureDefinition/ah-practice",
        "valueReference": {
          "reference": "Organization/a-1.Practice-3908"
        }
      },
      {
        "url": "https://fhir.athena.io/StructureDefinition/ah-brand",
        "valueReference": {
          "reference": "Organization/a-3908.Brand-1"
        }
      }
    ]
  },
  "fullUrl": "urn:uuid:12943d11-c1af-56db-8f90-4ec780b22fae"
}