{
  "resource": {
    "resourceType": "Organization",
    "id": "2053cf2b-96ed-5ee3-beaa-03b6dd286364",
    "name": "Straight to you Healthcare, PLLC",
    "endpoint": [
      {
        "reference": "Endpoint/27a4e967-47aa-5a9c-a572-b8297ee268a2"
      },
      {
        "reference": "Endpoint/1bd4d205-9f2c-58a1-a12b-8da053ffbb77"
      }
    ],
    "identifier": [
      {
        "system": "http://hl7.org/fhir/sid/us-npi",
        "value": "1326568007"
      }
    ],
    "address": [
      {
        "line": [
          "13106 Bexhill"
        ],
        "city": "HOUSTON",
        "state": "TX",
        "postalCode": "77065-2106"
      },
      {
        "line": [
          "7810 Trentway"
        ],
        "city": "HOUSTON",
        "state": "TX",
        "postalCode": "77040-6118"
      },
      {
        "line": [
          "13058 Grant Rd."
        ],
        "city": "CYPRESS",
        "state": "TX",
        "postalCode": "77429-3515"
      },
      {
        "line": [
          "14520 HUFFMEISTER"
        ],
        "city": "CYPRESS",
        "state": "TX",
        "postalCode": "77429-1826"
      },
      {
        "line": [
          "13502 W. Cypress Forest"
        ],
        "city": "HOUSTON",
        "state": "TX",
        "postalCode": "77070-4017"
      },
      {
        "line": [
          "1119 Smith St."
        ],
        "city": "WALLER",
        "state": "TX",
        "postalCode": "77484-8624"
      },
      {
        "line": [
          "19929 Chasewood Park Dr."
        ],
        "city": "HOUSTON",
        "state": "TX",
        "postalCode": "77070-1444"
      },
      {
        "line": [
          "5000 Cypresswood Dr."
        ],
        "city": "SPRING",
        "state": "TX",
        "postalCode": "77379-1500"
      },
      {
        "line": [
          "13415 MEDICAL COMPLEX DR"
        ],
        "city": "TOMBALL",
        "state": "TX",
        "postalCode": "77375-3343"
      },
      {
        "line": [
          "15055 North Eldridge Parkway"
        ],
        "city": "CYPRESS",
        "state": "TX",
        "postalCode": "77429-3668"
      },
      {
        "line": [
          "13702 Wimbledon Oaks"
        ],
        "city": "HOUSTON",
        "state": "TX",
        "postalCode": "77065-3748"
      },
      {
        "line": [
          "13430 PARK AVENUE"
        ],
        "city": "CONROE",
        "state": "TX",
        "postalCode": "77384-3214"
      },
      {
        "line": [
          "5623 West Harrow"
        ],
        "city": "HOUSTON",
        "state": "TX",
        "postalCode": "77084-1869"
      },
      {
        "line": [
          "14977 Terrace Oaks"
        ],
        "city": "HOUSTON",
        "state": "TX",
        "postalCode": "77068-2070"
      },
      {
        "line": [
          "17808 Lakecrest View"
        ],
        "city": "CYPRESS",
        "state": "TX",
        "postalCode": "77433-6887"
      },
      {
        "line": [
          "11106 Wortham Blvd"
        ],
        "city": "HOUSTON",
        "state": "TX",
        "postalCode": "77065-3310"
      },
      {
        "line": [
          "14290 FM 2854 Rd."
        ],
        "city": "MONTGOMERY",
        "state": "TX",
        "postalCode": "77316-4156"
      },
      {
        "line": [
          "830 Hodgkins St."
        ],
        "city": "HOUSTON",
        "state": "TX",
        "postalCode": "77032-2710"
      },
      {
        "line": [
          "24230 KUYKENDAHL RD. STE 310BOX 216"
        ],
        "city": "TOMBALL",
        "state": "TX",
        "postalCode": "77375-5123"
      },
      {
        "line": [
          "17630 Mantana Ct."
        ],
        "city": "SPRING",
        "state": "TX",
        "postalCode": "77373-5747"
      }
    ],
    "extension": [
      {
        "url": "https://fhir.athena.io/StructureDefinition/ah-practice",
        "valueReference": {
          "reference": "Organization/a-1.Practice-16143"
        }
      },
      {
        "url": "https://fhir.athena.io/StructureDefinition/ah-brand",
        "valueReference": {
          "reference": "Organization/a-16143.Brand-1"
        }
      }
    ]
  },
  "fullUrl": "urn:uuid:2053cf2b-96ed-5ee3-beaa-03b6dd286364"
}