{
  "resource": {
    "resourceType": "Organization",
    "id": "0d7425be-7631-5201-afe8-7e15588f4124",
    "name": "EVANSTON HOSPITAL",
    "endpoint": [
      {
        "reference": "Endpoint/27a4e967-47aa-5a9c-a572-b8297ee268a2"
      },
      {
        "reference": "Endpoint/e41f6fa0-d4b0-5144-bdb2-e8b30425e7c0"
      }
    ],
    "identifier": [
      {
        "system": "http://hl7.org/fhir/sid/us-npi",
        "value": "1598846883"
      }
    ],
    "address": [
      {
        "line": [
          "1666 CHECKER ROAD"
        ],
        "city": "LONG GROVE",
        "state": "IL",
        "postalCode": "60047-5289"
      },
      {
        "line": [
          "1651 Richfield Avenue"
        ],
        "city": "HIGHLAND PARK",
        "state": "IL",
        "postalCode": "60035-2950"
      },
      {
        "line": [
          "150 WEILAND ROAD"
        ],
        "city": "BUFFALO GROVE",
        "state": "IL",
        "postalCode": "60089-7047"
      },
      {
        "line": [
          "2650 RIDGE AVENUE"
        ],
        "city": "EVANSTON",
        "state": "IL",
        "postalCode": "60201-1718"
      },
      {
        "line": [
          "2500 INDIGO LANE"
        ],
        "city": "GLENVIEW NAS",
        "state": "IL",
        "postalCode": "60026-7797"
      },
      {
        "line": [
          "718 GLENVIEW AVENUE"
        ],
        "city": "HIGHLAND PARK",
        "state": "IL",
        "postalCode": "60035-2433"
      },
      {
        "line": [
          "150 JAMESTOWN LANE"
        ],
        "city": "LINCOLNSHIRE",
        "state": "IL",
        "postalCode": "60069-2119"
      },
      {
        "line": [
          "3300 MILWAUKEE AVENUE"
        ],
        "city": "NORTHBROOK",
        "state": "IL",
        "postalCode": "60062-7126"
      },
      {
        "line": [
          "1511 GREENWOOD ROAD"
        ],
        "city": "GLENVIEW",
        "state": "IL",
        "postalCode": "60025-1513"
      },
      {
        "line": [
          "500 McHenry Road"
        ],
        "city": "BUFFALO GROVE",
        "state": "IL",
        "postalCode": "60089-1705"
      },
      {
        "line": [
          "3705 DEERFIELD ROAD"
        ],
        "city": "DEERFIELD",
        "state": "IL",
        "postalCode": "60015-3540"
      },
      {
        "line": [
          "3200 Grant Street"
        ],
        "city": "EVANSTON",
        "state": "IL",
        "postalCode": "60201-1903"
      },
      {
        "line": [
          "3240 MILWAUKEE AVENUE"
        ],
        "city": "NORTHBROOK",
        "state": "IL",
        "postalCode": "60062-7124"
      },
      {
        "line": [
          "760 MCHENRY ROAD"
        ],
        "city": "WHEELING",
        "state": "IL",
        "postalCode": "60090-3861"
      },
      {
        "line": [
          "432 Poplar Drive"
        ],
        "city": "WILMETTE",
        "state": "IL",
        "postalCode": "60091-2731"
      },
      {
        "line": [
          "2100 PFINGSTON"
        ],
        "city": "GLENVIEW",
        "state": "IL",
        "postalCode": "60025-1301"
      },
      {
        "line": [
          "2200 GOLF ROAD"
        ],
        "city": "GLENVIEW",
        "state": "IL",
        "postalCode": "60025-4903"
      },
      {
        "line": [
          "145 N. Milwaukee Avenue"
        ],
        "city": "VERNON HILLS",
        "state": "IL",
        "postalCode": "60061-4170"
      },
      {
        "line": [
          "2323 McDaniel"
        ],
        "city": "EVANSTON",
        "state": "IL",
        "postalCode": "60201-2570"
      },
      {
        "line": [
          "730 W. HINTZ ROAD"
        ],
        "city": "WHEELING",
        "state": "IL",
        "postalCode": "60090-5501"
      },
      {
        "line": [
          "700 EAST EUCLID AVENUE",
          "PROSPECT HEIGHTS"
        ],
        "city": "PROSPECT HEIGHTS",
        "state": "IL",
        "postalCode": "60070-3409"
      },
      {
        "line": [
          "555 MCHENRY ROAD"
        ],
        "city": "WHEELING",
        "state": "IL",
        "postalCode": "60090-3856"
      },
      {
        "line": [
          "2155 Pfingsten Road"
        ],
        "city": "NORTHBROOK",
        "state": "IL",
        "postalCode": "60062-6427"
      },
      {
        "line": [
          "300 WAUKEGAN ROAD"
        ],
        "city": "DEERFIELD",
        "state": "IL",
        "postalCode": "60015-4908"
      }
    ],
    "extension": [
      {
        "url": "https://fhir.athena.io/StructureDefinition/ah-practice",
        "valueReference": {
          "reference": "Organization/a-1.Practice-6691"
        }
      },
      {
        "url": "https://fhir.athena.io/StructureDefinition/ah-brand",
        "valueReference": {
          "reference": "Organization/a-6691.Brand-1"
        }
      }
    ]
  },
  "fullUrl": "urn:uuid:0d7425be-7631-5201-afe8-7e15588f4124"
}