{
  "resource": {
    "resourceType": "Organization",
    "id": "566d0daf-6bc3-56bc-9efe-b22c14c835db",
    "name": "DOMINION CARDIOVASCULAR ASSOCIATES, P.C.",
    "endpoint": [
      {
        "reference": "Endpoint/27a4e967-47aa-5a9c-a572-b8297ee268a2"
      },
      {
        "reference": "Endpoint/167684fd-b742-5f67-87d6-35384e29e36f"
      }
    ],
    "identifier": [
      {
        "system": "http://hl7.org/fhir/sid/us-npi",
        "value": "1619236304"
      }
    ],
    "address": [
      {
        "line": [
          "6116 ROLLING ROAD",
          "SUITE 101"
        ],
        "city": "SPRINGFIELD",
        "state": "VA",
        "postalCode": "22152-1521"
      },
      {
        "line": [
          "3600 JOSEPH SIEWICK DRIVE"
        ],
        "city": "FAIRFAX",
        "state": "VA",
        "postalCode": "22033-1709"
      },
      {
        "line": [
          "8638 CENTREVILLE RD"
        ],
        "city": "MANASSAS",
        "state": "VA",
        "postalCode": "20110-5264"
      },
      {
        "line": [
          "6116 ROLLING RD #101"
        ],
        "city": "SPRINGFIELD",
        "state": "VA",
        "postalCode": "22152-1521"
      },
      {
        "line": [
          "3299 WOODBURN ROAD",
          "SUITE 360"
        ],
        "city": "ANNANDALE",
        "state": "VA",
        "postalCode": "22003-7304"
      },
      {
        "line": [
          "6116 Rolling Road",
          "Suite 101"
        ],
        "city": "SPRINGFIELD",
        "state": "VA",
        "postalCode": "22152-1521"
      },
      {
        "line": [
          "8605 Centreville Road"
        ],
        "city": "MANASSAS",
        "state": "VA",
        "postalCode": "20110-5265"
      },
      {
        "line": [
          "8700 SUDLEY ROAD"
        ],
        "city": "MANASSAS",
        "state": "VA",
        "postalCode": "20110-4418"
      },
      {
        "line": [
          "3300 GALLOWS ROAD"
        ],
        "city": "FALLS CHURCH",
        "state": "VA",
        "postalCode": "22042-3307"
      },
      {
        "line": [
          "611 S CARLIN SPRINGS RD"
        ],
        "city": "ARLINGTON",
        "state": "VA",
        "postalCode": "22204-1064"
      }
    ],
    "extension": [
      {
        "url": "https://fhir.athena.io/StructureDefinition/ah-practice",
        "valueReference": {
          "reference": "Organization/a-1.Practice-11138"
        }
      },
      {
        "url": "https://fhir.athena.io/StructureDefinition/ah-brand",
        "valueReference": {
          "reference": "Organization/a-11138.Brand-1"
        }
      }
    ]
  },
  "fullUrl": "urn:uuid:566d0daf-6bc3-56bc-9efe-b22c14c835db"
}