{
  "resource": {
    "resourceType": "Organization",
    "id": "155c62c5-1920-5b17-8e52-369d98cd7cca",
    "name": "SHELDON M. BUZNEY",
    "endpoint": [
      {
        "reference": "Endpoint/27a4e967-47aa-5a9c-a572-b8297ee268a2"
      },
      {
        "reference": "Endpoint/b7a65932-ff68-5fb9-b767-ab1b512af475"
      }
    ],
    "identifier": [
      {
        "system": "http://hl7.org/fhir/sid/us-npi",
        "value": "1568700706"
      }
    ],
    "address": [
      {
        "line": [
          "51 EAST MAIN ST"
        ],
        "city": "HYANNIS",
        "state": "MA",
        "postalCode": "02601-3109"
      },
      {
        "line": [
          "1261 FURNACE BROOK PKWAY"
        ],
        "city": "QUINCY",
        "state": "MA",
        "postalCode": "02169-4721"
      },
      {
        "line": [
          "215 SUMMER ST",
          "SUITE 12"
        ],
        "city": "HAVERHILL",
        "state": "MA",
        "postalCode": "01830-6305"
      },
      {
        "line": [
          "209 WEST CENTRAL ST",
          "SUITE 120"
        ],
        "city": "NATICK",
        "state": "MA",
        "postalCode": "01760-3716"
      },
      {
        "line": [
          "16 ROUTE @ 111 EAST"
        ],
        "city": "DERRY",
        "state": "NH",
        "postalCode": "03038-4142"
      },
      {
        "line": [
          "6 ESSEX CENTER DRIVE",
          "SUITE 103"
        ],
        "city": "PEABODY",
        "state": "MA",
        "postalCode": "01960-2905"
      },
      {
        "line": [
          "20 HOPE AVENUE",
          "SUITE 212"
        ],
        "city": "WALTHAM",
        "state": "MA",
        "postalCode": "02453-2717"
      },
      {
        "line": [
          "14 BRAMBLEBUSH PARK"
        ],
        "city": "FALMOUTH",
        "state": "MA",
        "postalCode": "02540-2325"
      },
      {
        "line": [
          "422 WORCESTER ST"
        ],
        "city": "WELLESLEY",
        "state": "MA",
        "postalCode": "02482-5341"
      },
      {
        "line": [
          "21 HIGHLAND AVE"
        ],
        "city": "NEWBURYPORT",
        "state": "MA",
        "postalCode": "01950-3872"
      },
      {
        "line": [
          "116R HIGHLAND AVE"
        ],
        "city": "SALEM",
        "state": "MA",
        "postalCode": "01970-2723"
      }
    ],
    "extension": [
      {
        "url": "https://fhir.athena.io/StructureDefinition/ah-practice",
        "valueReference": {
          "reference": "Organization/a-1.Practice-5969"
        }
      },
      {
        "url": "https://fhir.athena.io/StructureDefinition/ah-brand",
        "valueReference": {
          "reference": "Organization/a-5969.Brand-1"
        }
      }
    ]
  },
  "fullUrl": "urn:uuid:155c62c5-1920-5b17-8e52-369d98cd7cca"
}