{
  "resource": {
    "resourceType": "Organization",
    "id": "deb9c63a-db25-57c7-852f-a0d30b558a83",
    "name": "Access Physicians",
    "endpoint": [
      {
        "reference": "Endpoint/27a4e967-47aa-5a9c-a572-b8297ee268a2"
      },
      {
        "reference": "Endpoint/54ee7fc2-f404-51d8-acf6-47244dd57ef1"
      }
    ],
    "identifier": [
      {
        "system": "http://hl7.org/fhir/sid/us-npi",
        "value": "1013303080"
      },
      {
        "system": "http://hl7.org/fhir/sid/us-npi",
        "value": "1861959959"
      },
      {
        "system": "http://hl7.org/fhir/sid/us-npi",
        "value": "1902415904"
      }
    ],
    "address": [
      {
        "line": [
          "1195 BOYSON RD",
          "STE 101"
        ],
        "city": "HIAWATHA",
        "state": "IA",
        "postalCode": "52233-2218"
      },
      {
        "line": [
          "2026 S JACKSON ST"
        ],
        "city": "JACKSONVILLE",
        "state": "TX",
        "postalCode": "75766-5822"
      },
      {
        "line": [
          "603 N Progress Ave"
        ],
        "city": "SILOAM SPRINGS",
        "state": "AR",
        "postalCode": "72761-4352"
      },
      {
        "line": [
          "4903 VALERIE ST"
        ],
        "city": "BELLAIRE",
        "state": "TX",
        "postalCode": "77401-5707"
      },
      {
        "line": [
          "1700 RAINBOW BLVD"
        ],
        "city": "EXCELSIOR SPRINGS",
        "state": "MO",
        "postalCode": "64024-1182"
      },
      {
        "line": [
          "830 ROCKFORD ST"
        ],
        "city": "MOUNT AIRY",
        "state": "NC",
        "postalCode": "27030-5322"
      },
      {
        "line": [
          "2101 DUBOIS DR"
        ],
        "city": "WARSAW",
        "state": "IN",
        "postalCode": "46580-3210"
      },
      {
        "line": [
          "2606 River Slate Ct"
        ],
        "city": "KINGWOOD",
        "state": "TX",
        "postalCode": "77345-1513"
      },
      {
        "line": [
          "1395 S PINELLAS AVE"
        ],
        "city": "TARPON SPRINGS",
        "state": "FL",
        "postalCode": "34689-3790"
      },
      {
        "line": [
          "200 STADIUM DR"
        ],
        "city": "SEYMOUR",
        "state": "TX",
        "postalCode": "76380-2344"
      },
      {
        "line": [
          "3510 Roswell Road NW Apt M2"
        ],
        "city": "ATLANTA",
        "state": "GA",
        "postalCode": "30305-1213"
      },
      {
        "line": [
          "455 SAINT MICHAELS DR"
        ],
        "city": "SANTA FE",
        "state": "NM",
        "postalCode": "87505-7601"
      },
      {
        "line": [
          "850 W BARAGA AVE"
        ],
        "city": "MARQUETTE",
        "state": "MI",
        "postalCode": "49855-4550"
      },
      {
        "line": [
          "3912 RILEY RD"
        ],
        "city": "TERRE HAUTE",
        "state": "IN",
        "postalCode": "47802-8925"
      },
      {
        "line": [
          "7900 LEES SUMMIT RD"
        ],
        "city": "KANSAS CITY",
        "state": "MO",
        "postalCode": "64139-1236"
      },
      {
        "line": [
          "1 Pheasant Way"
        ],
        "city": "SOUTH BURLINGTON",
        "state": "VT",
        "postalCode": "05403-8705"
      },
      {
        "line": [
          "1026 A AVE NE"
        ],
        "city": "CEDAR RAPIDS",
        "state": "IA",
        "postalCode": "52402-5036"
      },
      {
        "line": [
          "1900 Bending Oak Street"
        ],
        "city": "ALEDO",
        "state": "TX",
        "postalCode": "76008-1646"
      },
      {
        "line": [
          "11113 Research Blvd"
        ],
        "city": "AUSTIN",
        "state": "TX",
        "postalCode": "78759-5236"
      },
      {
        "line": [
          "2450 S TELSHOR BLVD"
        ],
        "city": "LAS CRUCES",
        "state": "NM",
        "postalCode": "88011-5069"
      },
      {
        "line": [
          "822 S 12TH ST"
        ],
        "city": "PHILADELPHIA",
        "state": "PA",
        "postalCode": "19147-2624"
      },
      {
        "line": [
          "11297 FALLBROOK DR"
        ],
        "city": "HOUSTON",
        "state": "TX",
        "postalCode": "77065-4230"
      },
      {
        "line": [
          "329 Bastrop Blvd"
        ],
        "city": "MCKINNEY",
        "state": "TX",
        "postalCode": "75069-1284"
      },
      {
        "line": [
          "5959 PARK AVE"
        ],
        "city": "MEMPHIS",
        "state": "TN",
        "postalCode": "38119-5200"
      },
      {
        "line": [
          "2201 LEXINGTON AVE"
        ],
        "city": "ASHLAND",
        "state": "KY",
        "postalCode": "41101-2843"
      },
      {
        "line": [
          "601 DR MARTIN LUTHER KING JR AVE NE"
        ],
        "city": "ALBUQUERQUE",
        "state": "NM",
        "postalCode": "87102-3619"
      },
      {
        "line": [
          "232 S WOODS MILL RD"
        ],
        "city": "CHESTERFIELD",
        "state": "MO",
        "postalCode": "63017-3406"
      },
      {
        "line": [
          "700 SCOTT AND WHITE DR"
        ],
        "city": "COLLEGE STATION",
        "state": "TX",
        "postalCode": "77845-6441"
      },
      {
        "line": [
          "4514 WHITESTONE WAY"
        ],
        "city": "SUWANEE",
        "state": "GA",
        "postalCode": "30024-7592"
      },
      {
        "line": [
          "810 W SHADY LN"
        ],
        "city": "NEW ALBANY",
        "state": "MS",
        "postalCode": "38652-1607"
      },
      {
        "line": [
          "2590 Atlantic WV"
        ],
        "city": "CORPUS CHRISTI",
        "state": "TX",
        "postalCode": "78415-1422"
      },
      {
        "line": [
          "7565 DANNAHER DR"
        ],
        "city": "POWELL",
        "state": "TN",
        "postalCode": "37849-4029"
      },
      {
        "line": [
          "303 S MAIN ST"
        ],
        "city": "BLUFFTON",
        "state": "IN",
        "postalCode": "46714-2503"
      },
      {
        "line": [
          "270 Bruton Way"
        ],
        "city": "ATLANTA",
        "state": "GA",
        "postalCode": "30342-2052"
      },
      {
        "line": [
          "2619 VISTA LARGA AVE NE"
        ],
        "city": "ALBUQUERQUE",
        "state": "NM",
        "postalCode": "87106-2649"
      },
      {
        "line": [
          "1007 S William St"
        ],
        "city": "ATLANTA",
        "state": "TX",
        "postalCode": "75551-3245"
      },
      {
        "line": [
          "901 GRANT ST"
        ],
        "city": "HARVARD",
        "state": "IL",
        "postalCode": "60033-1821"
      },
      {
        "line": [
          "795 MIDDLE ST"
        ],
        "city": "FALL RIVER",
        "state": "MA",
        "postalCode": "02721-1733"
      },
      {
        "line": [
          "450 E ROMIE LN"
        ],
        "city": "SALINAS",
        "state": "CA",
        "postalCode": "93901-4029"
      },
      {
        "line": [
          "1 HOSPITAL DR"
        ],
        "city": "LOWELL",
        "state": "MA",
        "postalCode": "01852-1311"
      },
      {
        "line": [
          "4311 E Lohman Ave"
        ],
        "city": "LAS CRUCES",
        "state": "NM",
        "postalCode": "88011-8255"
      },
      {
        "line": [
          "2800 10TH AVE N"
        ],
        "city": "BILLINGS",
        "state": "MT",
        "postalCode": "59101-0703"
      },
      {
        "line": [
          "1400 RIVER PL"
        ],
        "city": "BRASELTON",
        "state": "GA",
        "postalCode": "30517-5600"
      },
      {
        "line": [
          "1325 TN-76"
        ],
        "city": "CLARKSVILLE",
        "state": "TN",
        "postalCode": "37043-0062"
      },
      {
        "line": [
          "6441 MAIN ST"
        ],
        "city": "HOUSTON",
        "state": "TX",
        "postalCode": "77030-1502"
      },
      {
        "line": [
          "390 S MAIN ST"
        ],
        "city": "ROCKY MOUNT",
        "state": "VA",
        "postalCode": "24151-1766"
      },
      {
        "line": [
          "57 River Edge Farms Rd."
        ],
        "city": "MADISON",
        "state": "CT",
        "postalCode": "06443-2711"
      },
      {
        "line": [
          "2555 JIMMY JOHNSON BLVD"
        ],
        "city": "PORT ARTHUR",
        "state": "TX",
        "postalCode": "77640-2007"
      },
      {
        "line": [
          "3201 W HIGHWAY 22"
        ],
        "city": "CORSICANA",
        "state": "TX",
        "postalCode": "75110-2450"
      },
      {
        "line": [
          "4401 Royalview Road"
        ],
        "city": "KNOXVILLE",
        "state": "TN",
        "postalCode": "37921-3129"
      },
      {
        "line": [
          "350 N GRANDVIEW AVE"
        ],
        "city": "DUBUQUE",
        "state": "IA",
        "postalCode": "52001-6388"
      },
      {
        "line": [
          "54 SGT PRENTISS DR"
        ],
        "city": "NATCHEZ",
        "state": "MS",
        "postalCode": "39120-4726"
      },
      {
        "line": [
          "6001 KYLE PKWY"
        ],
        "city": "KYLE",
        "state": "TX",
        "postalCode": "78640-6112"
      },
      {
        "line": [
          "301 FLYNN DR"
        ],
        "city": "MILBANK",
        "state": "SD",
        "postalCode": "57252-1508"
      },
      {
        "line": [
          "1200 Hospital Drive"
        ],
        "city": "MOUNT PLEASANT",
        "state": "SC",
        "postalCode": "29464-3251"
      },
      {
        "line": [
          "11885 KING RD"
        ],
        "city": "ROSWELL",
        "state": "GA",
        "postalCode": "30075-1442"
      },
      {
        "line": [
          "14200 W CELEBRATE LIFE WAY"
        ],
        "city": "GOODYEAR",
        "state": "AZ",
        "postalCode": "85338-3007"
      },
      {
        "line": [
          "7000 S COUNTY LINE RD"
        ],
        "city": "WILLOWBROOK",
        "state": "IL",
        "postalCode": "60527-6973"
      },
      {
        "line": [
          "3066 VALLEYBROOK CT"
        ],
        "city": "NEWBURGH",
        "state": "IN",
        "postalCode": "47630-2682"
      },
      {
        "line": [
          "850 W CENTRAL TEXAS EXPY"
        ],
        "city": "HARKER HEIGHTS",
        "state": "TX",
        "postalCode": "76548-1890"
      },
      {
        "line": [
          "2525 COURT DR"
        ],
        "city": "GASTONIA",
        "state": "NC",
        "postalCode": "28054-2140"
      },
      {
        "line": [
          "5900 COLLEGE RD"
        ],
        "city": "KEY WEST",
        "state": "FL",
        "postalCode": "33040-4342"
      },
      {
        "line": [
          "580 COURT ST"
        ],
        "city": "KEENE",
        "state": "NH",
        "postalCode": "03431-1718"
      },
      {
        "line": [
          "3 Rockhill Road"
        ],
        "city": "ARMONK",
        "state": "NY",
        "postalCode": "10504-1406"
      },
      {
        "line": [
          "999 SAN BERNARDINO RD"
        ],
        "city": "UPLAND",
        "state": "CA",
        "postalCode": "91786-4920"
      },
      {
        "line": [
          "800 MERCY DR"
        ],
        "city": "COUNCIL BLUFFS",
        "state": "IA",
        "postalCode": "51503-3128"
      },
      {
        "line": [
          "807 FARSON ST STE 103"
        ],
        "city": "BELPRE",
        "state": "OH",
        "postalCode": "45714-1000"
      },
      {
        "line": [
          "2600 St. Michael Drive"
        ],
        "city": "TEXARKANA",
        "state": "TX",
        "postalCode": "75503-5220"
      },
      {
        "line": [
          "1919 Crimson Rosella Trail"
        ],
        "city": "AUSTIN",
        "state": "TX",
        "postalCode": "78728-4760"
      },
      {
        "line": [
          "200 E STATE ST"
        ],
        "city": "ALLIANCE",
        "state": "OH",
        "postalCode": "44601-4936"
      },
      {
        "line": [
          "540 LITCHFIELD ST"
        ],
        "city": "TORRINGTON",
        "state": "CT",
        "postalCode": "06790-6679"
      },
      {
        "line": [
          "8220 NAVARRE PKWY"
        ],
        "city": "NAVARRE",
        "state": "FL",
        "postalCode": "32566-6943"
      },
      {
        "line": [
          "6901 Medical Pkwy"
        ],
        "city": "WOODWAY",
        "state": "TX",
        "postalCode": "76712-7910"
      },
      {
        "line": [
          "1310 PALUXY RD"
        ],
        "city": "GRANBURY",
        "state": "TX",
        "postalCode": "76048-5655"
      },
      {
        "line": [
          "7950 W JEFFERSON BLVD"
        ],
        "city": "FORT WAYNE",
        "state": "IN",
        "postalCode": "46804-4140"
      },
      {
        "line": [
          "8918 River Trace"
        ],
        "city": "SAN ANTONIO",
        "state": "TX",
        "postalCode": "78255-2380"
      },
      {
        "line": [
          "506 SUMMIT AVE # 2"
        ],
        "city": "WESTFIELD",
        "state": "NJ",
        "postalCode": "07090-3200"
      },
      {
        "line": [
          "4701 MONTGOMERY BLVD NE"
        ],
        "city": "ALBUQUERQUE",
        "state": "NM",
        "postalCode": "87109-1219"
      },
      {
        "line": [
          "17200 ST LUKES WAY"
        ],
        "city": "the woodlands",
        "state": "TX",
        "postalCode": "77384-8007"
      },
      {
        "line": [
          "81 MERIDEN AVE"
        ],
        "city": "SOUTHINGTON",
        "state": "CT",
        "postalCode": "06489-3268"
      },
      {
        "line": [
          "1008 N MAIN ST"
        ],
        "city": "SIKESTON",
        "state": "MO",
        "postalCode": "63801-5044"
      },
      {
        "line": [
          "4133 Evergreen Lane"
        ],
        "city": "RICHFIELD",
        "state": "OH",
        "postalCode": "44286-9595"
      },
      {
        "line": [
          "2430 W PIERCE ST"
        ],
        "city": "CARLSBAD",
        "state": "NM",
        "postalCode": "88220-3553"
      },
      {
        "line": [
          "3400 DEERFIELD DR"
        ],
        "city": "JANESVILLE",
        "state": "WI",
        "postalCode": "53546-3557"
      },
      {
        "line": [
          "1321 UPLAND DR PMB 7417"
        ],
        "city": "HOUSTON",
        "state": "TX",
        "postalCode": "77043-4718"
      },
      {
        "line": [
          "13855 E 14TH ST"
        ],
        "city": "SAN LEANDRO",
        "state": "CA",
        "postalCode": "94578-2611"
      },
      {
        "line": [
          "3534 DURHILL ST"
        ],
        "city": "HOUSTON",
        "state": "TX",
        "postalCode": "77025-4106"
      },
      {
        "line": [
          "4920 NE STALLINGS DR"
        ],
        "city": "NACOGDOCHES",
        "state": "TX",
        "postalCode": "75965-1254"
      },
      {
        "line": [
          "104 7th St"
        ],
        "city": "BAY CITY",
        "state": "TX",
        "postalCode": "77414-4853"
      },
      {
        "line": [
          "20988 Cipres Way"
        ],
        "city": "BOCA RATON",
        "state": "FL",
        "postalCode": "33433-1604"
      },
      {
        "line": [
          "810 NW 15th Street"
        ],
        "city": "OKLAHOMA CITY",
        "state": "OK",
        "postalCode": "73106-6606"
      },
      {
        "line": [
          "16955 Sonoma Ridge"
        ],
        "city": "SAN ANTONIO",
        "state": "TX",
        "postalCode": "78255-3804"
      },
      {
        "line": [
          "2314 Pistachio Drive"
        ],
        "city": "IRVING",
        "state": "TX",
        "postalCode": "75063-3450"
      },
      {
        "line": [
          "171 FAIRVIEW RD"
        ],
        "city": "MOORESVILLE",
        "state": "NC",
        "postalCode": "28117-9500"
      },
      {
        "line": [
          "427 GUY PARK AVE"
        ],
        "city": "AMSTERDAM",
        "state": "NY",
        "postalCode": "12010-1064"
      },
      {
        "line": [
          "1000 MEDICAL CENTER DR"
        ],
        "city": "HARDEEVILLE",
        "state": "SC",
        "postalCode": "29927-3446"
      },
      {
        "line": [
          "117 E 19TH ST"
        ],
        "city": "ROSWELL",
        "state": "NM",
        "postalCode": "88201-5151"
      },
      {
        "line": [
          "1102 W TRENTON RD"
        ],
        "city": "EDINBURG",
        "state": "TX",
        "postalCode": "78539-9105"
      },
      {
        "line": [
          "208 COLUMBUS ST"
        ],
        "city": "HICKSVILLE",
        "state": "OH",
        "postalCode": "43526-1250"
      },
      {
        "line": [
          "582 Norwich Road"
        ],
        "city": "PLAINFIELD",
        "state": "CT",
        "postalCode": "06374-1727"
      },
      {
        "line": [
          "1508 COUGAR RD"
        ],
        "city": "GILMER",
        "state": "TX",
        "postalCode": "75644-4118"
      },
      {
        "line": [
          "21 Heritage Way"
        ],
        "city": "MARBLEHEAD",
        "state": "MA",
        "postalCode": "01945-2331"
      },
      {
        "line": [
          "1 SHIRCLIFF WAY"
        ],
        "city": "JACKSONVILLE",
        "state": "FL",
        "postalCode": "32204-4748"
      },
      {
        "line": [
          "304 S DAUGHERTY AVE"
        ],
        "city": "EASTLAND",
        "state": "TX",
        "postalCode": "76448-2609"
      },
      {
        "line": [
          "1660 60TH ST"
        ],
        "city": "WEST DES MOINES",
        "state": "IA",
        "postalCode": "50266-7700"
      },
      {
        "line": [
          "2200 N SECTION ST"
        ],
        "city": "SULLIVAN",
        "state": "IN",
        "postalCode": "47882-7523"
      },
      {
        "line": [
          "68 Harris-Bushville Road"
        ],
        "city": "MONTICELLO",
        "state": "NY",
        "postalCode": "12701-3027"
      },
      {
        "line": [
          "2 Calle Final"
        ],
        "city": "PLACITAS",
        "state": "NM",
        "postalCode": "87043-9214"
      },
      {
        "line": [
          "310 S MCCASKEY RD"
        ],
        "city": "WILLIAMSTON",
        "state": "NC",
        "postalCode": "27892-2150"
      },
      {
        "line": [
          "2692 Shadow Bluff Dr NE"
        ],
        "city": "MARIETTA",
        "state": "GA",
        "postalCode": "30062-2568"
      },
      {
        "line": [
          "1435 DARLINGTON LN"
        ],
        "city": "FORNEY",
        "state": "TX",
        "postalCode": "75126-1789"
      },
      {
        "line": [
          "1 GUTHRIE DR"
        ],
        "city": "CORNING",
        "state": "NY",
        "postalCode": "14830-3696"
      },
      {
        "line": [
          "981 WOOSTER RD"
        ],
        "city": "MILLERSBURG",
        "state": "OH",
        "postalCode": "44654-1536"
      },
      {
        "line": [
          "23599 Stanford Road"
        ],
        "city": "BEACHWOOD",
        "state": "OH",
        "postalCode": "44122-2612"
      },
      {
        "line": [
          "1200 N Lake Shore Dr APT 702"
        ],
        "city": "CHICAGO",
        "state": "IL",
        "postalCode": "60610-2347"
      },
      {
        "line": [
          "8745 N WICKHAM RD"
        ],
        "city": "MELBOURNE",
        "state": "FL",
        "postalCode": "32940-5997"
      },
      {
        "line": [
          "8234 Stage Coach Lane"
        ],
        "city": "BOCA RATON",
        "state": "FL",
        "postalCode": "33496-1220"
      },
      {
        "line": [
          "1850 SE 18th Ave APT 2508"
        ],
        "city": "OCALA",
        "state": "FL",
        "postalCode": "34471-8262"
      },
      {
        "line": [
          "15610 Oak Glen Circle"
        ],
        "city": "HUGHESVILLE",
        "state": "MD",
        "postalCode": "20637-2735"
      },
      {
        "line": [
          "701 LEWISTON ST"
        ],
        "city": "COTTONWOOD",
        "state": "ID",
        "postalCode": "83522-9750"
      },
      {
        "line": [
          "1601 W SAINT MARYS RD"
        ],
        "city": "TUCSON",
        "state": "AZ",
        "postalCode": "85745-2623"
      },
      {
        "line": [
          "243 ELM ST"
        ],
        "city": "CLAREMONT",
        "state": "NH",
        "postalCode": "03743-4921"
      },
      {
        "line": [
          "224 HAMBURG TPKE"
        ],
        "city": "WAYNE",
        "state": "NJ",
        "postalCode": "07470-2168"
      },
      {
        "line": [
          "2700 SW 27th Ave Apt 1017"
        ],
        "city": "MIAMI",
        "state": "FL",
        "postalCode": "33133-3057"
      },
      {
        "line": [
          "1309 Park Road NW Apt 302"
        ],
        "city": "WASHINGTON",
        "state": "DC",
        "postalCode": "20010-2336"
      },
      {
        "line": [
          "7644 SW 158th Avenue"
        ],
        "city": "MIAMI",
        "state": "FL",
        "postalCode": "33193-2970"
      },
      {
        "line": [
          "6513 St. Louis"
        ],
        "city": "LINCOLNWOOD",
        "state": "IL",
        "postalCode": "60712-3832"
      },
      {
        "line": [
          "1551 E Tangerine Rd"
        ],
        "city": "TUCSON",
        "state": "AZ",
        "postalCode": "85755-6213"
      },
      {
        "line": [
          "189 PROUTY DR"
        ],
        "city": "NEWPORT",
        "state": "VT",
        "postalCode": "05855-9326"
      },
      {
        "line": [
          "1 HOSPITAL DR"
        ],
        "city": "LEWISBURG",
        "state": "PA",
        "postalCode": "17837-9350"
      },
      {
        "line": [
          "8201 E RIVERSIDE BLVD"
        ],
        "city": "ROCKFORD",
        "state": "IL",
        "postalCode": "61114-2300"
      },
      {
        "line": [
          "2525 GLENN HENDREN DR"
        ],
        "city": "LIBERTY",
        "state": "MO",
        "postalCode": "64068-9625"
      },
      {
        "line": [
          "719 W. Coke Rd."
        ],
        "city": "WINNSBORO",
        "state": "TX",
        "postalCode": "75494-3011"
      },
      {
        "line": [
          "3130 N Harwood St Apt 1103"
        ],
        "city": "DALLAS",
        "state": "TX",
        "postalCode": "75201-1117"
      },
      {
        "line": [
          "10201 HIGHWAY 16"
        ],
        "city": "COMANCHE",
        "state": "TX",
        "postalCode": "76442-4462"
      },
      {
        "line": [
          "5100 LOOP 500 E"
        ],
        "city": "CENTER",
        "state": "TX",
        "postalCode": "75935-9751"
      },
      {
        "line": [
          "1475 E STATE ROAD 44"
        ],
        "city": "CONNERSVILLE",
        "state": "IN",
        "postalCode": "47331-8383"
      },
      {
        "line": [
          "10855 VIRGINIA ST"
        ],
        "city": "CROWN POINT",
        "state": "IN",
        "postalCode": "46307-0210"
      },
      {
        "line": [
          "777 HOSPITAL WAY"
        ],
        "city": "POCATELLO",
        "state": "ID",
        "postalCode": "83201-5175"
      },
      {
        "line": [
          "17240 Cortez Blvd"
        ],
        "city": "BROOKSVILLE",
        "state": "FL",
        "postalCode": "34601-8921"
      },
      {
        "line": [
          "1140 LEXINGTON RD"
        ],
        "city": "GEORGETOWN",
        "state": "KY",
        "postalCode": "40324-9330"
      },
      {
        "line": [
          "3010 15th Ave S"
        ],
        "city": "GREAT FALLS",
        "state": "MT",
        "postalCode": "59405-5240"
      },
      {
        "line": [
          "430 E DIVISION ST"
        ],
        "city": "FOND DU LAC",
        "state": "WI",
        "postalCode": "54935-4560"
      },
      {
        "line": [
          "1700 E SAUNDERS ST"
        ],
        "city": "LAREDO",
        "state": "TX",
        "postalCode": "78041-5401"
      },
      {
        "line": [
          "1510 Winterbrook Ct"
        ],
        "city": "ALLEN",
        "state": "TX",
        "postalCode": "75002-2645"
      },
      {
        "line": [
          "302 College Park Rd"
        ],
        "city": "LA FOLLETTE",
        "state": "TN",
        "postalCode": "37766-8210"
      },
      {
        "line": [
          "7 AVENIDA VISTA GRANDE STE B7 PMB 551"
        ],
        "city": "SANTA FE",
        "state": "NM",
        "postalCode": "87508-9207"
      },
      {
        "line": [
          "1150 N INDIAN CANYON DR"
        ],
        "city": "PALM SPRINGS",
        "state": "CA",
        "postalCode": "92262-4872"
      },
      {
        "line": [
          "6901 N 72ND ST"
        ],
        "city": "OMAHA",
        "state": "NE",
        "postalCode": "68122-1709"
      },
      {
        "line": [
          "134 HOMER AVE"
        ],
        "city": "CORTLAND",
        "state": "NY",
        "postalCode": "13045-1206"
      },
      {
        "line": [
          "44 N PEARL ST APT 4"
        ],
        "city": "BUFFALO",
        "state": "NY",
        "postalCode": "14202-1416"
      },
      {
        "line": [
          "707 E MAIN ST"
        ],
        "city": "MIDDLETOWN",
        "state": "NY",
        "postalCode": "10940-2650"
      },
      {
        "line": [
          "11890 HEALING WAY"
        ],
        "city": "SILVER SPRING",
        "state": "MD",
        "postalCode": "20904-7917"
      },
      {
        "line": [
          "1 HOSPITAL DR SW"
        ],
        "city": "HUNTSVILLE",
        "state": "AL",
        "postalCode": "35801-6455"
      },
      {
        "line": [
          "1 MEDICAL CENTER BLVD"
        ],
        "city": "COOKEVILLE",
        "state": "TN",
        "postalCode": "38501-4294"
      },
      {
        "line": [
          "8300 Collier Blvd"
        ],
        "city": "NAPLES",
        "state": "FL",
        "postalCode": "34114-3549"
      },
      {
        "line": [
          "1441 FLORIDA AVE"
        ],
        "city": "MODESTO",
        "state": "CA",
        "postalCode": "95350-4404"
      },
      {
        "line": [
          "746 Jefferson Ave"
        ],
        "city": "SCRANTON",
        "state": "PA",
        "postalCode": "18510-1624"
      },
      {
        "line": [
          "1515 Union Ave"
        ],
        "city": "MOBERLY",
        "state": "MO",
        "postalCode": "65270-9407"
      },
      {
        "line": [
          "1625 Medical Center Dr"
        ],
        "city": "EL PASO",
        "state": "TX",
        "postalCode": "79902-5005"
      },
      {
        "line": [
          "21644 STATE ROAD 7"
        ],
        "city": "BOCA RATON",
        "state": "FL",
        "postalCode": "33428-1842"
      },
      {
        "line": [
          "6001 Norris Canyon Rd"
        ],
        "city": "SAN RAMON",
        "state": "CA",
        "postalCode": "94583-5400"
      },
      {
        "line": [
          "416 E Maumee St"
        ],
        "city": "ANGOLA",
        "state": "IN",
        "postalCode": "46703-2015"
      },
      {
        "line": [
          "3010 15th Ave"
        ],
        "city": "GREAT FALLS",
        "state": "MT",
        "postalCode": "59405-5240"
      },
      {
        "line": [
          "1 SAINT FRANCIS DR"
        ],
        "city": "GREENVILLE",
        "state": "SC",
        "postalCode": "29601-3955"
      },
      {
        "line": [
          "2127 S 1ST ST"
        ],
        "city": "TERRE HAUTE",
        "state": "IN",
        "postalCode": "47802-3034"
      },
      {
        "line": [
          "1900 N 14th St"
        ],
        "city": "PONCA CITY",
        "state": "OK",
        "postalCode": "74601-2035"
      },
      {
        "line": [
          "135 S GIBSON ST"
        ],
        "city": "MEDFORD",
        "state": "WI",
        "postalCode": "54451-1622"
      },
      {
        "line": [
          "18720 Cannon Crossing Way"
        ],
        "city": "DAVIDSON",
        "state": "NC",
        "postalCode": "28036-8805"
      },
      {
        "line": [
          "2262 Alterbrook Lane"
        ],
        "city": "DALLAS",
        "state": "TX",
        "postalCode": "75219-3683"
      },
      {
        "line": [
          "875 N BREA BLVD"
        ],
        "city": "BREA",
        "state": "CA",
        "postalCode": "92821-2606"
      },
      {
        "line": [
          "11135 FLORIDA BLVD"
        ],
        "city": "BATON ROUGE",
        "state": "LA",
        "postalCode": "70815-2013"
      },
      {
        "line": [
          "600 SAINT JOHNSBURY RD"
        ],
        "city": "LITTLETON",
        "state": "NH",
        "postalCode": "03561-3442"
      },
      {
        "line": [
          "10501 E 91ST ST"
        ],
        "city": "TULSA",
        "state": "OK",
        "postalCode": "74133-5790"
      },
      {
        "line": [
          "1201 W FRANK AVE"
        ],
        "city": "LUFKIN",
        "state": "TX",
        "postalCode": "75904-3357"
      },
      {
        "line": [
          "102 Glade Park Road"
        ],
        "city": "CARY",
        "state": "NC",
        "postalCode": "27518-8683"
      },
      {
        "line": [
          "100 Summit Dr."
        ],
        "city": "YORK",
        "state": "PA",
        "postalCode": "17403-3647"
      },
      {
        "line": [
          "363 HIGHLAND AVE"
        ],
        "city": "FALL RIVER",
        "state": "MA",
        "postalCode": "02720-3703"
      },
      {
        "line": [
          "2400 N ROCKTON AVE"
        ],
        "city": "ROCKFORD",
        "state": "IL",
        "postalCode": "61103-3655"
      },
      {
        "line": [
          "4177 Nia Dr."
        ],
        "city": "IRVING",
        "state": "TX",
        "postalCode": "75038-5602"
      },
      {
        "line": [
          "201 WELLNESS WAY"
        ],
        "city": "READING",
        "state": "PA",
        "postalCode": "19605-8902"
      },
      {
        "line": [
          "2401 W Wrangler Blvd"
        ],
        "city": "SEMINOLE",
        "state": "OK",
        "postalCode": "74868-1917"
      },
      {
        "line": [
          "5629 S. Laurelwood Street"
        ],
        "city": "SALT LAKE CITY",
        "state": "UT",
        "postalCode": "84121-1216"
      },
      {
        "line": [
          "1900 S D ST"
        ],
        "city": "MCALLEN",
        "state": "TX",
        "postalCode": "78503-1507"
      },
      {
        "line": [
          "600 S PINE ST"
        ],
        "city": "DERIDDER",
        "state": "LA",
        "postalCode": "70634-4942"
      },
      {
        "line": [
          "241 NEW RIVER DR"
        ],
        "city": "JACKSONVILLE",
        "state": "NC",
        "postalCode": "28540-5928"
      },
      {
        "line": [
          "100 BOWMAN DR"
        ],
        "city": "VOORHEES",
        "state": "NJ",
        "postalCode": "08043-9612"
      },
      {
        "line": [
          "630 HIGHWAY 71 W"
        ],
        "city": "BASTROP",
        "state": "TX",
        "postalCode": "78602-4282"
      },
      {
        "line": [
          "1215 E. Court Street"
        ],
        "city": "SEGUIN",
        "state": "TX",
        "postalCode": "78155-5129"
      },
      {
        "line": [
          "8049 SOUTH AVE"
        ],
        "city": "YOUNGSTOWN",
        "state": "OH",
        "postalCode": "44512-6154"
      },
      {
        "line": [
          "4500 BRONZE OAK LN"
        ],
        "city": "ARLINGTON",
        "state": "TX",
        "postalCode": "76005-1288"
      },
      {
        "line": [
          "10024 Harper Rd."
        ],
        "city": "CADET",
        "state": "MO",
        "postalCode": "63630-9393"
      },
      {
        "line": [
          "3201 S WATER ST"
        ],
        "city": "BURNET",
        "state": "TX",
        "postalCode": "78611-4510"
      },
      {
        "line": [
          "333 N SANTA ROSA"
        ],
        "city": "SAN ANTONIO",
        "state": "TX",
        "postalCode": "78207-3108"
      },
      {
        "line": [
          "130 HAYS ST"
        ],
        "city": "LULING",
        "state": "TX",
        "postalCode": "78648-3207"
      },
      {
        "line": [
          "273 COUNTY RD"
        ],
        "city": "NEW LONDON",
        "state": "NH",
        "postalCode": "03257-5736"
      },
      {
        "line": [
          "500 La Vida Ct."
        ],
        "city": "IRVING",
        "state": "TX",
        "postalCode": "75062-6565"
      },
      {
        "line": [
          "506 E San Antonio St"
        ],
        "city": "VICTORIA",
        "state": "TX",
        "postalCode": "77901-6060"
      },
      {
        "line": [
          "485 N KS-2"
        ],
        "city": "ANTHONY",
        "state": "KS",
        "postalCode": "67003-0421"
      },
      {
        "line": [
          "6331 Mercedes Ave"
        ],
        "city": "DALLAS",
        "state": "TX",
        "postalCode": "75214-3007"
      },
      {
        "line": [
          "218 OLD MOCKSVILLE RD"
        ],
        "city": "STATESVILLE",
        "state": "NC",
        "postalCode": "28625-1930"
      },
      {
        "line": [
          "6801 GOVERNOR GC PEERY HWY"
        ],
        "city": "RICHLANDS",
        "state": "VA",
        "postalCode": "24641-2194"
      },
      {
        "line": [
          "333 PINE RIDGE BLVD"
        ],
        "city": "WAUSAU",
        "state": "WI",
        "postalCode": "54401-4102"
      },
      {
        "line": [
          "555 E Braemere RD"
        ],
        "city": "BOISE",
        "state": "ID",
        "postalCode": "83702-1717"
      },
      {
        "line": [
          "703 MAIN ST"
        ],
        "city": "PATERSON",
        "state": "NJ",
        "postalCode": "07503-2621"
      },
      {
        "line": [
          "700 S PARK ST"
        ],
        "city": "MADISON",
        "state": "WI",
        "postalCode": "53715-1830"
      },
      {
        "line": [
          "1301 WONDER WORLD DR"
        ],
        "city": "SAN MARCOS",
        "state": "TX",
        "postalCode": "78666-7533"
      },
      {
        "line": [
          "2233 STATE ROUTE 86"
        ],
        "city": "SARANAC LAKE",
        "state": "NY",
        "postalCode": "12983-5644"
      },
      {
        "line": [
          "7021 Lyre Lane"
        ],
        "city": "DALLAS",
        "state": "TX",
        "postalCode": "75214-2832"
      },
      {
        "line": [
          "10461 Quality Dr"
        ],
        "city": "SPRING HILL",
        "state": "FL",
        "postalCode": "34609-9634"
      },
      {
        "line": [
          "200 Hospital Dr"
        ],
        "city": "GALAX",
        "state": "VA",
        "postalCode": "24333-2227"
      },
      {
        "line": [
          "215 BRIGHTWATER DR"
        ],
        "city": "LILLINGTON",
        "state": "NC",
        "postalCode": "27546-5156"
      },
      {
        "line": [
          "301 CEDAR ST"
        ],
        "city": "OROFINO",
        "state": "ID",
        "postalCode": "83544-9029"
      },
      {
        "line": [
          "1309 N FLAGLER DR"
        ],
        "city": "WEST PALM BEACH",
        "state": "FL",
        "postalCode": "33401-3406"
      },
      {
        "line": [
          "313 CLIFFWOOD CT"
        ],
        "city": "MEDFORD",
        "state": "OR",
        "postalCode": "97504-9033"
      },
      {
        "line": [
          "2817 NEW PINERY RD"
        ],
        "city": "PORTAGE",
        "state": "WI",
        "postalCode": "53901-9257"
      },
      {
        "line": [
          "6250 US HIGHWAY 83 # 84"
        ],
        "city": "ABILENE",
        "state": "TX",
        "postalCode": "79606-5215"
      },
      {
        "line": [
          "1900 N PEARL ST STE 2400"
        ],
        "city": "DALLAS",
        "state": "TX",
        "postalCode": "75201-2470"
      },
      {
        "line": [
          "18300 HOUSTON METHODIST DR"
        ],
        "city": "HOUSTON",
        "state": "TX",
        "postalCode": "77058-6302"
      },
      {
        "line": [
          "995 GOLD HILL RD"
        ],
        "city": "FORT MILL",
        "state": "SC",
        "postalCode": "29708-7947"
      },
      {
        "line": [
          "330 W EXPRESSWAY 83"
        ],
        "city": "WESLACO",
        "state": "TX",
        "postalCode": "78599-4332"
      },
      {
        "line": [
          "2301 HOLMES ST"
        ],
        "city": "KANSAS CITY",
        "state": "MO",
        "postalCode": "64108-2640"
      },
      {
        "line": [
          "1425 MALABAR RD NE"
        ],
        "city": "PALM BAY",
        "state": "FL",
        "postalCode": "32907-2506"
      },
      {
        "line": [
          "2505 Bacon Ct."
        ],
        "city": "MUSKOGEE",
        "state": "OK",
        "postalCode": "74403-1662"
      },
      {
        "line": [
          "110 REHILL AVE"
        ],
        "city": "SOMERVILLE",
        "state": "NJ",
        "postalCode": "08876-2519"
      },
      {
        "line": [
          "2001 MEDICAL PKWY"
        ],
        "city": "ANNAPOLIS",
        "state": "MD",
        "postalCode": "21401-3280"
      },
      {
        "line": [
          "1185 N 1000 W"
        ],
        "city": "LINTON",
        "state": "IN",
        "postalCode": "47441-5282"
      },
      {
        "line": [
          "24 HOSPITAL AVE"
        ],
        "city": "DANBURY",
        "state": "CT",
        "postalCode": "06810-6099"
      },
      {
        "line": [
          "435 LEWIS AVE"
        ],
        "city": "MERIDEN",
        "state": "CT",
        "postalCode": "06451-2101"
      },
      {
        "line": [
          "8 OSPREY DR"
        ],
        "city": "MOUNTAIN TOP",
        "state": "PA",
        "postalCode": "18707-9630"
      },
      {
        "line": [
          "115 LINCOLN ST"
        ],
        "city": "FRAMINGHAM",
        "state": "MA",
        "postalCode": "01702-6358"
      },
      {
        "line": [
          "3500 W WHEATLAND RD"
        ],
        "city": "DALLAS",
        "state": "TX",
        "postalCode": "75237-3460"
      },
      {
        "line": [
          "100 KENYON AVE"
        ],
        "city": "WAKEFIELD",
        "state": "RI",
        "postalCode": "02879-4216"
      },
      {
        "line": [
          "8 Torrey Pines Ct"
        ],
        "city": "MCALESTER",
        "state": "OK",
        "postalCode": "74501-7423"
      },
      {
        "line": [
          "1000 1ST ST N"
        ],
        "city": "ALABASTER",
        "state": "AL",
        "postalCode": "35007-8703"
      },
      {
        "line": [
          "9820 HUTCHINSON PARK DR"
        ],
        "city": "JACKSONVILLE",
        "state": "FL",
        "postalCode": "32225-7205"
      },
      {
        "line": [
          "1201 HILL RD"
        ],
        "city": "SMITHVILLE",
        "state": "TX",
        "postalCode": "78957-9533"
      },
      {
        "line": [
          "4211 VAN DYKE RD"
        ],
        "city": "LUTZ",
        "state": "FL",
        "postalCode": "33558-8005"
      },
      {
        "line": [
          "43 HIGH ST"
        ],
        "city": "WAREHAM",
        "state": "MA",
        "postalCode": "02571-2097"
      },
      {
        "line": [
          "405 W COUNTRY CLUB RD"
        ],
        "city": "ROSWELL",
        "state": "NM",
        "postalCode": "88201-5209"
      },
      {
        "line": [
          "250 N WICKHAM RD"
        ],
        "city": "MELBOURNE",
        "state": "FL",
        "postalCode": "32935-8625"
      },
      {
        "line": [
          "99 ROUTE 37 W"
        ],
        "city": "TOMS RIVER",
        "state": "NJ",
        "postalCode": "08755-6423"
      },
      {
        "line": [
          "500 HOSPITAL DR"
        ],
        "city": "WARRENTON",
        "state": "VA",
        "postalCode": "20186-3027"
      },
      {
        "line": [
          "825 Chalkstone Ave"
        ],
        "city": "PROVIDENCE",
        "state": "RI",
        "postalCode": "02908-4735"
      },
      {
        "line": [
          "2251 N SHORE DR"
        ],
        "city": "RHINELANDER",
        "state": "WI",
        "postalCode": "54501-6710"
      },
      {
        "line": [
          "901 45TH ST"
        ],
        "city": "WEST PALM BEACH",
        "state": "FL",
        "postalCode": "33407-2413"
      },
      {
        "line": [
          "305 S 5TH ST"
        ],
        "city": "ENID",
        "state": "OK",
        "postalCode": "73701-5832"
      },
      {
        "line": [
          "333 PINE RIDGE BLVD"
        ],
        "city": "WAUSAU",
        "state": "WI",
        "postalCode": "54401-4120"
      },
      {
        "line": [
          "11113 RESEARCH BLVD"
        ],
        "city": "AUSTIN",
        "state": "TX",
        "postalCode": "78759-5236"
      },
      {
        "line": [
          "2755 HERNDON AVE"
        ],
        "city": "CLOVIS",
        "state": "CA",
        "postalCode": "93611-6800"
      },
      {
        "line": [
          "12300 Hidden Green Ct."
        ],
        "city": "LAS VEGAS",
        "state": "NV",
        "postalCode": "89141-6112"
      },
      {
        "line": [
          "2400 SAINT MICHAEL DR"
        ],
        "city": "TEXARKANA",
        "state": "TX",
        "postalCode": "75503-2374"
      },
      {
        "line": [
          "287 Willow Rd"
        ],
        "city": "WALNUTPORT",
        "state": "PA",
        "postalCode": "18088-9657"
      },
      {
        "line": [
          "420 34TH ST"
        ],
        "city": "BAKERSFIELD",
        "state": "CA",
        "postalCode": "93301-2237"
      },
      {
        "line": [
          "110 HOSPITAL DR"
        ],
        "city": "JEFFERSON CITY",
        "state": "TN",
        "postalCode": "37760-5281"
      },
      {
        "line": [
          "1201 US HIGHWAY 287 E"
        ],
        "city": "VERNON",
        "state": "TX",
        "postalCode": "76384-3727"
      },
      {
        "line": [
          "1 MEDICAL PARK BLVD"
        ],
        "city": "BRISTOL",
        "state": "TN",
        "postalCode": "37620-7430"
      },
      {
        "line": [
          "209 BILTMORE CT"
        ],
        "city": "AUGUSTA",
        "state": "GA",
        "postalCode": "30907-9302"
      },
      {
        "line": [
          "140 NUTT RD"
        ],
        "city": "PHOENIXVILLE",
        "state": "PA",
        "postalCode": "19460-3906"
      },
      {
        "line": [
          "603 N Progress Ave Siloam Springs"
        ],
        "city": "SILOAM SPRINGS",
        "state": "AR",
        "postalCode": "72761-4352"
      },
      {
        "line": [
          "3100 Oak Grove Rd"
        ],
        "city": "POPLAR BLUFF",
        "state": "MO",
        "postalCode": "63901-1573"
      },
      {
        "line": [
          "269 S CANDY LN"
        ],
        "city": "COTTONWOOD",
        "state": "AZ",
        "postalCode": "86326-4158"
      },
      {
        "line": [
          "227 MOUNTAIN DR"
        ],
        "city": "DAHLONEGA",
        "state": "GA",
        "postalCode": "30533-1606"
      },
      {
        "line": [
          "5950 Saratoga Blvd"
        ],
        "city": "CORPUS CHRISTI",
        "state": "TX",
        "postalCode": "78414-4100"
      },
      {
        "line": [
          "6820 NW 101 Terrace"
        ],
        "city": "POMPANO BEACH",
        "state": "FL",
        "postalCode": "33076-2921"
      },
      {
        "line": [
          "801 E SIOUX AVE"
        ],
        "city": "PIERRE",
        "state": "SD",
        "postalCode": "57501-3323"
      },
      {
        "line": [
          "29 E 29TH ST"
        ],
        "city": "BAYONNE",
        "state": "NJ",
        "postalCode": "07002-4654"
      },
      {
        "line": [
          "1600 ALDEN RD"
        ],
        "city": "ORLANDO",
        "state": "FL",
        "postalCode": "32803-1941"
      },
      {
        "line": [
          "427 GUY PARK AVE"
        ],
        "city": "AMSTERDAM",
        "state": "NY",
        "postalCode": "12010-1003"
      },
      {
        "line": [
          "849 S THREE NOTCH ST"
        ],
        "city": "ANDALUSIA",
        "state": "AL",
        "postalCode": "36420-5325"
      },
      {
        "line": [
          "1811 80th Ave E."
        ],
        "city": "PARRISH",
        "state": "FL",
        "postalCode": "34219-9259"
      },
      {
        "line": [
          "3 Warfield"
        ],
        "city": "LEANDER",
        "state": "TX",
        "postalCode": "78641-9722"
      },
      {
        "line": [
          "12200 Renfert Way Suite 100"
        ],
        "city": "AUSTIN",
        "state": "TX",
        "postalCode": "78758-5653"
      },
      {
        "line": [
          "2029 Dennison Street"
        ],
        "city": "DALLAS",
        "state": "TX",
        "postalCode": "75212-2402"
      },
      {
        "line": [
          "5001 HARDY ST"
        ],
        "city": "HATTIESBURG",
        "state": "MS",
        "postalCode": "39402-1308"
      },
      {
        "line": [
          "600 Elizabeth St."
        ],
        "city": "CORPUS CHRISTI",
        "state": "TX",
        "postalCode": "78404-2235"
      },
      {
        "line": [
          "719 W. Coke Rd"
        ],
        "city": "WINNSBORO",
        "state": "TX",
        "postalCode": "75494-3011"
      },
      {
        "line": [
          "2000 PEPPERELL PKWY"
        ],
        "city": "OPELIKA",
        "state": "AL",
        "postalCode": "36801-5452"
      },
      {
        "line": [
          "205 OSCEOLA ST"
        ],
        "city": "LAURIUM",
        "state": "MI",
        "postalCode": "49913-2134"
      },
      {
        "line": [
          "10252 Sweet Bay Manor"
        ],
        "city": "POMPANO BEACH",
        "state": "FL",
        "postalCode": "33076-3935"
      },
      {
        "line": [
          "1207 S BAILEY ST"
        ],
        "city": "ELECTRA",
        "state": "TX",
        "postalCode": "76360-3221"
      },
      {
        "line": [
          "1240 HUFFMAN MILL RD"
        ],
        "city": "BURLINGTON",
        "state": "NC",
        "postalCode": "27215-8700"
      },
      {
        "line": [
          "3360 BURNS RD"
        ],
        "city": "PALM BEACH GARDENS",
        "state": "FL",
        "postalCode": "33410-4323"
      },
      {
        "line": [
          "511 E Second Street"
        ],
        "city": "PASS CHRISTIAN",
        "state": "MS",
        "postalCode": "39571-4530"
      },
      {
        "line": [
          "1796 US-441"
        ],
        "city": "OKEECHOBEE",
        "state": "FL",
        "postalCode": "34972-0101"
      },
      {
        "line": [
          "609 W Maple Ave"
        ],
        "city": "SPRINGDALE",
        "state": "AR",
        "postalCode": "72764-5335"
      },
      {
        "line": [
          "7324 Summit Lane"
        ],
        "city": "SACHSE",
        "state": "TX",
        "postalCode": "75048-2602"
      },
      {
        "line": [
          "9512 ADMIRAL LOWELL AVE NE"
        ],
        "city": "ALBUQUERQUE",
        "state": "NM",
        "postalCode": "87111-1204"
      },
      {
        "line": [
          "8083 PARRAMORE RD"
        ],
        "city": "JACKSONVILLE",
        "state": "FL",
        "postalCode": "32244-5703"
      },
      {
        "line": [
          "1717 Main St Ste 5850"
        ],
        "city": "DALLAS",
        "state": "TX",
        "postalCode": "75201-7317"
      },
      {
        "line": [
          "59 PAGE HILL RD"
        ],
        "city": "BERLIN",
        "state": "NH",
        "postalCode": "03570-3531"
      },
      {
        "line": [
          "1220 JEFFERSON ST"
        ],
        "city": "LAUREL",
        "state": "MS",
        "postalCode": "39440-4355"
      },
      {
        "line": [
          "1020 HWY 16 S"
        ],
        "city": "FREDERICKSBURG",
        "state": "TX",
        "postalCode": "78624-4427"
      },
      {
        "line": [
          "10300 NE Hancock St,"
        ],
        "city": "PORTLAND",
        "state": "OR",
        "postalCode": "97220-3831"
      },
      {
        "line": [
          "117 N WINNSBORO ST"
        ],
        "city": "QUITMAN",
        "state": "TX",
        "postalCode": "75783-2144"
      },
      {
        "line": [
          "115 Airport Road"
        ],
        "city": "SULPHUR SPRINGS",
        "state": "TX",
        "postalCode": "75482-2105"
      },
      {
        "line": [
          "33-57 HARRISON ST"
        ],
        "city": "JOHNSON CITY",
        "state": "NY",
        "postalCode": "13790-2107"
      },
      {
        "line": [
          "5409 N Knoxville Ave"
        ],
        "city": "PEORIA",
        "state": "IL",
        "postalCode": "61614-5069"
      },
      {
        "line": [
          "224 e 2nd st"
        ],
        "city": "DUMAS",
        "state": "TX",
        "postalCode": "79029-3808"
      },
      {
        "line": [
          "2600 BRUCE B DOWNS BLVD"
        ],
        "city": "WESLEY CHAPEL",
        "state": "FL",
        "postalCode": "33544-9207"
      },
      {
        "line": [
          "235 N PEARL ST"
        ],
        "city": "BROCKTON",
        "state": "MA",
        "postalCode": "02301-1794"
      },
      {
        "line": [
          "17200 ST LUKES WAY"
        ],
        "city": "CONROE",
        "state": "TX",
        "postalCode": "77384-8007"
      },
      {
        "line": [
          "2415 Buttermere Ct"
        ],
        "city": "RENO",
        "state": "NV",
        "postalCode": "89521-4517"
      },
      {
        "line": [
          "2 Blue Slip Apt 31J"
        ],
        "city": "BROOKLYN",
        "state": "NY",
        "postalCode": "11222-7398"
      },
      {
        "line": [
          "29805 PACIFIC HWY S"
        ],
        "city": "FEDERAL WAY",
        "state": "WA",
        "postalCode": "98003-4233"
      },
      {
        "line": [
          "10820 PARKSIDE DR"
        ],
        "city": "KNOXVILLE",
        "state": "TN",
        "postalCode": "37934-1956"
      },
      {
        "line": [
          "250 N 1ST ST"
        ],
        "city": "BLYTHE",
        "state": "CA",
        "postalCode": "92225-1702"
      },
      {
        "line": [
          "321 MULBERRY ST SW"
        ],
        "city": "LENOIR",
        "state": "NC",
        "postalCode": "28645-5720"
      },
      {
        "line": [
          "1400 W ICE LAKE RD"
        ],
        "city": "IRON RIVER",
        "state": "MI",
        "postalCode": "49935-9526"
      },
      {
        "line": [
          "300 ROCKEFELLER DR"
        ],
        "city": "MUSKOGEE",
        "state": "OK",
        "postalCode": "74401-5075"
      },
      {
        "line": [
          "400 SW 25th Ave"
        ],
        "city": "MINERAL WELLS",
        "state": "TX",
        "postalCode": "76067-8246"
      },
      {
        "line": [
          "617 University Dr."
        ],
        "city": "MIAMI",
        "state": "FL",
        "postalCode": "33134-7040"
      },
      {
        "line": [
          "41 HIGHLAND AVE"
        ],
        "city": "WINCHESTER",
        "state": "MA",
        "postalCode": "01890-1446"
      },
      {
        "line": [
          "2550 N esplanade st"
        ],
        "city": "CUERO",
        "state": "TX",
        "postalCode": "77954-4736"
      },
      {
        "line": [
          "19427 FM 16 W"
        ],
        "city": "LINDALE",
        "state": "TX",
        "postalCode": "75771-5521"
      },
      {
        "line": [
          "1010 THREE SPRINGS BLVD"
        ],
        "city": "DURANGO",
        "state": "CO",
        "postalCode": "81301-8296"
      },
      {
        "line": [
          "216 Harvester Rd."
        ],
        "city": "FAIRFIELD",
        "state": "CT",
        "postalCode": "06825-1125"
      },
      {
        "line": [
          "10212 Hawks Lake Dr"
        ],
        "city": "FISHERS",
        "state": "IN",
        "postalCode": "46037-9396"
      },
      {
        "line": [
          "1 HAMILTON HEALTH PL"
        ],
        "city": "TRENTON",
        "state": "NJ",
        "postalCode": "08690-3542"
      },
      {
        "line": [
          "9240 McClellan Drive"
        ],
        "city": "NEW ALBANY",
        "state": "OH",
        "postalCode": "43054-7122"
      },
      {
        "line": [
          "600 N UNION AVE"
        ],
        "city": "NEW BRAUNFELS",
        "state": "TX",
        "postalCode": "78130-4194"
      },
      {
        "line": [
          "10501 GOLF COURSE RD NW"
        ],
        "city": "ALBUQUERQUE",
        "state": "NM",
        "postalCode": "87114-5019"
      },
      {
        "line": [
          "6916 HANDEL"
        ],
        "city": "COLLEYVILLE",
        "state": "TX",
        "postalCode": "76034-8256"
      },
      {
        "line": [
          "4154 MARINA WAY"
        ],
        "city": "POMPANO BEACH",
        "state": "FL",
        "postalCode": "33064-2015"
      },
      {
        "line": [
          "2100 WESCOTT DR"
        ],
        "city": "FLEMINGTON",
        "state": "NJ",
        "postalCode": "08822-4603"
      },
      {
        "line": [
          "20171 CHASEWOOD PARK DR"
        ],
        "city": "HOUSTON",
        "state": "TX",
        "postalCode": "77070-1437"
      },
      {
        "line": [
          "200 HOSPITAL AVE"
        ],
        "city": "JEFFERSON",
        "state": "NC",
        "postalCode": "28640-9244"
      },
      {
        "line": [
          "2300 LONE STAR RD"
        ],
        "city": "MANSFIELD",
        "state": "TX",
        "postalCode": "76063-8744"
      },
      {
        "line": [
          "1080 PEACHTREE ST NE UNIT 2110"
        ],
        "city": "ATLANTA",
        "state": "GA",
        "postalCode": "30309-6829"
      },
      {
        "line": [
          "15058 Maroon Bells Lane"
        ],
        "city": "FRISCO",
        "state": "TX",
        "postalCode": "75035-0270"
      },
      {
        "line": [
          "7571 STATE ROUTE 54"
        ],
        "city": "BATH",
        "state": "NY",
        "postalCode": "14810-9504"
      },
      {
        "line": [
          "7718 Wood Hollow Dr"
        ],
        "city": "AUSTIN",
        "state": "TX",
        "postalCode": "78731-1648"
      },
      {
        "line": [
          "2026 South Jackson"
        ],
        "city": "JACKSONVILLE",
        "state": "TX",
        "postalCode": "75766-5822"
      },
      {
        "line": [
          "2001 N Oregon St"
        ],
        "city": "EL PASO",
        "state": "TX",
        "postalCode": "79902-3320"
      },
      {
        "line": [
          "1441 N BECKLEY AVE"
        ],
        "city": "DALLAS",
        "state": "TX",
        "postalCode": "75203-1201"
      },
      {
        "line": [
          "835 HOSPITAL RD"
        ],
        "city": "INDIANA",
        "state": "PA",
        "postalCode": "15701-3629"
      },
      {
        "line": [
          "1717 HIGHWAY 59 LOOP N"
        ],
        "city": "LIVINGSTON",
        "state": "TX",
        "postalCode": "77351-5710"
      },
      {
        "line": [
          "1501 BURNET RD"
        ],
        "city": "BROWNWOOD",
        "state": "TX",
        "postalCode": "76801-8520"
      },
      {
        "line": [
          "101 CIVIC CENTER LN"
        ],
        "city": "LAKE HAVASU CITY",
        "state": "AZ",
        "postalCode": "86403-5607"
      },
      {
        "line": [
          "402 Fenwick Dr."
        ],
        "city": "SAN ANTONIO",
        "state": "TX",
        "postalCode": "78239-2529"
      },
      {
        "line": [
          "1206 Gordon Duckworth Dr"
        ],
        "city": "PIGGOTT",
        "state": "AR",
        "postalCode": "72454-1911"
      },
      {
        "line": [
          "101 PAGE ST"
        ],
        "city": "NEW BEDFORD",
        "state": "MA",
        "postalCode": "02740-3464"
      },
      {
        "line": [
          "1016 Belleforte Ave"
        ],
        "city": "OAK PARK",
        "state": "IL",
        "postalCode": "60302-1304"
      },
      {
        "line": [
          "240 MAPLE ST"
        ],
        "city": "WOODRUFF",
        "state": "WI",
        "postalCode": "54568-9190"
      },
      {
        "line": [
          "159 HARTLEY WAY"
        ],
        "city": "PEARISBURG",
        "state": "VA",
        "postalCode": "24134-2471"
      },
      {
        "line": [
          "100 GRAND ST"
        ],
        "city": "NEW BRITAIN",
        "state": "CT",
        "postalCode": "06052-2016"
      },
      {
        "line": [
          "600 S 13th St"
        ],
        "city": "MOSSVILLE",
        "state": "IL",
        "postalCode": "61552-4936"
      },
      {
        "line": [
          "47111 MONROE ST"
        ],
        "city": "INDIO",
        "state": "CA",
        "postalCode": "92201-6739"
      },
      {
        "line": [
          "1 MEDICAL CENTER DR"
        ],
        "city": "LEBANON",
        "state": "NH",
        "postalCode": "03756-1000"
      },
      {
        "line": [
          "520 East Church Street APT 1136"
        ],
        "city": "ORLANDO",
        "state": "FL",
        "postalCode": "32801-3164"
      },
      {
        "line": [
          "161 RIVER OAKS DR"
        ],
        "city": "CANTON",
        "state": "MS",
        "postalCode": "39046-5375"
      },
      {
        "line": [
          "8509 East Lowry Blvd",
          "Apt 101"
        ],
        "city": "DENVER",
        "state": "CO",
        "postalCode": "80230-7293"
      },
      {
        "line": [
          "600 MEDICAL CENTER DR"
        ],
        "city": "NEWTON",
        "state": "KS",
        "postalCode": "67114-8780"
      },
      {
        "line": [
          "1310 Paluxy Rd"
        ],
        "city": "GRANBURY",
        "state": "TX",
        "postalCode": "76048-5655"
      },
      {
        "line": [
          "1501 Burleson Retta Rd"
        ],
        "city": "BURLESON",
        "state": "TX",
        "postalCode": "76028-3523"
      },
      {
        "line": [
          "1 HEALTH CIR"
        ],
        "city": "LEXINGTON",
        "state": "VA",
        "postalCode": "24450-2448"
      },
      {
        "line": [
          "2000 NEUSE BLVD"
        ],
        "city": "NEW BERN",
        "state": "NC",
        "postalCode": "28560-3449"
      },
      {
        "line": [
          "1337 BURWELL RD"
        ],
        "city": "HARVEST",
        "state": "AL",
        "postalCode": "35749-8611"
      },
      {
        "line": [
          "727 W MADISON ST APT 3002"
        ],
        "city": "CHICAGO",
        "state": "IL",
        "postalCode": "60661-2574"
      },
      {
        "line": [
          "181 CORLISS LN"
        ],
        "city": "COLEBROOK",
        "state": "NH",
        "postalCode": "03576-3207"
      },
      {
        "line": [
          "1970 Hospital Dr"
        ],
        "city": "CLARKSDALE",
        "state": "MS",
        "postalCode": "38614-7203"
      },
      {
        "line": [
          "1 Loving Kindness Way"
        ],
        "city": "YORK",
        "state": "ME",
        "postalCode": "03909-0001"
      },
      {
        "line": [
          "2101 PEASE ST"
        ],
        "city": "HARLINGEN",
        "state": "TX",
        "postalCode": "78550-8307"
      },
      {
        "line": [
          "700 BROADWAY"
        ],
        "city": "FORT WAYNE",
        "state": "IN",
        "postalCode": "46802-1402"
      },
      {
        "line": [
          "7312 Biltmore Drive"
        ],
        "city": "SARASOTA",
        "state": "FL",
        "postalCode": "34231-7907"
      },
      {
        "line": [
          "3927 Wyoming St."
        ],
        "city": "SAINT LOUIS",
        "state": "MO",
        "postalCode": "63116-3917"
      },
      {
        "line": [
          "120 E HARRIS AVE"
        ],
        "city": "SAN ANGELO",
        "state": "TX",
        "postalCode": "76903-5904"
      },
      {
        "line": [
          "3201 W STATE HIGHWAY 22"
        ],
        "city": "CORSICANA",
        "state": "TX",
        "postalCode": "75110-2450"
      },
      {
        "line": [
          "120 N RICHARD JACKSON BLVD STE 100"
        ],
        "city": "PANAMA CITY BEACH",
        "state": "FL",
        "postalCode": "32407-2522"
      },
      {
        "line": [
          "201 HALL HWY"
        ],
        "city": "CRISFIELD",
        "state": "MD",
        "postalCode": "21817-1237"
      },
      {
        "line": [
          "59 Hale Ct."
        ],
        "city": "MATAWAN",
        "state": "NJ",
        "postalCode": "07747-9750"
      },
      {
        "line": [
          "3400 E RACINE ST"
        ],
        "city": "JANESVILLE",
        "state": "WI",
        "postalCode": "53546-2344"
      },
      {
        "line": [
          "109 STONE BRIAR DR N"
        ],
        "city": "SULPHUR SPRINGS",
        "state": "TX",
        "postalCode": "75482-5801"
      },
      {
        "line": [
          "400 Emerson Ave"
        ],
        "city": "HARVEY",
        "state": "ND",
        "postalCode": "58341-1226"
      },
      {
        "line": [
          "1317 LAKE POINTE PKWY"
        ],
        "city": "SUGAR LAND",
        "state": "TX",
        "postalCode": "77478-3997"
      },
      {
        "line": [
          "355 CHURCH ST"
        ],
        "city": "WESTFIELD",
        "state": "PA",
        "postalCode": "16950-1523"
      },
      {
        "line": [
          "2825 MOOSE GANTT TRL"
        ],
        "city": "CROUSE",
        "state": "NC",
        "postalCode": "28033-8752"
      },
      {
        "line": [
          "16260 S. Rancho Sahuarita"
        ],
        "city": "SAHUARITA",
        "state": "AZ",
        "postalCode": "85629-0047"
      },
      {
        "line": [
          "800 E DAWSON ST"
        ],
        "city": "TYLER",
        "state": "TX",
        "postalCode": "75701-2036"
      },
      {
        "line": [
          "3330 Masonic Dr, 4th Floor"
        ],
        "city": "ALEXANDRIA",
        "state": "LA",
        "postalCode": "71301-3841"
      },
      {
        "line": [
          "518 Meadowbrook Farms Road"
        ],
        "city": "GREEN COVE SPRINGS",
        "state": "FL",
        "postalCode": "32043-8916"
      },
      {
        "line": [
          "1201 W 38TH ST"
        ],
        "city": "AUSTIN",
        "state": "TX",
        "postalCode": "78705-1006"
      },
      {
        "line": [
          "6618 Briarhaven Drive"
        ],
        "city": "DALLAS",
        "state": "TX",
        "postalCode": "75240-5419"
      },
      {
        "line": [
          "13548 Traditions Drive"
        ],
        "city": "SEMINOLE",
        "state": "FL",
        "postalCode": "33776-3400"
      },
      {
        "line": [
          "4921 Little Sleepy Hollow Road"
        ],
        "city": "MARSHVILLE",
        "state": "NC",
        "postalCode": "28103-9761"
      },
      {
        "line": [
          "208 Sologne Ct."
        ],
        "city": "LITTLE ROCK",
        "state": "AR",
        "postalCode": "72223-8915"
      },
      {
        "line": [
          "805 Meadow Lane"
        ],
        "city": "PALMER LAKE",
        "state": "CO",
        "postalCode": "80133-1307"
      },
      {
        "line": [
          "701 10TH ST SE"
        ],
        "city": "CEDAR RAPIDS",
        "state": "IA",
        "postalCode": "52403-1251"
      },
      {
        "line": [
          "505 S John Redditt Dr"
        ],
        "city": "LUFKIN",
        "state": "TX",
        "postalCode": "75904-3120"
      },
      {
        "line": [
          "1000 MINERAL POINT AVE"
        ],
        "city": "JANESVILLE",
        "state": "WI",
        "postalCode": "53548-2940"
      },
      {
        "line": [
          "215 Taylor Ave"
        ],
        "city": "OGDEN",
        "state": "UT",
        "postalCode": "84404-6840"
      },
      {
        "line": [
          "4401 GARTH RD"
        ],
        "city": "BAYTOWN",
        "state": "TX",
        "postalCode": "77521-2122"
      },
      {
        "line": [
          "1600 SW ARCHER RD"
        ],
        "city": "GAINESVILLE",
        "state": "FL",
        "postalCode": "32610-3003"
      },
      {
        "line": [
          "1940 Wood Lane"
        ],
        "city": "CORNING",
        "state": "NY",
        "postalCode": "14830-9453"
      },
      {
        "line": [
          "801 MIDDLEFORD RD"
        ],
        "city": "SEAFORD",
        "state": "DE",
        "postalCode": "19973-3636"
      },
      {
        "line": [
          "16260 S. Rancho Sahuarita,"
        ],
        "city": "SAHUARITA",
        "state": "AZ",
        "postalCode": "85629-0047"
      },
      {
        "line": [
          "3000 Medical Center Pkwy"
        ],
        "city": "BENTONVILLE",
        "state": "AR",
        "postalCode": "72712-3217"
      },
      {
        "line": [
          "5035 Savanna Run"
        ],
        "city": "CUMMING",
        "state": "GA",
        "postalCode": "30040-2081"
      },
      {
        "line": [
          "222 HERLONG AVE S"
        ],
        "city": "ROCK HILL",
        "state": "SC",
        "postalCode": "29732-1158"
      },
      {
        "line": [
          "7702 N PORT WASHINGTON RD APT 208"
        ],
        "city": "MILWAUKEE",
        "state": "WI",
        "postalCode": "53217-1313"
      },
      {
        "line": [
          "1015 MEDICAL CENTER PKWY"
        ],
        "city": "SELMA",
        "state": "AL",
        "postalCode": "36701-6748"
      },
      {
        "line": [
          "401 MATTHEW ST"
        ],
        "city": "MARIETTA",
        "state": "OH",
        "postalCode": "45750-1635"
      },
      {
        "line": [
          "9320 US 301 S"
        ],
        "city": "RIVERVIEW",
        "state": "FL",
        "postalCode": "33578-6300"
      },
      {
        "line": [
          "727 N MAIN ST"
        ],
        "city": "EMPORIA",
        "state": "VA",
        "postalCode": "23847-1274"
      },
      {
        "line": [
          "40 WRIGHT ST"
        ],
        "city": "PALMER",
        "state": "MA",
        "postalCode": "01069-1138"
      },
      {
        "line": [
          "2020 Hilltop Dr."
        ],
        "city": "MOUNT DORA",
        "state": "FL",
        "postalCode": "32757-2724"
      },
      {
        "line": [
          "1311 East General Cavazos Blvd"
        ],
        "city": "KINGSVILLE",
        "state": "TX",
        "postalCode": "78363-7130"
      },
      {
        "line": [
          "1315 SE 19th St"
        ],
        "city": "CAPE CORAL",
        "state": "FL",
        "postalCode": "33990-4579"
      },
      {
        "line": [
          "1499 Fair Rd."
        ],
        "city": "STATESBORO",
        "state": "GA",
        "postalCode": "30458-1683"
      },
      {
        "line": [
          "100 E CARROLL ST"
        ],
        "city": "SALISBURY",
        "state": "MD",
        "postalCode": "21801-5422"
      },
      {
        "line": [
          "134 JACOBS WAY"
        ],
        "city": "PORT MATILDA",
        "state": "PA",
        "postalCode": "16870-9240"
      },
      {
        "line": [
          "1705 TARBORO ST SW"
        ],
        "city": "WILSON",
        "state": "NC",
        "postalCode": "27893-3428"
      },
      {
        "line": [
          "1401 Medical PKWY"
        ],
        "city": "CEDAR PARK",
        "state": "TX",
        "postalCode": "78613-7763"
      },
      {
        "line": [
          "800 Ste Genevieve Dr"
        ],
        "city": "SAINTE GENEVIEVE",
        "state": "MO",
        "postalCode": "63670-1434"
      },
      {
        "line": [
          "3280 Joe Battle Blvd"
        ],
        "city": "EL PASO",
        "state": "TX",
        "postalCode": "79938-2622"
      },
      {
        "line": [
          "25 HOSPITAL CENTER BLVD"
        ],
        "city": "HILTON HEAD ISLAND",
        "state": "SC",
        "postalCode": "29926-2738"
      },
      {
        "line": [
          "1102 W MONROE ST"
        ],
        "city": "AUSTIN",
        "state": "TX",
        "postalCode": "78704-3457"
      },
      {
        "line": [
          "1 Hillcrest Ct"
        ],
        "city": "WILLOWBROOK",
        "state": "IL",
        "postalCode": "60527-5757"
      },
      {
        "line": [
          "1825 LOGAN AVE"
        ],
        "city": "WATERLOO",
        "state": "IA",
        "postalCode": "50703-1916"
      },
      {
        "line": [
          "85 HERRICK ST"
        ],
        "city": "BEVERLY",
        "state": "MA",
        "postalCode": "01915-1790"
      },
      {
        "line": [
          "9067 SW 215 Terrace"
        ],
        "city": "MIAMI",
        "state": "FL",
        "postalCode": "33189-3847"
      },
      {
        "line": [
          "201 E 25TH ST APT 1A"
        ],
        "city": "NEW YORK",
        "state": "NY",
        "postalCode": "10010-3004"
      },
      {
        "line": [
          "2100 HIGHWAY 61 N"
        ],
        "city": "VICKSBURG",
        "state": "MS",
        "postalCode": "39183-8211"
      },
      {
        "line": [
          "701 S FRY RD"
        ],
        "city": "KATY",
        "state": "TX",
        "postalCode": "77450-2255"
      },
      {
        "line": [
          "4351 Middleton Road"
        ],
        "city": "DALLAS",
        "state": "TX",
        "postalCode": "75229-6323"
      },
      {
        "line": [
          "825 Lockwood Dr Richardson"
        ],
        "city": "RICHARDSON",
        "state": "TX",
        "postalCode": "75080-5508"
      },
      {
        "line": [
          "20 powel ave"
        ],
        "city": "NEWPORT",
        "state": "RI",
        "postalCode": "02840-2299"
      },
      {
        "line": [
          "1325 S CLIFF AVE"
        ],
        "city": "SIOUX FALLS",
        "state": "SD",
        "postalCode": "57105-1007"
      },
      {
        "line": [
          "9501 Viola Ave"
        ],
        "city": "LUBBOCK",
        "state": "TX",
        "postalCode": "79424-7518"
      },
      {
        "line": [
          "3516 Duval Drive"
        ],
        "city": "PLANO",
        "state": "TX",
        "postalCode": "75025-4441"
      },
      {
        "line": [
          "1800 SE TIFFANY AVE"
        ],
        "city": "PORT SAINT LUCIE",
        "state": "FL",
        "postalCode": "34952-7521"
      },
      {
        "line": [
          "262 LEROY GEORGE DR"
        ],
        "city": "CLYDE",
        "state": "NC",
        "postalCode": "28721-7430"
      },
      {
        "line": [
          "740 E STATE ST"
        ],
        "city": "SHARON",
        "state": "PA",
        "postalCode": "16146-3328"
      },
      {
        "line": [
          "620 W BROWN ST"
        ],
        "city": "WAUPUN",
        "state": "WI",
        "postalCode": "53963-1702"
      },
      {
        "line": [
          "1670 ST VINCENTS WAY"
        ],
        "city": "MIDDLEBURG",
        "state": "FL",
        "postalCode": "32068-8447"
      },
      {
        "line": [
          "70 EAST ST"
        ],
        "city": "METHUEN",
        "state": "MA",
        "postalCode": "01844-4597"
      },
      {
        "line": [
          "85 E US HIGHWAY 6"
        ],
        "city": "VALPARAISO",
        "state": "IN",
        "postalCode": "46383-8947"
      },
      {
        "line": [
          "637 Trimble Road"
        ],
        "city": "JOPPA",
        "state": "MD",
        "postalCode": "21085-4220"
      },
      {
        "line": [
          "9201 Avery Ranch Way"
        ],
        "city": "JUSTIN",
        "state": "TX",
        "postalCode": "76247-6647"
      },
      {
        "line": [
          "4201 BELFORT RD"
        ],
        "city": "JACKSONVILLE",
        "state": "FL",
        "postalCode": "32216-1431"
      },
      {
        "line": [
          "911 BYPASS RD"
        ],
        "city": "PIKEVILLE",
        "state": "KY",
        "postalCode": "41501-1689"
      },
      {
        "line": [
          "4 Osprey Trail"
        ],
        "city": "ASHEVILLE",
        "state": "NC",
        "postalCode": "28806-0152"
      },
      {
        "line": [
          "17 BELMONT AVE"
        ],
        "city": "BRATTLEBORO",
        "state": "VT",
        "postalCode": "05301-7601"
      },
      {
        "line": [
          "6101 Pine Ridge Rd"
        ],
        "city": "NAPLES",
        "state": "FL",
        "postalCode": "34119-3900"
      },
      {
        "line": [
          "651 Dunlop Ln"
        ],
        "city": "CLARKSVILLE",
        "state": "TN",
        "postalCode": "37040-5015"
      },
      {
        "line": [
          "6700 CHAD COLLEY BLVD"
        ],
        "city": "FORT SMITH",
        "state": "AR",
        "postalCode": "72916-6120"
      },
      {
        "line": [
          "35 MEDICAL CENTER PKWY"
        ],
        "city": "AUGUSTA",
        "state": "ME",
        "postalCode": "04330-8160"
      },
      {
        "line": [
          "200 MEDICAL PARK BLVD"
        ],
        "city": "PETERSBURG",
        "state": "VA",
        "postalCode": "23805-9274"
      },
      {
        "line": [
          "1345 Blue Lake Blvd"
        ],
        "city": "ARLINGTON",
        "state": "TX",
        "postalCode": "76005-4529"
      },
      {
        "line": [
          "9921 Northwest 60th Place"
        ],
        "city": "POMPANO BEACH",
        "state": "FL",
        "postalCode": "33076-2258"
      },
      {
        "line": [
          "1001 TOWSON AVE"
        ],
        "city": "FORT SMITH",
        "state": "AR",
        "postalCode": "72901-4921"
      },
      {
        "line": [
          "16655 SOUTHWEST FWY"
        ],
        "city": "SUGAR LAND",
        "state": "TX",
        "postalCode": "77479-2329"
      },
      {
        "line": [
          "800 Ste Genevieve Dr."
        ],
        "city": "SAINTE GENEVIEVE",
        "state": "MO",
        "postalCode": "63670-1434"
      },
      {
        "line": [
          "700 Quincy Ave"
        ],
        "city": "SCRANTON",
        "state": "PA",
        "postalCode": "18510-1724"
      },
      {
        "line": [
          "2012 Bent Oaks Blvd"
        ],
        "city": "BILOXI",
        "state": "MS",
        "postalCode": "39531-2409"
      },
      {
        "line": [
          "1100 REID PKWY"
        ],
        "city": "RICHMOND",
        "state": "IN",
        "postalCode": "47374-1157"
      },
      {
        "line": [
          "6901 MEDICAL PKWY"
        ],
        "city": "WACO",
        "state": "TX",
        "postalCode": "76712-7910"
      },
      {
        "line": [
          "551 HILL COUNTRY DR"
        ],
        "city": "KERRVILLE",
        "state": "TX",
        "postalCode": "78028-6085"
      },
      {
        "line": [
          "50 HOSPITAL HILL RD"
        ],
        "city": "SHARON",
        "state": "CT",
        "postalCode": "06069-2096"
      },
      {
        "line": [
          "15240 Riding Club Drive"
        ],
        "city": "HAYMARKET",
        "state": "VA",
        "postalCode": "20169-2571"
      },
      {
        "line": [
          "736 BATTLEFIELD BLVD N"
        ],
        "city": "CHESAPEAKE",
        "state": "VA",
        "postalCode": "23320-4941"
      },
      {
        "line": [
          "400 SW 25th Ave."
        ],
        "city": "MINERAL WELLS",
        "state": "TX",
        "postalCode": "76067-8246"
      },
      {
        "line": [
          "9550 195TH AVE E"
        ],
        "city": "BONNEY LAKE",
        "state": "WA",
        "postalCode": "98391-5969"
      },
      {
        "line": [
          "2000 BROOKSIDE DR"
        ],
        "city": "KINGSPORT",
        "state": "TN",
        "postalCode": "37660-4627"
      },
      {
        "line": [
          "11247 SW Barton Way"
        ],
        "city": "PORT SAINT LUCIE",
        "state": "FL",
        "postalCode": "34987-2788"
      },
      {
        "line": [
          "2305 CHAMBLISS AVE NW"
        ],
        "city": "CLEVELAND",
        "state": "TN",
        "postalCode": "37311-3847"
      },
      {
        "line": [
          "900 17th St."
        ],
        "city": "WOODWARD",
        "state": "OK",
        "postalCode": "73801-2448"
      },
      {
        "line": [
          "60 MERCY CT"
        ],
        "city": "IRVINE",
        "state": "KY",
        "postalCode": "40336-1331"
      },
      {
        "line": [
          "3970 GRANDVIEW DR"
        ],
        "city": "SIMPSONVILLE",
        "state": "SC",
        "postalCode": "29680-3163"
      },
      {
        "line": [
          "1980 CROMPOND RD"
        ],
        "city": "CORTLANDT MANOR",
        "state": "NY",
        "postalCode": "10567-4144"
      },
      {
        "line": [
          "140 W 151ST ST S"
        ],
        "city": "GLENPOOL",
        "state": "OK",
        "postalCode": "74033-4523"
      },
      {
        "line": [
          "1940 EL CAJON BLVD"
        ],
        "city": "SAN DIEGO",
        "state": "CA",
        "postalCode": "92104-1005"
      },
      {
        "line": [
          "1761 BEALL AVE"
        ],
        "city": "WOOSTER",
        "state": "OH",
        "postalCode": "44691-2342"
      },
      {
        "line": [
          "317 MARTIN LUTHER KING JR WAY"
        ],
        "city": "TACOMA",
        "state": "WA",
        "postalCode": "98405-4234"
      },
      {
        "line": [
          "1000 ATLANTIC AVE"
        ],
        "city": "CAMDEN",
        "state": "NJ",
        "postalCode": "08104-1132"
      },
      {
        "line": [
          "305 S PARK RD"
        ],
        "city": "SCROGGINS",
        "state": "TX",
        "postalCode": "75480-5035"
      },
      {
        "line": [
          "8050 MEADOW RD."
        ],
        "city": "DALLAS",
        "state": "TX",
        "postalCode": "75231-3406"
      },
      {
        "line": [
          "5409 VERN HOLMES DR"
        ],
        "city": "STEVENS POINT",
        "state": "WI",
        "postalCode": "54482-8853"
      },
      {
        "line": [
          "616 N 8TH ST"
        ],
        "city": "OSAGE",
        "state": "IA",
        "postalCode": "50461-1456"
      },
      {
        "line": [
          "1212 Medical Plaza Ct."
        ],
        "city": "GRANBURY",
        "state": "TX",
        "postalCode": "76048-5653"
      },
      {
        "line": [
          "1001 PENNSYLVANIA AVE"
        ],
        "city": "OTTUMWA",
        "state": "IA",
        "postalCode": "52501-6427"
      },
      {
        "line": [
          "2010 Goodrich #4A"
        ],
        "city": "AUSTIN",
        "state": "TX",
        "postalCode": "78704-4187"
      },
      {
        "line": [
          "4420 Saybrook Lane"
        ],
        "city": "HARRISBURG",
        "state": "PA",
        "postalCode": "17110-3477"
      },
      {
        "line": [
          "2033 MAIN ST"
        ],
        "city": "ATHOL",
        "state": "MA",
        "postalCode": "01331-3535"
      },
      {
        "line": [
          "13106 MERIDIAN E"
        ],
        "city": "PUYALLUP",
        "state": "WA",
        "postalCode": "98373-5637"
      },
      {
        "line": [
          "415 S 25TH AVE"
        ],
        "city": "OMAHA",
        "state": "NE",
        "postalCode": "68131-3630"
      },
      {
        "line": [
          "3700 W STATE ROUTE 89A"
        ],
        "city": "SEDONA",
        "state": "AZ",
        "postalCode": "86336-4937"
      },
      {
        "line": [
          "549 Norwood Road"
        ],
        "city": "MOUNT LAUREL",
        "state": "NJ",
        "postalCode": "08054-2816"
      },
      {
        "line": [
          "601 E 14TH ST"
        ],
        "city": "SEDALIA",
        "state": "MO",
        "postalCode": "65301-5972"
      },
      {
        "line": [
          "151 E REDSTONE AVE"
        ],
        "city": "CRESTVIEW",
        "state": "FL",
        "postalCode": "32539-5352"
      },
      {
        "line": [
          "601 S CENTER AVE"
        ],
        "city": "MERRILL",
        "state": "WI",
        "postalCode": "54452-3404"
      },
      {
        "line": [
          "5151 N 9TH AVE"
        ],
        "city": "PENSACOLA",
        "state": "FL",
        "postalCode": "32504-8721"
      },
      {
        "line": [
          "1000 CAROMONT PKWY"
        ],
        "city": "BELMONT",
        "state": "NC",
        "postalCode": "28012-0140"
      },
      {
        "line": [
          "29300 Gates Mills Blvd"
        ],
        "city": "CLEVELAND",
        "state": "OH",
        "postalCode": "44124-4650"
      },
      {
        "line": [
          "820 W Washington St"
        ],
        "city": "EUFAULA",
        "state": "AL",
        "postalCode": "36027-1822"
      },
      {
        "line": [
          "1120 PINE ST"
        ],
        "city": "STANLEY",
        "state": "WI",
        "postalCode": "54768-1297"
      },
      {
        "line": [
          "25 RIDGEWOOD RD"
        ],
        "city": "SPRINGFIELD",
        "state": "VT",
        "postalCode": "05156-3050"
      },
      {
        "line": [
          "710 Abell Ridge Circle"
        ],
        "city": "TOWSON",
        "state": "MD",
        "postalCode": "21204-3623"
      },
      {
        "line": [
          "3690 GRANDVIEW PKWY"
        ],
        "city": "BIRMINGHAM",
        "state": "AL",
        "postalCode": "35243-3326"
      },
      {
        "line": [
          "73 Holbrook Road"
        ],
        "city": "SEYMOUR",
        "state": "CT",
        "postalCode": "06483-2009"
      },
      {
        "line": [
          "300 S BRUCE ST"
        ],
        "city": "MARSHALL",
        "state": "MN",
        "postalCode": "56258-1934"
      },
      {
        "line": [
          "9010 N LAKE CREEK PKWY"
        ],
        "city": "AUSTIN",
        "state": "TX",
        "postalCode": "78717-6217"
      },
      {
        "line": [
          "66 Southdown Road"
        ],
        "city": "HUNTINGTON",
        "state": "NY",
        "postalCode": "11743-2552"
      },
      {
        "line": [
          "11937 US HIGHWAY 271"
        ],
        "city": "TYLER",
        "state": "TX",
        "postalCode": "75708-3154"
      },
      {
        "line": [
          "1441 CONSTITUTION BLVD"
        ],
        "city": "SALINAS",
        "state": "CA",
        "postalCode": "93906-3100"
      },
      {
        "line": [
          "408 Palisades Trail"
        ],
        "city": "KELLER",
        "state": "TX",
        "postalCode": "76248-1508"
      },
      {
        "line": [
          "2070 CLINTON AVE"
        ],
        "city": "ALAMEDA",
        "state": "CA",
        "postalCode": "94501-4399"
      },
      {
        "line": [
          "3269 N STOCKTON HILL RD"
        ],
        "city": "KINGMAN",
        "state": "AZ",
        "postalCode": "86409-3619"
      },
      {
        "line": [
          "6601 White Feather Rd"
        ],
        "city": "JOSHUA TREE",
        "state": "CA",
        "postalCode": "92252-6607"
      },
      {
        "line": [
          "701 E 16th St"
        ],
        "city": "BERWICK",
        "state": "PA",
        "postalCode": "18603-2316"
      },
      {
        "line": [
          "2951 Maple Ave"
        ],
        "city": "ZANESVILLE",
        "state": "OH",
        "postalCode": "43701-1406"
      },
      {
        "line": [
          "7021 N. Overhill Ave."
        ],
        "city": "CHICAGO",
        "state": "IL",
        "postalCode": "60631-1057"
      },
      {
        "line": [
          "45 PLATEAU ST"
        ],
        "city": "BRYSON CITY",
        "state": "NC",
        "postalCode": "28713-4200"
      },
      {
        "line": [
          "1101 N Melba Ct."
        ],
        "city": "GILBERT",
        "state": "AZ",
        "postalCode": "85233-2543"
      },
      {
        "line": [
          "1535 SLATE CREEK RD"
        ],
        "city": "GRUNDY",
        "state": "VA",
        "postalCode": "24614-6974"
      },
      {
        "line": [
          "8404 SW 73rd pl"
        ],
        "city": "GAINESVILLE",
        "state": "FL",
        "postalCode": "32608-8471"
      },
      {
        "line": [
          "828 Kathy Dianne Drive"
        ],
        "city": "Indian Land",
        "state": "SC",
        "postalCode": "29707-6898"
      },
      {
        "line": [
          "922 44th Avenue Ct. NE"
        ],
        "city": "HICKORY",
        "state": "NC",
        "postalCode": "28601-7309"
      },
      {
        "line": [
          "23 Woodhaven Road"
        ],
        "city": "TOMS RIVER",
        "state": "NJ",
        "postalCode": "08753-2043"
      },
      {
        "line": [
          "6801 AIRPORT BLVD"
        ],
        "city": "MOBILE",
        "state": "AL",
        "postalCode": "36608-3709"
      },
      {
        "line": [
          "700 North Randolph Street, Apt 1504"
        ],
        "city": "ARLINGTON",
        "state": "VA",
        "postalCode": "22203-2194"
      },
      {
        "line": [
          "100 MUNICIPAL DR"
        ],
        "city": "MABANK",
        "state": "TX",
        "postalCode": "75156-3702"
      },
      {
        "line": [
          "41755 Echo Forest Drive"
        ],
        "city": "CANTON",
        "state": "MI",
        "postalCode": "48188-4819"
      },
      {
        "line": [
          "1795 HIGHWAY 64 E"
        ],
        "city": "ANAMOSA",
        "state": "IA",
        "postalCode": "52205-2112"
      },
      {
        "line": [
          "289 COUNTY RD"
        ],
        "city": "WINDSOR",
        "state": "VT",
        "postalCode": "05089-9000"
      },
      {
        "line": [
          "535 WILLIAMSON RD"
        ],
        "city": "MEADVILLE",
        "state": "PA",
        "postalCode": "16335-2848"
      },
      {
        "line": [
          "14815 PACIFIC AVE S"
        ],
        "city": "TACOMA",
        "state": "WA",
        "postalCode": "98444-4654"
      },
      {
        "line": [
          "16260 S RANCHO SAHUARITA BLVD"
        ],
        "city": "SAHUARITA",
        "state": "AZ",
        "postalCode": "85629-0047"
      },
      {
        "line": [
          "2951 MAPLE AVE"
        ],
        "city": "ZANESVILLE",
        "state": "OH",
        "postalCode": "43701-1406"
      },
      {
        "line": [
          "1530 LONE OAK RD"
        ],
        "city": "PADUCAH",
        "state": "KY",
        "postalCode": "42003-7901"
      },
      {
        "line": [
          "6201 N SUNCOAST BLVD"
        ],
        "city": "CRYSTAL RIVER",
        "state": "FL",
        "postalCode": "34428-6712"
      },
      {
        "line": [
          "2000 S PALESTINE ST"
        ],
        "city": "ATHENS",
        "state": "TX",
        "postalCode": "75751-5610"
      },
      {
        "line": [
          "413 Hamilton Avenue"
        ],
        "city": "HEWLETT",
        "state": "NY",
        "postalCode": "11557-1110"
      },
      {
        "line": [
          "1000 W 10TH ST"
        ],
        "city": "ROLLA",
        "state": "MO",
        "postalCode": "65401-2905"
      },
      {
        "line": [
          "1411 E 31ST ST"
        ],
        "city": "OAKLAND",
        "state": "CA",
        "postalCode": "94602-1018"
      },
      {
        "line": [
          "114 Greenmeadow Lane"
        ],
        "city": "PORT MATILDA",
        "state": "PA",
        "postalCode": "16870-3129"
      },
      {
        "line": [
          "2700 WAYNE MEMORIAL DR"
        ],
        "city": "GOLDSBORO",
        "state": "NC",
        "postalCode": "27534-9494"
      },
      {
        "line": [
          "427 St Andrews Dr"
        ],
        "city": "ALLEN",
        "state": "TX",
        "postalCode": "75002-5331"
      },
      {
        "line": [
          "2805 NE 129TH ST"
        ],
        "city": "VANCOUVER",
        "state": "WA",
        "postalCode": "98686-3324"
      },
      {
        "line": [
          "1135 CARTHAGE ST"
        ],
        "city": "SANFORD",
        "state": "NC",
        "postalCode": "27330-4162"
      },
      {
        "line": [
          "3520 Bradford St."
        ],
        "city": "HOUSTON",
        "state": "TX",
        "postalCode": "77025-1330"
      },
      {
        "line": [
          "950 E Main St Apt 206"
        ],
        "city": "CARTERSVILLE",
        "state": "GA",
        "postalCode": "30121-2268"
      },
      {
        "line": [
          "17353 Countryside Manor Pkwy"
        ],
        "city": "CHESTERFIELD",
        "state": "MO",
        "postalCode": "63005-4334"
      },
      {
        "line": [
          "5917 Lakehurst Drive"
        ],
        "city": "DALLAS",
        "state": "TX",
        "postalCode": "75230-5033"
      },
      {
        "line": [
          "18205 Bur Oak Dr."
        ],
        "city": "EDMOND",
        "state": "OK",
        "postalCode": "73012-4019"
      },
      {
        "line": [
          "6440 W NEWBERRY RD STE 508"
        ],
        "city": "GAINESVILLE",
        "state": "FL",
        "postalCode": "32605-8303"
      },
      {
        "line": [
          "8307 63rd Street Court West"
        ],
        "city": "UNIVERSITY PLACE",
        "state": "WA",
        "postalCode": "98467-3951"
      },
      {
        "line": [
          "17700 SE 272ND ST"
        ],
        "city": "KENT",
        "state": "WA",
        "postalCode": "98042-4951"
      },
      {
        "line": [
          "3000 MEDICAL CENTER PKWY"
        ],
        "city": "BENTONVILLE",
        "state": "AR",
        "postalCode": "72712-3217"
      },
      {
        "line": [
          "845 PARKSIDE ST"
        ],
        "city": "RIPON",
        "state": "WI",
        "postalCode": "54971-8505"
      },
      {
        "line": [
          "4702 S MCCOLL RD"
        ],
        "city": "EDINBURG",
        "state": "TX",
        "postalCode": "78539-8201"
      },
      {
        "line": [
          "1320 MAPLEWOOD AVE"
        ],
        "city": "RONCEVERTE",
        "state": "WV",
        "postalCode": "24970-8016"
      },
      {
        "line": [
          "816 VIOLET WAY"
        ],
        "city": "CELINA",
        "state": "TX",
        "postalCode": "75009-1760"
      },
      {
        "line": [
          "160 E ERIE AVE"
        ],
        "city": "PHILADELPHIA",
        "state": "PA",
        "postalCode": "19134-1011"
      },
      {
        "line": [
          "2800 MAIN ST"
        ],
        "city": "BRIDGEPORT",
        "state": "CT",
        "postalCode": "06606-4201"
      },
      {
        "line": [
          "920 S OAK ST"
        ],
        "city": "IOWA FALLS",
        "state": "IA",
        "postalCode": "50126-9507"
      },
      {
        "line": [
          "375 Slater Rd"
        ],
        "city": "LEWISVILLE",
        "state": "NC",
        "postalCode": "27023-8711"
      },
      {
        "line": [
          "298 WASHINGTON ST"
        ],
        "city": "GLOUCESTER",
        "state": "MA",
        "postalCode": "01930-4832"
      },
      {
        "line": [
          "7900 FARM TO MARKET ROAD 1826"
        ],
        "city": "AUSTIN",
        "state": "TX",
        "postalCode": "78737-1407"
      },
      {
        "line": [
          "221 Ne Glen Oak Ave"
        ],
        "city": "PEORIA",
        "state": "IL",
        "postalCode": "61636-0001"
      },
      {
        "line": [
          "1638 OWEN DR"
        ],
        "city": "FAYETTEVILLE",
        "state": "NC",
        "postalCode": "28304-3424"
      },
      {
        "line": [
          "200 HIGH PARK AVE"
        ],
        "city": "GOSHEN",
        "state": "IN",
        "postalCode": "46526-4810"
      },
      {
        "line": [
          "21 ELM ST"
        ],
        "city": "NEW MILFORD",
        "state": "CT",
        "postalCode": "06776-2915"
      },
      {
        "line": [
          "1901 N MacArthur Blvd"
        ],
        "city": "IRVING",
        "state": "TX",
        "postalCode": "75061-2220"
      },
      {
        "line": [
          "175 Hospital Dr"
        ],
        "city": "WINCHESTER",
        "state": "KY",
        "postalCode": "40391-9591"
      },
      {
        "line": [
          "1005 Blakeford Court"
        ],
        "city": "WINSTON SALEM",
        "state": "NC",
        "postalCode": "27106-4774"
      },
      {
        "line": [
          "907 West Norvell Bryant Highway"
        ],
        "city": "HERNANDO",
        "state": "FL",
        "postalCode": "34442-5288"
      },
      {
        "line": [
          "115 AIRPORT RD"
        ],
        "city": "SULPHUR SPRINGS",
        "state": "TX",
        "postalCode": "75482-2105"
      },
      {
        "line": [
          "310 SE VERANDA FALLS WAY"
        ],
        "city": "PORT SAINT LUCIE",
        "state": "FL",
        "postalCode": "34984-2101"
      },
      {
        "line": [
          "3330 Masonic Dr"
        ],
        "city": "ALEXANDRIA",
        "state": "LA",
        "postalCode": "71301-3841"
      },
      {
        "line": [
          "1453 E Bert Kouns Industrial Loop"
        ],
        "city": "SHREVEPORT",
        "state": "LA",
        "postalCode": "71105-6800"
      },
      {
        "line": [
          "2000 Woodrow Bean Transmountain Dr"
        ],
        "city": "EL PASO",
        "state": "TX",
        "postalCode": "79911-3601"
      },
      {
        "line": [
          "PO BOX 847888"
        ],
        "city": "DALLAS",
        "state": "TX",
        "postalCode": "75284-7888"
      },
      {
        "line": [
          "2351 E 22ND ST"
        ],
        "city": "CLEVELAND",
        "state": "OH",
        "postalCode": "44115-3111"
      },
      {
        "line": [
          "111 COLCHESTER AVE"
        ],
        "city": "BURLINGTON",
        "state": "VT",
        "postalCode": "05401-1473"
      },
      {
        "line": [
          "199 REEDSDALE RD"
        ],
        "city": "MILTON",
        "state": "MA",
        "postalCode": "02186-3926"
      },
      {
        "line": [
          "301 N ALEXANDER ST"
        ],
        "city": "PLANT CITY",
        "state": "FL",
        "postalCode": "33563-4303"
      },
      {
        "line": [
          "1813 Truscott Ln"
        ],
        "city": "ALLEN",
        "state": "TX",
        "postalCode": "75013-5425"
      },
      {
        "line": [
          "N2950 STATE ROAD 67"
        ],
        "city": "LAKE GENEVA",
        "state": "WI",
        "postalCode": "53147-2655"
      },
      {
        "line": [
          "32-36 CENTRAL AVE"
        ],
        "city": "WELLSBORO",
        "state": "PA",
        "postalCode": "16901-1840"
      },
      {
        "line": [
          "11925 Southcrest Ln"
        ],
        "city": "PINEVILLE",
        "state": "NC",
        "postalCode": "28134-9132"
      },
      {
        "line": [
          "4350 DEWEY AVE"
        ],
        "city": "OMAHA",
        "state": "NE",
        "postalCode": "68105-1017"
      },
      {
        "line": [
          "115 MEDICAL CIR"
        ],
        "city": "SULPHUR SPRINGS",
        "state": "TX",
        "postalCode": "75482-2138"
      },
      {
        "line": [
          "108 Wilbur Rd"
        ],
        "city": "BERGENFIELD",
        "state": "NJ",
        "postalCode": "07621-4020"
      },
      {
        "line": [
          "720 HOSPITAL DR"
        ],
        "city": "ANDREWS",
        "state": "TX",
        "postalCode": "79714-3617"
      },
      {
        "line": [
          "655 Tobasco Trail"
        ],
        "city": "ARLINGTON",
        "state": "TX",
        "postalCode": "76002-4213"
      },
      {
        "line": [
          "130 Hays St"
        ],
        "city": "LULING",
        "state": "TX",
        "postalCode": "78648-3207"
      },
      {
        "line": [
          "3201 west, tx-22"
        ],
        "city": "CORSICANA",
        "state": "TX",
        "postalCode": "75110-2450"
      },
      {
        "line": [
          "514 W WINDCREST ST"
        ],
        "city": "FREDERICKSBURG",
        "state": "TX",
        "postalCode": "78624-4633"
      },
      {
        "line": [
          "32 central avenue"
        ],
        "city": "WELLSBORO",
        "state": "PA",
        "postalCode": "16901-1840"
      },
      {
        "line": [
          "242 GREEN ST"
        ],
        "city": "GARDNER",
        "state": "MA",
        "postalCode": "01440-1336"
      },
      {
        "line": [
          "16 Poultney Street"
        ],
        "city": "BALTIMORE",
        "state": "MD",
        "postalCode": "21230-4022"
      },
      {
        "line": [
          "2900 LAMB CIR"
        ],
        "city": "CHRISTIANSBURG",
        "state": "VA",
        "postalCode": "24073-6340"
      },
      {
        "line": [
          "149 NORTH ST"
        ],
        "city": "WATERVILLE",
        "state": "ME",
        "postalCode": "04901-4974"
      },
      {
        "line": [
          "142 S MAIN ST"
        ],
        "city": "DANVILLE",
        "state": "VA",
        "postalCode": "24541-2922"
      },
      {
        "line": [
          "700 W Grove St"
        ],
        "city": "EL DORADO",
        "state": "AR",
        "postalCode": "71730-4416"
      },
      {
        "line": [
          "410 DEWEY ST"
        ],
        "city": "WISCONSIN RAPIDS",
        "state": "WI",
        "postalCode": "54494-4715"
      },
      {
        "line": [
          "942 Crestview Drive"
        ],
        "city": "COPPELL",
        "state": "TX",
        "postalCode": "75019-6936"
      },
      {
        "line": [
          "3929 E STATE BLVD"
        ],
        "city": "FORT WAYNE",
        "state": "IN",
        "postalCode": "46805-4948"
      },
      {
        "line": [
          "400 N EDWARDS ST"
        ],
        "city": "ENTERPRISE",
        "state": "AL",
        "postalCode": "36330-2510"
      },
      {
        "line": [
          "1515 E OCEAN AVE"
        ],
        "city": "LOMPOC",
        "state": "CA",
        "postalCode": "93436-7092"
      },
      {
        "line": [
          "1043 Sheffield Rd"
        ],
        "city": "SEGUIN",
        "state": "TX",
        "postalCode": "78155-0588"
      },
      {
        "line": [
          "10594 Royal Cypress Way"
        ],
        "city": "ORLANDO",
        "state": "FL",
        "postalCode": "32836-6529"
      },
      {
        "line": [
          "1522 W April Rain Ct."
        ],
        "city": "MISSOURI CITY",
        "state": "TX",
        "postalCode": "77489-3182"
      },
      {
        "line": [
          "933 E PIERCE ST"
        ],
        "city": "COUNCIL BLUFFS",
        "state": "IA",
        "postalCode": "51503-4626"
      },
      {
        "line": [
          "1200 PLEASANT ST"
        ],
        "city": "DES MOINES",
        "state": "IA",
        "postalCode": "50309-1406"
      },
      {
        "line": [
          "455 TOLL GATE RD"
        ],
        "city": "WARWICK",
        "state": "RI",
        "postalCode": "02886-2759"
      },
      {
        "line": [
          "40100 HIGHWAY 27"
        ],
        "city": "DAVENPORT",
        "state": "FL",
        "postalCode": "33837-5906"
      },
      {
        "line": [
          "1500 GRAND LAKE DR"
        ],
        "city": "CONROE",
        "state": "TX",
        "postalCode": "77304-2891"
      },
      {
        "line": [
          "N10561 GRANDVIEW LN"
        ],
        "city": "IRONWOOD",
        "state": "MI",
        "postalCode": "49938-9622"
      },
      {
        "line": [
          "301 lononderry dr"
        ],
        "city": "waco",
        "state": "TX",
        "postalCode": "76712-7915"
      },
      {
        "line": [
          "305 S STATE ST"
        ],
        "city": "ABERDEEN",
        "state": "SD",
        "postalCode": "57401-4527"
      },
      {
        "line": [
          "1613 N MCKENZIE ST"
        ],
        "city": "FOLEY",
        "state": "AL",
        "postalCode": "36535-2247"
      },
      {
        "line": [
          "5302 BUFFALO GAP RD"
        ],
        "city": "ABILENE",
        "state": "TX",
        "postalCode": "79606-4246"
      },
      {
        "line": [
          "1315 HOSPITAL DR"
        ],
        "city": "SAINT JOHNSBURY",
        "state": "VT",
        "postalCode": "05819-9210"
      },
      {
        "line": [
          "2104 Headwater Lane"
        ],
        "city": "AUSTIN",
        "state": "TX",
        "postalCode": "78746-7857"
      },
      {
        "line": [
          "1800 W UNIVERSITY BLVD"
        ],
        "city": "DURANT",
        "state": "OK",
        "postalCode": "74701-3006"
      },
      {
        "line": [
          "401 15TH AVE SE"
        ],
        "city": "PUYALLUP",
        "state": "WA",
        "postalCode": "98372-3715"
      },
      {
        "line": [
          "202 N DIVISION ST"
        ],
        "city": "AUBURN",
        "state": "WA",
        "postalCode": "98001-4939"
      },
      {
        "line": [
          "14148 FRANCISQUITO AVE"
        ],
        "city": "BALDWIN PARK",
        "state": "CA",
        "postalCode": "91706-6120"
      },
      {
        "line": [
          "1903 W HEBRON LN"
        ],
        "city": "SHEPHERDSVILLE",
        "state": "KY",
        "postalCode": "40165-7425"
      },
      {
        "line": [
          "7700 NW 26TH ST"
        ],
        "city": "BETHANY",
        "state": "OK",
        "postalCode": "73008-4936"
      },
      {
        "line": [
          "1900 PINE ST"
        ],
        "city": "ABILENE",
        "state": "TX",
        "postalCode": "79601-2432"
      },
      {
        "line": [
          "33 Island View Drive"
        ],
        "city": "WARWICK",
        "state": "RI",
        "postalCode": "02886-9211"
      },
      {
        "line": [
          "1550 FIRST COLONY BLVD"
        ],
        "city": "SUGAR LAND",
        "state": "TX",
        "postalCode": "77479-4000"
      },
      {
        "line": [
          "15720 SW 258th Street"
        ],
        "city": "HOMESTEAD",
        "state": "FL",
        "postalCode": "33031-2036"
      },
      {
        "line": [
          "68 HOSPITAL RD"
        ],
        "city": "SYLVA",
        "state": "NC",
        "postalCode": "28779-2722"
      },
      {
        "line": [
          "700 E MARSHALL AVE"
        ],
        "city": "LONGVIEW",
        "state": "TX",
        "postalCode": "75601-5580"
      },
      {
        "line": [
          "100 HOSPITAL DR"
        ],
        "city": "BENNINGTON",
        "state": "VT",
        "postalCode": "05201-5004"
      },
      {
        "line": [
          "30412 St. Andrews Dr."
        ],
        "city": "GEORGETOWN",
        "state": "TX",
        "postalCode": "78628-1105"
      },
      {
        "line": [
          "45 READE PL"
        ],
        "city": "POUGHKEEPSIE",
        "state": "NY",
        "postalCode": "12601-3947"
      },
      {
        "line": [
          "1301 N ROSE DR"
        ],
        "city": "PLACENTIA",
        "state": "CA",
        "postalCode": "92870-3802"
      },
      {
        "line": [
          "34 MAPLE ST"
        ],
        "city": "NORWALK",
        "state": "CT",
        "postalCode": "06850-3815"
      },
      {
        "line": [
          "2250 E FLAMINGO RD"
        ],
        "city": "LAS VEGAS",
        "state": "NV",
        "postalCode": "89119-5170"
      },
      {
        "line": [
          "12606 E MISSION AVE"
        ],
        "city": "SPOKANE",
        "state": "WA",
        "postalCode": "99216-3421"
      },
      {
        "line": [
          "275 W 12TH ST"
        ],
        "city": "PERU",
        "state": "IN",
        "postalCode": "46970-1638"
      },
      {
        "line": [
          "4088 Beaver Brook Road"
        ],
        "city": "CLEMMONS",
        "state": "NC",
        "postalCode": "27012-7501"
      },
      {
        "line": [
          "605 HOLDERRIETH BLVD"
        ],
        "city": "TOMBALL",
        "state": "TX",
        "postalCode": "77375-6445"
      },
      {
        "line": [
          "224 Cuban Lily Dr."
        ],
        "city": "FAIRHOPE",
        "state": "AL",
        "postalCode": "36532-0052"
      },
      {
        "line": [
          "207 Pungo Lane"
        ],
        "city": "CHOCOWINITY",
        "state": "NC",
        "postalCode": "27817-8513"
      },
      {
        "line": [
          "1000 WELLNESS WAY"
        ],
        "city": "FORT MILL",
        "state": "SC",
        "postalCode": "29715-7315"
      },
      {
        "line": [
          "1131 Villaview Dr."
        ],
        "city": "BALLWIN",
        "state": "MO",
        "postalCode": "63021-6753"
      },
      {
        "line": [
          "1 Bubba Watson Dr"
        ],
        "city": "PENSACOLA",
        "state": "FL",
        "postalCode": "32504-8721"
      },
      {
        "line": [
          "1229 C AVE E"
        ],
        "city": "OSKALOOSA",
        "state": "IA",
        "postalCode": "52577-4298"
      },
      {
        "line": [
          "315 MARTIN LUTHER KING JR WAY"
        ],
        "city": "TACOMA",
        "state": "WA",
        "postalCode": "98405-4234"
      },
      {
        "line": [
          "1000 4TH ST SW"
        ],
        "city": "MASON CITY",
        "state": "IA",
        "postalCode": "50401-2800"
      },
      {
        "line": [
          "18321 120TH AVE"
        ],
        "city": "NUNICA",
        "state": "MI",
        "postalCode": "49448-9759"
      },
      {
        "line": [
          "670 STONELEIGH AVE"
        ],
        "city": "CARMEL",
        "state": "NY",
        "postalCode": "10512-3997"
      },
      {
        "line": [
          "295 VARNUM AVE"
        ],
        "city": "LOWELL",
        "state": "MA",
        "postalCode": "01854-2134"
      },
      {
        "line": [
          "388 BEN BOLT AVE"
        ],
        "city": "TAZEWELL",
        "state": "VA",
        "postalCode": "24651-5386"
      },
      {
        "line": [
          "10300 NE Hancock St."
        ],
        "city": "PORTLAND",
        "state": "OR",
        "postalCode": "97220-3831"
      },
      {
        "line": [
          "6002 Martel Ave"
        ],
        "city": "DALLAS",
        "state": "TX",
        "postalCode": "75206-5710"
      },
      {
        "line": [
          "900 17TH ST"
        ],
        "city": "WOODWARD",
        "state": "OK",
        "postalCode": "73801-2448"
      },
      {
        "line": [
          "128 N FM 3167"
        ],
        "city": "RIO GRANDE CITY",
        "state": "TX",
        "postalCode": "78582-6211"
      },
      {
        "line": [
          "5442 Verbena St"
        ],
        "city": "DENVER",
        "state": "CO",
        "postalCode": "80238-3847"
      },
      {
        "line": [
          "5323 Saville Dr. NW"
        ],
        "city": "ACWORTH",
        "state": "GA",
        "postalCode": "30101-6903"
      },
      {
        "line": [
          "1500 N JAMES ST"
        ],
        "city": "ROME",
        "state": "NY",
        "postalCode": "13440-2844"
      },
      {
        "line": [
          "1356 S ROyal Drive"
        ],
        "city": "SPRINGFIELD",
        "state": "MO",
        "postalCode": "65809-2428"
      },
      {
        "line": [
          "901 S 5th Ave"
        ],
        "city": "MADILL",
        "state": "OK",
        "postalCode": "73446-3640"
      },
      {
        "line": [
          "6025 METROPOLITAN DR"
        ],
        "city": "BEAUMONT",
        "state": "TX",
        "postalCode": "77706-2407"
      },
      {
        "line": [
          "9107 Brentmeade Blvd"
        ],
        "city": "BRENTWOOD",
        "state": "TN",
        "postalCode": "37027-8525"
      },
      {
        "line": [
          "700 E UNIVERSITY AVE"
        ],
        "city": "DES MOINES",
        "state": "IA",
        "postalCode": "50316-2302"
      },
      {
        "line": [
          "3917 Shadow Point Drive"
        ],
        "city": "LEAGUE CITY",
        "state": "TX",
        "postalCode": "77573-3795"
      },
      {
        "line": [
          "1504 NW 187th Street"
        ],
        "city": "EDMOND",
        "state": "OK",
        "postalCode": "73012-6203"
      },
      {
        "line": [
          "389 NICHOL MILL LN"
        ],
        "city": "FRANKLIN",
        "state": "TN",
        "postalCode": "37067-4882"
      },
      {
        "line": [
          "5720 MARTIN RD APT 3322"
        ],
        "city": "PLANO",
        "state": "TX",
        "postalCode": "75024-4947"
      },
      {
        "line": [
          "18439 PATRIOT LN"
        ],
        "city": "RUTHER GLEN",
        "state": "VA",
        "postalCode": "22546-2955"
      },
      {
        "line": [
          "200 IH 35 South"
        ],
        "city": "PEARSALL",
        "state": "TX",
        "postalCode": "78061-6601"
      },
      {
        "line": [
          "9321 Grove Hollow Ln"
        ],
        "city": "GERMANTOWN",
        "state": "TN",
        "postalCode": "38139-3589"
      },
      {
        "line": [
          "453 Warren Ave"
        ],
        "city": "CINCINNATI",
        "state": "OH",
        "postalCode": "45220-1136"
      },
      {
        "line": [
          "8360 MONTECITO POINTE DR APT 1066"
        ],
        "city": "LAS VEGAS",
        "state": "NV",
        "postalCode": "89149-4783"
      },
      {
        "line": [
          "11212 STATE HIGHWAY 151"
        ],
        "city": "SAN ANTONIO",
        "state": "TX",
        "postalCode": "78251-4498"
      },
      {
        "line": [
          "110 LONGWOOD AVE"
        ],
        "city": "ROCKLEDGE",
        "state": "FL",
        "postalCode": "32955-2828"
      },
      {
        "line": [
          "1720 CENTRAL AVE E"
        ],
        "city": "HAMPTON",
        "state": "IA",
        "postalCode": "50441-1869"
      },
      {
        "line": [
          "300 Blackwell St",
          "Apt #217"
        ],
        "city": "DURHAM",
        "state": "NC",
        "postalCode": "27701-3990"
      },
      {
        "line": [
          "14 Sleepy Hollow Rd"
        ],
        "city": "MARY ESTHER",
        "state": "FL",
        "postalCode": "32569-2047"
      },
      {
        "line": [
          "2600 SAINT MICHAEL DR"
        ],
        "city": "TEXARKANA",
        "state": "TX",
        "postalCode": "75503-2372"
      },
      {
        "line": [
          "401 W MOHAWK DR"
        ],
        "city": "TOMAHAWK",
        "state": "WI",
        "postalCode": "54487-2274"
      },
      {
        "line": [
          "4209 ASPEN GROVE CT"
        ],
        "city": "ARLINGTON",
        "state": "TX",
        "postalCode": "76005-1151"
      },
      {
        "line": [
          "201 HOSPITAL RD"
        ],
        "city": "EAGLE RIVER",
        "state": "WI",
        "postalCode": "54521-8835"
      },
      {
        "line": [
          "261 Lansing Island Dr."
        ],
        "city": "SATELLITE BEACH",
        "state": "FL",
        "postalCode": "32937-5102"
      },
      {
        "line": [
          "1501 Burleson Retta Rd"
        ],
        "city": "BURLESON",
        "state": "TX",
        "postalCode": "76028-3253"
      },
      {
        "line": [
          "3130 Meadowhill Ln"
        ],
        "city": "DICKINSON",
        "state": "TX",
        "postalCode": "77539-6245"
      },
      {
        "line": [
          "400 OLD RIVER RD"
        ],
        "city": "BAKERSFIELD",
        "state": "CA",
        "postalCode": "93311-9781"
      },
      {
        "line": [
          "604 STONE AVE"
        ],
        "city": "TALLADEGA",
        "state": "AL",
        "postalCode": "35160-2217"
      },
      {
        "line": [
          "1206 GORDON DUCKWORTH DR"
        ],
        "city": "PIGGOTT",
        "state": "AR",
        "postalCode": "72454-1911"
      },
      {
        "line": [
          "997 W INTERSTATE 20"
        ],
        "city": "COLORADO CITY",
        "state": "TX",
        "postalCode": "79512-2685"
      },
      {
        "line": [
          "1200 N Lake Shore Drive #702"
        ],
        "city": "CHICAGO",
        "state": "IL",
        "postalCode": "60610-2347"
      },
      {
        "line": [
          "4370 W MAIN ST"
        ],
        "city": "DOTHAN",
        "state": "AL",
        "postalCode": "36305-1056"
      },
      {
        "line": [
          "2021 wales ave nw"
        ],
        "city": "MASSILLON",
        "state": "OH",
        "postalCode": "44646-2393"
      },
      {
        "line": [
          "2823 FRESNO ST"
        ],
        "city": "FRESNO",
        "state": "CA",
        "postalCode": "93721-1324"
      },
      {
        "line": [
          "2003 KOOTENAI HEALTH WAY"
        ],
        "city": "COEUR D ALENE",
        "state": "ID",
        "postalCode": "83814-6051"
      },
      {
        "line": [
          "1416 San Marino Drive"
        ],
        "city": "PEARLAND",
        "state": "TX",
        "postalCode": "77581-5267"
      },
      {
        "line": [
          "362 Jasmine Ave"
        ],
        "city": "VALPARAISO",
        "state": "FL",
        "postalCode": "32580-1616"
      },
      {
        "line": [
          "620 W LEXINGTON ST"
        ],
        "city": "BALTIMORE",
        "state": "MD",
        "postalCode": "21201-1508"
      },
      {
        "line": [
          "802 Kenyon Rd"
        ],
        "city": "FORT DODGE",
        "state": "IA",
        "postalCode": "50501-5740"
      },
      {
        "line": [
          "2720 STONE PARK BLVD"
        ],
        "city": "SIOUX CITY",
        "state": "IA",
        "postalCode": "51104-3734"
      },
      {
        "line": [
          "200 GROTON RD"
        ],
        "city": "AYER",
        "state": "MA",
        "postalCode": "01432-1168"
      },
      {
        "line": [
          "27200 CALAROGA AVE"
        ],
        "city": "HAYWARD",
        "state": "CA",
        "postalCode": "94545-4339"
      },
      {
        "line": [
          "17201 INTERSTATE 45 S"
        ],
        "city": "SHENANDOAH",
        "state": "TX",
        "postalCode": "77385-3311"
      },
      {
        "line": [
          "1850 BLUEGRASS AVE"
        ],
        "city": "LOUISVILLE",
        "state": "KY",
        "postalCode": "40215-1161"
      },
      {
        "line": [
          "5110 W SAHARA AVE"
        ],
        "city": "LAS VEGAS",
        "state": "NV",
        "postalCode": "89146-3406"
      },
      {
        "line": [
          "10410 DOHERTY SPG"
        ],
        "city": "SAN ANTONIO",
        "state": "TX",
        "postalCode": "78255-1041"
      },
      {
        "line": [
          "16260 S. Rancho Sahuarita"
        ],
        "city": "NACO",
        "state": "AZ",
        "postalCode": "85620-0047"
      },
      {
        "line": [
          "3832 N LINCOLN AVE"
        ],
        "city": "CHICAGO",
        "state": "IL",
        "postalCode": "60613-3520"
      },
      {
        "line": [
          "275 GUTHRIE DR"
        ],
        "city": "TROY",
        "state": "PA",
        "postalCode": "16947-8115"
      },
      {
        "line": [
          "2008 NINE RD"
        ],
        "city": "BRADY",
        "state": "TX",
        "postalCode": "76825-7210"
      },
      {
        "line": [
          "2580 Bear Hollow Dr."
        ],
        "city": "PARK CITY",
        "state": "UT",
        "postalCode": "84098-8525"
      },
      {
        "line": [
          "10 ALICE PECK DAY DR"
        ],
        "city": "LEBANON",
        "state": "NH",
        "postalCode": "03766-2900"
      },
      {
        "line": [
          "218 SUNSET RD"
        ],
        "city": "WILLINGBORO",
        "state": "NJ",
        "postalCode": "08046-1110"
      },
      {
        "line": [
          "4058 S LITTLE VALLEY RD"
        ],
        "city": "SAINT GEORGE",
        "state": "UT",
        "postalCode": "84790-8033"
      },
      {
        "line": [
          "401 W. Campbell Rd"
        ],
        "city": "RICHARDSON",
        "state": "TX",
        "postalCode": "75080-3416"
      },
      {
        "line": [
          "129 New Ballwin Rd."
        ],
        "city": "BALLWIN",
        "state": "MO",
        "postalCode": "63021-4761"
      },
      {
        "line": [
          "4600 E SAM HOUSTON PKWY S"
        ],
        "city": "PASADENA",
        "state": "TX",
        "postalCode": "77505-3948"
      },
      {
        "line": [
          "525 N FOSTER ST"
        ],
        "city": "MITCHELL",
        "state": "SD",
        "postalCode": "57301-2966"
      },
      {
        "line": [
          "88 WASHINGTON ST"
        ],
        "city": "TAUNTON",
        "state": "MA",
        "postalCode": "02780-2465"
      },
      {
        "line": [
          "175 MADISON AVE"
        ],
        "city": "MOUNT HOLLY",
        "state": "NJ",
        "postalCode": "08060-2038"
      },
      {
        "line": [
          "727 Sleepy Hollow Rd"
        ],
        "city": "CHAPEL HILL",
        "state": "NC",
        "postalCode": "27517-9152"
      },
      {
        "line": [
          "100 N 30th St"
        ],
        "city": "CLINTON",
        "state": "OK",
        "postalCode": "73601-3117"
      },
      {
        "line": [
          "100 15TH ST NW"
        ],
        "city": "NORTON",
        "state": "VA",
        "postalCode": "24273-1616"
      },
      {
        "line": [
          "2001 N JEFFERSON AVE"
        ],
        "city": "MOUNT PLEASANT",
        "state": "TX",
        "postalCode": "75455-2338"
      },
      {
        "line": [
          "43 Pohina St",
          "Unit 1602"
        ],
        "city": "WAILUKU",
        "state": "HI",
        "postalCode": "96793-3544"
      },
      {
        "line": [
          "229 Twin Meadows Lane"
        ],
        "city": "LAFAYETTE",
        "state": "LA",
        "postalCode": "70508-8196"
      },
      {
        "line": [
          "999 35TH ST STE 100"
        ],
        "city": "MARION",
        "state": "IA",
        "postalCode": "52302-1706"
      },
      {
        "line": [
          "1901 S UNION AVE"
        ],
        "city": "TACOMA",
        "state": "WA",
        "postalCode": "98405-1702"
      },
      {
        "line": [
          "3700 W NOLANA AVE"
        ],
        "city": "MCALLEN",
        "state": "TX",
        "postalCode": "78504-4884"
      },
      {
        "line": [
          "609 W MAPLE AVE"
        ],
        "city": "SPRINGDALE",
        "state": "AR",
        "postalCode": "72764-5335"
      },
      {
        "line": [
          "112 MANSFIELD AVE"
        ],
        "city": "WILLIMANTIC",
        "state": "CT",
        "postalCode": "06226-2045"
      },
      {
        "line": [
          "6717 Clear Springs Circle"
        ],
        "city": "GARLAND",
        "state": "TX",
        "postalCode": "75044-2826"
      },
      {
        "line": [
          "140 FRONTAGE RD"
        ],
        "city": "ALAMO",
        "state": "TX",
        "postalCode": "78516-1602"
      },
      {
        "line": [
          "62 Jasper St"
        ],
        "city": "STATEN ISLAND",
        "state": "NY",
        "postalCode": "10314-6304"
      },
      {
        "line": [
          "148 CHESTNUT ST"
        ],
        "city": "NEEDHAM",
        "state": "MA",
        "postalCode": "02492-2505"
      },
      {
        "line": [
          "1468 SILVER SAGE DR"
        ],
        "city": "HASLET",
        "state": "TX",
        "postalCode": "76052-1809"
      },
      {
        "line": [
          "1910 MALVERN AVE"
        ],
        "city": "HOT SPRINGS",
        "state": "AR",
        "postalCode": "71901-7752"
      },
      {
        "line": [
          "185 GRAFTON RD"
        ],
        "city": "TOWNSHEND",
        "state": "VT",
        "postalCode": "05353-8820"
      },
      {
        "line": [
          "355 GRAND ST"
        ],
        "city": "JERSEY CITY",
        "state": "NJ",
        "postalCode": "07302-4321"
      },
      {
        "line": [
          "1308 Veloce Dr."
        ],
        "city": "PLANO",
        "state": "TX",
        "postalCode": "75074-0112"
      },
      {
        "line": [
          "759 CHESTNUT ST"
        ],
        "city": "SPRINGFIELD",
        "state": "MA",
        "postalCode": "01199-1001"
      },
      {
        "line": [
          "3130 North Harwood Street Unit 1103"
        ],
        "city": "DALLAS",
        "state": "TX",
        "postalCode": "75201-1117"
      },
      {
        "line": [
          "3801 E HIGHWAY 98"
        ],
        "city": "PORT SAINT JOE",
        "state": "FL",
        "postalCode": "32456-5318"
      },
      {
        "line": [
          "693 WHITE BEAR TRL"
        ],
        "city": "LINDALE",
        "state": "TX",
        "postalCode": "75771-6659"
      },
      {
        "line": [
          "1356 S Royal Drive"
        ],
        "city": "SPRINGFIELD",
        "state": "MO",
        "postalCode": "65809-2428"
      },
      {
        "line": [
          "4900 MUELLER BLVD"
        ],
        "city": "AUSTIN",
        "state": "TX",
        "postalCode": "78723-3051"
      },
      {
        "line": [
          "302 UNIVERSITY PKWY"
        ],
        "city": "AIKEN",
        "state": "SC",
        "postalCode": "29801-6302"
      },
      {
        "line": [
          "5700 E HIGHWAY 90"
        ],
        "city": "SIERRA VISTA",
        "state": "AZ",
        "postalCode": "85635-9110"
      },
      {
        "line": [
          "4 Bradford Cove"
        ],
        "city": "SAVANNAH",
        "state": "GA",
        "postalCode": "31410-2629"
      },
      {
        "line": [
          "1300 N MAIN ST"
        ],
        "city": "RUSHVILLE",
        "state": "IN",
        "postalCode": "46173-1116"
      },
      {
        "line": [
          "3073 WHITE MOUNTAIN HWY"
        ],
        "city": "NORTH CONWAY",
        "state": "NH",
        "postalCode": "03860-7101"
      },
      {
        "line": [
          "60 Sigmon Drum Rd"
        ],
        "city": "HICKORY",
        "state": "NC",
        "postalCode": "28601-8985"
      },
      {
        "line": [
          "1210 S OLD DIXIE HWY"
        ],
        "city": "JUPITER",
        "state": "FL",
        "postalCode": "33458-7205"
      },
      {
        "line": [
          "7930 NORTHAVEN RD"
        ],
        "city": "DALLAS",
        "state": "TX",
        "postalCode": "75230-3331"
      },
      {
        "line": [
          "451 E CHARLOTTE AVE"
        ],
        "city": "MOUNT HOLLY",
        "state": "NC",
        "postalCode": "28120-2211"
      },
      {
        "line": [
          "34106 US HIGHWAY 19 N"
        ],
        "city": "PALM HARBOR",
        "state": "FL",
        "postalCode": "34684-2142"
      },
      {
        "line": [
          "19545 Saturnia Lakes Drive"
        ],
        "city": "BOCA RATON",
        "state": "FL",
        "postalCode": "33498-6208"
      },
      {
        "line": [
          "216 Side Saddle Lane"
        ],
        "city": "BEREA",
        "state": "OH",
        "postalCode": "44017-4001"
      },
      {
        "line": [
          "124 S MEMORIAL DR"
        ],
        "city": "PRATTVILLE",
        "state": "AL",
        "postalCode": "36067-3619"
      },
      {
        "line": [
          "2100 DORCHESTER AVE"
        ],
        "city": "DORCHESTER CENTER",
        "state": "MA",
        "postalCode": "02124-5615"
      },
      {
        "line": [
          "9475 BRIAR VILLAGE PT"
        ],
        "city": "COLORADO SPRINGS",
        "state": "CO",
        "postalCode": "80920-7901"
      },
      {
        "line": [
          "2001 SCIOTO TRL"
        ],
        "city": "PORTSMOUTH",
        "state": "OH",
        "postalCode": "45662-2845"
      },
      {
        "line": [
          "537 COUNTY ROAD 4115"
        ],
        "city": "ATLANTA",
        "state": "TX",
        "postalCode": "75551-6989"
      },
      {
        "line": [
          "4600 Ambassador Caffery Pkwy"
        ],
        "city": "LAFAYETTE",
        "state": "LA",
        "postalCode": "70508-6902"
      },
      {
        "line": [
          "5809 Olde Covington PL"
        ],
        "city": "GLEN ALLEN",
        "state": "VA",
        "postalCode": "23059-5694"
      },
      {
        "line": [
          "800 W 5TH AVE"
        ],
        "city": "SPOKANE",
        "state": "WA",
        "postalCode": "99204-2803"
      },
      {
        "line": [
          "2200 OSPREY BLVD"
        ],
        "city": "BARTOW",
        "state": "FL",
        "postalCode": "33830-3308"
      },
      {
        "line": [
          "1600 S. Highline Ave"
        ],
        "city": "SIOUX FALLS",
        "state": "SD",
        "postalCode": "57110-5612"
      },
      {
        "line": [
          "3201 1ST ST"
        ],
        "city": "EMMETSBURG",
        "state": "IA",
        "postalCode": "50536-2516"
      },
      {
        "line": [
          "26559 SE 15th St."
        ],
        "city": "SAMMAMISH",
        "state": "WA",
        "postalCode": "98075-7946"
      },
      {
        "line": [
          "232 Warrenton Dr."
        ],
        "city": "HOUSTON",
        "state": "TX",
        "postalCode": "77024-6226"
      },
      {
        "line": [
          "173 MIDDLE ST"
        ],
        "city": "LANCASTER",
        "state": "NH",
        "postalCode": "03584-3508"
      },
      {
        "line": [
          "1714 Reverdy Oaks Drive"
        ],
        "city": "MATTHEWS",
        "state": "NC",
        "postalCode": "28105-6864"
      },
      {
        "line": [
          "1804 Goodnight Lane"
        ],
        "city": "ALLEN",
        "state": "TX",
        "postalCode": "75002-1512"
      },
      {
        "line": [
          "226 S MAPLE DUNES CT"
        ],
        "city": "WICHITA",
        "state": "KS",
        "postalCode": "67235-7509"
      },
      {
        "line": [
          "90 BRICK RD"
        ],
        "city": "MARLTON",
        "state": "NJ",
        "postalCode": "08053-2177"
      },
      {
        "line": [
          "6515 Bandera Ave",
          "Apt 2A"
        ],
        "city": "DALLAS",
        "state": "TX",
        "postalCode": "75225-3972"
      },
      {
        "line": [
          "3240 N. Lake Shore Drive",
          "Apt 6C"
        ],
        "city": "CHICAGO",
        "state": "IL",
        "postalCode": "60657-3961"
      },
      {
        "line": [
          "907 W NORVELL BRYANT HWY"
        ],
        "city": "HERNANDO",
        "state": "FL",
        "postalCode": "34442-5288"
      },
      {
        "line": [
          "1299 BERTHA HOWE AVE"
        ],
        "city": "MESQUITE",
        "state": "NV",
        "postalCode": "89027-7500"
      },
      {
        "line": [
          "2200 S Ocean Lane",
          "Apt 1410"
        ],
        "city": "FORT LAUDERDALE",
        "state": "FL",
        "postalCode": "33316-3865"
      },
      {
        "line": [
          "6161 S YALE AVE"
        ],
        "city": "TULSA",
        "state": "OK",
        "postalCode": "74136-1902"
      },
      {
        "line": [
          "133 FAIRFIELD ST"
        ],
        "city": "SAINT ALBANS",
        "state": "VT",
        "postalCode": "05478-1726"
      },
      {
        "line": [
          "125 COMMONWEALTH DR"
        ],
        "city": "GREENVILLE",
        "state": "SC",
        "postalCode": "29615-4812"
      },
      {
        "line": [
          "126 Maple View Drive"
        ],
        "city": "TROUTMAN",
        "state": "NC",
        "postalCode": "28166-8807"
      },
      {
        "line": [
          "701 W COCOA BEACH CSWY"
        ],
        "city": "COCOA BEACH",
        "state": "FL",
        "postalCode": "32931-3585"
      },
      {
        "line": [
          "2700 E BROAD ST"
        ],
        "city": "MANSFIELD",
        "state": "TX",
        "postalCode": "76063-5899"
      },
      {
        "line": [
          "60 E ROSLYN CT"
        ],
        "city": "COLONIAL HEIGHTS",
        "state": "VA",
        "postalCode": "23834-2980"
      },
      {
        "line": [
          "100 FAIRVIEW DR"
        ],
        "city": "FRANKLIN",
        "state": "VA",
        "postalCode": "23851-1214"
      },
      {
        "line": [
          "18500 KATY FWY"
        ],
        "city": "HOUSTON",
        "state": "TX",
        "postalCode": "77094-1110"
      },
      {
        "line": [
          "7111 Littlemore Way"
        ],
        "city": "HANOVER",
        "state": "MD",
        "postalCode": "21076-2343"
      },
      {
        "line": [
          "409 COTTAGE RD"
        ],
        "city": "CARTHAGE",
        "state": "TX",
        "postalCode": "75633-1466"
      },
      {
        "line": [
          "2900 Glengary Rd"
        ],
        "city": "CLEVELAND",
        "state": "OH",
        "postalCode": "44120-1733"
      },
      {
        "line": [
          "6565 FANNIN ST"
        ],
        "city": "HOUSTON",
        "state": "TX",
        "postalCode": "77030-2703"
      },
      {
        "line": [
          "1600 E HIGH ST"
        ],
        "city": "POTTSTOWN",
        "state": "PA",
        "postalCode": "19464-5008"
      },
      {
        "line": [
          "15790 PAUL VEGA MD DR"
        ],
        "city": "HAMMOND",
        "state": "LA",
        "postalCode": "70403-1434"
      },
      {
        "line": [
          "770 Boylston Street Apt 21H"
        ],
        "city": "BOSTON",
        "state": "MA",
        "postalCode": "02199-7718"
      },
      {
        "line": [
          "1817 JESSUP DR"
        ],
        "city": "FORT COLLINS",
        "state": "CO",
        "postalCode": "80525-2550"
      },
      {
        "line": [
          "1500 RED RIVER ST"
        ],
        "city": "AUSTIN",
        "state": "TX",
        "postalCode": "78701-1918"
      },
      {
        "line": [
          "4611 QUIET MANOR LN"
        ],
        "city": "SUGAR LAND",
        "state": "TX",
        "postalCode": "77479-3799"
      },
      {
        "line": [
          "2500 E Main St"
        ],
        "city": "ALICE",
        "state": "TX",
        "postalCode": "78332-4261"
      },
      {
        "line": [
          "2504 Springview Road"
        ],
        "city": "NORRISTOWN",
        "state": "PA",
        "postalCode": "19401-1850"
      },
      {
        "line": [
          "2100 S MARION RD"
        ],
        "city": "SIOUX FALLS",
        "state": "SD",
        "postalCode": "57106-3646"
      },
      {
        "line": [
          "350 TERRACINA BLVD"
        ],
        "city": "REDLANDS",
        "state": "CA",
        "postalCode": "92373-4850"
      },
      {
        "line": [
          "33 Glistening Pond Dr."
        ],
        "city": "FRISCO",
        "state": "TX",
        "postalCode": "75034-1936"
      },
      {
        "line": [
          "100 SADIE LN"
        ],
        "city": "MORGANTOWN",
        "state": "WV",
        "postalCode": "26508-1166"
      },
      {
        "line": [
          "452 OLD STREET RD"
        ],
        "city": "PETERBOROUGH",
        "state": "NH",
        "postalCode": "03458-1263"
      },
      {
        "line": [
          "523 Shalom Rd."
        ],
        "city": "WAYNESBORO",
        "state": "VA",
        "postalCode": "22980-7363"
      },
      {
        "line": [
          "54 CAMINO DEL ZORZAL"
        ],
        "city": "DORADO",
        "state": "PR",
        "postalCode": "00646-3458"
      },
      {
        "line": [
          "1100 MERCER AVE"
        ],
        "city": "DECATUR",
        "state": "IN",
        "postalCode": "46733-2303"
      },
      {
        "line": [
          "4301 Greathouse Springs Rd"
        ],
        "city": "JOHNSON",
        "state": "AR",
        "postalCode": "72741-3031"
      },
      {
        "line": [
          "600 MT HIGHWAY 91 S"
        ],
        "city": "DILLON",
        "state": "MT",
        "postalCode": "59725-7379"
      },
      {
        "line": [
          "4868 Isleworth Drive"
        ],
        "city": "IRVING",
        "state": "TX",
        "postalCode": "75038-4451"
      },
      {
        "line": [
          "600 ROE AVE"
        ],
        "city": "ELMIRA",
        "state": "NY",
        "postalCode": "14905-1629"
      },
      {
        "line": [
          "9300 VALLEY CHILDRENS PL"
        ],
        "city": "MADERA",
        "state": "CA",
        "postalCode": "93636-8761"
      },
      {
        "line": [
          "8881 STATE ROUTE 97"
        ],
        "city": "CALLICOON",
        "state": "NY",
        "postalCode": "12723-5052"
      },
      {
        "line": [
          "6901 MEDICAL CENTER DR STE 100"
        ],
        "city": "ORANGE",
        "state": "TX",
        "postalCode": "77630-1410"
      },
      {
        "line": [
          "300 W 5TH ST"
        ],
        "city": "MILLER",
        "state": "SD",
        "postalCode": "57362-1238"
      },
      {
        "line": [
          "5542 VANLERBERGHE LN"
        ],
        "city": "TRUSSVILLE",
        "state": "AL",
        "postalCode": "35173-2538"
      },
      {
        "line": [
          "7640 Nez Perce Trace"
        ],
        "city": "MANOR",
        "state": "TX",
        "postalCode": "78653-9600"
      },
      {
        "line": [
          "374 STOCKHOLM ST"
        ],
        "city": "BROOKLYN",
        "state": "NY",
        "postalCode": "11237-4006"
      },
      {
        "line": [
          "4800 S CROATAN HWY"
        ],
        "city": "NAGS HEAD",
        "state": "NC",
        "postalCode": "27959-9704"
      },
      {
        "line": [
          "1710 Harper Rd"
        ],
        "city": "BECKLEY",
        "state": "WV",
        "postalCode": "25801-3357"
      },
      {
        "line": [
          "719 w. coke rd"
        ],
        "city": "WINNSBORO",
        "state": "TX",
        "postalCode": "75494-3011"
      },
      {
        "line": [
          "100 Sadie Lane"
        ],
        "city": "MORGANTOWN",
        "state": "WV",
        "postalCode": "26508-1166"
      },
      {
        "line": [
          "1850 CHADWICK DR"
        ],
        "city": "JACKSON",
        "state": "MS",
        "postalCode": "39204-3404"
      },
      {
        "line": [
          "1108 Cameo Court"
        ],
        "city": "SAINT LOUIS",
        "state": "MO",
        "postalCode": "63131-4604"
      },
      {
        "line": [
          "25 Melrose Ave"
        ],
        "city": "BARRINGTON",
        "state": "RI",
        "postalCode": "02806-4434"
      },
      {
        "line": [
          "810 NW 15th St."
        ],
        "city": "OKLAHOMA CITY",
        "state": "OK",
        "postalCode": "73106-6606"
      },
      {
        "line": [
          "1418 Odlum Drive SE"
        ],
        "city": "ALBUQUERQUE",
        "state": "NM",
        "postalCode": "87108-5150"
      },
      {
        "line": [
          "8458 NW 163rd Ter"
        ],
        "city": "HIALEAH",
        "state": "FL",
        "postalCode": "33016-6631"
      },
      {
        "line": [
          "27 PARK ST"
        ],
        "city": "HYANNIS",
        "state": "MA",
        "postalCode": "02601-5230"
      },
      {
        "line": [
          "164 HIGH ST"
        ],
        "city": "GREENFIELD",
        "state": "MA",
        "postalCode": "01301-2613"
      },
      {
        "line": [
          "7405 SW ARCHER RD"
        ],
        "city": "GAINESVILLE",
        "state": "FL",
        "postalCode": "32608-4611"
      },
      {
        "line": [
          "1808 W MAIN ST"
        ],
        "city": "RUSSELLVILLE",
        "state": "AR",
        "postalCode": "72801-2724"
      },
      {
        "line": [
          "10018 KENNERLY RD FL 3"
        ],
        "city": "SAINT LOUIS",
        "state": "MO",
        "postalCode": "63128-2106"
      },
      {
        "line": [
          "420 ALBERTSON PKWY"
        ],
        "city": "BROUSSARD",
        "state": "LA",
        "postalCode": "70518-4968"
      },
      {
        "line": [
          "1505 Withmere Lane"
        ],
        "city": "ATLANTA",
        "state": "GA",
        "postalCode": "30338-3340"
      },
      {
        "line": [
          "15 E AUDUBON DR"
        ],
        "city": "FRESNO",
        "state": "CA",
        "postalCode": "93720-1542"
      },
      {
        "line": [
          "75 BEEKMAN ST"
        ],
        "city": "PLATTSBURGH",
        "state": "NY",
        "postalCode": "12901-1438"
      },
      {
        "line": [
          "19895 MEADOWSIDE LN"
        ],
        "city": "BOCA RATON",
        "state": "FL",
        "postalCode": "33498-6237"
      },
      {
        "line": [
          "4301 Greathouse Springs Rd Johnson"
        ],
        "city": "JOHNSON",
        "state": "AR",
        "postalCode": "72741-3031"
      },
      {
        "line": [
          "6611 River Place Blvd #202"
        ],
        "city": "AUSTIN",
        "state": "TX",
        "postalCode": "78730-1167"
      },
      {
        "line": [
          "1211 OLD MAIN ST"
        ],
        "city": "HARTFORD",
        "state": "KY",
        "postalCode": "42347-1619"
      },
      {
        "line": [
          "8112 E Fairmount Drive"
        ],
        "city": "DENVER",
        "state": "CO",
        "postalCode": "80230-6700"
      },
      {
        "line": [
          "400 TAYLOR RD"
        ],
        "city": "MONTGOMERY",
        "state": "AL",
        "postalCode": "36117-3512"
      },
      {
        "line": [
          "717 SAGE RD"
        ],
        "city": "HOUSTON",
        "state": "TX",
        "postalCode": "77056-2111"
      },
      {
        "line": [
          "1500 E Houston St"
        ],
        "city": "BEEVILLE",
        "state": "TX",
        "postalCode": "78102-5312"
      },
      {
        "line": [
          "380 N OXFORD VALLEY RD"
        ],
        "city": "LANGHORNE",
        "state": "PA",
        "postalCode": "19047-8304"
      },
      {
        "line": [
          "810 W HIGHWAY 71"
        ],
        "city": "MARBLE FALLS",
        "state": "TX",
        "postalCode": "78654-8602"
      },
      {
        "line": [
          "2701 US Highway 271 North"
        ],
        "city": "PITTSBURG",
        "state": "TX",
        "postalCode": "75686-2203"
      },
      {
        "line": [
          "601 S 7TH ST"
        ],
        "city": "ONTONAGON",
        "state": "MI",
        "postalCode": "49953-1448"
      },
      {
        "line": [
          "140 LINCOLN AVE"
        ],
        "city": "HAVERHILL",
        "state": "MA",
        "postalCode": "01830-6700"
      },
      {
        "line": [
          "11801 SOUTH FWY"
        ],
        "city": "BURLESON",
        "state": "TX",
        "postalCode": "76028-7021"
      },
      {
        "line": [
          "501 S RAGSDALE ST"
        ],
        "city": "JACKSONVILLE",
        "state": "TX",
        "postalCode": "75766-2467"
      },
      {
        "line": [
          "2827 FORT MISSOULA RD"
        ],
        "city": "MISSOULA",
        "state": "MT",
        "postalCode": "59804-7408"
      },
      {
        "line": [
          "9022 Rockbrook Drive"
        ],
        "city": "DALLAS",
        "state": "TX",
        "postalCode": "75220-3906"
      },
      {
        "line": [
          "3204 PEACOCK LN"
        ],
        "city": "CELINA",
        "state": "TX",
        "postalCode": "75009-5531"
      },
      {
        "line": [
          "301 W EXPRESSWAY 83"
        ],
        "city": "MCALLEN",
        "state": "TX",
        "postalCode": "78503-3045"
      },
      {
        "line": [
          "1091 THORNDALE CIR"
        ],
        "city": "PROSPER",
        "state": "TX",
        "postalCode": "75078-9200"
      },
      {
        "line": [
          "6311 LARKMOUNT DR"
        ],
        "city": "SPRING",
        "state": "TX",
        "postalCode": "77389-3689"
      },
      {
        "line": [
          "6200 N La Cholla Blvd"
        ],
        "city": "TUCSON",
        "state": "AZ",
        "postalCode": "85741-3529"
      },
      {
        "line": [
          "3400 HIGHWAY 78 E"
        ],
        "city": "JASPER",
        "state": "AL",
        "postalCode": "35501-8907"
      },
      {
        "line": [
          "347 ANDRIEUX ST"
        ],
        "city": "SONOMA",
        "state": "CA",
        "postalCode": "95476-6811"
      },
      {
        "line": [
          "4 Lynn Street"
        ],
        "city": "CANTON",
        "state": "MA",
        "postalCode": "02021-2444"
      },
      {
        "line": [
          "5801 Ridge Ave Apt 211"
        ],
        "city": "PHILADELPHIA",
        "state": "PA",
        "postalCode": "19128-1765"
      },
      {
        "line": [
          "7323 WINERY LN"
        ],
        "city": "CHARLOTTE",
        "state": "NC",
        "postalCode": "28227-8148"
      },
      {
        "line": [
          "3501 MILLS AVE"
        ],
        "city": "AUSTIN",
        "state": "TX",
        "postalCode": "78731-6309"
      },
      {
        "line": [
          "8519 Sunrise Loop"
        ],
        "city": "MONTGOMERY",
        "state": "AL",
        "postalCode": "36116-4500"
      },
      {
        "line": [
          "10850 Yorkspring Drive"
        ],
        "city": "DALLAS",
        "state": "TX",
        "postalCode": "75218-1236"
      },
      {
        "line": [
          "832 S MAIN ST"
        ],
        "city": "ORRVILLE",
        "state": "OH",
        "postalCode": "44667-2208"
      },
      {
        "line": [
          "1135 FM 1742"
        ],
        "city": "COOPER",
        "state": "TX",
        "postalCode": "75432-4941"
      },
      {
        "line": [
          "5603 Bending Crest Court"
        ],
        "city": "SUGAR LAND",
        "state": "TX",
        "postalCode": "77479-6859"
      },
      {
        "line": [
          "3001 SILLECT AVE"
        ],
        "city": "BAKERSFIELD",
        "state": "CA",
        "postalCode": "93308-6337"
      },
      {
        "line": [
          "18 Reta Road"
        ],
        "city": "FAIRVIEW",
        "state": "NC",
        "postalCode": "28730-8767"
      },
      {
        "line": [
          "5511 Brisco Bend Ln"
        ],
        "city": "FULSHEAR",
        "state": "TX",
        "postalCode": "77441-1545"
      },
      {
        "line": [
          "1930 Sweetbriar Lane"
        ],
        "city": "DARIEN",
        "state": "IL",
        "postalCode": "60561-3694"
      },
      {
        "line": [
          "8 THE GRN STE 11807"
        ],
        "city": "DOVER",
        "state": "DE",
        "postalCode": "19901-3618"
      },
      {
        "line": [
          "1600 HADDON AVE"
        ],
        "city": "CAMDEN",
        "state": "NJ",
        "postalCode": "08103-3101"
      },
      {
        "line": [
          "155 Brandon  Ter"
        ],
        "city": "ALBANY",
        "state": "NY",
        "postalCode": "12203-6004"
      },
      {
        "line": [
          "435 2ND ST"
        ],
        "city": "NEWPORT",
        "state": "TN",
        "postalCode": "37821-3703"
      },
      {
        "line": [
          "1825 Wrondel Way"
        ],
        "city": "RENO",
        "state": "NV",
        "postalCode": "89502-3310"
      },
      {
        "line": [
          "423 Lakedale Dr."
        ],
        "city": "PLANO",
        "state": "TX",
        "postalCode": "75094-4289"
      },
      {
        "line": [
          "1515 S PHILLIPS ST"
        ],
        "city": "ALGONA",
        "state": "IA",
        "postalCode": "50511-3649"
      },
      {
        "line": [
          "2500 WHITNEY HILL RD"
        ],
        "city": "CHARLOTTE",
        "state": "NC",
        "postalCode": "28226-4341"
      },
      {
        "line": [
          "1200 N BEAVER ST"
        ],
        "city": "FLAGSTAFF",
        "state": "AZ",
        "postalCode": "86001-3118"
      },
      {
        "line": [
          "5313 El Dorado Dr"
        ],
        "city": "FORT WORTH",
        "state": "TX",
        "postalCode": "76107-3233"
      },
      {
        "line": [
          "65 Harwich Road"
        ],
        "city": "PROVIDENCE",
        "state": "RI",
        "postalCode": "02906-4919"
      },
      {
        "line": [
          "6809 Bert Lane"
        ],
        "city": "DALLAS",
        "state": "TX",
        "postalCode": "75240-3522"
      },
      {
        "line": [
          "11 Pine Lodge Place"
        ],
        "city": "SPRING",
        "state": "TX",
        "postalCode": "77382-2015"
      },
      {
        "line": [
          "575 N River St"
        ],
        "city": "WILKES BARRE",
        "state": "PA",
        "postalCode": "18764-0999"
      },
      {
        "line": [
          "1700 E. Saunders"
        ],
        "city": "LAREDO",
        "state": "TX",
        "postalCode": "78041-5474"
      },
      {
        "line": [
          "222 S HERLONG AVE"
        ],
        "city": "ROCK HILL",
        "state": "SC",
        "postalCode": "29732-1158"
      },
      {
        "line": [
          "300 UNIVERSITY BLVD"
        ],
        "city": "ROUND ROCK",
        "state": "TX",
        "postalCode": "78665-1032"
      },
      {
        "line": [
          "2156 W NINE MILE RD STE C FL 1"
        ],
        "city": "PENSACOLA",
        "state": "FL",
        "postalCode": "32534-9464"
      },
      {
        "line": [
          "706 Woods of Ladue Ln"
        ],
        "city": "SAINT LOUIS",
        "state": "MO",
        "postalCode": "63124-1221"
      },
      {
        "line": [
          "10516 Prezia Dr"
        ],
        "city": "AUSTIN",
        "state": "TX",
        "postalCode": "78733-5750"
      },
      {
        "line": [
          "8475 NW 39TH AVE"
        ],
        "city": "GAINESVILLE",
        "state": "FL",
        "postalCode": "32606-5635"
      },
      {
        "line": [
          "2621 N BOLTON AVE"
        ],
        "city": "ALEXANDRIA",
        "state": "LA",
        "postalCode": "71303-4506"
      },
      {
        "line": [
          "185 GRAFTON RD Route 35"
        ],
        "city": "TOWNSHEND",
        "state": "VT",
        "postalCode": "05353-8820"
      },
      {
        "line": [
          "3349 S HIGHWAY 181"
        ],
        "city": "KENEDY",
        "state": "TX",
        "postalCode": "78119-5247"
      },
      {
        "line": [
          "2100 WESCOTT DR FL 5"
        ],
        "city": "FLEMINGTON",
        "state": "NJ",
        "postalCode": "08822-4603"
      },
      {
        "line": [
          "865 STONE ST"
        ],
        "city": "RAHWAY",
        "state": "NJ",
        "postalCode": "07065-2742"
      },
      {
        "line": [
          "3695 Canyon Ln"
        ],
        "city": "BEAUMONT",
        "state": "TX",
        "postalCode": "77713-4208"
      },
      {
        "line": [
          "300 2ND AVE"
        ],
        "city": "LONG BRANCH",
        "state": "NJ",
        "postalCode": "07740-6303"
      },
      {
        "line": [
          "4750 Waters Avenue",
          "Suite 302"
        ],
        "city": "SAVANNAH",
        "state": "GA",
        "postalCode": "31404-6268"
      },
      {
        "line": [
          "825 DELBON AVE"
        ],
        "city": "TURLOCK",
        "state": "CA",
        "postalCode": "95382-2016"
      },
      {
        "line": [
          "1950 RECORD CROSSING RD."
        ],
        "city": "DALLAS",
        "state": "TX",
        "postalCode": "75235-6223"
      },
      {
        "line": [
          "18220 STATE HIGHWAY 249"
        ],
        "city": "HOUSTON",
        "state": "TX",
        "postalCode": "77070-4347"
      },
      {
        "line": [
          "900 E INTERSTATE HIGHWAY 2"
        ],
        "city": "MISSION",
        "state": "TX",
        "postalCode": "78572-5756"
      },
      {
        "line": [
          "875 S IL ROUTE 31"
        ],
        "city": "CRYSTAL LAKE",
        "state": "IL",
        "postalCode": "60014-8168"
      },
      {
        "line": [
          "13695 US HIGHWAY 1"
        ],
        "city": "SEBASTIAN",
        "state": "FL",
        "postalCode": "32958-3230"
      },
      {
        "line": [
          "532 1ST ST NW"
        ],
        "city": "BRITT",
        "state": "IA",
        "postalCode": "50423-1227"
      },
      {
        "line": [
          "6901 SIMMONS LOOP"
        ],
        "city": "RIVERVIEW",
        "state": "FL",
        "postalCode": "33578-9498"
      },
      {
        "line": [
          "1201 PINE ST"
        ],
        "city": "ELDORADO",
        "state": "IL",
        "postalCode": "62930-1634"
      },
      {
        "line": [
          "615 N BONITA AVE"
        ],
        "city": "PANAMA CITY",
        "state": "FL",
        "postalCode": "32401-3623"
      },
      {
        "line": [
          "10146 E Old Vail Rd"
        ],
        "city": "TUCSON",
        "state": "AZ",
        "postalCode": "85747-9406"
      },
      {
        "line": [
          "2669 SCENIC DR"
        ],
        "city": "ALAMOGORDO",
        "state": "NM",
        "postalCode": "88310-8700"
      },
      {
        "line": [
          "301 E 18th St"
        ],
        "city": "ANNISTON",
        "state": "AL",
        "postalCode": "36207-3999"
      },
      {
        "line": [
          "3615 I-69C"
        ],
        "city": "EDINBURG",
        "state": "TX",
        "postalCode": "78542-3262"
      },
      {
        "line": [
          "923 E CENTRAL AVE"
        ],
        "city": "LA FOLLETTE",
        "state": "TN",
        "postalCode": "37766-2768"
      },
      {
        "line": [
          "350 BLOSSOM ST"
        ],
        "city": "WEBSTER",
        "state": "TX",
        "postalCode": "77598-4206"
      },
      {
        "line": [
          "1710 HARPER RD"
        ],
        "city": "BECKLEY",
        "state": "WV",
        "postalCode": "25801-3357"
      },
      {
        "line": [
          "112 E 5TH AVE"
        ],
        "city": "ANTIGO",
        "state": "WI",
        "postalCode": "54409-2710"
      },
      {
        "line": [
          "2565 History Lane"
        ],
        "city": "PLANO",
        "state": "TX",
        "postalCode": "75075-0111"
      },
      {
        "line": [
          "800 TILGHMAN DR"
        ],
        "city": "DUNN",
        "state": "NC",
        "postalCode": "28334-5510"
      },
      {
        "line": [
          "7800 US HIGHWAY 98 W"
        ],
        "city": "MIRAMAR BEACH",
        "state": "FL",
        "postalCode": "32550-7228"
      },
      {
        "line": [
          "1401 Eva Street",
          "#304"
        ],
        "city": "AUSTIN",
        "state": "TX",
        "postalCode": "78704-3069"
      },
      {
        "line": [
          "22 Ave Los Maestros"
        ],
        "city": "MAYAGUEZ",
        "state": "PR",
        "postalCode": "00682-5952"
      },
      {
        "line": [
          "215 CHISHOLM TRL"
        ],
        "city": "JACKSBORO",
        "state": "TX",
        "postalCode": "76458-1403"
      },
      {
        "line": [
          "400 N STATE OF FRANKLIN RD"
        ],
        "city": "JOHNSON CITY",
        "state": "TN",
        "postalCode": "37604-6035"
      },
      {
        "line": [
          "5740 River Birch Dr."
        ],
        "city": "RENO",
        "state": "NV",
        "postalCode": "89511-4358"
      },
      {
        "line": [
          "3534 Durhill St."
        ],
        "city": "HOUSTON",
        "state": "TX",
        "postalCode": "77025-4106"
      },
      {
        "line": [
          "1400 E 9TH ST"
        ],
        "city": "ROCHESTER",
        "state": "IN",
        "postalCode": "46975-8931"
      },
      {
        "line": [
          "1201 Hovey Ave"
        ],
        "city": "NORMAL",
        "state": "IL",
        "postalCode": "61761-3388"
      },
      {
        "line": [
          "255 N Sierra St",
          "Unit 713"
        ],
        "city": "RENO",
        "state": "NV",
        "postalCode": "89501-1375"
      },
      {
        "line": [
          "12755 NW Creekside Drive"
        ],
        "city": "PORTLAND",
        "state": "OR",
        "postalCode": "97229-3980"
      },
      {
        "line": [
          "555 Creekside XING"
        ],
        "city": "NEW BRAUNFELS",
        "state": "TX",
        "postalCode": "78130-2594"
      },
      {
        "line": [
          "25 SPOEDE WOODS"
        ],
        "city": "SAINT LOUIS",
        "state": "MO",
        "postalCode": "63141-7828"
      },
      {
        "line": [
          "261 Lansing Island Drive"
        ],
        "city": "SATELLITE BEACH",
        "state": "FL",
        "postalCode": "32937-5102"
      },
      {
        "line": [
          "1475 W 49 Street"
        ],
        "city": "HIALEAH",
        "state": "FL",
        "postalCode": "33012-3146"
      },
      {
        "line": [
          "8118 GOOD LUCK RD"
        ],
        "city": "LANHAM",
        "state": "MD",
        "postalCode": "20706-3574"
      },
      {
        "line": [
          "20923 Normandy Forest Drive"
        ],
        "city": "SPRING",
        "state": "TX",
        "postalCode": "77388-5517"
      },
      {
        "line": [
          "9440 Poppy Drive Suite 215"
        ],
        "city": "DALLAS",
        "state": "TX",
        "postalCode": "75218-3424"
      },
      {
        "line": [
          "300 WILSON ST"
        ],
        "city": "HENDERSON",
        "state": "TX",
        "postalCode": "75652-5956"
      },
      {
        "line": [
          "413 9TH ST"
        ],
        "city": "BRITTON",
        "state": "SD",
        "postalCode": "57430-2274"
      },
      {
        "line": [
          "91 HOSPITAL DR"
        ],
        "city": "TOWANDA",
        "state": "PA",
        "postalCode": "18848-9702"
      },
      {
        "line": [
          "201 SETON PKWY"
        ],
        "city": "ROUND ROCK",
        "state": "TX",
        "postalCode": "78665-8000"
      },
      {
        "line": [
          "1 GUTHRIE SQ"
        ],
        "city": "SAYRE",
        "state": "PA",
        "postalCode": "18840-1625"
      },
      {
        "line": [
          "308 N MAPLE AVE"
        ],
        "city": "NEW HAMPTON",
        "state": "IA",
        "postalCode": "50659-1142"
      },
      {
        "line": [
          "595 W STATE ST"
        ],
        "city": "DOYLESTOWN",
        "state": "PA",
        "postalCode": "18901-2554"
      },
      {
        "line": [
          "115 W SILVER ST"
        ],
        "city": "WESTFIELD",
        "state": "MA",
        "postalCode": "01085-3678"
      },
      {
        "line": [
          "2453 Sir Lovel Lane"
        ],
        "city": "THE COLONY",
        "state": "TX",
        "postalCode": "75056-5637"
      },
      {
        "line": [
          "100 TOWNSEND AVE"
        ],
        "city": "BERLIN",
        "state": "NJ",
        "postalCode": "08009-9011"
      },
      {
        "line": [
          "4816 Sea Pines Dr."
        ],
        "city": "DALLAS",
        "state": "TX",
        "postalCode": "75287-7209"
      },
      {
        "line": [
          "301 MIKE CLOUSE DR"
        ],
        "city": "SOMERSET",
        "state": "OH",
        "postalCode": "43783-8000"
      },
      {
        "line": [
          "326 WASHINGTON ST"
        ],
        "city": "NORWICH",
        "state": "CT",
        "postalCode": "06360-2740"
      },
      {
        "line": [
          "6758 Alliance Loop"
        ],
        "city": "COLORADO SPRINGS",
        "state": "CO",
        "postalCode": "80925-8401"
      },
      {
        "line": [
          "1555 EXCHANGE AVE"
        ],
        "city": "CONWAY",
        "state": "AR",
        "postalCode": "72032-7824"
      },
      {
        "line": [
          "13613 W Avalon Dr"
        ],
        "city": "AVONDALE",
        "state": "AZ",
        "postalCode": "85392-4286"
      }
    ],
    "extension": [
      {
        "url": "https://fhir.athena.io/StructureDefinition/ah-practice",
        "valueReference": {
          "reference": "Organization/a-1.Practice-11087"
        }
      },
      {
        "url": "https://fhir.athena.io/StructureDefinition/ah-brand",
        "valueReference": {
          "reference": "Organization/a-11087.Brand-1"
        }
      }
    ]
  },
  "fullUrl": "urn:uuid:deb9c63a-db25-57c7-852f-a0d30b558a83"
}