{
  "resource": {
    "resourceType": "Organization",
    "id": "13182258-9142-5b89-b53f-45823a79bb34",
    "name": "Harvard Cardiovascular",
    "endpoint": [
      {
        "reference": "Endpoint/27a4e967-47aa-5a9c-a572-b8297ee268a2"
      },
      {
        "reference": "Endpoint/2a10e9f0-dafa-5aec-829e-d6aae53e4f71"
      }
    ],
    "identifier": [
      {
        "system": "http://hl7.org/fhir/sid/us-npi",
        "value": "1588905095"
      }
    ],
    "address": [
      {
        "line": [
          "5735 Ridge Ave"
        ],
        "city": "PHILADELPHIA",
        "state": "PA",
        "postalCode": "19128-1746"
      },
      {
        "line": [
          "501 BATH RD.",
          "Surgical Center Builing Suite 211"
        ],
        "city": "BRISTOL",
        "state": "PA",
        "postalCode": "19007-3101"
      },
      {
        "line": [
          "3554 HULMEVILLE RD"
        ],
        "city": "BENSALEM",
        "state": "PA",
        "postalCode": "19020-4366"
      },
      {
        "line": [
          "4220 MARKET ST"
        ],
        "city": "PHILADELPHIA",
        "state": "PA",
        "postalCode": "19104-3007"
      },
      {
        "line": [
          "3554 Hulmeville Rd",
          "Ste 111"
        ],
        "city": "Bensalem",
        "state": "PA",
        "postalCode": "19020-4366"
      },
      {
        "line": [
          "2601 HOLME AVE"
        ],
        "city": "PHILADELPHIA",
        "state": "PA",
        "postalCode": "19152-2007"
      },
      {
        "line": [
          "12401 ACADEMY RD STE 201"
        ],
        "city": "PHILADELPHIA",
        "state": "PA",
        "postalCode": "19154-1934"
      },
      {
        "line": [
          "3998 Red Lion Road"
        ],
        "city": "PHILADELPHIA",
        "state": "PA",
        "postalCode": "19114-1441"
      },
      {
        "line": [
          "52 BERLIN RD SUITE 5000"
        ],
        "city": "CHERRY HILL",
        "state": "NJ",
        "postalCode": "08034-3573"
      },
      {
        "line": [
          "501 BATH RD."
        ],
        "city": "BRISTOL",
        "state": "PA",
        "postalCode": "19007-3101"
      },
      {
        "line": [
          "100 LANCASTER AVE"
        ],
        "city": "WYNNEWOOD",
        "state": "PA",
        "postalCode": "19096-3450"
      },
      {
        "line": [
          "5735 Ridge Ave Ste 101"
        ],
        "city": "PHILADELPHIA",
        "state": "PA",
        "postalCode": "19128-1746"
      },
      {
        "line": [
          "5735 RIDGE AVE. STE 101"
        ],
        "city": "PHILADELPHIA",
        "state": "PA",
        "postalCode": "19128-1746"
      },
      {
        "line": [
          "515 W CHELTEN AVE"
        ],
        "city": "PHILADELPHIA",
        "state": "PA",
        "postalCode": "19144-4414"
      }
    ],
    "extension": [
      {
        "url": "https://fhir.athena.io/StructureDefinition/ah-practice",
        "valueReference": {
          "reference": "Organization/a-1.Practice-20051"
        }
      },
      {
        "url": "https://fhir.athena.io/StructureDefinition/ah-brand",
        "valueReference": {
          "reference": "Organization/a-20051.Brand-1"
        }
      }
    ]
  },
  "fullUrl": "urn:uuid:13182258-9142-5b89-b53f-45823a79bb34"
}