{
  "resource": {
    "resourceType": "Organization",
    "id": "46ac76f8-3a96-5cdd-a210-273e4bde4dae",
    "name": "Advent Health South Overland Park",
    "endpoint": [
      {
        "reference": "Endpoint/27a4e967-47aa-5a9c-a572-b8297ee268a2"
      },
      {
        "reference": "Endpoint/5e517d2a-543c-5810-bda8-cd761b8540f4"
      }
    ],
    "identifier": [
      {
        "system": "http://hl7.org/fhir/sid/us-npi",
        "value": "1649206319"
      }
    ],
    "address": [
      {
        "line": [
          "4550 W 109TH ST STE 310"
        ],
        "city": "Overland Park",
        "state": "KS",
        "postalCode": "66211-1360"
      },
      {
        "line": [
          "4820 College Boulevard"
        ],
        "city": "OVERLAND PARK",
        "state": "KS",
        "postalCode": "66211-1601"
      },
      {
        "line": [
          "4880 NE Goodview Circle"
        ],
        "city": "LEES SUMMIT",
        "state": "MO",
        "postalCode": "64064-1996"
      },
      {
        "line": [
          "6815 E Frontage Road",
          "Suite A"
        ],
        "city": "OVERLAND PARK",
        "state": "KS",
        "postalCode": "66204-1555"
      },
      {
        "line": [
          "4820 College Boulevard",
          "Suite A"
        ],
        "city": "LEAWOOD",
        "state": "KS",
        "postalCode": "66211-1601"
      },
      {
        "line": [
          "290 NE TUDOR RD"
        ],
        "city": "LEES SUMMIT",
        "state": "MO",
        "postalCode": "64086-5696"
      },
      {
        "line": [
          "4901 College Boulevard"
        ],
        "city": "LEAWOOD",
        "state": "KS",
        "postalCode": "66211-1602"
      },
      {
        "line": [
          "17067 South 71 Highway",
          "Suite 200"
        ],
        "city": "BELTON",
        "state": "MO",
        "postalCode": "64012-2165"
      },
      {
        "line": [
          "5701 W 119th Street",
          "Suite 425"
        ],
        "city": "Overland Park",
        "state": "KS",
        "postalCode": "66209-3721"
      },
      {
        "line": [
          "8919 PARALLEL PKWY STE 331"
        ],
        "city": "KANSAS CITY",
        "state": "KS",
        "postalCode": "66112-1655"
      },
      {
        "line": [
          "11709 ROE AVE STE B"
        ],
        "city": "LEAWOOD",
        "state": "KS",
        "postalCode": "66211-2603"
      },
      {
        "line": [
          "2300 Hutton Road",
          "Suite 106-107"
        ],
        "city": "KANSAS CITY",
        "state": "KS",
        "postalCode": "66109-4436"
      },
      {
        "line": [
          "2000 SE Blue Parkway",
          "Medical Building 1, Suite 110"
        ],
        "city": "LEES SUMMIT",
        "state": "MO",
        "postalCode": "64063-1041"
      },
      {
        "line": [
          "2330 E Meyer Blvd",
          "T104"
        ],
        "city": "KANSAS CITY",
        "state": "MO",
        "postalCode": "64132-1143"
      },
      {
        "line": [
          "4550 W 109TH ST STE 200"
        ],
        "city": "Overland Park",
        "state": "KS",
        "postalCode": "66211-1354"
      },
      {
        "line": [
          "2100 SE BLUE PKWY STE 165"
        ],
        "city": "LEES SUMMIT",
        "state": "MO",
        "postalCode": "64063-1007"
      },
      {
        "line": [
          "6427 W 119TH ST"
        ],
        "city": "OVERLAND PARK",
        "state": "KS",
        "postalCode": "66209-2734"
      },
      {
        "line": [
          "4820 College Boulevard",
          "SUITE A"
        ],
        "city": "LEAWOOD",
        "state": "KS",
        "postalCode": "66211-1601"
      },
      {
        "line": [
          "6815 E Frontage Road",
          "Suite A"
        ],
        "city": "Merriam",
        "state": "KS",
        "postalCode": "66204-1555"
      },
      {
        "line": [
          "314 E MAIN ST"
        ],
        "city": "GARDNER",
        "state": "KS",
        "postalCode": "66030-1314"
      },
      {
        "line": [
          "1418 S MAIN ST STE 5"
        ],
        "city": "OTTAWA",
        "state": "KS",
        "postalCode": "66067-3544"
      },
      {
        "line": [
          "1000 CARONDELET DR STE 100"
        ],
        "city": "KANSAS CITY",
        "state": "MO",
        "postalCode": "64114-4673"
      },
      {
        "line": [
          "19550 E 39TH ST S STE 430"
        ],
        "city": "INDEPENDENCE",
        "state": "MO",
        "postalCode": "64057-2307"
      },
      {
        "line": [
          "1600 N 2ND ST"
        ],
        "city": "CLINTON",
        "state": "MO",
        "postalCode": "64735-1192"
      },
      {
        "line": [
          "706 N BURKARTH RD"
        ],
        "city": "WARRENSBURG",
        "state": "MO",
        "postalCode": "64093-9303"
      },
      {
        "line": [
          "4801 COLLEGE BLVD"
        ],
        "city": "LEAWOOD",
        "state": "KS",
        "postalCode": "66211-1628"
      },
      {
        "line": [
          "6815 E FRONTAGE ROAD",
          "SUITE A"
        ],
        "city": "OVERLAND PARK",
        "state": "KS",
        "postalCode": "66204-1398"
      },
      {
        "line": [
          "4061 INDIAN CREEK PKWY STE 350"
        ],
        "city": "OVERLAND PARK",
        "state": "KS",
        "postalCode": "66207-4030"
      },
      {
        "line": [
          "3510 CLINTON PKWY STE 230"
        ],
        "city": "LAWRENCE",
        "state": "KS",
        "postalCode": "66047-2145"
      },
      {
        "line": [
          "17065 South 71 Highway",
          "SURGERY DEPT OF PAIN CLINIC"
        ],
        "city": "BELTON",
        "state": "MO",
        "postalCode": "64012-2165"
      },
      {
        "line": [
          "4801 College Blvd"
        ],
        "city": "LEAWOOD",
        "state": "KS",
        "postalCode": "66211-1602"
      }
    ],
    "extension": [
      {
        "url": "https://fhir.athena.io/StructureDefinition/ah-practice",
        "valueReference": {
          "reference": "Organization/a-1.Practice-12752"
        }
      },
      {
        "url": "https://fhir.athena.io/StructureDefinition/ah-brand",
        "valueReference": {
          "reference": "Organization/a-12752.Brand-1"
        }
      }
    ]
  },
  "fullUrl": "urn:uuid:46ac76f8-3a96-5cdd-a210-273e4bde4dae"
}