{
  "resource": {
    "resourceType": "Organization",
    "id": "17ee91ae-be56-581f-b326-5870ee521bd7",
    "name": "Bayler Place",
    "endpoint": [
      {
        "reference": "Endpoint/27a4e967-47aa-5a9c-a572-b8297ee268a2"
      },
      {
        "reference": "Endpoint/32406cd6-a093-5e91-ad62-688fd5e740c0"
      }
    ],
    "identifier": [
      {
        "system": "http://hl7.org/fhir/sid/us-npi",
        "value": "1538478367"
      },
      {
        "system": "http://hl7.org/fhir/sid/us-npi",
        "value": "1215045547"
      },
      {
        "system": "http://hl7.org/fhir/sid/us-npi",
        "value": "1851461925"
      },
      {
        "system": "http://hl7.org/fhir/sid/us-npi",
        "value": "1740299874"
      },
      {
        "system": "http://hl7.org/fhir/sid/us-npi",
        "value": "1497167647"
      },
      {
        "system": "http://hl7.org/fhir/sid/us-npi",
        "value": "1396750949"
      },
      {
        "system": "http://hl7.org/fhir/sid/us-npi",
        "value": "1609881275"
      },
      {
        "system": "http://hl7.org/fhir/sid/us-npi",
        "value": "1336458165"
      },
      {
        "system": "http://hl7.org/fhir/sid/us-npi",
        "value": "1316970973"
      },
      {
        "system": "http://hl7.org/fhir/sid/us-npi",
        "value": "1003821554"
      },
      {
        "system": "http://hl7.org/fhir/sid/us-npi",
        "value": "1851306310"
      },
      {
        "system": "http://hl7.org/fhir/sid/us-npi",
        "value": "1871833145"
      },
      {
        "system": "http://hl7.org/fhir/sid/us-npi",
        "value": "1629083175"
      },
      {
        "system": "http://hl7.org/fhir/sid/us-npi",
        "value": "1497152987"
      }
    ],
    "address": [
      {
        "line": [
          "3621 Rossgate Court"
        ],
        "city": "HAMILTON",
        "state": "OH",
        "postalCode": "45013-9558"
      },
      {
        "line": [],
        "city": "CINCINNATI",
        "state": "OH",
        "postalCode": "45208-8113"
      },
      {
        "line": [
          "6350 Glenway Ave # 300"
        ],
        "city": "CINCINNATI",
        "state": "OH",
        "postalCode": "45211-6380"
      },
      {
        "line": [
          "6949 Good Samaritan Drive",
          "Suite 220"
        ],
        "city": "CINCINNATI",
        "state": "OH",
        "postalCode": "45247-5204"
      },
      {
        "line": [
          "2753 Erie Avenue"
        ],
        "city": "CINCINNATI",
        "state": "OH",
        "postalCode": "45208-2204"
      },
      {
        "line": [
          "6949 Good Samaritan Drive"
        ],
        "city": "CINCINNATI",
        "state": "OH",
        "postalCode": "45247-5204"
      },
      {
        "line": [
          "2753 ERIE"
        ],
        "city": "CINCINNATI",
        "state": "OH",
        "postalCode": "45208-2204"
      },
      {
        "line": [
          "10500 Montgomery Rd"
        ],
        "city": "CINCINNATI",
        "state": "OH",
        "postalCode": "45242-4402"
      },
      {
        "line": [
          "7825 Laurel Avenue"
        ],
        "city": "CINCINNATI",
        "state": "OH",
        "postalCode": "45243-2608"
      },
      {
        "line": [
          "85 Grand Ave"
        ],
        "city": "FORT THOMAS",
        "state": "KY",
        "postalCode": "41075-1796"
      },
      {
        "line": [
          "10450 New Haven Road"
        ],
        "city": "HARRISON",
        "state": "OH",
        "postalCode": "45030-2780"
      },
      {
        "line": [
          "6350 Glenway Avenue # 400"
        ],
        "city": "CINCINNATI",
        "state": "OH",
        "postalCode": "45211-6396"
      },
      {
        "line": [
          "2475 W. Galbraith Rd, A"
        ],
        "city": "CINCINNATI",
        "state": "OH",
        "postalCode": "45239-4369"
      },
      {
        "line": [
          "3035 Hamilton Mason Road, Suite 200"
        ],
        "city": "HAMILTON",
        "state": "OH",
        "postalCode": "45011-5545"
      },
      {
        "line": [
          "1775 Lexington Ave",
          "Suite 150"
        ],
        "city": "CINCINNATI",
        "state": "OH",
        "postalCode": "45212-1131"
      },
      {
        "line": [
          "2475 W. Galbraith Rd, C"
        ],
        "city": "CINCINNATI",
        "state": "OH",
        "postalCode": "45239-4369"
      },
      {
        "line": [
          "990 Bayley Place Drive"
        ],
        "city": "CINCINNATI",
        "state": "OH",
        "postalCode": "45233-1664"
      }
    ],
    "extension": [
      {
        "url": "https://fhir.athena.io/StructureDefinition/ah-practice",
        "valueReference": {
          "reference": "Organization/a-1.Practice-786"
        }
      },
      {
        "url": "https://fhir.athena.io/StructureDefinition/ah-brand",
        "valueReference": {
          "reference": "Organization/a-786.Brand-1"
        }
      }
    ]
  },
  "fullUrl": "urn:uuid:17ee91ae-be56-581f-b326-5870ee521bd7"
}