{
  "resource": {
    "resourceType": "Organization",
    "id": "92de6170-692c-567b-beaa-4b8acc81d6f4",
    "name": "Happier Living",
    "endpoint": [
      {
        "reference": "Endpoint/27a4e967-47aa-5a9c-a572-b8297ee268a2"
      },
      {
        "reference": "Endpoint/9b6be9e3-f905-5a32-9320-d65a3e7bf3b7"
      }
    ],
    "identifier": [
      {
        "system": "http://hl7.org/fhir/sid/us-npi",
        "value": "1437585882"
      }
    ],
    "address": [
      {
        "line": [
          "101 East Washington Street"
        ],
        "city": "PHOENIX",
        "state": "AZ",
        "postalCode": "85004-2960"
      },
      {
        "line": [
          "8235 SANTA MONICA BLVD, SUITE 302"
        ],
        "city": "LOS ANGELES",
        "state": "CA",
        "postalCode": "90046-5969"
      },
      {
        "line": [
          "140 E. Ridgewood Avenue",
          "Suite 415"
        ],
        "city": "PARAMUS",
        "state": "NJ",
        "postalCode": "07652-3906"
      },
      {
        "line": [
          "10 Dorrance Street",
          "Suite 700"
        ],
        "city": "PROVIDENCE",
        "state": "RI",
        "postalCode": "02903-2014"
      },
      {
        "line": [
          "4730 University Way NE Ste 104"
        ],
        "city": "SEATTLE",
        "state": "WA",
        "postalCode": "98105-4424"
      },
      {
        "line": [
          "400 West Capitol Avenue Suite 1700"
        ],
        "city": "LITTLE ROCK",
        "state": "AR",
        "postalCode": "72201-3438"
      },
      {
        "line": [
          "205 SE Spokane St.",
          "Suite 300"
        ],
        "city": "PORTLAND",
        "state": "OR",
        "postalCode": "97202-6487"
      },
      {
        "line": [
          "650 Poydras Street Suite 1400"
        ],
        "city": "NEW ORLEANS",
        "state": "LA",
        "postalCode": "70130-6116"
      },
      {
        "line": [
          "333 N. Alabama Street Suite 350"
        ],
        "city": "INDIANAPOLIS",
        "state": "IN",
        "postalCode": "46204-2275"
      },
      {
        "line": [
          "415 Congress Street, Suite 202, Portland"
        ],
        "city": "PORTLAND",
        "state": "ME",
        "postalCode": "04101-3500"
      },
      {
        "line": [
          "312 S. Fourth Street",
          "Suite 700"
        ],
        "city": "LOUISVILLE",
        "state": "KY",
        "postalCode": "40202-3046"
      },
      {
        "line": [
          "5830 E. 2nd Street"
        ],
        "city": "CASPER",
        "state": "WY",
        "postalCode": "82609-4308"
      },
      {
        "line": [
          "363 N Sam Houston Pkwy E Suite 1100"
        ],
        "city": "HOUSTON",
        "state": "TX",
        "postalCode": "77060-2413"
      },
      {
        "line": [
          "101 Park Avenue",
          "Suite 1300"
        ],
        "city": "OKLAHOMA CITY",
        "state": "OK",
        "postalCode": "73102-7216"
      },
      {
        "line": [
          "100 South Fifth Street"
        ],
        "city": "MINNEAPOLIS",
        "state": "MN",
        "postalCode": "55402-1210"
      },
      {
        "line": [
          "1000 POTOMAC ST NW FL 5"
        ],
        "city": "WASHINGTON",
        "state": "DC",
        "postalCode": "20007-3501"
      },
      {
        "line": [
          "1170 PEACHTREE STREET",
          "SUITE 1200"
        ],
        "city": "ATLANTA",
        "state": "GA",
        "postalCode": "30309-7673"
      },
      {
        "line": [
          "101 S. Reid Street",
          "Suite 307"
        ],
        "city": "SIOUX FALLS",
        "state": "SD",
        "postalCode": "57103-7045"
      },
      {
        "line": [
          "2301 Blake Street STE 100"
        ],
        "city": "DENVER",
        "state": "CO",
        "postalCode": "80205-2101"
      },
      {
        "line": [
          "250 East Wisconsin Avenue 18th Floor"
        ],
        "city": "MILWAUKEE",
        "state": "WI",
        "postalCode": "53202-4232"
      },
      {
        "line": [
          "401 North Tryon Street",
          " 10th Floor"
        ],
        "city": "CHARLOTTE",
        "state": "NC",
        "postalCode": "28202-2101"
      },
      {
        "line": [
          "111 West Port Plaza",
          "6th Floor"
        ],
        "city": "SAINT LOUIS",
        "state": "MO",
        "postalCode": "63146-3011"
      },
      {
        "line": [
          "100 International Drive",
          "23rd Floor"
        ],
        "city": "BALTIMORE",
        "state": "MD",
        "postalCode": "21202-4737"
      },
      {
        "line": [
          "4685 MacArthur Ct, Suite 340"
        ],
        "city": "NEWPORT BEACH",
        "state": "CA",
        "postalCode": "92660-8810"
      },
      {
        "line": [
          "60 State Street",
          "Suite 700"
        ],
        "city": "BOSTON",
        "state": "MA",
        "postalCode": "02109-1894"
      },
      {
        "line": [
          "801 Brickell Ave Suite 900"
        ],
        "city": "MIAMI",
        "state": "FL",
        "postalCode": "33131-2979"
      },
      {
        "line": [
          "950 Bannock Street",
          "Suite 1100"
        ],
        "city": "BOISE",
        "state": "ID",
        "postalCode": "83702-6140"
      },
      {
        "line": [
          "3102 West End Avenue Suite 400"
        ],
        "city": "NASHVILLE",
        "state": "TN",
        "postalCode": "37203-1623"
      },
      {
        "line": [
          "1299 Farnam Street Suite 300"
        ],
        "city": "OMAHA",
        "state": "NE",
        "postalCode": "68102-1857"
      },
      {
        "line": [
          "20 S Third Street Suite 210"
        ],
        "city": "COLUMBUS",
        "state": "OH",
        "postalCode": "43215-4206"
      },
      {
        "line": [
          "3523 45th Street South",
          "Suite 100"
        ],
        "city": "FARGO",
        "state": "ND",
        "postalCode": "58104-8962"
      },
      {
        "line": [
          "5201 GREAT AMERICA PKWY STE 320"
        ],
        "city": "SANTA CLARA",
        "state": "CA",
        "postalCode": "95054-1140"
      },
      {
        "line": [
          "4801 Lang Avenue N.E.",
          "Suite 110"
        ],
        "city": "ALBUQUERQUE",
        "state": "NM",
        "postalCode": "87109-4475"
      },
      {
        "line": [
          "2300 West Sahara Avenue Suite 800"
        ],
        "city": "LAS VEGAS",
        "state": "NV",
        "postalCode": "89102-4397"
      },
      {
        "line": [
          "400 Renaissance Center Suite 2600"
        ],
        "city": "DETROIT",
        "state": "MI",
        "postalCode": "48243-1502"
      },
      {
        "line": [
          "699 Walnut Street",
          "4th Floor"
        ],
        "city": "DES MOINES",
        "state": "IA",
        "postalCode": "50309-3949"
      },
      {
        "line": [
          "111 W. Jackson Suite 1700"
        ],
        "city": "CHICAGO",
        "state": "IL",
        "postalCode": "60604-3597"
      },
      {
        "line": [
          "1000 N. West Street",
          "Suite 1200"
        ],
        "city": "WILMINGTON",
        "state": "DE",
        "postalCode": "19801-1058"
      },
      {
        "line": [
          "31-00 47TH AVENUE",
          "SUITE 3100"
        ],
        "city": "LONG ISLAND CITY",
        "state": "NY",
        "postalCode": "11101-3013"
      },
      {
        "line": [
          "232 Market Street"
        ],
        "city": "FLOWOOD",
        "state": "MS",
        "postalCode": "39232-3339"
      },
      {
        "line": [
          "12301 Wilshire Blvd, Suite 512"
        ],
        "city": "LOS ANGELES",
        "state": "CA",
        "postalCode": "90025-1021"
      },
      {
        "line": [
          "1 Lawson Lane",
          "Suite 340"
        ],
        "city": "BURLINGTON",
        "state": "VT",
        "postalCode": "05401-8445"
      },
      {
        "line": [
          "3501 MacCorkle Avenue SE"
        ],
        "city": "CHARLESTON",
        "state": "WV",
        "postalCode": "25304-1419"
      },
      {
        "line": [
          "2100 SOUTHBRIDGE PARKWAY SUITE 650"
        ],
        "city": "BIRMINGHAM",
        "state": "AL",
        "postalCode": "35209-1302"
      },
      {
        "line": [
          "780 Lynnhaven Parkway Suite 400"
        ],
        "city": "VIRGINIA BEACH",
        "state": "VA",
        "postalCode": "23452-7332"
      },
      {
        "line": [
          "1 Tara Boulevard",
          "Suite 200"
        ],
        "city": "NASHUA",
        "state": "NH",
        "postalCode": "03062-2809"
      },
      {
        "line": [
          "5 Mendenhall Street",
          "Suite 202"
        ],
        "city": "BOZEMAN",
        "state": "MT",
        "postalCode": "59715-3566"
      },
      {
        "line": [
          "170 Meeting Street",
          "1st Floor"
        ],
        "city": "CHARLESTON",
        "state": "SC",
        "postalCode": "29401-3177"
      },
      {
        "line": [
          "Card On File",
          "8235 Santa Monica Blvd STE 2020"
        ],
        "city": "LOS ANGELES",
        "state": "CA",
        "postalCode": "90046-5969"
      },
      {
        "line": [
          "500 Ala Moana Blvd",
          "Suite 400"
        ],
        "city": "HONOLULU",
        "state": "HI",
        "postalCode": "96813-4920"
      },
      {
        "line": [
          "721 Depot Drive"
        ],
        "city": "ANCHORAGE",
        "state": "AK",
        "postalCode": "99501-1615"
      },
      {
        "line": [
          "801 E. Douglas Avenue",
          "2nd Floor"
        ],
        "city": "WICHITA",
        "state": "KS",
        "postalCode": "67202-3515"
      },
      {
        "line": [
          "1000 Lafayette Blvd.",
          "Suite 1100"
        ],
        "city": "BRIDGEPORT",
        "state": "CT",
        "postalCode": "06604-4710"
      },
      {
        "line": [
          "136 East South Temple Suite 1400"
        ],
        "city": "SALT LAKE CITY",
        "state": "UT",
        "postalCode": "84111-1143"
      },
      {
        "line": [
          "1650 Market Street Suite 3600"
        ],
        "city": "PHILADELPHIA",
        "state": "PA",
        "postalCode": "19103-7334"
      }
    ],
    "extension": [
      {
        "url": "https://fhir.athena.io/StructureDefinition/ah-practice",
        "valueReference": {
          "reference": "Organization/a-1.Practice-9357"
        }
      },
      {
        "url": "https://fhir.athena.io/StructureDefinition/ah-brand",
        "valueReference": {
          "reference": "Organization/a-9357.Brand-1"
        }
      }
    ]
  },
  "fullUrl": "urn:uuid:92de6170-692c-567b-beaa-4b8acc81d6f4"
}