{
  "resource": {
    "resourceType": "Organization",
    "id": "ef587719-fb24-58fa-8bc4-c911898c3c3f",
    "name": "YMCA of Metropolitan Washington",
    "endpoint": [
      {
        "reference": "Endpoint/27a4e967-47aa-5a9c-a572-b8297ee268a2"
      },
      {
        "reference": "Endpoint/abb5f7d5-468e-5806-be46-fb2282afef02"
      }
    ],
    "identifier": [
      {
        "system": "http://hl7.org/fhir/sid/us-npi",
        "value": "1336698216"
      }
    ],
    "address": [
      {
        "line": [
          "950 New Hampshire Ave NW"
        ],
        "city": "WASHINGTON",
        "state": "DC",
        "postalCode": "20037-2301"
      },
      {
        "line": [
          "9800 Hastings Drive"
        ],
        "city": "SILVER SPRING",
        "state": "MD",
        "postalCode": "20901-3198"
      },
      {
        "line": [
          "26B Fairfax Street, SE"
        ],
        "city": "LEESBURG",
        "state": "VA",
        "postalCode": "20175-3621"
      },
      {
        "line": [
          "4003 Camp Letts Rd"
        ],
        "city": "EDGEWATER",
        "state": "MD",
        "postalCode": "21037-0208"
      },
      {
        "line": [
          "5650 Oakmont Ave"
        ],
        "city": "BETHESDA",
        "state": "MD",
        "postalCode": "20817-3569"
      },
      {
        "line": [
          "1112 16th St NW"
        ],
        "city": "WASHINGTON",
        "state": "DC",
        "postalCode": "20036-4824"
      },
      {
        "line": [
          "1325 W St NW"
        ],
        "city": "WASHINGTON",
        "state": "DC",
        "postalCode": "20009-4419"
      },
      {
        "line": [
          "3422 North 13th Street"
        ],
        "city": "ARLINGTON",
        "state": "VA",
        "postalCode": "22201-4997"
      },
      {
        "line": [
          "420 E Monroe Ave"
        ],
        "city": "ALEXANDRIA",
        "state": "VA",
        "postalCode": "22301-1694"
      },
      {
        "line": [
          "12196 Sunset Hills Rd"
        ],
        "city": "RESTON",
        "state": "VA",
        "postalCode": "20190-5840"
      },
      {
        "line": [
          "9100 Freedom Center Blvd"
        ],
        "city": "MANASSAS",
        "state": "VA",
        "postalCode": "20110-1023"
      },
      {
        "line": [
          "9401 Old Georgetown Rd"
        ],
        "city": "BETHESDA",
        "state": "MD",
        "postalCode": "20814-1799"
      },
      {
        "line": [
          "2118 Ridgecrest Court SE"
        ],
        "city": "WASHINGTON",
        "state": "DC",
        "postalCode": "20020-6206"
      }
    ],
    "extension": [
      {
        "url": "https://fhir.athena.io/StructureDefinition/ah-practice",
        "valueReference": {
          "reference": "Organization/a-1.Practice-14268"
        }
      },
      {
        "url": "https://fhir.athena.io/StructureDefinition/ah-brand",
        "valueReference": {
          "reference": "Organization/a-14268.Brand-1"
        }
      }
    ]
  },
  "fullUrl": "urn:uuid:ef587719-fb24-58fa-8bc4-c911898c3c3f"
}