{
  "resource": {
    "resourceType": "Organization",
    "id": "7ef7b924-1f0d-5128-82c3-2bd508fe2aa4",
    "name": "MEDICINE AT HOME",
    "endpoint": [
      {
        "reference": "Endpoint/27a4e967-47aa-5a9c-a572-b8297ee268a2"
      },
      {
        "reference": "Endpoint/46f0ac83-1ac5-5dd8-ad0a-1eb252f1d86e"
      }
    ],
    "identifier": [
      {
        "system": "http://hl7.org/fhir/sid/us-npi",
        "value": "1376914481"
      }
    ],
    "address": [
      {
        "line": [
          "12508 EASTBOURNE DR,"
        ],
        "city": "SILVER SPRING",
        "state": "MD",
        "postalCode": "20904-2039"
      },
      {
        "line": [
          "418 WINDING ROSE DR"
        ],
        "city": "ROCKVILLE",
        "state": "MD",
        "postalCode": "20850-2863"
      },
      {
        "line": [
          "12710 WILLOW MARSH LANE"
        ],
        "city": "BOWIE",
        "state": "MD",
        "postalCode": "20720-4655"
      },
      {
        "line": [
          "2701 MARTELLO DR"
        ],
        "city": "SILVER SPRING",
        "state": "MD",
        "postalCode": "20904-4534"
      },
      {
        "line": [
          "9200 DARNESTOWN ROAD"
        ],
        "city": "ROCKVILLE",
        "state": "MD",
        "postalCode": "20850-1763"
      },
      {
        "line": [
          "8100 CONNECTICUT AVE"
        ],
        "city": "CHEVY CHASE",
        "state": "MD",
        "postalCode": "20815-2802"
      },
      {
        "line": [
          "4101 BEL PRE ROAD"
        ],
        "city": "ROCKVILLE",
        "state": "MD",
        "postalCode": "20853-2002"
      },
      {
        "line": [
          "6904 RIVER RD"
        ],
        "city": "BETHESDA",
        "state": "MD",
        "postalCode": "20817-4744"
      },
      {
        "line": [
          "9301 MYRTLE AVE"
        ],
        "city": "BOWIE",
        "state": "MD",
        "postalCode": "20720-3227"
      },
      {
        "line": [
          "19310 CLUB HOUSE RD"
        ],
        "city": "MONTGOMERY VILLAGE",
        "state": "MD",
        "postalCode": "20886-3029"
      },
      {
        "line": [
          "1799 E JEFFERSON ST"
        ],
        "city": "ROCKVILLE",
        "state": "MD",
        "postalCode": "20852-4069"
      },
      {
        "line": [
          "13817 Vintage Lane Silver Spring, MD 20906",
          "13817 Vintage Lane"
        ],
        "city": "SILVER SPRING",
        "state": "MD",
        "postalCode": "20906-2241"
      }
    ],
    "extension": [
      {
        "url": "https://fhir.athena.io/StructureDefinition/ah-practice",
        "valueReference": {
          "reference": "Organization/a-1.Practice-24273"
        }
      },
      {
        "url": "https://fhir.athena.io/StructureDefinition/ah-brand",
        "valueReference": {
          "reference": "Organization/a-24273.Brand-1"
        }
      }
    ]
  },
  "fullUrl": "urn:uuid:7ef7b924-1f0d-5128-82c3-2bd508fe2aa4"
}