{
  "resource": {
    "resourceType": "Organization",
    "id": "fcdeb848-70cf-5a35-86ad-7e9793c0da35",
    "name": "Integrated Pain and Neuroscience",
    "endpoint": [
      {
        "reference": "Endpoint/27a4e967-47aa-5a9c-a572-b8297ee268a2"
      },
      {
        "reference": "Endpoint/7099768b-62f3-5a70-b35a-78cf39d61206"
      }
    ],
    "identifier": [
      {
        "system": "http://hl7.org/fhir/sid/us-npi",
        "value": "1427397793"
      }
    ],
    "address": [
      {
        "line": [
          "3717 Houma Blvd",
          "Suite 200"
        ],
        "city": "METAIRIE",
        "state": "LA",
        "postalCode": "70006-4115"
      },
      {
        "line": [
          "2965 Gause Blvd",
          "Suite 200"
        ],
        "city": "SLIDELL",
        "state": "LA",
        "postalCode": "70461-4154"
      },
      {
        "line": [
          "720 Veterans Blvd",
          "Suite 100"
        ],
        "city": "METAIRIE",
        "state": "LA",
        "postalCode": "70005-2840"
      },
      {
        "line": [
          "3525 Prytania Street",
          "Suite 102"
        ],
        "city": "New Orleans",
        "state": "LA",
        "postalCode": "70115-3543"
      },
      {
        "line": [
          "1849 Barataria Blvd",
          "Suite C"
        ],
        "city": "MARRERO",
        "state": "LA",
        "postalCode": "70072-4273"
      },
      {
        "line": [
          "8000 West Judge Perez Drive"
        ],
        "city": "CHALMETTE",
        "state": "LA",
        "postalCode": "70043-1668"
      },
      {
        "line": [
          "3717 Houma Blvd",
          "3rd Floor"
        ],
        "city": "METAIRIE",
        "state": "LA",
        "postalCode": "70006-4115"
      },
      {
        "line": [
          "1972 Ormond Blvd",
          "Suite A"
        ],
        "city": "DESTREHAN",
        "state": "LA",
        "postalCode": "70047-3812"
      },
      {
        "line": [
          "2801 NAPOLEON AVE",
          "2ND FLOOR"
        ],
        "city": "NEW ORLEANS",
        "state": "LA",
        "postalCode": "70115-6915"
      },
      {
        "line": [
          "8050 West Judge Perez",
          "Suite 2900"
        ],
        "city": "CHALMETTE",
        "state": "LA",
        "postalCode": "70043-1668"
      },
      {
        "line": [
          "3704 Lapalco Blvd"
        ],
        "city": "HARVEY",
        "state": "LA",
        "postalCode": "70058-2319"
      }
    ],
    "extension": [
      {
        "url": "https://fhir.athena.io/StructureDefinition/ah-practice",
        "valueReference": {
          "reference": "Organization/a-1.Practice-6546"
        }
      },
      {
        "url": "https://fhir.athena.io/StructureDefinition/ah-brand",
        "valueReference": {
          "reference": "Organization/a-6546.Brand-1"
        }
      }
    ]
  },
  "fullUrl": "urn:uuid:fcdeb848-70cf-5a35-86ad-7e9793c0da35"
}