{
  "resource": {
    "resourceType": "Organization",
    "id": "f999601f-eba3-5388-a593-453c9c2caaa9",
    "name": "ADVANCED NEPHROLOGY ASSOC., PC",
    "endpoint": [
      {
        "reference": "Endpoint/27a4e967-47aa-5a9c-a572-b8297ee268a2"
      },
      {
        "reference": "Endpoint/405ee166-1abd-5dee-8e4a-7cc8e5d2455f"
      }
    ],
    "identifier": [
      {
        "system": "http://hl7.org/fhir/sid/us-npi",
        "value": "1396747507"
      }
    ],
    "address": [
      {
        "line": [
          "158 ELMWOOD DR"
        ],
        "city": "PUNXSUTAWNEY",
        "state": "PA",
        "postalCode": "15767-2608"
      },
      {
        "line": [
          "ALLEGHENY PROFESSIONAL BUILDING",
          "490 E. NORTH AVE., SUITE 400"
        ],
        "city": "PITTSBURGH",
        "state": "PA",
        "postalCode": "15212-4740"
      },
      {
        "line": [
          "1004 Arch Street"
        ],
        "city": "PITTSBURGH",
        "state": "PA",
        "postalCode": "15212-5235"
      },
      {
        "line": [
          "425 West Fifth Street"
        ],
        "city": "EAST LIVERPOOL",
        "state": "OH",
        "postalCode": "43920-2498"
      },
      {
        "line": [
          "737 BROOKSHIRE DRIVE"
        ],
        "city": "HERMITAGE",
        "state": "PA",
        "postalCode": "16148-4507"
      },
      {
        "line": [
          "6500 BROOKTREE RD STE 100"
        ],
        "city": "WEXFORD",
        "state": "PA",
        "postalCode": "15090-9272"
      },
      {
        "line": [
          "9100 Babcock Blvd"
        ],
        "city": "PITTSBURGH",
        "state": "PA",
        "postalCode": "15237-5815"
      },
      {
        "line": [
          "325 WEST SIXTH STREET"
        ],
        "city": "EAST LIVERPOOL",
        "state": "OH",
        "postalCode": "43920-2803"
      },
      {
        "line": [
          "824 CALIFORNIA AVENUE"
        ],
        "city": "PITTSBURGH",
        "state": "PA",
        "postalCode": "15202-2706"
      },
      {
        "line": [
          "110 North Main Street"
        ],
        "city": "GREENVILLE",
        "state": "PA",
        "postalCode": "16125-1726"
      },
      {
        "line": [
          "2562 CONSTITUTION BLVD"
        ],
        "city": "BEAVER FALLS",
        "state": "PA",
        "postalCode": "15010-1249"
      },
      {
        "line": [
          "2200 Memorial Drive"
        ],
        "city": "FARRELL",
        "state": "PA",
        "postalCode": "16121-1357"
      },
      {
        "line": [
          "65 DOLBY ST"
        ],
        "city": "CLARION",
        "state": "PA",
        "postalCode": "16214-8573"
      },
      {
        "line": [
          "500 Whitenberg Way"
        ],
        "city": "MARS",
        "state": "PA",
        "postalCode": "16046-2429"
      },
      {
        "line": [
          "631 N. BROAD STREET EXT."
        ],
        "city": "GROVE CITY",
        "state": "PA",
        "postalCode": "16127-4603"
      }
    ],
    "extension": [
      {
        "url": "https://fhir.athena.io/StructureDefinition/ah-practice",
        "valueReference": {
          "reference": "Organization/a-1.Practice-6481"
        }
      },
      {
        "url": "https://fhir.athena.io/StructureDefinition/ah-brand",
        "valueReference": {
          "reference": "Organization/a-6481.Brand-1"
        }
      }
    ]
  },
  "fullUrl": "urn:uuid:f999601f-eba3-5388-a593-453c9c2caaa9"
}