{
  "resource": {
    "resourceType": "Organization",
    "id": "722fff08-2d89-5592-852e-18716116c7bc",
    "name": "Bluffton Okatie Primary Care",
    "endpoint": [
      {
        "reference": "Endpoint/27a4e967-47aa-5a9c-a572-b8297ee268a2"
      },
      {
        "reference": "Endpoint/6c0d64e4-3882-549c-adef-4b965c8dac75"
      }
    ],
    "identifier": [
      {
        "system": "http://hl7.org/fhir/sid/us-npi",
        "value": "1871016683"
      }
    ],
    "address": [
      {
        "line": [
          "2000 Hospital Dr"
        ],
        "city": "MOUNT PLEASANT",
        "state": "SC",
        "postalCode": "29464-3764"
      },
      {
        "line": [
          "3500 N Highway 17"
        ],
        "city": "MOUNT PLEASANT",
        "state": "SC",
        "postalCode": "29466-9123"
      },
      {
        "line": [
          "1010 Anna Knapp Blvd"
        ],
        "city": "MOUNT PLEASANT",
        "state": "SC",
        "postalCode": "29464-5400"
      },
      {
        "line": [
          "2095 Henry Tecklenburg DR"
        ],
        "city": "CHARLESTON",
        "state": "SC",
        "postalCode": "29414-5733"
      },
      {
        "line": [
          "1047 Anna Knapp Blvd"
        ],
        "city": "MOUNT PLEASANT",
        "state": "SC",
        "postalCode": "29464-3146"
      },
      {
        "line": [
          "1885 Rifle Range Rd"
        ],
        "city": "MOUNT PLEASANT",
        "state": "SC",
        "postalCode": "29464-9440"
      },
      {
        "line": [
          "501 Wando Park Blvd"
        ],
        "city": "MOUNT PLEASANT",
        "state": "SC",
        "postalCode": "29464-7853"
      },
      {
        "line": [
          "2690 Lake Park Dr"
        ],
        "city": "CHARLESTON",
        "state": "SC",
        "postalCode": "29406-9100"
      },
      {
        "line": [
          "1439 Stuart Engals BLVD",
          "Ste 100"
        ],
        "city": "MOUNT PLEASANT",
        "state": "SC",
        "postalCode": "29464-3305"
      }
    ],
    "extension": [
      {
        "url": "https://fhir.athena.io/StructureDefinition/ah-practice",
        "valueReference": {
          "reference": "Organization/a-1.Practice-14929"
        }
      },
      {
        "url": "https://fhir.athena.io/StructureDefinition/ah-brand",
        "valueReference": {
          "reference": "Organization/a-14929.Brand-3"
        }
      }
    ]
  },
  "fullUrl": "urn:uuid:722fff08-2d89-5592-852e-18716116c7bc"
}