{
  "resource": {
    "resourceType": "Organization",
    "id": "653c59f3-18d0-587f-9b96-6f51a461ee55",
    "name": "Florida Kidney Care",
    "endpoint": [
      {
        "reference": "Endpoint/27a4e967-47aa-5a9c-a572-b8297ee268a2"
      },
      {
        "reference": "Endpoint/49fdd91d-a45b-586d-9697-dfdde318481c"
      }
    ],
    "identifier": [
      {
        "system": "http://hl7.org/fhir/sid/us-npi",
        "value": "1922455989"
      }
    ],
    "address": [
      {
        "line": [
          "2150 45TH ST UNIT 102"
        ],
        "city": "VERO BEACH",
        "state": "FL",
        "postalCode": "32967-6281"
      },
      {
        "line": [
          "1600 37th ST"
        ],
        "city": "VERO BEACH",
        "state": "FL",
        "postalCode": "32960-4863"
      },
      {
        "line": [
          "1000 36TH ST"
        ],
        "city": "VERO BEACH",
        "state": "FL",
        "postalCode": "32960-4862"
      },
      {
        "line": [
          "14355 US Highway 1"
        ],
        "city": "SEBASTIAN",
        "state": "FL",
        "postalCode": "32958-3256"
      },
      {
        "line": [
          "920 37th Pl STE 105"
        ],
        "city": "VERO BEACH",
        "state": "FL",
        "postalCode": "32960-6595"
      },
      {
        "line": [
          "1515 INDIAN RIVER BLVD STE A101"
        ],
        "city": "VERO BEACH",
        "state": "FL",
        "postalCode": "32960-5667"
      },
      {
        "line": [
          "100 S US Highway 1"
        ],
        "city": "VERO BEACH",
        "state": "FL",
        "postalCode": "32962-3630"
      },
      {
        "line": [
          "5947 20th Street"
        ],
        "city": "VERO BEACH",
        "state": "FL",
        "postalCode": "32966-4676"
      },
      {
        "line": [
          "1424 US HIGHWAY 1 STE C"
        ],
        "city": "SEBASTIAN",
        "state": "FL",
        "postalCode": "32958-1619"
      },
      {
        "line": [
          "13695 US HWY 1"
        ],
        "city": "SEBASTIAN",
        "state": "FL",
        "postalCode": "32958-3230"
      },
      {
        "line": [
          "13695 US HIGHWAY 1"
        ],
        "city": "SEBASTIAN",
        "state": "FL",
        "postalCode": "32958-3230"
      }
    ],
    "extension": [
      {
        "url": "https://fhir.athena.io/StructureDefinition/ah-practice",
        "valueReference": {
          "reference": "Organization/a-1.Practice-14360"
        }
      },
      {
        "url": "https://fhir.athena.io/StructureDefinition/ah-brand",
        "valueReference": {
          "reference": "Organization/a-14360.Brand-7"
        }
      }
    ]
  },
  "fullUrl": "urn:uuid:653c59f3-18d0-587f-9b96-6f51a461ee55"
}