{
  "resource": {
    "resourceType": "Organization",
    "id": "e778c71d-fff6-5e2e-93a5-8e0f3a0c9208",
    "name": "BigFoot Podiatry",
    "endpoint": [
      {
        "reference": "Endpoint/27a4e967-47aa-5a9c-a572-b8297ee268a2"
      },
      {
        "reference": "Endpoint/3b66adf0-78e8-5aa2-9ce6-e18a2c69f178"
      }
    ],
    "identifier": [
      {
        "system": "http://hl7.org/fhir/sid/us-npi",
        "value": "1407426497"
      }
    ],
    "address": [
      {
        "line": [
          "285 MADISON AVE S"
        ],
        "city": "BAINBRIDGE ISLAND",
        "state": "WA",
        "postalCode": "98110-2576"
      },
      {
        "line": [
          "35419 1St Ave S"
        ],
        "city": "FEDERAL WAY",
        "state": "WA",
        "postalCode": "98003-7028"
      },
      {
        "line": [
          "1301 ORTING KAPOWSIN HWY E"
        ],
        "city": "ORTING",
        "state": "WA",
        "postalCode": "98360-9550"
      },
      {
        "line": [
          "1462 Cascade Hwy",
          "State Route 20"
        ],
        "city": "SEDRO WOOLLEY",
        "state": "WA",
        "postalCode": "98284-4322"
      },
      {
        "line": [
          "1250 NE Lincoln Road"
        ],
        "city": "POULSBO",
        "state": "WA",
        "postalCode": "98370-8558"
      },
      {
        "line": [
          "35419 1ST AVE S"
        ],
        "city": "FEDERAL WAY",
        "state": "WA",
        "postalCode": "98003-7026"
      },
      {
        "line": [
          "8313 S SHERIDAN AVE"
        ],
        "city": "TACOMA",
        "state": "WA",
        "postalCode": "98408-1919"
      },
      {
        "line": [
          "626 Lilly Road NE"
        ],
        "city": "OLYMPIA",
        "state": "WA",
        "postalCode": "98506-5104"
      },
      {
        "line": [
          "1509 HARRISON AVE"
        ],
        "city": "CENTRALIA",
        "state": "WA",
        "postalCode": "98531-4568"
      },
      {
        "line": [
          "9927 MICKELBERRY RD. NW SUITE 101"
        ],
        "city": "SILVERDALE",
        "state": "WA",
        "postalCode": "98383-7849"
      },
      {
        "line": [
          "35502 18TH AVE SW"
        ],
        "city": "FEDERAL WAY",
        "state": "WA",
        "postalCode": "98023-6910"
      },
      {
        "line": [
          "3500 9TH ST"
        ],
        "city": "BREMERTON",
        "state": "WA",
        "postalCode": "98312-3563"
      },
      {
        "line": [
          "4720 STIKES DR SE"
        ],
        "city": "LACEY",
        "state": "WA",
        "postalCode": "98503-5974"
      },
      {
        "line": [
          "10901 176TH CIR NE"
        ],
        "city": "REDMOND",
        "state": "WA",
        "postalCode": "98052-7218"
      },
      {
        "line": [
          "10861 Manitou Park Bvld NE"
        ],
        "city": "BAINBRIDGE ISLAND",
        "state": "WA",
        "postalCode": "98110-1376"
      },
      {
        "line": [
          "825 Lilly Rd NE"
        ],
        "city": "OLYMPIA",
        "state": "WA",
        "postalCode": "98506-6936"
      },
      {
        "line": [
          "3701 188th St SW"
        ],
        "city": "LYNNWOOD",
        "state": "WA",
        "postalCode": "98037-7626"
      },
      {
        "line": [
          "1141 BEACH DR E"
        ],
        "city": "PORT ORCHARD",
        "state": "WA",
        "postalCode": "98366-4937"
      },
      {
        "line": [
          "2400 Samish Way"
        ],
        "city": "BELLINGHAM",
        "state": "WA",
        "postalCode": "98229-3346"
      },
      {
        "line": [
          "7083 Wagner Way"
        ],
        "city": "GIG HARBOR",
        "state": "WA",
        "postalCode": "98335-6917"
      },
      {
        "line": [
          "23845 SE ISSAQUAH FALL CITY RD"
        ],
        "city": "ISSAQUAH",
        "state": "WA",
        "postalCode": "98029-7514"
      },
      {
        "line": [
          "7212 265TH ST NW"
        ],
        "city": "STANWOOD",
        "state": "WA",
        "postalCode": "98292-6238"
      },
      {
        "line": [
          "11353 CLEAR CREEK RD NW"
        ],
        "city": "SILVERDALE",
        "state": "WA",
        "postalCode": "98383-3028"
      },
      {
        "line": [
          "616 LILLY RD NE"
        ],
        "city": "OLYMPIA",
        "state": "WA",
        "postalCode": "98506-6926"
      },
      {
        "line": [
          "4686 POINTES DR"
        ],
        "city": "MUKILTEO",
        "state": "WA",
        "postalCode": "98275-6038"
      },
      {
        "line": [
          "155 Lippert Drive W"
        ],
        "city": "PORT ORCHARD",
        "state": "WA",
        "postalCode": "98366-2090"
      },
      {
        "line": [
          "2726 Alderwood Ave"
        ],
        "city": "BELLINGHAM",
        "state": "WA",
        "postalCode": "98225-1223"
      },
      {
        "line": [
          "916 Pacific Avenue"
        ],
        "city": "EVERETT",
        "state": "WA",
        "postalCode": "98201-4147"
      },
      {
        "line": [
          "560 LEBO BLVD"
        ],
        "city": "BREMERTON",
        "state": "WA",
        "postalCode": "98310-2617"
      },
      {
        "line": [
          "2225 CRAIG RD SE"
        ],
        "city": "OLYMPIA",
        "state": "WA",
        "postalCode": "98501-2882"
      },
      {
        "line": [
          "828 MCPHEE RD SW"
        ],
        "city": "OLYMPIA",
        "state": "WA",
        "postalCode": "98502-8134"
      },
      {
        "line": [
          "32290 1ST AVE S"
        ],
        "city": "FEDERAL WAY",
        "state": "WA",
        "postalCode": "98003-5722"
      },
      {
        "line": [
          "300 S KITSAP BLVD"
        ],
        "city": "PORT ORCHARD",
        "state": "WA",
        "postalCode": "98366-3778"
      },
      {
        "line": [
          "1530 James St"
        ],
        "city": "BELLINGHAM",
        "state": "WA",
        "postalCode": "98225-4945"
      },
      {
        "line": [
          "4680 Cordata Pkwy"
        ],
        "city": "BELLINGHAM",
        "state": "WA",
        "postalCode": "98226-8038"
      },
      {
        "line": [
          "3309 45TH STREET CT"
        ],
        "city": "GIG HARBOR",
        "state": "WA",
        "postalCode": "98335-8222"
      },
      {
        "line": [
          "855 Aaron Drive"
        ],
        "city": "LYNDEN",
        "state": "WA",
        "postalCode": "98264-9396"
      },
      {
        "line": [
          "456 C ST"
        ],
        "city": "BLAINE",
        "state": "WA",
        "postalCode": "98230-4238"
      },
      {
        "line": [
          "186 Wyatt Way NW"
        ],
        "city": "BAINBRIDGE ISLAND",
        "state": "WA",
        "postalCode": "98110-1761"
      },
      {
        "line": [
          "7454 Newcastle Golf Club Rd"
        ],
        "city": "LACEY",
        "state": "WA",
        "postalCode": "98509-9176"
      },
      {
        "line": [
          "4700 ILLAHEE RD NE"
        ],
        "city": "BREMERTON",
        "state": "WA",
        "postalCode": "98311-8312"
      },
      {
        "line": [
          "3214 45th Street Ct"
        ],
        "city": "GIG HARBOR",
        "state": "WA",
        "postalCode": "98335-8518"
      },
      {
        "line": [
          "11313 CLEAR CREEK RD NW"
        ],
        "city": "SILVERDALE",
        "state": "WA",
        "postalCode": "98383-9659"
      },
      {
        "line": [
          "9927 MICKELBERRY RD NW STE 101"
        ],
        "city": "SILVERDALE",
        "state": "WA",
        "postalCode": "98383-7861"
      },
      {
        "line": [
          "450 WOOD AVE SW"
        ],
        "city": "BAINBRIDGE ISLAND",
        "state": "WA",
        "postalCode": "98110-2598"
      },
      {
        "line": [
          "478 NW QUINCY PL"
        ],
        "city": "CHEHALIS",
        "state": "WA",
        "postalCode": "98532-1628"
      },
      {
        "line": [
          "3510 9TH ST"
        ],
        "city": "BREMERTON",
        "state": "WA",
        "postalCode": "98312-3544"
      },
      {
        "line": [
          "835 MADISON AVE N"
        ],
        "city": "BAINBRIDGE ISLAND",
        "state": "WA",
        "postalCode": "98110-1700"
      },
      {
        "line": [
          "1627 12TH AVE SW"
        ],
        "city": "OLYMPIA",
        "state": "WA",
        "postalCode": "98502-1125"
      },
      {
        "line": [
          "8800 MADISON AVE N"
        ],
        "city": "BAINBRIDGE ISLAND",
        "state": "WA",
        "postalCode": "98110-2295"
      }
    ],
    "extension": [
      {
        "url": "https://fhir.athena.io/StructureDefinition/ah-practice",
        "valueReference": {
          "reference": "Organization/a-1.Practice-25902"
        }
      },
      {
        "url": "https://fhir.athena.io/StructureDefinition/ah-brand",
        "valueReference": {
          "reference": "Organization/a-25902.Brand-1"
        }
      }
    ]
  },
  "fullUrl": "urn:uuid:e778c71d-fff6-5e2e-93a5-8e0f3a0c9208"
}