{
  "resource": {
    "resourceType": "Organization",
    "id": "62e48fcf-1f38-5b31-aeff-57bd054eafc2",
    "name": "ADAMS PLACE ASSISTED LIVING FACILITY",
    "endpoint": [
      {
        "reference": "Endpoint/27a4e967-47aa-5a9c-a572-b8297ee268a2"
      },
      {
        "reference": "Endpoint/7b598021-b06f-551c-b2eb-39fcf9ae53ba"
      }
    ],
    "identifier": [
      {
        "system": "http://hl7.org/fhir/sid/us-npi",
        "value": "1659921278"
      }
    ],
    "address": [
      {
        "line": [
          "1380 E SHERMAN BLVD"
        ],
        "city": "MUSKEGON",
        "state": "MI",
        "postalCode": "49444-1814"
      },
      {
        "line": [
          "33875 KIELY DR"
        ],
        "city": "CHESTERFIELD",
        "state": "MI",
        "postalCode": "48047-3604"
      },
      {
        "line": [
          "26900 FRANKLIN RD"
        ],
        "city": "SOUTHFIELD",
        "state": "MI",
        "postalCode": "48033-5312"
      },
      {
        "line": [
          "2500 BRETON WOODS DR SE"
        ],
        "city": "GRAND RAPIDS",
        "state": "MI",
        "postalCode": "49512-9122"
      },
      {
        "line": [
          "39312 WOODWARD AVE"
        ],
        "city": "BLOOMFIELD HILLS",
        "state": "MI",
        "postalCode": "48304-5007"
      },
      {
        "line": [
          "7533 GRAND RIVER RD"
        ],
        "city": "BRIGHTON",
        "state": "MI",
        "postalCode": "48114-7382"
      },
      {
        "line": [
          "46100 SCHOENHERR RD"
        ],
        "city": "UTICA",
        "state": "MI",
        "postalCode": "48315-5344"
      },
      {
        "line": [
          "19933 W 13 MILE RD"
        ],
        "city": "SOUTHFIELD",
        "state": "MI",
        "postalCode": "48076-1024"
      },
      {
        "line": [
          "5341 MCAULEY DR"
        ],
        "city": "YPSILANTI",
        "state": "MI",
        "postalCode": "48197-9808"
      },
      {
        "line": [
          "3600 FULTON ST E"
        ],
        "city": "GRAND RAPIDS",
        "state": "MI",
        "postalCode": "49546-1322"
      },
      {
        "line": [
          "1029 EAST PARIS AVE SE"
        ],
        "city": "GRAND RAPIDS",
        "state": "MI",
        "postalCode": "49546-3603"
      },
      {
        "line": [
          "26001 JEFFERSON AVE"
        ],
        "city": "SAINT CLAIR SHORES",
        "state": "MI",
        "postalCode": "48081-2309"
      },
      {
        "line": [
          "3030 GREENFIELD RD"
        ],
        "city": "ROYAL OAK",
        "state": "MI",
        "postalCode": "48073-6528"
      },
      {
        "line": [
          "1740 VILLAGE DR"
        ],
        "city": "MUSKEGON",
        "state": "MI",
        "postalCode": "49442-4282"
      },
      {
        "line": [
          "8365 N NEWBURGH RD"
        ],
        "city": "WESTLAND",
        "state": "MI",
        "postalCode": "48185-1149"
      },
      {
        "line": [
          "2121 RAYBROOK ST SE"
        ],
        "city": "GRAND RAPIDS",
        "state": "MI",
        "postalCode": "49546-5793"
      },
      {
        "line": [
          "28910 PLYMOUTH RD"
        ],
        "city": "LIVONIA",
        "state": "MI",
        "postalCode": "48150-2337"
      },
      {
        "line": [
          "1000 EDISON AVE NW"
        ],
        "city": "GRAND RAPIDS",
        "state": "MI",
        "postalCode": "49504-3918"
      }
    ],
    "extension": [
      {
        "url": "https://fhir.athena.io/StructureDefinition/ah-practice",
        "valueReference": {
          "reference": "Organization/a-1.Practice-19831"
        }
      },
      {
        "url": "https://fhir.athena.io/StructureDefinition/ah-brand",
        "valueReference": {
          "reference": "Organization/a-19831.Brand-1"
        }
      }
    ]
  },
  "fullUrl": "urn:uuid:62e48fcf-1f38-5b31-aeff-57bd054eafc2"
}