{
  "resource": {
    "resourceType": "Organization",
    "id": "2acee16f-24ee-575b-bc71-16d463753e74",
    "name": "Abrazo Medical Group Physician Services",
    "endpoint": [
      {
        "reference": "Endpoint/27a4e967-47aa-5a9c-a572-b8297ee268a2"
      },
      {
        "reference": "Endpoint/d9fed52e-8757-503b-9ca7-e1fdfd9beaef"
      }
    ],
    "identifier": [
      {
        "system": "http://hl7.org/fhir/sid/us-npi",
        "value": "1912979964"
      }
    ],
    "address": [
      {
        "line": [
          "4620 E. BASELINE ROAD"
        ],
        "city": "MESA",
        "state": "AZ",
        "postalCode": "85206-4624"
      },
      {
        "line": [
          "750 N. 40th St"
        ],
        "city": "PHOENIX",
        "state": "AZ",
        "postalCode": "85008-6486"
      },
      {
        "line": [
          "350 N Wilmot Rd"
        ],
        "city": "TUCSON",
        "state": "AZ",
        "postalCode": "85711-2678"
      },
      {
        "line": [
          "1850 North 95th Avenue",
          "STE 190"
        ],
        "city": "PHOENIX",
        "state": "AZ",
        "postalCode": "85037-4322"
      },
      {
        "line": [
          "520 Rose Lane"
        ],
        "city": "WICKENBURG",
        "state": "AZ",
        "postalCode": "85390-1447"
      },
      {
        "line": [
          "18555 N 79th Ave Bldg C"
        ],
        "city": "GLENDALE",
        "state": "AZ",
        "postalCode": "85308-8370"
      },
      {
        "line": [
          "33400 N. 32nd AVE"
        ],
        "city": "PHOENIX",
        "state": "AZ",
        "postalCode": "85085-8876"
      },
      {
        "line": [
          "3555 S Val Vista Dr"
        ],
        "city": "GILBERT",
        "state": "AZ",
        "postalCode": "85297-7323"
      },
      {
        "line": [
          "7400 E. Osborn Rd"
        ],
        "city": "SCOTTSDALE",
        "state": "AZ",
        "postalCode": "85251-6432"
      },
      {
        "line": [
          "807 S Ponderosa St"
        ],
        "city": "PAYSON",
        "state": "AZ",
        "postalCode": "85541-5542"
      },
      {
        "line": [
          "19829 N 27th Ave"
        ],
        "city": "PHOENIX",
        "state": "AZ",
        "postalCode": "85027-4001"
      },
      {
        "line": [
          "1400 S Dobson Rd"
        ],
        "city": "MESA",
        "state": "AZ",
        "postalCode": "85202-4707"
      },
      {
        "line": [
          "2222 E Highland Ave",
          "Suite 100"
        ],
        "city": "PHOENIX",
        "state": "AZ",
        "postalCode": "85016-4874"
      },
      {
        "line": [
          "750 North 40th Street"
        ],
        "city": "PHOENIX",
        "state": "AZ",
        "postalCode": "85008-6486"
      },
      {
        "line": [
          "7400 E Thompson Peak Pkwy"
        ],
        "city": "SCOTTSDALE",
        "state": "AZ",
        "postalCode": "85255-4109"
      },
      {
        "line": [
          "9003 E Shea Blvd"
        ],
        "city": "SCOTTSDALE",
        "state": "AZ",
        "postalCode": "85260-6709"
      },
      {
        "line": [
          "10030 N. 25th Ave",
          "Suite 100"
        ],
        "city": "PHOENIX",
        "state": "AZ",
        "postalCode": "85021-4204"
      },
      {
        "line": [
          "10815 W McDowell Rd",
          "Suite 101"
        ],
        "city": "AVONDALE",
        "state": "AZ",
        "postalCode": "85392-5009"
      },
      {
        "line": [
          "1955 W Frye Road"
        ],
        "city": "CHANDLER",
        "state": "AZ",
        "postalCode": "85224-6282"
      },
      {
        "line": [
          "6790 W Thunderbird Rd"
        ],
        "city": "PEORIA",
        "state": "AZ",
        "postalCode": "85381-5023"
      },
      {
        "line": [
          "1601 W St Marys Rd"
        ],
        "city": "TUCSON",
        "state": "AZ",
        "postalCode": "85745-2682"
      },
      {
        "line": [
          "4524 N MARYVALE PKWY, SUITE 220"
        ],
        "city": "PHOENIX",
        "state": "AZ",
        "postalCode": "85031-1732"
      },
      {
        "line": [
          "101 Civic Center Lane"
        ],
        "city": "LAKE HAVASU CITY",
        "state": "AZ",
        "postalCode": "86403-5607"
      },
      {
        "line": [
          "19820 N. 7th St",
          "Ste 190"
        ],
        "city": "PHOENIX",
        "state": "AZ",
        "postalCode": "85024-1693"
      },
      {
        "line": [
          "1800 E Florence Blvd"
        ],
        "city": "CASA GRANDE",
        "state": "AZ",
        "postalCode": "85122-5303"
      },
      {
        "line": [
          "2122 E Highland Ave Ste 100"
        ],
        "city": "PHOENIX",
        "state": "AZ",
        "postalCode": "85016-4740"
      },
      {
        "line": [
          "1930 E THOMAS RD"
        ],
        "city": "PHOENIX",
        "state": "AZ",
        "postalCode": "85016-7711"
      },
      {
        "line": [
          "1111 E McDowell Rd"
        ],
        "city": "PHOENIX",
        "state": "AZ",
        "postalCode": "85006-2612"
      },
      {
        "line": [
          "7231 E Princess Blvd #100"
        ],
        "city": "SCOTTSDALE",
        "state": "AZ",
        "postalCode": "85255-9671"
      },
      {
        "line": [
          "1900 N. Higley RD"
        ],
        "city": "GILBERT",
        "state": "AZ",
        "postalCode": "85234-1604"
      },
      {
        "line": [
          "8962 E. Desert Cove Ave"
        ],
        "city": "SCOTTSDALE",
        "state": "AZ",
        "postalCode": "85260-6984"
      },
      {
        "line": [
          "9700 N 91st Street # C100"
        ],
        "city": "SCOTTSDALE",
        "state": "AZ",
        "postalCode": "85258-5054"
      },
      {
        "line": [
          "7330 North 99th Avenue"
        ],
        "city": "GLENDALE",
        "state": "AZ",
        "postalCode": "85307-3015"
      },
      {
        "line": [
          "1910 E THOMAS RD",
          "Suite 101"
        ],
        "city": "PHOENIX",
        "state": "AZ",
        "postalCode": "85016-7766"
      },
      {
        "line": [
          "140 North Litchfield Road",
          "Suite 110"
        ],
        "city": "GOODYEAR",
        "state": "AZ",
        "postalCode": "85338-1226"
      },
      {
        "line": [
          "3135 E. Lincoln Dr."
        ],
        "city": "PHOENIX",
        "state": "AZ",
        "postalCode": "85016-2301"
      },
      {
        "line": [
          "2000 W Bethany Home Rd",
          "Suite 200"
        ],
        "city": "PHOENIX",
        "state": "AZ",
        "postalCode": "85015-2443"
      },
      {
        "line": [
          "9700 North 91st Street",
          "Suite # C100"
        ],
        "city": "SCOTTSDALE",
        "state": "AZ",
        "postalCode": "85258-5054"
      },
      {
        "line": [
          "3811 E Bell Rd",
          "Suite 300"
        ],
        "city": "PHOENIX",
        "state": "AZ",
        "postalCode": "85032-2160"
      }
    ],
    "extension": [
      {
        "url": "https://fhir.athena.io/StructureDefinition/ah-practice",
        "valueReference": {
          "reference": "Organization/a-1.Practice-600"
        }
      },
      {
        "url": "https://fhir.athena.io/StructureDefinition/ah-brand",
        "valueReference": {
          "reference": "Organization/a-600.Brand-1"
        }
      }
    ]
  },
  "fullUrl": "urn:uuid:2acee16f-24ee-575b-bc71-16d463753e74"
}