{
  "resource": {
    "resourceType": "Organization",
    "id": "46b8a426-5866-53a5-8b29-9cf8d3e52b18",
    "name": "Central Connecticut Coast YMCA",
    "endpoint": [
      {
        "reference": "Endpoint/27a4e967-47aa-5a9c-a572-b8297ee268a2"
      },
      {
        "reference": "Endpoint/abb5f7d5-468e-5806-be46-fb2282afef02"
      }
    ],
    "identifier": [
      {
        "system": "http://hl7.org/fhir/sid/us-npi",
        "value": "1265977524"
      }
    ],
    "address": [
      {
        "line": [
          "20 Trefoil Dr."
        ],
        "city": "TRUMBULL",
        "state": "CT",
        "postalCode": "06611-1330"
      },
      {
        "line": [
          "30 Ormond"
        ],
        "city": "MILFORD",
        "state": "CT",
        "postalCode": "06461-3913"
      },
      {
        "line": [
          "628 East Main Street"
        ],
        "city": "BRANFORD",
        "state": "CT",
        "postalCode": "06405-2907"
      },
      {
        "line": [
          "1240 Chapel St"
        ],
        "city": "NEW HAVEN",
        "state": "CT",
        "postalCode": "06511-4506"
      },
      {
        "line": [
          "28 Church Street"
        ],
        "city": "NORTH HAVEN",
        "state": "CT",
        "postalCode": "06473-2525"
      },
      {
        "line": [
          "841 Old Post Rd"
        ],
        "city": "FAIRFIELD",
        "state": "CT",
        "postalCode": "06824-6649"
      },
      {
        "line": [
          "1605 Sherman Ave"
        ],
        "city": "HAMDEN",
        "state": "CT",
        "postalCode": "06514-1323"
      },
      {
        "line": [
          "850 Park Ave"
        ],
        "city": "BRIDGEPORT",
        "state": "CT",
        "postalCode": "06604-4615"
      },
      {
        "line": [
          "12 State St"
        ],
        "city": "ANSONIA",
        "state": "CT",
        "postalCode": "06401-3099"
      },
      {
        "line": [
          "631 Orange Ave"
        ],
        "city": "MILFORD",
        "state": "CT",
        "postalCode": "06461-2140"
      },
      {
        "line": [
          "3045 Main St"
        ],
        "city": "STRATFORD",
        "state": "CT",
        "postalCode": "06614-4977"
      },
      {
        "line": [
          "7 Linsley Street"
        ],
        "city": "NORTH HAVEN",
        "state": "CT",
        "postalCode": "06473-2518"
      }
    ],
    "extension": [
      {
        "url": "https://fhir.athena.io/StructureDefinition/ah-practice",
        "valueReference": {
          "reference": "Organization/a-1.Practice-14268"
        }
      },
      {
        "url": "https://fhir.athena.io/StructureDefinition/ah-brand",
        "valueReference": {
          "reference": "Organization/a-14268.Brand-1"
        }
      }
    ]
  },
  "fullUrl": "urn:uuid:46b8a426-5866-53a5-8b29-9cf8d3e52b18"
}