{
  "resource": {
    "resourceType": "Organization",
    "id": "3ab003b3-b667-5c87-b2de-7b4dcd2ff2be",
    "name": "Diagnostic Orthopedics Group",
    "endpoint": [
      {
        "reference": "Endpoint/27a4e967-47aa-5a9c-a572-b8297ee268a2"
      },
      {
        "reference": "Endpoint/edf1fea0-8f36-54ca-975c-173b8a084eef"
      }
    ],
    "identifier": [
      {
        "system": "http://hl7.org/fhir/sid/us-npi",
        "value": "1063045516"
      }
    ],
    "address": [
      {
        "line": [
          "1011 14th Ave"
        ],
        "city": "ARDMORE",
        "state": "OK",
        "postalCode": "73401-1828"
      },
      {
        "line": [
          "1800 RENAISSANCE BLVD"
        ],
        "city": "EDMOND",
        "state": "OK",
        "postalCode": "73013-3023"
      },
      {
        "line": [
          "1407 N WHISENANT DR"
        ],
        "city": "DUNCAN",
        "state": "OK",
        "postalCode": "73533-1650"
      },
      {
        "line": [
          "4801 INTEGRIS PKWY"
        ],
        "city": "EDMOND",
        "state": "OK",
        "postalCode": "73034-8864"
      },
      {
        "line": [
          "1011 14TH AVE NW"
        ],
        "city": "ARDMORE",
        "state": "OK",
        "postalCode": "73401-1828"
      },
      {
        "line": [
          "9500 N BROADWAY EXTENTION"
        ],
        "city": "OKLAHOMA CITY",
        "state": "OK",
        "postalCode": "73114-7425"
      },
      {
        "line": [
          "5925 NW 139TH ST"
        ],
        "city": "OKLAHOMA CITY",
        "state": "OK",
        "postalCode": "73142-1922"
      },
      {
        "line": [
          "1800 Renaissance Blvd",
          "Ste 210"
        ],
        "city": "EDMOND",
        "state": "OK",
        "postalCode": "73013-3023"
      },
      {
        "line": [
          "2017 W I 35 FRONTAGE RD"
        ],
        "city": "EDMOND",
        "state": "OK",
        "postalCode": "73013-8550"
      },
      {
        "line": [
          "4317 WEST MEMORIAL RD"
        ],
        "city": "OKLAHOMA CITY",
        "state": "OK",
        "postalCode": "73134-1720"
      },
      {
        "line": [
          "1305 W CHEROKEE ST"
        ],
        "city": "LINDSAY",
        "state": "OK",
        "postalCode": "73052-5042"
      }
    ],
    "extension": [
      {
        "url": "https://fhir.athena.io/StructureDefinition/ah-practice",
        "valueReference": {
          "reference": "Organization/a-1.Practice-22137"
        }
      },
      {
        "url": "https://fhir.athena.io/StructureDefinition/ah-brand",
        "valueReference": {
          "reference": "Organization/a-22137.Brand-1"
        }
      }
    ]
  },
  "fullUrl": "urn:uuid:3ab003b3-b667-5c87-b2de-7b4dcd2ff2be"
}