{
  "resource": {
    "resourceType": "Organization",
    "id": "1943668f-983d-5e18-aed7-753167449256",
    "name": "Rancho Family Medical Group, Inc.",
    "endpoint": [
      {
        "reference": "Endpoint/27a4e967-47aa-5a9c-a572-b8297ee268a2"
      },
      {
        "reference": "Endpoint/49a784d4-7b94-513f-b0ff-f2b1bc11794f"
      }
    ],
    "identifier": [
      {
        "system": "http://hl7.org/fhir/sid/us-npi",
        "value": "1598791600"
      }
    ],
    "address": [
      {
        "line": [
          "31700 Temecula Parkway"
        ],
        "city": "TEMECULA",
        "state": "CA",
        "postalCode": "92592-5896"
      },
      {
        "line": [
          "609 E Elder Street"
        ],
        "city": "FALLBROOK",
        "state": "CA",
        "postalCode": "92028-3005"
      },
      {
        "line": [
          "28780 Single Oak Dr.",
          "Suite 260"
        ],
        "city": "TEMECULA",
        "state": "CA",
        "postalCode": "92590-5528"
      },
      {
        "line": [
          "25500 Medical Center Drive"
        ],
        "city": "MURRIETA",
        "state": "CA",
        "postalCode": "92562-5965"
      },
      {
        "line": [
          "31150 Temecula Parkway Suite 200"
        ],
        "city": "TEMECULA",
        "state": "CA",
        "postalCode": "92592-2921"
      },
      {
        "line": [
          "31720 Temecula Pky",
          "Suite 100"
        ],
        "city": "TEMECULA",
        "state": "CA",
        "postalCode": "92592-5895"
      },
      {
        "line": [
          "28780 Single Oak Dr."
        ],
        "city": "TEMECULA",
        "state": "CA",
        "postalCode": "92590-5528"
      },
      {
        "line": [
          "27450 Ynez Road",
          "Suite 128"
        ],
        "city": "TEMECULA",
        "state": "CA",
        "postalCode": "92591-4680"
      },
      {
        "line": [
          "36485 Inland Valley Drive"
        ],
        "city": "WILDOMAR",
        "state": "CA",
        "postalCode": "92595-9672"
      },
      {
        "line": [
          "28062 Baxter Road"
        ],
        "city": "MURRIETA",
        "state": "CA",
        "postalCode": "92563-1401"
      },
      {
        "line": [
          "36485 Inland Valley Drive"
        ],
        "city": "WILDOMAR",
        "state": "CA",
        "postalCode": "92595-9681"
      },
      {
        "line": [
          "24400 Jackson Ave.",
          "Suite B"
        ],
        "city": "MURRIETA",
        "state": "CA",
        "postalCode": "92562-1992"
      },
      {
        "line": [
          "26960 Cherry Hills Blvd.",
          "Suite D"
        ],
        "city": "SUN CITY",
        "state": "CA",
        "postalCode": "92586-2576"
      },
      {
        "line": [
          "30420 Haun Rd."
        ],
        "city": "MENIFEE",
        "state": "CA",
        "postalCode": "92584-6810"
      },
      {
        "line": [
          "28780 Single Oak Dr.",
          "Suite 160"
        ],
        "city": "TEMECULA",
        "state": "CA",
        "postalCode": "92590-5515"
      }
    ],
    "extension": [
      {
        "url": "https://fhir.athena.io/StructureDefinition/ah-practice",
        "valueReference": {
          "reference": "Organization/a-1.Practice-11129"
        }
      },
      {
        "url": "https://fhir.athena.io/StructureDefinition/ah-brand",
        "valueReference": {
          "reference": "Organization/a-11129.Brand-1"
        }
      }
    ]
  },
  "fullUrl": "urn:uuid:1943668f-983d-5e18-aed7-753167449256"
}