{
  "resource": {
    "resourceType": "Organization",
    "id": "d3a1fd62-d0bb-5847-ae54-84f22d97db2a",
    "name": "House Call Medical",
    "endpoint": [
      {
        "reference": "Endpoint/27a4e967-47aa-5a9c-a572-b8297ee268a2"
      },
      {
        "reference": "Endpoint/36c180fa-befe-59a8-8db1-56b48059ad12"
      }
    ],
    "identifier": [
      {
        "system": "http://hl7.org/fhir/sid/us-npi",
        "value": "1417276791"
      }
    ],
    "address": [
      {
        "line": [
          "11216 W Maple"
        ],
        "city": "WICHITA",
        "state": "KS",
        "postalCode": "67209-4026"
      },
      {
        "line": [
          "1425 N STRATFORD LN"
        ],
        "city": "WICHITA",
        "state": "KS",
        "postalCode": "67206-1139"
      },
      {
        "line": [
          "234 S ANNA ST"
        ],
        "city": "WICHITA",
        "state": "KS",
        "postalCode": "67209-2404"
      },
      {
        "line": [
          "707 N GOLDEN HLS"
        ],
        "city": "WICHITA",
        "state": "KS",
        "postalCode": "67212-6565"
      },
      {
        "line": [
          "7701 E. Kellogg Dr.",
          "Ste 490"
        ],
        "city": "WICHITA",
        "state": "KS",
        "postalCode": "67207-1716"
      },
      {
        "line": [
          "524 N Main St"
        ],
        "city": "GARDEN PLAIN",
        "state": "KS",
        "postalCode": "67050-5005"
      },
      {
        "line": [
          "410 N RENO ST"
        ],
        "city": "HAVEN",
        "state": "KS",
        "postalCode": "67543-9276"
      },
      {
        "line": [
          "2650 N GENTRY AVE"
        ],
        "city": "WICHITA",
        "state": "KS",
        "postalCode": "67220-2419"
      },
      {
        "line": [
          "219 S MORNINGSIDE ST"
        ],
        "city": "WICHITA",
        "state": "KS",
        "postalCode": "67218-1813"
      },
      {
        "line": [
          "2311 Westport"
        ],
        "city": "WICHITA",
        "state": "KS",
        "postalCode": "67203-1535"
      },
      {
        "line": [
          "3051 N Parkdale Cir"
        ],
        "city": "WICHITA",
        "state": "KS",
        "postalCode": "67205-6013"
      },
      {
        "line": [
          "2455 N Woodlawn"
        ],
        "city": "WICHITA",
        "state": "KS",
        "postalCode": "67220-3996"
      },
      {
        "line": [
          "245 N Waco St",
          "Ste 220"
        ],
        "city": "WICHITA",
        "state": "KS",
        "postalCode": "67202-1102"
      },
      {
        "line": [
          "2131 N RIDGE RD"
        ],
        "city": "WICHITA",
        "state": "KS",
        "postalCode": "67212-1570"
      },
      {
        "line": [
          "6887 E ROCKHILL LN"
        ],
        "city": "WICHITA",
        "state": "KS",
        "postalCode": "67206-1045"
      },
      {
        "line": [
          "512 S HORSESHOE BND"
        ],
        "city": "MAIZE",
        "state": "KS",
        "postalCode": "67101-7012"
      },
      {
        "line": [
          "1532 S CREEKSIDE CT"
        ],
        "city": "WICHITA",
        "state": "KS",
        "postalCode": "67230-9717"
      },
      {
        "line": [
          "5516 Polo Drive"
        ],
        "city": "WICHITA",
        "state": "KS",
        "postalCode": "67208-2752"
      },
      {
        "line": [
          "303 N TYLER RD"
        ],
        "city": "WICHITA",
        "state": "KS",
        "postalCode": "67212-3601"
      },
      {
        "line": [
          "10604 E 13TH ST N"
        ],
        "city": "WICHITA",
        "state": "KS",
        "postalCode": "67206-3706"
      },
      {
        "line": [
          "6403 E MARJORIE ST"
        ],
        "city": "WICHITA",
        "state": "KS",
        "postalCode": "67206-1421"
      },
      {
        "line": [
          "15 N CRESTVIEW LAKES Dr"
        ],
        "city": "WICHITA",
        "state": "KS",
        "postalCode": "67220-2913"
      },
      {
        "line": [
          "742 W 50th Ct S"
        ],
        "city": "WICHITA",
        "state": "KS",
        "postalCode": "67217-5025"
      },
      {
        "line": [
          "6953 Kentford Circle"
        ],
        "city": "WICHITA",
        "state": "KS",
        "postalCode": "67226-1026"
      },
      {
        "line": [
          "507 N MAIZE RD"
        ],
        "city": "WICHITA",
        "state": "KS",
        "postalCode": "67212-4691"
      },
      {
        "line": [
          "4500 W MAPLE ST"
        ],
        "city": "WICHITA",
        "state": "KS",
        "postalCode": "67209-2567"
      },
      {
        "line": [
          "400 N Peterson"
        ],
        "city": "WICHITA",
        "state": "KS",
        "postalCode": "67212-3732"
      },
      {
        "line": [
          "623 S MAIZE CT"
        ],
        "city": "WICHITA",
        "state": "KS",
        "postalCode": "67209-1337"
      },
      {
        "line": [
          "715 W 6TH ST"
        ],
        "city": "HALSTEAD",
        "state": "KS",
        "postalCode": "67056-2173"
      },
      {
        "line": [
          "10665 W 13th St N"
        ],
        "city": "WICHITA",
        "state": "KS",
        "postalCode": "67212-5600"
      },
      {
        "line": [
          "515 N MAIZE RD"
        ],
        "city": "WICHITA",
        "state": "KS",
        "postalCode": "67212-4655"
      },
      {
        "line": [
          "245 N WACO ST STE 220"
        ],
        "city": "WICHITA",
        "state": "KS",
        "postalCode": "67202-1102"
      },
      {
        "line": [
          "2734 N WELLESLEY AVE"
        ],
        "city": "WICHITA",
        "state": "KS",
        "postalCode": "67220-2408"
      },
      {
        "line": [
          "5705 E ROCKHILL ST"
        ],
        "city": "WICHITA",
        "state": "KS",
        "postalCode": "67208-1752"
      },
      {
        "line": [
          "3508 W DONNA AVE"
        ],
        "city": "WICHITA",
        "state": "KS",
        "postalCode": "67203-5000"
      },
      {
        "line": [
          "10550 E 21ST ST N"
        ],
        "city": "WICHITA",
        "state": "KS",
        "postalCode": "67206-3509"
      },
      {
        "line": [
          "402 E WINDSOR RD"
        ],
        "city": "ARKANSAS CITY",
        "state": "KS",
        "postalCode": "67005-3894"
      },
      {
        "line": [
          "750 W WASHINGTON AVE"
        ],
        "city": "KINGMAN",
        "state": "KS",
        "postalCode": "67068-2000"
      },
      {
        "line": [
          "550 S CIRCLE LAKE RD"
        ],
        "city": "WICHITA",
        "state": "KS",
        "postalCode": "67209-1005"
      },
      {
        "line": [
          "2355 S Bedford"
        ],
        "city": "WICHITA",
        "state": "KS",
        "postalCode": "67212-3601"
      },
      {
        "line": [
          "6807 E Rockwood"
        ],
        "city": "WICHITA",
        "state": "KS",
        "postalCode": "67206-2039"
      },
      {
        "line": [
          "1650 E 12TH AVE"
        ],
        "city": "EL DORADO",
        "state": "KS",
        "postalCode": "67042-4300"
      },
      {
        "line": [
          "2121 N 143RD ST E"
        ],
        "city": "WICHITA",
        "state": "KS",
        "postalCode": "67230-7268"
      },
      {
        "line": [
          "512 N BEBE ST"
        ],
        "city": "WICHITA",
        "state": "KS",
        "postalCode": "67212-2328"
      },
      {
        "line": [
          "402 S MARTINSON ST"
        ],
        "city": "WICHITA",
        "state": "KS",
        "postalCode": "67213-3998"
      },
      {
        "line": [
          "1859 N WEBB RD"
        ],
        "city": "WICHITA",
        "state": "KS",
        "postalCode": "67206-3413"
      },
      {
        "line": [
          "8629 W 29TH ST N"
        ],
        "city": "WICHITA",
        "state": "KS",
        "postalCode": "67205-9403"
      },
      {
        "line": [
          "9191 E 21ST ST N"
        ],
        "city": "WICHITA",
        "state": "KS",
        "postalCode": "67206-2923"
      },
      {
        "line": [
          "305 E WINDSOR RD"
        ],
        "city": "ARKANSAS CITY",
        "state": "KS",
        "postalCode": "67005-3869"
      },
      {
        "line": [
          "2300 N TYLER RD",
          "Ste 220"
        ],
        "city": "Wichita",
        "state": "KS",
        "postalCode": "67205-8704"
      },
      {
        "line": [
          "719 N KLEIN CIR"
        ],
        "city": "DERBY",
        "state": "KS",
        "postalCode": "67037-7019"
      },
      {
        "line": [
          "704 E MAIN ST"
        ],
        "city": "MOUNT HOPE",
        "state": "KS",
        "postalCode": "67108-9408"
      },
      {
        "line": [
          "600 N 127TH ST E"
        ],
        "city": "WICHITA",
        "state": "KS",
        "postalCode": "67206-2830"
      },
      {
        "line": [
          "1433 N HAMILTON DR"
        ],
        "city": "DERBY",
        "state": "KS",
        "postalCode": "67037-8919"
      },
      {
        "line": [
          "109 N MARS ST"
        ],
        "city": "WICHITA",
        "state": "KS",
        "postalCode": "67212-5965"
      },
      {
        "line": [
          "10001 W 12TH ST N"
        ],
        "city": "WICHITA",
        "state": "KS",
        "postalCode": "67212-4336"
      },
      {
        "line": [
          "1301 S SEVILLE AVE"
        ],
        "city": "WICHITA",
        "state": "KS",
        "postalCode": "67209-1828"
      },
      {
        "line": [
          "1316 N CHARLOTTE ST"
        ],
        "city": "WICHITA",
        "state": "KS",
        "postalCode": "67208-2659"
      },
      {
        "line": [
          "557 N ARMOUR ST"
        ],
        "city": "WICHITA",
        "state": "KS",
        "postalCode": "67206-1513"
      },
      {
        "line": [
          "1214 N Charlotte"
        ],
        "city": "WICHITA",
        "state": "KS",
        "postalCode": "67208-2657"
      },
      {
        "line": [
          "1611 Fairway Dr"
        ],
        "city": "AUGUSTA",
        "state": "KS",
        "postalCode": "67010-2246"
      },
      {
        "line": [
          "531 N Crestline"
        ],
        "city": "WICHITA",
        "state": "KS",
        "postalCode": "67212-4618"
      },
      {
        "line": [
          "3130 N Parkdale Cir"
        ],
        "city": "WICHITA",
        "state": "KS",
        "postalCode": "67205-6051"
      },
      {
        "line": [
          "5701 N 17th St N"
        ],
        "city": "WICHITA",
        "state": "KS",
        "postalCode": "67208-1703"
      },
      {
        "line": [
          "915 E 53RD ST N"
        ],
        "city": "WICHITA",
        "state": "KS",
        "postalCode": "67219-2611"
      },
      {
        "line": [
          "777 N MCLEAN BLVD"
        ],
        "city": "WICHITA",
        "state": "KS",
        "postalCode": "67203-4980"
      },
      {
        "line": [
          "1214 N CHARLOTTE ST"
        ],
        "city": "WICHITA",
        "state": "KS",
        "postalCode": "67208-2657"
      },
      {
        "line": [
          "6222 BEACHY AVE",
          "Ste 490"
        ],
        "city": "Wichita",
        "state": "KS",
        "postalCode": "67208-2621"
      },
      {
        "line": [
          "441 S MORNINGSIDE ST"
        ],
        "city": "WICHITA",
        "state": "KS",
        "postalCode": "67218-1817"
      },
      {
        "line": [
          "619 S MAIZE CT"
        ],
        "city": "WICHITA",
        "state": "KS",
        "postalCode": "67209-1337"
      },
      {
        "line": [
          "245 N WACO ST STE 220"
        ],
        "city": "WICHITA",
        "state": "KS",
        "postalCode": "67207-1716"
      },
      {
        "line": [
          "1858 S GREENWAY BLVD"
        ],
        "city": "WICHITA",
        "state": "KS",
        "postalCode": "67213-5011"
      },
      {
        "line": [
          "3039 W 2ND ST N"
        ],
        "city": "WICHITA",
        "state": "KS",
        "postalCode": "67203-5359"
      },
      {
        "line": [
          "8649 W 29th"
        ],
        "city": "WICHITA",
        "state": "KS",
        "postalCode": "67205-9403"
      },
      {
        "line": [
          "2734 N Wellesley St"
        ],
        "city": "WICHITA",
        "state": "KS",
        "postalCode": "67220-2408"
      },
      {
        "line": [
          "11820 W 29TH ST N"
        ],
        "city": "WICHITA",
        "state": "KS",
        "postalCode": "67205-8502"
      },
      {
        "line": [
          "3402 E PINE ST"
        ],
        "city": "Wichita",
        "state": "KS",
        "postalCode": "67208-3274"
      },
      {
        "line": [
          "1400 S 183RD ST W",
          "Ste 490"
        ],
        "city": "Wichita",
        "state": "KS",
        "postalCode": "67052-9357"
      },
      {
        "line": [
          "1240 N. Broadmoor"
        ],
        "city": "WICHITA",
        "state": "KS",
        "postalCode": "67206-3869"
      },
      {
        "line": [
          "1820 E RIVER ST"
        ],
        "city": "EUREKA",
        "state": "KS",
        "postalCode": "67045-2156"
      },
      {
        "line": [
          "968 N Tyler"
        ],
        "city": "WICHITA",
        "state": "KS",
        "postalCode": "67212-3240"
      },
      {
        "line": [
          "6900 Stonegate"
        ],
        "city": "WICHITA",
        "state": "KS",
        "postalCode": "67206-1136"
      },
      {
        "line": [
          "3850 W NEWELL ST"
        ],
        "city": "WICHITA",
        "state": "KS",
        "postalCode": "67203-5082"
      },
      {
        "line": [
          "11537 E HARRY ST"
        ],
        "city": "WICHITA",
        "state": "KS",
        "postalCode": "67207-6225"
      },
      {
        "line": [
          "8600 E 21ST ST N"
        ],
        "city": "WICHITA",
        "state": "KS",
        "postalCode": "67206-2939"
      },
      {
        "line": [
          "2455 N woodlawn"
        ],
        "city": "WICHITA",
        "state": "KS",
        "postalCode": "67220-3996"
      },
      {
        "line": [
          "521 Main St"
        ],
        "city": "TOWANDA",
        "state": "KS",
        "postalCode": "67144-9001"
      },
      {
        "line": [
          "505 N MAIZE RD"
        ],
        "city": "WICHITA",
        "state": "KS",
        "postalCode": "67212-4689"
      },
      {
        "line": [
          "641 N BROADMOOR AVE"
        ],
        "city": "WICHITA",
        "state": "KS",
        "postalCode": "67206-1603"
      },
      {
        "line": [
          "1400 S 183RD ST W"
        ],
        "city": "GODDARD",
        "state": "KS",
        "postalCode": "67052-9357"
      },
      {
        "line": [
          "7057 W VILLAGE CIR"
        ],
        "city": "WICHITA",
        "state": "KS",
        "postalCode": "67205-1509"
      },
      {
        "line": [
          "1172 N PINECREST ST"
        ],
        "city": "WICHITA",
        "state": "KS",
        "postalCode": "67208-2732"
      },
      {
        "line": [
          "5319 S Spruce St"
        ],
        "city": "WICHITA",
        "state": "KS",
        "postalCode": "67216-3246"
      },
      {
        "line": [
          "1201 N PINECREST ST"
        ],
        "city": "WICHITA",
        "state": "KS",
        "postalCode": "67208-2735"
      },
      {
        "line": [
          "1701 E OSAGE RD"
        ],
        "city": "DERBY",
        "state": "KS",
        "postalCode": "67037-2086"
      },
      {
        "line": [
          "1419 W CENTRAL AVE"
        ],
        "city": "ANDOVER",
        "state": "KS",
        "postalCode": "67002-7202"
      },
      {
        "line": [
          "522 W 5TH AVE"
        ],
        "city": "EL DORADO",
        "state": "KS",
        "postalCode": "67042-1720"
      },
      {
        "line": [
          "1701 E WALNUT GROVE RD"
        ],
        "city": "DERBY",
        "state": "KS",
        "postalCode": "67037-3528"
      },
      {
        "line": [
          "900 N BAYSHORE DR"
        ],
        "city": "WICHITA",
        "state": "KS",
        "postalCode": "67212-4807"
      },
      {
        "line": [
          "6311 MARJORIE ST"
        ],
        "city": "WICHITA",
        "state": "KS",
        "postalCode": "67208-3629"
      },
      {
        "line": [
          "500 N PLUM ST"
        ],
        "city": "Wichita",
        "state": "KS",
        "postalCode": "67152-3574"
      },
      {
        "line": [
          "5502 E POLO DR"
        ],
        "city": "WICHITA",
        "state": "KS",
        "postalCode": "67208-2752"
      },
      {
        "line": [
          "6614 E MAGILL ST"
        ],
        "city": "WICHITA",
        "state": "KS",
        "postalCode": "67206-1344"
      },
      {
        "line": [
          "505 S WALNUT VALLEY DR"
        ],
        "city": "EL DORADO",
        "state": "KS",
        "postalCode": "67042-9001"
      },
      {
        "line": [
          "1229 S Byron"
        ],
        "city": "WICHITA",
        "state": "KS",
        "postalCode": "67209-1811"
      },
      {
        "line": [
          "1508 TERRACE DR"
        ],
        "city": "NEWTON",
        "state": "KS",
        "postalCode": "67114-6316"
      },
      {
        "line": [
          "7334 E ELM CT"
        ],
        "city": "WICHITA",
        "state": "KS",
        "postalCode": "67206-1522"
      },
      {
        "line": [
          "622 N HAVERHILL RD"
        ],
        "city": "Wichita",
        "state": "KS",
        "postalCode": "67042-3176"
      },
      {
        "line": [
          "5501 E POLO DR"
        ],
        "city": "WICHITA",
        "state": "KS",
        "postalCode": "67208-2753"
      },
      {
        "line": [
          "147 S RIDGEWOOD DR"
        ],
        "city": "WICHITA",
        "state": "KS",
        "postalCode": "67218-1620"
      },
      {
        "line": [
          "1211 W KELLY AVE"
        ],
        "city": "KINGMAN",
        "state": "KS",
        "postalCode": "67068-8168"
      },
      {
        "line": [
          "12046 W 33RD ST N"
        ],
        "city": "WICHITA",
        "state": "KS",
        "postalCode": "67205-7817"
      },
      {
        "line": [
          "8631 W 29TH ST N"
        ],
        "city": "WICHITA",
        "state": "KS",
        "postalCode": "67205-9403"
      },
      {
        "line": [
          "4911 S MERIDIAN AVE"
        ],
        "city": "WICHITA",
        "state": "KS",
        "postalCode": "67217-3709"
      },
      {
        "line": [
          "5319 S SPRUCE ST"
        ],
        "city": "WICHITA",
        "state": "KS",
        "postalCode": "67216-3246"
      },
      {
        "line": [
          "117 N Brendonwood"
        ],
        "city": "WICHITA",
        "state": "KS",
        "postalCode": "67206-2101"
      },
      {
        "line": [
          "649 N STRATFORD LN"
        ],
        "city": "WICHITA",
        "state": "KS",
        "postalCode": "67206-1529"
      },
      {
        "line": [
          "14601 E TIMBER LAKE RD"
        ],
        "city": "WICHITA",
        "state": "KS",
        "postalCode": "67230-9220"
      },
      {
        "line": [
          "1103 N CHARLOTTE ST"
        ],
        "city": "WICHITA",
        "state": "KS",
        "postalCode": "67208-2656"
      },
      {
        "line": [
          "724 N MAIN ST"
        ],
        "city": "CHENEY",
        "state": "KS",
        "postalCode": "67025-9059"
      },
      {
        "line": [
          "503 N. Maize Road"
        ],
        "city": "WICHITA",
        "state": "KS",
        "postalCode": "67212-4691"
      },
      {
        "line": [
          "625 S MAIZE CT"
        ],
        "city": "WICHITA",
        "state": "KS",
        "postalCode": "67209-1337"
      },
      {
        "line": [
          "1737 S 125TH ST E"
        ],
        "city": "WICHITA",
        "state": "KS",
        "postalCode": "67207-6509"
      },
      {
        "line": [
          "101 W AVENUE C"
        ],
        "city": "GARDEN PLAIN",
        "state": "KS",
        "postalCode": "67050-9574"
      },
      {
        "line": [
          "6322 PEACH TREE LN"
        ],
        "city": "WICHITA",
        "state": "KS",
        "postalCode": "67218-1820"
      },
      {
        "line": [
          "7901 W JENNIE ST"
        ],
        "city": "WICHITA",
        "state": "KS",
        "postalCode": "67212-3537"
      },
      {
        "line": [
          "3618 W 13TH ST N"
        ],
        "city": "WICHITA",
        "state": "KS",
        "postalCode": "67203-4516"
      },
      {
        "line": [
          "254 S ROBIN RD"
        ],
        "city": "WICHITA",
        "state": "KS",
        "postalCode": "67209-1429"
      },
      {
        "line": [
          "228 S CEDAR ST"
        ],
        "city": "GODDARD",
        "state": "KS",
        "postalCode": "67052-8895"
      },
      {
        "line": [
          "1377 N IROQUOIS RD"
        ],
        "city": "WICHITA",
        "state": "KS",
        "postalCode": "67203-4623"
      },
      {
        "line": [
          "12221 W MAPLE ST"
        ],
        "city": "WICHITA",
        "state": "KS",
        "postalCode": "67235-8751"
      },
      {
        "line": [
          "1425 S LEECREST ST"
        ],
        "city": "WICHITA",
        "state": "KS",
        "postalCode": "67209-1131"
      },
      {
        "line": [
          "141 SARAH LN"
        ],
        "city": "HAYSVILLE",
        "state": "KS",
        "postalCode": "67060-1255"
      },
      {
        "line": [
          "629 S LONGFELLOW ST",
          "Ste 220"
        ],
        "city": "Wichita",
        "state": "KS",
        "postalCode": "67207-2368"
      },
      {
        "line": [
          "14422 E TWINLAKE DR"
        ],
        "city": "WICHITA",
        "state": "KS",
        "postalCode": "67230-9517"
      },
      {
        "line": [
          "901 LAKEPOINT DR"
        ],
        "city": "AUGUSTA",
        "state": "KS",
        "postalCode": "67010-2423"
      },
      {
        "line": [
          "1504 TERRACE DR UNIT 4"
        ],
        "city": "NEWTON",
        "state": "KS",
        "postalCode": "67114-6316"
      },
      {
        "line": [
          "1014 N VINCENT ST"
        ],
        "city": "WICHITA",
        "state": "KS",
        "postalCode": "67206-1350"
      },
      {
        "line": [
          "721 W 21ST ST"
        ],
        "city": "ANDOVER",
        "state": "KS",
        "postalCode": "67002-8492"
      },
      {
        "line": [
          "440 N 4TH ST"
        ],
        "city": "CLEARWATER",
        "state": "KS",
        "postalCode": "67026-9708"
      }
    ],
    "extension": [
      {
        "url": "https://fhir.athena.io/StructureDefinition/ah-practice",
        "valueReference": {
          "reference": "Organization/a-1.Practice-26892"
        }
      },
      {
        "url": "https://fhir.athena.io/StructureDefinition/ah-brand",
        "valueReference": {
          "reference": "Organization/a-26892.Brand-1"
        }
      }
    ]
  },
  "fullUrl": "urn:uuid:d3a1fd62-d0bb-5847-ae54-84f22d97db2a"
}