{
  "resource": {
    "resourceType": "Organization",
    "id": "efb7e686-eb60-5523-9506-585fae46a2f9",
    "name": "RETINA OF NORTH TEXAS",
    "endpoint": [
      {
        "reference": "Endpoint/27a4e967-47aa-5a9c-a572-b8297ee268a2"
      },
      {
        "reference": "Endpoint/59e0a20c-6182-53b7-ab01-df3d4077b9c5"
      }
    ],
    "identifier": [
      {
        "system": "http://hl7.org/fhir/sid/us-npi",
        "value": "1982250262"
      }
    ],
    "address": [
      {
        "line": [
          "11615 FOREST CENTRAL DR STE 308"
        ],
        "city": "DALLAS",
        "state": "TX",
        "postalCode": "75243-3921"
      },
      {
        "line": [
          "4501 JOE RAMSEY BLVD E",
          "SUITE 110"
        ],
        "city": "GREENVILLE",
        "state": "TX",
        "postalCode": "75401-7836"
      },
      {
        "line": [
          "6417 JOYCE WAY"
        ],
        "city": "DALLAS",
        "state": "TX",
        "postalCode": "75225-2316"
      },
      {
        "line": [
          "1301 Pennsylvania Ave"
        ],
        "city": "FORT WORTH",
        "state": "TX",
        "postalCode": "76104-2122"
      },
      {
        "line": [
          "2007 N JEFFERSON AVE"
        ],
        "city": "MOUNT PLEASANT",
        "state": "TX",
        "postalCode": "75455-2336"
      },
      {
        "line": [
          "505 NORTH GUN BARREL LANE"
        ],
        "city": "GUN BARREL CITY",
        "state": "TX",
        "postalCode": "75156-3732"
      },
      {
        "line": [
          "8200 WALNUT HILL LANE"
        ],
        "city": "DALLAS",
        "state": "TX",
        "postalCode": "75225-2316"
      },
      {
        "line": [
          "7150 GREENVILLE AVE STE 200"
        ],
        "city": "DALLAS",
        "state": "TX",
        "postalCode": "75231-5198"
      }
    ],
    "extension": [
      {
        "url": "https://fhir.athena.io/StructureDefinition/ah-practice",
        "valueReference": {
          "reference": "Organization/a-1.Practice-23241"
        }
      },
      {
        "url": "https://fhir.athena.io/StructureDefinition/ah-brand",
        "valueReference": {
          "reference": "Organization/a-23241.Brand-1"
        }
      }
    ]
  },
  "fullUrl": "urn:uuid:efb7e686-eb60-5523-9506-585fae46a2f9"
}