{
  "resource": {
    "resourceType": "Organization",
    "id": "5ff6df69-5713-52b9-b4ae-a92833ea2717",
    "name": "Dr. Kazmi",
    "endpoint": [
      {
        "reference": "Endpoint/27a4e967-47aa-5a9c-a572-b8297ee268a2"
      },
      {
        "reference": "Endpoint/d2017243-2706-5086-bd6d-d438425e70d5"
      }
    ],
    "identifier": [
      {
        "system": "http://hl7.org/fhir/sid/us-npi",
        "value": "1265530844"
      }
    ],
    "address": [
      {
        "line": [
          "814 TOLL HOUSE AVE"
        ],
        "city": "FREDERICK",
        "state": "MD",
        "postalCode": "21701-4519"
      },
      {
        "line": [
          "1910 ROSEMONT AVE"
        ],
        "city": "FREDERICK",
        "state": "MD",
        "postalCode": "21702-8249"
      },
      {
        "line": [
          "200 EAST 16TH STREET"
        ],
        "city": "FREDERICK",
        "state": "MD",
        "postalCode": "21701-4400"
      },
      {
        "line": [
          "814 Toll House Ave"
        ],
        "city": "FREDERICK",
        "state": "MD",
        "postalCode": "21701-4519"
      },
      {
        "line": [
          "1920 ROSEMONT AVE"
        ],
        "city": "FREDERICK",
        "state": "MD",
        "postalCode": "21702-8249"
      },
      {
        "line": [
          "6601 ENGLISH MUFFIN WAY"
        ],
        "city": "FREDERICK",
        "state": "MD",
        "postalCode": "21703-7368"
      },
      {
        "line": [
          "30 NORTH PLACE"
        ],
        "city": "FREDERICK",
        "state": "MD",
        "postalCode": "21701-6200"
      },
      {
        "line": [
          "7407 WILLOW RD"
        ],
        "city": "FREDERICK",
        "state": "MD",
        "postalCode": "21702-2500"
      },
      {
        "line": [
          "200 E 16TH ST"
        ],
        "city": "FREDERICK",
        "state": "MD",
        "postalCode": "21701-4400"
      },
      {
        "line": [
          "56 WEST FREDERICK ST"
        ],
        "city": "WALKERSVILLE",
        "state": "MD",
        "postalCode": "21793-0001"
      },
      {
        "line": [
          "1820 LATHAM DRIVE"
        ],
        "city": "FREDERICK",
        "state": "MD",
        "postalCode": "21701-9393"
      },
      {
        "line": [
          "347 BALLENGER CENTER DR"
        ],
        "city": "FREDERICK",
        "state": "MD",
        "postalCode": "21703-1125"
      }
    ],
    "extension": [
      {
        "url": "https://fhir.athena.io/StructureDefinition/ah-practice",
        "valueReference": {
          "reference": "Organization/a-1.Practice-20487"
        }
      },
      {
        "url": "https://fhir.athena.io/StructureDefinition/ah-brand",
        "valueReference": {
          "reference": "Organization/a-20487.Brand-1"
        }
      }
    ]
  },
  "fullUrl": "urn:uuid:5ff6df69-5713-52b9-b4ae-a92833ea2717"
}