{
  "resource": {
    "resourceType": "Organization",
    "id": "68c6c987-d73d-5b98-9548-7be196c0eaed",
    "name": "Carondelet Medical Group",
    "endpoint": [
      {
        "reference": "Endpoint/27a4e967-47aa-5a9c-a572-b8297ee268a2"
      },
      {
        "reference": "Endpoint/32f14274-2475-5aab-8db1-c755385c31f2"
      }
    ],
    "identifier": [
      {
        "system": "http://hl7.org/fhir/sid/us-npi",
        "value": "1356726939"
      }
    ],
    "address": [
      {
        "line": [
          "1551 E Tangerine Rd"
        ],
        "city": "Oro Valley",
        "state": "AZ",
        "postalCode": "85755-6213"
      },
      {
        "line": [
          "1171 W Target Range Rd"
        ],
        "city": "NOGALES",
        "state": "AZ",
        "postalCode": "85621-2415"
      },
      {
        "line": [
          "2611 N Warren AVE"
        ],
        "city": "TUCSON",
        "state": "AZ",
        "postalCode": "85719-3160"
      },
      {
        "line": [
          "1601 W St Marys Rd"
        ],
        "city": "TUCSON",
        "state": "AZ",
        "postalCode": "85745-2682"
      },
      {
        "line": [
          "2000 West Bethany Home Road"
        ],
        "city": "PHOENIX",
        "state": "AZ",
        "postalCode": "85015-2443"
      },
      {
        "line": [
          "4455 S I-19 Frontage Rd"
        ],
        "city": "GREEN VALLEY",
        "state": "AZ",
        "postalCode": "85614-5884"
      },
      {
        "line": [
          "350 N Wilmot Rd"
        ],
        "city": "TUCSON",
        "state": "AZ",
        "postalCode": "85711-2678"
      },
      {
        "line": [
          "7900 N. La Canada Drive"
        ],
        "city": "TUCSON",
        "state": "AZ",
        "postalCode": "85704-3326"
      },
      {
        "line": [
          "3929 E Bell Road"
        ],
        "city": "PHOENIX",
        "state": "AZ",
        "postalCode": "85032-2112"
      },
      {
        "line": [
          "2221 N Rosemont Blvd"
        ],
        "city": "TUCSON",
        "state": "AZ",
        "postalCode": "85712-2113"
      },
      {
        "line": [
          "1551 E Tangerine Rd"
        ],
        "city": "TUCSON",
        "state": "AZ",
        "postalCode": "85755-6213"
      },
      {
        "line": [
          "16260 S. Rancho Sahuarita Blvd"
        ],
        "city": "SAHUARITA",
        "state": "AZ",
        "postalCode": "85629-0047"
      },
      {
        "line": [
          "101 Cole Ave"
        ],
        "city": "BISBEE",
        "state": "AZ",
        "postalCode": "85603-1327"
      },
      {
        "line": [
          "1625 N Campbell Ave"
        ],
        "city": "TUCSON",
        "state": "AZ",
        "postalCode": "85719-4330"
      },
      {
        "line": [
          "5620 W Cortaro Farms Road"
        ],
        "city": "TUCSON",
        "state": "AZ",
        "postalCode": "85742-9559"
      },
      {
        "line": [
          "5301 E Grant Rd"
        ],
        "city": "TUCSON",
        "state": "AZ",
        "postalCode": "85712-2805"
      },
      {
        "line": [
          "2900 Milber St"
        ],
        "city": "TUCSON",
        "state": "AZ",
        "postalCode": "85714-2097"
      },
      {
        "line": [
          "7140 E. Rosewood St",
          "Ste 100"
        ],
        "city": "TUCSON",
        "state": "AZ",
        "postalCode": "85710-1346"
      },
      {
        "line": [
          "1600 20th Ave"
        ],
        "city": "SAFFORD",
        "state": "AZ",
        "postalCode": "85546-4011"
      },
      {
        "line": [
          "1171 W Target Range Rd",
          "1600 20th Ave"
        ],
        "city": "SAFFORD",
        "state": "AZ",
        "postalCode": "85546-4011"
      },
      {
        "line": [
          "2200 S. Houghton Rd"
        ],
        "city": "TUCSON",
        "state": "AZ",
        "postalCode": "85748-7632"
      },
      {
        "line": [
          "13677 W McDowell Road"
        ],
        "city": "GOODYEAR",
        "state": "AZ",
        "postalCode": "85395-2635"
      },
      {
        "line": [
          "6200 N La Cholla Blvd"
        ],
        "city": "TUCSON",
        "state": "AZ",
        "postalCode": "85741-3529"
      },
      {
        "line": [
          "18701 N 67th Ave"
        ],
        "city": "GLENDALE",
        "state": "AZ",
        "postalCode": "85308-7100"
      },
      {
        "line": [
          "2650 N Wyatt Dr"
        ],
        "city": "TUCSON",
        "state": "AZ",
        "postalCode": "85712-6106"
      },
      {
        "line": [
          "7490 S Camino De Oeste"
        ],
        "city": "TUCSON",
        "state": "AZ",
        "postalCode": "85746-9308"
      },
      {
        "line": [
          "5545 E Lee St"
        ],
        "city": "TUCSON",
        "state": "AZ",
        "postalCode": "85712-4205"
      },
      {
        "line": [
          "2040 N. Wilmot RD"
        ],
        "city": "TUCSON",
        "state": "AZ",
        "postalCode": "85712-3039"
      },
      {
        "line": [
          "2800 E Ajo Way"
        ],
        "city": "TUCSON",
        "state": "AZ",
        "postalCode": "85713-6204"
      },
      {
        "line": [
          "4620 E. Camp Lowell"
        ],
        "city": "TUCSON",
        "state": "AZ",
        "postalCode": "85712-1296"
      },
      {
        "line": [
          "350 N Wilmot Road"
        ],
        "city": "TUCSON",
        "state": "AZ",
        "postalCode": "85711-2602"
      },
      {
        "line": [
          "5700 E Highway 90"
        ],
        "city": "SIERRA VISTA",
        "state": "AZ",
        "postalCode": "85635-9110"
      },
      {
        "line": [
          "2121 N CRAYCROFT RD BLDG 8"
        ],
        "city": "TUCSON",
        "state": "AZ",
        "postalCode": "85712-2845"
      },
      {
        "line": [
          "2220 W. Orange Grove Road"
        ],
        "city": "TUCSON",
        "state": "AZ",
        "postalCode": "85741-3117"
      },
      {
        "line": [
          "1919 W Medical St"
        ],
        "city": "TUCSON",
        "state": "AZ",
        "postalCode": "85704-1133"
      },
      {
        "line": [
          "3935 E Fort Lowell Rd"
        ],
        "city": "TUCSON",
        "state": "AZ",
        "postalCode": "85712-1009"
      },
      {
        "line": [
          "200 W Hospital Dr"
        ],
        "city": "WHITERIVER",
        "state": "AZ",
        "postalCode": "85941-0860"
      },
      {
        "line": [
          "7900 S J Stock Rd"
        ],
        "city": "TUCSON",
        "state": "AZ",
        "postalCode": "85746-7012"
      },
      {
        "line": [
          "7220 E Rosewood Dr"
        ],
        "city": "TUCSON",
        "state": "AZ",
        "postalCode": "85710-1350"
      },
      {
        "line": [
          "8500 North Oracle Road",
          "Suite 150"
        ],
        "city": "TUCSON",
        "state": "AZ",
        "postalCode": "85704-6511"
      },
      {
        "line": [
          "4310 E Grant Road"
        ],
        "city": "TUCSON",
        "state": "AZ",
        "postalCode": "85712-2607"
      },
      {
        "line": [
          "2250 N Craycroft Road"
        ],
        "city": "TUCSON",
        "state": "AZ",
        "postalCode": "85712-2802"
      },
      {
        "line": [
          "18701 N 67th AVE"
        ],
        "city": "GLENDALE",
        "state": "AZ",
        "postalCode": "85308-7100"
      },
      {
        "line": [
          "4892 N Stone Ave",
          "Suite 180"
        ],
        "city": "TUCSON",
        "state": "AZ",
        "postalCode": "85704-5749"
      },
      {
        "line": [
          "6567 E. Carondelet Dr. Ste 102"
        ],
        "city": "TUCSON",
        "state": "AZ",
        "postalCode": "85710-6152"
      },
      {
        "line": [
          "US Highway 86"
        ],
        "city": "SELLS",
        "state": "AZ",
        "postalCode": "85634-9901"
      },
      {
        "line": [
          "5700 E Highway 90",
          "BLDG 2"
        ],
        "city": "SIERRA VISTA",
        "state": "AZ",
        "postalCode": "85635-9110"
      },
      {
        "line": [
          "1802 W St Marys Rd"
        ],
        "city": "TUCSON",
        "state": "AZ",
        "postalCode": "85745-2619"
      }
    ],
    "extension": [
      {
        "url": "https://fhir.athena.io/StructureDefinition/ah-practice",
        "valueReference": {
          "reference": "Organization/a-1.Practice-600"
        }
      },
      {
        "url": "https://fhir.athena.io/StructureDefinition/ah-brand",
        "valueReference": {
          "reference": "Organization/a-600.Brand-4"
        }
      }
    ]
  },
  "fullUrl": "urn:uuid:68c6c987-d73d-5b98-9548-7be196c0eaed"
}