{
  "resource": {
    "resourceType": "Organization",
    "id": "8e7208b8-944f-5bf8-8ca7-7886f9be11e3",
    "name": "Mack Cosmetic Center",
    "endpoint": [
      {
        "reference": "Endpoint/27a4e967-47aa-5a9c-a572-b8297ee268a2"
      },
      {
        "reference": "Endpoint/0a46f858-c3f6-5849-a451-72f7b448a0db"
      }
    ],
    "identifier": [
      {
        "system": "http://hl7.org/fhir/sid/us-npi",
        "value": "1669682399"
      }
    ],
    "address": [
      {
        "line": [
          "3001 W DR MLK JR BLVD"
        ],
        "city": "TAMPA",
        "state": "FL",
        "postalCode": "33607-6307"
      },
      {
        "line": [
          "1130 PONCE DE LEON BLVD"
        ],
        "city": "CLEARWATER",
        "state": "FL",
        "postalCode": "33756-1041"
      },
      {
        "line": [
          "579 S Duncan Ave"
        ],
        "city": "CLEARWATER",
        "state": "FL",
        "postalCode": "33756-6255"
      },
      {
        "line": [
          "93 N PARK PLACE BLVD STE 102",
          "Suite 102"
        ],
        "city": "CLEARWATER",
        "state": "FL",
        "postalCode": "33759-3917"
      },
      {
        "line": [
          "2727 W DR MARTIN LUTHER KING JR BLVD"
        ],
        "city": "TAMPA",
        "state": "FL",
        "postalCode": "33607-6383"
      },
      {
        "line": [
          "11911 N DALE MABRY HWY"
        ],
        "city": "TAMPA",
        "state": "FL",
        "postalCode": "33618-3507"
      },
      {
        "line": [
          "3109 W Azeele St"
        ],
        "city": "TAMPA",
        "state": "FL",
        "postalCode": "33609-3016"
      },
      {
        "line": [
          "2901 W SWANN AVE"
        ],
        "city": "TAMPA",
        "state": "FL",
        "postalCode": "33609-4056"
      },
      {
        "line": [
          "900 GRIFFIN RD"
        ],
        "city": "LAKELAND",
        "state": "FL",
        "postalCode": "33805-2442"
      },
      {
        "line": [
          "516 VONDERBURG DR"
        ],
        "city": "BRANDON",
        "state": "FL",
        "postalCode": "33511-5954"
      },
      {
        "line": [
          "1247 LAKELAND HILLS BLVD"
        ],
        "city": "LAKELAND",
        "state": "FL",
        "postalCode": "33805-4673"
      }
    ],
    "extension": [
      {
        "url": "https://fhir.athena.io/StructureDefinition/ah-practice",
        "valueReference": {
          "reference": "Organization/a-1.Practice-29751"
        }
      },
      {
        "url": "https://fhir.athena.io/StructureDefinition/ah-brand",
        "valueReference": {
          "reference": "Organization/a-29751.Brand-1"
        }
      }
    ]
  },
  "fullUrl": "urn:uuid:8e7208b8-944f-5bf8-8ca7-7886f9be11e3"
}