{
  "resource": {
    "resourceType": "Organization",
    "id": "2795f34a-a519-5645-b5cb-a2b70ce1b0a1",
    "name": "Pottstown Radiology",
    "endpoint": [
      {
        "reference": "Endpoint/27a4e967-47aa-5a9c-a572-b8297ee268a2"
      },
      {
        "reference": "Endpoint/d3598ba4-e387-5acb-9dc7-75c0c75c0dfe"
      }
    ],
    "identifier": [
      {
        "system": "http://hl7.org/fhir/sid/us-npi",
        "value": "1649341934"
      }
    ],
    "address": [
      {
        "line": [
          "3471 CHEECHAKO DR"
        ],
        "city": "RENO",
        "state": "NV",
        "postalCode": "89519-8018"
      },
      {
        "line": [
          "5456 WOLVERINE TER"
        ],
        "city": "POTTSTOWN",
        "state": "PA",
        "postalCode": "19464-5008"
      },
      {
        "line": [
          "510 14TH ST"
        ],
        "city": "SAINT AUGUSTINE",
        "state": "FL",
        "postalCode": "32084-1507"
      },
      {
        "line": [
          "1278 BRIDGEPOINTE DR"
        ],
        "city": "COLLIERVILLE",
        "state": "TN",
        "postalCode": "38017-4513"
      },
      {
        "line": [
          "12 HARVEST LN"
        ],
        "city": "HOCKESSIN",
        "state": "DE",
        "postalCode": "19707-2080"
      },
      {
        "line": [
          "23011 TIAGUA"
        ],
        "city": "MISSION VIEJO",
        "state": "CA",
        "postalCode": "92692-1434"
      },
      {
        "line": [
          "11995 SINGLETREE LN SUITE 500"
        ],
        "city": "EDEN PRAIRIE",
        "state": "MN",
        "postalCode": "55344-5347"
      },
      {
        "line": [
          "4142 Randall Court NW"
        ],
        "city": "ATLANTA",
        "state": "GA",
        "postalCode": "30327-3711"
      },
      {
        "line": [
          "115 Middle Park Court"
        ],
        "city": "SILVERTHORNE",
        "state": "CO",
        "postalCode": "80498-9998"
      },
      {
        "line": [
          "5456 WOLVERINE TER"
        ],
        "city": "CARLSBAD",
        "state": "CA",
        "postalCode": "92010-7159"
      },
      {
        "line": [
          "239 GREENE ST"
        ],
        "city": "MILL VALLEY",
        "state": "CA",
        "postalCode": "94941-3516"
      }
    ],
    "extension": [
      {
        "url": "https://fhir.athena.io/StructureDefinition/ah-practice",
        "valueReference": {
          "reference": "Organization/a-1.Practice-1916"
        }
      },
      {
        "url": "https://fhir.athena.io/StructureDefinition/ah-brand",
        "valueReference": {
          "reference": "Organization/a-1916.Brand-4"
        }
      }
    ]
  },
  "fullUrl": "urn:uuid:2795f34a-a519-5645-b5cb-a2b70ce1b0a1"
}