{
  "resource": {
    "resourceType": "Organization",
    "id": "6b1fdf7b-8091-5930-99c7-c4c9d66a0773",
    "name": "Harbor Health",
    "endpoint": [
      {
        "reference": "Endpoint/27a4e967-47aa-5a9c-a572-b8297ee268a2"
      },
      {
        "reference": "Endpoint/ccb43a87-ef1d-52f1-902d-01b8803b54da"
      }
    ],
    "identifier": [
      {
        "system": "http://hl7.org/fhir/sid/us-npi",
        "value": "1396486619"
      }
    ],
    "address": [
      {
        "line": [
          "511 OAKWOOD BLVD",
          "SUITE 200"
        ],
        "city": "ROUND ROCK",
        "state": "TX",
        "postalCode": "78681-4068"
      },
      {
        "line": [
          "4879 WILLIAMS DR STE 103"
        ],
        "city": "GEORGETOWN",
        "state": "TX",
        "postalCode": "78633-2436"
      },
      {
        "line": [
          "3200 RED RIVER ST",
          "SUITE 201"
        ],
        "city": "AUSTIN",
        "state": "TX",
        "postalCode": "78705-2655"
      },
      {
        "line": [
          "2200 PARK BEND DR",
          "BLDG 2, SUITE 300"
        ],
        "city": "AUSTIN",
        "state": "TX",
        "postalCode": "78758-5387"
      },
      {
        "line": [
          "701 E FM 1626",
          "SUITE 100"
        ],
        "city": "AUSTIN",
        "state": "TX",
        "postalCode": "78748-2656"
      },
      {
        "line": [
          "701 E FM 1626 STE 100"
        ],
        "city": "AUSTIN",
        "state": "TX",
        "postalCode": "78748-2656"
      },
      {
        "line": [
          "455 UNIVERSITY BLVD",
          "SUITE 400"
        ],
        "city": "ROUND ROCK",
        "state": "TX",
        "postalCode": "78665-1076"
      },
      {
        "line": [
          "507 CALLES ST",
          "STE 100"
        ],
        "city": "AUSTIN",
        "state": "TX",
        "postalCode": "78702-3956"
      },
      {
        "line": [
          "3200 RED RIVER ST STE 201"
        ],
        "city": "AUSTIN",
        "state": "TX",
        "postalCode": "78705-2655"
      },
      {
        "line": [
          "2200 PARK BEND DR",
          "BLDG 2, SUITE 204"
        ],
        "city": "AUSTIN",
        "state": "TX",
        "postalCode": "78758-5387"
      },
      {
        "line": [
          "500 CAPITAL OF TEXAS HWY N RESERVE 6",
          "SUITE 125"
        ],
        "city": "AUSTIN",
        "state": "TX",
        "postalCode": "78746-3302"
      }
    ],
    "extension": [
      {
        "url": "https://fhir.athena.io/StructureDefinition/ah-practice",
        "valueReference": {
          "reference": "Organization/a-1.Practice-28292"
        }
      },
      {
        "url": "https://fhir.athena.io/StructureDefinition/ah-brand",
        "valueReference": {
          "reference": "Organization/a-28292.Brand-1"
        }
      }
    ]
  },
  "fullUrl": "urn:uuid:6b1fdf7b-8091-5930-99c7-c4c9d66a0773"
}