{
  "resource": {
    "resourceType": "Organization",
    "id": "d78c63b6-91de-5f48-8207-e373ce801756",
    "name": "YMCA of Greater Louisville",
    "endpoint": [
      {
        "reference": "Endpoint/27a4e967-47aa-5a9c-a572-b8297ee268a2"
      },
      {
        "reference": "Endpoint/abb5f7d5-468e-5806-be46-fb2282afef02"
      }
    ],
    "identifier": [
      {
        "system": "http://hl7.org/fhir/sid/us-npi",
        "value": "1912054602"
      }
    ],
    "address": [
      {
        "line": [
          "2215 Portland Ave."
        ],
        "city": "LOUISVILLE",
        "state": "KY",
        "postalCode": "40212-1033"
      },
      {
        "line": [
          "234 E Gray St"
        ],
        "city": "LOUISVILLE",
        "state": "KY",
        "postalCode": "40202-1900"
      },
      {
        "line": [
          "409 Joe B Hall Avenue",
          "PO Box 846"
        ],
        "city": "SHEPHERDSVILLE",
        "state": "KY",
        "postalCode": "40165-8069"
      },
      {
        "line": [
          "2002 Papa Johns Blvd"
        ],
        "city": "LOUISVILLE",
        "state": "KY",
        "postalCode": "40299-3393"
      },
      {
        "line": [
          "1 Audubon Plaza Dr."
        ],
        "city": "LOUISVILLE",
        "state": "KY",
        "postalCode": "40217-1318"
      },
      {
        "line": [
          "2722 Crittenden Drive"
        ],
        "city": "LOUISVILLE",
        "state": "KY",
        "postalCode": "40209-1114"
      },
      {
        "line": [
          "9400 Mill Brook Rd"
        ],
        "city": "LOUISVILLE",
        "state": "KY",
        "postalCode": "40223-4000"
      },
      {
        "line": [
          "5930 Six Mile Ln"
        ],
        "city": "LOUISVILLE",
        "state": "KY",
        "postalCode": "40218-2668"
      },
      {
        "line": [
          "12330 Shelbyville Road"
        ],
        "city": "LOUISVILLE",
        "state": "KY",
        "postalCode": "40243-1471"
      },
      {
        "line": [
          "20 Quality Place"
        ],
        "city": "BUCKNER",
        "state": "KY",
        "postalCode": "40010-9501"
      },
      {
        "line": [
          "914 E. Broadway"
        ],
        "city": "LOUISVILLE",
        "state": "KY",
        "postalCode": "40204-1037"
      },
      {
        "line": [
          "33 State St"
        ],
        "city": "NEW ALBANY",
        "state": "IN",
        "postalCode": "47150-5804"
      },
      {
        "line": [
          "930 W Chestnut St"
        ],
        "city": "LOUISVILLE",
        "state": "KY",
        "postalCode": "40203-2008"
      },
      {
        "line": [
          "2800 Fordhaven Rd"
        ],
        "city": "LOUISVILLE",
        "state": "KY",
        "postalCode": "40214-3960"
      },
      {
        "line": [
          "908 W Broadway"
        ],
        "city": "LOUISVILLE",
        "state": "KY",
        "postalCode": "40203-2029"
      },
      {
        "line": [
          "555 S 2nd St."
        ],
        "city": "LOUISVILLE",
        "state": "KY",
        "postalCode": "40202-1801"
      },
      {
        "line": [
          "4812 Hamburg Pike"
        ],
        "city": "JEFFERSONVILLE",
        "state": "IN",
        "postalCode": "47130-9209"
      },
      {
        "line": [
          "545 South 2nd Street"
        ],
        "city": "LOUISVILLE",
        "state": "KY",
        "postalCode": "40202-1801"
      },
      {
        "line": [
          "1930 Bishop Lane"
        ],
        "city": "LOUISVILLE",
        "state": "KY",
        "postalCode": "40218-1921"
      },
      {
        "line": [
          "9400 Brownsboro Rd."
        ],
        "city": "LOUISVILLE",
        "state": "KY",
        "postalCode": "40241-1118"
      }
    ],
    "extension": [
      {
        "url": "https://fhir.athena.io/StructureDefinition/ah-practice",
        "valueReference": {
          "reference": "Organization/a-1.Practice-14268"
        }
      },
      {
        "url": "https://fhir.athena.io/StructureDefinition/ah-brand",
        "valueReference": {
          "reference": "Organization/a-14268.Brand-1"
        }
      }
    ]
  },
  "fullUrl": "urn:uuid:d78c63b6-91de-5f48-8207-e373ce801756"
}