{
  "resource": {
    "resourceType": "Organization",
    "id": "8b337b99-40e9-57e8-b86f-581026aef55f",
    "name": "Great Falls Clinic, LLP",
    "endpoint": [
      {
        "reference": "Endpoint/27a4e967-47aa-5a9c-a572-b8297ee268a2"
      },
      {
        "reference": "Endpoint/49591e46-3143-585d-b23a-b3ef600beb0e"
      }
    ],
    "identifier": [
      {
        "system": "http://hl7.org/fhir/sid/us-npi",
        "value": "1801897780"
      }
    ],
    "address": [
      {
        "line": [
          "640 Park Avenue"
        ],
        "city": "SHELBY",
        "state": "MT",
        "postalCode": "59474-1663"
      },
      {
        "line": [
          "1600 Division Road"
        ],
        "city": "GREAT FALLS",
        "state": "MT",
        "postalCode": "59403-5353"
      },
      {
        "line": [
          "3000 15th Ave S"
        ],
        "city": "GREAT FALLS",
        "state": "MT",
        "postalCode": "59404-5240"
      },
      {
        "line": [
          "3000 15th Ave S"
        ],
        "city": "GREAT FALLS",
        "state": "MT",
        "postalCode": "59405-5240"
      },
      {
        "line": [
          "2525 Broadway",
          "Suite 200"
        ],
        "city": "HELENA",
        "state": "MT",
        "postalCode": "59601-2323"
      },
      {
        "line": [
          "1400 29 St South"
        ],
        "city": "GREAT FALLS",
        "state": "MT",
        "postalCode": "59405-5353"
      },
      {
        "line": [
          "3000 15th Avenue South"
        ],
        "city": "GREAT FALLS",
        "state": "MT",
        "postalCode": "59405-5353"
      },
      {
        "line": [
          "Patient Home"
        ],
        "city": "GREAT FALLS",
        "state": "MT",
        "postalCode": "59405-5012"
      },
      {
        "line": [
          "3000 15th Ave S"
        ],
        "city": "GREAT FALLS",
        "state": "MT",
        "postalCode": "59405-8383"
      },
      {
        "line": [
          "3000 15 Ave South"
        ],
        "city": "GREAT FALLS",
        "state": "MT",
        "postalCode": "59405-5353"
      },
      {
        "line": [
          "1400 29th Street South"
        ],
        "city": "GREAT FALLS",
        "state": "MT",
        "postalCode": "59405-5353"
      },
      {
        "line": [
          "1101 26th Street South"
        ],
        "city": "GREAT FALLS",
        "state": "MT",
        "postalCode": "59405-5161"
      }
    ],
    "extension": [
      {
        "url": "https://fhir.athena.io/StructureDefinition/ah-practice",
        "valueReference": {
          "reference": "Organization/a-1.Practice-10733"
        }
      },
      {
        "url": "https://fhir.athena.io/StructureDefinition/ah-brand",
        "valueReference": {
          "reference": "Organization/a-10733.Brand-1"
        }
      }
    ]
  },
  "fullUrl": "urn:uuid:8b337b99-40e9-57e8-b86f-581026aef55f"
}