{
  "resource": {
    "resourceType": "Organization",
    "id": "bcfdeb98-e73b-5045-a03c-2bfdcde444ff",
    "name": "HOLZER HEALTH SYSTEM",
    "endpoint": [
      {
        "reference": "Endpoint/27a4e967-47aa-5a9c-a572-b8297ee268a2"
      },
      {
        "reference": "Endpoint/6a6cb178-27e9-50c2-894f-49bc20301648"
      }
    ],
    "identifier": [
      {
        "system": "http://hl7.org/fhir/sid/us-npi",
        "value": "1508817248"
      }
    ],
    "address": [
      {
        "line": [
          "100 JACKSON PIKE"
        ],
        "city": "GALLIPOLIS",
        "state": "OH",
        "postalCode": "45631-1560"
      },
      {
        "line": [
          "280 PATTONSVILLE ROAD"
        ],
        "city": "JACKSON",
        "state": "OH",
        "postalCode": "45640-9452"
      },
      {
        "line": [
          "2131 E STATE ST"
        ],
        "city": "ATHENS",
        "state": "OH",
        "postalCode": "45701-2138"
      },
      {
        "line": [
          "9345 STATE ROUTE 218"
        ],
        "city": "CROWN CITY",
        "state": "OH",
        "postalCode": "45623-9270"
      },
      {
        "line": [
          "18 LOCUST STREET"
        ],
        "city": "GALLIPOLIS",
        "state": "OH",
        "postalCode": "45631-1251"
      },
      {
        "line": [
          "75 REBEL DRIVE"
        ],
        "city": "CROWN CITY",
        "state": "OH",
        "postalCode": "45623-8000"
      },
      {
        "line": [
          "2111 E STATE ST",
          "SUITE 250"
        ],
        "city": "ATHENS",
        "state": "OH",
        "postalCode": "45701-2138"
      },
      {
        "line": [
          "68 SYCAMORE STREET"
        ],
        "city": "GALLIPOLIS",
        "state": "OH",
        "postalCode": "45631-1560"
      },
      {
        "line": [
          "6015 AYERS RD, STE 100"
        ],
        "city": "ALBANY",
        "state": "OH",
        "postalCode": "45710-8712"
      },
      {
        "line": [
          "351 BUCKEYE HILLS ROAD"
        ],
        "city": "THURMAN",
        "state": "OH",
        "postalCode": "45685-9382"
      },
      {
        "line": [
          "100 Jackson Pike"
        ],
        "city": "GALLIPOLIS",
        "state": "OH",
        "postalCode": "45631-1022"
      },
      {
        "line": [
          "340 4TH AVENUE"
        ],
        "city": "GALLIPOLIS",
        "state": "OH",
        "postalCode": "45631-1109"
      },
      {
        "line": [
          "100 Jackson Pike"
        ],
        "city": "GALLIPOLIS",
        "state": "OH",
        "postalCode": "45631-1560"
      },
      {
        "line": [
          "4384 STATE ROUTE 325 SOUTH"
        ],
        "city": "PATRIOT",
        "state": "OH",
        "postalCode": "45658-8960"
      },
      {
        "line": [
          "113 CENTENARY CHURCH ROAD"
        ],
        "city": "GALLIPOLIS",
        "state": "OH",
        "postalCode": "45631-9001"
      },
      {
        "line": [
          "2855 CENTENARY ROAD"
        ],
        "city": "GALLIPOLIS",
        "state": "OH",
        "postalCode": "45631-9129"
      },
      {
        "line": [
          "8779 STATE ROUTE 160"
        ],
        "city": "BIDWELL",
        "state": "OH",
        "postalCode": "45614-9010"
      },
      {
        "line": [
          "101 MARKHAM DR"
        ],
        "city": "JACKSON",
        "state": "OH",
        "postalCode": "45640-8697"
      },
      {
        "line": [
          "450 FOURHT AVENUE"
        ],
        "city": "GALLIPOLIS",
        "state": "OH",
        "postalCode": "45631-1111"
      },
      {
        "line": [
          "2923 CENTENARY ROAD"
        ],
        "city": "GALLIPOLIS",
        "state": "OH",
        "postalCode": "45631-9129"
      },
      {
        "line": [
          "55 REBEL DRIVE"
        ],
        "city": "CROWN CITY",
        "state": "OH",
        "postalCode": "45623-8000"
      },
      {
        "line": [
          "123 KEYSTONE ROAD"
        ],
        "city": "VINTON",
        "state": "OH",
        "postalCode": "45686-9074"
      },
      {
        "line": [
          "8785 STATE ROUTE 160"
        ],
        "city": "BIDWELL",
        "state": "OH",
        "postalCode": "45614-9106"
      },
      {
        "line": [
          "439 LAKE DRIVE"
        ],
        "city": "RIO GRANDE",
        "state": "OH",
        "postalCode": "45674-7544"
      },
      {
        "line": [
          "41861 POMEROY PIKE"
        ],
        "city": "POMEROY",
        "state": "OH",
        "postalCode": "45769-9569"
      },
      {
        "line": [
          "1333 BRICK SCHOOL ROAD"
        ],
        "city": "GALLIPOLIS",
        "state": "OH",
        "postalCode": "45631-8782"
      },
      {
        "line": [
          "300 BRIARWOOD RD"
        ],
        "city": "GALLIPOLIS",
        "state": "OH",
        "postalCode": "45631-8419"
      },
      {
        "line": [
          "500 BURLINGTON RD"
        ],
        "city": "JACKSON",
        "state": "OH",
        "postalCode": "45640-9360"
      }
    ],
    "extension": [
      {
        "url": "https://fhir.athena.io/StructureDefinition/ah-practice",
        "valueReference": {
          "reference": "Organization/a-1.Practice-17389"
        }
      },
      {
        "url": "https://fhir.athena.io/StructureDefinition/ah-brand",
        "valueReference": {
          "reference": "Organization/a-17389.Brand-1"
        }
      }
    ]
  },
  "fullUrl": "urn:uuid:bcfdeb98-e73b-5045-a03c-2bfdcde444ff"
}