{
  "resource": {
    "resourceType": "Organization",
    "id": "03e59a47-135e-5797-a05d-bb8eb9b8cede",
    "name": "BetterMed Clinical Laboratory",
    "endpoint": [
      {
        "reference": "Endpoint/27a4e967-47aa-5a9c-a572-b8297ee268a2"
      },
      {
        "reference": "Endpoint/615373ef-e8b8-5b89-99cd-3b717b128558"
      }
    ],
    "identifier": [
      {
        "system": "http://hl7.org/fhir/sid/us-npi",
        "value": "1598020679"
      },
      {
        "system": "http://hl7.org/fhir/sid/us-npi",
        "value": "1548702616"
      },
      {
        "system": "http://hl7.org/fhir/sid/us-npi",
        "value": "1043955719"
      },
      {
        "system": "http://hl7.org/fhir/sid/us-npi",
        "value": "1992138820"
      },
      {
        "system": "http://hl7.org/fhir/sid/us-npi",
        "value": "1144887324"
      }
    ],
    "address": [
      {
        "line": [
          "12214 W Broad Street"
        ],
        "city": "HENRICO",
        "state": "VA",
        "postalCode": "23233-1062"
      },
      {
        "line": [
          "1380 N. Parham Road"
        ],
        "city": "HENRICO",
        "state": "VA",
        "postalCode": "23229-5742"
      },
      {
        "line": [
          "12214 W. Broad Street"
        ],
        "city": "HENRICO",
        "state": "VA",
        "postalCode": "23233-1062"
      },
      {
        "line": [
          "6296 Mechanicsville Turnpike"
        ],
        "city": "MECHANICSVILLE",
        "state": "VA",
        "postalCode": "23111-4577"
      },
      {
        "line": [
          "300 N WASHINGTON HWY"
        ],
        "city": "ASHLAND",
        "state": "VA",
        "postalCode": "23005-1626"
      },
      {
        "line": [
          "1431 South boulevard"
        ],
        "city": "CHARLOTTE",
        "state": "NC",
        "postalCode": "28203-4211"
      },
      {
        "line": [
          "5215 W. Broad St"
        ],
        "city": "RICHMOND",
        "state": "VA",
        "postalCode": "23230-3009"
      },
      {
        "line": [
          "10004 SouthPoint Pkwy"
        ],
        "city": "FREDERICKSBURG",
        "state": "VA",
        "postalCode": "22407-2700"
      },
      {
        "line": [
          "1431 South Boulevard"
        ],
        "city": "CHARLOTTE",
        "state": "NC",
        "postalCode": "28203-4211"
      },
      {
        "line": [
          "6100 Harbourside Centre Loop"
        ],
        "city": "MIDLOTHIAN",
        "state": "VA",
        "postalCode": "23112-2140"
      },
      {
        "line": [
          "6100 HARBOURSIDE CENTRE LOOP"
        ],
        "city": "MIDLOTHIAN",
        "state": "VA",
        "postalCode": "23112-2140"
      },
      {
        "line": [
          "4600 Puddledock Rd"
        ],
        "city": "PRINCE GEORGE",
        "state": "VA",
        "postalCode": "23875-1235"
      },
      {
        "line": [
          "300 N Washington Hwy"
        ],
        "city": "ASHLAND",
        "state": "VA",
        "postalCode": "23005-1626"
      },
      {
        "line": [
          "11380 Iron Creek Rd"
        ],
        "city": "CHESTER",
        "state": "VA",
        "postalCode": "23831-1488"
      },
      {
        "line": [
          " 6296 Mechanicsville Turnpike"
        ],
        "city": "MECHANICSVILLE",
        "state": "VA",
        "postalCode": "23111-2140"
      },
      {
        "line": [
          "4901 Plank Road"
        ],
        "city": "FREDERICKSBURG",
        "state": "VA",
        "postalCode": "22407-6626"
      },
      {
        "line": [
          "2304 Matthews Township Parkway",
          "Suite 104"
        ],
        "city": "MATTHEWS",
        "state": "NC",
        "postalCode": "28105-2311"
      },
      {
        "line": [
          "6100 harbourside centre loop"
        ],
        "city": "Midlothian",
        "state": "VA",
        "postalCode": "23112-2140"
      }
    ],
    "extension": [
      {
        "url": "https://fhir.athena.io/StructureDefinition/ah-practice",
        "valueReference": {
          "reference": "Organization/a-1.Practice-14171"
        }
      },
      {
        "url": "https://fhir.athena.io/StructureDefinition/ah-brand",
        "valueReference": {
          "reference": "Organization/a-14171.Brand-1"
        }
      }
    ]
  },
  "fullUrl": "urn:uuid:03e59a47-135e-5797-a05d-bb8eb9b8cede"
}