{
  "resource": {
    "resourceType": "Organization",
    "id": "7d39b134-b008-5de1-ae89-bcc8b2a81b3a",
    "name": "David Ghozland and Associates",
    "endpoint": [
      {
        "reference": "Endpoint/27a4e967-47aa-5a9c-a572-b8297ee268a2"
      },
      {
        "reference": "Endpoint/af8d8f46-f054-5708-855e-9fede56a85ca"
      }
    ],
    "identifier": [
      {
        "system": "http://hl7.org/fhir/sid/us-npi",
        "value": "1770755423"
      }
    ],
    "address": [
      {
        "line": [
          "4650 Lincoln Blvd"
        ],
        "city": "MARINA DEL REY",
        "state": "CA",
        "postalCode": "90292-6306"
      },
      {
        "line": [
          "11645 WILSHIRE BLVD 987"
        ],
        "city": "LOS ANGELES",
        "state": "CA",
        "postalCode": "90025-6814"
      },
      {
        "line": [
          "1125 South Beverly Dr.",
          "Suite 505"
        ],
        "city": "LOS ANGELES",
        "state": "CA",
        "postalCode": "90035-1183"
      },
      {
        "line": [
          "2701 W ALAMEDA AVE STE 308"
        ],
        "city": "BURBANK",
        "state": "CA",
        "postalCode": "91505-4408"
      },
      {
        "line": [
          "11645 Wilshire Blvd",
          "Suite 905"
        ],
        "city": "LOS ANGELES",
        "state": "CA",
        "postalCode": "90025-6814"
      },
      {
        "line": [
          "11645 WILSHIRE BLVD",
          "STE 905"
        ],
        "city": "LOS ANGELES",
        "state": "CA",
        "postalCode": "90025-6814"
      },
      {
        "line": [
          "2121 SANTA MONICA BLVD."
        ],
        "city": "SANTA MONICA",
        "state": "CA",
        "postalCode": "90404-2012"
      },
      {
        "line": [
          "1551 Ocean Ave Suite #200"
        ],
        "city": "SANTA MONICA",
        "state": "CA",
        "postalCode": "90401-2110"
      }
    ],
    "extension": [
      {
        "url": "https://fhir.athena.io/StructureDefinition/ah-practice",
        "valueReference": {
          "reference": "Organization/a-1.Practice-14519"
        }
      },
      {
        "url": "https://fhir.athena.io/StructureDefinition/ah-brand",
        "valueReference": {
          "reference": "Organization/a-14519.Brand-2"
        }
      }
    ]
  },
  "fullUrl": "urn:uuid:7d39b134-b008-5de1-ae89-bcc8b2a81b3a"
}