{
  "resource": {
    "resourceType": "Organization",
    "id": "2ccab3a0-0aca-54d8-a671-844da79f5290",
    "name": "Abbington",
    "endpoint": [
      {
        "reference": "Endpoint/27a4e967-47aa-5a9c-a572-b8297ee268a2"
      },
      {
        "reference": "Endpoint/283949c8-49ba-5b35-b88a-1210f6a55a47"
      }
    ],
    "identifier": [
      {
        "system": "http://hl7.org/fhir/sid/us-npi",
        "value": "1073787537"
      },
      {
        "system": "urn:oid:2.16.840.1.113883.4.7",
        "value": "36D1081387"
      }
    ],
    "address": [
      {
        "line": [
          "100 Willow Brook Way"
        ],
        "city": "DELAWARE",
        "state": "OH",
        "postalCode": "43015-3249"
      },
      {
        "line": [
          "36 Lehman Dr"
        ],
        "city": "Canal Winchester",
        "state": "OH",
        "postalCode": "43110-1006"
      },
      {
        "line": [],
        "city": "WATERTOWN",
        "state": "MA",
        "postalCode": "02472-9997"
      },
      {
        "line": [
          "401 Hill Rd."
        ],
        "city": "PICKERINGTON",
        "state": "OH",
        "postalCode": "43147-1299"
      },
      {
        "line": [
          "1834 Countryside Drive"
        ],
        "city": "LANCASTER",
        "state": "OH",
        "postalCode": "43130-1078"
      },
      {
        "line": [
          "8115 SUMMIT RD"
        ],
        "city": "REYNOLDSBURG",
        "state": "OH",
        "postalCode": "43068-1377"
      },
      {
        "line": [
          "935 N Cassady Ave"
        ],
        "city": "COLUMBUS",
        "state": "OH",
        "postalCode": "43219-2205"
      },
      {
        "line": [
          "935 N. Cassady Ave"
        ],
        "city": "COLUMBUS",
        "state": "OH",
        "postalCode": "43219-2205"
      },
      {
        "line": [
          "5201 Morse Road"
        ],
        "city": "COLUMBUS",
        "state": "OH",
        "postalCode": "43230-1369"
      },
      {
        "line": [
          "1565 London Ave"
        ],
        "city": "MARYSVILLE",
        "state": "OH",
        "postalCode": "43040-6890"
      },
      {
        "line": [
          "9480 Blacklick-Easterm rd"
        ],
        "city": "PICKERINGTON",
        "state": "OH",
        "postalCode": "43147-8854"
      }
    ],
    "extension": [
      {
        "url": "https://fhir.athena.io/StructureDefinition/ah-practice",
        "valueReference": {
          "reference": "Organization/a-1.Practice-1553"
        }
      },
      {
        "url": "https://fhir.athena.io/StructureDefinition/ah-brand",
        "valueReference": {
          "reference": "Organization/a-1553.Brand-1"
        }
      }
    ]
  },
  "fullUrl": "urn:uuid:2ccab3a0-0aca-54d8-a671-844da79f5290"
}