{
  "resource": {
    "resourceType": "Organization",
    "id": "17b59a63-2d94-5938-82af-38e82b0e90d2",
    "name": "OMNIPOINT SURGICAL ASSOCIATES LLC",
    "endpoint": [
      {
        "reference": "Endpoint/27a4e967-47aa-5a9c-a572-b8297ee268a2"
      },
      {
        "reference": "Endpoint/39c5b210-299c-540b-bb5c-bfddbd57a989"
      }
    ],
    "identifier": [
      {
        "system": "http://hl7.org/fhir/sid/us-npi",
        "value": "1306245162"
      }
    ],
    "address": [
      {
        "line": [
          "125 HOSPITAL DRIVE"
        ],
        "city": "WATERTOWN",
        "state": "WI",
        "postalCode": "53098-3303"
      },
      {
        "line": [
          "288 SOUTH RIDGECREST AVE"
        ],
        "city": "RUTHERFORDTON",
        "state": "NC",
        "postalCode": "28139-2838"
      },
      {
        "line": [
          "615 RIDGE ROAD"
        ],
        "city": "ROXBORO",
        "state": "NC",
        "postalCode": "27573-4629"
      },
      {
        "line": [
          "901 Lakeshore Drive"
        ],
        "city": "ISHPEMING",
        "state": "MI",
        "postalCode": "49849-1367"
      },
      {
        "line": [
          "2750 Laurel street suite 200"
        ],
        "city": "COLUMBIA",
        "state": "SC",
        "postalCode": "29204-2038"
      },
      {
        "line": [
          "6801 GOVERNOR GC PEERY HWY"
        ],
        "city": "RICHLANDS",
        "state": "VA",
        "postalCode": "24641-2194"
      },
      {
        "line": [
          "142 SOUTH MAIN STREET"
        ],
        "city": "DANVILLE",
        "state": "VA",
        "postalCode": "24541-2922"
      },
      {
        "line": [
          "68 HOSPITAL ROAD"
        ],
        "city": "SYLVA",
        "state": "NC",
        "postalCode": "28779-2722"
      },
      {
        "line": [
          "1086 FRANKLIN"
        ],
        "city": "JOHNSTOWN",
        "state": "PA",
        "postalCode": "15905-4035"
      },
      {
        "line": [
          "420 W MAGNETIC AVE"
        ],
        "city": "MARQUETTE",
        "state": "MI",
        "postalCode": "49855-9999"
      },
      {
        "line": [
          "262 LEROY GEORGE DRIVE"
        ],
        "city": "CLYDE",
        "state": "NC",
        "postalCode": "28721-7430"
      },
      {
        "line": [
          "37 Medical Park Loop",
          "Ste 103"
        ],
        "city": "SYLVA",
        "state": "NC",
        "postalCode": "28779-5277"
      },
      {
        "line": [
          "600 WEST RIDE ROAD"
        ],
        "city": "WYTHEVILLE",
        "state": "VA",
        "postalCode": "24382-9999"
      },
      {
        "line": [
          "500 HOSPITAL DRIVE"
        ],
        "city": "WARRENTON",
        "state": "VA",
        "postalCode": "20286-9999"
      },
      {
        "line": [
          "200 HOSPITAL DRIVE"
        ],
        "city": "GALAX",
        "state": "VA",
        "postalCode": "24333-9999"
      },
      {
        "line": [
          "320 HOSPITAL DRIVE"
        ],
        "city": "MARTINSVILLE",
        "state": "VA",
        "postalCode": "24112-9999"
      },
      {
        "line": [
          "1700 TARBORO STREET SW SUITE 100"
        ],
        "city": "WILSON",
        "state": "NC",
        "postalCode": "27893-3481"
      },
      {
        "line": [
          "1086 FRANKLIN"
        ],
        "city": "JOHNSTOWN",
        "state": "PA",
        "postalCode": "15905-4305"
      },
      {
        "line": [
          "566 RUIN CREEK ROAD"
        ],
        "city": "HENDERSON",
        "state": "NC",
        "postalCode": "27536-2927"
      },
      {
        "line": [
          "1100 E. Church Street"
        ],
        "city": "MARTINSVILLE",
        "state": "VA",
        "postalCode": "24112-3225"
      },
      {
        "line": [
          "500 HOSPITAL DRIVE"
        ],
        "city": "DANVILLE",
        "state": "VA",
        "postalCode": "20286-9999"
      },
      {
        "line": [
          "200 HOSPITAL DRIVE"
        ],
        "city": "Galax",
        "state": "VA",
        "postalCode": "24333-9999"
      },
      {
        "line": [
          "901 Lakeshore Drive"
        ],
        "city": "ISHPEMING",
        "state": "MI",
        "postalCode": "49849-1369"
      },
      {
        "line": [
          "320 HOSPITAL DRIVE"
        ],
        "city": "MARTINSVILLE",
        "state": "VA",
        "postalCode": "24112-1900"
      }
    ],
    "extension": [
      {
        "url": "https://fhir.athena.io/StructureDefinition/ah-practice",
        "valueReference": {
          "reference": "Organization/a-1.Practice-9600"
        }
      },
      {
        "url": "https://fhir.athena.io/StructureDefinition/ah-brand",
        "valueReference": {
          "reference": "Organization/a-9600.Brand-2"
        }
      }
    ]
  },
  "fullUrl": "urn:uuid:17b59a63-2d94-5938-82af-38e82b0e90d2"
}