{
  "resource": {
    "resourceType": "Organization",
    "id": "57d2cb9b-e724-54b9-84eb-13c7cc8c1388",
    "name": "BATON ROUGE GENERAL MEDICAL CENTER - BLUEBONNET",
    "endpoint": [
      {
        "reference": "Endpoint/27a4e967-47aa-5a9c-a572-b8297ee268a2"
      },
      {
        "reference": "Endpoint/7b877662-fc13-5920-99c7-3a2ed9a6b3d2"
      }
    ],
    "identifier": [
      {
        "system": "http://hl7.org/fhir/sid/us-npi",
        "value": "1568581213"
      }
    ],
    "address": [
      {
        "line": [
          "413 East Airport Avenue"
        ],
        "city": "BATON ROUGE",
        "state": "LA",
        "postalCode": "70806-4382"
      },
      {
        "line": [
          "8585 PICARDY AVE"
        ],
        "city": "BATON ROUGE",
        "state": "LA",
        "postalCode": "70809-3679"
      },
      {
        "line": [
          "299 Belle Terre Blvd.",
          "Suite E and Suite BB"
        ],
        "city": "LA PLACE",
        "state": "LA",
        "postalCode": "70068-2418"
      },
      {
        "line": [],
        "city": "PLAQUEMINE",
        "state": "LA",
        "postalCode": "70764-4431"
      },
      {
        "line": [
          "25073 Hwy 1 South"
        ],
        "city": "PLAQUEMINE",
        "state": "LA",
        "postalCode": "70764-4431"
      },
      {
        "line": [
          "8585 Picardy Ave"
        ],
        "city": "BATON ROUGE",
        "state": "LA",
        "postalCode": "70809-3748"
      },
      {
        "line": [
          "25073 Hwy 1"
        ],
        "city": "PLAQUEMINE",
        "state": "LA",
        "postalCode": "70764-5341"
      },
      {
        "line": [
          "801 Barrow Street",
          "Suite 301"
        ],
        "city": "HOUMA",
        "state": "LA",
        "postalCode": "70360-4764"
      },
      {
        "line": [
          "25073 HWY 1 SOUTH"
        ],
        "city": "PLAQUEMINE",
        "state": "LA",
        "postalCode": "70764-6552"
      },
      {
        "line": [
          "59213 RIVER WEST DRIVE"
        ],
        "city": "PLAQUEMINE",
        "state": "LA",
        "postalCode": "70764-6552"
      },
      {
        "line": [
          "10508 N Glenstone Pl"
        ],
        "city": "BATON ROUGE",
        "state": "LA",
        "postalCode": "70810-2838"
      }
    ],
    "extension": [
      {
        "url": "https://fhir.athena.io/StructureDefinition/ah-practice",
        "valueReference": {
          "reference": "Organization/a-1.Practice-14233"
        }
      },
      {
        "url": "https://fhir.athena.io/StructureDefinition/ah-brand",
        "valueReference": {
          "reference": "Organization/a-14233.Brand-1"
        }
      }
    ]
  },
  "fullUrl": "urn:uuid:57d2cb9b-e724-54b9-84eb-13c7cc8c1388"
}