{
  "resource": {
    "resourceType": "Organization",
    "id": "beef51fd-b79f-5d70-a287-4e18afb48cb5",
    "name": "Saint Marys Health Svcs",
    "endpoint": [
      {
        "reference": "Endpoint/27a4e967-47aa-5a9c-a572-b8297ee268a2"
      },
      {
        "reference": "Endpoint/b646eae2-dcb5-5dab-aace-addd15b24463"
      }
    ],
    "identifier": [
      {
        "system": "http://hl7.org/fhir/sid/us-npi",
        "value": "1639111057"
      },
      {
        "system": "http://hl7.org/fhir/sid/us-npi",
        "value": "1063917425"
      },
      {
        "system": "http://hl7.org/fhir/sid/us-npi",
        "value": "1528556750"
      },
      {
        "system": "http://hl7.org/fhir/sid/us-npi",
        "value": "1952340911"
      },
      {
        "system": "http://hl7.org/fhir/sid/us-npi",
        "value": "1154584373"
      },
      {
        "system": "http://hl7.org/fhir/sid/us-npi",
        "value": "1376862151"
      },
      {
        "system": "http://hl7.org/fhir/sid/us-npi",
        "value": "1962933416"
      },
      {
        "system": "http://hl7.org/fhir/sid/us-npi",
        "value": "1457863565"
      },
      {
        "system": "http://hl7.org/fhir/sid/us-npi",
        "value": "1245769744"
      },
      {
        "system": "http://hl7.org/fhir/sid/us-npi",
        "value": "1760599906"
      },
      {
        "system": "http://hl7.org/fhir/sid/us-npi",
        "value": "1447456173"
      },
      {
        "system": "http://hl7.org/fhir/sid/us-npi",
        "value": "1902002272"
      },
      {
        "system": "http://hl7.org/fhir/sid/us-npi",
        "value": "1538430533"
      },
      {
        "system": "http://hl7.org/fhir/sid/us-npi",
        "value": "1083014914"
      }
    ],
    "address": [
      {
        "line": [
          "200 JEFFERSON AVE SE"
        ],
        "city": "GRAND RAPIDS",
        "state": "MI",
        "postalCode": "49503-4502"
      },
      {
        "line": [
          "3290 N WELLNESS DR, STE 220"
        ],
        "city": "HOLLAND",
        "state": "MI",
        "postalCode": "49424-7261"
      },
      {
        "line": [
          "801 BROADWAY AVE NW"
        ],
        "city": "GRAND RAPIDS",
        "state": "MI",
        "postalCode": "49504-4462"
      },
      {
        "line": [
          "200 Jefferson Street SE"
        ],
        "city": "GRAND RAPIDS",
        "state": "MI",
        "postalCode": "49503-4502"
      },
      {
        "line": [
          "6050 NORTHLAND DR NE, STE 200"
        ],
        "city": "ROCKFORD",
        "state": "MI",
        "postalCode": "49341-9257"
      },
      {
        "line": [
          "200 Jefferson Ave SE"
        ],
        "city": "GRAND RAPIDS",
        "state": "MI",
        "postalCode": "49503-4502"
      },
      {
        "line": [
          "6741 Fulton ST E, STE 103"
        ],
        "city": "ADA",
        "state": "MI",
        "postalCode": "49301-9006"
      },
      {
        "line": [
          "933 3 MILE RD NW, STE 210"
        ],
        "city": "WALKER",
        "state": "MI",
        "postalCode": "49544-1673"
      },
      {
        "line": [
          "2373 64TH ST SW, STE 1300"
        ],
        "city": "BYRON CENTER",
        "state": "MI",
        "postalCode": "49315-7975"
      },
      {
        "line": [
          "2144 E PARIS AVE SE, STE 200"
        ],
        "city": "GRAND RAPIDS",
        "state": "MI",
        "postalCode": "49546-6126"
      },
      {
        "line": [
          "2144  E PARIS AVE SE STE 200"
        ],
        "city": "GRAND RAPIDS",
        "state": "MI",
        "postalCode": "49546-6126"
      },
      {
        "line": [
          "1175 WILSON AVE NW"
        ],
        "city": "WALKER",
        "state": "MI",
        "postalCode": "49534-6407"
      },
      {
        "line": [
          "6741 Fulton ST E, STE 202"
        ],
        "city": "ADA",
        "state": "MI",
        "postalCode": "49301-9006"
      },
      {
        "line": [
          "1471 E BELTLINE AVE NE, STE 101"
        ],
        "city": "GRAND RAPIDS",
        "state": "MI",
        "postalCode": "49525-4548"
      },
      {
        "line": [
          "2080 44TH ST SE"
        ],
        "city": "KENTWOOD",
        "state": "MI",
        "postalCode": "49508-5299"
      },
      {
        "line": [
          "3380 44TH ST SW"
        ],
        "city": "GRANDVILLE",
        "state": "MI",
        "postalCode": "49418-2461"
      },
      {
        "line": [
          "6741 Fulton St E, STE 201"
        ],
        "city": "ADA",
        "state": "MI",
        "postalCode": "49301-9006"
      }
    ],
    "extension": [
      {
        "url": "https://fhir.athena.io/StructureDefinition/ah-practice",
        "valueReference": {
          "reference": "Organization/a-1.Practice-11692"
        }
      },
      {
        "url": "https://fhir.athena.io/StructureDefinition/ah-brand",
        "valueReference": {
          "reference": "Organization/a-11692.Brand-1"
        }
      }
    ]
  },
  "fullUrl": "urn:uuid:beef51fd-b79f-5d70-a287-4e18afb48cb5"
}