{
  "resource": {
    "resourceType": "Organization",
    "id": "9be2ef2c-9252-5abb-9a9e-726c8c7adee8",
    "name": "THE UROLOGY CENTER, PC",
    "endpoint": [
      {
        "reference": "Endpoint/27a4e967-47aa-5a9c-a572-b8297ee268a2"
      },
      {
        "reference": "Endpoint/41107459-3b33-5de1-9584-0d1ecb99bd79"
      }
    ],
    "identifier": [
      {
        "system": "http://hl7.org/fhir/sid/us-npi",
        "value": "1114919875"
      }
    ],
    "address": [
      {
        "line": [
          "6901 N 72ND ST"
        ],
        "city": "OMAHA",
        "state": "NE",
        "postalCode": "68122-1709"
      },
      {
        "line": [
          "4102 WOOLWORTH"
        ],
        "city": "OMAHA",
        "state": "NE",
        "postalCode": "68105-1851"
      },
      {
        "line": [
          "4600 38TH STREET"
        ],
        "city": "COLUMBUS",
        "state": "NE",
        "postalCode": "68601-1664"
      },
      {
        "line": [
          "16901 LAKESIDE HILLS COURT"
        ],
        "city": "OMAHA",
        "state": "NE",
        "postalCode": "68130-2318"
      },
      {
        "line": [
          "7500 MERCY ROAD"
        ],
        "city": "OMAHA",
        "state": "NE",
        "postalCode": "68124-2319"
      },
      {
        "line": [
          "6901 N 72ND STREET"
        ],
        "city": "OMAHA",
        "state": "NE",
        "postalCode": "68122-1709"
      },
      {
        "line": [
          "8200 DODGE STREET"
        ],
        "city": "OMAHA",
        "state": "NE",
        "postalCode": "68114-4113"
      },
      {
        "line": [
          "8300 DODGE STREET"
        ],
        "city": "OMAHA",
        "state": "NE",
        "postalCode": "68114-4108"
      },
      {
        "line": [
          "1540 N 72ND STREET"
        ],
        "city": "OMAHA",
        "state": "NE",
        "postalCode": "68114-1924"
      },
      {
        "line": [
          "555 N 30TH STREET"
        ],
        "city": "OMAHA",
        "state": "NE",
        "postalCode": "68131-2136"
      },
      {
        "line": [
          "8303 DODGE STREET"
        ],
        "city": "OMAHA",
        "state": "NE",
        "postalCode": "68114-4108"
      },
      {
        "line": [
          "4101 WOOLWORTH"
        ],
        "city": "OMAHA",
        "state": "NE",
        "postalCode": "68105-1851"
      },
      {
        "line": [
          "603 ROSARY DR"
        ],
        "city": "CORNING",
        "state": "IA",
        "postalCode": "50841-1683"
      },
      {
        "line": [
          "2301 EASTERN AVE"
        ],
        "city": "RED OAK",
        "state": "IA",
        "postalCode": "51566-1300"
      },
      {
        "line": [
          "14000 HOSPITAL RD"
        ],
        "city": "BOYS TOWN",
        "state": "NE",
        "postalCode": "68010-7513"
      },
      {
        "line": [
          "220 ESSIE DAVISON DR"
        ],
        "city": "CLARINDA",
        "state": "IA",
        "postalCode": "51632-2625"
      },
      {
        "line": [
          "2500 BELLEVUE MEDICAL CENTER"
        ],
        "city": "BELLEVUE",
        "state": "NE",
        "postalCode": "68123-1591"
      },
      {
        "line": [
          "707 N 190TH PLAZA"
        ],
        "city": "ELKHORN",
        "state": "NE",
        "postalCode": "68022-3974"
      },
      {
        "line": [
          "300 PERSHING AVENUE"
        ],
        "city": "SHENANDOAH",
        "state": "IA",
        "postalCode": "51601-2355"
      },
      {
        "line": [
          "600 S 42ND STREET"
        ],
        "city": "OMAHA",
        "state": "NE",
        "postalCode": "68198-1002"
      },
      {
        "line": [
          "11111 SO 84TH STREET"
        ],
        "city": "PAPILLION",
        "state": "NE",
        "postalCode": "68046-4122"
      },
      {
        "line": [
          "601 NORTH 30TH STREET"
        ],
        "city": "OMAHA",
        "state": "NE",
        "postalCode": "68131-2137"
      },
      {
        "line": [
          "7915 FARNAM DRIVE"
        ],
        "city": "OMAHA",
        "state": "NE",
        "postalCode": "68114-4504"
      },
      {
        "line": [
          "2808 S 143RD PLAZA"
        ],
        "city": "OMAHA",
        "state": "NE",
        "postalCode": "68144-5611"
      },
      {
        "line": [
          "16901 LAKESIDE HILS COURT"
        ],
        "city": "OMAHA",
        "state": "NE",
        "postalCode": "68130-2318"
      },
      {
        "line": [
          "304 N. 179TH STREET",
          "SUITE 204"
        ],
        "city": "OMAHA",
        "state": "NE",
        "postalCode": "68130-4661"
      },
      {
        "line": [
          "14000 BOYSTOWN HOSPITAL RD"
        ],
        "city": "BOYS TOWN",
        "state": "NE",
        "postalCode": "68010-7513"
      }
    ],
    "extension": [
      {
        "url": "https://fhir.athena.io/StructureDefinition/ah-practice",
        "valueReference": {
          "reference": "Organization/a-1.Practice-7144"
        }
      },
      {
        "url": "https://fhir.athena.io/StructureDefinition/ah-brand",
        "valueReference": {
          "reference": "Organization/a-7144.Brand-1"
        }
      }
    ]
  },
  "fullUrl": "urn:uuid:9be2ef2c-9252-5abb-9a9e-726c8c7adee8"
}