{
  "resource": {
    "resourceType": "Organization",
    "id": "154d3165-c9e4-5e1c-a21b-1735f7881cec",
    "name": "Anthony Cacco MD PC",
    "endpoint": [
      {
        "reference": "Endpoint/27a4e967-47aa-5a9c-a572-b8297ee268a2"
      },
      {
        "reference": "Endpoint/fc212b46-49c9-5fb4-857f-f90bf751bda6"
      }
    ],
    "identifier": [
      {
        "system": "http://hl7.org/fhir/sid/us-npi",
        "value": "1285022152"
      }
    ],
    "address": [
      {
        "line": [
          "256 S Broadway St"
        ],
        "city": "LAKE ORION",
        "state": "MI",
        "postalCode": "48362-2737"
      },
      {
        "line": [
          "1041 S Main St"
        ],
        "city": "MARCELLUS",
        "state": "MI",
        "postalCode": "49067-3274"
      },
      {
        "line": [
          "595 Barclay Circle,",
          "Suite D"
        ],
        "city": "ROCHESTER",
        "state": "MI",
        "postalCode": "48307-5802"
      },
      {
        "line": [
          "38800 Ryan Rd",
          "Ste 102"
        ],
        "city": "STERLING HEIGHTS",
        "state": "MI",
        "postalCode": "48310-2993"
      },
      {
        "line": [
          "32121 Woodward Ave",
          "Ste 204"
        ],
        "city": "ROYAL OAK",
        "state": "MI",
        "postalCode": "48073-6712"
      },
      {
        "line": [
          "1950 E Wattles Rd",
          "Ste 101"
        ],
        "city": "TROY",
        "state": "MI",
        "postalCode": "48085-5099"
      },
      {
        "line": [
          "26657 Woodward Ave"
        ],
        "city": "HUNTINGTON WOODS",
        "state": "MI",
        "postalCode": "48070-1234"
      },
      {
        "line": [
          "44344 Dequindre Rd",
          "Ste 540"
        ],
        "city": "STERLING HEIGHTS",
        "state": "MI",
        "postalCode": "48314-1042"
      },
      {
        "line": [
          "1349 S Rochester Rd"
        ],
        "city": "ROCHESTER",
        "state": "MI",
        "postalCode": "48307-3151"
      },
      {
        "line": [
          "4986 N ADAMS RD STE B"
        ],
        "city": "ROCHESTER",
        "state": "MI",
        "postalCode": "48306-5017"
      },
      {
        "line": [
          "427 West University Dr"
        ],
        "city": "ROCHESTER",
        "state": "MI",
        "postalCode": "48307-1875"
      },
      {
        "line": [
          "31000 Telegraph Rd",
          "Ste 100"
        ],
        "city": "FRANKLIN",
        "state": "MI",
        "postalCode": "48025-4360"
      },
      {
        "line": [
          "2240 N Opdyke Rd"
        ],
        "city": "AUBURN HILLS",
        "state": "MI",
        "postalCode": "48326-2435"
      },
      {
        "line": [
          "30600 Telegraph Rd",
          "Suite 4000"
        ],
        "city": "Bingham Farms",
        "state": "MI",
        "postalCode": "48025-5726"
      },
      {
        "line": [
          "15501 Metropolitan Pkwy"
        ],
        "city": "CLINTON TOWNSHIP",
        "state": "MI",
        "postalCode": "48036-1684"
      },
      {
        "line": [
          "29829 Telegraph Rd"
        ],
        "city": "SOUTHFIELD",
        "state": "MI",
        "postalCode": "48034-7655"
      },
      {
        "line": [
          "34580 DEQUINDRE RD"
        ],
        "city": "STERLING HEIGHTS",
        "state": "MI",
        "postalCode": "48310-5277"
      },
      {
        "line": [
          "27776 WOODWARD AVE"
        ],
        "city": "ROYAL OAK",
        "state": "MI",
        "postalCode": "48067-0930"
      },
      {
        "line": [
          "22673 Allen Rd",
          "Ste 300"
        ],
        "city": "TRENTON",
        "state": "MI",
        "postalCode": "48183-2272"
      },
      {
        "line": [
          "32255 Northwestern Hwy"
        ],
        "city": "FARMINGTON HILLS",
        "state": "MI",
        "postalCode": "48334-1566"
      },
      {
        "line": [
          "1350 Kirts Blvd",
          "Ste 160"
        ],
        "city": "TROY",
        "state": "MI",
        "postalCode": "48084-4852"
      },
      {
        "line": [
          "23411 Ryan Rd"
        ],
        "city": "WARREN",
        "state": "MI",
        "postalCode": "48091-1927"
      },
      {
        "line": [
          "44344 Dequindre Rd"
        ],
        "city": "STERLING HEIGHTS",
        "state": "MI",
        "postalCode": "48314-1038"
      },
      {
        "line": [
          "1224 w 14 mile rd"
        ],
        "city": "CLAWSON",
        "state": "MI",
        "postalCode": "48017-1234"
      },
      {
        "line": [
          "1701 South Blvd East",
          "STE 390"
        ],
        "city": "ROCHESTER",
        "state": "MI",
        "postalCode": "48307-1234"
      },
      {
        "line": [
          "909 W Maple Road"
        ],
        "city": "CLAWSON",
        "state": "MI",
        "postalCode": "48017-1000"
      },
      {
        "line": [
          "60005 Campground Rd",
          "Ste 600"
        ],
        "city": "WASHINGTON",
        "state": "MI",
        "postalCode": "48094-3445"
      },
      {
        "line": [
          " 52915 Mound Rd"
        ],
        "city": "UTICA",
        "state": "MI",
        "postalCode": "48316-3266"
      },
      {
        "line": [
          "26657 Woodward Ave",
          "Suite 200"
        ],
        "city": "HUNTINGTON WOODS",
        "state": "MI",
        "postalCode": "48070-1304"
      },
      {
        "line": [
          "6700 N Rochester Rd",
          "STE 110"
        ],
        "city": "ROCHESTER",
        "state": "MI",
        "postalCode": "48306-4362"
      },
      {
        "line": [
          "1080 Kirts Blvd",
          "Ste 700"
        ],
        "city": "TROY",
        "state": "MI",
        "postalCode": "48084-4853"
      },
      {
        "line": [
          "3345 Coolidge Hwy"
        ],
        "city": "BERKLEY",
        "state": "MI",
        "postalCode": "48072-1635"
      },
      {
        "line": [
          "43956 Mound Rd"
        ],
        "city": "STERLING HEIGHTS",
        "state": "MI",
        "postalCode": "48314-2034"
      },
      {
        "line": [
          "31500 TELEGRAPH RD STE 115"
        ],
        "city": "FRANKLIN",
        "state": "MI",
        "postalCode": "48025-4302"
      },
      {
        "line": [
          "3940 John R Rd"
        ],
        "city": "TROY",
        "state": "MI",
        "postalCode": "48083-1234"
      },
      {
        "line": [
          "20870 mack ave"
        ],
        "city": "GROSSE POINTE",
        "state": "MI",
        "postalCode": "48236-1234"
      },
      {
        "line": [
          "38815 Dequindre Rd",
          "Ste 103"
        ],
        "city": "TROY",
        "state": "MI",
        "postalCode": "48083-6810"
      },
      {
        "line": [
          "3270 W Big Beaver Rd",
          "Ste 400"
        ],
        "city": "TROY",
        "state": "MI",
        "postalCode": "48084-2901"
      },
      {
        "line": [
          "4550 Investment Dr"
        ],
        "city": "TROY",
        "state": "MI",
        "postalCode": "48098-6334"
      },
      {
        "line": [
          "595 Barclay Circle",
          "Suite D"
        ],
        "city": "ROCHESTER HILLS",
        "state": "MI",
        "postalCode": "48307-5802"
      },
      {
        "line": [
          "67150 Van Dyke"
        ],
        "city": "WASHINGTON",
        "state": "MI",
        "postalCode": "48095-1479"
      },
      {
        "line": [
          "32255 NORTHWESTERN HWY STE 170"
        ],
        "city": "FARMINGTON",
        "state": "MI",
        "postalCode": "48334-1577"
      },
      {
        "line": [
          "8244 Metropolitan Pkwy",
          "Ste C"
        ],
        "city": "STERLING HEIGHTS",
        "state": "MI",
        "postalCode": "48312-2778"
      },
      {
        "line": [
          "1380 Coolidge Hwy",
          "Ste 250"
        ],
        "city": "TROY",
        "state": "MI",
        "postalCode": "48084-7067"
      },
      {
        "line": [
          "350 N MAIN ST STE 100"
        ],
        "city": "CHELSEA",
        "state": "MI",
        "postalCode": "48118-1635"
      },
      {
        "line": [
          "5821 W Maple Rd",
          "Ste 190"
        ],
        "city": "WEST BLOOMFIELD",
        "state": "MI",
        "postalCode": "48322-3793"
      },
      {
        "line": [
          "26025 Lahser Rd Fl 2"
        ],
        "city": "SOUTHFIELD",
        "state": "MI",
        "postalCode": "48033-2606"
      },
      {
        "line": [
          "24748 W Warren St"
        ],
        "city": "DEARBORN HEIGHTS",
        "state": "MI",
        "postalCode": "48127-2109"
      },
      {
        "line": [
          "120 N BRIDGE ST"
        ],
        "city": "LINDEN",
        "state": "MI",
        "postalCode": "48451-8823"
      },
      {
        "line": [
          "42141 mound rd",
          "ste b"
        ],
        "city": "STERLING HEIGHTS",
        "state": "MI",
        "postalCode": "48314-7593"
      },
      {
        "line": [
          "1080 Kirts Blvd",
          "Suite 400"
        ],
        "city": "TROY",
        "state": "MI",
        "postalCode": "48083-4881"
      },
      {
        "line": [
          "6483 Citation Drive",
          "Suite B"
        ],
        "city": "CLARKSTON",
        "state": "MI",
        "postalCode": "48346-2994"
      },
      {
        "line": [
          "35200 Dequindre Rd"
        ],
        "city": "STERLING HEIGHTS",
        "state": "MI",
        "postalCode": "48310-4837"
      },
      {
        "line": [
          "43200 Dequindre Rd",
          "STE 104"
        ],
        "city": "STERLING HEIGHTS",
        "state": "MI",
        "postalCode": "48314-1707"
      },
      {
        "line": [
          "44199 Dequindre Rd",
          "Ste 503"
        ],
        "city": "TROY",
        "state": "MI",
        "postalCode": "48085-3700"
      },
      {
        "line": [
          "27144 Joy Road"
        ],
        "city": "REDFORD",
        "state": "MI",
        "postalCode": "48239-2368"
      },
      {
        "line": [
          "72 S Washington",
          "Ste 202"
        ],
        "city": "OXFORD",
        "state": "MI",
        "postalCode": "48371-6424"
      },
      {
        "line": [
          "4967 CROOKS RD"
        ],
        "city": "TROY",
        "state": "MI",
        "postalCode": "48098-5801"
      },
      {
        "line": [
          "2095 E Big Beaver Rd",
          "Ste 375"
        ],
        "city": "Troy",
        "state": "MI",
        "postalCode": "48063-2356"
      },
      {
        "line": [
          "29610 Ryan Rd"
        ],
        "city": "WARREN",
        "state": "MI",
        "postalCode": "48092-4247"
      },
      {
        "line": [
          "2033 Crooks Rd"
        ],
        "city": "ROYAL OAK",
        "state": "MI",
        "postalCode": "48073-4094"
      },
      {
        "line": [
          "441 S Livernois Rd",
          "STE 185"
        ],
        "city": "ROCHESTER",
        "state": "MI",
        "postalCode": "48307-2585"
      },
      {
        "line": [
          "30335 w 13 mile",
          "ste 100"
        ],
        "city": "FARMINGTON",
        "state": "MI",
        "postalCode": "48334-2262"
      },
      {
        "line": [
          "135 Barclay Circle",
          "Ste 100"
        ],
        "city": "ROCHESTER",
        "state": "MI",
        "postalCode": "48307-4599"
      },
      {
        "line": [
          "21600 Harper Ave",
          "Ste 100"
        ],
        "city": "SAINT CLAIR SHORES",
        "state": "MI",
        "postalCode": "48080-2242"
      },
      {
        "line": [
          "3815 Pelham St",
          "Ste 5"
        ],
        "city": "DEARBORN",
        "state": "MI",
        "postalCode": "48124-3852"
      },
      {
        "line": [
          "1460 Walton",
          "Ste 200"
        ],
        "city": "ROCHESTER",
        "state": "MI",
        "postalCode": "48309-1779"
      },
      {
        "line": [
          "5280 METROPOLITAN PKWY"
        ],
        "city": "STERLING HEIGHTS",
        "state": "MI",
        "postalCode": "48310-4005"
      },
      {
        "line": [
          "33376 DEQUINDRE RD"
        ],
        "city": "STERLING HEIGHTS",
        "state": "MI",
        "postalCode": "48310-5966"
      },
      {
        "line": [
          "4045 W 13 Mile Rd",
          "Suite A"
        ],
        "city": "ROYAL OAK",
        "state": "MI",
        "postalCode": "48073-6640"
      },
      {
        "line": [
          "22646 9 Mile Rd"
        ],
        "city": "SAINT CLAIR SHORES",
        "state": "MI",
        "postalCode": "48080-1951"
      },
      {
        "line": [
          "30575 Woodward Ave",
          "Ste 100"
        ],
        "city": "ROYAL OAK",
        "state": "MI",
        "postalCode": "48073-0986"
      },
      {
        "line": [
          "6255 Inkster Rd",
          "Ste 302"
        ],
        "city": "GARDEN CITY",
        "state": "MI",
        "postalCode": "48135-2538"
      },
      {
        "line": [
          "2708 S Rochester Rd",
          "Ste B"
        ],
        "city": "ROCHESTER",
        "state": "MI",
        "postalCode": "48307-4577"
      },
      {
        "line": [
          "1695 w 12 Mile Rd",
          "Ste 200"
        ],
        "city": "BERKLEY",
        "state": "MI",
        "postalCode": "48072-2100"
      },
      {
        "line": [
          "39242 Dequindre Rd",
          "Ste 101"
        ],
        "city": "STERLING HEIGHTS",
        "state": "MI",
        "postalCode": "48310-1764"
      },
      {
        "line": [
          "15590 W 13 MILE",
          "STE B"
        ],
        "city": "FRANKLIN",
        "state": "MI",
        "postalCode": "48025-5642"
      },
      {
        "line": [
          "43600 Garfield Rd"
        ],
        "city": "CLINTON TOWNSHIP",
        "state": "MI",
        "postalCode": "48038-1120"
      },
      {
        "line": [
          "30600 Telegraph Rd",
          "Suite 4000"
        ],
        "city": "FRANKLIN",
        "state": "MI",
        "postalCode": "48025-5726"
      },
      {
        "line": [
          "3535 W 13 mile",
          "Ste 236"
        ],
        "city": "ROYAL OAK",
        "state": "MI",
        "postalCode": "48073-6712"
      },
      {
        "line": [
          "24255 West 13 Mile Rd",
          "Suite 100"
        ],
        "city": "FRANKLIN",
        "state": "MI",
        "postalCode": "48025-4345"
      },
      {
        "line": [
          "11051 HALL RD"
        ],
        "city": "UTICA",
        "state": "MI",
        "postalCode": "48317-5735"
      },
      {
        "line": [
          "1055 SOUTH BLVD E STE 220"
        ],
        "city": "ROCHESTER",
        "state": "MI",
        "postalCode": "48307-5466"
      },
      {
        "line": [
          "36040 Dequindre"
        ],
        "city": "STERLING HEIGHTS",
        "state": "MI",
        "postalCode": "48310-4239"
      },
      {
        "line": [
          " 1000 University Dr",
          "STE 207"
        ],
        "city": "ROCHESTER",
        "state": "MI",
        "postalCode": "48307-1234"
      },
      {
        "line": [
          "33200 Dequindre Rd",
          "Suite 200"
        ],
        "city": "STERLING HEIGHTS",
        "state": "MI",
        "postalCode": "48310-5967"
      },
      {
        "line": [
          "1639 E Big Beaver Rd",
          "Ste 202"
        ],
        "city": "TROY",
        "state": "MI",
        "postalCode": "48083-2504"
      },
      {
        "line": [
          "2888 E Long Lake Rd",
          "Ste 105"
        ],
        "city": "TROY",
        "state": "MI",
        "postalCode": "48085-3700"
      },
      {
        "line": [
          "5335 Auburn Rd"
        ],
        "city": "UTICA",
        "state": "MI",
        "postalCode": "48317-4115"
      },
      {
        "line": [
          "115 E Long Lake Rd"
        ],
        "city": "TROY",
        "state": "MI",
        "postalCode": "48085-5524"
      },
      {
        "line": [
          "135 Barclay Cir",
          "STE 104"
        ],
        "city": "ROCHESTER",
        "state": "MI",
        "postalCode": "48307-4599"
      },
      {
        "line": [
          "2300 Haggerty Rd",
          "Ste 2190"
        ],
        "city": "WEST BLOOMFIELD",
        "state": "MI",
        "postalCode": "48323-2192"
      },
      {
        "line": [
          "1380 Coolidge Hwy",
          "Ste 250"
        ],
        "city": "TROY",
        "state": "MI",
        "postalCode": "48084-7058"
      },
      {
        "line": [
          "32121 WOODWARD AVE STE 200"
        ],
        "city": "ROYAL OAK",
        "state": "MI",
        "postalCode": "48073-0999"
      },
      {
        "line": [
          "60005 Campground Rd"
        ],
        "city": "WASHINGTON",
        "state": "MI",
        "postalCode": "48094-3445"
      },
      {
        "line": [
          "43200 DEQUINDRE RD STE 105"
        ],
        "city": "STERLING HEIGHTS",
        "state": "MI",
        "postalCode": "48314-1707"
      },
      {
        "line": [
          "940 W Avon Rd",
          "STE 10"
        ],
        "city": "ROCHESTER",
        "state": "MI",
        "postalCode": "48307-2760"
      },
      {
        "line": [
          "1380 Coolidge Hwy",
          "Ste 100"
        ],
        "city": "TROY",
        "state": "MI",
        "postalCode": "48084-7069"
      }
    ],
    "extension": [
      {
        "url": "https://fhir.athena.io/StructureDefinition/ah-practice",
        "valueReference": {
          "reference": "Organization/a-1.Practice-10474"
        }
      },
      {
        "url": "https://fhir.athena.io/StructureDefinition/ah-brand",
        "valueReference": {
          "reference": "Organization/a-10474.Brand-1"
        }
      }
    ]
  },
  "fullUrl": "urn:uuid:154d3165-c9e4-5e1c-a21b-1735f7881cec"
}