{
  "resource": {
    "resourceType": "Organization",
    "id": "ff630562-2f25-51bc-8c07-f570beddc5d9",
    "name": "Blue Ridge Urgent Care",
    "endpoint": [
      {
        "reference": "Endpoint/27a4e967-47aa-5a9c-a572-b8297ee268a2"
      },
      {
        "reference": "Endpoint/08de9af7-a6bc-5bb8-b370-9942bea9ce76"
      }
    ],
    "identifier": [
      {
        "system": "http://hl7.org/fhir/sid/us-npi",
        "value": "1467878108"
      }
    ],
    "address": [
      {
        "line": [
          "48 E 1st St S"
        ],
        "city": "SNOWFLAKE",
        "state": "AZ",
        "postalCode": "85937-5336"
      },
      {
        "line": [
          "3929 E. Bell Road"
        ],
        "city": "PHOENIX",
        "state": "AZ",
        "postalCode": "85032-2112"
      },
      {
        "line": [
          "3401 N. Lockwood Drive"
        ],
        "city": "LAKESIDE",
        "state": "AZ",
        "postalCode": "85929-5613"
      },
      {
        "line": [],
        "city": "SHOW LOW",
        "state": "AZ",
        "postalCode": "85901-7831"
      },
      {
        "line": [
          "2401 East Hunt Street"
        ],
        "city": "SHOW LOW",
        "state": "AZ",
        "postalCode": "85901-7920"
      },
      {
        "line": [
          "2931 S HIGHWAY 260"
        ],
        "city": "OVERGAARD",
        "state": "AZ",
        "postalCode": "85933-1013"
      },
      {
        "line": [
          "151 N White Mountain Rd",
          "Ste E"
        ],
        "city": "SHOW LOW",
        "state": "AZ",
        "postalCode": "85901-5297"
      },
      {
        "line": [
          "395 W Garden Ln"
        ],
        "city": "SNOWFLAKE",
        "state": "AZ",
        "postalCode": "85937-6218"
      },
      {
        "line": [
          "324 E 1st Str"
        ],
        "city": "EAGAR",
        "state": "AZ",
        "postalCode": "85925-9813"
      }
    ],
    "extension": [
      {
        "url": "https://fhir.athena.io/StructureDefinition/ah-practice",
        "valueReference": {
          "reference": "Organization/a-1.Practice-8480"
        }
      },
      {
        "url": "https://fhir.athena.io/StructureDefinition/ah-brand",
        "valueReference": {
          "reference": "Organization/a-8480.Brand-1"
        }
      }
    ]
  },
  "fullUrl": "urn:uuid:ff630562-2f25-51bc-8c07-f570beddc5d9"
}