{
  "resource": {
    "resourceType": "Organization",
    "id": "b09fa9ef-dbb7-5d7f-a929-8c39018ed673",
    "name": "YMCA of Greater New York",
    "endpoint": [
      {
        "reference": "Endpoint/27a4e967-47aa-5a9c-a572-b8297ee268a2"
      },
      {
        "reference": "Endpoint/abb5f7d5-468e-5806-be46-fb2282afef02"
      }
    ],
    "identifier": [
      {
        "system": "http://hl7.org/fhir/sid/us-npi",
        "value": "1285071225"
      }
    ],
    "address": [
      {
        "line": [
          "361 15th Street"
        ],
        "city": "BROOKLYN",
        "state": "NY",
        "postalCode": "11215-5605"
      },
      {
        "line": [
          "331 East 12th St"
        ],
        "city": "NEW YORK",
        "state": "NY",
        "postalCode": "10003-7202"
      },
      {
        "line": [
          "2 Castle Hill Ave"
        ],
        "city": "BRONX",
        "state": "NY",
        "postalCode": "10473-1636"
      },
      {
        "line": [
          "357 9th St"
        ],
        "city": "BROOKLYN",
        "state": "NY",
        "postalCode": "11215-4007"
      },
      {
        "line": [
          "99 Meserole Ave"
        ],
        "city": "BROOKLYN",
        "state": "NY",
        "postalCode": "11222-2633"
      },
      {
        "line": [
          "4141 Carpenter Ave."
        ],
        "city": "BRONX",
        "state": "NY",
        "postalCode": "10466-2600"
      },
      {
        "line": [
          "150 55th St."
        ],
        "city": "BROOKLYN",
        "state": "NY",
        "postalCode": "11220-1234"
      },
      {
        "line": [
          "3114 Glenwood Rd."
        ],
        "city": "BROOKLYN",
        "state": "NY",
        "postalCode": "11210-1234"
      },
      {
        "line": [
          "93-11 101 St"
        ],
        "city": "OZONE PARK",
        "state": "NY",
        "postalCode": "11416-2309"
      },
      {
        "line": [
          "651 Broadway"
        ],
        "city": "STATEN ISLAND",
        "state": "NY",
        "postalCode": "10310-2830"
      },
      {
        "line": [
          "238-10 Hillside Ave"
        ],
        "city": "BELLEROSE",
        "state": "NY",
        "postalCode": "11426-1328"
      },
      {
        "line": [
          "69-02 64th Ave"
        ],
        "city": "RIDGEWOOD",
        "state": "NY",
        "postalCode": "11385-5248"
      },
      {
        "line": [
          "520 8th ave"
        ],
        "city": "NEW YORK",
        "state": "NY",
        "postalCode": "10018-6507"
      },
      {
        "line": [
          "161-04 Jamaica Ave."
        ],
        "city": "JAMAICA",
        "state": "NY",
        "postalCode": "11432-6112"
      },
      {
        "line": [
          "1428 Madison Ave.",
          "3rd Floor, Room 14"
        ],
        "city": "NEW YORK",
        "state": "NY",
        "postalCode": "10029-6508"
      },
      {
        "line": [
          "3448 Boston Road"
        ],
        "city": "BRONX",
        "state": "NY",
        "postalCode": "10469-2512"
      },
      {
        "line": [
          "35 Starr St."
        ],
        "city": "BROOKLYN",
        "state": "NY",
        "postalCode": "11221-2705"
      },
      {
        "line": [
          "130 W. Kingsbridge Rd"
        ],
        "city": "BRONX",
        "state": "NY",
        "postalCode": "10468-3904"
      },
      {
        "line": [
          "1 Park Ave"
        ],
        "city": "NEW YORK",
        "state": "NY",
        "postalCode": "10016-5802"
      },
      {
        "line": [
          "32-23 Queens Blvd"
        ],
        "city": "LONG ISLAND CITY",
        "state": "NY",
        "postalCode": "11101-5248"
      },
      {
        "line": [
          "89-25 Parsons Blvd"
        ],
        "city": "JAMAICA",
        "state": "NY",
        "postalCode": "11432-6034"
      },
      {
        "line": [
          "1310 48th Street",
          "suite 402"
        ],
        "city": "BROOKLYN",
        "state": "NY",
        "postalCode": "11219-3161"
      },
      {
        "line": [
          "Merillac Hall",
          "Room 111A"
        ],
        "city": "OAKLAND GARDENS",
        "state": "NY",
        "postalCode": "11364-1234"
      },
      {
        "line": [
          "111 East 210th Street"
        ],
        "city": "BRONX",
        "state": "NY",
        "postalCode": "10467-2401"
      },
      {
        "line": [
          "5 W 63rd St, 6th Fl"
        ],
        "city": "NEW YORK",
        "state": "NY",
        "postalCode": "10023-7162"
      },
      {
        "line": [
          "105 West 188th Street"
        ],
        "city": "BRONX",
        "state": "NY",
        "postalCode": "10468-5001"
      },
      {
        "line": [
          "160 West 26th St.",
          "5th floor"
        ],
        "city": "NEW YORK",
        "state": "NY",
        "postalCode": "10001-6975"
      },
      {
        "line": [
          "2980 W. 29th St."
        ],
        "city": "BROOKLYN",
        "state": "NY",
        "postalCode": "11224-2155"
      },
      {
        "line": [
          "5 w 63rd St"
        ],
        "city": "NEW YORK",
        "state": "NY",
        "postalCode": "10023-7101"
      },
      {
        "line": [
          "273 Bowery"
        ],
        "city": "NEW YORK",
        "state": "NY",
        "postalCode": "10002-1201"
      },
      {
        "line": [
          "180 W 135th St"
        ],
        "city": "NEW YORK",
        "state": "NY",
        "postalCode": "10030-2996"
      },
      {
        "line": [
          "1825 Eastchester Rd"
        ],
        "city": "BRONX",
        "state": "NY",
        "postalCode": "10461-2301"
      },
      {
        "line": [
          "207 Beach 73rd St."
        ],
        "city": "ARVERNE",
        "state": "NY",
        "postalCode": "11692-1289"
      },
      {
        "line": [
          "570 Jamaica Ave"
        ],
        "city": "BROOKLYN",
        "state": "NY",
        "postalCode": "11208-1237"
      },
      {
        "line": [
          "1055 East Tremont Avenue"
        ],
        "city": "BRONX",
        "state": "NY",
        "postalCode": "10460-2306"
      },
      {
        "line": [
          "423 E 23rd street"
        ],
        "city": "NEW YORK",
        "state": "NY",
        "postalCode": "10010-5011"
      },
      {
        "line": [
          "224 E 47th St"
        ],
        "city": "NEW YORK",
        "state": "NY",
        "postalCode": "10017-2102"
      },
      {
        "line": [
          "125 Humboldt St"
        ],
        "city": "BROOKLYN",
        "state": "NY",
        "postalCode": "11206-2725"
      },
      {
        "line": [
          "1121 Bedford Ave"
        ],
        "city": "BROOKLYN",
        "state": "NY",
        "postalCode": "11216-1302"
      },
      {
        "line": [
          "2191 Valentine Ave."
        ],
        "city": "BRONX",
        "state": "NY",
        "postalCode": "10457-2201"
      },
      {
        "line": [
          "374 Stockholm St"
        ],
        "city": "BROOKLYN",
        "state": "NY",
        "postalCode": "11237-4006"
      },
      {
        "line": [
          "623 13th Street"
        ],
        "city": "BRONX",
        "state": "NY",
        "postalCode": "10454-1234"
      },
      {
        "line": [
          "14 Wall Street"
        ],
        "city": "NEW YORK",
        "state": "NY",
        "postalCode": "10005-2101"
      },
      {
        "line": [
          "450 St Ann's Ave"
        ],
        "city": "BRONX",
        "state": "NY",
        "postalCode": "10455-4263"
      },
      {
        "line": [
          "1401 Flatbush Ave"
        ],
        "city": "BROOKLYN",
        "state": "NY",
        "postalCode": "11210-1439"
      },
      {
        "line": [
          "225 Atlantic Avenue"
        ],
        "city": "BROOKLYN",
        "state": "NY",
        "postalCode": "11201-4110"
      },
      {
        "line": [
          "125 West 14th St"
        ],
        "city": "NEW YORK",
        "state": "NY",
        "postalCode": "10011-2302"
      },
      {
        "line": [
          "3939 Richmond Ave"
        ],
        "city": "STATEN ISLAND",
        "state": "NY",
        "postalCode": "10312-5110"
      },
      {
        "line": [
          "176-West 105th ST"
        ],
        "city": "NEW YORK",
        "state": "NY",
        "postalCode": "10025-4021"
      },
      {
        "line": [
          "139 Allen St."
        ],
        "city": "NEW YORK",
        "state": "NY",
        "postalCode": "10002-3002"
      },
      {
        "line": [
          "1011 First Ave."
        ],
        "city": "NEW YORK",
        "state": "NY",
        "postalCode": "10022-4112"
      },
      {
        "line": [
          "138-46 Northern Blvd"
        ],
        "city": "FLUSHING",
        "state": "NY",
        "postalCode": "11354-3406"
      },
      {
        "line": [
          "73-02 Roosevelt Ave."
        ],
        "city": "JACKSON HEIGHTS",
        "state": "NY",
        "postalCode": "11372-6336"
      }
    ],
    "extension": [
      {
        "url": "https://fhir.athena.io/StructureDefinition/ah-practice",
        "valueReference": {
          "reference": "Organization/a-1.Practice-14268"
        }
      },
      {
        "url": "https://fhir.athena.io/StructureDefinition/ah-brand",
        "valueReference": {
          "reference": "Organization/a-14268.Brand-1"
        }
      }
    ]
  },
  "fullUrl": "urn:uuid:b09fa9ef-dbb7-5d7f-a929-8c39018ed673"
}