{
  "resource": {
    "resourceType": "Organization",
    "id": "14f89550-5efe-5ebb-92de-6c255ea3e165",
    "name": "Mobile Unit/Brevard",
    "endpoint": [
      {
        "reference": "Endpoint/27a4e967-47aa-5a9c-a572-b8297ee268a2"
      },
      {
        "reference": "Endpoint/cc4b1275-1cb8-5c4f-9233-9692b46d5747"
      }
    ],
    "identifier": [
      {
        "system": "http://hl7.org/fhir/sid/us-npi",
        "value": "1851806079"
      },
      {
        "system": "http://hl7.org/fhir/sid/us-npi",
        "value": "1902311277"
      },
      {
        "system": "http://hl7.org/fhir/sid/us-npi",
        "value": "1487869467"
      },
      {
        "system": "http://hl7.org/fhir/sid/us-npi",
        "value": "1881109007"
      },
      {
        "system": "http://hl7.org/fhir/sid/us-npi",
        "value": "1952816225"
      }
    ],
    "address": [
      {
        "line": [
          "2295 Pasco Street"
        ],
        "city": "TALLAHASSEE",
        "state": "FL",
        "postalCode": "32310-0908"
      },
      {
        "line": [
          "604 East 5th Avenue"
        ],
        "city": "HAVANA",
        "state": "FL",
        "postalCode": "32333-1442"
      },
      {
        "line": [
          "438 West Brevard Street"
        ],
        "city": "TALLAHASSEE",
        "state": "FL",
        "postalCode": "32301-1004"
      },
      {
        "line": [
          "3013 Jim Lee Road"
        ],
        "city": "TALLAHASSEE",
        "state": "FL",
        "postalCode": "32301-7057"
      },
      {
        "line": [
          "872 W Orange Ave"
        ],
        "city": "TALLAHASSEE",
        "state": "FL",
        "postalCode": "32310-6123"
      },
      {
        "line": [
          "438 W Brevard St"
        ],
        "city": "TALLAHASSEE",
        "state": "FL",
        "postalCode": "32301-1069"
      },
      {
        "line": [
          "872 West Orange Avenue"
        ],
        "city": "TALLAHASSEE",
        "state": "FL",
        "postalCode": "32310-6123"
      },
      {
        "line": [
          "2613 S MONROE ST"
        ],
        "city": "TALLAHASSEE",
        "state": "FL",
        "postalCode": "32301-6308"
      }
    ],
    "extension": [
      {
        "url": "https://fhir.athena.io/StructureDefinition/ah-practice",
        "valueReference": {
          "reference": "Organization/a-1.Practice-15524"
        }
      },
      {
        "url": "https://fhir.athena.io/StructureDefinition/ah-brand",
        "valueReference": {
          "reference": "Organization/a-15524.Brand-3"
        }
      }
    ]
  },
  "fullUrl": "urn:uuid:14f89550-5efe-5ebb-92de-6c255ea3e165"
}