{
  "resource": {
    "resourceType": "Organization",
    "id": "dde7edbd-5a3d-519b-beef-0692284363be",
    "name": "Hospice of The Red River Valley",
    "endpoint": [
      {
        "reference": "Endpoint/27a4e967-47aa-5a9c-a572-b8297ee268a2"
      },
      {
        "reference": "Endpoint/2dcc17e3-ed23-56b4-9047-9eb896f81ab9"
      }
    ],
    "identifier": [
      {
        "system": "http://hl7.org/fhir/sid/us-npi",
        "value": "1053870253"
      }
    ],
    "address": [
      {
        "line": [
          "300 GARFIELD AVE SE"
        ],
        "city": "FERTILE",
        "state": "MN",
        "postalCode": "56540-4136"
      },
      {
        "line": [
          "516 WALSH ST"
        ],
        "city": "CROOKSTON",
        "state": "MN",
        "postalCode": "56716-2757"
      },
      {
        "line": [
          "124 Oriole Dr"
        ],
        "city": "FERGUS FALLS",
        "state": "MN",
        "postalCode": "56537-1266"
      },
      {
        "line": [
          "3225 51ST ST S"
        ],
        "city": "FARGO",
        "state": "ND",
        "postalCode": "58104-7180"
      },
      {
        "line": [
          "12 3rd St SE",
          "PO Box 609"
        ],
        "city": "HILLSBORO",
        "state": "ND",
        "postalCode": "58045-4840"
      },
      {
        "line": [
          "2401 S 11TH ST"
        ],
        "city": "MOORHEAD",
        "state": "MN",
        "postalCode": "56560-4402"
      },
      {
        "line": [
          "825 7TH AVE SW"
        ],
        "city": "PERHAM",
        "state": "MN",
        "postalCode": "56573-1665"
      },
      {
        "line": [
          "905 41st Ave S"
        ],
        "city": "MOORHEAD",
        "state": "MN",
        "postalCode": "56560-7439"
      },
      {
        "line": [
          "1693 6TH ST W"
        ],
        "city": "WEST FARGO",
        "state": "ND",
        "postalCode": "58078-4624"
      },
      {
        "line": [
          "1701 38TH ST S STE 101"
        ],
        "city": "FARGO",
        "state": "ND",
        "postalCode": "58103-4499"
      },
      {
        "line": [
          "200 MINNESOTA AVE E"
        ],
        "city": "SEBEKA",
        "state": "MN",
        "postalCode": "56477-5002"
      },
      {
        "line": [
          "5210 12TH ST S"
        ],
        "city": "FARGO",
        "state": "ND",
        "postalCode": "58104-6440"
      },
      {
        "line": [
          "219 West Maple"
        ],
        "city": "FRAZEE",
        "state": "MN",
        "postalCode": "56544-4336"
      },
      {
        "line": [
          "4552 36TH AVE S"
        ],
        "city": "FARGO",
        "state": "ND",
        "postalCode": "58104-5211"
      },
      {
        "line": [
          "213 9th St N"
        ],
        "city": "OAKES",
        "state": "ND",
        "postalCode": "58474-1305"
      },
      {
        "line": [
          "2500 Valleyview Ave"
        ],
        "city": "BISMARCK",
        "state": "ND",
        "postalCode": "58501-3090"
      },
      {
        "line": [
          "1300 2ND PL NE"
        ],
        "city": "JAMESTOWN",
        "state": "ND",
        "postalCode": "58401-3709"
      },
      {
        "line": [
          "903 MULBERRY LN"
        ],
        "city": "WEST FARGO",
        "state": "ND",
        "postalCode": "58078-5000"
      },
      {
        "line": [
          "908 CONEY ST W"
        ],
        "city": "PERHAM",
        "state": "MN",
        "postalCode": "56573-2122"
      },
      {
        "line": [
          "516 WALSH STREET"
        ],
        "city": "CROOKSTON",
        "state": "MN",
        "postalCode": "56716-2757"
      },
      {
        "line": [
          "3433 28TH ST S"
        ],
        "city": "MOORHEAD",
        "state": "MN",
        "postalCode": "56560-5420"
      },
      {
        "line": [
          "201 S UNIVERSITY DR"
        ],
        "city": "FARGO",
        "state": "ND",
        "postalCode": "58103-1775"
      },
      {
        "line": [
          "333 Eastern Ave"
        ],
        "city": "GRAFTON",
        "state": "ND",
        "postalCode": "58237-1233"
      },
      {
        "line": [
          "950 Dakota Ave"
        ],
        "city": "HATTON",
        "state": "ND",
        "postalCode": "58240-4501"
      },
      {
        "line": [
          "1124 10th St N"
        ],
        "city": "MOORHEAD",
        "state": "MN",
        "postalCode": "56560-1554"
      },
      {
        "line": [
          "1200 HARWOOD DR"
        ],
        "city": "FARGO",
        "state": "ND",
        "postalCode": "58104-6298"
      },
      {
        "line": [
          "1005 Wells Ave W"
        ],
        "city": "SEBEKA",
        "state": "MN",
        "postalCode": "56477-2692"
      },
      {
        "line": [
          "821 7TH AVE SW"
        ],
        "city": "PERHAM",
        "state": "MN",
        "postalCode": "56573-1665"
      },
      {
        "line": [
          "1701 38TH ST S"
        ],
        "city": "FARGO",
        "state": "ND",
        "postalCode": "58103-4499"
      },
      {
        "line": [
          "311 Broadway Ave NE"
        ],
        "city": "RED LAKE FALLS",
        "state": "MN",
        "postalCode": "56750-4224"
      },
      {
        "line": [
          "201 S University Dr"
        ],
        "city": "FARGO",
        "state": "ND",
        "postalCode": "58103-1775"
      },
      {
        "line": [
          "225 13th Ave"
        ],
        "city": "WEST FARGO",
        "state": "ND",
        "postalCode": "58078-2695"
      },
      {
        "line": [
          "1405 WEST GATEWAY CIRCLE"
        ],
        "city": "FARGO",
        "state": "ND",
        "postalCode": "58103-3529"
      },
      {
        "line": [
          "1251 3RD AVE NW"
        ],
        "city": "DILWORTH",
        "state": "MN",
        "postalCode": "56529-1809"
      },
      {
        "line": [
          "3400 NEBRASKA DR"
        ],
        "city": "BISMARCK",
        "state": "ND",
        "postalCode": "58503-1649"
      },
      {
        "line": [
          "208 Oppegard Ave NW"
        ],
        "city": "TWIN VALLEY",
        "state": "MN",
        "postalCode": "56584-4038"
      },
      {
        "line": [
          "1500 7th St S"
        ],
        "city": "MOORHEAD",
        "state": "MN",
        "postalCode": "56560-3467"
      },
      {
        "line": [
          "4502 37th Ave S"
        ],
        "city": "FARGO",
        "state": "ND",
        "postalCode": "58104-7599"
      },
      {
        "line": [
          "1315 S University Dr"
        ],
        "city": "FARGO",
        "state": "ND",
        "postalCode": "58103-4144"
      },
      {
        "line": [
          "150 County Rd 34"
        ],
        "city": "ARTHUR",
        "state": "ND",
        "postalCode": "58006-4102"
      },
      {
        "line": [
          "215 SKOGMO BLVD"
        ],
        "city": "FERGUS FALLS",
        "state": "MN",
        "postalCode": "56537-1289"
      },
      {
        "line": [
          "826 7TH AVE SW"
        ],
        "city": "PERHAM",
        "state": "MN",
        "postalCode": "56573-1664"
      },
      {
        "line": [
          "125 13TH AVE W"
        ],
        "city": "WEST FARGO",
        "state": "ND",
        "postalCode": "58078-2646"
      },
      {
        "line": [
          "1401 WEST GATEWAY CIRCLE"
        ],
        "city": "FARGO",
        "state": "ND",
        "postalCode": "58103-3529"
      },
      {
        "line": [
          "1204 OAKVIEW DR"
        ],
        "city": "DILWORTH",
        "state": "MN",
        "postalCode": "56529-1809"
      },
      {
        "line": [
          "3022 17th St S"
        ],
        "city": "MOORHEAD",
        "state": "MN",
        "postalCode": "56560-5212"
      },
      {
        "line": [
          "3534 UNIVERSITY DR S"
        ],
        "city": "FARGO",
        "state": "ND",
        "postalCode": "58104-6228"
      },
      {
        "line": [
          "1104 25TH ST SW"
        ],
        "city": "JAMESTOWN",
        "state": "ND",
        "postalCode": "58401-6636"
      },
      {
        "line": [
          "1006 Greenwood St E"
        ],
        "city": "THIEF RIVER FALLS",
        "state": "MN",
        "postalCode": "56701-4120"
      },
      {
        "line": [
          "1358 Main St"
        ],
        "city": "HAWLEY",
        "state": "MN",
        "postalCode": "56549-4426"
      },
      {
        "line": [
          "501 E FRONT ST"
        ],
        "city": "LARIMORE",
        "state": "ND",
        "postalCode": "58251-4010"
      },
      {
        "line": [
          "1203 1st St S"
        ],
        "city": "MOORHEAD",
        "state": "MN",
        "postalCode": "56560-4033"
      },
      {
        "line": [
          "2941 6TH AVE N"
        ],
        "city": "MOORHEAD",
        "state": "MN",
        "postalCode": "56560-2518"
      },
      {
        "line": [
          "4255 30th Ave S"
        ],
        "city": "FARGO",
        "state": "ND",
        "postalCode": "58104-8427"
      },
      {
        "line": [
          "613 1st Ave SW"
        ],
        "city": "HANKINSON",
        "state": "ND",
        "postalCode": "58041-0448"
      },
      {
        "line": [
          "4401 21St SE"
        ],
        "city": "MANDAN",
        "state": "ND",
        "postalCode": "58554-6425"
      },
      {
        "line": [
          "502 3RD AVE S"
        ],
        "city": "MOORHEAD",
        "state": "MN",
        "postalCode": "56560-2703"
      },
      {
        "line": [
          "1415 Madison Ave"
        ],
        "city": "DETROIT LAKES",
        "state": "MN",
        "postalCode": "56501-4542"
      },
      {
        "line": [
          "1618 19TH ST S"
        ],
        "city": "MOORHEAD",
        "state": "MN",
        "postalCode": "56560-4730"
      },
      {
        "line": [
          "120 23RD AVE SE"
        ],
        "city": "WEST FARGO",
        "state": "ND",
        "postalCode": "58078-7800"
      },
      {
        "line": [
          "1001 CADDY AVE"
        ],
        "city": "MOORHEAD",
        "state": "MN",
        "postalCode": "56560-1408"
      },
      {
        "line": [
          "3200 28TH ST S"
        ],
        "city": "MOORHEAD",
        "state": "MN",
        "postalCode": "56560-5495"
      },
      {
        "line": [
          "4580 Coleman St"
        ],
        "city": "BISMARCK",
        "state": "ND",
        "postalCode": "58503-1388"
      },
      {
        "line": [
          "2901 6TH AVE N"
        ],
        "city": "MOORHEAD",
        "state": "MN",
        "postalCode": "56560-2594"
      },
      {
        "line": [
          "1405 7th St S"
        ],
        "city": "MOORHEAD",
        "state": "MN",
        "postalCode": "56560-3444"
      },
      {
        "line": [
          "3408 12th St S"
        ],
        "city": "MOORHEAD",
        "state": "MN",
        "postalCode": "56560-5115"
      },
      {
        "line": [
          "4420 37TH AVE S"
        ],
        "city": "FARGO",
        "state": "ND",
        "postalCode": "58104-3400"
      },
      {
        "line": [
          "2810 2nd Ave N"
        ],
        "city": "MOORHEAD",
        "state": "MN",
        "postalCode": "56560-2511"
      },
      {
        "line": [
          "645 33RD AVE E"
        ],
        "city": "WEST FARGO",
        "state": "ND",
        "postalCode": "58078-8074"
      },
      {
        "line": [
          "5250 32nd Ave S"
        ],
        "city": "FARGO",
        "state": "ND",
        "postalCode": "58104-7180"
      },
      {
        "line": [
          "1411 WEST GATEWAY CIRCLE"
        ],
        "city": "FARGO",
        "state": "ND",
        "postalCode": "58103-3529"
      },
      {
        "line": [
          "3400 Nebraska Dr"
        ],
        "city": "BISMARCK",
        "state": "ND",
        "postalCode": "58503-1649"
      },
      {
        "line": [
          "4440 37TH AVE S"
        ],
        "city": "FARGO",
        "state": "ND",
        "postalCode": "58104-7587"
      },
      {
        "line": [
          "1564 Randolph Rd"
        ],
        "city": "DETROIT LAKES",
        "state": "MN",
        "postalCode": "56501-3745"
      },
      {
        "line": [
          "2900 14TH AVE S"
        ],
        "city": "GRAND FORKS",
        "state": "ND",
        "postalCode": "58201-4042"
      },
      {
        "line": [
          "1144 College Dr"
        ],
        "city": "Bismarck",
        "state": "ND",
        "postalCode": "58101-1212"
      },
      {
        "line": [
          "801 2ND AVE N"
        ],
        "city": "MOORHEAD",
        "state": "MN",
        "postalCode": "56560-1976"
      },
      {
        "line": [
          "923 5TH ST"
        ],
        "city": "HAWLEY",
        "state": "MN",
        "postalCode": "56549-4900"
      },
      {
        "line": [
          "1120 5th St NE"
        ],
        "city": "VALLEY CITY",
        "state": "ND",
        "postalCode": "58072-2400"
      },
      {
        "line": [
          "427 MAIN ST NE"
        ],
        "city": "MENAHGA",
        "state": "MN",
        "postalCode": "56464-8702"
      },
      {
        "line": [
          "1200 Robert Ave NE"
        ],
        "city": "COOPERSTOWN",
        "state": "ND",
        "postalCode": "58425-7101"
      },
      {
        "line": [
          "133 4th Ave E"
        ],
        "city": "HALSTAD",
        "state": "MN",
        "postalCode": "56548-4114"
      },
      {
        "line": [
          "520 28TH ST N"
        ],
        "city": "MOORHEAD",
        "state": "MN",
        "postalCode": "56560-2441"
      },
      {
        "line": [
          "1435 Madison Ave"
        ],
        "city": "DETROIT LAKES",
        "state": "MN",
        "postalCode": "56501-4519"
      },
      {
        "line": [
          "114 12th Ave NE"
        ],
        "city": "JAMESTOWN",
        "state": "ND",
        "postalCode": "58401-3717"
      },
      {
        "line": [
          "201 S UNIVERISTY DR"
        ],
        "city": "FARGO",
        "state": "ND",
        "postalCode": "58103-1775"
      },
      {
        "line": [
          "802 S MILL ST"
        ],
        "city": "FERGUS FALLS",
        "state": "MN",
        "postalCode": "56537-2750"
      },
      {
        "line": [
          "2725 PARKVIEW DR"
        ],
        "city": "MOORHEAD",
        "state": "MN",
        "postalCode": "56560-5498"
      },
      {
        "line": [
          "2235 SHILOH ST"
        ],
        "city": "WEST FARGO",
        "state": "ND",
        "postalCode": "58078-7809"
      },
      {
        "line": [
          "600 Riverside Ave NE"
        ],
        "city": "MCINTOSH",
        "state": "MN",
        "postalCode": "56556-5750"
      },
      {
        "line": [
          "3330 Nebraska Dr"
        ],
        "city": "BISMARCK",
        "state": "ND",
        "postalCode": "58503-1665"
      },
      {
        "line": [
          "201 9th St W"
        ],
        "city": "ADA",
        "state": "MN",
        "postalCode": "56510-1279"
      },
      {
        "line": [
          "119 N BROADWAY"
        ],
        "city": "PELICAN RAPIDS",
        "state": "MN",
        "postalCode": "56572-4140"
      },
      {
        "line": [
          "414 W Jefferson Ave"
        ],
        "city": "MAHNOMEN",
        "state": "MN",
        "postalCode": "56557-4912"
      },
      {
        "line": [
          "512 3RD AVE S"
        ],
        "city": "MOORHEAD",
        "state": "MN",
        "postalCode": "56560-2703"
      },
      {
        "line": [
          "1125 OAKVIEW DR"
        ],
        "city": "DILWORTH",
        "state": "MN",
        "postalCode": "56529-1809"
      },
      {
        "line": [
          "2921 6TH AVE N"
        ],
        "city": "MOORHEAD",
        "state": "MN",
        "postalCode": "56560-2594"
      },
      {
        "line": [
          "1000 W Century Ave"
        ],
        "city": "BISMARCK",
        "state": "ND",
        "postalCode": "58503-0913"
      },
      {
        "line": [
          "215 TOUSLEY AVE S"
        ],
        "city": "NEW YORK MILLS",
        "state": "MN",
        "postalCode": "56567-4400"
      },
      {
        "line": [
          "4217 MONTREAL ST"
        ],
        "city": "BISMARCK",
        "state": "ND",
        "postalCode": "58503-0325"
      },
      {
        "line": [
          "1600 VETERANS DR"
        ],
        "city": "LISBON",
        "state": "ND",
        "postalCode": "58054-4801"
      },
      {
        "line": [
          "1351 BROADWAY N"
        ],
        "city": "FARGO",
        "state": "ND",
        "postalCode": "58102-2638"
      },
      {
        "line": [
          "1500 SOUTHWOOD DR"
        ],
        "city": "DILWORTH",
        "state": "MN",
        "postalCode": "56529-1291"
      },
      {
        "line": [
          "18846 EAGLE BEND RD"
        ],
        "city": "PARK RAPIDS",
        "state": "MN",
        "postalCode": "56470-2073"
      },
      {
        "line": [
          "1325 Pelican Lane"
        ],
        "city": "DETROIT LAKES",
        "state": "MN",
        "postalCode": "56501-7089"
      },
      {
        "line": [
          "3300 28TH ST S"
        ],
        "city": "MOORHEAD",
        "state": "MN",
        "postalCode": "56560-6628"
      },
      {
        "line": [
          "812 4TH AVE SW"
        ],
        "city": "PERHAM",
        "state": "MN",
        "postalCode": "56573-1632"
      },
      {
        "line": [
          "824 S SHERIDAN ST"
        ],
        "city": "FERGUS FALLS",
        "state": "MN",
        "postalCode": "56537-3022"
      },
      {
        "line": [
          "701 3RD AVE SW"
        ],
        "city": "PERHAM",
        "state": "MN",
        "postalCode": "56573-1619"
      },
      {
        "line": [
          "317 1ST St NW"
        ],
        "city": "ULEN",
        "state": "MN",
        "postalCode": "56585-4010"
      },
      {
        "line": [
          "1040 LINCOLN AVE"
        ],
        "city": "DETROIT LAKES",
        "state": "MN",
        "postalCode": "56501-3508"
      },
      {
        "line": [
          "3540 S UNIVERSITY DR"
        ],
        "city": "FARGO",
        "state": "ND",
        "postalCode": "58104-6282"
      },
      {
        "line": [
          "3406 Dominion Street"
        ],
        "city": "BISMARCK",
        "state": "ND",
        "postalCode": "58503-5577"
      },
      {
        "line": [
          "214 4TH ST NW"
        ],
        "city": "STEELE",
        "state": "ND",
        "postalCode": "58482-7329"
      },
      {
        "line": [
          "2615 PARKVIEW DR"
        ],
        "city": "MOORHEAD",
        "state": "MN",
        "postalCode": "56560-5491"
      }
    ],
    "extension": [
      {
        "url": "https://fhir.athena.io/StructureDefinition/ah-practice",
        "valueReference": {
          "reference": "Organization/a-1.Practice-20350"
        }
      },
      {
        "url": "https://fhir.athena.io/StructureDefinition/ah-brand",
        "valueReference": {
          "reference": "Organization/a-20350.Brand-1"
        }
      }
    ]
  },
  "fullUrl": "urn:uuid:dde7edbd-5a3d-519b-beef-0692284363be"
}