{
  "resource": {
    "resourceType": "Organization",
    "id": "20a18a67-c021-55e2-a5bf-12c38ad9b50b",
    "name": "TEAM CLINICS",
    "endpoint": [
      {
        "reference": "Endpoint/27a4e967-47aa-5a9c-a572-b8297ee268a2"
      },
      {
        "reference": "Endpoint/d093ab50-3402-59ea-bd72-6e66dc60ee0a"
      }
    ],
    "identifier": [
      {
        "system": "http://hl7.org/fhir/sid/us-npi",
        "value": "1366022998"
      }
    ],
    "address": [
      {
        "line": [
          "11756 N US HIGHWAY 83"
        ],
        "city": "LEAKEY",
        "state": "TX",
        "postalCode": "78873-3049"
      },
      {
        "line": [
          "2200 S Lions Ave"
        ],
        "city": "BROKEN ARROW",
        "state": "OK",
        "postalCode": "74012-6863"
      },
      {
        "line": [
          "405 East Richmond St"
        ],
        "city": "BROKEN ARROW",
        "state": "OK",
        "postalCode": "74012-5642"
      },
      {
        "line": [
          "3000 W New Orleans"
        ],
        "city": "BROKEN ARROW",
        "state": "OK",
        "postalCode": "74011-1459"
      },
      {
        "line": [
          "1801 W Locust Street"
        ],
        "city": "STILWELL",
        "state": "OK",
        "postalCode": "74960-2808"
      },
      {
        "line": [
          "3500 East Kenosha St"
        ],
        "city": "BROKEN ARROW",
        "state": "OK",
        "postalCode": "74014-6758"
      },
      {
        "line": [
          "500 W University",
          "#101"
        ],
        "city": "SHAWNEE",
        "state": "OK",
        "postalCode": "74804-2522"
      },
      {
        "line": [
          "412 S 9th St"
        ],
        "city": "BROKEN ARROW",
        "state": "OK",
        "postalCode": "74012-4410"
      },
      {
        "line": [
          "2600 N Union Ave"
        ],
        "city": "SHAWNEE",
        "state": "OK",
        "postalCode": "74804-2966"
      },
      {
        "line": [
          "800 N LOUISA AVE"
        ],
        "city": "SHAWNEE",
        "state": "OK",
        "postalCode": "74801-5832"
      },
      {
        "line": [
          "6800 E Quincy Pl"
        ],
        "city": "BROKEN ARROW",
        "state": "OK",
        "postalCode": "74014-4523"
      },
      {
        "line": [
          "509 N Custer St"
        ],
        "city": "WEATHERFORD",
        "state": "OK",
        "postalCode": "73096-4913"
      },
      {
        "line": [
          "6801 S 3rd St"
        ],
        "city": "BROKEN ARROW",
        "state": "OK",
        "postalCode": "74011-7244"
      },
      {
        "line": [
          "4300 S Juniper Pl"
        ],
        "city": "BROKEN ARROW",
        "state": "OK",
        "postalCode": "74011-2832"
      },
      {
        "line": [
          "508 S Skinner Ave",
          "Suite #18"
        ],
        "city": "DRUMRIGHT",
        "state": "OK",
        "postalCode": "74030-4420"
      },
      {
        "line": [
          "12 N 7th Street"
        ],
        "city": "STILWELL",
        "state": "OK",
        "postalCode": "74960-2808"
      },
      {
        "line": [
          "2801 E STATE HIGHWAY 9"
        ],
        "city": "NORMAN",
        "state": "OK",
        "postalCode": "73071-1101"
      },
      {
        "line": [
          "1000 36TH AVE SE"
        ],
        "city": "NORMAN",
        "state": "OK",
        "postalCode": "73026-4134"
      },
      {
        "line": [
          "2701 S Elm Pl"
        ],
        "city": "BROKEN ARROW",
        "state": "OK",
        "postalCode": "74012-7852"
      },
      {
        "line": [
          "3112 Cooke Way"
        ],
        "city": "OKLAHOMA CITY",
        "state": "OK",
        "postalCode": "73179-2401"
      },
      {
        "line": [
          "1001 N Kennedy Ave"
        ],
        "city": "SHAWNEE",
        "state": "OK",
        "postalCode": "74801-4730"
      },
      {
        "line": [
          "1500 N Washington St"
        ],
        "city": "WEATHERFORD",
        "state": "OK",
        "postalCode": "73096-2519"
      },
      {
        "line": [
          "300 S 11th St"
        ],
        "city": "CLINTON",
        "state": "OK",
        "postalCode": "73601-3933"
      },
      {
        "line": [
          "914 Oak Ave"
        ],
        "city": "WOODWARD",
        "state": "OK",
        "postalCode": "73801-2131"
      },
      {
        "line": [
          "3112 COOKE WAY"
        ],
        "city": "OKLAHOMA CITY",
        "state": "OK",
        "postalCode": "73179-2401"
      },
      {
        "line": [
          "3100 W New Orleans St"
        ],
        "city": "BROKEN ARROW",
        "state": "OK",
        "postalCode": "74011-1468"
      },
      {
        "line": [
          "1401 Lark St"
        ],
        "city": "WEATHERFORD",
        "state": "OK",
        "postalCode": "73096-2702"
      },
      {
        "line": [
          "320 E MIDWAY ST"
        ],
        "city": "BROKEN ARROW",
        "state": "OK",
        "postalCode": "74012-2633"
      },
      {
        "line": [
          "720 N Daniel St"
        ],
        "city": "WEATHERFORD",
        "state": "OK",
        "postalCode": "73096-2702"
      },
      {
        "line": [
          "1901 E Albany St"
        ],
        "city": "BROKEN ARROW",
        "state": "OK",
        "postalCode": "74012-9275"
      },
      {
        "line": [
          "7200 E Quincy Pl"
        ],
        "city": "BROKEN ARROW",
        "state": "OK",
        "postalCode": "74014-4522"
      },
      {
        "line": [
          "705 Highway 70 N"
        ],
        "city": "KINGSTON",
        "state": "OK",
        "postalCode": "73439-8207"
      },
      {
        "line": [
          "301 E Omaha St"
        ],
        "city": "BROKEN ARROW",
        "state": "OK",
        "postalCode": "74012-1740"
      },
      {
        "line": [
          "1600 W Quincy St",
          "#100 A"
        ],
        "city": "BROKEN ARROW",
        "state": "OK",
        "postalCode": "74012-5219"
      },
      {
        "line": [
          "301 W New Orleans"
        ],
        "city": "BROKEN ARROW",
        "state": "OK",
        "postalCode": "74011-2206"
      },
      {
        "line": [
          "1001 N KENNEDY AVE"
        ],
        "city": "SHAWNEE",
        "state": "OK",
        "postalCode": "74801-4730"
      },
      {
        "line": [
          "1903 Opal Ave"
        ],
        "city": "CLINTON",
        "state": "OK",
        "postalCode": "73601-5139"
      },
      {
        "line": [
          "301 E Tucson"
        ],
        "city": "BROKEN ARROW",
        "state": "OK",
        "postalCode": "74011-7235"
      },
      {
        "line": [
          "225 E Omaha St"
        ],
        "city": "BROKEN ARROW",
        "state": "OK",
        "postalCode": "74012-1761"
      },
      {
        "line": [
          "1401 E Independence St"
        ],
        "city": "SHAWNEE",
        "state": "OK",
        "postalCode": "74804-4225"
      },
      {
        "line": [
          "811 W Huber"
        ],
        "city": "WEATHERFORD",
        "state": "OK",
        "postalCode": "73096-4425"
      },
      {
        "line": [
          "326 N Union Ave"
        ],
        "city": "SHAWNEE",
        "state": "OK",
        "postalCode": "74801-7053"
      },
      {
        "line": [
          "2406 13th Street"
        ],
        "city": "WOODWARD",
        "state": "OK",
        "postalCode": "73801-1305"
      },
      {
        "line": [
          "42400 GARRETTS LAKE RD"
        ],
        "city": "SHAWNEE",
        "state": "OK",
        "postalCode": "74804-9301"
      },
      {
        "line": [
          "1351 E Albany St"
        ],
        "city": "BROKEN ARROW",
        "state": "OK",
        "postalCode": "74012-8995"
      },
      {
        "line": [
          "1831 AIRPORT DR"
        ],
        "city": "SHAWNEE",
        "state": "OK",
        "postalCode": "74804-2640"
      },
      {
        "line": [
          "2700 W FLORENCE ST"
        ],
        "city": "BROKEN ARROW",
        "state": "OK",
        "postalCode": "74011-1722"
      },
      {
        "line": [
          "372 N Cobb"
        ],
        "city": "CANEY",
        "state": "OK",
        "postalCode": "74533-5009"
      },
      {
        "line": [
          "251 E Omaha St"
        ],
        "city": "BROKEN ARROW",
        "state": "OK",
        "postalCode": "74012-1761"
      },
      {
        "line": [
          "915 W Norman"
        ],
        "city": "BROKEN ARROW",
        "state": "OK",
        "postalCode": "74012-1652"
      },
      {
        "line": [
          "412 N Draper Ave"
        ],
        "city": "SHAWNEE",
        "state": "OK",
        "postalCode": "74801-7410"
      },
      {
        "line": [
          "3801 34th St"
        ],
        "city": "WOODWARD",
        "state": "OK",
        "postalCode": "73801-2131"
      },
      {
        "line": [
          "4300 E Gary St"
        ],
        "city": "BROKEN ARROW",
        "state": "OK",
        "postalCode": "74014-5910"
      },
      {
        "line": [
          "1601 S Gordon Cooper Dr.",
          "Ste 1907"
        ],
        "city": "SHAWNEE",
        "state": "OK",
        "postalCode": "74801-9002"
      },
      {
        "line": [
          "10 S 6TH ST"
        ],
        "city": "STILWELL",
        "state": "OK",
        "postalCode": "74960-2808"
      },
      {
        "line": [
          "4300 S 209th East Ave"
        ],
        "city": "BROKEN ARROW",
        "state": "OK",
        "postalCode": "74014-1584"
      }
    ],
    "extension": [
      {
        "url": "https://fhir.athena.io/StructureDefinition/ah-practice",
        "valueReference": {
          "reference": "Organization/a-1.Practice-23749"
        }
      },
      {
        "url": "https://fhir.athena.io/StructureDefinition/ah-brand",
        "valueReference": {
          "reference": "Organization/a-23749.Brand-1"
        }
      }
    ]
  },
  "fullUrl": "urn:uuid:20a18a67-c021-55e2-a5bf-12c38ad9b50b"
}