{
  "resource": {
    "resourceType": "Organization",
    "id": "d0931493-7d70-532b-9679-ffae6a6b3682",
    "name": "BR General Medical Center-Picardy",
    "endpoint": [
      {
        "reference": "Endpoint/27a4e967-47aa-5a9c-a572-b8297ee268a2"
      },
      {
        "reference": "Endpoint/f77a71da-60d0-5014-9fc8-5f0a8230ae81"
      }
    ],
    "identifier": [
      {
        "system": "http://hl7.org/fhir/sid/us-npi",
        "value": "1316130370"
      },
      {
        "system": "http://hl7.org/fhir/sid/us-npi",
        "value": "1275577603"
      }
    ],
    "address": [
      {
        "line": [
          "230 Roberts Dr Ste H"
        ],
        "city": "NEW ROADS",
        "state": "LA",
        "postalCode": "70760-2661"
      },
      {
        "line": [
          "31995 Highway 16"
        ],
        "city": "DENHAM SPRINGS",
        "state": "LA",
        "postalCode": "70726-1456"
      },
      {
        "line": [
          "230 Roberts Drive Ste D"
        ],
        "city": "NEW ROADS",
        "state": "LA",
        "postalCode": "70760-2661"
      },
      {
        "line": [
          "230 Roberts Dr. Ste E"
        ],
        "city": "NEW ROADS",
        "state": "LA",
        "postalCode": "70760-2661"
      },
      {
        "line": [
          "7777 Hennessy Blvd Ste 101"
        ],
        "city": "BATON ROUGE",
        "state": "LA",
        "postalCode": "70808-4363"
      },
      {
        "line": [
          "8415 Goodwood Blvd Ste 104"
        ],
        "city": "BATON ROUGE",
        "state": "LA",
        "postalCode": "70806-7851"
      },
      {
        "line": [
          "12525 Perkins Road",
          "Suite C"
        ],
        "city": "BATON ROUGE",
        "state": "LA",
        "postalCode": "70810-1907"
      },
      {
        "line": [
          "59315 River West Drive"
        ],
        "city": "PLAQUEMINE",
        "state": "LA",
        "postalCode": "70764-6553"
      },
      {
        "line": [
          "9422 Scotland Avenue"
        ],
        "city": "BATON ROUGE",
        "state": "LA",
        "postalCode": "70807-3951"
      },
      {
        "line": [
          "230 Roberts Dr Ste B"
        ],
        "city": "NEW ROADS",
        "state": "LA",
        "postalCode": "70760-2661"
      },
      {
        "line": [
          "7777 Hennessy Blvd Ste 7000"
        ],
        "city": "BATON ROUGE",
        "state": "LA",
        "postalCode": "70808-0307"
      },
      {
        "line": [
          "8415 Goodwood Blvd",
          "Ste 202"
        ],
        "city": "BATON ROUGE",
        "state": "LA",
        "postalCode": "70806-7851"
      },
      {
        "line": [
          "12525 Perkins Rd Ste A"
        ],
        "city": "BATON ROUGE",
        "state": "LA",
        "postalCode": "70810-1907"
      },
      {
        "line": [
          "160 Hospital Rd"
        ],
        "city": "NEW ROADS",
        "state": "LA",
        "postalCode": "70760-2617"
      },
      {
        "line": [
          "18135 E. Petroleum Dr. Suite A"
        ],
        "city": "BATON ROUGE",
        "state": "LA",
        "postalCode": "70809-6104"
      },
      {
        "line": [
          "8415 Goodwood Blvd Ste 100"
        ],
        "city": "BATON ROUGE",
        "state": "LA",
        "postalCode": "70806-7851"
      },
      {
        "line": [
          "311 Veterans Blvd Ste B"
        ],
        "city": "DENHAM SPRINGS",
        "state": "LA",
        "postalCode": "70726-4726"
      },
      {
        "line": [
          "2380 O'Neal Lane Ste A"
        ],
        "city": "BATON ROUGE",
        "state": "LA",
        "postalCode": "70816-9315"
      },
      {
        "line": [
          "781 Colonial Drive"
        ],
        "city": "BATON ROUGE",
        "state": "LA",
        "postalCode": "70806-1818"
      },
      {
        "line": [
          "18989 Old Scenic Hwy"
        ],
        "city": "ZACHARY",
        "state": "LA",
        "postalCode": "70791-8105"
      },
      {
        "line": [
          "4463 LA Hwy 1 South"
        ],
        "city": "PORT ALLEN",
        "state": "LA",
        "postalCode": "70767-5907"
      },
      {
        "line": [
          "5247 Didesse Drive"
        ],
        "city": "BATON ROUGE",
        "state": "LA",
        "postalCode": "70808-4306"
      }
    ],
    "extension": [
      {
        "url": "https://fhir.athena.io/StructureDefinition/ah-practice",
        "valueReference": {
          "reference": "Organization/a-1.Practice-1077"
        }
      },
      {
        "url": "https://fhir.athena.io/StructureDefinition/ah-brand",
        "valueReference": {
          "reference": "Organization/a-1077.Brand-1"
        }
      }
    ]
  },
  "fullUrl": "urn:uuid:d0931493-7d70-532b-9679-ffae6a6b3682"
}