{
  "resource": {
    "resourceType": "Organization",
    "id": "a04fa5c6-2ee7-5896-a6da-6504d72b2f54",
    "name": "ALC Primary Care at Home",
    "endpoint": [
      {
        "reference": "Endpoint/27a4e967-47aa-5a9c-a572-b8297ee268a2"
      },
      {
        "reference": "Endpoint/46829c82-a466-5ce7-be3f-bb85cb0ea3b6"
      }
    ],
    "identifier": [
      {
        "system": "http://hl7.org/fhir/sid/us-npi",
        "value": "1083195564"
      }
    ],
    "address": [
      {
        "line": [
          "2143 NORTHPOINT BLVD"
        ],
        "city": "HIXSON",
        "state": "TN",
        "postalCode": "37343-4697"
      },
      {
        "line": [
          "7620 SHALLOWFORD RD"
        ],
        "city": "CHATTANOOGA",
        "state": "TN",
        "postalCode": "37421-2697"
      },
      {
        "line": [
          "6845 STANDIFER GAP RD"
        ],
        "city": "CHATTANOOGA",
        "state": "TN",
        "postalCode": "37421-1410"
      },
      {
        "line": [
          "1300 W WAUGH ST"
        ],
        "city": "DALTON",
        "state": "GA",
        "postalCode": "30720-3434"
      },
      {
        "line": [
          "1515 BARRINGTON RD"
        ],
        "city": "HOFFMAN ESTATES",
        "state": "IL",
        "postalCode": "60169-5021"
      },
      {
        "line": [
          "1546 WATER ST"
        ],
        "city": "BLUE ISLAND",
        "state": "IL",
        "postalCode": "60406-5094"
      },
      {
        "line": [
          "1168 CHULIO RD SE"
        ],
        "city": "ROME",
        "state": "GA",
        "postalCode": "30161-4084"
      },
      {
        "line": [
          "2470 DUG GAP RD"
        ],
        "city": "DALTON",
        "state": "GA",
        "postalCode": "30720-9210"
      },
      {
        "line": [
          "4715 W IRVING PARK RD"
        ],
        "city": "CHICAGO",
        "state": "IL",
        "postalCode": "60641-3172"
      },
      {
        "line": [
          "200 W Martian Luther King Blvd",
          "Suite 1000"
        ],
        "city": "CHATTANOOGA",
        "state": "TN",
        "postalCode": "37402-2571"
      },
      {
        "line": [
          "1920 MAPLE AVE"
        ],
        "city": "LISLE",
        "state": "IL",
        "postalCode": "60532-2179"
      },
      {
        "line": [
          "14 FORT TOWN DR"
        ],
        "city": "FORT OGLETHORPE",
        "state": "GA",
        "postalCode": "30742-4051"
      },
      {
        "line": [
          "831 BUTTERFIELD RD"
        ],
        "city": "WHEATON",
        "state": "IL",
        "postalCode": "60189-8674"
      },
      {
        "line": [
          "300 W 22ND ST"
        ],
        "city": "LOMBARD",
        "state": "IL",
        "postalCode": "60148-5417"
      },
      {
        "line": [
          "960 E CHICAGO AVE"
        ],
        "city": "NAPERVILLE",
        "state": "IL",
        "postalCode": "60540-5510"
      },
      {
        "line": [
          "6705 BALLARD DR"
        ],
        "city": "CHATTANOOGA",
        "state": "TN",
        "postalCode": "37421-2476"
      },
      {
        "line": [
          "3500 Lenox Rd NE"
        ],
        "city": "ATLANTA",
        "state": "GA",
        "postalCode": "30326-4231"
      },
      {
        "line": [
          "1115 W WALNUT AVE"
        ],
        "city": "DALTON",
        "state": "GA",
        "postalCode": "30720-3956"
      },
      {
        "line": [
          "1300 MCFARLAND AVE"
        ],
        "city": "ROSSVILLE",
        "state": "GA",
        "postalCode": "30741-2363"
      },
      {
        "line": [
          "5450 SUBIACO DR"
        ],
        "city": "LISLE",
        "state": "IL",
        "postalCode": "60532-3105"
      },
      {
        "line": [
          "7230 LEE HWY"
        ],
        "city": "CHATTANOOGA",
        "state": "TN",
        "postalCode": "37421-1734"
      },
      {
        "line": [
          "15W150 S FRONTAGE RD"
        ],
        "city": "WILLOWBROOK",
        "state": "IL",
        "postalCode": "60527-6956"
      },
      {
        "line": [
          "900 IRVING PARK RD"
        ],
        "city": "HANOVER PARK",
        "state": "IL",
        "postalCode": "60133-2753"
      },
      {
        "line": [
          "6711 MOUNTAIN VIEW RD"
        ],
        "city": "OOLTEWAH",
        "state": "TN",
        "postalCode": "37363-6668"
      },
      {
        "line": [
          "1005 MOUNTAIN CREEK RD"
        ],
        "city": "CHATTANOOGA",
        "state": "TN",
        "postalCode": "37405-1638"
      },
      {
        "line": [
          "1700 ROBIN LN"
        ],
        "city": "LISLE",
        "state": "IL",
        "postalCode": "60532-4155"
      },
      {
        "line": [
          "1417 N MACK SMITH RD"
        ],
        "city": "CHATTANOOGA",
        "state": "TN",
        "postalCode": "37412-3973"
      },
      {
        "line": [
          "1040 DIXIE HWY"
        ],
        "city": "CHICAGO HEIGHTS",
        "state": "IL",
        "postalCode": "60411-2690"
      },
      {
        "line": [
          "616 MOHAWK ST"
        ],
        "city": "ROSSVILLE",
        "state": "GA",
        "postalCode": "30741-1125"
      },
      {
        "line": [
          "510 REED RD"
        ],
        "city": "DALTON",
        "state": "GA",
        "postalCode": "30720-6200"
      },
      {
        "line": [
          "110 W SCHAUMBURG RD"
        ],
        "city": "STREAMWOOD",
        "state": "IL",
        "postalCode": "60107-1459"
      },
      {
        "line": [
          "411 EDMOND ST"
        ],
        "city": "CALHOUN",
        "state": "GA",
        "postalCode": "30701-5334"
      },
      {
        "line": [
          "986 ORCHARD WAY"
        ],
        "city": "DALTON",
        "state": "GA",
        "postalCode": "30721-9758"
      },
      {
        "line": [
          "600 Enterprise Dr",
          "Suite 212"
        ],
        "city": "OAK BROOK",
        "state": "IL",
        "postalCode": "60523-1958"
      },
      {
        "line": [
          "5901 SNOW HILL RD"
        ],
        "city": "OOLTEWAH",
        "state": "TN",
        "postalCode": "37363-5598"
      },
      {
        "line": [
          "1776 GENERATIONS WAY"
        ],
        "city": "OOLTEWAH",
        "state": "TN",
        "postalCode": "37363-1739"
      },
      {
        "line": [
          "303 E WASHINGTON ST"
        ],
        "city": "BENSENVILLE",
        "state": "IL",
        "postalCode": "60106-3515"
      },
      {
        "line": [
          "2801 174TH ST"
        ],
        "city": "HAZEL CREST",
        "state": "IL",
        "postalCode": "60429-1731"
      },
      {
        "line": [
          "3701 CHERRYTON DR"
        ],
        "city": "CHATTANOOGA",
        "state": "TN",
        "postalCode": "37411-3635"
      },
      {
        "line": [
          "54 BATTLEFIELD CANOPY CIR"
        ],
        "city": "RINGGOLD",
        "state": "GA",
        "postalCode": "30736-5052"
      },
      {
        "line": [
          "67 PIN OAK DR"
        ],
        "city": "ROCK SPRING",
        "state": "GA",
        "postalCode": "30739-2328"
      },
      {
        "line": [
          "6698 PALMS CT"
        ],
        "city": "CHATTANOOGA",
        "state": "TN",
        "postalCode": "37421-2278"
      },
      {
        "line": [
          "508 N MCLEAN BLVD"
        ],
        "city": "ELGIN",
        "state": "IL",
        "postalCode": "60123-3253"
      },
      {
        "line": [
          "7683 SHALLOWFORD RD"
        ],
        "city": "CHATTANOOGA",
        "state": "TN",
        "postalCode": "37421-4918"
      },
      {
        "line": [
          "700 N MCLEAN BLVD"
        ],
        "city": "SOUTH ELGIN",
        "state": "IL",
        "postalCode": "60177-1442"
      },
      {
        "line": [
          "1148 MOUNTAIN CREEK RD"
        ],
        "city": "CHATTANOOGA",
        "state": "TN",
        "postalCode": "37405-1692"
      },
      {
        "line": [
          "7511 SHALLOWFORD RD"
        ],
        "city": "CHATTANOOGA",
        "state": "TN",
        "postalCode": "37421-2689"
      },
      {
        "line": [
          "1901 SILVER GLEN RD"
        ],
        "city": "SOUTH ELGIN",
        "state": "IL",
        "postalCode": "60177-3351"
      },
      {
        "line": [
          "1209 INDIAN AVE"
        ],
        "city": "ROSSVILLE",
        "state": "GA",
        "postalCode": "30741-1744"
      },
      {
        "line": [
          "5310 CLEMONS RD"
        ],
        "city": "CHATTANOOGA",
        "state": "TN",
        "postalCode": "37412-3385"
      },
      {
        "line": [
          "1619 N MILL ST"
        ],
        "city": "NAPERVILLE",
        "state": "IL",
        "postalCode": "60563-2858"
      },
      {
        "line": [
          "37 BROCK DR"
        ],
        "city": "LOOKOUT MOUNTAIN",
        "state": "GA",
        "postalCode": "30750-2207"
      },
      {
        "line": [
          "703 MADISON ST"
        ],
        "city": "OAK PARK",
        "state": "IL",
        "postalCode": "60302-4410"
      },
      {
        "line": [
          "10 HIGHWAY 411 SE"
        ],
        "city": "ROME",
        "state": "GA",
        "postalCode": "30161-6610"
      },
      {
        "line": [
          "4515 HIXSON PIKE"
        ],
        "city": "HIXSON",
        "state": "TN",
        "postalCode": "37343-5035"
      },
      {
        "line": [
          "9300 MESSINGER LN"
        ],
        "city": "OOLTEWAH",
        "state": "TN",
        "postalCode": "37363-5668"
      },
      {
        "line": [
          "279 TECHNOLOGY PKWY NW"
        ],
        "city": "ROME",
        "state": "GA",
        "postalCode": "30165-1370"
      },
      {
        "line": [
          "279 HAIG MILL RD NW"
        ],
        "city": "DALTON",
        "state": "GA",
        "postalCode": "30721-7958"
      },
      {
        "line": [
          "5701 W 101ST PL"
        ],
        "city": "OAK LAWN",
        "state": "IL",
        "postalCode": "60453-4400"
      },
      {
        "line": [
          "825 RUNYAN DR"
        ],
        "city": "CHATTANOOGA",
        "state": "TN",
        "postalCode": "37405-1225"
      },
      {
        "line": [
          "4586 FORSYTHIA WAY"
        ],
        "city": "OOLTEWAH",
        "state": "TN",
        "postalCode": "37363-4945"
      },
      {
        "line": [
          "735 E 10TH ST"
        ],
        "city": "CHATTANOOGA",
        "state": "TN",
        "postalCode": "37403-2917"
      },
      {
        "line": [
          "7719 SHALLOWFORD RD"
        ],
        "city": "CHATTANOOGA",
        "state": "TN",
        "postalCode": "37421-2616"
      },
      {
        "line": [
          "2200 GOLF RD"
        ],
        "city": "GLENVIEW",
        "state": "IL",
        "postalCode": "60025-4903"
      },
      {
        "line": [
          "28W141 LIBERTY ST"
        ],
        "city": "WINFIELD",
        "state": "IL",
        "postalCode": "60190-1953"
      },
      {
        "line": [
          "480 N WOLF RD"
        ],
        "city": "MELROSE PARK",
        "state": "IL",
        "postalCode": "60164-1650"
      },
      {
        "line": [
          "200 E LAKE ST"
        ],
        "city": "ELMHURST",
        "state": "IL",
        "postalCode": "60126-2013"
      },
      {
        "line": [
          "401 W LAKE ST"
        ],
        "city": "MELROSE PARK",
        "state": "IL",
        "postalCode": "60164-2435"
      },
      {
        "line": [
          "123 W BRUSH HILL RD"
        ],
        "city": "ELMHURST",
        "state": "IL",
        "postalCode": "60126-5652"
      },
      {
        "line": [
          "8248 STANDIFER GAP RD"
        ],
        "city": "CHATTANOOGA",
        "state": "TN",
        "postalCode": "37421-5028"
      },
      {
        "line": [
          "7127 LEE HWY"
        ],
        "city": "CHATTANOOGA",
        "state": "TN",
        "postalCode": "37421-6790"
      }
    ],
    "extension": [
      {
        "url": "https://fhir.athena.io/StructureDefinition/ah-practice",
        "valueReference": {
          "reference": "Organization/a-1.Practice-27544"
        }
      },
      {
        "url": "https://fhir.athena.io/StructureDefinition/ah-brand",
        "valueReference": {
          "reference": "Organization/a-27544.Brand-1"
        }
      }
    ]
  },
  "fullUrl": "urn:uuid:a04fa5c6-2ee7-5896-a6da-6504d72b2f54"
}