{
  "resource": {
    "resourceType": "Organization",
    "id": "f1173a2f-1d58-5644-adfa-ee31f9382090",
    "name": "MHPP Geriatric Medical Associates",
    "endpoint": [
      {
        "reference": "Endpoint/27a4e967-47aa-5a9c-a572-b8297ee268a2"
      },
      {
        "reference": "Endpoint/b646eae2-dcb5-5dab-aace-addd15b24463"
      }
    ],
    "identifier": [
      {
        "system": "http://hl7.org/fhir/sid/us-npi",
        "value": "1023056744"
      }
    ],
    "address": [
      {
        "line": [
          "560 Seminole Rd"
        ],
        "city": "MUSKEGON",
        "state": "MI",
        "postalCode": "49444-3720"
      },
      {
        "line": [
          "1740 VILLAGE DR"
        ],
        "city": "MUSKEGON",
        "state": "MI",
        "postalCode": "49442-4282"
      },
      {
        "line": [
          "1750 VULCAN ST."
        ],
        "city": "MUSKEGON",
        "state": "MI",
        "postalCode": "49442-6099"
      },
      {
        "line": [
          "1150 E Sherman Blvd"
        ],
        "city": "MUSKEGON",
        "state": "MI",
        "postalCode": "49444-1871"
      },
      {
        "line": [
          "570 HARVEY"
        ],
        "city": "MUSKEGON",
        "state": "MI",
        "postalCode": "49442-2380"
      },
      {
        "line": [
          "255 SEMINOLE RD",
          "UNIT 102"
        ],
        "city": "MUSKEGON",
        "state": "MI",
        "postalCode": "49444-3758"
      },
      {
        "line": [
          "18525 Woodland Ridge Dr"
        ],
        "city": "SPRING LAKE",
        "state": "MI",
        "postalCode": "49456-8876"
      },
      {
        "line": [
          "630 KENMOOR AVE SE",
          "SUITE 200"
        ],
        "city": "GRAND RAPIDS",
        "state": "MI",
        "postalCode": "49546-8626"
      },
      {
        "line": [
          "427 SEMINOLE RD",
          "SUITE 200B"
        ],
        "city": "MUSKEGON",
        "state": "MI",
        "postalCode": "49444-1871"
      },
      {
        "line": [
          "5906 COMMERCE CENTRE"
        ],
        "city": "MUSKEGON",
        "state": "MI",
        "postalCode": "49444-7870"
      },
      {
        "line": [
          "701 E. MAIN ST."
        ],
        "city": "HART",
        "state": "MI",
        "postalCode": "49420-1168"
      },
      {
        "line": [
          "1275 KENNETH"
        ],
        "city": "MUSKEGON",
        "state": "MI",
        "postalCode": "49442-5180"
      },
      {
        "line": [
          "2050 BRETON RD SE",
          "SUITE 106"
        ],
        "city": "GRAND RAPIDS",
        "state": "MI",
        "postalCode": "49546-5547"
      },
      {
        "line": [
          "1300 W. BROADWAY AVE"
        ],
        "city": "MUSKEGON",
        "state": "MI",
        "postalCode": "49441-3530"
      },
      {
        "line": [
          "2650 RUDDIMAN"
        ],
        "city": "MUSKEGON",
        "state": "MI",
        "postalCode": "49445-3260"
      },
      {
        "line": [
          "18100 174th Avenue"
        ],
        "city": "SPRING LAKE",
        "state": "MI",
        "postalCode": "49456-9766"
      },
      {
        "line": [
          "684 HARVEY"
        ],
        "city": "MUSKEGON",
        "state": "MI",
        "postalCode": "49441-4274"
      },
      {
        "line": [
          "1380 E. SHERMAN BLVD",
          "STE 125"
        ],
        "city": "MUSKEGON",
        "state": "MI",
        "postalCode": "49444-1850"
      },
      {
        "line": [
          "572 LAKE FOREST LN"
        ],
        "city": "MUSKEGON",
        "state": "MI",
        "postalCode": "49441-4714"
      },
      {
        "line": [
          "1519 EAST RIVER RD",
          "SUITE A"
        ],
        "city": "MUSKEGON",
        "state": "MI",
        "postalCode": "49445-8591"
      }
    ],
    "extension": [
      {
        "url": "https://fhir.athena.io/StructureDefinition/ah-practice",
        "valueReference": {
          "reference": "Organization/a-1.Practice-11692"
        }
      },
      {
        "url": "https://fhir.athena.io/StructureDefinition/ah-brand",
        "valueReference": {
          "reference": "Organization/a-11692.Brand-1"
        }
      }
    ]
  },
  "fullUrl": "urn:uuid:f1173a2f-1d58-5644-adfa-ee31f9382090"
}