{
  "resource": {
    "resourceType": "Organization",
    "id": "c4afa723-aca5-58ec-86bf-00aa04bf40f4",
    "name": "Crane Center",
    "endpoint": [
      {
        "reference": "Endpoint/27a4e967-47aa-5a9c-a572-b8297ee268a2"
      },
      {
        "reference": "Endpoint/5df461a3-5618-5a6c-ad11-32ab55482aa5"
      }
    ],
    "identifier": [
      {
        "system": "http://hl7.org/fhir/sid/us-npi",
        "value": "1679076731"
      },
      {
        "system": "http://hl7.org/fhir/sid/us-npi",
        "value": "1881058790"
      },
      {
        "system": "http://hl7.org/fhir/sid/us-npi",
        "value": "1144071168"
      }
    ],
    "address": [
      {
        "line": [
          "1601 TRINITY ST"
        ],
        "city": "AUSTIN",
        "state": "TX",
        "postalCode": "78712-1765"
      },
      {
        "line": [
          "45 CASTRO ST"
        ],
        "city": "SAN FRANCISCO",
        "state": "CA",
        "postalCode": "94114-1010"
      },
      {
        "line": [
          "575 SIR FRANCIS DRAKE BLVD"
        ],
        "city": "GREENBRAE",
        "state": "CA",
        "postalCode": "94904-2306"
      },
      {
        "line": [
          "901 CAMPUS DR"
        ],
        "city": "DALY CITY",
        "state": "CA",
        "postalCode": "94015-4900"
      },
      {
        "line": [
          "3555 CESAR CHAVEZ"
        ],
        "city": "SAN FRANCISCO",
        "state": "CA",
        "postalCode": "94110-4403"
      },
      {
        "line": [
          "350 HAWTHORNE AVENUE"
        ],
        "city": "OAKLAND",
        "state": "CA",
        "postalCode": "94609-3108"
      },
      {
        "line": [
          "4747 ARAPAHOE AVE"
        ],
        "city": "BOULDER",
        "state": "CO",
        "postalCode": "80303-1131"
      },
      {
        "line": [
          "4407 BEE CAVES RD STE 612"
        ],
        "city": "AUSTIN",
        "state": "TX",
        "postalCode": "78746-5285"
      },
      {
        "line": [
          "4701 BEE CAVES RD"
        ],
        "city": "AUSTIN",
        "state": "TX",
        "postalCode": "78746-5366"
      },
      {
        "line": [
          "5495 ARAPAHOE STE 200"
        ],
        "city": "BOULDER",
        "state": "CO",
        "postalCode": "80303-1225"
      },
      {
        "line": [
          "350 HAWTHORNE AVE"
        ],
        "city": "OAKLAND",
        "state": "CA",
        "postalCode": "94609-3108"
      },
      {
        "line": [
          "4743 ARAPAHOE AVE"
        ],
        "city": "BOULDER",
        "state": "CO",
        "postalCode": "80303-1113"
      },
      {
        "line": [
          "900 HYDE ST"
        ],
        "city": "SAN FRANCISCO",
        "state": "CA",
        "postalCode": "94109-4806"
      },
      {
        "line": [
          "1545 PINE ST APT 101"
        ],
        "city": "SAN FRANCISCO",
        "state": "CA",
        "postalCode": "94109-4682"
      },
      {
        "line": [
          "1545 PINE ST APT 109"
        ],
        "city": "SAN FRANCISCO",
        "state": "CA",
        "postalCode": "94109-4682"
      },
      {
        "line": [
          "2450 ASHBY AVENUE"
        ],
        "city": "BERKELEY",
        "state": "CA",
        "postalCode": "94705-2067"
      },
      {
        "line": [
          "2450 ASHBY AVE"
        ],
        "city": "BERKELEY",
        "state": "CA",
        "postalCode": "94705-2067"
      },
      {
        "line": [
          "5656 BEE CAVE RD"
        ],
        "city": "AUSTIN",
        "state": "TX",
        "postalCode": "78746-5280"
      },
      {
        "line": [
          "45 CASTRO STREET"
        ],
        "city": "SAN FRANCISCO",
        "state": "CA",
        "postalCode": "94114-1010"
      },
      {
        "line": [
          "575 SIR FRANCIS DRAKE BLVD"
        ],
        "city": "GREENBRAE",
        "state": "CA",
        "postalCode": "94904-2307"
      }
    ],
    "extension": [
      {
        "url": "https://fhir.athena.io/StructureDefinition/ah-practice",
        "valueReference": {
          "reference": "Organization/a-1.Practice-30614"
        }
      },
      {
        "url": "https://fhir.athena.io/StructureDefinition/ah-brand",
        "valueReference": {
          "reference": "Organization/a-30614.Brand-1"
        }
      }
    ]
  },
  "fullUrl": "urn:uuid:c4afa723-aca5-58ec-86bf-00aa04bf40f4"
}