{
  "resource": {
    "resourceType": "Organization",
    "id": "cc83f2d0-b40d-53ac-a474-64a74f4667c5",
    "name": "University of Toledo Physicians, LLC",
    "endpoint": [
      {
        "reference": "Endpoint/27a4e967-47aa-5a9c-a572-b8297ee268a2"
      },
      {
        "reference": "Endpoint/371774d8-28dd-5e80-8796-819b746aec8d"
      }
    ],
    "identifier": [
      {
        "system": "http://hl7.org/fhir/sid/us-npi",
        "value": "1942296033"
      },
      {
        "system": "http://hl7.org/fhir/sid/us-npi",
        "value": "1215240676"
      }
    ],
    "address": [
      {
        "line": [
          "2720 ALBON RD."
        ],
        "city": "MAUMEE",
        "state": "OH",
        "postalCode": "43537-9752"
      },
      {
        "line": [
          "395 HARDING ST"
        ],
        "city": "DEFIANCE",
        "state": "OH",
        "postalCode": "43512-1315"
      },
      {
        "line": [
          "930 S WYNN RD"
        ],
        "city": "OREGON",
        "state": "OH",
        "postalCode": "43616-3530"
      },
      {
        "line": [
          "101 main st"
        ],
        "city": "BRIGHTON",
        "state": "MA",
        "postalCode": "02135-1234"
      },
      {
        "line": [
          "5916 CRESTHAVEN LANE"
        ],
        "city": "TOLEDO",
        "state": "OH",
        "postalCode": "43614-3525"
      },
      {
        "line": [
          "3529 RIVERS EDGE DRIVE"
        ],
        "city": "PERRYSBURG",
        "state": "OH",
        "postalCode": "43551-1672"
      },
      {
        "line": [
          "28546 STARBRIGHT BLVD"
        ],
        "city": "PERRYSBURG",
        "state": "OH",
        "postalCode": "43551-4686"
      },
      {
        "line": [
          "3000 ARLINGTON AVENUE"
        ],
        "city": "TOLEDO",
        "state": "OH",
        "postalCode": "43614-2595"
      },
      {
        "line": [
          "2000 REGENCY CT",
          "SUITE 101"
        ],
        "city": "TOLEDO",
        "state": "OH",
        "postalCode": "43623-3090"
      },
      {
        "line": [
          "PATIENTS HOME"
        ],
        "city": "TOLEDO",
        "state": "OH",
        "postalCode": "43606-3895"
      },
      {
        "line": [
          "100 PINNACLE DR"
        ],
        "city": "FREMONT",
        "state": "OH",
        "postalCode": "43420-7400"
      },
      {
        "line": [
          "2735 DARLINGTON ROAD"
        ],
        "city": "TOLEDO",
        "state": "OH",
        "postalCode": "43606-3206"
      },
      {
        "line": [
          "1400 E MEDICAL LOOP"
        ],
        "city": "TOLEDO",
        "state": "OH",
        "postalCode": "43614-8004"
      },
      {
        "line": [
          "3214 BRIARFIELD BLVD"
        ],
        "city": "MAUMEE",
        "state": "OH",
        "postalCode": "43537-9752"
      },
      {
        "line": [
          "5069 OTTERBEIN WAY"
        ],
        "city": "MONCLOVA",
        "state": "OH",
        "postalCode": "43542-8500"
      },
      {
        "line": [
          "6546 WEATHERFIELD COURT",
          "SUITE E2"
        ],
        "city": "MAUMEE",
        "state": "OH",
        "postalCode": "43537-9752"
      },
      {
        "line": [
          "4447 TALMADGE ROAD",
          "SUITE E"
        ],
        "city": "TOLEDO",
        "state": "OH",
        "postalCode": "43623-3517"
      },
      {
        "line": [
          "4510 DORR ST"
        ],
        "city": "TOLEDO",
        "state": "OH",
        "postalCode": "43615-4040"
      },
      {
        "line": [
          "4747 SUDER AVE"
        ],
        "city": "TOLEDO",
        "state": "OH",
        "postalCode": "43611-2869"
      },
      {
        "line": [
          "2841 MUNDING DR"
        ],
        "city": "OREGON",
        "state": "OH",
        "postalCode": "43616-3214"
      },
      {
        "line": [
          "4647 MONROE ST"
        ],
        "city": "TOLEDO",
        "state": "OH",
        "postalCode": "43623-4418"
      },
      {
        "line": [
          "2841 MUNCING DR"
        ],
        "city": "OREGON",
        "state": "OH",
        "postalCode": "43616-3214"
      }
    ],
    "extension": [
      {
        "url": "https://fhir.athena.io/StructureDefinition/ah-practice",
        "valueReference": {
          "reference": "Organization/a-1.Practice-9641"
        }
      },
      {
        "url": "https://fhir.athena.io/StructureDefinition/ah-brand",
        "valueReference": {
          "reference": "Organization/a-9641.Brand-2"
        }
      }
    ]
  },
  "fullUrl": "urn:uuid:cc83f2d0-b40d-53ac-a474-64a74f4667c5"
}