{
  "resource": {
    "resourceType": "Organization",
    "id": "beed30ad-9204-5ba9-8ab1-14ff8d175279",
    "name": "CASS RIVER HEALTH PLAZA",
    "endpoint": [
      {
        "reference": "Endpoint/27a4e967-47aa-5a9c-a572-b8297ee268a2"
      },
      {
        "reference": "Endpoint/778c9f20-d370-5578-a273-5b835fd54d1a"
      }
    ],
    "identifier": [
      {
        "system": "http://hl7.org/fhir/sid/us-npi",
        "value": "1356600431"
      }
    ],
    "address": [
      {
        "line": [
          "1040 Covenant Dr"
        ],
        "city": "FRANKENMUTH",
        "state": "MI",
        "postalCode": "48734-9800"
      },
      {
        "line": [
          "6940 DIXIE HWY"
        ],
        "city": "BRIDGEPORT",
        "state": "MI",
        "postalCode": "48722-9760"
      },
      {
        "line": [
          "9140 Gratiot Rd"
        ],
        "city": "SAGINAW",
        "state": "MI",
        "postalCode": "48609-9401"
      },
      {
        "line": [
          "44256 MOUND RD"
        ],
        "city": "STERLING HEIGHTS",
        "state": "MI",
        "postalCode": "48314-1313"
      },
      {
        "line": [
          "1320 RICKETT RD"
        ],
        "city": "BRIGHTON",
        "state": "MI",
        "postalCode": "48116-1833"
      },
      {
        "line": [
          "51831 VAN DYKE AVE"
        ],
        "city": "SHELBY TOWNSHIP",
        "state": "MI",
        "postalCode": "48316-4454"
      },
      {
        "line": [
          "5366 ROLLING HILLS"
        ],
        "city": "BRIDGEPORT",
        "state": "MI",
        "postalCode": "48722-9671"
      },
      {
        "line": [
          "100 DECKER RD"
        ],
        "city": "WALLED LAKE",
        "state": "MI",
        "postalCode": "48390-3625"
      },
      {
        "line": [
          "5850 WHITE LAKE RD"
        ],
        "city": "INDEPENDENCE",
        "state": "MI",
        "postalCode": "48346-2658"
      }
    ],
    "extension": [
      {
        "url": "https://fhir.athena.io/StructureDefinition/ah-practice",
        "valueReference": {
          "reference": "Organization/a-1.Practice-15125"
        }
      },
      {
        "url": "https://fhir.athena.io/StructureDefinition/ah-brand",
        "valueReference": {
          "reference": "Organization/a-15125.Brand-1"
        }
      }
    ]
  },
  "fullUrl": "urn:uuid:beed30ad-9204-5ba9-8ab1-14ff8d175279"
}