{
  "resource": {
    "resourceType": "Organization",
    "id": "4c2379b9-7bdb-5aae-96cd-04972cf60f73",
    "name": "Ultra Health Providers",
    "endpoint": [
      {
        "reference": "Endpoint/27a4e967-47aa-5a9c-a572-b8297ee268a2"
      },
      {
        "reference": "Endpoint/1fd90cbb-960a-541b-9bea-3f3118a13b04"
      }
    ],
    "identifier": [
      {
        "system": "http://hl7.org/fhir/sid/us-npi",
        "value": "1922469543"
      }
    ],
    "address": [
      {
        "line": [
          "200 Birch Lane"
        ],
        "city": "JACKSON",
        "state": "TN",
        "postalCode": "38301-6684"
      },
      {
        "line": [
          "107 Boyles Dr"
        ],
        "city": "RUSSELLVILLE",
        "state": "KY",
        "postalCode": "42276-8838"
      },
      {
        "line": [
          "2036 HIGHWAY 45 BYPASS S"
        ],
        "city": "TRENTON",
        "state": "TN",
        "postalCode": "38382-2941"
      },
      {
        "line": [
          "701 Sherrill St"
        ],
        "city": "UNION CITY",
        "state": "TN",
        "postalCode": "38261-5898"
      },
      {
        "line": [
          "524 W Main St"
        ],
        "city": "DECATURVILLE",
        "state": "TN",
        "postalCode": "38329-8101"
      },
      {
        "line": [
          "1034 REELFOOT ST"
        ],
        "city": "TIPTONVILLE",
        "state": "TN",
        "postalCode": "38079-1607"
      },
      {
        "line": [
          "2084 W Main St"
        ],
        "city": "MILAN",
        "state": "TN",
        "postalCode": "38358-3515"
      },
      {
        "line": [
          "704 5TH AVE E"
        ],
        "city": "SPRINGFIELD",
        "state": "TN",
        "postalCode": "37172-2604"
      },
      {
        "line": [
          "718 Goodwin Ln"
        ],
        "city": "LEITCHFIELD",
        "state": "KY",
        "postalCode": "42754-1400"
      },
      {
        "line": [
          "118 GLASS ST"
        ],
        "city": "JACKSON",
        "state": "TN",
        "postalCode": "38301-4625"
      },
      {
        "line": [
          "36 PEMBERTON COVE"
        ],
        "city": "JACKSON",
        "state": "TN",
        "postalCode": "38305-5514"
      },
      {
        "line": [
          "8044 COLEY DAVIS ROAD"
        ],
        "city": "NASHVILLE",
        "state": "TN",
        "postalCode": "37221-2310"
      },
      {
        "line": [
          "700 Nuckolls Road"
        ],
        "city": "BOLIVAR",
        "state": "TN",
        "postalCode": "38008-1531"
      },
      {
        "line": [
          "950 Highpoint Dr"
        ],
        "city": "HOPKINSVILLE",
        "state": "KY",
        "postalCode": "42240-2570"
      },
      {
        "line": [
          "911 OLD HUMBOLDT RD"
        ],
        "city": "JACKSON",
        "state": "TN",
        "postalCode": "38305-5668"
      },
      {
        "line": [
          "3131 N Highland Ave"
        ],
        "city": "JACKSON",
        "state": "TN",
        "postalCode": "38305-3418"
      },
      {
        "line": [
          "726 Kentucky Avenue S"
        ],
        "city": "PARSONS",
        "state": "TN",
        "postalCode": "38363-3105"
      },
      {
        "line": [
          "419 N Seminary St"
        ],
        "city": "MADISONVILLE",
        "state": "KY",
        "postalCode": "42431-1515"
      },
      {
        "line": [
          "308 LAKE DR"
        ],
        "city": "SOMERVILLE",
        "state": "TN",
        "postalCode": "38068-9716"
      },
      {
        "line": [
          "104 WATSON RD"
        ],
        "city": "SPRINGFIELD",
        "state": "TN",
        "postalCode": "37172-4510"
      },
      {
        "line": [
          "150 OAK MANOR RD"
        ],
        "city": "MC KENZIE",
        "state": "TN",
        "postalCode": "38201-8846"
      },
      {
        "line": [
          "1632 HIGHWAY 45 BYPASS"
        ],
        "city": "HUMBOLDT",
        "state": "TN",
        "postalCode": "38343-6697"
      },
      {
        "line": [
          "1105 SUNSWEPT DR"
        ],
        "city": "UNION CITY",
        "state": "TN",
        "postalCode": "38261-4370"
      },
      {
        "line": [
          "1169 SOUTH DUPREE AVE"
        ],
        "city": "BROWNSVILLE",
        "state": "TN",
        "postalCode": "38012-3260"
      },
      {
        "line": [
          "505 William Thomason Byu"
        ],
        "city": "LEITCHFIELD",
        "state": "KY",
        "postalCode": "42754-1419"
      },
      {
        "line": [
          "111 PEMBERTON DRIVE"
        ],
        "city": "ASHLAND CITY",
        "state": "TN",
        "postalCode": "37015-1353"
      },
      {
        "line": [
          "1105 SUNSWEPT DR"
        ],
        "city": "UNION CITY",
        "state": "TN",
        "postalCode": "38261-1045"
      },
      {
        "line": [
          "2501 RIVER RD"
        ],
        "city": "ASHLAND CITY",
        "state": "TN",
        "postalCode": "37015-5402"
      },
      {
        "line": [
          "390 Dr. Smith Lane"
        ],
        "city": "MC KENZIE",
        "state": "TN",
        "postalCode": "38201-8935"
      },
      {
        "line": [
          "1124 NORTH MAIN STREET"
        ],
        "city": "DYER",
        "state": "TN",
        "postalCode": "38330-9998"
      },
      {
        "line": [
          "3515 CHERE CAROL ROAD"
        ],
        "city": "HUMBOLDT",
        "state": "TN",
        "postalCode": "38343-3638"
      },
      {
        "line": [
          "150 OAK MANOR ROAD"
        ],
        "city": "MC KENZIE",
        "state": "TN",
        "postalCode": "38201-8846"
      },
      {
        "line": [
          "124 W. Nashville Street"
        ],
        "city": "PEMBROKE",
        "state": "KY",
        "postalCode": "42266-9763"
      },
      {
        "line": [
          "2035 Vantage Pointe Rd"
        ],
        "city": "ASHLAND CITY",
        "state": "TN",
        "postalCode": "37015-4093"
      },
      {
        "line": [
          "2400 MITCHELL STREET"
        ],
        "city": "HUMBOLDT",
        "state": "TN",
        "postalCode": "38343-3036"
      },
      {
        "line": [
          "726 Kentucky Avenue"
        ],
        "city": "PARSONS",
        "state": "TN",
        "postalCode": "38363-3105"
      },
      {
        "line": [
          "111 PEMBERTON DR"
        ],
        "city": "ASHLAND CITY",
        "state": "TN",
        "postalCode": "37015-1353"
      }
    ],
    "extension": [
      {
        "url": "https://fhir.athena.io/StructureDefinition/ah-practice",
        "valueReference": {
          "reference": "Organization/a-1.Practice-14578"
        }
      },
      {
        "url": "https://fhir.athena.io/StructureDefinition/ah-brand",
        "valueReference": {
          "reference": "Organization/a-14578.Brand-1"
        }
      }
    ]
  },
  "fullUrl": "urn:uuid:4c2379b9-7bdb-5aae-96cd-04972cf60f73"
}