{
  "resource": {
    "resourceType": "Organization",
    "id": "e195fa98-8ea6-5686-9579-52ac1f70a60d",
    "name": "ACHILLES FOOT CARE",
    "endpoint": [
      {
        "reference": "Endpoint/27a4e967-47aa-5a9c-a572-b8297ee268a2"
      },
      {
        "reference": "Endpoint/4730b9b6-fb6b-5836-af1e-a6417394bde2"
      }
    ],
    "identifier": [
      {
        "system": "http://hl7.org/fhir/sid/us-npi",
        "value": "1063685600"
      }
    ],
    "address": [
      {
        "line": [
          "3522 RTE 130"
        ],
        "city": "IRWIN",
        "state": "PA",
        "postalCode": "15642-1498"
      },
      {
        "line": [
          "532 W Pittsburgh St",
          "Medical Commons Building 1"
        ],
        "city": "GREENSBURG",
        "state": "PA",
        "postalCode": "15601-2239"
      },
      {
        "line": [
          "532 W PITTSBURGH ST"
        ],
        "city": "GREENSBURG",
        "state": "PA",
        "postalCode": "15601-2239"
      },
      {
        "line": [
          "8775 NORWIN AVENUE"
        ],
        "city": "IRWIN",
        "state": "PA",
        "postalCode": "15642-2718"
      },
      {
        "line": [
          "2570 HAYMAKER RD"
        ],
        "city": "MONROEVILLE",
        "state": "PA",
        "postalCode": "15146-3513"
      },
      {
        "line": [
          "500 BROUWERS DRIVE"
        ],
        "city": "LATROBE",
        "state": "PA",
        "postalCode": "15650-2500"
      },
      {
        "line": [
          "1015 PENNSYLVANIA AVENUE"
        ],
        "city": "IRWIN",
        "state": "PA",
        "postalCode": "15642-3737"
      },
      {
        "line": [
          "1890 GODFREY RD",
          "RD 1"
        ],
        "city": "LEECHBURG",
        "state": "PA",
        "postalCode": "15656-7225"
      },
      {
        "line": [
          "508 S CHURCH ST"
        ],
        "city": "MOUNT PLEASANT",
        "state": "PA",
        "postalCode": "15666-1702"
      },
      {
        "line": [
          "151 GOODVIEW DRIVE"
        ],
        "city": "APOLLO",
        "state": "PA",
        "postalCode": "15613-8527"
      },
      {
        "line": [
          "2212 ANTHONY RUN RD"
        ],
        "city": "INDIANA",
        "state": "PA",
        "postalCode": "15701-4413"
      },
      {
        "line": [
          "2801 Freeport Rd"
        ],
        "city": "NATRONA HEIGHTS",
        "state": "PA",
        "postalCode": "15065-1968"
      },
      {
        "line": [
          "121 W 2ND AVE"
        ],
        "city": "LATROBE",
        "state": "PA",
        "postalCode": "15650-1068"
      },
      {
        "line": [
          "One mellon way"
        ],
        "city": "LATROBE",
        "state": "PA",
        "postalCode": "15650-1197"
      },
      {
        "line": [
          "118 PARK RD"
        ],
        "city": "LEECHBURG",
        "state": "PA",
        "postalCode": "15656-8269"
      },
      {
        "line": [
          "2402 ST RT 66"
        ],
        "city": "DELMONT",
        "state": "PA",
        "postalCode": "15626-1464"
      },
      {
        "line": [
          "105 SANDRA DRIVE"
        ],
        "city": "DELMONT",
        "state": "PA",
        "postalCode": "15626-1118"
      },
      {
        "line": [
          "1113 PINEVIEW LANE"
        ],
        "city": "VANDERGRIFT",
        "state": "PA",
        "postalCode": "15690-2424"
      }
    ],
    "extension": [
      {
        "url": "https://fhir.athena.io/StructureDefinition/ah-practice",
        "valueReference": {
          "reference": "Organization/a-1.Practice-10435"
        }
      },
      {
        "url": "https://fhir.athena.io/StructureDefinition/ah-brand",
        "valueReference": {
          "reference": "Organization/a-10435.Brand-1"
        }
      }
    ]
  },
  "fullUrl": "urn:uuid:e195fa98-8ea6-5686-9579-52ac1f70a60d"
}