{
  "resource": {
    "resourceType": "Organization",
    "id": "9bc225ac-e05c-552f-a679-61981a1763cc",
    "name": "Admin",
    "endpoint": [
      {
        "reference": "Endpoint/27a4e967-47aa-5a9c-a572-b8297ee268a2"
      },
      {
        "reference": "Endpoint/37958464-9d3d-58a3-9f5a-1e48f9851810"
      }
    ],
    "identifier": [
      {
        "system": "http://hl7.org/fhir/sid/us-npi",
        "value": "1356388599"
      }
    ],
    "address": [
      {
        "line": [
          "231 RUTHSBURG RD"
        ],
        "city": "CENTREVILLE",
        "state": "MD",
        "postalCode": "21617-2096"
      },
      {
        "line": [
          "126 PHILOSOPHERS TER",
          "Suite 101"
        ],
        "city": "CHESTERTOWN",
        "state": "MD",
        "postalCode": "21620-1715"
      },
      {
        "line": [
          "933 S TALBOT ST STE 4"
        ],
        "city": "SAINT MICHAELS",
        "state": "MD",
        "postalCode": "21663-2605"
      },
      {
        "line": [
          "25390 RICHARDSON RD"
        ],
        "city": "FEDERALSBURG",
        "state": "MD",
        "postalCode": "21632-2403"
      },
      {
        "line": [
          "300 South Church Street"
        ],
        "city": "SUDLERSVILLE",
        "state": "MD",
        "postalCode": "21668-1503"
      },
      {
        "line": [
          "808 S 5TH AVE"
        ],
        "city": "DENTON",
        "state": "MD",
        "postalCode": "21629-1398"
      },
      {
        "line": [
          "10990 RIVER RD"
        ],
        "city": "RIDGELY",
        "state": "MD",
        "postalCode": "21660-1815"
      },
      {
        "line": [
          "320 Hargraves Drive"
        ],
        "city": "FEDERALSBURG",
        "state": "MD",
        "postalCode": "21632-1012"
      },
      {
        "line": [
          "302 S UNIVERSITY AVE"
        ],
        "city": "FEDERALSBURG",
        "state": "MD",
        "postalCode": "21632-1437"
      },
      {
        "line": [
          "401 Lockerman st"
        ],
        "city": "DENTON",
        "state": "MD",
        "postalCode": "21629-9104"
      },
      {
        "line": [
          "100 SEYMOUR AVE"
        ],
        "city": "SAINT MICHAELS",
        "state": "MD",
        "postalCode": "21663-2930"
      },
      {
        "line": [
          "627 N MAIN ST"
        ],
        "city": "GREENSBORO",
        "state": "MD",
        "postalCode": "21639-1469"
      },
      {
        "line": [
          "4322 LOVERS LN"
        ],
        "city": "TRAPPE",
        "state": "MD",
        "postalCode": "21673-1866"
      },
      {
        "line": [
          "25320 RICHARDSON RD"
        ],
        "city": "FEDERALSBURG",
        "state": "MD",
        "postalCode": "21632-2403"
      },
      {
        "line": [
          "522 CYNWOOD DR"
        ],
        "city": "EASTON",
        "state": "MD",
        "postalCode": "21601-3876"
      },
      {
        "line": [
          "402 E CAMPUS AVE"
        ],
        "city": "CHESTERTOWN",
        "state": "MD",
        "postalCode": "21620-1608"
      },
      {
        "line": [
          "25301 LAMBS MEADOW RD"
        ],
        "city": "WORTON",
        "state": "MD",
        "postalCode": "21678-1924"
      },
      {
        "line": [
          "303 SHARP RD"
        ],
        "city": "DENTON",
        "state": "MD",
        "postalCode": "21629-1481"
      },
      {
        "line": [
          "125 RUTHSBURG RD"
        ],
        "city": "CENTREVILLE",
        "state": "MD",
        "postalCode": "21617-2095"
      },
      {
        "line": [
          "307 GLENWOOD AVE"
        ],
        "city": "EASTON",
        "state": "MD",
        "postalCode": "21601-4104"
      },
      {
        "line": [
          "21203 W SHARP ST"
        ],
        "city": "ROCK HALL",
        "state": "MD",
        "postalCode": "21661-1517"
      },
      {
        "line": [
          "631 MAIN ST"
        ],
        "city": "CHURCH HILL",
        "state": "MD",
        "postalCode": "21623-1201"
      },
      {
        "line": [
          "503 A Muir St"
        ],
        "city": "CAMBRIDGE",
        "state": "MD",
        "postalCode": "21613-1848"
      },
      {
        "line": [
          "723 MECKLENBURG AVE"
        ],
        "city": "EASTON",
        "state": "MD",
        "postalCode": "21601-3395"
      },
      {
        "line": [
          "201 PEACH BLOSSOM RD"
        ],
        "city": "EASTON",
        "state": "MD",
        "postalCode": "21601-2544"
      },
      {
        "line": [
          "225 MAIN ST"
        ],
        "city": "PRESTON",
        "state": "MD",
        "postalCode": "21655-2215"
      },
      {
        "line": [
          "126 PHILOSOPHERS TER"
        ],
        "city": "CHESTERTOWN",
        "state": "MD",
        "postalCode": "21620-1715"
      },
      {
        "line": [
          "600 CHARLES ST"
        ],
        "city": "SUDLERSVILLE",
        "state": "MD",
        "postalCode": "21668-1532"
      },
      {
        "line": [
          "118 N CENTRAL AVE"
        ],
        "city": "RIDGELY",
        "state": "MD",
        "postalCode": "21660-1345"
      },
      {
        "line": [
          "316 RAILROAD AVE"
        ],
        "city": "GOLDSBORO",
        "state": "MD",
        "postalCode": "21636-1126"
      }
    ],
    "extension": [
      {
        "url": "https://fhir.athena.io/StructureDefinition/ah-practice",
        "valueReference": {
          "reference": "Organization/a-1.Practice-20853"
        }
      },
      {
        "url": "https://fhir.athena.io/StructureDefinition/ah-brand",
        "valueReference": {
          "reference": "Organization/a-20853.Brand-1"
        }
      }
    ]
  },
  "fullUrl": "urn:uuid:9bc225ac-e05c-552f-a679-61981a1763cc"
}