{
  "resource": {
    "resourceType": "Organization",
    "id": "d2c5f7f3-f7dd-57d4-a8ec-0b43e5c826dc",
    "name": "HLN - Heritage Oaks",
    "endpoint": [
      {
        "reference": "Endpoint/27a4e967-47aa-5a9c-a572-b8297ee268a2"
      },
      {
        "reference": "Endpoint/576e22b2-6b7b-5cf2-9b6c-67c66aa2be94"
      }
    ],
    "identifier": [
      {
        "system": "http://hl7.org/fhir/sid/us-npi",
        "value": "1073899191"
      }
    ],
    "address": [
      {
        "line": [
          "11249 GOLD COUNTRY BLVD STE 130"
        ],
        "city": "RANCHO CORDOVA",
        "state": "CA",
        "postalCode": "95670-3009"
      },
      {
        "line": [
          "7000 SPRING MOUNTAIN RD"
        ],
        "city": "LAS VEGAS",
        "state": "NV",
        "postalCode": "89117-3816"
      },
      {
        "line": [
          "800 S  MAIN ST"
        ],
        "city": "CORONA",
        "state": "CA",
        "postalCode": "92882-3420"
      },
      {
        "line": [
          "31700 Temecula Parkway"
        ],
        "city": "TEMECULA",
        "state": "CA",
        "postalCode": "92592-5896"
      },
      {
        "line": [
          "2695 N CRAYCROFT RD"
        ],
        "city": "TUCSON",
        "state": "AZ",
        "postalCode": "85712-2243"
      },
      {
        "line": [
          "Valencia 1 Edificio 17",
          "Calle 2 Suite 520"
        ],
        "city": "GUAYNABO",
        "state": "PR",
        "postalCode": "00968-9998"
      },
      {
        "line": [
          "3751 DEL REY BLVD"
        ],
        "city": "LAS CRUCES",
        "state": "NM",
        "postalCode": "88012-7710"
      },
      {
        "line": [
          "1350 N BUCKNER BLVD STE 100"
        ],
        "city": "DALLAS",
        "state": "TX",
        "postalCode": "75218-3591"
      },
      {
        "line": [
          "800 S Main St"
        ],
        "city": "CORONA",
        "state": "CA",
        "postalCode": "92882-3420"
      },
      {
        "line": [
          "2135 SOUTHGATE RD"
        ],
        "city": "COLORADO SPRINGS",
        "state": "CO",
        "postalCode": "80906-2605"
      },
      {
        "line": [
          "11249 Gold Country Blvd",
          "Suite 130"
        ],
        "city": "RANCHO CORDOVA",
        "state": "CA",
        "postalCode": "95670-3022"
      },
      {
        "line": [
          "2550 Medical Center Drive"
        ],
        "city": "MURRIETA",
        "state": "CA",
        "postalCode": "92562-5965"
      },
      {
        "line": [
          "4228 WISCONSIN AVE NW"
        ],
        "city": "WASHINGTON",
        "state": "DC",
        "postalCode": "20016-2138"
      },
      {
        "line": [
          "36485 Inland Valley Drive"
        ],
        "city": "WILDOMAR",
        "state": "CA",
        "postalCode": "92595-9681"
      },
      {
        "line": [
          "206 STONER LOOP"
        ],
        "city": "LAKESIDE",
        "state": "MT",
        "postalCode": "59922-8503"
      }
    ],
    "extension": [
      {
        "url": "https://fhir.athena.io/StructureDefinition/ah-practice",
        "valueReference": {
          "reference": "Organization/a-1.Practice-3548"
        }
      },
      {
        "url": "https://fhir.athena.io/StructureDefinition/ah-brand",
        "valueReference": {
          "reference": "Organization/a-3548.Brand-1"
        }
      }
    ]
  },
  "fullUrl": "urn:uuid:d2c5f7f3-f7dd-57d4-a8ec-0b43e5c826dc"
}