{
  "resource": {
    "resourceType": "Organization",
    "id": "81efa0bb-39b9-5020-a50f-ce8dd211d979",
    "name": "ERIC D. GRUEN, D.P.M., P.C.",
    "endpoint": [
      {
        "reference": "Endpoint/27a4e967-47aa-5a9c-a572-b8297ee268a2"
      },
      {
        "reference": "Endpoint/ba8133cb-be71-5791-9940-3309bc77bc4c"
      }
    ],
    "identifier": [
      {
        "system": "http://hl7.org/fhir/sid/us-npi",
        "value": "1710953088"
      }
    ],
    "address": [
      {
        "line": [
          "222 MOORES DRIVE"
        ],
        "city": "DAHLONEGA",
        "state": "GA",
        "postalCode": "30533-0441"
      },
      {
        "line": [
          "350 Moore's Drive"
        ],
        "city": "DAHLONEGA",
        "state": "GA",
        "postalCode": "30533-0442"
      },
      {
        "line": [
          "181 Memory Lane"
        ],
        "city": "DAWSONVILLE",
        "state": "GA",
        "postalCode": "30534-6269"
      },
      {
        "line": [
          "400 Dawson Commons Circle",
          "Suite 420"
        ],
        "city": "DAWSONVILLE",
        "state": "GA",
        "postalCode": "30534-6269"
      },
      {
        "line": [
          "400 Dawson Commons Circle"
        ],
        "city": "DAWSONVILLE",
        "state": "GA",
        "postalCode": "30534-6269"
      },
      {
        "line": [
          "1600 Ballewtown Road"
        ],
        "city": "BLUE RIDGE",
        "state": "GA",
        "postalCode": "30513-5337"
      },
      {
        "line": [
          "240 Marietta Highway"
        ],
        "city": "CANTON",
        "state": "GA",
        "postalCode": "30114-2311"
      },
      {
        "line": [
          "400 DAWSON COMMONS CIRCLE,",
          "SUITE 420"
        ],
        "city": "DAWSONVILLE",
        "state": "GA",
        "postalCode": "30534-6269"
      },
      {
        "line": [
          "114 Penland Street"
        ],
        "city": "ELLIJAY",
        "state": "GA",
        "postalCode": "30540-8715"
      }
    ],
    "extension": [
      {
        "url": "https://fhir.athena.io/StructureDefinition/ah-practice",
        "valueReference": {
          "reference": "Organization/a-1.Practice-16085"
        }
      },
      {
        "url": "https://fhir.athena.io/StructureDefinition/ah-brand",
        "valueReference": {
          "reference": "Organization/a-16085.Brand-1"
        }
      }
    ]
  },
  "fullUrl": "urn:uuid:81efa0bb-39b9-5020-a50f-ce8dd211d979"
}