{
  "resource": {
    "resourceType": "Organization",
    "id": "0835b74b-0e1b-5ab3-9f81-b4c86567f74d",
    "name": "Unio Specialty Care - URO",
    "endpoint": [
      {
        "reference": "Endpoint/27a4e967-47aa-5a9c-a572-b8297ee268a2"
      },
      {
        "reference": "Endpoint/084608b7-bb4a-5817-9417-3fa8a80fc627"
      }
    ],
    "identifier": [
      {
        "system": "http://hl7.org/fhir/sid/us-npi",
        "value": "1548567498"
      },
      {
        "system": "http://hl7.org/fhir/sid/us-npi",
        "value": "1386911006"
      }
    ],
    "address": [
      {
        "line": [
          "354 Santa Fe Drive"
        ],
        "city": "ENCINITAS",
        "state": "CA",
        "postalCode": "92024-5142"
      },
      {
        "line": [
          "9850 Genesee Ave",
          "Ste 100"
        ],
        "city": "LA JOLLA",
        "state": "CA",
        "postalCode": "92037-1206"
      },
      {
        "line": [
          "9888 Genesee Avenue"
        ],
        "city": "LA JOLLA",
        "state": "CA",
        "postalCode": "92037-1205"
      },
      {
        "line": [
          "18133 VENTURA BLVD",
          "Ste 400"
        ],
        "city": "TARZANA",
        "state": "CA",
        "postalCode": "91356-3645"
      },
      {
        "line": [
          "16311 Ventura Blvd",
          "Ste 710"
        ],
        "city": "ENCINO",
        "state": "CA",
        "postalCode": "91436-4323"
      },
      {
        "line": [
          "2999 HEALTH CENTER DR"
        ],
        "city": "SAN DIEGO",
        "state": "CA",
        "postalCode": "92123-2762"
      },
      {
        "line": [
          "3444 Kearny Villa Rd",
          "Ste 202"
        ],
        "city": "SAN DIEGO",
        "state": "CA",
        "postalCode": "92123-1960"
      },
      {
        "line": [
          "18300 ROSCOE BLVD"
        ],
        "city": "NORTHRIDGE",
        "state": "CA",
        "postalCode": "91325-4105"
      },
      {
        "line": [
          "550 WASHINGTON ST"
        ],
        "city": "SAN DIEGO",
        "state": "CA",
        "postalCode": "92103-2213"
      },
      {
        "line": [
          "3330 LOMITA BLVD"
        ],
        "city": "TORRANCE",
        "state": "CA",
        "postalCode": "90505-5002"
      },
      {
        "line": [
          "16311 VENTURA BLVD",
          "STE 580"
        ],
        "city": "ENCINO",
        "state": "CA",
        "postalCode": "91436-4316"
      },
      {
        "line": [
          "15615 Pomerado Road"
        ],
        "city": "POWAY",
        "state": "CA",
        "postalCode": "92064-2405"
      },
      {
        "line": [
          "18321 VENTURA BLVD STE 150"
        ],
        "city": "TARZANA",
        "state": "CA",
        "postalCode": "91356-4253"
      },
      {
        "line": [
          "765 Medical Center Ct"
        ],
        "city": "CHULA VISTA",
        "state": "CA",
        "postalCode": "91911-6600"
      },
      {
        "line": [
          "230 Prospect Place"
        ],
        "city": "CORONADO",
        "state": "CA",
        "postalCode": "92118-1980"
      },
      {
        "line": [
          "9080 COLIMA RD"
        ],
        "city": "WHITTIER",
        "state": "CA",
        "postalCode": "90605-1600"
      },
      {
        "line": [
          "7901 FROST ST"
        ],
        "city": "SAN DIEGO",
        "state": "CA",
        "postalCode": "92123-2701"
      },
      {
        "line": [
          "14850 Roscoe Blvd"
        ],
        "city": "PANORAMA CITY",
        "state": "CA",
        "postalCode": "91402-4618"
      },
      {
        "line": [
          "23845 MCBEAN PKWY"
        ],
        "city": "VALENCIA",
        "state": "CA",
        "postalCode": "91355-2001"
      },
      {
        "line": [
          "5522 SEPULVEDA BLVD"
        ],
        "city": "VAN NUYS",
        "state": "CA",
        "postalCode": "91411-3437"
      },
      {
        "line": [
          "3445 PACIFIC COAST",
          "Ste 120"
        ],
        "city": "TORRANCE",
        "state": "CA",
        "postalCode": "90505-6658"
      },
      {
        "line": [
          "752 MEDICAL CENTER CT",
          "STE 101"
        ],
        "city": "CHULA VISTA",
        "state": "CA",
        "postalCode": "91911-6659"
      },
      {
        "line": [
          "4077 Fifth Avenue"
        ],
        "city": "SAN DIEGO",
        "state": "CA",
        "postalCode": "92103-2105"
      },
      {
        "line": [
          "18321 CLARK STREET"
        ],
        "city": "TARZANA",
        "state": "CA",
        "postalCode": "91356-3501"
      },
      {
        "line": [
          "16501 Ventura Blvd",
          "#103"
        ],
        "city": "ENCINO",
        "state": "CA",
        "postalCode": "91436-1001"
      },
      {
        "line": [
          "435 H Street"
        ],
        "city": "CHULA VISTA",
        "state": "CA",
        "postalCode": "91910-4307"
      },
      {
        "line": [
          "320 SANTA FE DR STE 108"
        ],
        "city": "ENCINITAS",
        "state": "CA",
        "postalCode": "92024-5141"
      },
      {
        "line": [
          "23600 TELO AVE STE 220"
        ],
        "city": "TORRANCE",
        "state": "CA",
        "postalCode": "90505-4039"
      },
      {
        "line": [
          "15615 POMERADO RD"
        ],
        "city": "POWAY",
        "state": "CA",
        "postalCode": "92064-2405"
      },
      {
        "line": [
          "16311 VENTURA BLVD"
        ],
        "city": "ENCINO",
        "state": "CA",
        "postalCode": "91436-2124"
      },
      {
        "line": [
          "320 Santa Fe Dr",
          "Suite LL2"
        ],
        "city": "ENCINITAS",
        "state": "CA",
        "postalCode": "92024-5138"
      },
      {
        "line": [
          "3801 KATELLA AVE STE 302"
        ],
        "city": "LOS ALAMITOS",
        "state": "CA",
        "postalCode": "90720-3374"
      },
      {
        "line": [
          "23823 VALENCIA BLVD STE 130"
        ],
        "city": "VALENCIA",
        "state": "CA",
        "postalCode": "91355-9513"
      },
      {
        "line": [
          "26357 MCBEAN PARKWAY",
          "STE 100"
        ],
        "city": "VALENCIA",
        "state": "CA",
        "postalCode": "91355-4489"
      },
      {
        "line": [
          "7901 Frost St"
        ],
        "city": "SAN DIEGO",
        "state": "CA",
        "postalCode": "92123-2701"
      },
      {
        "line": [
          "3444 KEARNY VILLA RD STE 201"
        ],
        "city": "SAN DIEGO",
        "state": "CA",
        "postalCode": "92123-1960"
      },
      {
        "line": [
          "7485 MISSION VALLEY RD STE 106"
        ],
        "city": "SAN DIEGO",
        "state": "CA",
        "postalCode": "92108-4422"
      },
      {
        "line": [
          "250 PROSPECT PL"
        ],
        "city": "CORONADO",
        "state": "CA",
        "postalCode": "92118-1943"
      },
      {
        "line": [
          "2185 Citracado Parkway"
        ],
        "city": "ESCONDIDO",
        "state": "CA",
        "postalCode": "92029-4129"
      },
      {
        "line": [
          "11770 Bernardo Plaza Ct",
          "Ste 270"
        ],
        "city": "SAN DIEGO",
        "state": "CA",
        "postalCode": "92128-2425"
      },
      {
        "line": [
          "11411 BROOKSHIRE AVE STE 508"
        ],
        "city": "DOWNEY",
        "state": "CA",
        "postalCode": "90241-5007"
      },
      {
        "line": [
          "8851 Center Dr",
          "Ste 501"
        ],
        "city": "LA MESA",
        "state": "CA",
        "postalCode": "91942-3033"
      },
      {
        "line": [
          "4910 DIRECTORS PL",
          "Ste 100"
        ],
        "city": "SAN DIEGO",
        "state": "CA",
        "postalCode": "92121-3811"
      },
      {
        "line": [
          "20911 EARL ST STE 140"
        ],
        "city": "TORRANCE",
        "state": "CA",
        "postalCode": "90503-4353"
      },
      {
        "line": [
          "16311 VENTURA BLVD",
          "Ste 570"
        ],
        "city": "ENCINO",
        "state": "CA",
        "postalCode": "91436-4314"
      },
      {
        "line": [
          "7300 MEDICAL CENTER DR"
        ],
        "city": "WEST HILLS",
        "state": "CA",
        "postalCode": "91307-1902"
      },
      {
        "line": [
          "9850 Genesee Ave",
          "Ste 440"
        ],
        "city": "LA JOLLA",
        "state": "CA",
        "postalCode": "92037-1212"
      },
      {
        "line": [
          "21250 Hawthorne Bl",
          "Suite 600"
        ],
        "city": "TORRANCE",
        "state": "CA",
        "postalCode": "90503-5519"
      },
      {
        "line": [
          "4010 TORRANCE BOULEVARD"
        ],
        "city": "TORRANCE",
        "state": "CA",
        "postalCode": "90503-4607"
      },
      {
        "line": [
          "14850 ROSCOE BLVD"
        ],
        "city": "PANORAMA CITY",
        "state": "CA",
        "postalCode": "91402-4618"
      },
      {
        "line": [
          "11411 Brookshire Ave",
          "Suite 508"
        ],
        "city": "DOWNEY",
        "state": "CA",
        "postalCode": "90241-5007"
      },
      {
        "line": [
          "320 Santa Fe Dr",
          "Ste 108"
        ],
        "city": "ENCINITAS",
        "state": "CA",
        "postalCode": "92024-5141"
      },
      {
        "line": [
          "5353 Balboa Blvd"
        ],
        "city": "ENCINO",
        "state": "CA",
        "postalCode": "91316-2804"
      },
      {
        "line": [
          "15111 WHITTIER BLVD STE 390"
        ],
        "city": "WHITTIER",
        "state": "CA",
        "postalCode": "90603-3301"
      },
      {
        "line": [
          "10921 Cherry St",
          "Ste 200"
        ],
        "city": "LOS ALAMITOS",
        "state": "CA",
        "postalCode": "90720-2473"
      },
      {
        "line": [
          "5555 GROSSMONT CENTER DR"
        ],
        "city": "LA MESA",
        "state": "CA",
        "postalCode": "91942-3019"
      },
      {
        "line": [
          "2080 CENTURY PARK E STE 703"
        ],
        "city": "LOS ANGELES",
        "state": "CA",
        "postalCode": "90067-2010"
      },
      {
        "line": [
          "3720 LOMITA BOULEVARD"
        ],
        "city": "TORRANCE",
        "state": "CA",
        "postalCode": "90505-3884"
      },
      {
        "line": [
          "1341 JUSTIN AVE"
        ],
        "city": "GLENDALE",
        "state": "CA",
        "postalCode": "91201-1403"
      },
      {
        "line": [
          "5400 BALBOA BOULEVARD",
          "STE 111"
        ],
        "city": "ENCINO",
        "state": "CA",
        "postalCode": "91316-1502"
      },
      {
        "line": [
          "555 East Valley Parkway"
        ],
        "city": "ESCONDIDO",
        "state": "CA",
        "postalCode": "92025-3048"
      },
      {
        "line": [
          "150 W WASHINGTON ST"
        ],
        "city": "SAN DIEGO",
        "state": "CA",
        "postalCode": "92103-2005"
      },
      {
        "line": [
          "2185 Citracado Parkway"
        ],
        "city": "ESCONDIDO",
        "state": "CA",
        "postalCode": "92029-4159"
      },
      {
        "line": [
          "3003 Health Center Drive"
        ],
        "city": "SAN DIEGO",
        "state": "CA",
        "postalCode": "92123-2700"
      },
      {
        "line": [
          "765 MEDICAL CENTER CT"
        ],
        "city": "CHULA VISTA",
        "state": "CA",
        "postalCode": "91911-6600"
      },
      {
        "line": [
          "3444 KEARNY VILLA RD"
        ],
        "city": "SAN DIEGO",
        "state": "CA",
        "postalCode": "92123-1959"
      },
      {
        "line": [
          "22525 MAPLE AVE STE 106"
        ],
        "city": "TORRANCE",
        "state": "CA",
        "postalCode": "90505-2700"
      },
      {
        "line": [
          "23621 PARK SORRENTO STE 100"
        ],
        "city": "CALABASAS",
        "state": "CA",
        "postalCode": "91302-1395"
      },
      {
        "line": [
          "5400 BALBOA BLVD",
          "STE 111"
        ],
        "city": "ENCINO",
        "state": "CA",
        "postalCode": "91316-1502"
      },
      {
        "line": [
          "21250 HAWTHORNE BLVD STE 600"
        ],
        "city": "TORRANCE",
        "state": "CA",
        "postalCode": "90503-5519"
      },
      {
        "line": [
          "550 Washington Street"
        ],
        "city": "SAN DIEGO",
        "state": "CA",
        "postalCode": "92103-2120"
      },
      {
        "line": [
          "7240 MEDICAL CENTER DR"
        ],
        "city": "WEST HILLS",
        "state": "CA",
        "postalCode": "91307-1906"
      },
      {
        "line": [
          "575 E HARDY ST STE 215"
        ],
        "city": "INGLEWOOD",
        "state": "CA",
        "postalCode": "90301-4041"
      },
      {
        "line": [
          "501 SOUTH BUENA VISTA STREET"
        ],
        "city": "BURBANK",
        "state": "CA",
        "postalCode": "91505-4809"
      },
      {
        "line": [
          "3075 Health Center Dr"
        ],
        "city": "SAN DIEGO",
        "state": "CA",
        "postalCode": "92123-2701"
      },
      {
        "line": [
          "4060 4th Ave",
          "Ste 310"
        ],
        "city": "SAN DIEGO",
        "state": "CA",
        "postalCode": "92103-2120"
      },
      {
        "line": [
          "23823 Valencia Blvd",
          "Ste 130"
        ],
        "city": "VALENCIA",
        "state": "CA",
        "postalCode": "91355-9513"
      },
      {
        "line": [
          "1335 LAS VILLAS WAY"
        ],
        "city": "ESCONDIDO",
        "state": "CA",
        "postalCode": "92026-1921"
      },
      {
        "line": [
          "2130 CITRACADO PKWY STE 100"
        ],
        "city": "ESCONDIDO",
        "state": "CA",
        "postalCode": "92029-4151"
      },
      {
        "line": [
          "3444 KEARNY VILLA RD STE 201",
          "Suite 201"
        ],
        "city": "SAN DIEGO",
        "state": "CA",
        "postalCode": "92123-1960"
      },
      {
        "line": [
          "3003 HEALTH CENTER DR"
        ],
        "city": "SAN DIEGO",
        "state": "CA",
        "postalCode": "92123-2700"
      },
      {
        "line": [
          "1127 Wilshire Blvd",
          "Ste 1000"
        ],
        "city": "LOS ANGELES",
        "state": "CA",
        "postalCode": "90017-4001"
      },
      {
        "line": [
          "233 PROSPECT PL"
        ],
        "city": "CORONADO",
        "state": "CA",
        "postalCode": "92118-1967"
      },
      {
        "line": [
          "250 Prospect Place"
        ],
        "city": "CORONADO",
        "state": "CA",
        "postalCode": "92118-1943"
      },
      {
        "line": [
          "15107 VANOWEN ST"
        ],
        "city": "VAN NUYS",
        "state": "CA",
        "postalCode": "91405-4542"
      },
      {
        "line": [
          "3939 RUFFIN RD STE 101"
        ],
        "city": "SAN DIEGO",
        "state": "CA",
        "postalCode": "92123-1804"
      }
    ],
    "extension": [
      {
        "url": "https://fhir.athena.io/StructureDefinition/ah-practice",
        "valueReference": {
          "reference": "Organization/a-1.Practice-3663"
        }
      },
      {
        "url": "https://fhir.athena.io/StructureDefinition/ah-brand",
        "valueReference": {
          "reference": "Organization/a-3663.Brand-32"
        }
      }
    ]
  },
  "fullUrl": "urn:uuid:0835b74b-0e1b-5ab3-9f81-b4c86567f74d"
}