{
  "resource": {
    "resourceType": "Organization",
    "id": "773c2618-d499-534e-b0f0-8096a80d6fc5",
    "name": "ALTA BATES SUMMIT MEDICAL CENTER",
    "endpoint": [
      {
        "reference": "Endpoint/27a4e967-47aa-5a9c-a572-b8297ee268a2"
      },
      {
        "reference": "Endpoint/d4704b95-8b4c-57fc-a2e8-95ec8d71b66e"
      }
    ],
    "identifier": [
      {
        "system": "http://hl7.org/fhir/sid/us-npi",
        "value": "1952914681"
      },
      {
        "system": "http://hl7.org/fhir/sid/us-npi",
        "value": "1912958422"
      }
    ],
    "address": [
      {
        "line": [
          "275 DI SALVO AVE"
        ],
        "city": "SAN JOSE",
        "state": "CA",
        "postalCode": "95128-1628"
      },
      {
        "line": [
          "1212 WILSHIRE BLVD"
        ],
        "city": "LOS ANGELES",
        "state": "CA",
        "postalCode": "90017-1902"
      },
      {
        "line": [
          "3901 LONE TREE WAY"
        ],
        "city": "ANTIOCH",
        "state": "CA",
        "postalCode": "94509-6200"
      },
      {
        "line": [
          "388 9TH ST",
          "STE 218"
        ],
        "city": "OAKLAND",
        "state": "CA",
        "postalCode": "94607-4293"
      },
      {
        "line": [
          "3300 WEBSTER ST",
          "STE 804"
        ],
        "city": "OAKLAND",
        "state": "CA",
        "postalCode": "94609-3118"
      },
      {
        "line": [
          "1499 Webster St"
        ],
        "city": "SAN FRANCISCO",
        "state": "CA",
        "postalCode": "94115-3705"
      },
      {
        "line": [
          "450 Stanyan St"
        ],
        "city": "SAN FRANCISCO",
        "state": "CA",
        "postalCode": "94117-1019"
      },
      {
        "line": [
          "2700 Geary Blvd",
          "Ste A"
        ],
        "city": "SAN FRANCISCO",
        "state": "CA",
        "postalCode": "94118-3406"
      },
      {
        "line": [
          "2300 Stanwell Dr. Ste. C"
        ],
        "city": "CONCORD",
        "state": "CA",
        "postalCode": "94520-4841"
      },
      {
        "line": [
          "2070 CLINTON AVE"
        ],
        "city": "ALAMEDA",
        "state": "CA",
        "postalCode": "94501-4399"
      },
      {
        "line": [
          "2001 Junipero Serra Blvd suite 100"
        ],
        "city": "DALY CITY",
        "state": "CA",
        "postalCode": "94014-3899"
      },
      {
        "line": [
          "1800 N Texas St"
        ],
        "city": "FAIRFIELD",
        "state": "CA",
        "postalCode": "94533-4441"
      },
      {
        "line": [
          "1738 Ocean Ave"
        ],
        "city": "SAN FRANCISCO",
        "state": "CA",
        "postalCode": "94112-1737"
      },
      {
        "line": [
          "1501 Throusdale Dr"
        ],
        "city": "BURLINGAME",
        "state": "CA",
        "postalCode": "94010-4506"
      },
      {
        "line": [
          "1150 E LELAND DR"
        ],
        "city": "PITTSBURG",
        "state": "CA",
        "postalCode": "94565-5319"
      },
      {
        "line": [
          "1860 El Camino Real Suite 321"
        ],
        "city": "BURLINGAME",
        "state": "CA",
        "postalCode": "94010-3114"
      },
      {
        "line": [
          "2765 16th St."
        ],
        "city": "SAN FRANCISCO",
        "state": "CA",
        "postalCode": "94103-4215"
      },
      {
        "line": [
          "99 Escuela Drive"
        ],
        "city": "DALY CITY",
        "state": "CA",
        "postalCode": "94015-4003"
      },
      {
        "line": [
          "1900 Sullivan Ave"
        ],
        "city": "DALY CITY",
        "state": "CA",
        "postalCode": "94015-2200"
      },
      {
        "line": [
          "2149 East Warner Road",
          "Suite 101"
        ],
        "city": "TEMPE",
        "state": "AZ",
        "postalCode": "85284-3495"
      },
      {
        "line": [
          "2201 Juniperro Serra Blvd",
          "STE A"
        ],
        "city": "DALY CITY",
        "state": "CA",
        "postalCode": "94014-1908"
      },
      {
        "line": [
          "4040 Lone Tree Way"
        ],
        "city": "ANTIOCH",
        "state": "CA",
        "postalCode": "94531-6209"
      },
      {
        "line": [
          "20055 LAKE CHABOT RD",
          "STE 230"
        ],
        "city": "CASTRO VALLEY",
        "state": "CA",
        "postalCode": "94546-5333"
      },
      {
        "line": [
          "2415 SAN PABLO DAM RD STE 504"
        ],
        "city": "SAN PABLO",
        "state": "CA",
        "postalCode": "94806-3906"
      },
      {
        "line": [
          "5720 STONERIDGE MALL RD",
          "STE 300"
        ],
        "city": "PLEASANTON",
        "state": "CA",
        "postalCode": "94588-2831"
      },
      {
        "line": [
          "74 Comaritas Avenue"
        ],
        "city": "SOUTH SAN FRANCISCO",
        "state": "CA",
        "postalCode": "94080-3133"
      },
      {
        "line": [
          "1999 MOWRY AVE",
          "STE R"
        ],
        "city": "FREMONT",
        "state": "CA",
        "postalCode": "94538-1723"
      },
      {
        "line": [
          "1498 Southgate Ave. Suite 101"
        ],
        "city": "DALY CITY",
        "state": "CA",
        "postalCode": "94015-4015"
      },
      {
        "line": [
          "1320 El Capitan Dr.",
          "STE 210"
        ],
        "city": "DANVILLE",
        "state": "CA",
        "postalCode": "94526-6258"
      },
      {
        "line": [
          "1720 El Camino Real #12"
        ],
        "city": "BURLINGAME",
        "state": "CA",
        "postalCode": "94010-3172"
      },
      {
        "line": [
          "4300 SONOMA BLVD STE 25"
        ],
        "city": "VALLEJO",
        "state": "CA",
        "postalCode": "94590-2276"
      },
      {
        "line": [
          "1055 EL CAMINO REAL"
        ],
        "city": "COLMA",
        "state": "CA",
        "postalCode": "94014-3234"
      },
      {
        "line": [
          "3555 Cesar Chavez Street"
        ],
        "city": "SAN FRANCISCO",
        "state": "CA",
        "postalCode": "94110-4403"
      },
      {
        "line": [
          "2000 South El Camino Real, Floor 2"
        ],
        "city": "SAN MATEO",
        "state": "CA",
        "postalCode": "94403-1805"
      },
      {
        "line": [
          "841 San Bruno Ave. W",
          "Ste. 201"
        ],
        "city": "SAN BRUNO",
        "state": "CA",
        "postalCode": "94066-3443"
      },
      {
        "line": [
          "1320 El Capitan Drive",
          "#220"
        ],
        "city": "DANVILLE",
        "state": "CA",
        "postalCode": "94526-6258"
      },
      {
        "line": [
          "4270 Rosewood Drive",
          "Suite E"
        ],
        "city": "PLEASANTON",
        "state": "CA",
        "postalCode": "94588-3065"
      },
      {
        "line": [
          "2540 EAST STREET"
        ],
        "city": "CONCORD",
        "state": "CA",
        "postalCode": "94520-1906"
      },
      {
        "line": [
          "2222 East Street",
          "Suite 305"
        ],
        "city": "CONCORD",
        "state": "CA",
        "postalCode": "94520-2066"
      },
      {
        "line": [
          "494 HAWTHORNE AVE STE B"
        ],
        "city": "OAKLAND",
        "state": "CA",
        "postalCode": "94609-3037"
      },
      {
        "line": [
          "2222 EAST STREET, SUITE 305"
        ],
        "city": "CONCORD",
        "state": "CA",
        "postalCode": "94520-2066"
      },
      {
        "line": [
          "1800 Haight St"
        ],
        "city": "SAN FRANCISCO",
        "state": "CA",
        "postalCode": "94117-2712"
      },
      {
        "line": [
          "87 FENTON ST STE 210"
        ],
        "city": "LIVERMORE",
        "state": "CA",
        "postalCode": "94550-4159"
      },
      {
        "line": [
          "2000 POWELL ST STE 140"
        ],
        "city": "EMERYVILLE",
        "state": "CA",
        "postalCode": "94608-1781"
      },
      {
        "line": [
          "45 CASTRO ST.",
          "SOUTH TOWER, 2ND FLOOR"
        ],
        "city": "SAN FRANCISCO",
        "state": "CA",
        "postalCode": "94114-1032"
      },
      {
        "line": [
          "1225 WILLOW PASS RD"
        ],
        "city": "CONCORD",
        "state": "CA",
        "postalCode": "94520-5218"
      },
      {
        "line": [
          "101 Callan Ave"
        ],
        "city": "SAN LEANDRO",
        "state": "CA",
        "postalCode": "94577-4523"
      },
      {
        "line": [
          "660 E Calaveras Blvd"
        ],
        "city": "MILPITAS",
        "state": "CA",
        "postalCode": "95035-5442"
      },
      {
        "line": [
          "2386 BUCHANAN ROAD"
        ],
        "city": "ANTIOCH",
        "state": "CA",
        "postalCode": "94509-4411"
      },
      {
        "line": [
          "1860 El Camino Real Suite 312"
        ],
        "city": "BURLINGAME",
        "state": "CA",
        "postalCode": "94010-3114"
      },
      {
        "line": [
          "1501 Trousdale Dr"
        ],
        "city": "BURLINGAME",
        "state": "CA",
        "postalCode": "94010-4506"
      },
      {
        "line": [
          "2655 SHATTUCK AVE"
        ],
        "city": "BERKELEY",
        "state": "CA",
        "postalCode": "94704-3237"
      },
      {
        "line": [
          "350 HAWTHORNE AVE"
        ],
        "city": "OAKLAND",
        "state": "CA",
        "postalCode": "94609-3108"
      },
      {
        "line": [
          "490 Chadbourne Rd. Ste. D"
        ],
        "city": "FAIRFIELD",
        "state": "CA",
        "postalCode": "94534-9613"
      },
      {
        "line": [
          "1580 Valencia Street",
          "Suite 606"
        ],
        "city": "SAN FRANCISCO",
        "state": "CA",
        "postalCode": "94110-4423"
      },
      {
        "line": [
          "2222 EAST ST STE 365"
        ],
        "city": "CONCORD",
        "state": "CA",
        "postalCode": "94520-2170"
      },
      {
        "line": [
          "365 LENNON LANE STE 160"
        ],
        "city": "WALNUT CREEK",
        "state": "CA",
        "postalCode": "94598-5908"
      },
      {
        "line": [
          "1860 El Camino Real",
          "Suite 321"
        ],
        "city": "BURLINGAME",
        "state": "CA",
        "postalCode": "94010-3127"
      },
      {
        "line": [
          "4510 O'HARA AVE STE B"
        ],
        "city": "BRENTWOOD",
        "state": "CA",
        "postalCode": "94513-2256"
      },
      {
        "line": [
          "100 South San Mateo Dr."
        ],
        "city": "SAN MATEO",
        "state": "CA",
        "postalCode": "94401-3805"
      },
      {
        "line": [
          "1000 Marshall St"
        ],
        "city": "REDWOOD CITY",
        "state": "CA",
        "postalCode": "94063-2065"
      },
      {
        "line": [
          "2000  S El Camino Real",
          "1st floor"
        ],
        "city": "SAN MATEO",
        "state": "CA",
        "postalCode": "94403-1805"
      },
      {
        "line": [
          "222 West 39th Ave"
        ],
        "city": "SAN MATEO",
        "state": "CA",
        "postalCode": "94403-4364"
      },
      {
        "line": [
          "1320 EL CAPITAN DR STE 220"
        ],
        "city": "DANVILLE",
        "state": "CA",
        "postalCode": "94526-6260"
      },
      {
        "line": [
          "1125-G Industrial Rd."
        ],
        "city": "SAN CARLOS",
        "state": "CA",
        "postalCode": "94070-4159"
      },
      {
        "line": [
          "110 TAMPICO, SUITE 200"
        ],
        "city": "WALNUT CREEK",
        "state": "CA",
        "postalCode": "94598-2962"
      },
      {
        "line": [
          "1999 Mowry Ave. STE R"
        ],
        "city": "FREMONT",
        "state": "CA",
        "postalCode": "94538-1723"
      },
      {
        "line": [
          "1221 ROSSMOOR PKWY"
        ],
        "city": "WALNUT CREEK",
        "state": "CA",
        "postalCode": "94595-2539"
      },
      {
        "line": [
          "610 N PASTORIA AVE"
        ],
        "city": "SUNNYVALE",
        "state": "CA",
        "postalCode": "94085-3521"
      },
      {
        "line": [
          "801 DAVIS ST"
        ],
        "city": "SAN LEANDRO",
        "state": "CA",
        "postalCode": "94577-1511"
      },
      {
        "line": [
          "2370 COUNTRY HILLS DR, SUITE 101"
        ],
        "city": "ANTIOCH",
        "state": "CA",
        "postalCode": "94509-7436"
      },
      {
        "line": [
          "450 Stanyan Street"
        ],
        "city": "SAN FRANCISCO",
        "state": "CA",
        "postalCode": "94117-1019"
      },
      {
        "line": [
          "1601 YGNACIO VALLEY RD"
        ],
        "city": "WALNUT CREEK",
        "state": "CA",
        "postalCode": "94598-3122"
      },
      {
        "line": [
          "565 SIR FRANCIS DRAKE BLVD"
        ],
        "city": "GREENBRAE",
        "state": "CA",
        "postalCode": "94904-2305"
      },
      {
        "line": [
          "925 El Camino Real"
        ],
        "city": "SOUTH SAN FRANCISCO",
        "state": "CA",
        "postalCode": "94080-3203"
      },
      {
        "line": [
          "1040 HAMILTON CT"
        ],
        "city": "MENLO PARK",
        "state": "CA",
        "postalCode": "94025-1423"
      },
      {
        "line": [
          "20359 Lake Chabot Rd."
        ],
        "city": "CASTRO VALLEY",
        "state": "CA",
        "postalCode": "94546-5309"
      },
      {
        "line": [
          "2163 COUNTRY HILLS DR"
        ],
        "city": "ANTIOCH",
        "state": "CA",
        "postalCode": "94509-7435"
      },
      {
        "line": [
          "2500 ALHAMBRA AVE"
        ],
        "city": "MARTINEZ",
        "state": "CA",
        "postalCode": "94553-3156"
      },
      {
        "line": [
          "2731 Systron Drive"
        ],
        "city": "CONCORD",
        "state": "CA",
        "postalCode": "94518-1355"
      },
      {
        "line": [
          "2250 Hayes St",
          "Suite 612"
        ],
        "city": "SAN FRANCISCO",
        "state": "CA",
        "postalCode": "94117-1078"
      },
      {
        "line": [
          "636 CLAY ST"
        ],
        "city": "SAN FRANCISCO",
        "state": "CA",
        "postalCode": "94111-2502"
      },
      {
        "line": [
          "5 NIELSON ST"
        ],
        "city": "WATSONVILLE",
        "state": "CA",
        "postalCode": "95076-2468"
      },
      {
        "line": [
          "450 Stanyan St",
          "6th floor"
        ],
        "city": "SAN FRANCISCO",
        "state": "CA",
        "postalCode": "94117-1019"
      },
      {
        "line": [
          "2222 EAST STREET",
          "STE 305"
        ],
        "city": "CONCORD",
        "state": "CA",
        "postalCode": "94520-2066"
      },
      {
        "line": [
          "205 Kentwood Way"
        ],
        "city": "SOUTH SAN FRANCISCO",
        "state": "CA",
        "postalCode": "94080-3133"
      },
      {
        "line": [
          "3100 DELTA FAIR BLVD"
        ],
        "city": "ANTIOCH",
        "state": "CA",
        "postalCode": "94509-4001"
      },
      {
        "line": [
          "1493 Webster St."
        ],
        "city": "SAN FRANCISCO",
        "state": "CA",
        "postalCode": "94115-3705"
      },
      {
        "line": [
          "425 W Beverly PL",
          "STE A"
        ],
        "city": "TRACY",
        "state": "CA",
        "postalCode": "95376-3086"
      },
      {
        "line": [
          "508-D CONTRA COSTA BLVD"
        ],
        "city": "PLEASANT HILL",
        "state": "CA",
        "postalCode": "94523-1239"
      },
      {
        "line": [
          "3716 GEARY BLVD"
        ],
        "city": "SAN FRANCISCO",
        "state": "CA",
        "postalCode": "94118-3209"
      },
      {
        "line": [
          "1650 W Yosemite Ave"
        ],
        "city": "MANTECA",
        "state": "CA",
        "postalCode": "95337-5193"
      },
      {
        "line": [
          "2955 N Corral Hollow Rd",
          "Ste 101"
        ],
        "city": "TRACY",
        "state": "CA",
        "postalCode": "95376-8800"
      },
      {
        "line": [
          "404 N WIGET LN"
        ],
        "city": "WALNUT CREEK",
        "state": "CA",
        "postalCode": "94598-2408"
      },
      {
        "line": [
          "2351 CLAY ST FL 4"
        ],
        "city": "SAN FRANCISCO",
        "state": "CA",
        "postalCode": "94115-1931"
      },
      {
        "line": [
          "2155 LOVERIDGE RD"
        ],
        "city": "PITTSBURG",
        "state": "CA",
        "postalCode": "94565-5019"
      },
      {
        "line": [
          "2001 Junipero Serra Blvd",
          "STE 535"
        ],
        "city": "DALY CITY",
        "state": "CA",
        "postalCode": "94014-3889"
      },
      {
        "line": [
          "19850 LAKE CHABOT RD"
        ],
        "city": "CASTRO VALLEY",
        "state": "CA",
        "postalCode": "94546-4002"
      },
      {
        "line": [
          "1860 EL CAMINO REAL STE 310"
        ],
        "city": "BURLINGAME",
        "state": "CA",
        "postalCode": "94010-3114"
      },
      {
        "line": [
          "1498 SOUTHGATE AVE STE 102"
        ],
        "city": "DALY CITY",
        "state": "CA",
        "postalCode": "94015-4015"
      },
      {
        "line": [
          "2222 EAST ST STE 305"
        ],
        "city": "CONCORD",
        "state": "CA",
        "postalCode": "94520-2066"
      },
      {
        "line": [
          "170 Alameda De Las Pulgas"
        ],
        "city": "REDWOOD CITY",
        "state": "CA",
        "postalCode": "94062-2751"
      },
      {
        "line": [
          "1498 Southgate Ave. Suite 102"
        ],
        "city": "DALY CITY",
        "state": "CA",
        "postalCode": "94015-4015"
      },
      {
        "line": [
          "1290 Tully Rd Ste. 60"
        ],
        "city": "SAN JOSE",
        "state": "CA",
        "postalCode": "95122-3069"
      },
      {
        "line": [
          "1261 East Hillsdale Blvd",
          "#2"
        ],
        "city": "Foster city",
        "state": "CA",
        "postalCode": "94404-3127"
      },
      {
        "line": [
          "777 Lawrence Expressway Ste. 18"
        ],
        "city": "SANTA CLARA",
        "state": "CA",
        "postalCode": "95051-5197"
      }
    ],
    "extension": [
      {
        "url": "https://fhir.athena.io/StructureDefinition/ah-practice",
        "valueReference": {
          "reference": "Organization/a-1.Practice-8243"
        }
      },
      {
        "url": "https://fhir.athena.io/StructureDefinition/ah-brand",
        "valueReference": {
          "reference": "Organization/a-8243.Brand-1"
        }
      }
    ]
  },
  "fullUrl": "urn:uuid:773c2618-d499-534e-b0f0-8096a80d6fc5"
}