{
  "resource": {
    "resourceType": "Organization",
    "id": "fe622bcb-a226-5277-b902-9f53eb1f2659",
    "name": "Boules Salib, M.D. MPH",
    "endpoint": [
      {
        "reference": "Endpoint/27a4e967-47aa-5a9c-a572-b8297ee268a2"
      },
      {
        "reference": "Endpoint/79baebfd-644f-5d82-9b78-efbce645591b"
      }
    ],
    "identifier": [
      {
        "system": "http://hl7.org/fhir/sid/us-npi",
        "value": "1528462033"
      }
    ],
    "address": [
      {
        "line": [
          "15451 Ventura Blvd."
        ],
        "city": "SHERMAN OAKS",
        "state": "CA",
        "postalCode": "91403-3014"
      },
      {
        "line": [
          "9222 Corbin Ave"
        ],
        "city": "NORTHRIDGE",
        "state": "CA",
        "postalCode": "91324-2409"
      },
      {
        "line": [
          "842 E Villa St"
        ],
        "city": "PASADENA",
        "state": "CA",
        "postalCode": "91101-1259"
      },
      {
        "line": [
          "8332 Huntington Dr"
        ],
        "city": "SAN GABRIEL",
        "state": "CA",
        "postalCode": "91775-1038"
      },
      {
        "line": [
          "11429 Ventura Blvd"
        ],
        "city": "STUDIO CITY",
        "state": "CA",
        "postalCode": "91604-3143"
      },
      {
        "line": [
          "22029 Saticoy St"
        ],
        "city": "CANOGA PARK",
        "state": "CA",
        "postalCode": "91303-1133"
      },
      {
        "line": [
          "2250 29th St"
        ],
        "city": "SANTA MONICA",
        "state": "CA",
        "postalCode": "90405-2008"
      },
      {
        "line": [
          "10955 Washington Blvd"
        ],
        "city": "CULVER CITY",
        "state": "CA",
        "postalCode": "90232-4045"
      },
      {
        "line": [
          "6740 WILBUR AVE"
        ],
        "city": "RESEDA",
        "state": "CA",
        "postalCode": "91335-5179"
      },
      {
        "line": [
          "5450 Vesper Avenue"
        ],
        "city": "VAN NUYS",
        "state": "CA",
        "postalCode": "91411-4221"
      },
      {
        "line": [
          "1745 N Gramercy place"
        ],
        "city": "LOS ANGELES",
        "state": "CA",
        "postalCode": "90028-5863"
      },
      {
        "line": [
          "3680 N Moorpark Rd,"
        ],
        "city": "THOUSAND OAKS",
        "state": "CA",
        "postalCode": "91360-2603"
      },
      {
        "line": [
          "3499 Grande Vista Dr"
        ],
        "city": "NEWBURY PARK",
        "state": "CA",
        "postalCode": "91320-1131"
      },
      {
        "line": [
          "2177 E Thousand Oaks Blvd"
        ],
        "city": "THOUSAND OAKS",
        "state": "CA",
        "postalCode": "91362-2904"
      },
      {
        "line": [
          "10626 Balboa Blvd"
        ],
        "city": "GRANADA HILLS",
        "state": "CA",
        "postalCode": "91344-6329"
      },
      {
        "line": [
          "22125 Roscoe Blvd."
        ],
        "city": "CANOGA PARK",
        "state": "CA",
        "postalCode": "91304-3839"
      },
      {
        "line": [
          "5217 chesebro road"
        ],
        "city": "AGOURA HILLS",
        "state": "CA",
        "postalCode": "91301-2212"
      },
      {
        "line": [
          "4061 Grand View Blvd"
        ],
        "city": "LOS ANGELES",
        "state": "CA",
        "postalCode": "90066-7260"
      },
      {
        "line": [
          "120 Bellefontaine St"
        ],
        "city": "PASADENA",
        "state": "CA",
        "postalCode": "91105-3102"
      },
      {
        "line": [
          "5325 Etiwanda Ave"
        ],
        "city": "TARZANA",
        "state": "CA",
        "postalCode": "91356-6147"
      },
      {
        "line": [
          "201 E Foothill Blvd"
        ],
        "city": "MONROVIA",
        "state": "CA",
        "postalCode": "91016-5500"
      },
      {
        "line": [
          "2468 S. St Andrews Place"
        ],
        "city": "LOS ANGELES",
        "state": "CA",
        "postalCode": "90018-2042"
      },
      {
        "line": [
          "1 E Commonwealth Ave, Alhambra, CA 91801",
          "ROOM #11"
        ],
        "city": "ALHAMBRA",
        "state": "CA",
        "postalCode": "91801-3823"
      },
      {
        "line": [
          "2212 El Molino Ave"
        ],
        "city": "ALTADENA",
        "state": "CA",
        "postalCode": "91001-3000"
      },
      {
        "line": [
          "1623 Arizona Ave"
        ],
        "city": "SANTA MONICA",
        "state": "CA",
        "postalCode": "90409-1209"
      },
      {
        "line": [
          "1450 17th St"
        ],
        "city": "SANTA MONICA",
        "state": "CA",
        "postalCode": "90404-2849"
      },
      {
        "line": [
          "951 S Fair Oaks Ave"
        ],
        "city": "PASADENA",
        "state": "CA",
        "postalCode": "91105-2631"
      },
      {
        "line": [
          "150 Bellefontaine St"
        ],
        "city": "PASADENA",
        "state": "CA",
        "postalCode": "91105-3102"
      },
      {
        "line": [
          "3995 Overland Ave"
        ],
        "city": "CULVER CITY",
        "state": "CA",
        "postalCode": "90232-3722"
      },
      {
        "line": [
          "5300 E. Los Angeles Ave"
        ],
        "city": "SIMI VALLEY",
        "state": "CA",
        "postalCode": "93063-7034"
      },
      {
        "line": [
          "1312 15th St"
        ],
        "city": "SANTA MONICA",
        "state": "CA",
        "postalCode": "90404-1802"
      },
      {
        "line": [
          "6900 Royer Ave"
        ],
        "city": "WEST HILLS",
        "state": "CA",
        "postalCode": "91307-2505"
      },
      {
        "line": [
          "2040 GARFIAS DRIVE"
        ],
        "city": "PASADENA",
        "state": "CA",
        "postalCode": "91104-1727"
      },
      {
        "line": [
          "2468 S. ST ANDREWS PLACE"
        ],
        "city": "LOS ANGELES",
        "state": "CA",
        "postalCode": "90018-2042"
      },
      {
        "line": [
          "2446 So. St. Andrews Place"
        ],
        "city": "LOS ANGELES",
        "state": "CA",
        "postalCode": "90018-2042"
      },
      {
        "line": [
          "901 W. Santa Anita St"
        ],
        "city": "SAN GABRIEL",
        "state": "CA",
        "postalCode": "91776-1018"
      },
      {
        "line": [
          "10350 Santa Monica Blvd.",
          "Suite 210"
        ],
        "city": "LOS ANGELES",
        "state": "CA",
        "postalCode": "90025-6923"
      },
      {
        "line": [
          "24141 Ventura Blvd"
        ],
        "city": "CALABASAS",
        "state": "CA",
        "postalCode": "91302-3774"
      },
      {
        "line": [
          "3333 Manning Avenue"
        ],
        "city": "LOS ANGELES",
        "state": "CA",
        "postalCode": "90064-4804"
      },
      {
        "line": [
          "255 S Oak Knoll Ave"
        ],
        "city": "PASADENA",
        "state": "CA",
        "postalCode": "91101-2911"
      },
      {
        "line": [
          "20461 Ventura Blvd"
        ],
        "city": "WOODLAND HILLS",
        "state": "CA",
        "postalCode": "91364-2325"
      },
      {
        "line": [
          "245 S El Molino Ave"
        ],
        "city": "PASADENA",
        "state": "CA",
        "postalCode": "91101-2905"
      },
      {
        "line": [
          "2637 E WASHINGTON BLVD"
        ],
        "city": "PASADENA",
        "state": "CA",
        "postalCode": "91107-1412"
      },
      {
        "line": [
          "20801 Devonshire St"
        ],
        "city": "CHATSWORTH",
        "state": "CA",
        "postalCode": "91311-3216"
      },
      {
        "line": [
          "3575 Moorpark Rd"
        ],
        "city": "THOUSAND OAKS",
        "state": "CA",
        "postalCode": "91360-2666"
      },
      {
        "line": [
          "2527 S Bundy Dr"
        ],
        "city": "LOS ANGELES",
        "state": "CA",
        "postalCode": "90064-2719"
      },
      {
        "line": [
          "2107 OCEAN AVE",
          "ROOM 608"
        ],
        "city": "SANTA MONICA",
        "state": "CA",
        "postalCode": "90405-2266"
      },
      {
        "line": [
          "4926 Shenandoah Avenue"
        ],
        "city": "LOS ANGELES",
        "state": "CA",
        "postalCode": "90056-1058"
      }
    ],
    "extension": [
      {
        "url": "https://fhir.athena.io/StructureDefinition/ah-practice",
        "valueReference": {
          "reference": "Organization/a-1.Practice-13160"
        }
      },
      {
        "url": "https://fhir.athena.io/StructureDefinition/ah-brand",
        "valueReference": {
          "reference": "Organization/a-13160.Brand-1"
        }
      }
    ]
  },
  "fullUrl": "urn:uuid:fe622bcb-a226-5277-b902-9f53eb1f2659"
}