{
  "resource": {
    "resourceType": "Organization",
    "id": "59850982-9614-5319-aafe-e8abf0a49c27",
    "name": "AUTUMN LAKE AT LINWOOD",
    "endpoint": [
      {
        "reference": "Endpoint/27a4e967-47aa-5a9c-a572-b8297ee268a2"
      },
      {
        "reference": "Endpoint/6d1fffba-b284-58a3-855e-70614f50e09b"
      }
    ],
    "identifier": [
      {
        "system": "http://hl7.org/fhir/sid/us-npi",
        "value": "1376921460"
      }
    ],
    "address": [
      {
        "line": [
          "502 ROUTE 9 N"
        ],
        "city": "CAPE MAY COURT HOUSE",
        "state": "NJ",
        "postalCode": "08210-1953"
      },
      {
        "line": [
          "680 BROADWAY STE 301"
        ],
        "city": "PATERSON",
        "state": "NJ",
        "postalCode": "07514-1528"
      },
      {
        "line": [
          "201 NEW ROAD"
        ],
        "city": "LINWOOD",
        "state": "NJ",
        "postalCode": "08221-1201"
      },
      {
        "line": [
          "963 OCEAN AVE"
        ],
        "city": "LAKEWOOD",
        "state": "NJ",
        "postalCode": "08701-3649"
      },
      {
        "line": [
          "509 ROUTE 530"
        ],
        "city": "MANCHESTER TOWNSHIP",
        "state": "NJ",
        "postalCode": "08759-3145"
      },
      {
        "line": [
          "100 Kings Way East, Suite D1"
        ],
        "city": "SEWELL",
        "state": "NJ",
        "postalCode": "08080-2238"
      },
      {
        "line": [
          "205 BIRCHWOOD AVE"
        ],
        "city": "CRANFORD",
        "state": "NJ",
        "postalCode": "07016-2515"
      },
      {
        "line": [
          "1001 Center St"
        ],
        "city": "TUCKERTON",
        "state": "NJ",
        "postalCode": "08087-1347"
      },
      {
        "line": [
          "5101 N PARK DR"
        ],
        "city": "PENNSAUKEN",
        "state": "NJ",
        "postalCode": "08109-4643"
      },
      {
        "line": [
          "859 W BAY AVE"
        ],
        "city": "BARNEGAT",
        "state": "NJ",
        "postalCode": "08005-2127"
      },
      {
        "line": [
          "1417 Brace Rd"
        ],
        "city": "CHERRY HILL",
        "state": "NJ",
        "postalCode": "08034-3524"
      },
      {
        "line": [
          "1302 Laurel Oak rd"
        ],
        "city": "VOORHEES",
        "state": "NJ",
        "postalCode": "08043-4310"
      },
      {
        "line": [
          "4 MOORE RD"
        ],
        "city": "CAPE MAY COURT HOUSE",
        "state": "NJ",
        "postalCode": "08210-1654"
      },
      {
        "line": [
          "151 Ninth Avenue"
        ],
        "city": "Little Egg harbor twp",
        "state": "NJ",
        "postalCode": "08087-4218"
      },
      {
        "line": [
          "22 W JIMMIE LEEDS RD"
        ],
        "city": "ABSECON",
        "state": "NJ",
        "postalCode": "08205-9422"
      },
      {
        "line": [
          "901 route 168"
        ],
        "city": "BLACKWOOD",
        "state": "NJ",
        "postalCode": "08012-3210"
      },
      {
        "line": [
          "2350 HOSPITAL RD"
        ],
        "city": "ALLENWOOD",
        "state": "NJ",
        "postalCode": "08720-7037"
      },
      {
        "line": [
          "6818 Delilah Rd"
        ],
        "city": "EGG HARBOR TOWNSHIP",
        "state": "NJ",
        "postalCode": "08234-9594"
      },
      {
        "line": [
          "989 MEDICAL PARK DR STE 200"
        ],
        "city": "MAYSVILLE",
        "state": "KY",
        "postalCode": "41056-8750"
      },
      {
        "line": [
          "99 Manheim Ave"
        ],
        "city": "BRIDGETON",
        "state": "NJ",
        "postalCode": "08302-2114"
      },
      {
        "line": [
          "620 PARKER RD"
        ],
        "city": "MAYSVILLE",
        "state": "KY",
        "postalCode": "41056-9620"
      },
      {
        "line": [
          "3001 East Evesham Rd"
        ],
        "city": "VOORHEES",
        "state": "NJ",
        "postalCode": "08043-9547"
      },
      {
        "line": [
          "467 Cooper Street"
        ],
        "city": "WOODBURY",
        "state": "NJ",
        "postalCode": "08096-2519"
      },
      {
        "line": [
          "1511 Clements Bridge Road"
        ],
        "city": "WOODBURY",
        "state": "NJ",
        "postalCode": "08096-3007"
      },
      {
        "line": [
          "317 West Mill Rd"
        ],
        "city": "MAPLE SHADE",
        "state": "NJ",
        "postalCode": "08052-2731"
      },
      {
        "line": [
          "499 BECKETT RD",
          "unit 103"
        ],
        "city": "SWEDESBORO",
        "state": "NJ",
        "postalCode": "08085-1766"
      },
      {
        "line": [
          "3419 ROUTE 9 N"
        ],
        "city": "FREEHOLD",
        "state": "NJ",
        "postalCode": "07728-3284"
      },
      {
        "line": [
          "454 HURFFVILLE CROSSKEYS RD"
        ],
        "city": "SEWELL",
        "state": "NJ",
        "postalCode": "08080-2339"
      },
      {
        "line": [
          "550 Jessup Rd"
        ],
        "city": "PAULSBORO",
        "state": "NJ",
        "postalCode": "08066-1921"
      },
      {
        "line": [
          "890 West Bay Ave, Unit F"
        ],
        "city": "BARNEGAT",
        "state": "NJ",
        "postalCode": "08005-9998"
      },
      {
        "line": [
          "1399 CHAPEL AVE W"
        ],
        "city": "CHERRY HILL",
        "state": "NJ",
        "postalCode": "08002-2233"
      },
      {
        "line": [
          "3 HAMILTON HEALTH PL"
        ],
        "city": "TRENTON",
        "state": "NJ",
        "postalCode": "08690-3542"
      },
      {
        "line": [
          "685 SALINA RD"
        ],
        "city": "SEWELL",
        "state": "NJ",
        "postalCode": "08080-2500"
      },
      {
        "line": [
          "378 FRIES MILL ROAD"
        ],
        "city": "SEWELL",
        "state": "NJ",
        "postalCode": "08080-9203"
      },
      {
        "line": [
          "3809 BAYSHORE RD"
        ],
        "city": "CAPE MAY",
        "state": "NJ",
        "postalCode": "08204-3259"
      },
      {
        "line": [
          "562 RT 47 N"
        ],
        "city": "CAPE MAY COURT HOUSE",
        "state": "NJ",
        "postalCode": "08210-1323"
      },
      {
        "line": [
          "2601 E EVESHAM RD"
        ],
        "city": "VOORHEES",
        "state": "NJ",
        "postalCode": "08043-9509"
      },
      {
        "line": [
          "211 South Main Street",
          "Suite 203"
        ],
        "city": "CAPE MAY COURT HOUSE",
        "state": "NJ",
        "postalCode": "08210-2264"
      },
      {
        "line": [
          "1700 WYNWOOD DR"
        ],
        "city": "RIVERTON",
        "state": "NJ",
        "postalCode": "08077-2440"
      },
      {
        "line": [
          "29 N Vermont Ave"
        ],
        "city": "ATLANTIC CITY",
        "state": "NJ",
        "postalCode": "08401-5561"
      },
      {
        "line": [
          "311 S LIVINGSTON AVE"
        ],
        "city": "LIVINGSTON",
        "state": "NJ",
        "postalCode": "07039-3927"
      }
    ],
    "extension": [
      {
        "url": "https://fhir.athena.io/StructureDefinition/ah-practice",
        "valueReference": {
          "reference": "Organization/a-1.Practice-11515"
        }
      },
      {
        "url": "https://fhir.athena.io/StructureDefinition/ah-brand",
        "valueReference": {
          "reference": "Organization/a-11515.Brand-1"
        }
      }
    ]
  },
  "fullUrl": "urn:uuid:59850982-9614-5319-aafe-e8abf0a49c27"
}