{
  "resource": {
    "resourceType": "Organization",
    "id": "6bc1a15a-4660-5359-972e-6d8ebbc99051",
    "name": "AHC DALLAS OFC",
    "endpoint": [
      {
        "reference": "Endpoint/27a4e967-47aa-5a9c-a572-b8297ee268a2"
      },
      {
        "reference": "Endpoint/3069d378-56a3-5617-ab23-5baeae715e14"
      }
    ],
    "identifier": [
      {
        "system": "http://hl7.org/fhir/sid/us-npi",
        "value": "1538197546"
      }
    ],
    "address": [
      {
        "line": [
          "6801 OAKMONT BLVD"
        ],
        "city": "FORT WORTH",
        "state": "TX",
        "postalCode": "76132-3918"
      },
      {
        "line": [
          "8150 N CENTRAL EXPWAY",
          "STE M1001"
        ],
        "city": "DALLAS",
        "state": "TX",
        "postalCode": "75206-1884"
      },
      {
        "line": [
          "2890 LEWIS LN"
        ],
        "city": "PARIS",
        "state": "TX",
        "postalCode": "75460-9319"
      },
      {
        "line": [
          "3550 Parkwood Blvd",
          "Suite 600"
        ],
        "city": "FRISCO",
        "state": "TX",
        "postalCode": "75034-1915"
      },
      {
        "line": [
          "800 E DAWSON ST"
        ],
        "city": "TYLER",
        "state": "TX",
        "postalCode": "75701-2036"
      },
      {
        "line": [
          "6800 Scenic Drive"
        ],
        "city": "ROWLETT",
        "state": "TX",
        "postalCode": "75088-4552"
      },
      {
        "line": [
          "6201 OVERTON RIDGE BLVD"
        ],
        "city": "FORT WORTH",
        "state": "TX",
        "postalCode": "76132-3613"
      },
      {
        "line": [
          "2001 N Jefferson"
        ],
        "city": "MOUNT PLEASANT",
        "state": "TX",
        "postalCode": "75455-2338"
      },
      {
        "line": [
          "800 W RANDALL MILLS RD"
        ],
        "city": "ARLINGTON",
        "state": "TX",
        "postalCode": "76012-2504"
      },
      {
        "line": [
          "800 W RANDOL MILLS RD"
        ],
        "city": "ARLINGTON",
        "state": "TX",
        "postalCode": "76012-2504"
      },
      {
        "line": [
          "2620 Communications Pkwy"
        ],
        "city": "PLANO",
        "state": "TX",
        "postalCode": "75093-8800"
      }
    ],
    "extension": [
      {
        "url": "https://fhir.athena.io/StructureDefinition/ah-practice",
        "valueReference": {
          "reference": "Organization/a-1.Practice-4043"
        }
      },
      {
        "url": "https://fhir.athena.io/StructureDefinition/ah-brand",
        "valueReference": {
          "reference": "Organization/a-4043.Brand-1"
        }
      }
    ]
  },
  "fullUrl": "urn:uuid:6bc1a15a-4660-5359-972e-6d8ebbc99051"
}