{
  "resource": {
    "resourceType": "Organization",
    "id": "8e9cd87b-59a0-583f-bbc5-c1dc6b41c879",
    "name": "Retina Group of Washington, PC",
    "endpoint": [
      {
        "reference": "Endpoint/27a4e967-47aa-5a9c-a572-b8297ee268a2"
      },
      {
        "reference": "Endpoint/fac0907b-5588-5527-9a84-9504e88cd46e"
      }
    ],
    "identifier": [
      {
        "system": "http://hl7.org/fhir/sid/us-npi",
        "value": "1225001654"
      }
    ],
    "address": [
      {
        "line": [
          "3289 Woodburn Drive",
          "Ste 100"
        ],
        "city": "ANNANDALE",
        "state": "VA",
        "postalCode": "22003-6800"
      },
      {
        "line": [
          "3800 Reservoir Road NW"
        ],
        "city": "WASHINGTON",
        "state": "DC",
        "postalCode": "20007-2113"
      },
      {
        "line": [
          "1731 Bunker Hill Road NE"
        ],
        "city": "WASHINGTON",
        "state": "DC",
        "postalCode": "20017-3026"
      },
      {
        "line": [
          "1701 N George Mason Dr"
        ],
        "city": "ARLINGTON",
        "state": "VA",
        "postalCode": "22205-3610"
      },
      {
        "line": [
          "5550 Friendship Blvd Suite 270"
        ],
        "city": "CHEVY CHASE",
        "state": "MD",
        "postalCode": "20815-7201"
      },
      {
        "line": [
          "3600 Joseph Siewick Drive"
        ],
        "city": "FAIRFAX",
        "state": "VA",
        "postalCode": "22033-1709"
      },
      {
        "line": [
          "46 W Gude Drive"
        ],
        "city": "ROCKVILLE",
        "state": "MD",
        "postalCode": "20850-1150"
      },
      {
        "line": [
          "17001 Science Dr Ste 114"
        ],
        "city": "BOWIE",
        "state": "MD",
        "postalCode": "20715-4329"
      },
      {
        "line": [
          "1860 Town Center Parkway G100"
        ],
        "city": "RESTON",
        "state": "VA",
        "postalCode": "20190-9183"
      },
      {
        "line": [
          "8600 Old Georgetown Road"
        ],
        "city": "BETHESDA",
        "state": "MD",
        "postalCode": "20814-1422"
      },
      {
        "line": [
          "14999 Health Center Drive",
          "Ste 103"
        ],
        "city": "BOWIE",
        "state": "MD",
        "postalCode": "20716-1074"
      },
      {
        "line": [
          "110 Irving Street NW"
        ],
        "city": "WASHINGTON",
        "state": "DC",
        "postalCode": "20010-2976"
      },
      {
        "line": [
          "4831 Cordell Ave"
        ],
        "city": "BETHESDA",
        "state": "MD",
        "postalCode": "20814-3068"
      },
      {
        "line": [
          "2041 Georgia Avenue NW"
        ],
        "city": "WASHINGTON",
        "state": "DC",
        "postalCode": "20060-0001"
      },
      {
        "line": [
          "110 Irving Street NW"
        ],
        "city": "WASHINGTON",
        "state": "DC",
        "postalCode": "20010-3999"
      },
      {
        "line": [
          "111 Michigan Ave NW"
        ],
        "city": "WASHINGTON",
        "state": "DC",
        "postalCode": "20010-2915"
      },
      {
        "line": [
          "8630 Fenton Street Suite 800"
        ],
        "city": "SILVER SPRING",
        "state": "MD",
        "postalCode": "20910-3806"
      }
    ],
    "extension": [
      {
        "url": "https://fhir.athena.io/StructureDefinition/ah-practice",
        "valueReference": {
          "reference": "Organization/a-1.Practice-1758"
        }
      },
      {
        "url": "https://fhir.athena.io/StructureDefinition/ah-brand",
        "valueReference": {
          "reference": "Organization/a-1758.Brand-35"
        }
      }
    ]
  },
  "fullUrl": "urn:uuid:8e9cd87b-59a0-583f-bbc5-c1dc6b41c879"
}