{
  "resource": {
    "resourceType": "Organization",
    "id": "7d8a61be-bf82-5b95-9bfb-ed6cddba3d19",
    "name": "Presence Behavioral Health",
    "endpoint": [
      {
        "reference": "Endpoint/27a4e967-47aa-5a9c-a572-b8297ee268a2"
      },
      {
        "reference": "Endpoint/883d34ac-df71-5a14-84cf-a4251c0f1799"
      }
    ],
    "identifier": [
      {
        "system": "http://hl7.org/fhir/sid/us-npi",
        "value": "1386352193"
      },
      {
        "system": "http://hl7.org/fhir/sid/us-npi",
        "value": "1356597314"
      },
      {
        "system": "http://hl7.org/fhir/sid/us-npi",
        "value": "1851586614"
      },
      {
        "system": "http://hl7.org/fhir/sid/us-npi",
        "value": "1477622298"
      }
    ],
    "address": [
      {
        "line": [
          "1414 Main Street"
        ],
        "city": "MELROSE PARK",
        "state": "IL",
        "postalCode": "60160-3902"
      },
      {
        "line": [
          "9845 W Roosevelt Rd"
        ],
        "city": "WESTCHESTER",
        "state": "IL",
        "postalCode": "60154-2758"
      },
      {
        "line": [
          "170 N 23rd"
        ],
        "city": "MELROSE PARK",
        "state": "IL",
        "postalCode": "60160-3635"
      },
      {
        "line": [
          "611 N 2nd Ave"
        ],
        "city": "MAYWOOD",
        "state": "IL",
        "postalCode": "60153-1111"
      },
      {
        "line": [
          "134 N LaSalle St  Suite 400"
        ],
        "city": "CHICAGO",
        "state": "IL",
        "postalCode": "60602-1048"
      },
      {
        "line": [
          "117 S 6th Ave"
        ],
        "city": "MAYWOOD",
        "state": "IL",
        "postalCode": "60153-1305"
      },
      {
        "line": [
          "537 S DesPlaines Ave"
        ],
        "city": "FOREST PARK",
        "state": "IL",
        "postalCode": "60130-1859"
      },
      {
        "line": [
          "11824 Southwest Highway  Suite 230"
        ],
        "city": "PALOS HEIGHTS",
        "state": "IL",
        "postalCode": "60463-1085"
      },
      {
        "line": [
          "1414 Main Street"
        ],
        "city": "MELROSE PARK",
        "state": "IL",
        "postalCode": "60160-3139"
      },
      {
        "line": [
          "1820 S 25th Ave"
        ],
        "city": "BROADVIEW",
        "state": "IL",
        "postalCode": "60155-3960"
      }
    ],
    "extension": [
      {
        "url": "https://fhir.athena.io/StructureDefinition/ah-practice",
        "valueReference": {
          "reference": "Organization/a-1.Practice-21300"
        }
      },
      {
        "url": "https://fhir.athena.io/StructureDefinition/ah-brand",
        "valueReference": {
          "reference": "Organization/a-21300.Brand-1"
        }
      }
    ]
  },
  "fullUrl": "urn:uuid:7d8a61be-bf82-5b95-9bfb-ed6cddba3d19"
}