{
  "resource": {
    "resourceType": "Organization",
    "id": "dd2ce842-f2e7-5fed-89da-f03008a406f7",
    "name": "Bear Creek Dialysis",
    "endpoint": [
      {
        "reference": "Endpoint/27a4e967-47aa-5a9c-a572-b8297ee268a2"
      },
      {
        "reference": "Endpoint/4692cce3-95d9-57b3-8423-db31cb69e250"
      }
    ],
    "identifier": [
      {
        "system": "http://hl7.org/fhir/sid/us-npi",
        "value": "1396217162"
      }
    ],
    "address": [
      {
        "line": [
          "11411 N SAM HOUSTON PKWY E STE 120"
        ],
        "city": "HUMBLE",
        "state": "TX",
        "postalCode": "77396-5903"
      },
      {
        "line": [
          "21214 Northwest Fwy"
        ],
        "city": "CYPRESS",
        "state": "TX",
        "postalCode": "77429-3373"
      },
      {
        "line": [
          "1400 Creek Way Dr",
          "STE 211"
        ],
        "city": "SUGAR LAND",
        "state": "TX",
        "postalCode": "77478-4073"
      },
      {
        "line": [
          "9602 Huffmeister RD"
        ],
        "city": "HOUSTON",
        "state": "TX",
        "postalCode": "77095-2895"
      },
      {
        "line": [
          "24968 Katy Ranch Rd, Ste 500"
        ],
        "city": "KATY",
        "state": "TX",
        "postalCode": "77494-3404"
      },
      {
        "line": [
          "4918 W. 34th St"
        ],
        "city": "HOUSTON",
        "state": "TX",
        "postalCode": "77092-6606"
      },
      {
        "line": [
          "2815 HIGHWAY 36 S"
        ],
        "city": "BRENHAM",
        "state": "TX",
        "postalCode": "77833-8143"
      },
      {
        "line": [
          "14512 LEE RD"
        ],
        "city": "HUMBLE",
        "state": "TX",
        "postalCode": "77396-3425"
      },
      {
        "line": [
          "72 CYPRESS CREEK PKWY"
        ],
        "city": "HOUSTON",
        "state": "TX",
        "postalCode": "77090-3531"
      },
      {
        "line": [
          "13311 PIKE RD"
        ],
        "city": "STAFFORD",
        "state": "TX",
        "postalCode": "77477-5111"
      },
      {
        "line": [
          "4427 FM 1960 Rd West",
          "STE D"
        ],
        "city": "HOUSTON",
        "state": "TX",
        "postalCode": "77068-3409"
      },
      {
        "line": [
          "403 W. Grant Pkwy S. Ste T"
        ],
        "city": "KATY",
        "state": "TX",
        "postalCode": "77494-8358"
      },
      {
        "line": [
          "20435 CYPRESSWOOD DR"
        ],
        "city": "CYPRESS",
        "state": "TX",
        "postalCode": "77433-5846"
      },
      {
        "line": [
          "24730 State Hwy 249",
          "STE A"
        ],
        "city": "TOMBALL",
        "state": "TX",
        "postalCode": "77375-7726"
      },
      {
        "line": [
          "5923 Westheimer Rd Ste 5174"
        ],
        "city": "HOUSTON",
        "state": "TX",
        "postalCode": "77057-7603"
      },
      {
        "line": [
          "15103 Mason Rd Ste D5"
        ],
        "city": "CYPRESS",
        "state": "TX",
        "postalCode": "77433-6755"
      },
      {
        "line": [
          "102 Vintage Park Blvd STE A Bldg L"
        ],
        "city": "HOUSTON",
        "state": "TX",
        "postalCode": "77070-4080"
      },
      {
        "line": [
          "13730 ALICE RD STE D"
        ],
        "city": "TOMBALL",
        "state": "TX",
        "postalCode": "77377-6364"
      },
      {
        "line": [
          "8787 Fallbrook Dr"
        ],
        "city": "HOUSTON",
        "state": "TX",
        "postalCode": "77064-3318"
      },
      {
        "line": [
          "6626 Antoine Dr"
        ],
        "city": "HOUSTON",
        "state": "TX",
        "postalCode": "77091-1206"
      },
      {
        "line": [
          "12606 Westpark Dr"
        ],
        "city": "HOUSTON",
        "state": "TX",
        "postalCode": "77082-5526"
      },
      {
        "line": [
          "10405 Katy Fwy",
          "STE 140"
        ],
        "city": "HOUSTON",
        "state": "TX",
        "postalCode": "77024-1165"
      },
      {
        "line": [
          "22999 HIGHWAY 59 N"
        ],
        "city": "Kingwood",
        "state": "TX",
        "postalCode": "77339-4412"
      },
      {
        "line": [
          "336 West 21st"
        ],
        "city": "HOUSTON",
        "state": "TX",
        "postalCode": "77008-2410"
      },
      {
        "line": [
          "1425 BLALOCK RD STE 100"
        ],
        "city": "HOUSTON",
        "state": "TX",
        "postalCode": "77055-4446"
      },
      {
        "line": [
          "235 FM 1960 RD W STE 235C"
        ],
        "city": "HOUSTON",
        "state": "TX",
        "postalCode": "77090-3515"
      },
      {
        "line": [
          "12051 West Park Drive Ste 100"
        ],
        "city": "HOUSTON",
        "state": "TX",
        "postalCode": "77082-5556"
      },
      {
        "line": [
          "1635 North Loop West"
        ],
        "city": "HOUSTON",
        "state": "TX",
        "postalCode": "77008-1532"
      },
      {
        "line": [
          "1800 W 26th",
          "Ste 101"
        ],
        "city": "HOUSTON",
        "state": "TX",
        "postalCode": "77008-1451"
      },
      {
        "line": [
          "20180 Chasewood Park Dr"
        ],
        "city": "HOUSTON",
        "state": "TX",
        "postalCode": "77070-1436"
      },
      {
        "line": [
          "20171 Chasewood Park Dr"
        ],
        "city": "HOUSTON",
        "state": "TX",
        "postalCode": "77070-1437"
      },
      {
        "line": [
          "21755 Provincial Blvd"
        ],
        "city": "KATY",
        "state": "TX",
        "postalCode": "77450-6508"
      },
      {
        "line": [
          "27720A Tomball Pkwy"
        ],
        "city": "TOMBALL",
        "state": "TX",
        "postalCode": "77375-6472"
      },
      {
        "line": [
          "9110 Jones Road 110"
        ],
        "city": "CYPRESS",
        "state": "TX",
        "postalCode": "77065-4489"
      },
      {
        "line": [
          "18003 Longenbaugh Rd"
        ],
        "city": "CYPRESS",
        "state": "TX",
        "postalCode": "77433-7196"
      },
      {
        "line": [
          "220 Cottonwood"
        ],
        "city": "HEMPSTEAD",
        "state": "TX",
        "postalCode": "77445-9226"
      },
      {
        "line": [
          "9430 Katy Freeway"
        ],
        "city": "HOUSTON",
        "state": "TX",
        "postalCode": "77055-6320"
      },
      {
        "line": [
          "13031 Wortham Center Dr"
        ],
        "city": "HOUSTON",
        "state": "TX",
        "postalCode": "77065-5662"
      },
      {
        "line": [
          "27800 Northwest Freeway"
        ],
        "city": "CYPRESS",
        "state": "TX",
        "postalCode": "77433-5302"
      },
      {
        "line": [
          "12120 Jones Rd Ste G"
        ],
        "city": "HOUSTON",
        "state": "TX",
        "postalCode": "77070-5280"
      },
      {
        "line": [
          "21216 NW Freeway Ste 230"
        ],
        "city": "CYPRESS",
        "state": "TX",
        "postalCode": "77429-4695"
      },
      {
        "line": [
          "21216 NW Freeway"
        ],
        "city": "CYPRESS",
        "state": "TX",
        "postalCode": "77429-4695"
      },
      {
        "line": [
          "11830 Northpointe Blvd"
        ],
        "city": "TOMBALL",
        "state": "TX",
        "postalCode": "77377-5536"
      },
      {
        "line": [
          "11297 Fallbrook Dr"
        ],
        "city": "HOUSTON",
        "state": "TX",
        "postalCode": "77065-4230"
      },
      {
        "line": [
          "8925 Highway 6 N"
        ],
        "city": "HOUSTON",
        "state": "TX",
        "postalCode": "77095-2457"
      },
      {
        "line": [
          "11321 Fallbrook Dr"
        ],
        "city": "HOUSTON",
        "state": "TX",
        "postalCode": "77065-4232"
      },
      {
        "line": [
          "2242 Championship Dr"
        ],
        "city": "SEALY",
        "state": "TX",
        "postalCode": "77474-8122"
      },
      {
        "line": [
          "9350 KIRBY DR, STE 110"
        ],
        "city": "HOUSTON",
        "state": "TX",
        "postalCode": "77054-2528"
      },
      {
        "line": [
          "5655 W Sam Houston Pkwy N Ste A"
        ],
        "city": "HOUSTON",
        "state": "TX",
        "postalCode": "77041-5148"
      },
      {
        "line": [
          "10655 Steepletop Dr"
        ],
        "city": "HOUSTON",
        "state": "TX",
        "postalCode": "77065-4222"
      },
      {
        "line": [
          "10242 Greenhouse Road",
          "Suite 1101"
        ],
        "city": "CYPRESS",
        "state": "TX",
        "postalCode": "77433-1855"
      },
      {
        "line": [
          "1644 RESEARCH FOREST DR STE 150"
        ],
        "city": "Shenandoah",
        "state": "TX",
        "postalCode": "77381-4396"
      },
      {
        "line": [
          "16903 Red Oak Dr",
          "Ste 100b"
        ],
        "city": "HOUSTON",
        "state": "TX",
        "postalCode": "77090-3917"
      },
      {
        "line": [
          "11621 KATY FWY"
        ],
        "city": "HOUSTON",
        "state": "TX",
        "postalCode": "77079-1801"
      },
      {
        "line": [
          "1313 La Concha Ln"
        ],
        "city": "HOUSTON",
        "state": "TX",
        "postalCode": "77054-1809"
      },
      {
        "line": [
          "27800 North West Freeway"
        ],
        "city": "CYPRESS",
        "state": "TX",
        "postalCode": "77433-5302"
      },
      {
        "line": [
          "13656 BRETON RIDGE ST STE A-H"
        ],
        "city": "HOUSTON",
        "state": "TX",
        "postalCode": "77070-6081"
      },
      {
        "line": [
          "10505 Jones Rd"
        ],
        "city": "HOUSTON",
        "state": "TX",
        "postalCode": "77065-4211"
      },
      {
        "line": [
          "5610 Almeda Rd"
        ],
        "city": "HOUSTON",
        "state": "TX",
        "postalCode": "77004-7515"
      },
      {
        "line": [
          "21925 Franz Rd",
          "STE 401"
        ],
        "city": "KATY",
        "state": "TX",
        "postalCode": "77449-3723"
      },
      {
        "line": [
          "23900 Katy Freeway"
        ],
        "city": "KATY",
        "state": "TX",
        "postalCode": "77494-1323"
      },
      {
        "line": [
          "20025 Chasewood Park"
        ],
        "city": "HOUSTON",
        "state": "TX",
        "postalCode": "77070-1465"
      },
      {
        "line": [
          "10720 Barker Cypress",
          "Suite 2"
        ],
        "city": "CYPRESS",
        "state": "TX",
        "postalCode": "77433-1372"
      },
      {
        "line": [
          "1425 Blalock Rd Ste 100"
        ],
        "city": "HOUSTON",
        "state": "TX",
        "postalCode": "77055-4446"
      },
      {
        "line": [
          "26321 NORTHWEST FWY",
          "STE 300"
        ],
        "city": "CYPRESS",
        "state": "TX",
        "postalCode": "77429-5758"
      },
      {
        "line": [
          "13500 Breton Ridge St"
        ],
        "city": "HOUSTON",
        "state": "TX",
        "postalCode": "77070-5815"
      },
      {
        "line": [
          "13656 BRETON RIDGE ST",
          "UNIT A&H"
        ],
        "city": "HOUSTON",
        "state": "TX",
        "postalCode": "77070-6081"
      },
      {
        "line": [
          "21026 W BELLFORT"
        ],
        "city": "RICHMOND",
        "state": "TX",
        "postalCode": "77406-1685"
      },
      {
        "line": [
          "1265 Rock Canyon Dr"
        ],
        "city": "KATY",
        "state": "TX",
        "postalCode": "77450-3831"
      },
      {
        "line": [
          "16910 Mathis Church Rd"
        ],
        "city": "HOUSTON",
        "state": "TX",
        "postalCode": "77090-3710"
      },
      {
        "line": [
          "11621 Katy Freeway"
        ],
        "city": "HOUSTON",
        "state": "TX",
        "postalCode": "77079-1801"
      },
      {
        "line": [
          "20320 NW Freeway Ste 100"
        ],
        "city": "HOUSTON",
        "state": "TX",
        "postalCode": "77065-5643"
      },
      {
        "line": [
          "920 Frostwood"
        ],
        "city": "HOUSTON",
        "state": "TX",
        "postalCode": "77024-2314"
      },
      {
        "line": [
          "7746 HIGHWAY 6 STE C"
        ],
        "city": "MISSOURI CITY",
        "state": "TX",
        "postalCode": "77459-4778"
      },
      {
        "line": [
          "607 Timberdale Ln"
        ],
        "city": "HOUSTON",
        "state": "TX",
        "postalCode": "77090-3049"
      },
      {
        "line": [
          "921 Gessner Rd"
        ],
        "city": "HOUSTON",
        "state": "TX",
        "postalCode": "77024-2501"
      },
      {
        "line": [
          "701 S Fry Road"
        ],
        "city": "KATY",
        "state": "TX",
        "postalCode": "77450-2255"
      },
      {
        "line": [
          "1445 NORTH LOOP W STE 720"
        ],
        "city": "HOUSTON",
        "state": "TX",
        "postalCode": "77008-1676"
      },
      {
        "line": [
          "10985 NW Freeway"
        ],
        "city": "HOUSTON",
        "state": "TX",
        "postalCode": "77092-7305"
      },
      {
        "line": [
          "9814 S Grant Road"
        ],
        "city": "HOUSTON",
        "state": "TX",
        "postalCode": "77070-4558"
      },
      {
        "line": [
          "9301 Pinecroft Dr Ste 130"
        ],
        "city": "SPRING",
        "state": "TX",
        "postalCode": "77380-3178"
      },
      {
        "line": [
          "21720 Kingsland Blvd STE 102"
        ],
        "city": "KATY",
        "state": "TX",
        "postalCode": "77450-2551"
      },
      {
        "line": [
          "8515 FANNIN ST #190"
        ],
        "city": "HOUSTON",
        "state": "TX",
        "postalCode": "77054-4811"
      },
      {
        "line": [
          "12121 Westheimer Ste 138"
        ],
        "city": "HOUSTON",
        "state": "TX",
        "postalCode": "77077-6654"
      },
      {
        "line": [
          "2922 N Mason Rd"
        ],
        "city": "KATY",
        "state": "TX",
        "postalCode": "77449-5456"
      },
      {
        "line": [
          "18220 State Hwy 249"
        ],
        "city": "HOUSTON",
        "state": "TX",
        "postalCode": "77070-4347"
      },
      {
        "line": [
          "102 VINTAGE PARK BLVD STE A BLDG L"
        ],
        "city": "HOUSTON",
        "state": "TX",
        "postalCode": "77070-4080"
      },
      {
        "line": [
          "17649 Farm to Market Rd 1488"
        ],
        "city": "MAGNOLIA",
        "state": "TX",
        "postalCode": "77354-5235"
      },
      {
        "line": [
          "9623 Long Point"
        ],
        "city": "HOUSTON",
        "state": "TX",
        "postalCode": "77055-4251"
      },
      {
        "line": [
          "12430 State Highway 249",
          "STE H"
        ],
        "city": "HOUSTON",
        "state": "TX",
        "postalCode": "77086-3339"
      },
      {
        "line": [
          "4978 Highway 6 N  STE 1"
        ],
        "city": "HOUSTON",
        "state": "TX",
        "postalCode": "77084-5282"
      },
      {
        "line": [
          "18500 Katy Freeway"
        ],
        "city": "HOUSTON",
        "state": "TX",
        "postalCode": "77094-1110"
      },
      {
        "line": [
          "1426 Kingwood Dr"
        ],
        "city": "KINGWOOD",
        "state": "TX",
        "postalCode": "77339-3040"
      },
      {
        "line": [
          "4007 Greenbriar Dr Ste E"
        ],
        "city": "STAFFORD",
        "state": "TX",
        "postalCode": "77477-3923"
      },
      {
        "line": [
          "24500 NORTHWEST FWY"
        ],
        "city": "CYPRESS",
        "state": "TX",
        "postalCode": "77429-2199"
      },
      {
        "line": [
          "1319 Sam Houston Parkway North"
        ],
        "city": "HOUSTON",
        "state": "TX",
        "postalCode": "77043-4017"
      },
      {
        "line": [
          "5602 Medical Center Drive"
        ],
        "city": "KATY",
        "state": "TX",
        "postalCode": "77494-1665"
      },
      {
        "line": [
          "9850 Drysdale Ln"
        ],
        "city": "HOUSTON",
        "state": "TX",
        "postalCode": "77041-6211"
      },
      {
        "line": [
          "3203 FM 1960 RD W"
        ],
        "city": "HOUSTON",
        "state": "TX",
        "postalCode": "77068-3107"
      },
      {
        "line": [
          "18220 TOMBALL PKWY STE 205"
        ],
        "city": "HOUSTON",
        "state": "TX",
        "postalCode": "77070-4347"
      },
      {
        "line": [
          "14800 Westheimer Rd Ste A"
        ],
        "city": "HOUSTON",
        "state": "TX",
        "postalCode": "77082-1675"
      },
      {
        "line": [
          "2222 Greenhouse"
        ],
        "city": "HOUSTON",
        "state": "TX",
        "postalCode": "77084-7287"
      }
    ],
    "extension": [
      {
        "url": "https://fhir.athena.io/StructureDefinition/ah-practice",
        "valueReference": {
          "reference": "Organization/a-1.Practice-19285"
        }
      },
      {
        "url": "https://fhir.athena.io/StructureDefinition/ah-brand",
        "valueReference": {
          "reference": "Organization/a-19285.Brand-1"
        }
      }
    ]
  },
  "fullUrl": "urn:uuid:dd2ce842-f2e7-5fed-89da-f03008a406f7"
}