{
  "resource": {
    "resourceType": "Organization",
    "id": "755b7b43-0af3-542b-b823-6f756075bbc9",
    "name": "LIVE OAK CARDIOLOGY, PA",
    "endpoint": [
      {
        "reference": "Endpoint/27a4e967-47aa-5a9c-a572-b8297ee268a2"
      },
      {
        "reference": "Endpoint/38b9c07d-e590-5cee-9ccc-eed998c2c64f"
      }
    ],
    "identifier": [
      {
        "system": "http://hl7.org/fhir/sid/us-npi",
        "value": "1679517429"
      }
    ],
    "address": [
      {
        "line": [
          "919 E 32nd street"
        ],
        "city": "AUSTIN",
        "state": "TX",
        "postalCode": "78705-1006"
      },
      {
        "line": [
          "6001 Kyle Parkway"
        ],
        "city": "KYLE",
        "state": "TX",
        "postalCode": "78640-6112"
      },
      {
        "line": [
          "7900 FM 1826"
        ],
        "city": "AUSTIN",
        "state": "TX",
        "postalCode": "78737-1407"
      },
      {
        "line": [
          "5980 Kyle Parkway"
        ],
        "city": "KYLE",
        "state": "TX",
        "postalCode": "78640-2400"
      },
      {
        "line": [
          "1201 w 38th Street"
        ],
        "city": "AUSTIN",
        "state": "TX",
        "postalCode": "78705-1006"
      },
      {
        "line": [
          "901 west ben whit blvd"
        ],
        "city": "AUSTIN",
        "state": "TX",
        "postalCode": "78704-6903"
      },
      {
        "line": [
          "3801 N. Lamar Blvd"
        ],
        "city": "AUSTIN",
        "state": "TX",
        "postalCode": "78756-4080"
      },
      {
        "line": [
          "130 HAYS ST"
        ],
        "city": "LULING",
        "state": "TX",
        "postalCode": "78648-3207"
      },
      {
        "line": [
          "11113 RESEARCH BLVD"
        ],
        "city": "AUSTIN",
        "state": "TX",
        "postalCode": "78759-5236"
      },
      {
        "line": [
          "1500 Red River St"
        ],
        "city": "AUSTIN",
        "state": "TX",
        "postalCode": "78701-1918"
      },
      {
        "line": [
          "201 SETON PKWY"
        ],
        "city": "ROUND ROCK",
        "state": "TX",
        "postalCode": "78665-8000"
      },
      {
        "line": [
          "7900 FM 1826"
        ],
        "city": "AUSTINA",
        "state": "TX",
        "postalCode": "78737-1407"
      },
      {
        "line": [
          "112 RAILROAD ST"
        ],
        "city": "BUDA",
        "state": "TX",
        "postalCode": "78610-3358"
      },
      {
        "line": [
          "1500 Red River St."
        ],
        "city": "AUSTIN",
        "state": "TX",
        "postalCode": "78701-1918"
      }
    ],
    "extension": [
      {
        "url": "https://fhir.athena.io/StructureDefinition/ah-practice",
        "valueReference": {
          "reference": "Organization/a-1.Practice-7880"
        }
      },
      {
        "url": "https://fhir.athena.io/StructureDefinition/ah-brand",
        "valueReference": {
          "reference": "Organization/a-7880.Brand-1"
        }
      }
    ]
  },
  "fullUrl": "urn:uuid:755b7b43-0af3-542b-b823-6f756075bbc9"
}