{
  "resource": {
    "resourceType": "Organization",
    "id": "63750edc-a1e7-50a7-a6ae-5e19ca8373d8",
    "name": "ABBHH GROUP PRACTICE",
    "endpoint": [
      {
        "reference": "Endpoint/27a4e967-47aa-5a9c-a572-b8297ee268a2"
      },
      {
        "reference": "Endpoint/7d51d8d7-11a6-538d-b4cc-c5af808f65f5"
      }
    ],
    "identifier": [
      {
        "system": "http://hl7.org/fhir/sid/us-npi",
        "value": "1013017839"
      }
    ],
    "address": [
      {
        "line": [
          "701 WINTHROP AVE"
        ],
        "city": "GLENDALE HEIGHTS",
        "state": "IL",
        "postalCode": "60139-9972"
      },
      {
        "line": [
          "1301 LAKE ST"
        ],
        "city": "DES PLAINES",
        "state": "IL",
        "postalCode": "60018-1514"
      },
      {
        "line": [
          "400 N COUNTY FARM RD"
        ],
        "city": "WHEATON",
        "state": "IL",
        "postalCode": "60187-3908"
      },
      {
        "line": [
          "25 E SCHAUMBURG RD"
        ],
        "city": "SCHAUMBURG",
        "state": "IL",
        "postalCode": "60194-3550"
      },
      {
        "line": [
          "800 BIESTERFIELD RD"
        ],
        "city": "ELK GROVE VILLAGE",
        "state": "IL",
        "postalCode": "60007-3397"
      },
      {
        "line": [
          "120 ELA ST"
        ],
        "city": "BARRINGTON",
        "state": "IL",
        "postalCode": "60010-3255"
      },
      {
        "line": [
          "675 S ROSELLE RD"
        ],
        "city": "SCHAUMBURG",
        "state": "IL",
        "postalCode": "60193-3100"
      },
      {
        "line": [
          "920 N SEMINARY AVE"
        ],
        "city": "WOODSTOCK",
        "state": "IL",
        "postalCode": "60098-2996"
      },
      {
        "line": [
          "750 W ELK GROVE BLVD"
        ],
        "city": "ELK GROVE VILLAGE",
        "state": "IL",
        "postalCode": "60007-4269"
      },
      {
        "line": [
          "1650 MOON LAKE BLVD"
        ],
        "city": "HOFFMAN ESTATES",
        "state": "IL",
        "postalCode": "60169-1010"
      },
      {
        "line": [
          "2370 N NEWCASTLE"
        ],
        "city": "ELMWOOD PARK",
        "state": "IL",
        "postalCode": "60707-2955"
      },
      {
        "line": [
          "1101 BARTLETT RD"
        ],
        "city": "BARTLETT",
        "state": "IL",
        "postalCode": "60103-1594"
      },
      {
        "line": [
          "864 WEST STEARNS RD"
        ],
        "city": "BARTLETT",
        "state": "IL",
        "postalCode": "60103-4800"
      },
      {
        "line": [
          "25 E SCHAUMBURG RD"
        ],
        "city": "SCHAUMBURG",
        "state": "IL",
        "postalCode": "60195-3550"
      },
      {
        "line": [
          "165 S BLOOMINGDALE RD"
        ],
        "city": "BLOOMINGDALE",
        "state": "IL",
        "postalCode": "60108-1434"
      },
      {
        "line": [
          "850 DUNHAM RD"
        ],
        "city": "SAINT CHARLES",
        "state": "IL",
        "postalCode": "60174-1494"
      },
      {
        "line": [
          "6016 N NINA AVE"
        ],
        "city": "CHICAGO",
        "state": "IL",
        "postalCode": "60631-2439"
      },
      {
        "line": [
          "1555 BARRINGTON RD"
        ],
        "city": "HOFFMAN ESTATES",
        "state": "IL",
        "postalCode": "60169-1019"
      },
      {
        "line": [
          "350 W SCHAUMBURG RD"
        ],
        "city": "SCHAUMBURG",
        "state": "IL",
        "postalCode": "60194-3464"
      },
      {
        "line": [
          "829 CARILLON DR"
        ],
        "city": "BARTLETT",
        "state": "IL",
        "postalCode": "60103-5300"
      },
      {
        "line": [
          "4225 KIRCHOFF RD"
        ],
        "city": "ROLLING MEADOWS",
        "state": "IL",
        "postalCode": "60008-2005"
      },
      {
        "line": [
          "800 W OAKTON"
        ],
        "city": "ARLINGTON HEIGHTS",
        "state": "IL",
        "postalCode": "60004-4602"
      },
      {
        "line": [
          "1451 W BODE RD"
        ],
        "city": "SCHAUMBURG",
        "state": "IL",
        "postalCode": "60194-2760"
      },
      {
        "line": [
          "124 WINDSOR PARK DR"
        ],
        "city": "CAROL STREAM",
        "state": "IL",
        "postalCode": "60188-1986"
      },
      {
        "line": [
          "3919 W FOSTER AVE"
        ],
        "city": "CHICAGO",
        "state": "IL",
        "postalCode": "60625-6056"
      },
      {
        "line": [
          "2355 ROYAL BLVD"
        ],
        "city": "ELGIN",
        "state": "IL",
        "postalCode": "60123-4716"
      },
      {
        "line": [
          "50 S NORTHWEST HWY"
        ],
        "city": "PALATINE",
        "state": "IL",
        "postalCode": "60067-6231"
      },
      {
        "line": [
          "746 SPRING ST"
        ],
        "city": "SOUTH ELGIN",
        "state": "IL",
        "postalCode": "60177-1424"
      },
      {
        "line": [
          "2000 W LAKE ST"
        ],
        "city": "HANOVER PARK",
        "state": "IL",
        "postalCode": "60133-4302"
      },
      {
        "line": [
          "790 N PLUM GROVE RD"
        ],
        "city": "SCHAUMBURG",
        "state": "IL",
        "postalCode": "60173-4764"
      },
      {
        "line": [
          "28W141 LIBERTY ST"
        ],
        "city": "WINFIELD",
        "state": "IL",
        "postalCode": "60190-1955"
      },
      {
        "line": [
          "2515 W PALATINE RD"
        ],
        "city": "PALATINE",
        "state": "IL",
        "postalCode": "60067-4567"
      },
      {
        "line": [
          "95 CARLETON AVE"
        ],
        "city": "GLEN ELLYN",
        "state": "IL",
        "postalCode": "60137-5500"
      },
      {
        "line": [
          "2525 N ARLINGTON HEIGHTS RD"
        ],
        "city": "ARLINGTON HEIGHTS",
        "state": "IL",
        "postalCode": "60004-2530"
      },
      {
        "line": [
          "815 EAST IRVING PARK RD"
        ],
        "city": "STREAMWOOD",
        "state": "IL",
        "postalCode": "60107-3073"
      },
      {
        "line": [
          "1555 N BARRINGTON RD"
        ],
        "city": "HOFFMAN ESTATES",
        "state": "IL",
        "postalCode": "60169-1019"
      },
      {
        "line": [
          "1660 OAKTON PLACE"
        ],
        "city": "DES PLAINES",
        "state": "IL",
        "postalCode": "60018-2045"
      },
      {
        "line": [
          "7001 W CULLOM AVE"
        ],
        "city": "NORRIDGE",
        "state": "IL",
        "postalCode": "60706-7100"
      }
    ],
    "extension": [
      {
        "url": "https://fhir.athena.io/StructureDefinition/ah-practice",
        "valueReference": {
          "reference": "Organization/a-1.Practice-380"
        }
      },
      {
        "url": "https://fhir.athena.io/StructureDefinition/ah-brand",
        "valueReference": {
          "reference": "Organization/a-380.Brand-6"
        }
      }
    ]
  },
  "fullUrl": "urn:uuid:63750edc-a1e7-50a7-a6ae-5e19ca8373d8"
}