{
  "resource": {
    "resourceType": "Organization",
    "id": "83acef96-74e2-52e9-8543-25b498a6b442",
    "name": "MINUTECLINIC DIAGNOSTIC OF TEXAS",
    "endpoint": [
      {
        "reference": "Endpoint/27a4e967-47aa-5a9c-a572-b8297ee268a2"
      },
      {
        "reference": "Endpoint/29bfaa07-9950-51f2-81d0-5afec878ebc9"
      }
    ],
    "identifier": [
      {
        "system": "http://hl7.org/fhir/sid/us-npi",
        "value": "1609076330"
      }
    ],
    "address": [
      {
        "line": [
          "5315 BRIARWOOD AVE."
        ],
        "city": "MIDLAND",
        "state": "TX",
        "postalCode": "79707-2763"
      },
      {
        "line": [
          "3939 BELLAIRE BLVD"
        ],
        "city": "HOUSTON",
        "state": "TX",
        "postalCode": "77025-1119"
      },
      {
        "line": [
          "801 NORTH TARRANT PKWY"
        ],
        "city": "KELLER",
        "state": "TX",
        "postalCode": "76248-6860"
      },
      {
        "line": [
          "1514 N Alexander"
        ],
        "city": "BAYTOWN",
        "state": "TX",
        "postalCode": "77520-5322"
      },
      {
        "line": [
          "6915 WEST AVE"
        ],
        "city": "SAN ANTONIO",
        "state": "TX",
        "postalCode": "78213-1822"
      },
      {
        "line": [
          "7034 ALAMO DOWNS PKWY",
          "# 7054"
        ],
        "city": "SAN ANTONIO",
        "state": "TX",
        "postalCode": "78238-4509"
      },
      {
        "line": [
          "103 S.W. MILITARY DR."
        ],
        "city": "SAN ANTONIO",
        "state": "TX",
        "postalCode": "78221-1650"
      },
      {
        "line": [
          "301 ANDREWS HIGHWAY"
        ],
        "city": "MIDLAND",
        "state": "TX",
        "postalCode": "79701-6333"
      },
      {
        "line": [
          "26265 NORTHWEST FWY"
        ],
        "city": "CYPRESS",
        "state": "TX",
        "postalCode": "77429-1760"
      },
      {
        "line": [
          "3133 E LEMMON AVE"
        ],
        "city": "DALLAS",
        "state": "TX",
        "postalCode": "75204-1411"
      },
      {
        "line": [
          "100 S TRADE CENTER PKWY"
        ],
        "city": "CONROE",
        "state": "TX",
        "postalCode": "77385-8215"
      },
      {
        "line": [
          "290 Strickland Dr."
        ],
        "city": "ORANGE",
        "state": "TX",
        "postalCode": "77630-4750"
      },
      {
        "line": [
          "3500 W SLAUGHTER LN"
        ],
        "city": "AUSTIN",
        "state": "TX",
        "postalCode": "78749-4421"
      }
    ],
    "extension": [
      {
        "url": "https://fhir.athena.io/StructureDefinition/ah-practice",
        "valueReference": {
          "reference": "Organization/a-1.Practice-1653"
        }
      },
      {
        "url": "https://fhir.athena.io/StructureDefinition/ah-brand",
        "valueReference": {
          "reference": "Organization/a-1653.Brand-1"
        }
      }
    ]
  },
  "fullUrl": "urn:uuid:83acef96-74e2-52e9-8543-25b498a6b442"
}