{
  "resource": {
    "resourceType": "Organization",
    "id": "af22383c-293f-5a5e-8fd9-0132814cc589",
    "name": "YMCA of Central Kentucky",
    "endpoint": [
      {
        "reference": "Endpoint/27a4e967-47aa-5a9c-a572-b8297ee268a2"
      },
      {
        "reference": "Endpoint/abb5f7d5-468e-5806-be46-fb2282afef02"
      }
    ],
    "identifier": [
      {
        "system": "http://hl7.org/fhir/sid/us-npi",
        "value": "1184170045"
      }
    ],
    "address": [
      {
        "line": [
          "275 East Main Street"
        ],
        "city": "FRANKFORT",
        "state": "KY",
        "postalCode": "40601-2321"
      },
      {
        "line": [
          "2681 Old Rosebud Rd"
        ],
        "city": "LEXINGTON",
        "state": "KY",
        "postalCode": "40509-4478"
      },
      {
        "line": [
          "501 High St"
        ],
        "city": "FRANKFORT",
        "state": "KY",
        "postalCode": "40601-2103"
      },
      {
        "line": [
          "381 W Loudon Ave"
        ],
        "city": "LEXINGTON",
        "state": "KY",
        "postalCode": "40508-3730"
      },
      {
        "line": [
          "239 East High St"
        ],
        "city": "LEXINGTON",
        "state": "KY",
        "postalCode": "40507-1409"
      },
      {
        "line": [
          "3251 Beaumont Centre Circle"
        ],
        "city": "LEXINGTON",
        "state": "KY",
        "postalCode": "40513-1798"
      },
      {
        "line": [
          "100 Sower Blvd.",
          "Suite 204"
        ],
        "city": "FRANKFORT",
        "state": "KY",
        "postalCode": "40601-8272"
      },
      {
        "line": [
          "160 East Main St"
        ],
        "city": "GEORGETOWN",
        "state": "KY",
        "postalCode": "40324-0882"
      },
      {
        "line": [
          "501 High St."
        ],
        "city": "FRANKFORT",
        "state": "KY",
        "postalCode": "40601-2103"
      },
      {
        "line": [
          "77 C Michael Davenport Blvd"
        ],
        "city": "FRANKFORT",
        "state": "KY",
        "postalCode": "40601-4324"
      },
      {
        "line": [
          "300 Coffee Tree Rd"
        ],
        "city": "FRANKFORT",
        "state": "KY",
        "postalCode": "40601-9267"
      },
      {
        "line": [
          "220 E Maple St"
        ],
        "city": "NICHOLASVILLE",
        "state": "KY",
        "postalCode": "40356-1204"
      },
      {
        "line": [
          "239 E High St"
        ],
        "city": "LEXINGTON",
        "state": "KY",
        "postalCode": "40507-1409"
      }
    ],
    "extension": [
      {
        "url": "https://fhir.athena.io/StructureDefinition/ah-practice",
        "valueReference": {
          "reference": "Organization/a-1.Practice-14268"
        }
      },
      {
        "url": "https://fhir.athena.io/StructureDefinition/ah-brand",
        "valueReference": {
          "reference": "Organization/a-14268.Brand-1"
        }
      }
    ]
  },
  "fullUrl": "urn:uuid:af22383c-293f-5a5e-8fd9-0132814cc589"
}