{
  "resource": {
    "resourceType": "Organization",
    "id": "88468ee9-0d64-52b5-9e9c-bca496b159ac",
    "name": "Advanced Orthopaedics",
    "endpoint": [
      {
        "reference": "Endpoint/27a4e967-47aa-5a9c-a572-b8297ee268a2"
      },
      {
        "reference": "Endpoint/c99070dc-bdc3-5553-bcd4-2ab5e2fa2ad9"
      }
    ],
    "identifier": [
      {
        "system": "http://hl7.org/fhir/sid/us-npi",
        "value": "1679501746"
      },
      {
        "system": "http://hl7.org/fhir/sid/us-npi",
        "value": "1346244688"
      },
      {
        "system": "http://hl7.org/fhir/sid/us-npi",
        "value": "1205845369"
      },
      {
        "system": "http://hl7.org/fhir/sid/us-npi",
        "value": "1942860176"
      }
    ],
    "address": [
      {
        "line": [
          "215 KINGWOOD EXECUTIVE DR"
        ],
        "city": "KINGWOOD",
        "state": "TX",
        "postalCode": "77339-2758"
      },
      {
        "line": [
          "22999 Hwy 59 North"
        ],
        "city": "KINGWOOD",
        "state": "TX",
        "postalCode": "77339-2107"
      },
      {
        "line": [
          "18951 MEMORIAL NORTH"
        ],
        "city": "HUMBLE",
        "state": "TX",
        "postalCode": "77338-4217"
      },
      {
        "line": [
          "11520 Northpointe Blvd"
        ],
        "city": "TOMBALL",
        "state": "TX",
        "postalCode": "77377-8214"
      },
      {
        "line": [
          "10425 HUFFMEISTER RD, STE 100"
        ],
        "city": "HOUSTON",
        "state": "TX",
        "postalCode": "77065-3429"
      },
      {
        "line": [
          "300 KINGWOOD MEDICAL DRIVE"
        ],
        "city": "KINGWOOD",
        "state": "TX",
        "postalCode": "77339-6400"
      },
      {
        "line": [
          "3301 SPRING STUEBNER RD",
          "STE 100"
        ],
        "city": "SPRING",
        "state": "TX",
        "postalCode": "77389-5195"
      },
      {
        "line": [
          "24500 NORTHWEST FWY"
        ],
        "city": "CYPRESS",
        "state": "TX",
        "postalCode": "77429-2199"
      },
      {
        "line": [
          "1441 Woodstead Crt Ste 100"
        ],
        "city": "The Woodlands",
        "state": "TX",
        "postalCode": "77380-1410"
      },
      {
        "line": [
          "11800 FM 1960 RD W"
        ],
        "city": "HOUSTON",
        "state": "TX",
        "postalCode": "77065-3840"
      },
      {
        "line": [
          "27800 Northwest Frwy"
        ],
        "city": "CYPRESS",
        "state": "TX",
        "postalCode": "77433-5302"
      },
      {
        "line": [
          "601 ROCKMEAD DR STE 100"
        ],
        "city": "KINGWOOD",
        "state": "TX",
        "postalCode": "77339-2107"
      },
      {
        "line": [
          "10425 HUFFMEISTER RD STE 320"
        ],
        "city": "HOUSTON",
        "state": "TX",
        "postalCode": "77065-3429"
      },
      {
        "line": [
          "7401 MAIN ST"
        ],
        "city": "HOUSTON",
        "state": "TX",
        "postalCode": "77030-4509"
      }
    ],
    "extension": [
      {
        "url": "https://fhir.athena.io/StructureDefinition/ah-practice",
        "valueReference": {
          "reference": "Organization/a-1.Practice-15533"
        }
      },
      {
        "url": "https://fhir.athena.io/StructureDefinition/ah-brand",
        "valueReference": {
          "reference": "Organization/a-15533.Brand-7"
        }
      }
    ]
  },
  "fullUrl": "urn:uuid:88468ee9-0d64-52b5-9e9c-bca496b159ac"
}