{
  "resource": {
    "resourceType": "Organization",
    "id": "9ff3b61f-46df-55a0-bd5d-0ea450bf821d",
    "name": "Bangor Health Care Center",
    "endpoint": [
      {
        "reference": "Endpoint/27a4e967-47aa-5a9c-a572-b8297ee268a2"
      },
      {
        "reference": "Endpoint/c8e8e45c-481f-5b45-80d0-4454a37d48bc"
      }
    ],
    "identifier": [
      {
        "system": "http://hl7.org/fhir/sid/us-npi",
        "value": "1366474611"
      }
    ],
    "address": [
      {
        "line": [
          "777 Stevens Ave"
        ],
        "city": "PORTLAND",
        "state": "ME",
        "postalCode": "04103-2675"
      },
      {
        "line": [
          "166 Whiskeag Road"
        ],
        "city": "BATH",
        "state": "ME",
        "postalCode": "04530-4135"
      },
      {
        "line": [
          "335 BRIGHTON AVE",
          "Unit 201"
        ],
        "city": "PORTLAND",
        "state": "ME",
        "postalCode": "04102-2374"
      },
      {
        "line": [
          "78 Scott Dyer Rd"
        ],
        "city": "CAPE ELIZABETH",
        "state": "ME",
        "postalCode": "04107-2200"
      },
      {
        "line": [
          "7 Mill Commons Drive"
        ],
        "city": "SCARBOROUGH",
        "state": "ME",
        "postalCode": "04074-8392"
      },
      {
        "line": [
          "6 East Chestnut Street"
        ],
        "city": "AUGUSTA",
        "state": "ME",
        "postalCode": "04330-5797"
      },
      {
        "line": [
          "1145 Brighton Avenue"
        ],
        "city": "PORTLAND",
        "state": "ME",
        "postalCode": "04102-1025"
      },
      {
        "line": [
          "144 State Street"
        ],
        "city": "PORTLAND",
        "state": "ME",
        "postalCode": "04102-1041"
      },
      {
        "line": [
          "1 Penny Lane"
        ],
        "city": "KENNEBUNKPORT",
        "state": "ME",
        "postalCode": "04046-0001"
      },
      {
        "line": [
          "123 Medical Center Drive"
        ],
        "city": "BRUNSWICK",
        "state": "ME",
        "postalCode": "04011-3295"
      },
      {
        "line": [
          "320 Spring Street"
        ],
        "city": "WESTBROOK",
        "state": "ME",
        "postalCode": "04092-3915"
      },
      {
        "line": [
          "489 State Street"
        ],
        "city": "BANGOR",
        "state": "ME",
        "postalCode": "04401-6616"
      },
      {
        "line": [
          "30 Governor's Way"
        ],
        "city": "TOPSHAM",
        "state": "ME",
        "postalCode": "04086-1633"
      },
      {
        "line": [
          "630 Ocean Ave"
        ],
        "city": "PORTLAND",
        "state": "ME",
        "postalCode": "04103-2704"
      },
      {
        "line": [
          "50 New Portland Road"
        ],
        "city": "GORHAM",
        "state": "ME",
        "postalCode": "04038-1339"
      },
      {
        "line": [
          "145 E Badger Rd"
        ],
        "city": "MADISON",
        "state": "WI",
        "postalCode": "53713-1300"
      },
      {
        "line": [
          " 74 Running Hill Rd"
        ],
        "city": "SOUTH PORTLAND",
        "state": "ME",
        "postalCode": "04106-3451"
      },
      {
        "line": [
          "335 Brighton Avenue"
        ],
        "city": "PORTLAND",
        "state": "ME",
        "postalCode": "04102-0600"
      },
      {
        "line": [
          "290 US Route 1"
        ],
        "city": "SCARBOROUGH",
        "state": "ME",
        "postalCode": "04074-9315"
      },
      {
        "line": [
          "51 Ocean St"
        ],
        "city": "SOUTH PORTLAND",
        "state": "ME",
        "postalCode": "04106-2828"
      },
      {
        "line": [
          "777 STEVENS AVE"
        ],
        "city": "PORTLAND",
        "state": "ME",
        "postalCode": "04103-2675"
      },
      {
        "line": [],
        "city": "PORTLAND",
        "state": "ME",
        "postalCode": "04103-2675"
      },
      {
        "line": [
          "300 MAIN ST"
        ],
        "city": "LEWISTON",
        "state": "ME",
        "postalCode": "04240-7027"
      },
      {
        "line": [
          "54 Baribeau Drive"
        ],
        "city": "BRUNSWICK",
        "state": "ME",
        "postalCode": "04011-3218"
      },
      {
        "line": [
          "600 Commerce Dr"
        ],
        "city": "SCARBOROUGH",
        "state": "ME",
        "postalCode": "04074-7305"
      },
      {
        "line": [
          "333 Borthwick Avenue"
        ],
        "city": "PORTSMOUTH",
        "state": "NH",
        "postalCode": "03801-4523"
      },
      {
        "line": [
          "29 Elm Street"
        ],
        "city": "TOPSHAM",
        "state": "ME",
        "postalCode": "04086-1423"
      },
      {
        "line": [
          "27 Northport Dr"
        ],
        "city": "PORTLAND",
        "state": "ME",
        "postalCode": "04103-3637"
      },
      {
        "line": [
          "24 Maurice Drive"
        ],
        "city": "BRUNSWICK",
        "state": "ME",
        "postalCode": "04011-3295"
      },
      {
        "line": [
          "2 Dartmouth St"
        ],
        "city": "BIDDEFORD",
        "state": "ME",
        "postalCode": "04005-2958"
      },
      {
        "line": [
          "6 Farley Rd"
        ],
        "city": "BRUNSWICK",
        "state": "ME",
        "postalCode": "04011-2642"
      },
      {
        "line": [
          "392 Main St"
        ],
        "city": "SACO",
        "state": "ME",
        "postalCode": "04072-1521"
      },
      {
        "line": [
          "Corner of Orion&Admiral Finch"
        ],
        "city": "BRUNSWICK",
        "state": "ME",
        "postalCode": "04011-2797"
      },
      {
        "line": [
          "153 US Route 1"
        ],
        "city": "SCARBOROUGH",
        "state": "ME",
        "postalCode": "04074-9052"
      },
      {
        "line": [
          "331 Veranda St"
        ],
        "city": "PORTLAND",
        "state": "ME",
        "postalCode": "04103-5544"
      },
      {
        "line": [
          "42 Anthoine Street"
        ],
        "city": "SOUTH PORTLAND",
        "state": "ME",
        "postalCode": "04106-4499"
      },
      {
        "line": [
          "1 Medical Center Drive"
        ],
        "city": "BIDDEFORD",
        "state": "ME",
        "postalCode": "04005-9422"
      },
      {
        "line": [
          "148 Gorham Rd"
        ],
        "city": "SCARBOROUGH",
        "state": "ME",
        "postalCode": "04074-9503"
      },
      {
        "line": [
          "75 State St"
        ],
        "city": "PORTLAND",
        "state": "ME",
        "postalCode": "04101-0002"
      },
      {
        "line": [
          "6 Old County Rd"
        ],
        "city": "FREEPORT",
        "state": "ME",
        "postalCode": "04032-6231"
      },
      {
        "line": [
          "1 Harbor Drive"
        ],
        "city": "SACO",
        "state": "ME",
        "postalCode": "04072-2148"
      },
      {
        "line": [],
        "city": "BANGOR",
        "state": "ME",
        "postalCode": "04401-6616"
      },
      {
        "line": [
          "68 Devonshire Street"
        ],
        "city": "PORTLAND",
        "state": "ME",
        "postalCode": "04103-4431"
      },
      {
        "line": [
          "161 Corporate Dr"
        ],
        "city": "PORTSMOUTH",
        "state": "NH",
        "postalCode": "03801-6825"
      },
      {
        "line": [
          "7 GORHAM AVE"
        ],
        "city": "LONG ISLAND",
        "state": "ME",
        "postalCode": "04050-3428"
      },
      {
        "line": [
          "84 Campus Drive"
        ],
        "city": "SCARBOROUGH",
        "state": "ME",
        "postalCode": "04074-9315"
      },
      {
        "line": [
          "56 Elm Street"
        ],
        "city": "BRUNSWICK",
        "state": "ME",
        "postalCode": "04011-3295"
      },
      {
        "line": [
          "89 Admiral Fitch Avenue"
        ],
        "city": "BRUNSWICK",
        "state": "ME",
        "postalCode": "04011-2700"
      },
      {
        "line": [
          "575 Main St"
        ],
        "city": "GORHAM",
        "state": "ME",
        "postalCode": "04038-1339"
      },
      {
        "line": [
          "407 Pool Road"
        ],
        "city": "BIDDEFORD",
        "state": "ME",
        "postalCode": "04005-9422"
      },
      {
        "line": [
          "3 East Street"
        ],
        "city": "FREEPORT",
        "state": "ME",
        "postalCode": "04033-0001"
      },
      {
        "line": [
          "301 US RT 1"
        ],
        "city": "CUMBERLAND FORESIDE",
        "state": "ME",
        "postalCode": "04110-1356"
      },
      {
        "line": [
          "700 Mt Hope Ave",
          "Suite 650"
        ],
        "city": "BANGOR",
        "state": "ME",
        "postalCode": "04401-5657"
      },
      {
        "line": [
          "74 Gray Rd"
        ],
        "city": "FALMOUTH",
        "state": "ME",
        "postalCode": "04105-2062"
      },
      {
        "line": [
          "68 Graham St"
        ],
        "city": "BIDDEFORD",
        "state": "ME",
        "postalCode": "04005-3243"
      },
      {
        "line": [
          "1 Huntington Common Dr"
        ],
        "city": "KENNEBUNK",
        "state": "ME",
        "postalCode": "04043-6558"
      },
      {
        "line": [
          "370 Portland Street"
        ],
        "city": "YARMOUTH",
        "state": "ME",
        "postalCode": "04096-8101"
      },
      {
        "line": [
          "10 May Street"
        ],
        "city": "BIDDEFORD",
        "state": "ME",
        "postalCode": "04005-9422"
      }
    ],
    "extension": [
      {
        "url": "https://fhir.athena.io/StructureDefinition/ah-practice",
        "valueReference": {
          "reference": "Organization/a-1.Practice-5857"
        }
      },
      {
        "url": "https://fhir.athena.io/StructureDefinition/ah-brand",
        "valueReference": {
          "reference": "Organization/a-5857.Brand-1"
        }
      }
    ]
  },
  "fullUrl": "urn:uuid:9ff3b61f-46df-55a0-bd5d-0ea450bf821d"
}