{
  "resource": {
    "resourceType": "Organization",
    "id": "83b2fc12-be5e-5bd0-9663-e543c2f8fb93",
    "name": "united physicians, inc",
    "endpoint": [
      {
        "reference": "Endpoint/27a4e967-47aa-5a9c-a572-b8297ee268a2"
      },
      {
        "reference": "Endpoint/fc212b46-49c9-5fb4-857f-f90bf751bda6"
      }
    ],
    "identifier": [
      {
        "system": "http://hl7.org/fhir/sid/us-npi",
        "value": "1285022152"
      }
    ],
    "address": [
      {
        "line": [
          "241 N Main St"
        ],
        "city": "ROMEO",
        "state": "MI",
        "postalCode": "48065-1111"
      },
      {
        "line": [
          "27483 Dequindre"
        ],
        "city": "MADISON HEIGHTS",
        "state": "MI",
        "postalCode": "48071-5715"
      },
      {
        "line": [
          "1055 South Blvd"
        ],
        "city": "ROCHESTER",
        "state": "MI",
        "postalCode": "48307-5465"
      },
      {
        "line": [
          "2055 E 14 Mile Rd"
        ],
        "city": "BIRMINGHAM",
        "state": "MI",
        "postalCode": "48009-7280"
      },
      {
        "line": [
          "75 Barclay Circle"
        ],
        "city": "ROCHESTER",
        "state": "MI",
        "postalCode": "48307-1111"
      },
      {
        "line": [
          "43393 Schoenherr Rd"
        ],
        "city": "STERLING HEIGHTS",
        "state": "MI",
        "postalCode": "48313-1959"
      },
      {
        "line": [
          "31500 Telegraph Rd"
        ],
        "city": "FRANKLIN",
        "state": "MI",
        "postalCode": "48025-4367"
      },
      {
        "line": [
          "16800 W 12 Mile Rd"
        ],
        "city": "SOUTHFIELD",
        "state": "MI",
        "postalCode": "48076-2108"
      },
      {
        "line": [
          "6014 W Maple Rd"
        ],
        "city": "WEST BLOOMFIELD",
        "state": "MI",
        "postalCode": "48322-2212"
      },
      {
        "line": [
          "25599 Kelly Rd"
        ],
        "city": "ROSEVILLE",
        "state": "MI",
        "postalCode": "48066-4975"
      },
      {
        "line": [
          "1380 Coolidge Hwy"
        ],
        "city": "TROY",
        "state": "MI",
        "postalCode": "48085-7069"
      },
      {
        "line": [
          "18285 E 10 Mile Rd"
        ],
        "city": "ROSEVILLE",
        "state": "MI",
        "postalCode": "48066-1111"
      },
      {
        "line": [
          "30795 23 Mile Rd"
        ],
        "city": "NEW BALTIMORE",
        "state": "MI",
        "postalCode": "48047-5721"
      },
      {
        "line": [
          "43184 Dequindre Rd"
        ],
        "city": "STERLING HEIGHTS",
        "state": "MI",
        "postalCode": "48314-1709"
      },
      {
        "line": [
          "14325 Middlebelt Rd"
        ],
        "city": "LIVONIA",
        "state": "MI",
        "postalCode": "48154-1111"
      },
      {
        "line": [
          "15500 19 Mile Rd"
        ],
        "city": "CLINTON TOWNSHIP",
        "state": "MI",
        "postalCode": "48038-6330"
      },
      {
        "line": [
          "595 Barclay Circle",
          "Suite D"
        ],
        "city": "ROCHESTER",
        "state": "MI",
        "postalCode": "48307-5802"
      },
      {
        "line": [
          "2041 E Square Lake Rd",
          "ste 300"
        ],
        "city": "TROY",
        "state": "MI",
        "postalCode": "48085-3897"
      },
      {
        "line": [
          "1777 Axtell Rd"
        ],
        "city": "TROY",
        "state": "MI",
        "postalCode": "48084-4404"
      },
      {
        "line": [
          "1600 Investment Dr",
          "ste 300"
        ],
        "city": "TROY",
        "state": "MI",
        "postalCode": "48098-6368"
      },
      {
        "line": [
          "1800 W Big Beaver Rd"
        ],
        "city": "TROY",
        "state": "MI",
        "postalCode": "48084-1111"
      },
      {
        "line": [
          "595 Barclay Circle"
        ],
        "city": "ROCHESTER",
        "state": "MI",
        "postalCode": "48307-5802"
      },
      {
        "line": [
          "1455 S Lapeer Rd"
        ],
        "city": "LAKE ORION",
        "state": "MI",
        "postalCode": "48360-1111"
      },
      {
        "line": [
          "30301 Woodward Ave"
        ],
        "city": "ROYAL OAK",
        "state": "MI",
        "postalCode": "48073-0981"
      },
      {
        "line": [
          "42855 Garfield Rd",
          "#105"
        ],
        "city": "CLINTON TOWNSHIP",
        "state": "MI",
        "postalCode": "48038-1111"
      },
      {
        "line": [
          "43097 Woodward",
          "ste 201"
        ],
        "city": "BLOOMFIELD HILLS",
        "state": "MI",
        "postalCode": "48302-5041"
      },
      {
        "line": [
          "21647 Ryan Rd"
        ],
        "city": "WARREN",
        "state": "MI",
        "postalCode": "48091-2795"
      },
      {
        "line": [
          "16800 W 12 Mile Rd"
        ],
        "city": "SOUTHFIELD",
        "state": "MI",
        "postalCode": "48076-6334"
      },
      {
        "line": [
          "11600 15 Mile Rd"
        ],
        "city": "STERLING HEIGHTS",
        "state": "MI",
        "postalCode": "48312-5100"
      },
      {
        "line": [
          "2888 E Long Lake Rd ste 100"
        ],
        "city": "TROY",
        "state": "MI",
        "postalCode": "48085-3793"
      },
      {
        "line": [
          "1135 W University Dr"
        ],
        "city": "ROCHESTER",
        "state": "MI",
        "postalCode": "48307-1871"
      },
      {
        "line": [
          "44344 Dequindre Rd"
        ],
        "city": "STERLING HEIGHTS",
        "state": "MI",
        "postalCode": "48314-1709"
      },
      {
        "line": [
          "52915 Mound Rd"
        ],
        "city": "UTICA",
        "state": "MI",
        "postalCode": "48316-3266"
      },
      {
        "line": [
          "33200 W 14 Mile Rd",
          "Ste 130"
        ],
        "city": "WEST BLOOMFIELD",
        "state": "MI",
        "postalCode": "48322-1111"
      },
      {
        "line": [
          "26505 John R"
        ],
        "city": "MADISON HEIGHTS",
        "state": "MI",
        "postalCode": "48071-3611"
      },
      {
        "line": [
          "19011 E 10 Mile Rd"
        ],
        "city": "ROSEVILLE",
        "state": "MI",
        "postalCode": "48066-3901"
      },
      {
        "line": [
          "15125 22 Mile Rd"
        ],
        "city": "UTICA",
        "state": "MI",
        "postalCode": "48315-4406"
      },
      {
        "line": [
          "1500 Walton Blvd"
        ],
        "city": "ROCHESTER",
        "state": "MI",
        "postalCode": "48309-1858"
      },
      {
        "line": [
          "1500 Walton Blvd"
        ],
        "city": "ROCHESTER",
        "state": "MI",
        "postalCode": "48309-1111"
      },
      {
        "line": [
          "3095 E Walton Blvd"
        ],
        "city": "AUBURN HILLS",
        "state": "MI",
        "postalCode": "48326-2370"
      },
      {
        "line": [
          "2940 Crooks Rd"
        ],
        "city": "ROCHESTER",
        "state": "MI",
        "postalCode": "48309-3609"
      },
      {
        "line": [
          "29200 Northwestern Hwy Suite 325"
        ],
        "city": "SOUTHFIELD",
        "state": "MI",
        "postalCode": "48034-1027"
      },
      {
        "line": [
          "42627 Garfield Road, Suite 218"
        ],
        "city": "CLINTON TOWNSHIP",
        "state": "MI",
        "postalCode": "48038-5032"
      },
      {
        "line": [
          "75 Barclay Circle",
          "Ste 105"
        ],
        "city": "ROCHESTER",
        "state": "MI",
        "postalCode": "48307-1111"
      },
      {
        "line": [
          "314 N Main St"
        ],
        "city": "CLAWSON",
        "state": "MI",
        "postalCode": "48017-1111"
      },
      {
        "line": [
          "1701 E South Blvd"
        ],
        "city": "ROCHESTER",
        "state": "MI",
        "postalCode": "48307-6122"
      },
      {
        "line": [
          "1579 W Big Beaver Rd"
        ],
        "city": "TROY",
        "state": "MI",
        "postalCode": "48084-3504"
      },
      {
        "line": [
          "6900 Orchard Lake Rd"
        ],
        "city": "WEST BLOOMFIELD",
        "state": "MI",
        "postalCode": "48322-3425"
      }
    ],
    "extension": [
      {
        "url": "https://fhir.athena.io/StructureDefinition/ah-practice",
        "valueReference": {
          "reference": "Organization/a-1.Practice-10474"
        }
      },
      {
        "url": "https://fhir.athena.io/StructureDefinition/ah-brand",
        "valueReference": {
          "reference": "Organization/a-10474.Brand-1"
        }
      }
    ]
  },
  "fullUrl": "urn:uuid:83b2fc12-be5e-5bd0-9663-e543c2f8fb93"
}