{
  "resource": {
    "resourceType": "Organization",
    "id": "a251e22f-7316-5e02-b30b-90f7cedbf319",
    "name": "Dr. Michael Winnie",
    "endpoint": [
      {
        "reference": "Endpoint/27a4e967-47aa-5a9c-a572-b8297ee268a2"
      },
      {
        "reference": "Endpoint/2b33588a-96d2-5068-b7ff-a624ae733d0f"
      }
    ],
    "identifier": [
      {
        "system": "http://hl7.org/fhir/sid/us-npi",
        "value": "1649457276"
      }
    ],
    "address": [
      {
        "line": [
          "5857 TIMBERGATE DR"
        ],
        "city": "CORPUS CHRISTI",
        "state": "TX",
        "postalCode": "78414-4237"
      },
      {
        "line": [
          "3010 AIRLINE RD"
        ],
        "city": "CORPUS CHRISTI",
        "state": "TX",
        "postalCode": "78414-3032"
      },
      {
        "line": [
          "7352 Wooldridge Rd"
        ],
        "city": "CORPUS CHRISTI",
        "state": "TX",
        "postalCode": "78414-2807"
      },
      {
        "line": [
          "3050 Sunnybrook Rd"
        ],
        "city": "CORPUS CHRISTI",
        "state": "TX",
        "postalCode": "78415-1748"
      },
      {
        "line": [
          "4300 S PADRE ISLAND DR # 1"
        ],
        "city": "CORPUS CHRISTI",
        "state": "TX",
        "postalCode": "78411-4433"
      },
      {
        "line": [
          "5441 LIPES BLVD"
        ],
        "city": "CORPUS CHRISTI",
        "state": "TX",
        "postalCode": "78413-2214"
      },
      {
        "line": [
          "5607 Everhart Rd"
        ],
        "city": "CORPUS CHRISTI",
        "state": "TX",
        "postalCode": "78411-4237"
      },
      {
        "line": [
          "3801 Cimarron Blvd"
        ],
        "city": "CORPUS CHRISTI",
        "state": "TX",
        "postalCode": "78414-4237"
      }
    ],
    "extension": [
      {
        "url": "https://fhir.athena.io/StructureDefinition/ah-practice",
        "valueReference": {
          "reference": "Organization/a-1.Practice-13655"
        }
      },
      {
        "url": "https://fhir.athena.io/StructureDefinition/ah-brand",
        "valueReference": {
          "reference": "Organization/a-13655.Brand-1"
        }
      }
    ]
  },
  "fullUrl": "urn:uuid:a251e22f-7316-5e02-b30b-90f7cedbf319"
}