{
  "resource": {
    "resourceType": "Organization",
    "id": "16fdc110-4fed-5bcf-b555-10c84b39cb92",
    "name": "ADVANCED AMBULATORY SURGERY CENTER",
    "endpoint": [
      {
        "reference": "Endpoint/27a4e967-47aa-5a9c-a572-b8297ee268a2"
      },
      {
        "reference": "Endpoint/b9a32e48-235b-565f-9f6b-ecd0f3d8354f"
      }
    ],
    "identifier": [
      {
        "system": "http://hl7.org/fhir/sid/us-npi",
        "value": "1952769903"
      }
    ],
    "address": [
      {
        "line": [
          "4870 BELFORT RD"
        ],
        "city": "JACKSONVILLE",
        "state": "FL",
        "postalCode": "32256-6004"
      },
      {
        "line": [
          "3050 BROWN AVE"
        ],
        "city": "MOUNT DORA",
        "state": "FL",
        "postalCode": "32757-3453"
      },
      {
        "line": [
          "9600 LAWRENCE RD"
        ],
        "city": "BOYNTON BEACH",
        "state": "FL",
        "postalCode": "33436-3300"
      },
      {
        "line": [
          "5300 W 16TH AVE"
        ],
        "city": "HIALEAH",
        "state": "FL",
        "postalCode": "33012-2104"
      },
      {
        "line": [
          "7800 SHERIDAN ST"
        ],
        "city": "HOLLYWOOD",
        "state": "FL",
        "postalCode": "33024-2536"
      },
      {
        "line": [
          "652 PALM SPRINGS DRIVE"
        ],
        "city": "ALTAMONTE SPRINGS",
        "state": "FL",
        "postalCode": "32701-7838"
      },
      {
        "line": [
          "170 NORTH OLD KINGS RD"
        ],
        "city": "ORMOND BEACH",
        "state": "FL",
        "postalCode": "32174-5118"
      },
      {
        "line": [
          "3663 S MIAMI AVENUE"
        ],
        "city": "MIAMI",
        "state": "FL",
        "postalCode": "33133-4253"
      },
      {
        "line": [
          "2021 SW 1ST AVE"
        ],
        "city": "OCALA",
        "state": "FL",
        "postalCode": "34471-8161"
      },
      {
        "line": [
          "2501 N A ST"
        ],
        "city": "LAKE WORTH",
        "state": "FL",
        "postalCode": "33460-6013"
      },
      {
        "line": [
          "300 EXECUTIVE CENTER DR"
        ],
        "city": "WEST PALM BEACH",
        "state": "FL",
        "postalCode": "33401-4842"
      },
      {
        "line": [
          "600 N 17TH AVE"
        ],
        "city": "HOLLYWOOD",
        "state": "FL",
        "postalCode": "33020-4606"
      },
      {
        "line": [
          "15005 - 15060 SW 97TH AVE"
        ],
        "city": "MIAMI",
        "state": "FL",
        "postalCode": "33176-7817"
      },
      {
        "line": [
          "1130 NW 15TH ST"
        ],
        "city": "BOCA RATON",
        "state": "FL",
        "postalCode": "33486-1333"
      },
      {
        "line": [
          "2645 SW 37TH AVE STE 400"
        ],
        "city": "MIAMI",
        "state": "FL",
        "postalCode": "33133-2744"
      },
      {
        "line": [
          "2839 S SEACREST BLVD"
        ],
        "city": "BOYNTON BEACH",
        "state": "FL",
        "postalCode": "33435-7934"
      },
      {
        "line": [
          "3100 DOUGLAS ROAD"
        ],
        "city": "CORAL GABLES",
        "state": "FL",
        "postalCode": "33134-6914"
      },
      {
        "line": [
          "1301 KANSAS AVE"
        ],
        "city": "SAINT CLOUD",
        "state": "FL",
        "postalCode": "34769-5921"
      },
      {
        "line": [
          "304 S CITRUS AVE"
        ],
        "city": "INVERNESS",
        "state": "FL",
        "postalCode": "34452-4706"
      },
      {
        "line": [
          "1710 LAKE WORTH RD"
        ],
        "city": "LAKE WORTH",
        "state": "FL",
        "postalCode": "33460-3627"
      },
      {
        "line": [
          "6110 SW 70TH STREET"
        ],
        "city": "MIAMI",
        "state": "FL",
        "postalCode": "33143-3419"
      },
      {
        "line": [
          "1504 SEABREEZE AVE"
        ],
        "city": "JACKSONVILLE BEACH",
        "state": "FL",
        "postalCode": "32250-3365"
      },
      {
        "line": [
          "1420 OAK ST"
        ],
        "city": "MELBOURNE",
        "state": "FL",
        "postalCode": "32901-3113"
      },
      {
        "line": [
          "2000 EDGEWOOD AVE"
        ],
        "city": "LEESBURG",
        "state": "FL",
        "postalCode": "34748-5516"
      }
    ],
    "extension": [
      {
        "url": "https://fhir.athena.io/StructureDefinition/ah-practice",
        "valueReference": {
          "reference": "Organization/a-1.Practice-19066"
        }
      },
      {
        "url": "https://fhir.athena.io/StructureDefinition/ah-brand",
        "valueReference": {
          "reference": "Organization/a-19066.Brand-1"
        }
      }
    ]
  },
  "fullUrl": "urn:uuid:16fdc110-4fed-5bcf-b555-10c84b39cb92"
}