{
  "resource": {
    "resourceType": "Organization",
    "id": "477be3a5-5e9f-5e66-9be7-469a470dcf2b",
    "name": "Mountain Valley Orthopedics",
    "endpoint": [
      {
        "reference": "Endpoint/27a4e967-47aa-5a9c-a572-b8297ee268a2"
      },
      {
        "reference": "Endpoint/9c364373-9c24-511d-a66d-a22ce9d2a690"
      }
    ],
    "identifier": [
      {
        "system": "http://hl7.org/fhir/sid/us-npi",
        "value": "1538226519"
      }
    ],
    "address": [
      {
        "line": [
          "150 MUNDY ST"
        ],
        "city": "WILKES BARRE",
        "state": "PA",
        "postalCode": "18702-6804"
      },
      {
        "line": [
          "600 Plaza Ct C"
        ],
        "city": "EAST STROUDSBURG",
        "state": "PA",
        "postalCode": "18301-8263"
      },
      {
        "line": [
          "600 Plaza Court"
        ],
        "city": "EAST STROUDSBURG",
        "state": "PA",
        "postalCode": "18301-8263"
      },
      {
        "line": [
          "100 Wheatfield Drive"
        ],
        "city": "MILFORD",
        "state": "PA",
        "postalCode": "18337-7699"
      },
      {
        "line": [
          "600 PLAZA CT"
        ],
        "city": "EAST STROUDSBURG",
        "state": "PA",
        "postalCode": "18301-0408"
      },
      {
        "line": [
          "1830 US-209"
        ],
        "city": "BRODHEADSVILLE",
        "state": "PA",
        "postalCode": "18322-7797"
      },
      {
        "line": [
          "600 Plaza Ct"
        ],
        "city": "EAST STROUDSBURG",
        "state": "PA",
        "postalCode": "18301-8263"
      },
      {
        "line": [
          "5325 NORTHGATE DR"
        ],
        "city": "BETHLEHEM",
        "state": "PA",
        "postalCode": "18017-9411"
      },
      {
        "line": [
          "600 PLAZA CT"
        ],
        "city": "EAST STROUDSBURG",
        "state": "PA",
        "postalCode": "18301-8263"
      },
      {
        "line": [
          "600 PLAZA CT STE C"
        ],
        "city": "EAST STROUDSBURG",
        "state": "PA",
        "postalCode": "18301-8263"
      }
    ],
    "extension": [
      {
        "url": "https://fhir.athena.io/StructureDefinition/ah-practice",
        "valueReference": {
          "reference": "Organization/a-1.Practice-9299"
        }
      },
      {
        "url": "https://fhir.athena.io/StructureDefinition/ah-brand",
        "valueReference": {
          "reference": "Organization/a-9299.Brand-1"
        }
      }
    ]
  },
  "fullUrl": "urn:uuid:477be3a5-5e9f-5e66-9be7-469a470dcf2b"
}