{
  "resource": {
    "resourceType": "Organization",
    "id": "a45381a3-2547-5fd1-af2f-92f1b3cac657",
    "name": "Vascular Endovascular Surgery of Texas, PLLC",
    "endpoint": [
      {
        "reference": "Endpoint/27a4e967-47aa-5a9c-a572-b8297ee268a2"
      },
      {
        "reference": "Endpoint/8afe688d-28c5-5d13-a874-1fa11d7cf83f"
      }
    ],
    "identifier": [
      {
        "system": "http://hl7.org/fhir/sid/us-npi",
        "value": "1346757051"
      }
    ],
    "address": [
      {
        "line": [
          "8026 FLOYD CURL DR"
        ],
        "city": "SAN ANTONIO",
        "state": "TX",
        "postalCode": "78229-3915"
      },
      {
        "line": [
          "11212 STATE HWY 151"
        ],
        "city": "SAN ANTONIO",
        "state": "TX",
        "postalCode": "78251-4498"
      },
      {
        "line": [
          "555 CREEKSIDE CROSSING"
        ],
        "city": "NEW BRAUNFELS",
        "state": "TX",
        "postalCode": "78130-2594"
      },
      {
        "line": [
          "6700 IH 10 WEST"
        ],
        "city": "SAN ANTONIO",
        "state": "TX",
        "postalCode": "78201-2009"
      },
      {
        "line": [
          "12412 JUDSON ROAD"
        ],
        "city": "SAN ANTONIO",
        "state": "TX",
        "postalCode": "78233-3270"
      },
      {
        "line": [
          "2827 BABCOCK"
        ],
        "city": "SAN ANTONIO",
        "state": "TX",
        "postalCode": "78229-4813"
      },
      {
        "line": [
          "109 Falls Ct. Ste 300"
        ],
        "city": "BOERNE",
        "state": "TX",
        "postalCode": "78006-2980"
      },
      {
        "line": [
          "7400 BARLITE BLVD"
        ],
        "city": "SAN ANTONIO",
        "state": "TX",
        "postalCode": "78224-1380"
      },
      {
        "line": [
          "7700 Floyd Curl Drive"
        ],
        "city": "SAN ANTONIO",
        "state": "TX",
        "postalCode": "78229-3902"
      },
      {
        "line": [
          "6800 IH-10 West Ste 200"
        ],
        "city": "SAN ANTONIO",
        "state": "TX",
        "postalCode": "78201-2041"
      },
      {
        "line": [
          "5101 MEDICAL DR"
        ],
        "city": "SAN ANTONIO",
        "state": "TX",
        "postalCode": "78229-4801"
      },
      {
        "line": [
          "7500 BARLITE SUITE 305"
        ],
        "city": "SAN ANTONIO",
        "state": "TX",
        "postalCode": "78224-1363"
      },
      {
        "line": [
          "600 N UNION AVE"
        ],
        "city": "NEW BRAUNFELS",
        "state": "TX",
        "postalCode": "78130-4194"
      },
      {
        "line": [
          "520 Madison Oak Dr"
        ],
        "city": "SAN ANTONIO",
        "state": "TX",
        "postalCode": "78258-3913"
      },
      {
        "line": [
          "1139 E SONTERRA BLVD"
        ],
        "city": "SAN ANTONIO",
        "state": "TX",
        "postalCode": "78258-3999"
      },
      {
        "line": [
          "1310 MCCULLOUGH"
        ],
        "city": "SAN ANTONIO",
        "state": "TX",
        "postalCode": "78212-5601"
      },
      {
        "line": [
          "12501 JUDSON RD STE 201"
        ],
        "city": "LIVE OAK",
        "state": "TX",
        "postalCode": "78233-4117"
      },
      {
        "line": [
          "7930 FLOYD CURL"
        ],
        "city": "SAN ANTONIO",
        "state": "TX",
        "postalCode": "78229-3925"
      },
      {
        "line": [
          "3333 RESEARCH PLAZA"
        ],
        "city": "SAN ANTONIO",
        "state": "TX",
        "postalCode": "78235-5154"
      },
      {
        "line": [
          "790 Generations Drive",
          "Suite 405"
        ],
        "city": "NEW BRAUNFELS",
        "state": "TX",
        "postalCode": "78130-7620"
      },
      {
        "line": [
          "12501 Judson STE 201"
        ],
        "city": "LIVE OAK",
        "state": "TX",
        "postalCode": "78233-4117"
      },
      {
        "line": [
          "8811 Village Dr"
        ],
        "city": "SAN ANTONIO",
        "state": "TX",
        "postalCode": "78217-5415"
      },
      {
        "line": [
          "1202 E SONTERRA BLG 6 SUITE 601"
        ],
        "city": "SAN ANTONIO",
        "state": "TX",
        "postalCode": "78258-4089"
      },
      {
        "line": [
          "111 DALLAS ST"
        ],
        "city": "SAN ANTONIO",
        "state": "TX",
        "postalCode": "78205-1201"
      },
      {
        "line": [
          "5330 N Loop 1604 West"
        ],
        "city": "SAN ANTONIO",
        "state": "TX",
        "postalCode": "78249-4384"
      },
      {
        "line": [
          "5418 n Loop 1604 west",
          "3rd floor"
        ],
        "city": "SAN ANTONIO",
        "state": "TX",
        "postalCode": "78249-4581"
      },
      {
        "line": [
          "19234 STONEHUE"
        ],
        "city": "SAN ANTONIO",
        "state": "TX",
        "postalCode": "78258-3477"
      },
      {
        "line": [
          "8811 Village Dr"
        ],
        "city": "SAN ANTONIO",
        "state": "TX",
        "postalCode": "78217-5417"
      },
      {
        "line": [
          "3636 Medical Dr"
        ],
        "city": "SAN ANTONIO",
        "state": "TX",
        "postalCode": "78229-4301"
      },
      {
        "line": [
          "1139 E. Sonterra Blvd STE 565"
        ],
        "city": "SAN ANTONIO",
        "state": "TX",
        "postalCode": "78258-4347"
      }
    ],
    "extension": [
      {
        "url": "https://fhir.athena.io/StructureDefinition/ah-practice",
        "valueReference": {
          "reference": "Organization/a-1.Practice-17381"
        }
      },
      {
        "url": "https://fhir.athena.io/StructureDefinition/ah-brand",
        "valueReference": {
          "reference": "Organization/a-17381.Brand-1"
        }
      }
    ]
  },
  "fullUrl": "urn:uuid:a45381a3-2547-5fd1-af2f-92f1b3cac657"
}