{
  "resource": {
    "resourceType": "Organization",
    "id": "3e1695e4-5a6e-5f90-a89f-1a053ca9ed3b",
    "name": "ALHAMBRA CONVALESCENT",
    "endpoint": [
      {
        "reference": "Endpoint/27a4e967-47aa-5a9c-a572-b8297ee268a2"
      },
      {
        "reference": "Endpoint/53a82e55-9691-566f-be36-422921a79e91"
      }
    ],
    "identifier": [
      {
        "system": "http://hl7.org/fhir/sid/us-npi",
        "value": "1518043264"
      },
      {
        "system": "http://hl7.org/fhir/sid/us-npi",
        "value": "1619152113"
      }
    ],
    "address": [
      {
        "line": [
          "9300 FLAIR DRIVE, SUITE 388"
        ],
        "city": "EL MONTE",
        "state": "CA",
        "postalCode": "91731-2844"
      },
      {
        "line": [
          "9140 VERNER STREET"
        ],
        "city": "PICO RIVERA",
        "state": "CA",
        "postalCode": "90660-2741"
      },
      {
        "line": [
          "7255A S. GREENLEAF AVE"
        ],
        "city": "WHITTIER",
        "state": "CA",
        "postalCode": "90602-1340"
      },
      {
        "line": [
          "100 E. Huntington Drive",
          "Suite 207"
        ],
        "city": "ALHAMBRA",
        "state": "CA",
        "postalCode": "91801-1022"
      },
      {
        "line": [
          "1149 SOUTH GRAND AVE"
        ],
        "city": "GLENDORA",
        "state": "CA",
        "postalCode": "91740-5013"
      },
      {
        "line": [
          "13181 CROSSROADS PKWAY N"
        ],
        "city": "LA PUENTE",
        "state": "CA",
        "postalCode": "91746-3419"
      },
      {
        "line": [
          "415 S. GARFIELD AVE"
        ],
        "city": "ALHAMBRA",
        "state": "CA",
        "postalCode": "91801-3838"
      },
      {
        "line": [
          "1817 w beverly blvd"
        ],
        "city": "MONTEBELLO",
        "state": "CA",
        "postalCode": "90640-3969"
      }
    ],
    "extension": [
      {
        "url": "https://fhir.athena.io/StructureDefinition/ah-practice",
        "valueReference": {
          "reference": "Organization/a-1.Practice-1509"
        }
      },
      {
        "url": "https://fhir.athena.io/StructureDefinition/ah-brand",
        "valueReference": {
          "reference": "Organization/a-1509.Brand-1"
        }
      }
    ]
  },
  "fullUrl": "urn:uuid:3e1695e4-5a6e-5f90-a89f-1a053ca9ed3b"
}