{
  "resource": {
    "resourceType": "Organization",
    "id": "bccbbbf9-4059-5cc0-9c04-c9adda9f8655",
    "name": "Bicycle Health",
    "endpoint": [
      {
        "reference": "Endpoint/27a4e967-47aa-5a9c-a572-b8297ee268a2"
      },
      {
        "reference": "Endpoint/d0d08a8a-085a-5630-8cdc-e0e42343679f"
      }
    ],
    "identifier": [
      {
        "system": "http://hl7.org/fhir/sid/us-npi",
        "value": "1356817886"
      },
      {
        "system": "http://hl7.org/fhir/sid/us-npi",
        "value": "1194342162"
      }
    ],
    "address": [
      {
        "line": [
          "18 PLEASANT ST, OFC 112"
        ],
        "city": "BRUNSWICK",
        "state": "ME",
        "postalCode": "04011-2201"
      },
      {
        "line": [
          "11810 GRAND PARK AVE",
          "STE 500 OFC 572"
        ],
        "city": "ROCKVILLE",
        "state": "MD",
        "postalCode": "20852-8679"
      },
      {
        "line": [
          "2021 Guadalupe St Suite 260",
          "Office 232"
        ],
        "city": "AUSTIN",
        "state": "TX",
        "postalCode": "78705-5654"
      },
      {
        "line": [
          "506 2ND AVE STE 1400 OFC 1515"
        ],
        "city": "SEATTLE",
        "state": "WA",
        "postalCode": "98104-2329"
      },
      {
        "line": [
          "2001 MARKET ST OFC 2521"
        ],
        "city": "PHILADELPHIA",
        "state": "PA",
        "postalCode": "19103-7044"
      },
      {
        "line": [
          "800 E 101ST TERRACE",
          "Office 350"
        ],
        "city": "KANSAS CITY",
        "state": "MO",
        "postalCode": "64131-5322"
      },
      {
        "line": [
          "41000 WOODWARD AVE STE 350 OFC 389"
        ],
        "city": "BLOOMFIELD HILLS",
        "state": "MI",
        "postalCode": "48304-5092"
      },
      {
        "line": [
          "5 W MENDENHALL ST 202, OFC 236"
        ],
        "city": "BOZEMAN",
        "state": "MT",
        "postalCode": "59715-3565"
      },
      {
        "line": [
          "699 WALNUT ST, FL 4, OFC 419"
        ],
        "city": "DES MOINES",
        "state": "IA",
        "postalCode": "50309-3929"
      },
      {
        "line": [
          "8200 Greensboro Drive Suite 900"
        ],
        "city": "MC LEAN",
        "state": "VA",
        "postalCode": "22102-4913"
      },
      {
        "line": [
          "40 BURTON HILLS BLVD"
        ],
        "city": "NASHVILLE",
        "state": "TN",
        "postalCode": "37215-6199"
      },
      {
        "line": [
          "10 CANEBRAKE BLVD STE 110 Office 201"
        ],
        "city": "FLOWOOD",
        "state": "MS",
        "postalCode": "39232-2212"
      },
      {
        "line": [
          "1580 Logan St, FL 5, PMB 43"
        ],
        "city": "DENVER",
        "state": "CO",
        "postalCode": "80203-5995"
      },
      {
        "line": [
          "100 S ASHLEY DR STE 600 OFC 607"
        ],
        "city": "TAMPA",
        "state": "FL",
        "postalCode": "33602-5300"
      },
      {
        "line": [
          "10 CANEBRAKE BLVD STE 110 PMB 201"
        ],
        "city": "FLOWOOD",
        "state": "MS",
        "postalCode": "39232-2212"
      },
      {
        "line": [
          "500 ALA MOANA BLVD",
          "Suite 7400, Office 426"
        ],
        "city": "HONOLULU",
        "state": "HI",
        "postalCode": "96813-4920"
      },
      {
        "line": [
          "1000 LAFAYETTE BLVD STE 1100 OFC 1139"
        ],
        "city": "BRIDGEPORT",
        "state": "CT",
        "postalCode": "06604-4710"
      },
      {
        "line": [
          "101 S REID ST STE 307 OFC 308"
        ],
        "city": "SIOUX FALLS",
        "state": "SD",
        "postalCode": "57103-7045"
      },
      {
        "line": [
          "41000 WOODWARD AVE, Ste 350, OFC 389"
        ],
        "city": "BLOOMFIELD HILLS",
        "state": "MI",
        "postalCode": "48304-5130"
      },
      {
        "line": [
          "200 CONTINENTAL DR STE 401 OFC 412"
        ],
        "city": "NEWARK",
        "state": "DE",
        "postalCode": "19713-4337"
      },
      {
        "line": [
          "4145 SW WATSON AVE STE 350 OFC 354"
        ],
        "city": "BEAVERTON",
        "state": "OR",
        "postalCode": "97005-2191"
      },
      {
        "line": [
          "10150 W NATIONAL AVE 2nd Fl, OFC 223"
        ],
        "city": "MILWAUKEE",
        "state": "WI",
        "postalCode": "53227-2145"
      },
      {
        "line": [
          "Imperial Business Park, 4819 EMPEROR BLVD",
          "Ste 400, Ofc #486"
        ],
        "city": "DURHAM",
        "state": "NC",
        "postalCode": "27703-0089"
      },
      {
        "line": [
          "232 CAPITOL ST"
        ],
        "city": "CHARLESTON",
        "state": "WV",
        "postalCode": "25301-2206"
      },
      {
        "line": [
          "1531 32ND AVE S STE 102 OFC 124"
        ],
        "city": "FARGO",
        "state": "ND",
        "postalCode": "58103-5911"
      },
      {
        "line": [
          "8211 E REGAL PL",
          "Ste 100-103, Room 114"
        ],
        "city": "TULSA",
        "state": "OK",
        "postalCode": "74133-7167"
      },
      {
        "line": [
          "332 S Michigan Ave",
          "Suite 800 & 900, Office 9128"
        ],
        "city": "CHICAGO",
        "state": "IL",
        "postalCode": "60604-4344"
      },
      {
        "line": [
          "1531 32ND AVE S, Ste 102,  OFC 124"
        ],
        "city": "FARGO",
        "state": "ND",
        "postalCode": "58103-5910"
      },
      {
        "line": [
          "10150 W National Ave",
          "2nd Floor, Office 223"
        ],
        "city": "MILWAUKEE",
        "state": "WI",
        "postalCode": "53227-2145"
      },
      {
        "line": [
          "2033 GATEWAY PL, FL 5, OFC 647"
        ],
        "city": "SAN JOSE",
        "state": "CA",
        "postalCode": "95110-3709"
      },
      {
        "line": [
          "8200 Greensboro Drive Ste 900"
        ],
        "city": "MC LEAN",
        "state": "VA",
        "postalCode": "22102-4913"
      },
      {
        "line": [
          "1299 FARNAM ST STE 300 OFC 358"
        ],
        "city": "OMAHA",
        "state": "NE",
        "postalCode": "68102-1857"
      },
      {
        "line": [
          "860 BLUE GENTIAN RD STE 200 OFC 202"
        ],
        "city": "SAINT PAUL",
        "state": "MN",
        "postalCode": "55121-1567"
      },
      {
        "line": [
          "200 CONTINENTAL DR, STE 401, OFC 412"
        ],
        "city": "NEWARK",
        "state": "DE",
        "postalCode": "19713-4334"
      },
      {
        "line": [
          "150 WASHINGTON AVE",
          "STE 201, OFC 222"
        ],
        "city": "SANTA FE",
        "state": "NM",
        "postalCode": "87501-2038"
      },
      {
        "line": [
          "194 MAIN ST"
        ],
        "city": "NEWPORT",
        "state": "VT",
        "postalCode": "05855-6104"
      },
      {
        "line": [
          "2700 CORPORATE DR STE 200, PMB 220"
        ],
        "city": "BIRMINGHAM",
        "state": "AL",
        "postalCode": "35242-2733"
      },
      {
        "line": [
          "860 BLUE GENTIAN RD STE 200 OFC 202"
        ],
        "city": "Eagan",
        "state": "MN",
        "postalCode": "55121-1567"
      },
      {
        "line": [
          "444 S CENTER ST OFC 1"
        ],
        "city": "CASPER",
        "state": "WY",
        "postalCode": "82601-2826"
      },
      {
        "line": [
          "232 CAPITOL ST OFC 205"
        ],
        "city": "CHARLESTON",
        "state": "WV",
        "postalCode": "25301-2234"
      },
      {
        "line": [
          "Imperial Business Park, 4819 EMPEROR BLVD",
          "Ste 400, Ofc 486"
        ],
        "city": "DURHAM",
        "state": "NC",
        "postalCode": "27703-5420"
      },
      {
        "line": [
          "699 Walnut Street",
          "4th Floor, Office 419"
        ],
        "city": "DES MOINES",
        "state": "IA",
        "postalCode": "50309-4104"
      },
      {
        "line": [
          "2415 E CAMELBACK RD STE 700 PMB 714"
        ],
        "city": "PHOENIX",
        "state": "AZ",
        "postalCode": "85016-4245"
      },
      {
        "line": [
          "201 N ILLINOIS ST, 16th Fl",
          "South Tower, Office 1606"
        ],
        "city": "INDIANAPOLIS",
        "state": "IN",
        "postalCode": "46204-1904"
      },
      {
        "line": [
          "9788 GILESPIE ST STE D-415, OFC D-415"
        ],
        "city": "LAS VEGAS",
        "state": "NV",
        "postalCode": "89183-7604"
      },
      {
        "line": [
          "332 S Michigan Ave",
          "Suite 800 & 900, Office 9128"
        ],
        "city": "CHICAGO",
        "state": "IL",
        "postalCode": "60604-4434"
      },
      {
        "line": [
          "68 HARRISON AVE",
          "Suite 600, OFC 11"
        ],
        "city": "BOSTON",
        "state": "MA",
        "postalCode": "02111-1929"
      },
      {
        "line": [
          "5 W MENDENHALL ST STE 202 OFC 236"
        ],
        "city": "BOZEMAN",
        "state": "MT",
        "postalCode": "59715-3566"
      },
      {
        "line": [
          "6901 W EMERALD ST STE 203A, OFC 203A"
        ],
        "city": "BOISE",
        "state": "ID",
        "postalCode": "83704-8660"
      },
      {
        "line": [
          "68 HARRISON AVE",
          "Ste 600, Ofc 11"
        ],
        "city": "BOSTON",
        "state": "MA",
        "postalCode": "02111-1929"
      },
      {
        "line": [
          "1580 N LOGAN ST",
          "FL 6 PMB 43"
        ],
        "city": "DENVER",
        "state": "CO",
        "postalCode": "80203-1939"
      },
      {
        "line": [
          "331 E MAIN ST STE 200 PMB 262"
        ],
        "city": "ROCK HILL",
        "state": "SC",
        "postalCode": "29730-5384"
      },
      {
        "line": [
          "1775 PARKER RD",
          "Building C, Suite 210, Office 307"
        ],
        "city": "CONYERS",
        "state": "GA",
        "postalCode": "30094-6654"
      }
    ],
    "extension": [
      {
        "url": "https://fhir.athena.io/StructureDefinition/ah-practice",
        "valueReference": {
          "reference": "Organization/a-1.Practice-18731"
        }
      },
      {
        "url": "https://fhir.athena.io/StructureDefinition/ah-brand",
        "valueReference": {
          "reference": "Organization/a-18731.Brand-2"
        }
      }
    ]
  },
  "fullUrl": "urn:uuid:bccbbbf9-4059-5cc0-9c04-c9adda9f8655"
}