{
  "resource": {
    "resourceType": "Organization",
    "id": "59b98a44-25fc-53bd-81b9-d3de24bc82c3",
    "name": "AMHERST CENTER FOR EXTENDED CARE",
    "endpoint": [
      {
        "reference": "Endpoint/27a4e967-47aa-5a9c-a572-b8297ee268a2"
      },
      {
        "reference": "Endpoint/2341576b-c525-5ce2-8c0e-927714e8ede9"
      }
    ],
    "identifier": [
      {
        "system": "http://hl7.org/fhir/sid/us-npi",
        "value": "1982738118"
      },
      {
        "system": "http://hl7.org/fhir/sid/us-npi",
        "value": "1639203888"
      },
      {
        "system": "http://hl7.org/fhir/sid/us-npi",
        "value": "1174647986"
      },
      {
        "system": "http://hl7.org/fhir/sid/us-npi",
        "value": "1013031822"
      },
      {
        "system": "http://hl7.org/fhir/sid/us-npi",
        "value": "1174687966"
      },
      {
        "system": "http://hl7.org/fhir/sid/us-npi",
        "value": "1710933296"
      },
      {
        "system": "http://hl7.org/fhir/sid/us-npi",
        "value": "1558406512"
      },
      {
        "system": "http://hl7.org/fhir/sid/us-npi",
        "value": "1093839805"
      },
      {
        "system": "http://hl7.org/fhir/sid/us-npi",
        "value": "1912924705"
      }
    ],
    "address": [
      {
        "line": [],
        "city": "AMHERST",
        "state": "MA",
        "postalCode": "01002-2754"
      },
      {
        "line": [
          "31 HALL DRIVE"
        ],
        "city": "AMHERST",
        "state": "MA",
        "postalCode": "01002-2751"
      },
      {
        "line": [
          "70 Main Street"
        ],
        "city": "Florence",
        "state": "MA",
        "postalCode": "01062-1466"
      },
      {
        "line": [
          "31 hall drive"
        ],
        "city": "AMHERST",
        "state": "MA",
        "postalCode": "01002-2754"
      },
      {
        "line": [
          "31 Hall Drive"
        ],
        "city": "Amherst",
        "state": "MA",
        "postalCode": "01002-2751"
      },
      {
        "line": [
          "329 Conway Street"
        ],
        "city": "GREENFIELD",
        "state": "MA",
        "postalCode": "01301-1521"
      },
      {
        "line": [
          "31 Hall Drive"
        ],
        "city": "AMHERST",
        "state": "MA",
        "postalCode": "01002-2751"
      },
      {
        "line": [],
        "city": "Florence",
        "state": "MA",
        "postalCode": "01062-1466"
      },
      {
        "line": [
          "238 Northampton Street"
        ],
        "city": "EASTHAMPTON",
        "state": "MA",
        "postalCode": "01027-1046"
      },
      {
        "line": [
          "30 Locust Street"
        ],
        "city": "NORTHAMPTON",
        "state": "MA",
        "postalCode": "01060-2052"
      },
      {
        "line": [
          "329 conway street"
        ],
        "city": "Greenfield",
        "state": "MA",
        "postalCode": "01301-1514"
      },
      {
        "line": [
          "70 Main Street"
        ],
        "city": "FLORENCE",
        "state": "MA",
        "postalCode": "01062-1466"
      },
      {
        "line": [
          "150 UNIVERSITY DRIVE"
        ],
        "city": "AMHERST",
        "state": "MA",
        "postalCode": "01002-2232"
      },
      {
        "line": [
          "329 Conway Street"
        ],
        "city": "Greenfield",
        "state": "MA",
        "postalCode": "01301-1521"
      }
    ],
    "extension": [
      {
        "url": "https://fhir.athena.io/StructureDefinition/ah-practice",
        "valueReference": {
          "reference": "Organization/a-1.Practice-55"
        }
      },
      {
        "url": "https://fhir.athena.io/StructureDefinition/ah-brand",
        "valueReference": {
          "reference": "Organization/a-55.Brand-1"
        }
      }
    ]
  },
  "fullUrl": "urn:uuid:59b98a44-25fc-53bd-81b9-d3de24bc82c3"
}