{
  "resource": {
    "resourceType": "Organization",
    "id": "a30868ac-5ff0-57eb-b921-045d479b3f7c",
    "name": "Patient Care Medical Group",
    "endpoint": [
      {
        "reference": "Endpoint/27a4e967-47aa-5a9c-a572-b8297ee268a2"
      },
      {
        "reference": "Endpoint/6c7158f8-c983-5324-a3f4-bf231515cd97"
      }
    ],
    "identifier": [
      {
        "system": "http://hl7.org/fhir/sid/us-npi",
        "value": "1891362364"
      },
      {
        "system": "http://hl7.org/fhir/sid/us-npi",
        "value": "1023896578"
      },
      {
        "system": "http://hl7.org/fhir/sid/us-npi",
        "value": "1003694555"
      },
      {
        "system": "http://hl7.org/fhir/sid/us-npi",
        "value": "1285412734"
      },
      {
        "system": "http://hl7.org/fhir/sid/us-npi",
        "value": "1487432936"
      },
      {
        "system": "http://hl7.org/fhir/sid/us-npi",
        "value": "1225816770"
      },
      {
        "system": "http://hl7.org/fhir/sid/us-npi",
        "value": "1326826876"
      },
      {
        "system": "http://hl7.org/fhir/sid/us-npi",
        "value": "1114705662"
      }
    ],
    "address": [
      {
        "line": [
          "605 ROUTE 130 S"
        ],
        "city": "RIVERTON",
        "state": "NJ",
        "postalCode": "08077-3311"
      },
      {
        "line": [
          "2150 ROUTE 38"
        ],
        "city": "CHERRY HILL",
        "state": "NJ",
        "postalCode": "08002-4302"
      },
      {
        "line": [
          "4050 SUNRISE RD"
        ],
        "city": "ROUND ROCK",
        "state": "TX",
        "postalCode": "78665-1144"
      },
      {
        "line": [
          "26 MAIN ST STE 213"
        ],
        "city": "EDISON",
        "state": "NJ",
        "postalCode": "08837-3418"
      },
      {
        "line": [
          "115 Sunset Road"
        ],
        "city": "BURLINGTON",
        "state": "NJ",
        "postalCode": "08016-4153"
      },
      {
        "line": [
          "151 9th Ave"
        ],
        "city": "TUCKERTON",
        "state": "NJ",
        "postalCode": "08087-4218"
      },
      {
        "line": [
          "1086 DUMONT DR"
        ],
        "city": "VOORHEES",
        "state": "NJ",
        "postalCode": "08043-3500"
      },
      {
        "line": [
          "1400 HIGHWAY 70"
        ],
        "city": "LAKEWOOD",
        "state": "NJ",
        "postalCode": "08701-5949"
      },
      {
        "line": [
          "2 HILLSIDE DR"
        ],
        "city": "MOUNT ARLINGTON",
        "state": "NJ",
        "postalCode": "07856-1501"
      },
      {
        "line": [
          "303 Bank Ave"
        ],
        "city": "RIVERTON",
        "state": "NJ",
        "postalCode": "08077-1113"
      },
      {
        "line": [
          "595 ROUND ROCK WEST DR STE 102"
        ],
        "city": "ROUND ROCK",
        "state": "TX",
        "postalCode": "78681-5028"
      },
      {
        "line": [
          "302 LIPPINCOTT DR"
        ],
        "city": "MARLTON",
        "state": "NJ",
        "postalCode": "08053-4116"
      },
      {
        "line": [
          "1054 48th Street"
        ],
        "city": "BROOKLYN",
        "state": "NY",
        "postalCode": "11219-1111"
      },
      {
        "line": [
          "151 MADISON AVE"
        ],
        "city": "MORRISTOWN",
        "state": "NJ",
        "postalCode": "07960-6016"
      },
      {
        "line": [
          "2305 Rancocas Road"
        ],
        "city": "BURLINGTON",
        "state": "NJ",
        "postalCode": "08016-4113"
      },
      {
        "line": [
          "3851 TOWNE BLVD"
        ],
        "city": "FRANKLIN",
        "state": "OH",
        "postalCode": "45005-5595"
      },
      {
        "line": [
          "1912 MARSH ROAD"
        ],
        "city": "WILMINGTON",
        "state": "DE",
        "postalCode": "19810-3954"
      },
      {
        "line": [
          "113 ROUTE 73"
        ],
        "city": "VOORHEES",
        "state": "NJ",
        "postalCode": "08043-9573"
      },
      {
        "line": [
          "1640 S LINCOLN AVE"
        ],
        "city": "VINELAND",
        "state": "NJ",
        "postalCode": "08361-6610"
      },
      {
        "line": [
          "21111 ARRINGTON DR"
        ],
        "city": "SELBYVILLE",
        "state": "DE",
        "postalCode": "19975-3607"
      },
      {
        "line": [
          "185 Tuckerton Rd"
        ],
        "city": "MEDFORD",
        "state": "NJ",
        "postalCode": "08055-8856"
      },
      {
        "line": [
          "104 PENSION RD STE B"
        ],
        "city": "ENGLISHTOWN",
        "state": "NJ",
        "postalCode": "07726-8400"
      },
      {
        "line": [
          "212 MARTER AVE"
        ],
        "city": "MOORESTOWN",
        "state": "NJ",
        "postalCode": "08057-3114"
      },
      {
        "line": [
          "1412 MARLTON PIKE E"
        ],
        "city": "CHERRY HILL",
        "state": "NJ",
        "postalCode": "08034-2230"
      },
      {
        "line": [
          "6031 W CHEYENNE AVE"
        ],
        "city": "LAS VEGAS",
        "state": "NV",
        "postalCode": "89108-4200"
      },
      {
        "line": [
          "3655 W LAKE MARY BLVD"
        ],
        "city": "LAKE MARY",
        "state": "FL",
        "postalCode": "32746-3497"
      },
      {
        "line": [
          "1770 TOBIAS AVE"
        ],
        "city": "MANCHESTER TOWNSHIP",
        "state": "NJ",
        "postalCode": "08759-5803"
      },
      {
        "line": [
          "1750 W HORIZON RIDGE PKWY STE 204"
        ],
        "city": "HENDERSON",
        "state": "NV",
        "postalCode": "89012-4833"
      },
      {
        "line": [
          "537 RIVERDALE AVE"
        ],
        "city": "YONKERS",
        "state": "NY",
        "postalCode": "10705-5501"
      },
      {
        "line": [
          "3709 SHANNONS GREEN WAY"
        ],
        "city": "ALEXANDRIA",
        "state": "VA",
        "postalCode": "22309-3659"
      },
      {
        "line": [
          "23 SCHOOLHOUSE RD"
        ],
        "city": "MANCHESTER TOWNSHIP",
        "state": "NJ",
        "postalCode": "08759-3024"
      },
      {
        "line": [
          "2601 E Evesham Road"
        ],
        "city": "VOORHEES",
        "state": "NJ",
        "postalCode": "08043-9509"
      },
      {
        "line": [
          "2721 Route 9"
        ],
        "city": "OCEAN VIEW",
        "state": "NJ",
        "postalCode": "08230-1097"
      },
      {
        "line": [
          "150 MATHISTOWN RD"
        ],
        "city": "TUCKERTON",
        "state": "NJ",
        "postalCode": "08087-1265"
      },
      {
        "line": [
          "536 RIDGE RD"
        ],
        "city": "CEDAR GROVE",
        "state": "NJ",
        "postalCode": "07009-1611"
      },
      {
        "line": [
          "655 POMANDER WALK"
        ],
        "city": "TEANECK",
        "state": "NJ",
        "postalCode": "07666-1600"
      },
      {
        "line": [
          "2721 N Route 9"
        ],
        "city": "OCEAN VIEW",
        "state": "NJ",
        "postalCode": "08230-1055"
      },
      {
        "line": [
          "5851 N HONORE AVE"
        ],
        "city": "SARASOTA",
        "state": "FL",
        "postalCode": "34243-2637"
      },
      {
        "line": [
          "36101 SEASIDE BLVD"
        ],
        "city": "REHOBOTH BEACH",
        "state": "DE",
        "postalCode": "19971-1189"
      },
      {
        "line": [
          "3800 W TOWN CENTER BLVD # 200"
        ],
        "city": "ORLANDO",
        "state": "FL",
        "postalCode": "32837-6196"
      },
      {
        "line": [
          "3001 E Evesham Road"
        ],
        "city": "VOORHEES",
        "state": "NJ",
        "postalCode": "08043-9547"
      },
      {
        "line": [
          "201 New Road"
        ],
        "city": "LINWOOD",
        "state": "NJ",
        "postalCode": "08221-1201"
      },
      {
        "line": [
          "501 LAUREL OAK RD"
        ],
        "city": "VOORHEES",
        "state": "NJ",
        "postalCode": "08043-4418"
      },
      {
        "line": [
          "43 N WHITE HORSE PIKE"
        ],
        "city": "HAMMONTON",
        "state": "NJ",
        "postalCode": "08037-1875"
      },
      {
        "line": [
          "26 Main St"
        ],
        "city": "EDISON",
        "state": "NJ",
        "postalCode": "08837-3418"
      },
      {
        "line": [
          "540 MULLICA HILL RD"
        ],
        "city": "GLASSBORO",
        "state": "NJ",
        "postalCode": "08028-1000"
      },
      {
        "line": [
          "3800 W TOWN CENTER BLVD"
        ],
        "city": "ORLANDO",
        "state": "FL",
        "postalCode": "32837-6196"
      },
      {
        "line": [
          "3020 GORDON W SHELTON BLVD"
        ],
        "city": "FREDERICKSBURG",
        "state": "VA",
        "postalCode": "22401-5010"
      },
      {
        "line": [
          "140 E WOODBURY DR"
        ],
        "city": "DAYTON",
        "state": "OH",
        "postalCode": "45415-2841"
      },
      {
        "line": [
          "467 COOPER ST"
        ],
        "city": "WOODBURY",
        "state": "NJ",
        "postalCode": "08096-2519"
      },
      {
        "line": [
          "3025 Chapel Ave"
        ],
        "city": "CHERRY HILL",
        "state": "NJ",
        "postalCode": "08002-1503"
      },
      {
        "line": [
          "100 SEASIDE BLVD"
        ],
        "city": "REHOBOTH BEACH",
        "state": "DE",
        "postalCode": "19971-1189"
      },
      {
        "line": [
          "132 WARWICK RD"
        ],
        "city": "HADDONFIELD",
        "state": "NJ",
        "postalCode": "08033-3707"
      },
      {
        "line": [
          "155 40TH ST"
        ],
        "city": "IRVINGTON",
        "state": "NJ",
        "postalCode": "07111-1184"
      },
      {
        "line": [
          "600 Pemberton-Browns Mills Rd"
        ],
        "city": "PEMBERTON",
        "state": "NJ",
        "postalCode": "08068-1537"
      },
      {
        "line": [
          "1610 RARITAN RD"
        ],
        "city": "SCOTCH PLAINS",
        "state": "NJ",
        "postalCode": "07076-2939"
      },
      {
        "line": [
          "1750 W Horizon Ridge PKWY"
        ],
        "city": "HENDERSON",
        "state": "NV",
        "postalCode": "89012-4833"
      },
      {
        "line": [
          "348 E Cedar St"
        ],
        "city": "LIVINGSTON",
        "state": "NJ",
        "postalCode": "07039-4221"
      },
      {
        "line": [
          "17 SPRING PL"
        ],
        "city": "MORRISTOWN",
        "state": "NJ",
        "postalCode": "07960-3947"
      },
      {
        "line": [
          "1503 MEDICAL PKWY"
        ],
        "city": "CEDAR PARK",
        "state": "TX",
        "postalCode": "78613-7633"
      },
      {
        "line": [
          "7056 CORPORATE WAY STE 201"
        ],
        "city": "DAYTON",
        "state": "OH",
        "postalCode": "45459-4274"
      },
      {
        "line": [
          "1450 MARLTON PIKE E"
        ],
        "city": "CHERRY HILL",
        "state": "NJ",
        "postalCode": "08034-2244"
      },
      {
        "line": [
          "1205 N CHURCH ST"
        ],
        "city": "MOORESTOWN",
        "state": "NJ",
        "postalCode": "08057-1198"
      },
      {
        "line": [
          "104 PENSION RD"
        ],
        "city": "ENGLISHTOWN",
        "state": "NJ",
        "postalCode": "07726-8400"
      },
      {
        "line": [
          "432 CENTRAL AVE"
        ],
        "city": "LINWOOD",
        "state": "NJ",
        "postalCode": "08221-1372"
      },
      {
        "line": [
          "473 DEMOTT LN"
        ],
        "city": "SOMERSET",
        "state": "NJ",
        "postalCode": "08873-7700"
      },
      {
        "line": [
          "303 BANK AVE"
        ],
        "city": "RIVERTON",
        "state": "NJ",
        "postalCode": "08077-1113"
      },
      {
        "line": [
          "2721 N ROUTE 9"
        ],
        "city": "OCEAN VIEW",
        "state": "NJ",
        "postalCode": "08230-1055"
      }
    ],
    "extension": [
      {
        "url": "https://fhir.athena.io/StructureDefinition/ah-practice",
        "valueReference": {
          "reference": "Organization/a-1.Practice-29107"
        }
      },
      {
        "url": "https://fhir.athena.io/StructureDefinition/ah-brand",
        "valueReference": {
          "reference": "Organization/a-29107.Brand-1"
        }
      }
    ]
  },
  "fullUrl": "urn:uuid:a30868ac-5ff0-57eb-b921-045d479b3f7c"
}