{
  "resource": {
    "resourceType": "Organization",
    "id": "7ec75c21-87fb-59ac-b28b-720bb6832809",
    "name": "Dr. Clark",
    "endpoint": [
      {
        "reference": "Endpoint/27a4e967-47aa-5a9c-a572-b8297ee268a2"
      },
      {
        "reference": "Endpoint/8768b111-c8f0-5aae-974b-58eb10ddae3e"
      }
    ],
    "identifier": [
      {
        "system": "http://hl7.org/fhir/sid/us-npi",
        "value": "1194161703"
      },
      {
        "system": "http://hl7.org/fhir/sid/us-npi",
        "value": "1023493459"
      },
      {
        "system": "http://hl7.org/fhir/sid/us-npi",
        "value": "1457382335"
      },
      {
        "system": "http://hl7.org/fhir/sid/us-npi",
        "value": "1790909042"
      },
      {
        "system": "http://hl7.org/fhir/sid/us-npi",
        "value": "1619908589"
      },
      {
        "system": "http://hl7.org/fhir/sid/us-npi",
        "value": "1336916071"
      },
      {
        "system": "http://hl7.org/fhir/sid/us-npi",
        "value": "1164453023"
      },
      {
        "system": "http://hl7.org/fhir/sid/us-npi",
        "value": "1326079369"
      },
      {
        "system": "http://hl7.org/fhir/sid/us-npi",
        "value": "1568823714"
      }
    ],
    "address": [
      {
        "line": [
          "23521 Paseo De Valencia",
          "Suite 108"
        ],
        "city": "LAGUNA HILLS",
        "state": "CA",
        "postalCode": "92653-3137"
      },
      {
        "line": [
          "23521 PASEO DE VALENCIA STE 108"
        ],
        "city": "LAGUNA HILLS",
        "state": "CA",
        "postalCode": "92653-3137"
      },
      {
        "line": [
          "3 Pursuit"
        ],
        "city": "ALISO VIEJO",
        "state": "CA",
        "postalCode": "92656-4213"
      },
      {
        "line": [
          "24962 Calle Aragon"
        ],
        "city": "LAGUNA HILLS",
        "state": "CA",
        "postalCode": "92637-3883"
      },
      {
        "line": [
          "25652 Old Trabuco Road"
        ],
        "city": "LAKE FOREST",
        "state": "CA",
        "postalCode": "92630-2776"
      },
      {
        "line": [
          "24452 HEALTH CENTER DR"
        ],
        "city": "LAGUNA HILLS",
        "state": "CA",
        "postalCode": "92653-3604"
      },
      {
        "line": [
          "23442 EL TORO RD"
        ],
        "city": "LAKE FOREST",
        "state": "CA",
        "postalCode": "92630-6979"
      },
      {
        "line": [
          "24441 Calle Sonora"
        ],
        "city": "LAGUNA HILLS",
        "state": "CA",
        "postalCode": "92637-3883"
      },
      {
        "line": [
          "24552 Paseo De Valencia"
        ],
        "city": "LAGUNA HILLS",
        "state": "CA",
        "postalCode": "92653-4236"
      },
      {
        "line": [
          "24962 CALLE ARAGON"
        ],
        "city": "LAGUNA WOODS",
        "state": "CA",
        "postalCode": "92637-3883"
      },
      {
        "line": [
          "19191 Harvard Avenue"
        ],
        "city": "IRVINE",
        "state": "CA",
        "postalCode": "92612-4670"
      },
      {
        "line": [
          "31741 RANCHO VIEJO RD # B"
        ],
        "city": "SAN JUAN CAPISTRANO",
        "state": "CA",
        "postalCode": "92675-6722"
      },
      {
        "line": [
          "15120 KENSINGTON PARK DR"
        ],
        "city": "TUSTIN",
        "state": "CA",
        "postalCode": "92782-1801"
      },
      {
        "line": [
          "2827 Calle Guadalajara"
        ],
        "city": "SAN CLEMENTE",
        "state": "CA",
        "postalCode": "92673-3514"
      },
      {
        "line": [
          "26761 CArranza"
        ],
        "city": "MISSION VIEJO",
        "state": "CA",
        "postalCode": "92691-4945"
      },
      {
        "line": [
          "19191 HARVARD AVE"
        ],
        "city": "IRVINE",
        "state": "CA",
        "postalCode": "92612-4670"
      },
      {
        "line": [
          "24452 Health Center Drive"
        ],
        "city": "LAGUNA HILLS",
        "state": "CA",
        "postalCode": "92653-3604"
      },
      {
        "line": [
          "23740 Singapore St"
        ],
        "city": "MISSION VIEJO",
        "state": "CA",
        "postalCode": "92691-3006"
      },
      {
        "line": [
          "101 BAYVIEW PL"
        ],
        "city": "NEWPORT BEACH",
        "state": "CA",
        "postalCode": "92660-2986"
      },
      {
        "line": [
          "309 Calle Sandia"
        ],
        "city": "SAN CLEMENTE",
        "state": "CA",
        "postalCode": "92672-2129"
      },
      {
        "line": [
          "31741 RANCHO VIEJO RD"
        ],
        "city": "SAN JUAN CAPISTRANO",
        "state": "CA",
        "postalCode": "92675-6722"
      },
      {
        "line": [
          "25437 Via Estudio"
        ],
        "city": "LAGUNA NIGUEL",
        "state": "CA",
        "postalCode": "92677-1541"
      },
      {
        "line": [
          "23442 El Toro Rd"
        ],
        "city": "LAKE FOREST",
        "state": "CA",
        "postalCode": "92630-6979"
      },
      {
        "line": [
          "24552 PASEO DE VALENCIA"
        ],
        "city": "LAGUNA HILLS",
        "state": "CA",
        "postalCode": "92653-4236"
      },
      {
        "line": [
          "27700 MEDICAL CENTER RD"
        ],
        "city": "MISSION VIEJO",
        "state": "CA",
        "postalCode": "92691-6426"
      },
      {
        "line": [
          "27640 MARGUERITE PKWY STE B"
        ],
        "city": "MISSION VIEJO",
        "state": "CA",
        "postalCode": "92692-3604"
      },
      {
        "line": [
          "23521 PASEO DE VALENCIA STE 108",
          "Suite 108"
        ],
        "city": "LAGUNA HILLS",
        "state": "CA",
        "postalCode": "92653-3137"
      },
      {
        "line": [
          "27356 Bellogente"
        ],
        "city": "MISSION VIEJO",
        "state": "CA",
        "postalCode": "92691-4648"
      },
      {
        "line": [
          "24861 Georgia Sue Drive"
        ],
        "city": "LAGUNA HILLS",
        "state": "CA",
        "postalCode": "92653-4324"
      },
      {
        "line": [
          "27076 Lost Colt Drive"
        ],
        "city": "LAGUNA HILLS",
        "state": "CA",
        "postalCode": "92653-5812"
      },
      {
        "line": [
          "24351 Regina"
        ],
        "city": "MISSION VIEJO",
        "state": "CA",
        "postalCode": "92691-4714"
      },
      {
        "line": [
          "27356 Bellogente"
        ],
        "city": "MISSION VIEJO",
        "state": "CA",
        "postalCode": "92691-1606"
      },
      {
        "line": [
          "23521 Paseo De Valencia",
          "108"
        ],
        "city": "LAGUNA HILLS",
        "state": "CA",
        "postalCode": "92653-3137"
      },
      {
        "line": [
          "26732 Via Linares"
        ],
        "city": "MISSION VIEJO",
        "state": "CA",
        "postalCode": "92691-2631"
      },
      {
        "line": [
          "23141 PLAZA POINTE DR"
        ],
        "city": "LAGUNA HILLS",
        "state": "CA",
        "postalCode": "92653-1425"
      },
      {
        "line": [
          "27783 Center Drive"
        ],
        "city": "MISSION VIEJO",
        "state": "CA",
        "postalCode": "92692-3603"
      },
      {
        "line": [
          "24302 Bark Street"
        ],
        "city": "LAKE FOREST",
        "state": "CA",
        "postalCode": "92630-5227"
      },
      {
        "line": [
          "24922 Costeau"
        ],
        "city": "LAGUNA HILLS",
        "state": "CA",
        "postalCode": "92653-4925"
      },
      {
        "line": [
          "25652 OLD TRABUCO RD"
        ],
        "city": "LAKE FOREST",
        "state": "CA",
        "postalCode": "92630-2776"
      },
      {
        "line": [
          "25251 PASEO DE ALICIA",
          "suite 105"
        ],
        "city": "LAGUNA HILLS",
        "state": "CA",
        "postalCode": "92653-4616"
      },
      {
        "line": [
          "23442 EL TORO RD # OFC"
        ],
        "city": "LAKE FOREST",
        "state": "CA",
        "postalCode": "92630-6978"
      },
      {
        "line": [
          "31001 RANCHO VIEJO RD STE 100"
        ],
        "city": "SAN JUAN CAPISTRANO",
        "state": "CA",
        "postalCode": "92675-8704"
      },
      {
        "line": [
          "25000 CALLE DE LOS CABALLEROS BLVD"
        ],
        "city": "LAGUNA HILLS",
        "state": "CA",
        "postalCode": "92653-7299"
      },
      {
        "line": [
          "21952 Buena Suente"
        ],
        "city": "RANCHO SANTA MARGARITA",
        "state": "CA",
        "postalCode": "92688-3875"
      },
      {
        "line": [
          "24911 Adelanto Drive"
        ],
        "city": "LAGUNA NIGUEL",
        "state": "CA",
        "postalCode": "92677-1837"
      },
      {
        "line": [
          "25182 Campo Rojo"
        ],
        "city": "LAKE FOREST",
        "state": "CA",
        "postalCode": "92630-4210"
      },
      {
        "line": [
          "26761 Carranza"
        ],
        "city": "MISSION VIEJO",
        "state": "CA",
        "postalCode": "92691-4945"
      },
      {
        "line": [
          "24962 Calle Aragon"
        ],
        "city": "LAGUNA WOODS",
        "state": "CA",
        "postalCode": "92637-3883"
      },
      {
        "line": [
          "24451 HEALTH CENTER DR"
        ],
        "city": "LAGUNA HILLS",
        "state": "CA",
        "postalCode": "92653-3689"
      },
      {
        "line": [
          "23521 Paseo De Valencia",
          "suite 108"
        ],
        "city": "LAGUNA HILLS",
        "state": "CA",
        "postalCode": "92653-3137"
      },
      {
        "line": [
          "31736 RANCHO VIEJO RD STE D"
        ],
        "city": "SAN JUAN CAPISTRANO",
        "state": "CA",
        "postalCode": "92675-2783"
      },
      {
        "line": [
          "24571 Kings Road"
        ],
        "city": "LAGUNA NIGUEL",
        "state": "CA",
        "postalCode": "92677-7453"
      },
      {
        "line": [
          "1100 W STEWART DR"
        ],
        "city": "ORANGE",
        "state": "CA",
        "postalCode": "92868-3849"
      },
      {
        "line": [
          "26852 La Sierra"
        ],
        "city": "MISSION VIEJO",
        "state": "CA",
        "postalCode": "92691-6050"
      },
      {
        "line": [
          "24441 Calle Sonora"
        ],
        "city": "LAGUNA WOODS",
        "state": "CA",
        "postalCode": "92637-3883"
      },
      {
        "line": [
          "29681 Preston Drive"
        ],
        "city": "LAGUNA NIGUEL",
        "state": "CA",
        "postalCode": "92677-1933"
      },
      {
        "line": [],
        "city": "LAGUNA HILLS",
        "state": "CA",
        "postalCode": "92653-3101"
      }
    ],
    "extension": [
      {
        "url": "https://fhir.athena.io/StructureDefinition/ah-practice",
        "valueReference": {
          "reference": "Organization/a-1.Practice-11277"
        }
      },
      {
        "url": "https://fhir.athena.io/StructureDefinition/ah-brand",
        "valueReference": {
          "reference": "Organization/a-11277.Brand-1"
        }
      }
    ]
  },
  "fullUrl": "urn:uuid:7ec75c21-87fb-59ac-b28b-720bb6832809"
}