{
  "resource": {
    "resourceType": "Organization",
    "id": "147d9671-7790-51ac-b9d7-45e330e96181",
    "name": "MEDEXPRESS URGENT CARE - NEW JERSEY, INC",
    "endpoint": [
      {
        "reference": "Endpoint/27a4e967-47aa-5a9c-a572-b8297ee268a2"
      },
      {
        "reference": "Endpoint/0212e4ba-9850-5772-a20c-66713a3542f8"
      }
    ],
    "identifier": [
      {
        "system": "http://hl7.org/fhir/sid/us-npi",
        "value": "1205183894"
      }
    ],
    "address": [
      {
        "line": [
          "2880 Highway 35"
        ],
        "city": "HAZLET",
        "state": "NJ",
        "postalCode": "07730-1504"
      },
      {
        "line": [
          "119 US Highway 22",
          "Suite 131"
        ],
        "city": "GREEN BROOK",
        "state": "NJ",
        "postalCode": "08812-2147"
      },
      {
        "line": [
          "165 S BLACK HORSE PIKE"
        ],
        "city": "RUNNEMEDE",
        "state": "NJ",
        "postalCode": "08078-1906"
      },
      {
        "line": [
          "200 US Highway 22"
        ],
        "city": "SPRINGFIELD",
        "state": "NJ",
        "postalCode": "07081-3123"
      },
      {
        "line": [
          "225 US HIGHWAY 46",
          "SUITE A"
        ],
        "city": "TOTOWA",
        "state": "NJ",
        "postalCode": "07512-1817"
      },
      {
        "line": [
          "811 Route 33"
        ],
        "city": "HAMILTON",
        "state": "NJ",
        "postalCode": "08619-4411"
      },
      {
        "line": [
          "2322 ROUTE 38"
        ],
        "city": "CHERRY HILL",
        "state": "NJ",
        "postalCode": "08002-1852"
      },
      {
        "line": [
          "475 HURFFVILLE CROSSKEYS ROAD",
          "SUITE 1"
        ],
        "city": "SEWELL",
        "state": "NJ",
        "postalCode": "08080-2320"
      },
      {
        "line": [
          "3403 S. DELSEA DRIVE"
        ],
        "city": "VINELAND",
        "state": "NJ",
        "postalCode": "08360-7449"
      },
      {
        "line": [
          "184 Essex Street",
          "F1"
        ],
        "city": "LODI",
        "state": "NJ",
        "postalCode": "07644-2707"
      },
      {
        "line": [
          "418 STATE ROUTE 18"
        ],
        "city": "EAST BRUNSWICK",
        "state": "NJ",
        "postalCode": "08816-2303"
      },
      {
        "line": [
          "4074 US HIGHWAY 9"
        ],
        "city": "HOWELL",
        "state": "NJ",
        "postalCode": "07731-3315"
      },
      {
        "line": [
          "118 E Hanover Ave"
        ],
        "city": "CEDAR KNOLLS",
        "state": "NJ",
        "postalCode": "07927-2007"
      },
      {
        "line": [
          "1569 US Highway 22"
        ],
        "city": "WATCHUNG",
        "state": "NJ",
        "postalCode": "07069-6507"
      },
      {
        "line": [
          "1680 N Olden Ave"
        ],
        "city": "EWING",
        "state": "NJ",
        "postalCode": "08638-3209"
      }
    ],
    "extension": [
      {
        "url": "https://fhir.athena.io/StructureDefinition/ah-practice",
        "valueReference": {
          "reference": "Organization/a-1.Practice-3908"
        }
      },
      {
        "url": "https://fhir.athena.io/StructureDefinition/ah-brand",
        "valueReference": {
          "reference": "Organization/a-3908.Brand-1"
        }
      }
    ]
  },
  "fullUrl": "urn:uuid:147d9671-7790-51ac-b9d7-45e330e96181"
}