{
  "resource": {
    "resourceType": "Organization",
    "id": "70a765c8-70f8-5650-8b0b-66eb71e4c40e",
    "name": "Atlanta South Nephrology",
    "endpoint": [
      {
        "reference": "Endpoint/27a4e967-47aa-5a9c-a572-b8297ee268a2"
      },
      {
        "reference": "Endpoint/187d935e-840e-5560-ad28-919ba6d25322"
      }
    ],
    "identifier": [
      {
        "system": "http://hl7.org/fhir/sid/us-npi",
        "value": "1922145788"
      }
    ],
    "address": [
      {
        "line": [
          "3201 Atlanta Industrial Parkway NW"
        ],
        "city": "ATLANTA",
        "state": "GA",
        "postalCode": "30331-1045"
      },
      {
        "line": [
          "1720 POWDER SPRINGS RD SW"
        ],
        "city": "MARIETTA",
        "state": "GA",
        "postalCode": "30064-4899"
      },
      {
        "line": [
          "550 PEACHTREE ST NE"
        ],
        "city": "ATLANTA",
        "state": "GA",
        "postalCode": "30308-2247"
      },
      {
        "line": [
          "72 APPALACHIAN AVE"
        ],
        "city": "BLAIRSVILLE",
        "state": "GA",
        "postalCode": "30512-2271"
      },
      {
        "line": [
          "7117 S SWEETWATER RD"
        ],
        "city": "LITHIA SPRINGS",
        "state": "GA",
        "postalCode": "30122-2446"
      },
      {
        "line": [
          "195 PARKWOOD CIRCLE"
        ],
        "city": "CARROLLTON",
        "state": "GA",
        "postalCode": "30117-8756"
      },
      {
        "line": [
          "418 Decatur Street",
          "Ste 8"
        ],
        "city": "ATLANTA",
        "state": "GA",
        "postalCode": "30312-1801"
      },
      {
        "line": [
          "4019 Johns Rd"
        ],
        "city": "DALLAS",
        "state": "GA",
        "postalCode": "30132-3420"
      },
      {
        "line": [
          "275 UPPER RIVERDALE RD SW",
          "STE B"
        ],
        "city": "RIVERDALE",
        "state": "GA",
        "postalCode": "30274-2556"
      },
      {
        "line": [
          "3372 Acworth Summit BLVD"
        ],
        "city": "ACWORTH",
        "state": "GA",
        "postalCode": "30101-5770"
      },
      {
        "line": [
          "540 Central Avenue, SW"
        ],
        "city": "ATLANTA",
        "state": "GA",
        "postalCode": "30312-2735"
      },
      {
        "line": [
          "11 Upper Riverdale RD SW"
        ],
        "city": "RIVERDALE",
        "state": "GA",
        "postalCode": "30274-2615"
      },
      {
        "line": [
          "120 PIEDMONT AVE NE"
        ],
        "city": "ATLANTA",
        "state": "GA",
        "postalCode": "30303-2445"
      },
      {
        "line": [
          "2001 PROFESSIONAL PKWY STE 100"
        ],
        "city": "WOODSTOCK",
        "state": "GA",
        "postalCode": "30188-6443"
      },
      {
        "line": [
          "500 NATHAN DEAN BLVD, Ste 102"
        ],
        "city": "DALLAS",
        "state": "GA",
        "postalCode": "30157-4911"
      },
      {
        "line": [
          "108 Redding Dr"
        ],
        "city": "BREMEN",
        "state": "GA",
        "postalCode": "30110-2283"
      },
      {
        "line": [
          "700 North Main Street"
        ],
        "city": "JASPER",
        "state": "GA",
        "postalCode": "30143-1404"
      },
      {
        "line": [
          "506 ROSWELL ST"
        ],
        "city": "MARIETTA",
        "state": "GA",
        "postalCode": "30060-4100"
      },
      {
        "line": [
          "2550 SANDY PLAINS RD"
        ],
        "city": "MARIETTA",
        "state": "GA",
        "postalCode": "30066-5700"
      },
      {
        "line": [
          "240 PONCE DE LEON AVE NE"
        ],
        "city": "ATLANTA",
        "state": "GA",
        "postalCode": "30308-1938"
      },
      {
        "line": [
          "450 Northside Cherokee Blvd"
        ],
        "city": "CANTON",
        "state": "GA",
        "postalCode": "30115-8015"
      },
      {
        "line": [
          "1150 LAKE HEARN DR NE STE 100"
        ],
        "city": "ATLANTA",
        "state": "GA",
        "postalCode": "30342-1566"
      },
      {
        "line": [
          "155 BRANDY WINE BLVD"
        ],
        "city": "FAYETTEVILLE",
        "state": "GA",
        "postalCode": "30214-7628"
      },
      {
        "line": [
          "1987 Candler Road"
        ],
        "city": "DECATUR",
        "state": "GA",
        "postalCode": "30032-4212"
      },
      {
        "line": [
          "181 UPPER RIVERDALE RD SW"
        ],
        "city": "RIVERDALE",
        "state": "GA",
        "postalCode": "30274-4919"
      },
      {
        "line": [
          "9559 Highway 5, Suite 1"
        ],
        "city": "DOUGLASVILLE",
        "state": "GA",
        "postalCode": "30135-1573"
      },
      {
        "line": [
          "3919 Atlanta Hwy"
        ],
        "city": "HIRAM",
        "state": "GA",
        "postalCode": "30141-1851"
      },
      {
        "line": [
          "315 Boulevard NE"
        ],
        "city": "ATLANTA",
        "state": "GA",
        "postalCode": "30312-1264"
      },
      {
        "line": [
          "195 Parkwood Circle"
        ],
        "city": "CARROLLTON",
        "state": "GA",
        "postalCode": "30117-8756"
      },
      {
        "line": [
          "2853 Candler Rd",
          "STE  203"
        ],
        "city": "DECATUR",
        "state": "GA",
        "postalCode": "30034-1421"
      },
      {
        "line": [
          "2700 HIGHLANDS PKWY SE"
        ],
        "city": "SMYRNA",
        "state": "GA",
        "postalCode": "30082-7250"
      },
      {
        "line": [
          "550 Peachtree St NE"
        ],
        "city": "ATLANTA",
        "state": "GA",
        "postalCode": "30308-2247"
      },
      {
        "line": [
          "4645 TIMBER RIDGE DR"
        ],
        "city": "DOUGLASVILLE",
        "state": "GA",
        "postalCode": "30135-7541"
      },
      {
        "line": [
          "1925 VAUGHN RD NW STE 150"
        ],
        "city": "KENNESAW",
        "state": "GA",
        "postalCode": "30144-4556"
      },
      {
        "line": [
          "260 A HOSPITAL RD"
        ],
        "city": "CANTON",
        "state": "GA",
        "postalCode": "30114-2409"
      },
      {
        "line": [
          "3602 Marathon Circle"
        ],
        "city": "AUSTELL",
        "state": "GA",
        "postalCode": "30106-6821"
      },
      {
        "line": [
          "677 Church Street NE"
        ],
        "city": "MARIETTA",
        "state": "GA",
        "postalCode": "30060-1101"
      },
      {
        "line": [
          "1886 STALLION PKWY SW"
        ],
        "city": "AUSTELL",
        "state": "GA",
        "postalCode": "30106-1957"
      },
      {
        "line": [
          "644 Antoine Street NW"
        ],
        "city": "ATLANTA",
        "state": "GA",
        "postalCode": "30318-7666"
      },
      {
        "line": [
          "2685 METROPOLITAN PKWY SW",
          "STE F"
        ],
        "city": "ATLANTA",
        "state": "GA",
        "postalCode": "30315-7926"
      },
      {
        "line": [
          "411 Hospital Rd"
        ],
        "city": "CANTON",
        "state": "GA",
        "postalCode": "30114-2413"
      },
      {
        "line": [
          "5235 Memorial Dr"
        ],
        "city": "STONE MOUNTAIN",
        "state": "GA",
        "postalCode": "30083-3112"
      },
      {
        "line": [
          "7301 Stonecrest Concourse",
          "STE 101"
        ],
        "city": "LITHONIA",
        "state": "GA",
        "postalCode": "30038-6902"
      },
      {
        "line": [
          "7444 Hannover Pkwy S",
          "STE 150"
        ],
        "city": "STOCKBRIDGE",
        "state": "GA",
        "postalCode": "30281-7847"
      },
      {
        "line": [
          "5665 PEACHTREE DUNWOODY RD"
        ],
        "city": "ATLANTA",
        "state": "GA",
        "postalCode": "30342-1701"
      },
      {
        "line": [
          "1380 VETERANS MEMORIAL HWY SW"
        ],
        "city": "MABLETON",
        "state": "GA",
        "postalCode": "30126-3112"
      },
      {
        "line": [
          "1968 PEACHTREE RD NW"
        ],
        "city": "ATLANTA",
        "state": "GA",
        "postalCode": "30309-1281"
      },
      {
        "line": [
          "1275 CLEVELAND AVE"
        ],
        "city": "EAST POINT",
        "state": "GA",
        "postalCode": "30344-3433"
      },
      {
        "line": [
          "5255 Snapfinger Park Drive"
        ],
        "city": "DECATUR",
        "state": "GA",
        "postalCode": "30035-4066"
      },
      {
        "line": [
          "380 FOREST PKWY STE C"
        ],
        "city": "FOREST PARK",
        "state": "GA",
        "postalCode": "30297-2107"
      },
      {
        "line": [
          "1392 BELLS FERRY RD"
        ],
        "city": "MARIETTA",
        "state": "GA",
        "postalCode": "30066-6084"
      },
      {
        "line": [
          "567 North Avenue NE",
          "Ste 200"
        ],
        "city": "ATLANTA",
        "state": "GA",
        "postalCode": "30308-2721"
      },
      {
        "line": [
          "130 PROSPECTOR DR"
        ],
        "city": "VILLA RICA",
        "state": "GA",
        "postalCode": "30180-1098"
      },
      {
        "line": [
          "11660 ALPHARETTA HWY STE 650"
        ],
        "city": "ROSWELL",
        "state": "GA",
        "postalCode": "30076-4968"
      },
      {
        "line": [
          "3138 GOLF RIDGE BLVD"
        ],
        "city": "DOUGLASVILLE",
        "state": "GA",
        "postalCode": "30135-1978"
      },
      {
        "line": [
          "2518 Jimmy Lee Smith Pkwy"
        ],
        "city": "HIRAM",
        "state": "GA",
        "postalCode": "30141-2068"
      },
      {
        "line": [
          "1720 Phoenix Pkwy"
        ],
        "city": "COLLEGE PARK",
        "state": "GA",
        "postalCode": "30349-5421"
      },
      {
        "line": [
          "567 NORTH AVE NE",
          "STE 200"
        ],
        "city": "ATLANTA",
        "state": "GA",
        "postalCode": "30308-2721"
      },
      {
        "line": [
          "2485 PARK CENTRAL BLVD"
        ],
        "city": "DECATUR",
        "state": "GA",
        "postalCode": "30035-3903"
      },
      {
        "line": [
          "303 PARKWAY DR NE"
        ],
        "city": "ATLANTA",
        "state": "GA",
        "postalCode": "30312-1212"
      },
      {
        "line": [
          "1170 Cleveland Ave"
        ],
        "city": "EAST POINT",
        "state": "GA",
        "postalCode": "30344-3615"
      },
      {
        "line": [
          "3950 AUSTELL RD"
        ],
        "city": "AUSTELL",
        "state": "GA",
        "postalCode": "30106-1121"
      },
      {
        "line": [
          "8954 Hospital Drive"
        ],
        "city": "DOUGLASVILLE",
        "state": "GA",
        "postalCode": "30134-2272"
      },
      {
        "line": [
          "2540 Flat Shoals Rd"
        ],
        "city": "ATLANTA",
        "state": "GA",
        "postalCode": "30349-4314"
      },
      {
        "line": [
          "1275 CLEVELAND AVE"
        ],
        "city": "ATLANTA",
        "state": "GA",
        "postalCode": "30344-3433"
      },
      {
        "line": [
          "1350 Montreal Rd",
          "STE 200"
        ],
        "city": "TUCKER",
        "state": "GA",
        "postalCode": "30084-8144"
      },
      {
        "line": [
          "121 Linden Ave NE"
        ],
        "city": "ATLANTA",
        "state": "GA",
        "postalCode": "30308-2432"
      },
      {
        "line": [
          "110 LONDONDERRY CT #100"
        ],
        "city": "WOODSTOCK",
        "state": "GA",
        "postalCode": "30188-7361"
      },
      {
        "line": [
          "1275 CLEVELAND AVENUE"
        ],
        "city": "East Point",
        "state": "GA",
        "postalCode": "30344-3433"
      },
      {
        "line": [
          "1170 Cleveland Ave",
          "4th Floor"
        ],
        "city": "ATLANTA",
        "state": "GA",
        "postalCode": "30344-3615"
      },
      {
        "line": [
          "3030 HEADLAND DR SW",
          "STE C"
        ],
        "city": "ATLANTA",
        "state": "GA",
        "postalCode": "30311-5435"
      },
      {
        "line": [
          "1279 HIGHWAY 54 W STE 110"
        ],
        "city": "FAYETTEVILLE",
        "state": "GA",
        "postalCode": "30214-4551"
      },
      {
        "line": [
          "5615 OLD NATIONAL HWY",
          "STE A"
        ],
        "city": "COLLEGE PARK",
        "state": "GA",
        "postalCode": "30349-3817"
      },
      {
        "line": [
          "705 DIXIE ST"
        ],
        "city": "CARROLLTON",
        "state": "GA",
        "postalCode": "30117-3818"
      },
      {
        "line": [
          "911 MARKET PLACE BLVD STE 3"
        ],
        "city": "CUMMING",
        "state": "GA",
        "postalCode": "30041-7938"
      },
      {
        "line": [
          "200 Cobb Pkwy",
          "Suite 318"
        ],
        "city": "MARIETTA",
        "state": "GA",
        "postalCode": "30062-3558"
      },
      {
        "line": [
          "6851 SHANNON PKWY STE 200"
        ],
        "city": "UNION CITY",
        "state": "GA",
        "postalCode": "30291-2049"
      },
      {
        "line": [
          "114 DUNN ST"
        ],
        "city": "MCDONOUGH",
        "state": "GA",
        "postalCode": "30253-2347"
      },
      {
        "line": [
          "4880 LOWER ROSWELL RD STE 770"
        ],
        "city": "MARIETTA",
        "state": "GA",
        "postalCode": "30068-4453"
      },
      {
        "line": [
          "449 INDUSTRIAL BLVD STE 240"
        ],
        "city": "ELLIJAY",
        "state": "GA",
        "postalCode": "30540-6724"
      },
      {
        "line": [
          "231 14TH ST NW"
        ],
        "city": "ATLANTA",
        "state": "GA",
        "postalCode": "30318-5361"
      },
      {
        "line": [
          "3620 MARTIN LUTHER KING JR DR SW"
        ],
        "city": "ATLANTA",
        "state": "GA",
        "postalCode": "30331-3711"
      },
      {
        "line": [
          "350 BOULEVARD SE"
        ],
        "city": "ATLANTA",
        "state": "GA",
        "postalCode": "30312-3352"
      },
      {
        "line": [
          "2701 N Decatur Rd"
        ],
        "city": "DECATUR",
        "state": "GA",
        "postalCode": "30033-5918"
      },
      {
        "line": [
          "260 B HOSPITAL RD"
        ],
        "city": "CANTON",
        "state": "GA",
        "postalCode": "30114-2409"
      },
      {
        "line": [
          "1840 Southern Lane"
        ],
        "city": "DECATUR",
        "state": "GA",
        "postalCode": "30033-4033"
      },
      {
        "line": [
          "1267 HIGHWAY 54 WEST STE 1600"
        ],
        "city": "FAYETTEVILLE",
        "state": "GA",
        "postalCode": "30214-2114"
      },
      {
        "line": [
          "3492 WASHINGTON RD STE 400"
        ],
        "city": "ATLANTA",
        "state": "GA",
        "postalCode": "30344-5615"
      },
      {
        "line": [
          "157 CLINIC AVE STE 102"
        ],
        "city": "CARROLLTON",
        "state": "GA",
        "postalCode": "30117-4454"
      },
      {
        "line": [
          "941 Progress Rd"
        ],
        "city": "ELLIJAY",
        "state": "GA",
        "postalCode": "30540-5599"
      },
      {
        "line": [
          "601 Dallas Hwy"
        ],
        "city": "VILLA RICA",
        "state": "GA",
        "postalCode": "30180-1202"
      },
      {
        "line": [
          "3546 Hwy 138 SE"
        ],
        "city": "STOCKBRIDGE",
        "state": "GA",
        "postalCode": "30281-4170"
      },
      {
        "line": [
          "3865 Medical Park Drive"
        ],
        "city": "AUSTELL",
        "state": "GA",
        "postalCode": "30106-1109"
      },
      {
        "line": [
          "2721 Irvin Way"
        ],
        "city": "DECATUR",
        "state": "GA",
        "postalCode": "30030-1720"
      },
      {
        "line": [
          "418 Decatur ST SE"
        ],
        "city": "ATLANTA",
        "state": "GA",
        "postalCode": "30312-1801"
      },
      {
        "line": [
          "558 MEDLOCK BRIDGE RD"
        ],
        "city": "DECATUR",
        "state": "GA",
        "postalCode": "30030-6603"
      },
      {
        "line": [
          "4110 AUSTELL POWDER SPRINGS RD"
        ],
        "city": "POWDER SPRINGS",
        "state": "GA",
        "postalCode": "30127-2953"
      },
      {
        "line": [
          "1757 Candler RD"
        ],
        "city": "DECATUR",
        "state": "GA",
        "postalCode": "30032-3276"
      },
      {
        "line": [
          "22 EXECUTIVE PARK WEST NE STE 2200"
        ],
        "city": "ATLANTA",
        "state": "GA",
        "postalCode": "30329-2211"
      },
      {
        "line": [
          "3899 LONGVIEW DR"
        ],
        "city": "DOUGLASVILLE",
        "state": "GA",
        "postalCode": "30135-1373"
      },
      {
        "line": [
          "705 Juniper Street"
        ],
        "city": "ATLANTA",
        "state": "GA",
        "postalCode": "30308-1307"
      },
      {
        "line": [
          "870 NORTHSIDE DR STE 300"
        ],
        "city": "ATLANTA",
        "state": "GA",
        "postalCode": "30318-8499"
      },
      {
        "line": [
          "231 14TH STREET NW"
        ],
        "city": "ATLANTA",
        "state": "GA",
        "postalCode": "30318-5361"
      }
    ],
    "extension": [
      {
        "url": "https://fhir.athena.io/StructureDefinition/ah-practice",
        "valueReference": {
          "reference": "Organization/a-1.Practice-16594"
        }
      },
      {
        "url": "https://fhir.athena.io/StructureDefinition/ah-brand",
        "valueReference": {
          "reference": "Organization/a-16594.Brand-1"
        }
      }
    ]
  },
  "fullUrl": "urn:uuid:70a765c8-70f8-5650-8b0b-66eb71e4c40e"
}