{
  "resource": {
    "resourceType": "Organization",
    "id": "37d9f333-ba35-5436-99f3-780c44b37d0c",
    "name": "ORTHOPAEDIC INSTITUTE OF HENDERSON",
    "endpoint": [
      {
        "reference": "Endpoint/27a4e967-47aa-5a9c-a572-b8297ee268a2"
      },
      {
        "reference": "Endpoint/2a487d73-1c2b-55fb-847f-3aa19611626f"
      }
    ],
    "identifier": [
      {
        "system": "http://hl7.org/fhir/sid/us-npi",
        "value": "1447269014"
      }
    ],
    "address": [
      {
        "line": [
          "123 MAIN ST"
        ],
        "city": "LAS VEGAS",
        "state": "NV",
        "postalCode": "89117-8898"
      },
      {
        "line": [
          "6351 N FT APACHE RD"
        ],
        "city": "LAS VEGAS",
        "state": "NV",
        "postalCode": "89149-2300"
      },
      {
        "line": [
          "2860 N TENAYA WAY"
        ],
        "city": "LAS VEGAS",
        "state": "NV",
        "postalCode": "89128-0431"
      },
      {
        "line": [
          "5840 SUNSET RD"
        ],
        "city": "LAS VEGAS",
        "state": "NV",
        "postalCode": "89118-3449"
      },
      {
        "line": [
          "1155 RAIDERS WAY"
        ],
        "city": "HENDERSON",
        "state": "NV",
        "postalCode": "89052-4670"
      },
      {
        "line": [
          "2855 W HORIZON RIDGE PKWY"
        ],
        "city": "HENDERSON",
        "state": "NV",
        "postalCode": "89052-4394"
      },
      {
        "line": [
          "10561 JEFFREYS ST",
          "STE 130"
        ],
        "city": "HENDERSON",
        "state": "NV",
        "postalCode": "89052-4267"
      },
      {
        "line": [
          "2401 PASEO DEL PRADO"
        ],
        "city": "LAS VEGAS",
        "state": "NV",
        "postalCode": "89102-4363"
      },
      {
        "line": [
          "4015 MCLEOD DR"
        ],
        "city": "LAS VEGAS",
        "state": "NV",
        "postalCode": "89121-4305"
      },
      {
        "line": [
          "3001 ST ROSE PKWY"
        ],
        "city": "HENDERSON",
        "state": "NV",
        "postalCode": "89052-3839"
      },
      {
        "line": [
          "100 DELMAR GARDENS DR"
        ],
        "city": "HENDERSON",
        "state": "NV",
        "postalCode": "89074-3216"
      },
      {
        "line": [
          "2035 W CHARLESTON BLVD"
        ],
        "city": "LAS VEGAS",
        "state": "NV",
        "postalCode": "89102-2223"
      },
      {
        "line": [
          "2350 IONE RD"
        ],
        "city": "LAS VEGAS",
        "state": "NV",
        "postalCode": "89183-7943"
      },
      {
        "line": [
          "9175 W OQUENDO DR"
        ],
        "city": "LAS VEGAS",
        "state": "NV",
        "postalCode": "89148-1234"
      },
      {
        "line": [
          "1050 W GALLERIA DR"
        ],
        "city": "HENDERSON",
        "state": "NV",
        "postalCode": "89011-4800"
      },
      {
        "line": [
          "10561 JEFFREYS ST",
          "STE 230"
        ],
        "city": "HENDERSON",
        "state": "NV",
        "postalCode": "89052-4268"
      },
      {
        "line": [
          "6650 GRAND MONTECITO PKWY"
        ],
        "city": "LAS VEGAS",
        "state": "NV",
        "postalCode": "89149-0210"
      },
      {
        "line": [
          "10301 JEFFREYS ST"
        ],
        "city": "HENDERSON",
        "state": "NV",
        "postalCode": "89052-3922"
      },
      {
        "line": [
          "3041 W HORIZON RIDGE PKWY",
          "STE 140"
        ],
        "city": "HENDERSON",
        "state": "NV",
        "postalCode": "89052-4445"
      },
      {
        "line": [
          "100 VETERANS MEMORIAL DR"
        ],
        "city": "BOULDER CITY",
        "state": "NV",
        "postalCode": "89005-1926"
      },
      {
        "line": [
          "2930 SIENA HEIGHTS DR"
        ],
        "city": "HENDERSON",
        "state": "NV",
        "postalCode": "89052-3871"
      },
      {
        "line": [
          "150 W GALLERIA DR"
        ],
        "city": "HENDERSON",
        "state": "NV",
        "postalCode": "89011-4800"
      },
      {
        "line": [
          "8352 W WARM SPRINGS RD",
          "STE 110"
        ],
        "city": "LAS VEGAS",
        "state": "NV",
        "postalCode": "89113-3629"
      },
      {
        "line": [
          "1500 W WARM SPRINGS"
        ],
        "city": "HENDERSON",
        "state": "NV",
        "postalCode": "89014-3586"
      },
      {
        "line": [
          "6352 MEDICAL CENTER ST"
        ],
        "city": "LAS VEGAS",
        "state": "NV",
        "postalCode": "89148-2413"
      },
      {
        "line": [
          "8656 W PATRICK LN",
          "ATTN ACCTS PAYABLE"
        ],
        "city": "LAS VEGAS",
        "state": "NV",
        "postalCode": "89148-5043"
      },
      {
        "line": [
          "6166 NORTH DURANGO DR"
        ],
        "city": "LAS VEGAS",
        "state": "NV",
        "postalCode": "89149-3133"
      },
      {
        "line": [
          "10550 PARK RUN DR"
        ],
        "city": "LAS VEGAS",
        "state": "NV",
        "postalCode": "89144-4575"
      },
      {
        "line": [
          "2832 S MARYLAND PKWY"
        ],
        "city": "LAS VEGAS",
        "state": "NV",
        "postalCode": "89109-1502"
      },
      {
        "line": [
          "1701 S TORREY PINES DR"
        ],
        "city": "LAS VEGAS",
        "state": "NV",
        "postalCode": "89146-2999"
      },
      {
        "line": [
          "9300 W SUNSET RD"
        ],
        "city": "LAS VEGAS",
        "state": "NV",
        "postalCode": "89148-4844"
      },
      {
        "line": [
          "8550 S EASTERN AVE"
        ],
        "city": "LAS VEGAS",
        "state": "NV",
        "postalCode": "89123-2835"
      },
      {
        "line": [
          "1180 E LAKE MEAD PKWY"
        ],
        "city": "HENDERSON",
        "state": "NV",
        "postalCode": "89015-5561"
      },
      {
        "line": [
          "3455 PECOS MCLEOD"
        ],
        "city": "LAS VEGAS",
        "state": "NV",
        "postalCode": "89121-3802"
      },
      {
        "line": [
          "1285 E CACTUS AVE"
        ],
        "city": "LAS VEGAS",
        "state": "NV",
        "postalCode": "89183-7714"
      },
      {
        "line": [
          "100 N GREEN VALLEY PKWY",
          "STE 125"
        ],
        "city": "HENDERSON",
        "state": "NV",
        "postalCode": "89074-6392"
      }
    ],
    "extension": [
      {
        "url": "https://fhir.athena.io/StructureDefinition/ah-practice",
        "valueReference": {
          "reference": "Organization/a-1.Practice-22165"
        }
      },
      {
        "url": "https://fhir.athena.io/StructureDefinition/ah-brand",
        "valueReference": {
          "reference": "Organization/a-22165.Brand-1"
        }
      }
    ]
  },
  "fullUrl": "urn:uuid:37d9f333-ba35-5436-99f3-780c44b37d0c"
}