{
  "resource": {
    "resourceType": "Organization",
    "id": "bcbb920f-be9b-51d9-a635-740588c6c946",
    "name": "Border Kidney Specialist, PA",
    "endpoint": [
      {
        "reference": "Endpoint/27a4e967-47aa-5a9c-a572-b8297ee268a2"
      },
      {
        "reference": "Endpoint/bab1e5ee-8446-5776-b847-37de8e505506"
      }
    ],
    "identifier": [
      {
        "system": "http://hl7.org/fhir/sid/us-npi",
        "value": "1801242458"
      }
    ],
    "address": [
      {
        "line": [
          "1382 LOMALAND",
          "SUITE A"
        ],
        "city": "EL PASO",
        "state": "TX",
        "postalCode": "79935-5204"
      },
      {
        "line": [
          "1382 Lomaland Dr Suite A"
        ],
        "city": "EL PASO",
        "state": "TX",
        "postalCode": "79935-5204"
      },
      {
        "line": [
          "3100 North Stanton St Suite B"
        ],
        "city": "EL PASO",
        "state": "TX",
        "postalCode": "79902-2310"
      },
      {
        "line": [
          "11169 SEAN HAGGERTY DR"
        ],
        "city": "EL PASO",
        "state": "TX",
        "postalCode": "79934-3385"
      },
      {
        "line": [
          "5800 WOODROW BEAN DR"
        ],
        "city": "EL PASO",
        "state": "TX",
        "postalCode": "79924-1111"
      },
      {
        "line": [
          "600 NEWMAN STREET"
        ],
        "city": "EL PASO",
        "state": "TX",
        "postalCode": "79902-5543"
      },
      {
        "line": [
          "10301 GATEWAY WEST"
        ],
        "city": "EL PASO",
        "state": "TX",
        "postalCode": "79925-7701"
      },
      {
        "line": [
          "10767 GATEWAY WEST"
        ],
        "city": "EL PASO",
        "state": "TX",
        "postalCode": "79935-4918"
      },
      {
        "line": [
          "10737 GATEWAY BLVD W",
          "#100"
        ],
        "city": "EL PASO",
        "state": "TX",
        "postalCode": "79935-4910"
      },
      {
        "line": [
          "12245 ROJAS DR"
        ],
        "city": "EL PASO",
        "state": "TX",
        "postalCode": "79936-7750"
      },
      {
        "line": [
          "4815 ALAMEDA AVE."
        ],
        "city": "EL PASO",
        "state": "TX",
        "postalCode": "79905-2705"
      },
      {
        "line": [
          "7933 NORTH MESA"
        ],
        "city": "EL PASO",
        "state": "TX",
        "postalCode": "79932-1699"
      },
      {
        "line": [
          "2700 N. STANTON ST"
        ],
        "city": "EL PASO",
        "state": "TX",
        "postalCode": "79902-2500"
      },
      {
        "line": [
          "10737 GATEWAY WEST"
        ],
        "city": "EL PASO",
        "state": "TX",
        "postalCode": "79935-4910"
      },
      {
        "line": [
          "2000 Transmountain"
        ],
        "city": "EL PASO",
        "state": "TX",
        "postalCode": "79911-3601"
      },
      {
        "line": [
          "1310 Murchinson Drive Suite C"
        ],
        "city": "EL PASO",
        "state": "TX",
        "postalCode": "79902-4840"
      },
      {
        "line": [
          "10420 VISTA DEL SOL",
          "SUITE 201"
        ],
        "city": "EL PASO",
        "state": "TX",
        "postalCode": "79925-7919"
      },
      {
        "line": [
          "2204 Joe Battle Blvd"
        ],
        "city": "EL PASO",
        "state": "TX",
        "postalCode": "79938-4660"
      },
      {
        "line": [
          "1416 GEORGE DIETER DR"
        ],
        "city": "EL PASO",
        "state": "TX",
        "postalCode": "79936-7601"
      }
    ],
    "extension": [
      {
        "url": "https://fhir.athena.io/StructureDefinition/ah-practice",
        "valueReference": {
          "reference": "Organization/a-1.Practice-13852"
        }
      },
      {
        "url": "https://fhir.athena.io/StructureDefinition/ah-brand",
        "valueReference": {
          "reference": "Organization/a-13852.Brand-1"
        }
      }
    ]
  },
  "fullUrl": "urn:uuid:bcbb920f-be9b-51d9-a635-740588c6c946"
}