{
  "resource": {
    "resourceType": "Organization",
    "id": "8276f0d3-13b4-5905-9d15-a6217ac18d5e",
    "name": "ADVANCED RENAL CARE ARC",
    "endpoint": [
      {
        "reference": "Endpoint/27a4e967-47aa-5a9c-a572-b8297ee268a2"
      },
      {
        "reference": "Endpoint/55142c7c-f3ec-5b5a-87d2-986984dbdd4c"
      }
    ],
    "identifier": [
      {
        "system": "http://hl7.org/fhir/sid/us-npi",
        "value": "1780684795"
      }
    ],
    "address": [
      {
        "line": [
          "3116 N FEDERAL HWY"
        ],
        "city": "POMPANO BEACH",
        "state": "FL",
        "postalCode": "33064-6738"
      },
      {
        "line": [
          "1871 N PINE ISLAND RD"
        ],
        "city": "FORT LAUDERDALE",
        "state": "FL",
        "postalCode": "33322-5208"
      },
      {
        "line": [
          "5200 VIRGINIA WAY"
        ],
        "city": "BRENTWOOD",
        "state": "TN",
        "postalCode": "37027-7569"
      },
      {
        "line": [
          "7467 W SAMPLE RD"
        ],
        "city": "POMPANO BEACH",
        "state": "FL",
        "postalCode": "33065-4754"
      },
      {
        "line": [
          "6264 N FEDERAL HWY"
        ],
        "city": "FORT LAUDERDALE",
        "state": "FL",
        "postalCode": "33308-1904"
      },
      {
        "line": [
          "7061 CYPRESS RD"
        ],
        "city": "FORT LAUDERDALE",
        "state": "FL",
        "postalCode": "33317-2243"
      },
      {
        "line": [
          "2916 N STATE ROAD 7"
        ],
        "city": "FORT LAUDERDALE",
        "state": "FL",
        "postalCode": "33313-1912"
      },
      {
        "line": [
          "3250 N STATE ROAD 7"
        ],
        "city": "FORT LAUDERDALE",
        "state": "FL",
        "postalCode": "33319-5615"
      },
      {
        "line": [
          "20170 PINES BLVD # 100"
        ],
        "city": "HOLLYWOOD",
        "state": "FL",
        "postalCode": "33029-1259"
      },
      {
        "line": [
          "1299 E COMMERCIAL BLVD STE 100"
        ],
        "city": "FORT LAUDERDALE",
        "state": "FL",
        "postalCode": "33334-4806"
      },
      {
        "line": [
          "22 SW 11TH ST"
        ],
        "city": "HALLANDALE",
        "state": "FL",
        "postalCode": "33009-7065"
      },
      {
        "line": [
          "4500 INVERRARY BLVD"
        ],
        "city": "FORT LAUDERDALE",
        "state": "FL",
        "postalCode": "33319-4104"
      },
      {
        "line": [
          "1600 S ANDREWS AVE"
        ],
        "city": "FORT LAUDERDALE",
        "state": "FL",
        "postalCode": "33316-2510"
      },
      {
        "line": [
          "2727 W DR MARTIN LUTHER KING JR BLVD STE 100"
        ],
        "city": "TAMPA",
        "state": "FL",
        "postalCode": "33607-6353"
      },
      {
        "line": [
          "201 E SAMPLE RD"
        ],
        "city": "POMPANO BEACH",
        "state": "FL",
        "postalCode": "33064-3502"
      },
      {
        "line": [
          "10725 WILES RD"
        ],
        "city": "POMPANO BEACH",
        "state": "FL",
        "postalCode": "33076-2014"
      },
      {
        "line": [
          "4805 NW 183RD ST"
        ],
        "city": "OPA LOCKA",
        "state": "FL",
        "postalCode": "33055-2955"
      },
      {
        "line": [
          "1301S S ANDREWS AVE"
        ],
        "city": "FORT LAUDERDALE",
        "state": "FL",
        "postalCode": "33316-1837"
      },
      {
        "line": [
          "3863 W BROWARD BLVD"
        ],
        "city": "FORT LAUDERDALE",
        "state": "FL",
        "postalCode": "33312-1017"
      },
      {
        "line": [
          "1516 E LAS OLAS BLVD"
        ],
        "city": "FORT LAUDERDALE",
        "state": "FL",
        "postalCode": "33301-2346"
      },
      {
        "line": [
          "3785 NW 82ND AVE"
        ],
        "city": "MIAMI",
        "state": "FL",
        "postalCode": "33166-6655"
      },
      {
        "line": [
          "19559 NE 10TH AVE"
        ],
        "city": "MIAMI",
        "state": "FL",
        "postalCode": "33179-3501"
      },
      {
        "line": [
          "4401 HOLLYWOOD BLVD"
        ],
        "city": "HOLLYWOOD",
        "state": "FL",
        "postalCode": "33021-6609"
      },
      {
        "line": [
          "911 E OAKLAND PARK BLVD"
        ],
        "city": "FORT LAUDERDALE",
        "state": "FL",
        "postalCode": "33334-2725"
      },
      {
        "line": [
          "600 SW 3RD ST STE 1100"
        ],
        "city": "POMPANO BEACH",
        "state": "FL",
        "postalCode": "33060-6936"
      },
      {
        "line": [
          "200 SW NATURA AVE"
        ],
        "city": "DEERFIELD BEACH",
        "state": "FL",
        "postalCode": "33441-3026"
      },
      {
        "line": [
          "1301 S ANDREWS AVE"
        ],
        "city": "FORT LAUDERDALE",
        "state": "FL",
        "postalCode": "33316-1823"
      },
      {
        "line": [
          "1346 SW 3RD CT"
        ],
        "city": "FORT LAUDERDALE",
        "state": "FL",
        "postalCode": "33312-7591"
      },
      {
        "line": [
          "17913 NW 7TH ST STE 104"
        ],
        "city": "HOLLYWOOD",
        "state": "FL",
        "postalCode": "33029-2811"
      }
    ],
    "extension": [
      {
        "url": "https://fhir.athena.io/StructureDefinition/ah-practice",
        "valueReference": {
          "reference": "Organization/a-1.Practice-16880"
        }
      },
      {
        "url": "https://fhir.athena.io/StructureDefinition/ah-brand",
        "valueReference": {
          "reference": "Organization/a-16880.Brand-6"
        }
      }
    ]
  },
  "fullUrl": "urn:uuid:8276f0d3-13b4-5905-9d15-a6217ac18d5e"
}