{
  "resource": {
    "resourceType": "Organization",
    "id": "6c8de2ed-3cc1-547f-9399-b37392007c9b",
    "name": "Dr. Samantha Goodman",
    "endpoint": [
      {
        "reference": "Endpoint/27a4e967-47aa-5a9c-a572-b8297ee268a2"
      },
      {
        "reference": "Endpoint/7a4b4865-b2a8-5b68-9905-29f7b4941b58"
      }
    ],
    "identifier": [
      {
        "system": "http://hl7.org/fhir/sid/us-npi",
        "value": "1295334936"
      }
    ],
    "address": [
      {
        "line": [
          "1450 E NORTH 10TH ST"
        ],
        "city": "ABILENE",
        "state": "TX",
        "postalCode": "79601-4641"
      },
      {
        "line": [
          "3926 SOUTH TREADWAY BLVD",
          "SUITE B2"
        ],
        "city": "ABILENE",
        "state": "TX",
        "postalCode": "79602-6939"
      },
      {
        "line": [
          "1900 PINE ST"
        ],
        "city": "ABILENE",
        "state": "TX",
        "postalCode": "79601-4352"
      },
      {
        "line": [
          "6250 US HIGHWAY 83 84"
        ],
        "city": "ABILENE",
        "state": "TX",
        "postalCode": "79606-5299"
      },
      {
        "line": [
          "5 Hospital Dr."
        ],
        "city": "ABILENE",
        "state": "TX",
        "postalCode": "79606-5222"
      },
      {
        "line": [
          "3926 S Treadaway",
          "Suite B2"
        ],
        "city": "ABILENE",
        "state": "TX",
        "postalCode": "79602-6939"
      },
      {
        "line": [
          "3202 S Willis St",
          "Building B"
        ],
        "city": "ABILENE",
        "state": "TX",
        "postalCode": "79605-6650"
      },
      {
        "line": [
          "1201 CLARKS DR"
        ],
        "city": "ABILENE",
        "state": "TX",
        "postalCode": "79602-3146"
      },
      {
        "line": [
          "6568 Central Park Blvd"
        ],
        "city": "ABILENE",
        "state": "TX",
        "postalCode": "79606-5885"
      }
    ],
    "extension": [
      {
        "url": "https://fhir.athena.io/StructureDefinition/ah-practice",
        "valueReference": {
          "reference": "Organization/a-1.Practice-22760"
        }
      },
      {
        "url": "https://fhir.athena.io/StructureDefinition/ah-brand",
        "valueReference": {
          "reference": "Organization/a-22760.Brand-1"
        }
      }
    ]
  },
  "fullUrl": "urn:uuid:6c8de2ed-3cc1-547f-9399-b37392007c9b"
}