{
  "resource": {
    "resourceType": "Organization",
    "id": "74c945c5-b3fc-5764-8b8d-228b21f6ad1c",
    "name": "Toccoa Clinic Medical Assoc.",
    "endpoint": [
      {
        "reference": "Endpoint/27a4e967-47aa-5a9c-a572-b8297ee268a2"
      },
      {
        "reference": "Endpoint/bbcbd4c7-f38b-5a72-b48b-a22e035ecbd7"
      }
    ],
    "identifier": [
      {
        "system": "http://hl7.org/fhir/sid/us-npi",
        "value": "1710186168"
      },
      {
        "system": "http://hl7.org/fhir/sid/us-npi",
        "value": "1114127107"
      },
      {
        "system": "http://hl7.org/fhir/sid/us-npi",
        "value": "1306036892"
      },
      {
        "system": "http://hl7.org/fhir/sid/us-npi",
        "value": "1831398270"
      },
      {
        "system": "http://hl7.org/fhir/sid/us-npi",
        "value": "1568662245"
      },
      {
        "system": "http://hl7.org/fhir/sid/us-npi",
        "value": "1609896885"
      }
    ],
    "address": [
      {
        "line": [
          "30 COTTONWOOD ST"
        ],
        "city": "CLAYTON",
        "state": "GA",
        "postalCode": "30525-4295"
      },
      {
        "line": [
          "Patients' Home"
        ],
        "city": "TOCCOA",
        "state": "GA",
        "postalCode": "30577-6017"
      },
      {
        "line": [
          "30 Cottonwood St"
        ],
        "city": "CLAYTON",
        "state": "GA",
        "postalCode": "30525-4295"
      },
      {
        "line": [
          "274 Big A Rd"
        ],
        "city": "TOCCOA",
        "state": "GA",
        "postalCode": "30577-6002"
      },
      {
        "line": [
          "58 Big A Road"
        ],
        "city": "TOCCOA",
        "state": "GA",
        "postalCode": "30577-6017"
      },
      {
        "line": [
          "30 Cottonwood Street"
        ],
        "city": "CLAYTON",
        "state": "GA",
        "postalCode": "30525-4295"
      },
      {
        "line": [
          "58 Big A RD"
        ],
        "city": "TOCCOA",
        "state": "GA",
        "postalCode": "30577-6017"
      },
      {
        "line": [
          "12192 Augusta Road"
        ],
        "city": "LAVONIA",
        "state": "GA",
        "postalCode": "30553-1209"
      },
      {
        "line": [
          "274 Big A Road"
        ],
        "city": "TOCCOA",
        "state": "GA",
        "postalCode": "30577-6002"
      }
    ],
    "extension": [
      {
        "url": "https://fhir.athena.io/StructureDefinition/ah-practice",
        "valueReference": {
          "reference": "Organization/a-1.Practice-239"
        }
      },
      {
        "url": "https://fhir.athena.io/StructureDefinition/ah-brand",
        "valueReference": {
          "reference": "Organization/a-239.Brand-1"
        }
      }
    ]
  },
  "fullUrl": "urn:uuid:74c945c5-b3fc-5764-8b8d-228b21f6ad1c"
}