{
  "resource": {
    "resourceType": "Organization",
    "id": "06805578-86f5-5e14-bcd3-fe9be5632684",
    "name": "ARCH CITY FOOT & ANKLE, PC",
    "endpoint": [
      {
        "reference": "Endpoint/27a4e967-47aa-5a9c-a572-b8297ee268a2"
      },
      {
        "reference": "Endpoint/36ee06ef-ae0e-513a-b7e0-cb99ba6ce99a"
      }
    ],
    "identifier": [
      {
        "system": "http://hl7.org/fhir/sid/us-npi",
        "value": "1922137322"
      }
    ],
    "address": [
      {
        "line": [
          "521 NORTH VIRGINIA AVENUE"
        ],
        "city": "EUREKA",
        "state": "MO",
        "postalCode": "63025-1115"
      },
      {
        "line": [
          "105 South 6th Street"
        ],
        "city": "PACIFIC",
        "state": "MO",
        "postalCode": "63069-1328"
      },
      {
        "line": [
          "10018 KENNERLY ROAD"
        ],
        "city": "SAINT LOUIS",
        "state": "MO",
        "postalCode": "63128-2106"
      },
      {
        "line": [
          "105 S 6TH street"
        ],
        "city": "PACIFIC",
        "state": "MO",
        "postalCode": "63069-1328"
      },
      {
        "line": [
          "550 WHITE ROAD"
        ],
        "city": "CHESTERFIELD",
        "state": "MO",
        "postalCode": "63017-2316"
      },
      {
        "line": [
          "1015 BOWLES AVENUE"
        ],
        "city": "FENTON",
        "state": "MO",
        "postalCode": "63026-2394"
      },
      {
        "line": [],
        "city": "EUREKA",
        "state": "MO",
        "postalCode": "63025-1115"
      },
      {
        "line": [
          "13612 BIG BEND ROAD"
        ],
        "city": "VALLEY PARK",
        "state": "MO",
        "postalCode": "63088-1447"
      },
      {
        "line": [
          "1108 Olive Street",
          "SUITE 100"
        ],
        "city": "SAINT LOUIS",
        "state": "MO",
        "postalCode": "63101-1992"
      },
      {
        "line": [
          "4930 LINDELL BLVD"
        ],
        "city": "SAINT LOUIS",
        "state": "MO",
        "postalCode": "63108-1510"
      },
      {
        "line": [
          "3380 LAKE BEND DRIVE"
        ],
        "city": "VALLEY PARK",
        "state": "MO",
        "postalCode": "63088-1447"
      },
      {
        "line": [
          "12184 NATURAL BRIDGE ROAD"
        ],
        "city": "BRIDGETON",
        "state": "MO",
        "postalCode": "63044-2017"
      },
      {
        "line": [
          "5400 EXECTIVE CENTER PARKWAY"
        ],
        "city": "SAINT PETERS",
        "state": "MO",
        "postalCode": "63376-2594"
      },
      {
        "line": [
          "1035 PLAZA COURT NORTH"
        ],
        "city": "SAINT CLAIR",
        "state": "MO",
        "postalCode": "63077-1129"
      },
      {
        "line": [
          "10010 KENNERLY ROAD"
        ],
        "city": "SAINT LOUIS",
        "state": "MO",
        "postalCode": "63128-2106"
      }
    ],
    "extension": [
      {
        "url": "https://fhir.athena.io/StructureDefinition/ah-practice",
        "valueReference": {
          "reference": "Organization/a-1.Practice-7074"
        }
      },
      {
        "url": "https://fhir.athena.io/StructureDefinition/ah-brand",
        "valueReference": {
          "reference": "Organization/a-7074.Brand-1"
        }
      }
    ]
  },
  "fullUrl": "urn:uuid:06805578-86f5-5e14-bcd3-fe9be5632684"
}