{
  "resource": {
    "resourceType": "Organization",
    "id": "d8123dd3-573e-5eea-810f-92eb1a48a9d2",
    "name": "AHA_IN_OF_ADVANCED HEALTHCARE ASSOC IN",
    "endpoint": [
      {
        "reference": "Endpoint/27a4e967-47aa-5a9c-a572-b8297ee268a2"
      },
      {
        "reference": "Endpoint/a2f01448-f091-516a-bd6b-ad9899c8644f"
      }
    ],
    "identifier": [
      {
        "system": "http://hl7.org/fhir/sid/us-npi",
        "value": "1841225091"
      },
      {
        "system": "http://hl7.org/fhir/sid/us-npi",
        "value": "1962821223"
      },
      {
        "system": "http://hl7.org/fhir/sid/us-npi",
        "value": "1740715507"
      },
      {
        "system": "http://hl7.org/fhir/sid/us-npi",
        "value": "1073059523"
      },
      {
        "system": "http://hl7.org/fhir/sid/us-npi",
        "value": "1134117393"
      },
      {
        "system": "http://hl7.org/fhir/sid/us-npi",
        "value": "1205888237"
      },
      {
        "system": "http://hl7.org/fhir/sid/us-npi",
        "value": "1255655023"
      },
      {
        "system": "http://hl7.org/fhir/sid/us-npi",
        "value": "1063608701"
      },
      {
        "system": "http://hl7.org/fhir/sid/us-npi",
        "value": "1508288531"
      },
      {
        "system": "http://hl7.org/fhir/sid/us-npi",
        "value": "1467883934"
      }
    ],
    "address": [
      {
        "line": [
          "4700 Quinn Dr"
        ],
        "city": "LOUISVILLE",
        "state": "KY",
        "postalCode": "40216-2943"
      },
      {
        "line": [
          "5825 Harrison Boulevard"
        ],
        "city": "OGDEN",
        "state": "UT",
        "postalCode": "84403-4316"
      },
      {
        "line": [
          "8700 Sudley Rd"
        ],
        "city": "MANASSAS",
        "state": "VA",
        "postalCode": "20110-4418"
      },
      {
        "line": [
          "8401 Market Street"
        ],
        "city": "YOUNGSTOWN",
        "state": "OH",
        "postalCode": "44512-6777"
      },
      {
        "line": [
          "1600 Medical Parkway"
        ],
        "city": "CARSON CITY",
        "state": "NV",
        "postalCode": "89703-4625"
      },
      {
        "line": [
          "501 Sunset Lane"
        ],
        "city": "CULPEPER",
        "state": "VA",
        "postalCode": "22701-3917"
      },
      {
        "line": [
          "1600 Medical Parkway"
        ],
        "city": "CARSON CITY",
        "state": "NV",
        "postalCode": "89703-4624"
      },
      {
        "line": [
          "100 Hospital Rd"
        ],
        "city": "PRINCE FREDERICK",
        "state": "MD",
        "postalCode": "20678-4017"
      },
      {
        "line": [
          "525 East Market Street"
        ],
        "city": "AKRON",
        "state": "OH",
        "postalCode": "44304-1619"
      },
      {
        "line": [
          "200 Memorial Avenue"
        ],
        "city": "WESTMINSTER",
        "state": "MD",
        "postalCode": "21157-5726"
      },
      {
        "line": [
          "3580 West 9000 South"
        ],
        "city": "WEST JORDAN",
        "state": "UT",
        "postalCode": "84088-8812"
      },
      {
        "line": [
          "3834 South Emerson Ave",
          "Bldg C Suite 100"
        ],
        "city": "INDIANAPOLIS",
        "state": "IN",
        "postalCode": "46203-5902"
      },
      {
        "line": [
          "24440 Stone Springs Blvd"
        ],
        "city": "DULLES",
        "state": "VA",
        "postalCode": "20166-2247"
      },
      {
        "line": [
          "15225 Heathcote Blvd"
        ],
        "city": "HAYMARKET",
        "state": "VA",
        "postalCode": "20169-6264"
      },
      {
        "line": [
          "1025 Center St"
        ],
        "city": "ASHLAND",
        "state": "OH",
        "postalCode": "44805-4011"
      },
      {
        "line": [
          "5 Garrett Ave"
        ],
        "city": "LA PLATA",
        "state": "MD",
        "postalCode": "20646-5960"
      },
      {
        "line": [
          "200 Memorial Ave"
        ],
        "city": "WESTMINSTER",
        "state": "MD",
        "postalCode": "21157-5726"
      },
      {
        "line": [
          "100 Hospital Road"
        ],
        "city": "PRINCE FREDERICK",
        "state": "MD",
        "postalCode": "20678-7649"
      },
      {
        "line": [
          "444 North Main Street"
        ],
        "city": "AKRON",
        "state": "OH",
        "postalCode": "44310-3110"
      },
      {
        "line": [
          "1600 Medical Parkway"
        ],
        "city": "Carson City",
        "state": "NV",
        "postalCode": "89703-4624"
      }
    ],
    "extension": [
      {
        "url": "https://fhir.athena.io/StructureDefinition/ah-practice",
        "valueReference": {
          "reference": "Organization/a-1.Practice-18378"
        }
      },
      {
        "url": "https://fhir.athena.io/StructureDefinition/ah-brand",
        "valueReference": {
          "reference": "Organization/a-18378.Brand-1"
        }
      }
    ]
  },
  "fullUrl": "urn:uuid:d8123dd3-573e-5eea-810f-92eb1a48a9d2"
}