{
  "resource": {
    "resourceType": "Organization",
    "id": "cab0d735-7de2-5231-ab10-d73ffcbdc904",
    "name": "Royale foot and ankle",
    "endpoint": [
      {
        "reference": "Endpoint/27a4e967-47aa-5a9c-a572-b8297ee268a2"
      },
      {
        "reference": "Endpoint/6462db9d-6149-5be7-8117-d8dec61cb14b"
      }
    ],
    "identifier": [
      {
        "system": "http://hl7.org/fhir/sid/us-npi",
        "value": "1376046276"
      }
    ],
    "address": [
      {
        "line": [
          "825 RIVERVIEW DR"
        ],
        "city": "TOTOWA",
        "state": "NJ",
        "postalCode": "07512-1119"
      },
      {
        "line": [
          "55 MEADOWLANDS PKWY"
        ],
        "city": "SECAUCUS",
        "state": "NJ",
        "postalCode": "07094-2977"
      },
      {
        "line": [
          "7823 BERGENLINE AVE 2FL"
        ],
        "city": "NORTH BERGEN",
        "state": "NJ",
        "postalCode": "07047-4942"
      },
      {
        "line": [
          "30 PROSPECT AVE"
        ],
        "city": "HACKENSACK",
        "state": "NJ",
        "postalCode": "07601-1915"
      },
      {
        "line": [
          "444 MARKET ST"
        ],
        "city": "SADDLE BROOK",
        "state": "NJ",
        "postalCode": "07663-5996"
      },
      {
        "line": [
          "436 STATE ROUTE 79,",
          "UNIT 21"
        ],
        "city": "MORGANVILLE",
        "state": "NJ",
        "postalCode": "07751-9783"
      },
      {
        "line": [
          "2052 RICHMOND RD"
        ],
        "city": "STATEN ISLAND",
        "state": "NY",
        "postalCode": "10306-2514"
      },
      {
        "line": [
          "20 BREAKNECK RD"
        ],
        "city": "OAKLAND",
        "state": "NJ",
        "postalCode": "07436-2402"
      },
      {
        "line": [
          "75 S DEAN ST"
        ],
        "city": "ENGLEWOOD",
        "state": "NJ",
        "postalCode": "07631-3512"
      }
    ],
    "extension": [
      {
        "url": "https://fhir.athena.io/StructureDefinition/ah-practice",
        "valueReference": {
          "reference": "Organization/a-1.Practice-18501"
        }
      },
      {
        "url": "https://fhir.athena.io/StructureDefinition/ah-brand",
        "valueReference": {
          "reference": "Organization/a-18501.Brand-1"
        }
      }
    ]
  },
  "fullUrl": "urn:uuid:cab0d735-7de2-5231-ab10-d73ffcbdc904"
}