{
  "resource": {
    "resourceType": "Organization",
    "id": "c862cfbe-24c2-5d52-bd2b-677ecc685416",
    "name": "RELYMD VIRTUAL HEALTH CA PC",
    "endpoint": [
      {
        "reference": "Endpoint/27a4e967-47aa-5a9c-a572-b8297ee268a2"
      },
      {
        "reference": "Endpoint/fa97ebcd-ea2a-5e71-b52d-a1fc3b07b5f7"
      }
    ],
    "identifier": [
      {
        "system": "http://hl7.org/fhir/sid/us-npi",
        "value": "1194515106"
      }
    ],
    "address": [
      {
        "line": [
          "22724 BRANDYWINE DR"
        ],
        "city": "CALABASAS",
        "state": "CA",
        "postalCode": "91302-5735"
      },
      {
        "line": [
          "114 HUDSON CIRCLE"
        ],
        "city": "SUNSET",
        "state": "SC",
        "postalCode": "29685-2003"
      },
      {
        "line": [
          "45-327 KA HANAHOU CIRCLE"
        ],
        "city": "KANEOHE",
        "state": "HI",
        "postalCode": "96744-3012"
      },
      {
        "line": [
          "3788 ORANGE LANE"
        ],
        "city": "BOULDER",
        "state": "CO",
        "postalCode": "80304-0777"
      },
      {
        "line": [
          "22400 Barton RD",
          "#21-301"
        ],
        "city": "GRAND TERRACE",
        "state": "CA",
        "postalCode": "92313-5030"
      },
      {
        "line": [
          "65 KATO DRIVE"
        ],
        "city": "SUDBURY",
        "state": "MA",
        "postalCode": "01776-2446"
      },
      {
        "line": [
          "9667 CRYSTAL BEACH ROAD"
        ],
        "city": "HAMMONDSPORT",
        "state": "NY",
        "postalCode": "14840-9341"
      },
      {
        "line": [
          "2405 MASSACHUSETTS AVENUE"
        ],
        "city": "LEMON GROVE",
        "state": "CA",
        "postalCode": "91945-3135"
      },
      {
        "line": [
          "19108 WINSLOW TERRACE"
        ],
        "city": "BOCA RATON",
        "state": "FL",
        "postalCode": "33434-5546"
      },
      {
        "line": [
          "6645 APACHE ROAD"
        ],
        "city": "JOHNSTOWN",
        "state": "CO",
        "postalCode": "80534-8290"
      },
      {
        "line": [
          "395 MICHEL CIRCLE"
        ],
        "city": "SANTA CLARA",
        "state": "UT",
        "postalCode": "84765-5626"
      },
      {
        "line": [
          "5829 WISSANHICKON AVENUE"
        ],
        "city": "PHILADELPHIA",
        "state": "PA",
        "postalCode": "19144-4446"
      },
      {
        "line": [
          "3461 SW 25TH STREET",
          "UNIT A"
        ],
        "city": "MIAMI",
        "state": "FL",
        "postalCode": "33133-2035"
      },
      {
        "line": [
          "518 JULIA ST"
        ],
        "city": "NEW ORLEANS",
        "state": "LA",
        "postalCode": "70130-3624"
      },
      {
        "line": [
          "2641 State St APT W4"
        ],
        "city": "SANTA BARBARA",
        "state": "CA",
        "postalCode": "93105-5513"
      },
      {
        "line": [
          "3935 LANIPILI PLACE"
        ],
        "city": "HONOLULU",
        "state": "HI",
        "postalCode": "96816-3911"
      },
      {
        "line": [
          "1200 QUEEN EMMA ST",
          "UNIT 1607"
        ],
        "city": "HONOLULU",
        "state": "HI",
        "postalCode": "96813-6300"
      },
      {
        "line": [
          "144 MAUNALANIKAI PLACE"
        ],
        "city": "HONOLULU",
        "state": "HI",
        "postalCode": "96816-3954"
      },
      {
        "line": [
          "94-159 HOKULELE PL"
        ],
        "city": "MILILANI",
        "state": "HI",
        "postalCode": "96789-2343"
      },
      {
        "line": [
          "525 GLEN IRIS DR NE",
          "UNIT #3509"
        ],
        "city": "ATLANTA",
        "state": "GA",
        "postalCode": "30308-2985"
      },
      {
        "line": [
          "43355 STADIUM TERRACE"
        ],
        "city": "ASHBURN",
        "state": "VA",
        "postalCode": "20148-7587"
      },
      {
        "line": [
          "22 MERRITT AVE"
        ],
        "city": "CRESSKILL",
        "state": "NJ",
        "postalCode": "07626-2420"
      },
      {
        "line": [
          "4807 MATSONIA DRIVE"
        ],
        "city": "HONOLULU",
        "state": "HI",
        "postalCode": "96816-4040"
      },
      {
        "line": [
          "1122 2ND AVENUE",
          "APARTMENT D"
        ],
        "city": "HONOLULU",
        "state": "HI",
        "postalCode": "96816-5846"
      }
    ],
    "extension": [
      {
        "url": "https://fhir.athena.io/StructureDefinition/ah-practice",
        "valueReference": {
          "reference": "Organization/a-1.Practice-14272"
        }
      },
      {
        "url": "https://fhir.athena.io/StructureDefinition/ah-brand",
        "valueReference": {
          "reference": "Organization/a-14272.Brand-223"
        }
      }
    ]
  },
  "fullUrl": "urn:uuid:c862cfbe-24c2-5d52-bd2b-677ecc685416"
}