{
  "resource": {
    "resourceType": "Organization",
    "id": "11d58f92-ac88-5421-8161-26a2b2bcf5bc",
    "name": "Dr. Phillips",
    "endpoint": [
      {
        "reference": "Endpoint/27a4e967-47aa-5a9c-a572-b8297ee268a2"
      },
      {
        "reference": "Endpoint/7b8edef7-eb5c-567b-90bd-5305e89cb868"
      }
    ],
    "identifier": [
      {
        "system": "http://hl7.org/fhir/sid/us-npi",
        "value": "1669983201"
      }
    ],
    "address": [
      {
        "line": [
          "6700 I-10"
        ],
        "city": "SAN ANTONIO",
        "state": "TX",
        "postalCode": "78201-2009"
      },
      {
        "line": [
          "3333 Research Plaza"
        ],
        "city": "SAN ANTONIO",
        "state": "TX",
        "postalCode": "78235-5154"
      },
      {
        "line": [
          "1310 Mccullough Ave"
        ],
        "city": "SAN ANTONIO",
        "state": "TX",
        "postalCode": "78212-5601"
      },
      {
        "line": [
          "111 Dallas"
        ],
        "city": "SAN ANTONIO",
        "state": "TX",
        "postalCode": "78205-1230"
      },
      {
        "line": [
          "7930 Floyd Curl Drive"
        ],
        "city": "SAN ANTONIO",
        "state": "TX",
        "postalCode": "78229-3925"
      },
      {
        "line": [
          "414 Navarro St"
        ],
        "city": "SAN ANTONIO",
        "state": "TX",
        "postalCode": "78205-2516"
      },
      {
        "line": [
          "1303 MCCOLLOUGH AVE",
          "STE 166"
        ],
        "city": "SAN ANTONIO",
        "state": "TX",
        "postalCode": "78212-5603"
      },
      {
        "line": [
          "1303 MCCULLOUGH AVE",
          "STE 166"
        ],
        "city": "SAN ANTONIO",
        "state": "TX",
        "postalCode": "78212-5603"
      },
      {
        "line": [
          "9522 Huebner Rd"
        ],
        "city": "SAN ANTONIO",
        "state": "TX",
        "postalCode": "78240-1548"
      },
      {
        "line": [
          "111 Dallas St"
        ],
        "city": "SAN ANTONIO",
        "state": "TX",
        "postalCode": "78205-1230"
      },
      {
        "line": [
          "9522 HUEBNER RD"
        ],
        "city": "SAN ANTONIO",
        "state": "TX",
        "postalCode": "78240-1548"
      },
      {
        "line": [
          "1310 McCullough Ave."
        ],
        "city": "SAN ANTONIO",
        "state": "TX",
        "postalCode": "78212-5601"
      },
      {
        "line": [
          "423 Treeline Park"
        ],
        "city": "SAN ANTONIO",
        "state": "TX",
        "postalCode": "78209-2046"
      },
      {
        "line": [
          "1310 McCullough Ave"
        ],
        "city": "SAN ANTONIO",
        "state": "TX",
        "postalCode": "78212-5601"
      },
      {
        "line": [
          "403 Treeline Park"
        ],
        "city": "SAN ANTONIO",
        "state": "TX",
        "postalCode": "78209-2046"
      }
    ],
    "extension": [
      {
        "url": "https://fhir.athena.io/StructureDefinition/ah-practice",
        "valueReference": {
          "reference": "Organization/a-1.Practice-16645"
        }
      },
      {
        "url": "https://fhir.athena.io/StructureDefinition/ah-brand",
        "valueReference": {
          "reference": "Organization/a-16645.Brand-1"
        }
      }
    ]
  },
  "fullUrl": "urn:uuid:11d58f92-ac88-5421-8161-26a2b2bcf5bc"
}