{
  "resource": {
    "resourceType": "Organization",
    "id": "d5b10d80-7c3f-57f2-a91e-70e1b1a711fe",
    "name": "Advanced Urology",
    "endpoint": [
      {
        "reference": "Endpoint/27a4e967-47aa-5a9c-a572-b8297ee268a2"
      },
      {
        "reference": "Endpoint/f84e6d07-76aa-5c4d-a4f1-bf2b1a4fee15"
      }
    ],
    "identifier": [
      {
        "system": "http://hl7.org/fhir/sid/us-npi",
        "value": "1720032105"
      }
    ],
    "address": [
      {
        "line": [
          "38 Hospital Drive",
          "Level 2"
        ],
        "city": "LOGAN",
        "state": "WV",
        "postalCode": "25601-3452"
      },
      {
        "line": [
          "79 Hospital Drive"
        ],
        "city": "LOGAN",
        "state": "WV",
        "postalCode": "25601-3451"
      },
      {
        "line": [
          "1690 Holden Road",
          "1st Floor"
        ],
        "city": "LOGAN",
        "state": "WV",
        "postalCode": "25601-7026"
      },
      {
        "line": [
          "258 Hanging Rock Hwy",
          "Suite 1"
        ],
        "city": "LOGAN",
        "state": "WV",
        "postalCode": "25601-5113"
      },
      {
        "line": [
          "38 Hospital Drive",
          "1st Floor"
        ],
        "city": "LOGAN",
        "state": "WV",
        "postalCode": "25601-3452"
      },
      {
        "line": [
          "77 Hospital Drive",
          "1st Floor"
        ],
        "city": "LOGAN",
        "state": "WV",
        "postalCode": "25601-3451"
      },
      {
        "line": [
          "77 Hospital Drive",
          "3rd Floor"
        ],
        "city": "LOGAN",
        "state": "WV",
        "postalCode": "25601-3451"
      },
      {
        "line": [
          "1690 Holden Road",
          "2nd Floor"
        ],
        "city": "LOGAN",
        "state": "WV",
        "postalCode": "25601-7026"
      },
      {
        "line": [
          "555 Main Street"
        ],
        "city": "CHAPMANVILLE",
        "state": "WV",
        "postalCode": "25508-4406"
      },
      {
        "line": [
          "38 Hospital Drive",
          "Basement Level"
        ],
        "city": "LOGAN",
        "state": "WV",
        "postalCode": "25601-3452"
      }
    ],
    "extension": [
      {
        "url": "https://fhir.athena.io/StructureDefinition/ah-practice",
        "valueReference": {
          "reference": "Organization/a-1.Practice-20211"
        }
      },
      {
        "url": "https://fhir.athena.io/StructureDefinition/ah-brand",
        "valueReference": {
          "reference": "Organization/a-20211.Brand-1"
        }
      }
    ]
  },
  "fullUrl": "urn:uuid:d5b10d80-7c3f-57f2-a91e-70e1b1a711fe"
}