{
  "resource": {
    "resourceType": "Organization",
    "id": "7e21767d-0e87-5b10-bf27-e391b5eaf390",
    "name": "Lynchburg Internal Medicine",
    "endpoint": [
      {
        "reference": "Endpoint/27a4e967-47aa-5a9c-a572-b8297ee268a2"
      },
      {
        "reference": "Endpoint/11e4e34c-43dc-5017-a50c-a33caca32a9d"
      }
    ],
    "identifier": [
      {
        "system": "http://hl7.org/fhir/sid/us-npi",
        "value": "1649228966"
      },
      {
        "system": "http://hl7.org/fhir/sid/us-npi",
        "value": "1013031368"
      },
      {
        "system": "http://hl7.org/fhir/sid/us-npi",
        "value": "1285931089"
      },
      {
        "system": "http://hl7.org/fhir/sid/us-npi",
        "value": "1932402484"
      }
    ],
    "address": [
      {
        "line": [
          "1901 THOMSON DRIVE"
        ],
        "city": "LYNCHBURG",
        "state": "VA",
        "postalCode": "24501-1026"
      },
      {
        "line": [
          "501 VES ROAD"
        ],
        "city": "LYNCHBURG",
        "state": "VA",
        "postalCode": "24503-4638"
      },
      {
        "line": [
          "3300 RIVERMONT AVENUE"
        ],
        "city": "LYNCHBURG",
        "state": "VA",
        "postalCode": "24503-2030"
      },
      {
        "line": [
          "1901 TATE SPRINGS ROAD"
        ],
        "city": "LYNCHBURG",
        "state": "VA",
        "postalCode": "24501-1109"
      },
      {
        "line": [
          "173 Brockman Park Drive"
        ],
        "city": "AMHERST",
        "state": "VA",
        "postalCode": "24521-2583"
      },
      {
        "line": [
          "1901TATE SPRINGS ROAD"
        ],
        "city": "LYNCHBURG",
        "state": "VA",
        "postalCode": "24501-1109"
      },
      {
        "line": [
          "1900 Tate Springs Road",
          "Suite 3"
        ],
        "city": "LYNCHBURG",
        "state": "VA",
        "postalCode": "24501-1115"
      },
      {
        "line": [
          "2200 LANDOVER PLACE"
        ],
        "city": "LYNCHBURG",
        "state": "VA",
        "postalCode": "24501-2116"
      },
      {
        "line": [
          "1902 GRACE STREET"
        ],
        "city": "LYNCHBURG",
        "state": "VA",
        "postalCode": "24504-3524"
      }
    ],
    "extension": [
      {
        "url": "https://fhir.athena.io/StructureDefinition/ah-practice",
        "valueReference": {
          "reference": "Organization/a-1.Practice-221"
        }
      },
      {
        "url": "https://fhir.athena.io/StructureDefinition/ah-brand",
        "valueReference": {
          "reference": "Organization/a-221.Brand-1"
        }
      }
    ]
  },
  "fullUrl": "urn:uuid:7e21767d-0e87-5b10-bf27-e391b5eaf390"
}