{
  "resource": {
    "resourceType": "Organization",
    "id": "a18c4d64-47c5-5314-b1dd-1c85c53eac2b",
    "name": "DIGNITY EVR",
    "endpoint": [
      {
        "reference": "Endpoint/27a4e967-47aa-5a9c-a572-b8297ee268a2"
      },
      {
        "reference": "Endpoint/03c2d26f-3a52-5d48-8de9-2db12ddf06cb"
      }
    ],
    "identifier": [
      {
        "system": "http://hl7.org/fhir/sid/us-npi",
        "value": "1104857143"
      }
    ],
    "address": [
      {
        "line": [
          "4530 EAST MUIRWOOD DRIVE",
          "SUITE 111"
        ],
        "city": "PHOENIX",
        "state": "AZ",
        "postalCode": "85048-7693"
      },
      {
        "line": [
          "4001 N 3RD ST STE 290"
        ],
        "city": "PHOENIX",
        "state": "AZ",
        "postalCode": "85012-2071"
      },
      {
        "line": [
          "8415 N PIMA RD STE 175"
        ],
        "city": "SCOTTSDALE",
        "state": "AZ",
        "postalCode": "85258-4484"
      },
      {
        "line": [
          "5422 W THUNDERBIRD RD STE 13"
        ],
        "city": "GLENDALE",
        "state": "AZ",
        "postalCode": "85306-4717"
      },
      {
        "line": [
          "1955 W Frye Rd"
        ],
        "city": "CHANDLER",
        "state": "AZ",
        "postalCode": "85224-6282"
      },
      {
        "line": [
          "1515 W CHANDLER BLVD"
        ],
        "city": "CHANDLER",
        "state": "AZ",
        "postalCode": "85224-6141"
      },
      {
        "line": [
          "9130 E ELLIOT RD"
        ],
        "city": "MESA",
        "state": "AZ",
        "postalCode": "85212-9675"
      },
      {
        "line": [
          "1919 E MCKELLIPS RD # 102"
        ],
        "city": "MESA",
        "state": "AZ",
        "postalCode": "85203-2844"
      },
      {
        "line": [
          "7500 N DREAMY DRAW DR STE 133"
        ],
        "city": "PHOENIX",
        "state": "AZ",
        "postalCode": "85020-4668"
      },
      {
        "line": [
          "4530 E MUIRWOOD DR",
          "STE 111"
        ],
        "city": "PHOENIX",
        "state": "AZ",
        "postalCode": "85048-7693"
      },
      {
        "line": [
          "7054 E Cochise rd. # B230"
        ],
        "city": "Scottsdale",
        "state": "AZ",
        "postalCode": "85253-4546"
      },
      {
        "line": [
          "3555 S Val Vista Dr"
        ],
        "city": "GILBERT",
        "state": "AZ",
        "postalCode": "85297-7323"
      }
    ],
    "extension": [
      {
        "url": "https://fhir.athena.io/StructureDefinition/ah-practice",
        "valueReference": {
          "reference": "Organization/a-1.Practice-8409"
        }
      },
      {
        "url": "https://fhir.athena.io/StructureDefinition/ah-brand",
        "valueReference": {
          "reference": "Organization/a-8409.Brand-1"
        }
      }
    ]
  },
  "fullUrl": "urn:uuid:a18c4d64-47c5-5314-b1dd-1c85c53eac2b"
}