{
  "resource": {
    "resourceType": "Organization",
    "id": "47295b44-a65b-5afe-8b25-243cd935e639",
    "name": "Homeward",
    "endpoint": [
      {
        "reference": "Endpoint/27a4e967-47aa-5a9c-a572-b8297ee268a2"
      },
      {
        "reference": "Endpoint/d4827eb9-df72-5174-aeb9-e1da6afde694"
      }
    ],
    "identifier": [
      {
        "system": "http://hl7.org/fhir/sid/us-npi",
        "value": "1538828314"
      }
    ],
    "address": [
      {
        "line": [
          "2627 E BELTLINE AVE SE STE 220"
        ],
        "city": "GRAND RAPIDS",
        "state": "MI",
        "postalCode": "49546-5937"
      },
      {
        "line": [
          "4133 IOWA ST"
        ],
        "city": "ALEXANDRIA",
        "state": "MN",
        "postalCode": "56308-3316"
      },
      {
        "line": [
          "71 S FRONT ST"
        ],
        "city": "GRANT",
        "state": "MI",
        "postalCode": "49327-9701"
      },
      {
        "line": [
          "1414 W FAIR AVE STE 242"
        ],
        "city": "MARQUETTE",
        "state": "MI",
        "postalCode": "49855-5406"
      },
      {
        "line": [
          "126 COLLEGE ST STE A"
        ],
        "city": "BATTLE CREEK",
        "state": "MI",
        "postalCode": "49037-3461"
      },
      {
        "line": [
          "208 WAITE AVE S"
        ],
        "city": "SAINT CLOUD",
        "state": "MN",
        "postalCode": "56301-7336"
      },
      {
        "line": [
          "804 N 16TH ST"
        ],
        "city": "Montevideo",
        "state": "MN",
        "postalCode": "56265-3064"
      },
      {
        "line": [
          "114 Kidder Street SE"
        ],
        "city": "LITTLE FALLS",
        "state": "MN",
        "postalCode": "56345-5388"
      },
      {
        "line": [
          "836 CENTENNIAL WAY"
        ],
        "city": "LANSING",
        "state": "MI",
        "postalCode": "48917-8237"
      }
    ],
    "extension": [
      {
        "url": "https://fhir.athena.io/StructureDefinition/ah-practice",
        "valueReference": {
          "reference": "Organization/a-1.Practice-26566"
        }
      },
      {
        "url": "https://fhir.athena.io/StructureDefinition/ah-brand",
        "valueReference": {
          "reference": "Organization/a-26566.Brand-1"
        }
      }
    ]
  },
  "fullUrl": "urn:uuid:47295b44-a65b-5afe-8b25-243cd935e639"
}