{
  "resource": {
    "resourceType": "Organization",
    "id": "eab7a355-a8d6-5024-9f61-8db3985eb73a",
    "name": "YMCA of Greater Boston",
    "endpoint": [
      {
        "reference": "Endpoint/27a4e967-47aa-5a9c-a572-b8297ee268a2"
      },
      {
        "reference": "Endpoint/abb5f7d5-468e-5806-be46-fb2282afef02"
      }
    ],
    "identifier": [
      {
        "system": "http://hl7.org/fhir/sid/us-npi",
        "value": "1407399504"
      }
    ],
    "address": [
      {
        "line": [
          "285 Martin Luther King Blvd"
        ],
        "city": "ROXBURY",
        "state": "MA",
        "postalCode": "02119-1809"
      },
      {
        "line": [
          "8 Oak St West"
        ],
        "city": "BOSTON",
        "state": "MA",
        "postalCode": "02116-5602"
      },
      {
        "line": [
          "863 Great Plain Ave"
        ],
        "city": "NEEDHAM",
        "state": "MA",
        "postalCode": "02492-3048"
      },
      {
        "line": [
          "3134 Washington St"
        ],
        "city": "ROXBURY",
        "state": "MA",
        "postalCode": "02119-3115"
      },
      {
        "line": [
          "18 Tremont Street"
        ],
        "city": "BOSTON",
        "state": "MA",
        "postalCode": "02108-2301"
      },
      {
        "line": [
          "1137 River St"
        ],
        "city": "HYDE PARK",
        "state": "MA",
        "postalCode": "02136-2916"
      },
      {
        "line": [
          "316 Huntington Ave"
        ],
        "city": "BOSTON",
        "state": "MA",
        "postalCode": "02115-5019"
      },
      {
        "line": [
          "137 Lexington St"
        ],
        "city": "WOBURN",
        "state": "MA",
        "postalCode": "01801-4746"
      },
      {
        "line": [
          "215 Bremen St"
        ],
        "city": "BOSTON",
        "state": "MA",
        "postalCode": "02128-1782"
      },
      {
        "line": [
          "615 Washington St"
        ],
        "city": "BRIGHTON",
        "state": "MA",
        "postalCode": "02135-2547"
      },
      {
        "line": [
          "144 Gov Wentworth Highway"
        ],
        "city": "MIRROR LAKE",
        "state": "NH",
        "postalCode": "03853-1234"
      },
      {
        "line": [
          "725 Lexington St"
        ],
        "city": "WALTHAM",
        "state": "MA",
        "postalCode": "02452-4858"
      },
      {
        "line": [
          "36 Arthur B Lord Dr"
        ],
        "city": "READING",
        "state": "MA",
        "postalCode": "01867-1622"
      },
      {
        "line": [
          "1972 Centre St"
        ],
        "city": "WEST ROXBURY",
        "state": "MA",
        "postalCode": "02132-2613"
      },
      {
        "line": [
          "776 Washington St"
        ],
        "city": "DORCHESTER CENTER",
        "state": "MA",
        "postalCode": "02124-4424"
      },
      {
        "line": [
          "150 Third Avenue"
        ],
        "city": "CHARLESTOWN",
        "state": "MA",
        "postalCode": "02129-2016"
      }
    ],
    "extension": [
      {
        "url": "https://fhir.athena.io/StructureDefinition/ah-practice",
        "valueReference": {
          "reference": "Organization/a-1.Practice-14268"
        }
      },
      {
        "url": "https://fhir.athena.io/StructureDefinition/ah-brand",
        "valueReference": {
          "reference": "Organization/a-14268.Brand-1"
        }
      }
    ]
  },
  "fullUrl": "urn:uuid:eab7a355-a8d6-5024-9f61-8db3985eb73a"
}