{
  "resource": {
    "resourceType": "Organization",
    "id": "479cbad0-453b-5286-a2a2-5f9fbbe3eb54",
    "name": "Consultants In Infectious Diseases",
    "endpoint": [
      {
        "reference": "Endpoint/27a4e967-47aa-5a9c-a572-b8297ee268a2"
      },
      {
        "reference": "Endpoint/99c44eb6-11a0-5905-aed3-7ae676a456a3"
      }
    ],
    "identifier": [
      {
        "system": "http://hl7.org/fhir/sid/us-npi",
        "value": "1992906655"
      }
    ],
    "address": [
      {
        "line": [
          "1270 TURNER ST"
        ],
        "city": "CLEARWATER",
        "state": "FL",
        "postalCode": "33756-5921"
      },
      {
        "line": [
          "300 PINELLAS ST"
        ],
        "city": "CLEARWATER",
        "state": "FL",
        "postalCode": "33756-3804"
      },
      {
        "line": [
          "6500 38TH AVE N"
        ],
        "city": "SAINT PETERSBURG",
        "state": "FL",
        "postalCode": "33710-1629"
      },
      {
        "line": [
          "201 14TH ST SW"
        ],
        "city": "LARGO",
        "state": "FL",
        "postalCode": "33770-3133"
      },
      {
        "line": [
          "3030 6TH ST S"
        ],
        "city": "SAINT PETERSBURG",
        "state": "FL",
        "postalCode": "33705-3720"
      },
      {
        "line": [
          "5670 54TH AVE N STE A-1"
        ],
        "city": "SAINT PETERSBURG",
        "state": "FL",
        "postalCode": "33709-2067"
      },
      {
        "line": [
          "1061 Virginia St"
        ],
        "city": "DUNEDIN",
        "state": "FL",
        "postalCode": "34698-7326"
      },
      {
        "line": [
          "601 MAIN ST"
        ],
        "city": "DUNEDIN",
        "state": "FL",
        "postalCode": "34698-5848"
      },
      {
        "line": [
          "2851 Tampa Rd"
        ],
        "city": "PALM HARBOR",
        "state": "FL",
        "postalCode": "34684-3314"
      },
      {
        "line": [
          "870 Patricia Ave"
        ],
        "city": "DUNEDIN",
        "state": "FL",
        "postalCode": "34698-6022"
      },
      {
        "line": [
          "1200 7TH AVE N"
        ],
        "city": "SAINT PETERSBURG",
        "state": "FL",
        "postalCode": "33705-1300"
      },
      {
        "line": [
          "3480 McMullen Booth Rd"
        ],
        "city": "CLEARWATER",
        "state": "FL",
        "postalCode": "33761-1421"
      },
      {
        "line": [
          "901 Clearwater Largo Rd N"
        ],
        "city": "LARGO",
        "state": "FL",
        "postalCode": "33770-4126"
      },
      {
        "line": [
          "400 CORBETT ST"
        ],
        "city": "CLEARWATER",
        "state": "FL",
        "postalCode": "33756-3344"
      },
      {
        "line": [
          "6000 49TH ST N"
        ],
        "city": "SAINT PETERSBURG",
        "state": "FL",
        "postalCode": "33709-2114"
      },
      {
        "line": [
          "3231 MCMULLEN BOOTH RD"
        ],
        "city": "SAFETY HARBOR",
        "state": "FL",
        "postalCode": "34695-6607"
      },
      {
        "line": [
          "1111 S Highland Ave"
        ],
        "city": "CLEARWATER",
        "state": "FL",
        "postalCode": "33756-4432"
      },
      {
        "line": [
          "3825 Countryside Blvd"
        ],
        "city": "PALM HARBOR",
        "state": "FL",
        "postalCode": "34684-4928"
      }
    ],
    "extension": [
      {
        "url": "https://fhir.athena.io/StructureDefinition/ah-practice",
        "valueReference": {
          "reference": "Organization/a-1.Practice-18668"
        }
      },
      {
        "url": "https://fhir.athena.io/StructureDefinition/ah-brand",
        "valueReference": {
          "reference": "Organization/a-18668.Brand-1"
        }
      }
    ]
  },
  "fullUrl": "urn:uuid:479cbad0-453b-5286-a2a2-5f9fbbe3eb54"
}