{
  "resource": {
    "resourceType": "Organization",
    "id": "8f74512b-6192-5357-9981-b8e75c1732cf",
    "name": "Hockomock Area YMCA",
    "endpoint": [
      {
        "reference": "Endpoint/27a4e967-47aa-5a9c-a572-b8297ee268a2"
      },
      {
        "reference": "Endpoint/abb5f7d5-468e-5806-be46-fb2282afef02"
      }
    ],
    "identifier": [
      {
        "system": "http://hl7.org/fhir/sid/us-npi",
        "value": "1689815383"
      }
    ],
    "address": [
      {
        "line": [
          "900 Main Street"
        ],
        "city": "MILLIS",
        "state": "MA",
        "postalCode": "02054-1512"
      },
      {
        "line": [
          "40 Blackstone Street"
        ],
        "city": "BELLINGHAM",
        "state": "MA",
        "postalCode": "02019-1602"
      },
      {
        "line": [
          "29 Church Street"
        ],
        "city": "HUDSON",
        "state": "MA",
        "postalCode": "01749-2105"
      },
      {
        "line": [
          "300 Elmwood St"
        ],
        "city": "NORTH ATTLEBORO",
        "state": "MA",
        "postalCode": "02760-1304"
      },
      {
        "line": [
          "15 Freedom Way"
        ],
        "city": "FRANKLIN",
        "state": "MA",
        "postalCode": "02038-2586"
      },
      {
        "line": [
          "42 Cape Road"
        ],
        "city": "MILFORD",
        "state": "MA",
        "postalCode": "01757-3292"
      },
      {
        "line": [
          "75 Central St."
        ],
        "city": "FOXBORO",
        "state": "MA",
        "postalCode": "02035-2406"
      },
      {
        "line": [
          "4 Valente Drive"
        ],
        "city": "WESTBOROUGH",
        "state": "MA",
        "postalCode": "01581-2876"
      },
      {
        "line": [
          "301 Washington Street"
        ],
        "city": "PLAINVILLE",
        "state": "MA",
        "postalCode": "02762-1314"
      },
      {
        "line": [
          "45 Forge Hill Road"
        ],
        "city": "FRANKLIN",
        "state": "MA",
        "postalCode": "02038-3100"
      },
      {
        "line": [
          "67 Mechanic St"
        ],
        "city": "FOXBORO",
        "state": "MA",
        "postalCode": "02035-2012"
      },
      {
        "line": [
          "40 Balcom St"
        ],
        "city": "MANSFIELD",
        "state": "MA",
        "postalCode": "02048-2009"
      },
      {
        "line": [
          "400 Taunton Street"
        ],
        "city": "WRENTHAM",
        "state": "MA",
        "postalCode": "02093-1379"
      },
      {
        "line": [
          "12 Highland Street"
        ],
        "city": "WHITINSVILLE",
        "state": "MA",
        "postalCode": "01588-1111"
      },
      {
        "line": [
          "1 Ice House Road"
        ],
        "city": "MEDFIELD",
        "state": "MA",
        "postalCode": "02052-1544"
      },
      {
        "line": [
          "204 Main St"
        ],
        "city": "MILFORD",
        "state": "MA",
        "postalCode": "01757-2507"
      },
      {
        "line": [
          "45 Forge Hill Rd"
        ],
        "city": "FRANKLIN",
        "state": "MA",
        "postalCode": "02038-3100"
      },
      {
        "line": [
          "10 Daniel McCahill Street"
        ],
        "city": "FRANKLIN",
        "state": "MA",
        "postalCode": "02038-1878"
      }
    ],
    "extension": [
      {
        "url": "https://fhir.athena.io/StructureDefinition/ah-practice",
        "valueReference": {
          "reference": "Organization/a-1.Practice-14268"
        }
      },
      {
        "url": "https://fhir.athena.io/StructureDefinition/ah-brand",
        "valueReference": {
          "reference": "Organization/a-14268.Brand-1"
        }
      }
    ]
  },
  "fullUrl": "urn:uuid:8f74512b-6192-5357-9981-b8e75c1732cf"
}