{
  "resource": {
    "resourceType": "Organization",
    "id": "05a96fea-5304-5552-83af-470fe0a31683",
    "name": "Harford Lower Extremity Specialists",
    "endpoint": [
      {
        "reference": "Endpoint/27a4e967-47aa-5a9c-a572-b8297ee268a2"
      },
      {
        "reference": "Endpoint/de60486f-cd06-58c9-9d2b-fd01516708dc"
      }
    ],
    "identifier": [
      {
        "system": "http://hl7.org/fhir/sid/us-npi",
        "value": "1902138993"
      }
    ],
    "address": [
      {
        "line": [
          "437 S Main St"
        ],
        "city": "BEL AIR",
        "state": "MD",
        "postalCode": "21014-3919"
      },
      {
        "line": [
          "437 S. MAIN"
        ],
        "city": "BEL AIR",
        "state": "MD",
        "postalCode": "21014-3919"
      },
      {
        "line": [
          "500 UPPER CHESAPEAKE DR"
        ],
        "city": "BEL AIR",
        "state": "MD",
        "postalCode": "21014-4324"
      },
      {
        "line": [
          "306 EAST PULASKI HIGHWAY"
        ],
        "city": "ELKTON",
        "state": "MD",
        "postalCode": "21921-5544"
      },
      {
        "line": [
          "80 MARYSVILLE RD"
        ],
        "city": "NORTH EAST",
        "state": "MD",
        "postalCode": "21901-2317"
      },
      {
        "line": [
          "1 Colgate Dr."
        ],
        "city": "FOREST HILL",
        "state": "MD",
        "postalCode": "21050-9998"
      },
      {
        "line": [
          "209 THOMAS STREET"
        ],
        "city": "BEL AIR",
        "state": "MD",
        "postalCode": "21014-3919"
      },
      {
        "line": [
          "806 S UNION AVE"
        ],
        "city": "HAVRE DE GRACE",
        "state": "MD",
        "postalCode": "21078-3611"
      },
      {
        "line": [
          "106 BOW ST"
        ],
        "city": "ELKTON",
        "state": "MD",
        "postalCode": "21921-5544"
      },
      {
        "line": [
          "606 Mountain Rd"
        ],
        "city": "FALLSTON",
        "state": "MD",
        "postalCode": "21047-2832"
      },
      {
        "line": [
          "437 S MAIN ST"
        ],
        "city": "BEL AIR",
        "state": "MD",
        "postalCode": "21014-3919"
      },
      {
        "line": [
          "206 C SOUTH STREET"
        ],
        "city": "ELKTON",
        "state": "MD",
        "postalCode": "21921-5201"
      }
    ],
    "extension": [
      {
        "url": "https://fhir.athena.io/StructureDefinition/ah-practice",
        "valueReference": {
          "reference": "Organization/a-1.Practice-25413"
        }
      },
      {
        "url": "https://fhir.athena.io/StructureDefinition/ah-brand",
        "valueReference": {
          "reference": "Organization/a-25413.Brand-1"
        }
      }
    ]
  },
  "fullUrl": "urn:uuid:05a96fea-5304-5552-83af-470fe0a31683"
}