{
  "resource": {
    "resourceType": "Organization",
    "id": "c50afe57-ce09-5672-a3d4-5a3aef34cdb2",
    "name": "Admin Only",
    "endpoint": [
      {
        "reference": "Endpoint/27a4e967-47aa-5a9c-a572-b8297ee268a2"
      },
      {
        "reference": "Endpoint/e8341a26-2524-5de0-9ac1-95bddbc4c86a"
      }
    ],
    "identifier": [
      {
        "system": "http://hl7.org/fhir/sid/us-npi",
        "value": "1316253875"
      },
      {
        "system": "http://hl7.org/fhir/sid/us-npi",
        "value": "1588226328"
      },
      {
        "system": "http://hl7.org/fhir/sid/us-npi",
        "value": "1598225021"
      },
      {
        "system": "http://hl7.org/fhir/sid/us-npi",
        "value": "1073175956"
      },
      {
        "system": "http://hl7.org/fhir/sid/us-npi",
        "value": "1548739170"
      },
      {
        "system": "http://hl7.org/fhir/sid/us-npi",
        "value": "1396201000"
      }
    ],
    "address": [
      {
        "line": [
          "767 Madison Road, Suite 107"
        ],
        "city": "CULPEPER",
        "state": "VA",
        "postalCode": "22701-3340"
      },
      {
        "line": [
          "350 South 4th Street"
        ],
        "city": "WYTHEVILLE",
        "state": "VA",
        "postalCode": "24382-2541"
      },
      {
        "line": [
          "5554 Redbud Highway"
        ],
        "city": "HONAKER",
        "state": "VA",
        "postalCode": "24260-7409"
      },
      {
        "line": [
          "117 W BOSCAWEN ST STE 206"
        ],
        "city": "WINCHESTER",
        "state": "VA",
        "postalCode": "22601-4140"
      },
      {
        "line": [
          "4003 Steelsburg Hwy"
        ],
        "city": "CEDAR BLUFF",
        "state": "VA",
        "postalCode": "24609-7019"
      },
      {
        "line": [
          "40 Lambert Street",
          "Suite 212"
        ],
        "city": "STAUNTON",
        "state": "VA",
        "postalCode": "24401-2446"
      },
      {
        "line": [
          "2609 Sheffield Dr."
        ],
        "city": "BLACKSBURG",
        "state": "VA",
        "postalCode": "24060-8271"
      },
      {
        "line": [
          "373 CECIL D QUILLEN DR STE 103"
        ],
        "city": "DUFFIELD",
        "state": "VA",
        "postalCode": "24244-4085"
      },
      {
        "line": [
          "1245 E MAIN ST"
        ],
        "city": "LEBANON",
        "state": "VA",
        "postalCode": "24266-5016"
      },
      {
        "line": [
          "310 Cloverleaf Square",
          "Ste. B2"
        ],
        "city": "BIG STONE GAP",
        "state": "VA",
        "postalCode": "24219-3074"
      },
      {
        "line": [
          "406 West Main St",
          "Suite 100"
        ],
        "city": "ABINGDON",
        "state": "VA",
        "postalCode": "24210-2608"
      },
      {
        "line": [
          "4001 Prince William Parkway",
          "Suite 300"
        ],
        "city": "WOODBRIDGE",
        "state": "VA",
        "postalCode": "22192-7667"
      },
      {
        "line": [
          "6330 Five Mile Centre Park",
          "Ste. 400"
        ],
        "city": "FREDERICKSBURG",
        "state": "VA",
        "postalCode": "22407-5516"
      },
      {
        "line": [
          "132 McClure Ave."
        ],
        "city": "CLINTWOOD",
        "state": "VA",
        "postalCode": "24228-6845"
      },
      {
        "line": [
          "12 Dallaire Ave"
        ],
        "city": "CHICOPEE",
        "state": "MA",
        "postalCode": "01020-1237"
      }
    ],
    "extension": [
      {
        "url": "https://fhir.athena.io/StructureDefinition/ah-practice",
        "valueReference": {
          "reference": "Organization/a-1.Practice-18057"
        }
      },
      {
        "url": "https://fhir.athena.io/StructureDefinition/ah-brand",
        "valueReference": {
          "reference": "Organization/a-18057.Brand-3"
        }
      }
    ]
  },
  "fullUrl": "urn:uuid:c50afe57-ce09-5672-a3d4-5a3aef34cdb2"
}