{
  "resource": {
    "resourceType": "Organization",
    "id": "a5bb7d78-6b9b-5e40-8146-d2f211d8f8da",
    "name": "Oshi Health",
    "endpoint": [
      {
        "reference": "Endpoint/27a4e967-47aa-5a9c-a572-b8297ee268a2"
      },
      {
        "reference": "Endpoint/0976372d-3e08-5b39-bea2-08d0e535bfa1"
      }
    ],
    "identifier": [
      {
        "system": "http://hl7.org/fhir/sid/us-npi",
        "value": "1174287700"
      },
      {
        "system": "http://hl7.org/fhir/sid/us-npi",
        "value": "1023729548"
      },
      {
        "system": "http://hl7.org/fhir/sid/us-npi",
        "value": "1114637972"
      },
      {
        "system": "http://hl7.org/fhir/sid/us-npi",
        "value": "1902517477"
      },
      {
        "system": "http://hl7.org/fhir/sid/us-npi",
        "value": "1952158297"
      }
    ],
    "address": [
      {
        "line": [
          "8585 Old Dairy Road"
        ],
        "city": "JUNEAU",
        "state": "AK",
        "postalCode": "99801-8094"
      },
      {
        "line": [
          "440 Monticello Ave",
          "Ste 1802 PMB 16389"
        ],
        "city": "NORFOLK",
        "state": "VA",
        "postalCode": "23510-2670"
      },
      {
        "line": [
          "1127 BROADWAY ST NE STE 310"
        ],
        "city": "SALEM",
        "state": "OR",
        "postalCode": "97301-1143"
      },
      {
        "line": [
          "231 S Bemiston Ave",
          "Ste 850"
        ],
        "city": "SAINT LOUIS",
        "state": "MO",
        "postalCode": "63105-1920"
      },
      {
        "line": [
          "400 S 4th St, Ste 410, PMB 16389"
        ],
        "city": "MINNEAPOLIS",
        "state": "MN",
        "postalCode": "55415-1419"
      },
      {
        "line": [
          "228 PARK AVENUE S",
          "SUITE 16389"
        ],
        "city": "NEW YORK",
        "state": "NY",
        "postalCode": "10003-1502"
      },
      {
        "line": [
          "309 Court Ave",
          "Ste 820 PMB 163859"
        ],
        "city": "DES MOINES",
        "state": "IA",
        "postalCode": "50309-2282"
      },
      {
        "line": [
          "228 PARK AVENUE S"
        ],
        "city": "NEW YORK",
        "state": "NY",
        "postalCode": "10003-1502"
      },
      {
        "line": [
          "112 N CURRY ST"
        ],
        "city": "CARSON CITY",
        "state": "NV",
        "postalCode": "89703-4934"
      },
      {
        "line": [
          "421 W MAIN ST"
        ],
        "city": "FRANKFORT",
        "state": "KY",
        "postalCode": "40601-1815"
      },
      {
        "line": [
          "177 Huntington Ave",
          "Ste 1703 PMB 16389"
        ],
        "city": "BOSTON",
        "state": "MA",
        "postalCode": "02115-3153"
      },
      {
        "line": [
          "503 S PIERRE ST"
        ],
        "city": "PIERRE",
        "state": "SD",
        "postalCode": "57501-4522"
      },
      {
        "line": [
          "317 GEORGE ST STE 320"
        ],
        "city": "NEW BRUNSWICK",
        "state": "NJ",
        "postalCode": "08901-2091"
      },
      {
        "line": [
          "21750 Hardy Oak Blvd",
          "Ste 104 Room 16389"
        ],
        "city": "SAN ANTONIO",
        "state": "TX",
        "postalCode": "78258-4946"
      },
      {
        "line": [
          "2045 W Grand Ave",
          "Ste B, PMB 16389"
        ],
        "city": "CHICAGO",
        "state": "IL",
        "postalCode": "60612-1577"
      },
      {
        "line": [
          "1925 Grand Ave",
          "Ste 129 PMB 16389"
        ],
        "city": "BILLINGS",
        "state": "MT",
        "postalCode": "59102-2776"
      },
      {
        "line": [
          "1003 Bishop Street",
          "Ste 1600 Pauahi Tower"
        ],
        "city": "HONOLULU",
        "state": "HI",
        "postalCode": "96813-6452"
      },
      {
        "line": [
          "110 E BROADWAY ST"
        ],
        "city": "HOBBS",
        "state": "NM",
        "postalCode": "88240-8424"
      },
      {
        "line": [
          "225 Wilmington West Chester Pike",
          "Suite 202"
        ],
        "city": "CHADDS FORD",
        "state": "PA",
        "postalCode": "19317-9011"
      },
      {
        "line": [
          "3527 S Federal Way",
          "Ste 103 - 422"
        ],
        "city": "BOISE",
        "state": "ID",
        "postalCode": "83705-5228"
      },
      {
        "line": [
          "3455 Peachtree Road North East",
          "5th Floor"
        ],
        "city": "ATLANTA",
        "state": "GA",
        "postalCode": "30326-3254"
      },
      {
        "line": [
          "204 8th St",
          "Ste 201 PMB 16389"
        ],
        "city": "MARLINTON",
        "state": "WV",
        "postalCode": "24954-1031"
      },
      {
        "line": [
          "6000 Poplar Avenue",
          "Suite 250"
        ],
        "city": "MEMPHIS",
        "state": "TN",
        "postalCode": "38119-3974"
      },
      {
        "line": [
          "11201 N Tatum Blvd",
          "Ste 300 PMB 16389"
        ],
        "city": "PHOENIX",
        "state": "AZ",
        "postalCode": "85028-6039"
      },
      {
        "line": [
          "20 S 3rd Street",
          "Suite 210"
        ],
        "city": "COLUMBUS",
        "state": "OH",
        "postalCode": "43215-4206"
      },
      {
        "line": [
          "8520 Allison Pointe Blvd",
          "Ste 223 PMB 16389"
        ],
        "city": "INDIANAPOLIS",
        "state": "IN",
        "postalCode": "46250-4299"
      },
      {
        "line": [
          "12020 Shamrock Plz",
          "Ste 201 PMB 16389"
        ],
        "city": "OMAHA",
        "state": "NE",
        "postalCode": "68154-3537"
      },
      {
        "line": [
          "8605 Santa Monica Blvd",
          "Suite 16389"
        ],
        "city": "WEST HOLLYWOOD",
        "state": "CA",
        "postalCode": "90069-4109"
      },
      {
        "line": [
          "625 Kenmoor Avenue SE",
          "Ste 350 PMB 16389"
        ],
        "city": "GRAND RAPIDS",
        "state": "MI",
        "postalCode": "49546-2395"
      },
      {
        "line": [
          "50 W Broadway",
          "Ste 333 PMB 16389"
        ],
        "city": "SALT LAKE CITY",
        "state": "UT",
        "postalCode": "84101-2027"
      },
      {
        "line": [
          "300 DESCHUTES WAY SW",
          "STE 208"
        ],
        "city": "TUMWATER",
        "state": "WA",
        "postalCode": "98501-7719"
      },
      {
        "line": [
          "6650 Rivers Ave",
          "Ste 105"
        ],
        "city": "CHARLESTON",
        "state": "SC",
        "postalCode": "29406-4809"
      },
      {
        "line": [
          "76 FORT EDDY RD"
        ],
        "city": "CONCORD",
        "state": "NH",
        "postalCode": "03301-7415"
      },
      {
        "line": [
          "1603 Capitol Ave",
          "Ste 415 PMB 16389"
        ],
        "city": "CHEYENNE",
        "state": "WY",
        "postalCode": "82001-4562"
      },
      {
        "line": [
          "225 ASYLUM ST FL 20"
        ],
        "city": "HARTFORD",
        "state": "CT",
        "postalCode": "06103-1516"
      },
      {
        "line": [
          "2631 Housley Road #1128",
          "Merrill's Wharf, Ste 245"
        ],
        "city": "ANNAPOLIS",
        "state": "MD",
        "postalCode": "21401-7030"
      },
      {
        "line": [
          "382 NE 191st St",
          "Suite 118 PMB 16389"
        ],
        "city": "MIAMI",
        "state": "FL",
        "postalCode": "33179-3899"
      },
      {
        "line": [
          "222 Jefferson Blvd",
          "Suite 200"
        ],
        "city": "WARWICK",
        "state": "RI",
        "postalCode": "02888-3855"
      },
      {
        "line": [
          "100 North Main Street",
          "Suite 2"
        ],
        "city": "BARRE",
        "state": "VT",
        "postalCode": "05641-4150"
      },
      {
        "line": [
          "33 East Main Street"
        ],
        "city": "MADISON",
        "state": "WI",
        "postalCode": "53703-3095"
      },
      {
        "line": [
          "450 Laurel Street",
          "8th Fl"
        ],
        "city": "BATON ROUGE",
        "state": "LA",
        "postalCode": "70801-1834"
      },
      {
        "line": [
          "4845 Pearl East Circle",
          "Suite 118 PMB 16389"
        ],
        "city": "BOULDER",
        "state": "CO",
        "postalCode": "80301-6112"
      },
      {
        "line": [
          "109 EXECUTIVE DR"
        ],
        "city": "MADISON",
        "state": "MS",
        "postalCode": "39110-8497"
      },
      {
        "line": [
          "418 N 2ND ST"
        ],
        "city": "BISMARCK",
        "state": "ND",
        "postalCode": "58501-3826"
      },
      {
        "line": [
          "120 19th Street",
          "Ste 201 PMB 16389"
        ],
        "city": "BIRMINGHAM",
        "state": "AL",
        "postalCode": "35203-3219"
      },
      {
        "line": [
          "5540 Centerview Dr.",
          "Ste 204"
        ],
        "city": "RALEIGH",
        "state": "NC",
        "postalCode": "27606-8012"
      },
      {
        "line": [
          "300 S. Spring St Ste 900"
        ],
        "city": "LITTLE ROCK",
        "state": "AR",
        "postalCode": "72201-2425"
      },
      {
        "line": [
          "8101 COLLEGE BLVD STE 130"
        ],
        "city": "OVERLAND PARK",
        "state": "KS",
        "postalCode": "66210-2793"
      },
      {
        "line": [
          "254 Commercial Street",
          "Merrill's Wharf, Ste 245"
        ],
        "city": "PORTLAND",
        "state": "ME",
        "postalCode": "04101-4664"
      },
      {
        "line": [
          "2810 N Church St",
          "PMB 16389"
        ],
        "city": "WILMINGTON",
        "state": "DE",
        "postalCode": "19802-4447"
      },
      {
        "line": [
          "1090 Vermont Ave NW"
        ],
        "city": "WASHINGTON",
        "state": "DC",
        "postalCode": "20005-4905"
      },
      {
        "line": [
          "2524 N Broadway",
          "Ste 554 PMB 16389"
        ],
        "city": "EDMOND",
        "state": "OK",
        "postalCode": "73034-4172"
      }
    ],
    "extension": [
      {
        "url": "https://fhir.athena.io/StructureDefinition/ah-practice",
        "valueReference": {
          "reference": "Organization/a-1.Practice-22307"
        }
      },
      {
        "url": "https://fhir.athena.io/StructureDefinition/ah-brand",
        "valueReference": {
          "reference": "Organization/a-22307.Brand-1"
        }
      }
    ]
  },
  "fullUrl": "urn:uuid:a5bb7d78-6b9b-5e40-8146-d2f211d8f8da"
}