{
  "resource": {
    "resourceType": "Organization",
    "id": "68c52e28-8c41-54aa-ad11-a7b223b5ebe1",
    "name": "South Orange County Surgical Medical Group",
    "endpoint": [
      {
        "reference": "Endpoint/27a4e967-47aa-5a9c-a572-b8297ee268a2"
      },
      {
        "reference": "Endpoint/a1976eb9-69de-5eac-9412-5d771bd62e0e"
      }
    ],
    "identifier": [
      {
        "system": "http://hl7.org/fhir/sid/us-npi",
        "value": "1407860844"
      }
    ],
    "address": [
      {
        "line": [
          "14662 NEWPORT AVE"
        ],
        "city": "TUSTIN",
        "state": "CA",
        "postalCode": "92780-6064"
      },
      {
        "line": [
          "1 HOAG DRIVE"
        ],
        "city": "NEWPORT BEACH",
        "state": "CA",
        "postalCode": "92663-4162"
      },
      {
        "line": [
          "26137 La Paz Road Ste 120"
        ],
        "city": "MISSION VIEJO",
        "state": "CA",
        "postalCode": "92691-5329"
      },
      {
        "line": [
          "24411 Health Center Drive",
          "suite 350"
        ],
        "city": "LAGUNA HILLS",
        "state": "CA",
        "postalCode": "92653-3651"
      },
      {
        "line": [
          "27882 Forbes Rd"
        ],
        "city": "LAGUNA NIGUEL",
        "state": "CA",
        "postalCode": "92677-1267"
      },
      {
        "line": [
          "18111 Brookhurst St"
        ],
        "city": "FOUNTAIN VALLEY",
        "state": "CA",
        "postalCode": "92708-5153"
      },
      {
        "line": [
          "20360 SW BIRCH ST STE 160"
        ],
        "city": "NEWPORT BEACH",
        "state": "CA",
        "postalCode": "92660-1533"
      },
      {
        "line": [
          "2801 Atlantic Avenue"
        ],
        "city": "LONG BEACH",
        "state": "CA",
        "postalCode": "90806-1737"
      },
      {
        "line": [
          "1 Hoag Drive"
        ],
        "city": "NEWPORT BEACH",
        "state": "CA",
        "postalCode": "92663-4162"
      }
    ],
    "extension": [
      {
        "url": "https://fhir.athena.io/StructureDefinition/ah-practice",
        "valueReference": {
          "reference": "Organization/a-1.Practice-12518"
        }
      },
      {
        "url": "https://fhir.athena.io/StructureDefinition/ah-brand",
        "valueReference": {
          "reference": "Organization/a-12518.Brand-2"
        }
      }
    ]
  },
  "fullUrl": "urn:uuid:68c52e28-8c41-54aa-ad11-a7b223b5ebe1"
}