{
  "resource": {
    "resourceType": "Organization",
    "id": "794ac9a2-4b50-5e18-aa04-722fef9ce202",
    "name": "The Orthopedic Center",
    "endpoint": [
      {
        "reference": "Endpoint/27a4e967-47aa-5a9c-a572-b8297ee268a2"
      },
      {
        "reference": "Endpoint/58aecc59-befb-50bf-aecd-75b8f52a6669"
      }
    ],
    "identifier": [
      {
        "system": "http://hl7.org/fhir/sid/us-npi",
        "value": "1710933288"
      }
    ],
    "address": [
      {
        "line": [
          "355 Grand Street"
        ],
        "city": "JERSEY CITY",
        "state": "NJ",
        "postalCode": "07302-4321"
      },
      {
        "line": [
          "197 Ridgedale Ave"
        ],
        "city": "CEDAR KNOLLS",
        "state": "NJ",
        "postalCode": "07927-2111"
      },
      {
        "line": [
          "99 Beauvoir Ave"
        ],
        "city": "SUMMIT",
        "state": "NJ",
        "postalCode": "07901-3533"
      },
      {
        "line": [
          "377 Jersey Ave",
          "Suite 280A"
        ],
        "city": "JERSEY CITY",
        "state": "NJ",
        "postalCode": "07302-4393"
      },
      {
        "line": [
          "100 Madison Ave"
        ],
        "city": "MORRISTOWN",
        "state": "NJ",
        "postalCode": "07960-6136"
      },
      {
        "line": [
          "111 Madison Ave",
          "# 200"
        ],
        "city": "MORRISTOWN",
        "state": "NJ",
        "postalCode": "07960-6097"
      },
      {
        "line": [
          "246 Hamburg Turnpike",
          "Unit 304"
        ],
        "city": "WAYNE",
        "state": "NJ",
        "postalCode": "07470-2156"
      },
      {
        "line": [
          "609 Morris Avenue",
          "2nd Floor"
        ],
        "city": "SPRINGFIELD",
        "state": "NJ",
        "postalCode": "07081-1511"
      },
      {
        "line": [
          "187 Millburn Ave"
        ],
        "city": "MILLBURN",
        "state": "NJ",
        "postalCode": "07041-1847"
      },
      {
        "line": [
          "218 RIDGEDALE AVE STE 104"
        ],
        "city": "CEDAR KNOLLS",
        "state": "NJ",
        "postalCode": "07927-2109"
      },
      {
        "line": [
          "94 Old Short Hills Rd"
        ],
        "city": "LIVINGSTON",
        "state": "NJ",
        "postalCode": "07039-5672"
      }
    ],
    "extension": [
      {
        "url": "https://fhir.athena.io/StructureDefinition/ah-practice",
        "valueReference": {
          "reference": "Organization/a-1.Practice-18865"
        }
      },
      {
        "url": "https://fhir.athena.io/StructureDefinition/ah-brand",
        "valueReference": {
          "reference": "Organization/a-18865.Brand-1"
        }
      }
    ]
  },
  "fullUrl": "urn:uuid:794ac9a2-4b50-5e18-aa04-722fef9ce202"
}