{
  "resource": {
    "resourceType": "Organization",
    "id": "8fe16232-de59-5038-951a-7078fbf0ea10",
    "name": "Cleveland County Family YMCA",
    "endpoint": [
      {
        "reference": "Endpoint/27a4e967-47aa-5a9c-a572-b8297ee268a2"
      },
      {
        "reference": "Endpoint/abb5f7d5-468e-5806-be46-fb2282afef02"
      }
    ],
    "identifier": [
      {
        "system": "http://hl7.org/fhir/sid/us-npi",
        "value": "1780131508"
      }
    ],
    "address": [
      {
        "line": [
          "104 Howie Drive"
        ],
        "city": "SHELBY",
        "state": "NC",
        "postalCode": "28150-5036"
      },
      {
        "line": [
          "101 West Gold Street"
        ],
        "city": "KINGS MOUNTAIN",
        "state": "NC",
        "postalCode": "28086-3453"
      },
      {
        "line": [
          "3120 NW Boulevard"
        ],
        "city": "GASTONIA",
        "state": "NC",
        "postalCode": "28052-1167"
      },
      {
        "line": [
          "299 Fielding Rd"
        ],
        "city": "SHELBY",
        "state": "NC",
        "postalCode": "28150-1234"
      },
      {
        "line": [
          "3005 Longwood Dr"
        ],
        "city": "SHELBY",
        "state": "NC",
        "postalCode": "28152-8638"
      },
      {
        "line": [
          "130 S. Post Road"
        ],
        "city": "SHELBY",
        "state": "NC",
        "postalCode": "28152-6211"
      },
      {
        "line": [
          "940 Washburn Switch Road"
        ],
        "city": "SHELBY",
        "state": "NC",
        "postalCode": "28150-9089"
      },
      {
        "line": [
          "1207 W. Dixon Blvd."
        ],
        "city": "SHELBY",
        "state": "NC",
        "postalCode": "28152-5131"
      },
      {
        "line": [
          "100 Justice Place"
        ],
        "city": "SHELBY",
        "state": "NC",
        "postalCode": "28150-4638"
      },
      {
        "line": [
          "215 Patton Drive"
        ],
        "city": "SHELBY",
        "state": "NC",
        "postalCode": "28150-4658"
      },
      {
        "line": [
          "411 Cherryville Rd"
        ],
        "city": "SHELBY",
        "state": "NC",
        "postalCode": "28151-2272"
      },
      {
        "line": [
          "226 East Graham Street"
        ],
        "city": "SHELBY",
        "state": "NC",
        "postalCode": "28150-5432"
      },
      {
        "line": [
          "411 Cherryville Rd"
        ],
        "city": "SHELBY",
        "state": "NC",
        "postalCode": "28150-3651"
      },
      {
        "line": [
          "311 E. Marion St"
        ],
        "city": "SHELBY",
        "state": "NC",
        "postalCode": "28150-4611"
      },
      {
        "line": [
          "201 Old Boiling Springs Rd."
        ],
        "city": "SHELBY",
        "state": "NC",
        "postalCode": "28152-0649"
      },
      {
        "line": [
          "222 Crawford Street"
        ],
        "city": "SHELBY",
        "state": "NC",
        "postalCode": "28150-1234"
      },
      {
        "line": [
          "315 Grover St"
        ],
        "city": "SHELBY",
        "state": "NC",
        "postalCode": "28150-3919"
      },
      {
        "line": [
          "211 Cleveland Ave"
        ],
        "city": "KINGS MOUNTAIN",
        "state": "NC",
        "postalCode": "28086-3274"
      },
      {
        "line": [
          "376 Pine Street"
        ],
        "city": "FOREST CITY",
        "state": "NC",
        "postalCode": "28043-1234"
      }
    ],
    "extension": [
      {
        "url": "https://fhir.athena.io/StructureDefinition/ah-practice",
        "valueReference": {
          "reference": "Organization/a-1.Practice-14268"
        }
      },
      {
        "url": "https://fhir.athena.io/StructureDefinition/ah-brand",
        "valueReference": {
          "reference": "Organization/a-14268.Brand-1"
        }
      }
    ]
  },
  "fullUrl": "urn:uuid:8fe16232-de59-5038-951a-7078fbf0ea10"
}