{
  "resource": {
    "resourceType": "Organization",
    "id": "32dc1162-c02a-50c9-9feb-8d893ad8ab48",
    "name": "ELDERDERM SC  -  SCOTT B PHILLIPS MD",
    "endpoint": [
      {
        "reference": "Endpoint/27a4e967-47aa-5a9c-a572-b8297ee268a2"
      },
      {
        "reference": "Endpoint/dfbf819a-3899-55ff-953f-af7760166105"
      }
    ],
    "identifier": [
      {
        "system": "http://hl7.org/fhir/sid/us-npi",
        "value": "1245577667"
      }
    ],
    "address": [
      {
        "line": [
          "3240 MILWAUKEE AVE"
        ],
        "city": "NORTHBROOK",
        "state": "IL",
        "postalCode": "60062-7124"
      },
      {
        "line": [
          "3535 N ASHLAND AVE"
        ],
        "city": "CHICAGO",
        "state": "IL",
        "postalCode": "60657-1313"
      },
      {
        "line": [
          "1111 S LINNEMAN RD"
        ],
        "city": "MOUNT PROSPECT",
        "state": "IL",
        "postalCode": "60056-4128"
      },
      {
        "line": [
          "908 W ARGYLE ST"
        ],
        "city": "CHICAGO",
        "state": "IL",
        "postalCode": "60640-3806"
      },
      {
        "line": [
          "10 East Hawthorn Parkway"
        ],
        "city": "VERNON HILLS",
        "state": "IL",
        "postalCode": "60061-1462"
      },
      {
        "line": [
          "4501 CONCORD LN"
        ],
        "city": "NORTHBROOK",
        "state": "IL",
        "postalCode": "60062-7163"
      },
      {
        "line": [
          "400 E Randolph St",
          "2407"
        ],
        "city": "CHICAGO",
        "state": "IL",
        "postalCode": "60601-5037"
      },
      {
        "line": [
          "4700 W LAKE AVE"
        ],
        "city": "GLENVIEW",
        "state": "IL",
        "postalCode": "60025-1468"
      },
      {
        "line": [
          "145 N Milwaukee Ave"
        ],
        "city": "VERNON HILLS",
        "state": "IL",
        "postalCode": "60061-4174"
      },
      {
        "line": [
          "6016 N NINA AVE"
        ],
        "city": "CHICAGO",
        "state": "IL",
        "postalCode": "60631-2410"
      },
      {
        "line": [
          "145 N Milwaukee Ave"
        ],
        "city": "VERNON HILLS",
        "state": "IL",
        "postalCode": "60061-4170"
      },
      {
        "line": [
          "400 E Randolph St #2407"
        ],
        "city": "CHICAGO",
        "state": "IL",
        "postalCode": "60601-5037"
      },
      {
        "line": [
          "97 West Phillip Road"
        ],
        "city": "Vernon Hills",
        "state": "IL",
        "postalCode": "60061-1739"
      },
      {
        "line": [
          "1227 E GOLF RD"
        ],
        "city": "DES PLAINES",
        "state": "IL",
        "postalCode": "60016-1213"
      },
      {
        "line": [
          "800 S RIVER RD"
        ],
        "city": "DES PLAINES",
        "state": "IL",
        "postalCode": "60016-8419"
      },
      {
        "line": [
          "7262 W Petersen"
        ],
        "city": "CHICAGO",
        "state": "IL",
        "postalCode": "60631-3626"
      },
      {
        "line": [
          "929 West Foster Ave"
        ],
        "city": "CHICAGO",
        "state": "IL",
        "postalCode": "60640-1491"
      },
      {
        "line": [
          "3501 NORTHEAST PKWY"
        ],
        "city": "LINCOLNWOOD",
        "state": "IL",
        "postalCode": "60712-3757"
      },
      {
        "line": [
          "901 Flosheim Drive"
        ],
        "city": "LIBERTYVILLE",
        "state": "IL",
        "postalCode": "60048-5200"
      },
      {
        "line": [
          "929 W FOSTER AVE"
        ],
        "city": "CHICAGO",
        "state": "IL",
        "postalCode": "60640-1491"
      },
      {
        "line": [
          "7370 W TALCOTT AVE"
        ],
        "city": "CHICAGO",
        "state": "IL",
        "postalCode": "60631-3751"
      },
      {
        "line": [
          "99 POINTE DR"
        ],
        "city": "NORTHBROOK",
        "state": "IL",
        "postalCode": "60062-1111"
      },
      {
        "line": [
          "220 N 1ST ST"
        ],
        "city": "WHEELING",
        "state": "IL",
        "postalCode": "60090-2980"
      },
      {
        "line": [
          "2710 N Clark St, Chicago"
        ],
        "city": "CHICAGO",
        "state": "IL",
        "postalCode": "60614-1503"
      },
      {
        "line": [
          "5333 North Sheridan Road"
        ],
        "city": "CHICAGO",
        "state": "IL",
        "postalCode": "60601-5037"
      },
      {
        "line": [
          "500 McHenry Road"
        ],
        "city": "BUFFALO GROVE",
        "state": "IL",
        "postalCode": "60089-1705"
      },
      {
        "line": [
          "1000 CENTRAL AVE"
        ],
        "city": "HIGHLAND PARK",
        "state": "IL",
        "postalCode": "60035-3363"
      },
      {
        "line": [
          "5400 N Northwest Highway"
        ],
        "city": "CHICAGO",
        "state": "IL",
        "postalCode": "60630-1162"
      },
      {
        "line": [
          "1725 BALLARD RD"
        ],
        "city": "PARK RIDGE",
        "state": "IL",
        "postalCode": "60068-1005"
      },
      {
        "line": [
          "3121 N. Sheridan Road"
        ],
        "city": "CHICAGO",
        "state": "IL",
        "postalCode": "60657-4945"
      },
      {
        "line": [
          "1601 GREEN BAY RD"
        ],
        "city": "HIGHLAND PARK",
        "state": "IL",
        "postalCode": "60035-3522"
      },
      {
        "line": [
          "708 N ELMHURST RD"
        ],
        "city": "PROSPECT HEIGHTS",
        "state": "IL",
        "postalCode": "60070-1360"
      },
      {
        "line": [
          "350 S MILWAUKEE AVE"
        ],
        "city": "VERNON HILLS",
        "state": "IL",
        "postalCode": "60061-3286"
      },
      {
        "line": [
          "500 ATRIUM DR"
        ],
        "city": "VERNON HILLS",
        "state": "IL",
        "postalCode": "60061-1731"
      },
      {
        "line": [
          "2200 GOLF RD"
        ],
        "city": "GLENVIEW",
        "state": "IL",
        "postalCode": "60025-4903"
      }
    ],
    "extension": [
      {
        "url": "https://fhir.athena.io/StructureDefinition/ah-practice",
        "valueReference": {
          "reference": "Organization/a-1.Practice-6372"
        }
      },
      {
        "url": "https://fhir.athena.io/StructureDefinition/ah-brand",
        "valueReference": {
          "reference": "Organization/a-6372.Brand-1"
        }
      }
    ]
  },
  "fullUrl": "urn:uuid:32dc1162-c02a-50c9-9feb-8d893ad8ab48"
}