{
  "resource": {
    "resourceType": "Organization",
    "id": "54eccf66-1604-5b9a-bdef-4e1375a61cb2",
    "name": "ASpen Ridge",
    "endpoint": [
      {
        "reference": "Endpoint/27a4e967-47aa-5a9c-a572-b8297ee268a2"
      },
      {
        "reference": "Endpoint/751f00df-4535-528b-8472-a45db0c2d5b4"
      }
    ],
    "identifier": [
      {
        "system": "http://hl7.org/fhir/sid/us-npi",
        "value": "1366458648"
      }
    ],
    "address": [
      {
        "line": [
          "743 Horizon Court Suite 100"
        ],
        "city": "GRAND JUNCTION",
        "state": "CO",
        "postalCode": "81506-8701"
      },
      {
        "line": [
          "743 Horizon Court"
        ],
        "city": "GRAND JUNCTION",
        "state": "CO",
        "postalCode": "81506-8715"
      },
      {
        "line": [
          "743 Horizon Court",
          "Suite 100"
        ],
        "city": "GRAND JUNCTION",
        "state": "CO",
        "postalCode": "81506-8715"
      },
      {
        "line": [
          "743 Horizon"
        ],
        "city": "GRAND JUNCTION",
        "state": "CO",
        "postalCode": "81506-8701"
      },
      {
        "line": [
          "2021 N 12th Street"
        ],
        "city": "GRAND JUNCTION",
        "state": "CO",
        "postalCode": "81501-2980"
      },
      {
        "line": [
          "743 Horizon Court",
          "Ste 100"
        ],
        "city": "GRAND JUNCTION",
        "state": "CO",
        "postalCode": "81505-8888"
      },
      {
        "line": [
          "743 Horizon Ct",
          "Suite 100"
        ],
        "city": "GRAND JUNCTION",
        "state": "CO",
        "postalCode": "81506-8717"
      },
      {
        "line": [
          "na"
        ],
        "city": "GRAND JUNCTION",
        "state": "CO",
        "postalCode": "81501-8801"
      },
      {
        "line": [
          "2594 Patterson Rd"
        ],
        "city": "GRAND JUNCTION",
        "state": "CO",
        "postalCode": "81505-2594"
      },
      {
        "line": [
          "743 Horizon Ct",
          "Suite 100"
        ],
        "city": "GRAND JUNCTION",
        "state": "CO",
        "postalCode": "81506-8715"
      },
      {
        "line": [
          "743 Horizon Court"
        ],
        "city": "GRAND JUNCTION",
        "state": "CO",
        "postalCode": "81506-7777"
      }
    ],
    "extension": [
      {
        "url": "https://fhir.athena.io/StructureDefinition/ah-practice",
        "valueReference": {
          "reference": "Organization/a-1.Practice-849"
        }
      },
      {
        "url": "https://fhir.athena.io/StructureDefinition/ah-brand",
        "valueReference": {
          "reference": "Organization/a-849.Brand-1"
        }
      }
    ]
  },
  "fullUrl": "urn:uuid:54eccf66-1604-5b9a-bdef-4e1375a61cb2"
}