{
  "resource": {
    "resourceType": "Organization",
    "id": "70356512-146e-5ed2-80f7-f093e009d16a",
    "name": "St. Vincent's Medical Group",
    "endpoint": [
      {
        "reference": "Endpoint/27a4e967-47aa-5a9c-a572-b8297ee268a2"
      },
      {
        "reference": "Endpoint/41679759-bc4e-5bb2-88c8-0a8bdfd90431"
      }
    ],
    "identifier": [
      {
        "system": "http://hl7.org/fhir/sid/us-npi",
        "value": "1396926747"
      },
      {
        "system": "http://hl7.org/fhir/sid/us-npi",
        "value": "1558344978"
      },
      {
        "system": "http://hl7.org/fhir/sid/us-npi",
        "value": "1417987124"
      },
      {
        "system": "http://hl7.org/fhir/sid/us-npi",
        "value": "1750672051"
      },
      {
        "system": "http://hl7.org/fhir/sid/us-npi",
        "value": "1427005131"
      },
      {
        "system": "http://hl7.org/fhir/sid/us-npi",
        "value": "1154729549"
      }
    ],
    "address": [
      {
        "line": [
          "4205 BELFORT RD Suite 4010"
        ],
        "city": "JACKSONVILLE",
        "state": "FL",
        "postalCode": "32216-1475"
      },
      {
        "line": [
          "3 Shircliff Way"
        ],
        "city": "JACKSONVILLE",
        "state": "FL",
        "postalCode": "32216-9999"
      },
      {
        "line": [
          "3 Shircliff Way"
        ],
        "city": "Jacksonville",
        "state": "FL",
        "postalCode": "32204-4777"
      },
      {
        "line": [
          "1 Shircliff Way"
        ],
        "city": "Jacksonville",
        "state": "FL",
        "postalCode": "32204-4748"
      },
      {
        "line": [
          "205 Trinity Way"
        ],
        "city": "SAINT JOHNS",
        "state": "FL",
        "postalCode": "32259-1155"
      },
      {
        "line": [
          "4205 Belfort Rd Ste 4015"
        ],
        "city": "Jacksonville",
        "state": "FL",
        "postalCode": "32216-3623"
      },
      {
        "line": [
          "1 SHIRCLIFF WAY"
        ],
        "city": "JACKSONVILLE",
        "state": "FL",
        "postalCode": "32204-4748"
      },
      {
        "line": [
          "."
        ],
        "city": "SAINT LOUIS",
        "state": "MO",
        "postalCode": "63134-9999"
      },
      {
        "line": [
          "355 CROSSING BLVD"
        ],
        "city": "ORANGE PARK",
        "state": "FL",
        "postalCode": "32073-2860"
      },
      {
        "line": [
          "7963 Normandy Blvd"
        ],
        "city": "JACKSONVILLE",
        "state": "FL",
        "postalCode": "32221-6640"
      },
      {
        "line": [
          "SVPE_PULM_RS_DILLON 625_HOPD",
          "3 Shircliff Way, Suite 625"
        ],
        "city": "JACKSONVILLE",
        "state": "FL",
        "postalCode": "32204-4776"
      },
      {
        "line": [
          "1658 ST VINCENTS WAY, Suite 300B"
        ],
        "city": "MIDDLEBURG",
        "state": "FL",
        "postalCode": "32068-8431"
      },
      {
        "line": [
          "2 SHIRCLIFF WAY SUITE 720"
        ],
        "city": "JACKSONVILLE",
        "state": "FL",
        "postalCode": "32204-4759"
      }
    ],
    "extension": [
      {
        "url": "https://fhir.athena.io/StructureDefinition/ah-practice",
        "valueReference": {
          "reference": "Organization/a-1.Practice-8967"
        }
      },
      {
        "url": "https://fhir.athena.io/StructureDefinition/ah-brand",
        "valueReference": {
          "reference": "Organization/a-8967.Brand-3"
        }
      }
    ]
  },
  "fullUrl": "urn:uuid:70356512-146e-5ed2-80f7-f093e009d16a"
}