{
  "resource": {
    "resourceType": "Organization",
    "id": "5fa6b327-967e-5053-9d4f-cfc7bcd52687",
    "name": "ARIZONA CENTER FOR CANCER CARE SOUTH SCOTTSDALE",
    "endpoint": [
      {
        "reference": "Endpoint/27a4e967-47aa-5a9c-a572-b8297ee268a2"
      },
      {
        "reference": "Endpoint/e7a8cbb4-f678-5a5f-ad5e-76f05fabfde1"
      }
    ],
    "identifier": [
      {
        "system": "http://hl7.org/fhir/sid/us-npi",
        "value": "1831584127"
      }
    ],
    "address": [
      {
        "line": [
          "5980 W Orchid Ln"
        ],
        "city": "CHANDLER",
        "state": "AZ",
        "postalCode": "85226-1223"
      },
      {
        "line": [
          "1919 W Carla Vista Dr"
        ],
        "city": "CHANDLER",
        "state": "AZ",
        "postalCode": "85224-8257"
      },
      {
        "line": [
          "9155 N 3rd St"
        ],
        "city": "PHOENIX",
        "state": "AZ",
        "postalCode": "85020-2410"
      },
      {
        "line": [
          "977 S Pennington Dr"
        ],
        "city": "CHANDLER",
        "state": "AZ",
        "postalCode": "85224-5658"
      },
      {
        "line": [
          "1711 W VENUS WAY"
        ],
        "city": "CHANDLER",
        "state": "AZ",
        "postalCode": "85224-6453"
      },
      {
        "line": [
          "2555 N Price Rd"
        ],
        "city": "CHANDLER",
        "state": "AZ",
        "postalCode": "85224-8257"
      },
      {
        "line": [
          "8425 E Cactus Rd"
        ],
        "city": "SCOTTSDALE",
        "state": "AZ",
        "postalCode": "85260-5732"
      },
      {
        "line": [
          "7501 East Thompson Peak Pkwy"
        ],
        "city": "SCOTTSDALE",
        "state": "AZ",
        "postalCode": "85255-4525"
      },
      {
        "line": [
          "14221 N PIPING ROCK CT"
        ],
        "city": "PHOENIX",
        "state": "AZ",
        "postalCode": "85023-6286"
      },
      {
        "line": [
          "9101 E Brown Rd"
        ],
        "city": "MESA",
        "state": "AZ",
        "postalCode": "85207-4350"
      },
      {
        "line": [
          "2615 E Vista Dr"
        ],
        "city": "PHOENIX",
        "state": "AZ",
        "postalCode": "85032-4938"
      },
      {
        "line": [
          "5736 N 33rd ave"
        ],
        "city": "PHOENIX",
        "state": "AZ",
        "postalCode": "85017-1905"
      },
      {
        "line": [
          "4031 E Fawn Dr"
        ],
        "city": "PHOENIX",
        "state": "AZ",
        "postalCode": "85042-7327"
      },
      {
        "line": [
          "11818 N 19TH AVE",
          "Oasis Building"
        ],
        "city": "PHOENIX",
        "state": "AZ",
        "postalCode": "85029-3582"
      },
      {
        "line": [
          "2596 E Remington Pl"
        ],
        "city": "CHANDLER",
        "state": "AZ",
        "postalCode": "85286-1380"
      },
      {
        "line": [
          "7311 E Sunnyside Dr"
        ],
        "city": "SCOTTSDALE",
        "state": "AZ",
        "postalCode": "85260-5440"
      },
      {
        "line": [
          "6031 N 40th St"
        ],
        "city": "PARADISE VALLEY",
        "state": "AZ",
        "postalCode": "85253-3902"
      },
      {
        "line": [
          "5241 n 3rd st"
        ],
        "city": "PHOENIX",
        "state": "AZ",
        "postalCode": "85040-8703"
      },
      {
        "line": [
          "3135 W Alta Vista Rd"
        ],
        "city": "PHOENIX",
        "state": "AZ",
        "postalCode": "85041-5211"
      },
      {
        "line": [
          "8432 W SAINT JOHN RD"
        ],
        "city": "PEORIA",
        "state": "AZ",
        "postalCode": "85382-8032"
      },
      {
        "line": [
          "649 E Divot Dr"
        ],
        "city": "TEMPE",
        "state": "AZ",
        "postalCode": "85283-4601"
      },
      {
        "line": [
          "11411 N 19th Ave"
        ],
        "city": "PHOENIX",
        "state": "AZ",
        "postalCode": "85029-3642"
      },
      {
        "line": [
          "544 W NIDO AVE"
        ],
        "city": "MESA",
        "state": "AZ",
        "postalCode": "85210-7572"
      },
      {
        "line": [
          "16650 N Stadium Way"
        ],
        "city": "SURPRISE",
        "state": "AZ",
        "postalCode": "85374-0001"
      },
      {
        "line": [
          "3414 W Los Gatos Dr"
        ],
        "city": "PHOENIX",
        "state": "AZ",
        "postalCode": "85027-1643"
      },
      {
        "line": [
          "3901 W Encanto BLVD"
        ],
        "city": "PHOENIX",
        "state": "AZ",
        "postalCode": "85009-1241"
      },
      {
        "line": [
          "1239 W BOSTON ST"
        ],
        "city": "CHANDLER",
        "state": "AZ",
        "postalCode": "85226-2964"
      },
      {
        "line": [
          "2827 E THUNDERBIRD RD"
        ],
        "city": "PHOENIX",
        "state": "AZ",
        "postalCode": "85032-5618"
      },
      {
        "line": [
          "1090 East Kaibab Place"
        ],
        "city": "CHANDLER",
        "state": "AZ",
        "postalCode": "85249-2827"
      },
      {
        "line": [
          "1735 N Val Vista Rd"
        ],
        "city": "MESA",
        "state": "AZ",
        "postalCode": "85213-3223"
      },
      {
        "line": [
          "4000 N 3rd Ave"
        ],
        "city": "PHOENIX",
        "state": "AZ",
        "postalCode": "85013-1207"
      },
      {
        "line": [
          "5332 W WEST WIND DR"
        ],
        "city": "GLENDALE",
        "state": "AZ",
        "postalCode": "85310-2934"
      },
      {
        "line": [
          "6221 E Shea Blvd"
        ],
        "city": "SCOTTSDALE",
        "state": "AZ",
        "postalCode": "85254-5425"
      },
      {
        "line": [
          "1445 W Willis Rd"
        ],
        "city": "GILBERT",
        "state": "AZ",
        "postalCode": "85297-7353"
      },
      {
        "line": [
          "909 E Northern Ave"
        ],
        "city": "PHOENIX",
        "state": "AZ",
        "postalCode": "85020-4101"
      },
      {
        "line": [
          "1880 E VAN BUREN ST"
        ],
        "city": "PHOENIX",
        "state": "AZ",
        "postalCode": "85006-3742"
      },
      {
        "line": [
          "5582 W Becker Ln"
        ],
        "city": "GLENDALE",
        "state": "AZ",
        "postalCode": "85304-3866"
      },
      {
        "line": [
          "1712 W Glendale Ave"
        ],
        "city": "PHOENIX",
        "state": "AZ",
        "postalCode": "85021-8816"
      },
      {
        "line": [
          "3313 W TOPEKA"
        ],
        "city": "PHOENIX",
        "state": "AZ",
        "postalCode": "85027-6143"
      },
      {
        "line": [
          "5132 N 86th Pl"
        ],
        "city": "SCOTTSDALE",
        "state": "AZ",
        "postalCode": "85250-7406"
      },
      {
        "line": [
          "13238 N 35TH ST"
        ],
        "city": "PHOENIX",
        "state": "AZ",
        "postalCode": "85032-6110"
      },
      {
        "line": [
          "8825 S 7TH ST"
        ],
        "city": "PHOENIX",
        "state": "AZ",
        "postalCode": "85042-7626"
      },
      {
        "line": [
          "2645 E Southern Ave"
        ],
        "city": "TEMPE",
        "state": "AZ",
        "postalCode": "85282-7649"
      },
      {
        "line": [
          "5241 S 3RD ST"
        ],
        "city": "PHOENIX",
        "state": "AZ",
        "postalCode": "85040-8703"
      },
      {
        "line": [
          "16802 N 43RD ST"
        ],
        "city": "PHOENIX",
        "state": "AZ",
        "postalCode": "85032-3324"
      },
      {
        "line": [
          "5125 N 58TH AVE"
        ],
        "city": "GLENDALE",
        "state": "AZ",
        "postalCode": "85301-7453"
      },
      {
        "line": [
          "350 S Alma School Rd"
        ],
        "city": "CHANDLER",
        "state": "AZ",
        "postalCode": "85224-7605"
      },
      {
        "line": [
          "18175 W BANFF LN"
        ],
        "city": "SURPRISE",
        "state": "AZ",
        "postalCode": "85388-7658"
      },
      {
        "line": [
          "4475 E Knox Rd"
        ],
        "city": "PHOENIX",
        "state": "AZ",
        "postalCode": "85044-4400"
      },
      {
        "line": [
          "6321 E Evans Dr"
        ],
        "city": "SCOTTSDALE",
        "state": "AZ",
        "postalCode": "85254-3219"
      },
      {
        "line": [
          "4704 W DIANA AVE"
        ],
        "city": "GLENDALE",
        "state": "AZ",
        "postalCode": "85302-5125"
      },
      {
        "line": [
          "5861 W Beverly Ln"
        ],
        "city": "GLENDALE",
        "state": "AZ",
        "postalCode": "85306-0706"
      },
      {
        "line": [
          "9452 E Jacob Ave"
        ],
        "city": "MESA",
        "state": "AZ",
        "postalCode": "85209-7022"
      },
      {
        "line": [
          "20493 N 91st Dr"
        ],
        "city": "PEORIA",
        "state": "AZ",
        "postalCode": "85382-5271"
      },
      {
        "line": [
          "7312 E JASMINE ST"
        ],
        "city": "MESA",
        "state": "AZ",
        "postalCode": "85207-2930"
      },
      {
        "line": [
          "14001 W Meeker Blvd"
        ],
        "city": "SUN CITY WEST",
        "state": "AZ",
        "postalCode": "85375-5202"
      },
      {
        "line": [
          "2800 West Rose Canyon Circle"
        ],
        "city": "Anthem",
        "state": "AZ",
        "postalCode": "85086-2412"
      },
      {
        "line": [
          "7180 W Flynn Ln"
        ],
        "city": "GLENDALE",
        "state": "AZ",
        "postalCode": "85303-7601"
      },
      {
        "line": [
          "1002 E Bluebell"
        ],
        "city": "TEMPE",
        "state": "AZ",
        "postalCode": "85281-1608"
      },
      {
        "line": [
          "16118 N 168th Ln"
        ],
        "city": "SURPRISE",
        "state": "AZ",
        "postalCode": "85388-1350"
      },
      {
        "line": [
          "16640 N 38TH ST"
        ],
        "city": "PHOENIX",
        "state": "AZ",
        "postalCode": "85032-2103"
      },
      {
        "line": [
          "9940 W Union Hills Drive"
        ],
        "city": "SUN CITY",
        "state": "AZ",
        "postalCode": "85373-1673"
      },
      {
        "line": [
          "255 W BROWN RD"
        ],
        "city": "MESA",
        "state": "AZ",
        "postalCode": "85201-3404"
      },
      {
        "line": [
          "851 N Harris Dr"
        ],
        "city": "MESA",
        "state": "AZ",
        "postalCode": "85203-5720"
      },
      {
        "line": [
          "7886 W Piute Ave"
        ],
        "city": "GLENDALE",
        "state": "AZ",
        "postalCode": "85308-6167"
      },
      {
        "line": [
          "44880 PORTABELLO RD"
        ],
        "city": "MARICOPA",
        "state": "AZ",
        "postalCode": "85319-8744"
      },
      {
        "line": [
          "11030 North 84th Place"
        ],
        "city": "SCOTTSDALE",
        "state": "AZ",
        "postalCode": "85260-6620"
      },
      {
        "line": [
          "15213 N 55th Way"
        ],
        "city": "SCOTTSDALE",
        "state": "AZ",
        "postalCode": "85254-8204"
      },
      {
        "line": [
          "11150 N 92nd St"
        ],
        "city": "SCOTTSDALE",
        "state": "AZ",
        "postalCode": "85260-6150"
      },
      {
        "line": [
          "1119 W Mission Dr"
        ],
        "city": "CHANDLER",
        "state": "AZ",
        "postalCode": "85224-2354"
      },
      {
        "line": [
          "31 W MARYLAND"
        ],
        "city": "PHOENIX",
        "state": "AZ",
        "postalCode": "85013-1227"
      },
      {
        "line": [
          "14403 N 60th St"
        ],
        "city": "SCOTTSDALE",
        "state": "AZ",
        "postalCode": "85254-5540"
      },
      {
        "line": [
          "1033 E BETHANY HOME RD"
        ],
        "city": "PHOENIX",
        "state": "AZ",
        "postalCode": "85014-2229"
      },
      {
        "line": [
          "18330 W Marconi Ave"
        ],
        "city": "SURPRISE",
        "state": "AZ",
        "postalCode": "85388-2358"
      },
      {
        "line": [
          "2577 W GREENWAY RD"
        ],
        "city": "PHOENIX",
        "state": "AZ",
        "postalCode": "85023-4398"
      },
      {
        "line": [
          "4550 E Bajada Rd"
        ],
        "city": "CAVE CREEK",
        "state": "AZ",
        "postalCode": "85331-2674"
      },
      {
        "line": [
          "10521 E CLINTON ST"
        ],
        "city": "SCOTTSDALE",
        "state": "AZ",
        "postalCode": "85258-6520"
      },
      {
        "line": [
          "1813 W MYRTLE AVE"
        ],
        "city": "PHOENIX",
        "state": "AZ",
        "postalCode": "85021-7991"
      },
      {
        "line": [
          "4638 E SUMMERHAVEN DR"
        ],
        "city": "PHOENIX",
        "state": "AZ",
        "postalCode": "85044-4820"
      },
      {
        "line": [
          "17207 N Boswell Blvd",
          "SPA BLDG"
        ],
        "city": "SUN CITY",
        "state": "AZ",
        "postalCode": "85373-2073"
      },
      {
        "line": [
          "707 W PALO VERDE ST"
        ],
        "city": "GILBERT",
        "state": "AZ",
        "postalCode": "85233-5841"
      },
      {
        "line": [
          "2935 N 18TH"
        ],
        "city": "PHOENIX",
        "state": "AZ",
        "postalCode": "85016-7707"
      },
      {
        "line": [
          "3014 E Indian School Rd"
        ],
        "city": "PHOENIX",
        "state": "AZ",
        "postalCode": "85016-6887"
      },
      {
        "line": [
          "14030 N El Pueblo"
        ],
        "city": "FOUNTAIN HILLS",
        "state": "AZ",
        "postalCode": "85268-3221"
      },
      {
        "line": [
          "17207 N BOSWELL BLVD"
        ],
        "city": "SUN CITY",
        "state": "AZ",
        "postalCode": "85373-2073"
      },
      {
        "line": [
          "2122 E Brown Rd"
        ],
        "city": "MESA",
        "state": "AZ",
        "postalCode": "85213-5200"
      },
      {
        "line": [
          "15240 W DOLL LN"
        ],
        "city": "SURPRISE",
        "state": "AZ",
        "postalCode": "85374-3492"
      },
      {
        "line": [
          "3921 E Leo Pl"
        ],
        "city": "CHANDLER",
        "state": "AZ",
        "postalCode": "85249-5881"
      },
      {
        "line": [
          "4211 N Pebble Creek Parkway"
        ],
        "city": "GOODYEAR",
        "state": "AZ",
        "postalCode": "85395-9016"
      },
      {
        "line": [
          "6001 E Thomas Rd"
        ],
        "city": "SCOTTSDALE",
        "state": "AZ",
        "postalCode": "85251-7511"
      },
      {
        "line": [
          "1980 W Pecos Rd"
        ],
        "city": "CHANDLER",
        "state": "AZ",
        "postalCode": "85224-5606"
      },
      {
        "line": [
          "2800 W Ray Rd"
        ],
        "city": "CHANDLER",
        "state": "AZ",
        "postalCode": "85224-3492"
      },
      {
        "line": [
          "1812 S Racine Ln"
        ],
        "city": "GILBERT",
        "state": "AZ",
        "postalCode": "85295-9058"
      },
      {
        "line": [
          "42015 North Ventura Drive"
        ],
        "city": "PHOENIX",
        "state": "AZ",
        "postalCode": "85086-3300"
      },
      {
        "line": [
          "9003 W CHARLESTON AVE"
        ],
        "city": "PEORIA",
        "state": "AZ",
        "postalCode": "85382-8106"
      },
      {
        "line": [
          "7515 E Sweetwater Ave"
        ],
        "city": "SCOTTSDALE",
        "state": "AZ",
        "postalCode": "85260-4706"
      },
      {
        "line": [
          "4211 N. Pebble Creek Pkwy"
        ],
        "city": "GOODYEAR",
        "state": "AZ",
        "postalCode": "85395-9016"
      },
      {
        "line": [
          "12414 N 38TH ST"
        ],
        "city": "PHOENIX",
        "state": "AZ",
        "postalCode": "85032-7305"
      },
      {
        "line": [
          "520 S Higley Rd"
        ],
        "city": "MESA",
        "state": "AZ",
        "postalCode": "85206-2276"
      },
      {
        "line": [
          "18172 North 91st Avenue"
        ],
        "city": "PEORIA",
        "state": "AZ",
        "postalCode": "85382-3001"
      },
      {
        "line": [
          "12322 N 113th Ave"
        ],
        "city": "YOUNGTOWN",
        "state": "AZ",
        "postalCode": "85363-1268"
      },
      {
        "line": [
          "16250 N 40th Ln"
        ],
        "city": "PHOENIX",
        "state": "AZ",
        "postalCode": "85053-2729"
      },
      {
        "line": [
          "10639 N Aberdeen Rd"
        ],
        "city": "SCOTTSDALE",
        "state": "AZ",
        "postalCode": "85254-4849"
      },
      {
        "line": [
          "3675 S Rome St"
        ],
        "city": "GILBERT",
        "state": "AZ",
        "postalCode": "85297-7343"
      },
      {
        "line": [
          "1475 N Granite Reef Rd"
        ],
        "city": "SCOTTSDALE",
        "state": "AZ",
        "postalCode": "85257-3919"
      },
      {
        "line": [
          "140 W UNIVERSITY DR"
        ],
        "city": "MESA",
        "state": "AZ",
        "postalCode": "85201-5818"
      },
      {
        "line": [
          "8989 W GREENBRIAN DR"
        ],
        "city": "PEORIA",
        "state": "AZ",
        "postalCode": "85382-8171"
      },
      {
        "line": [
          "850 S Pennington Dr"
        ],
        "city": "CHANDLER",
        "state": "AZ",
        "postalCode": "85224-5500"
      },
      {
        "line": [
          "9257 W UNION HILLS DR"
        ],
        "city": "PEORIA",
        "state": "AZ",
        "postalCode": "85382-8179"
      },
      {
        "line": [
          "15825 N 19TH PL"
        ],
        "city": "PHOENIX",
        "state": "AZ",
        "postalCode": "85022-3313"
      },
      {
        "line": [
          "4603 W Bucksin Trail"
        ],
        "city": "PHOENIX",
        "state": "AZ",
        "postalCode": "85083-2317"
      },
      {
        "line": [
          "1620 W Jasper Dr"
        ],
        "city": "CHANDLER",
        "state": "AZ",
        "postalCode": "85224-8546"
      },
      {
        "line": [
          "1320 W 7TH ST"
        ],
        "city": "TEMPE",
        "state": "AZ",
        "postalCode": "85281-3309"
      },
      {
        "line": [
          "5006 East Justica St"
        ],
        "city": "CAVE CREEK",
        "state": "AZ",
        "postalCode": "85331-2911"
      },
      {
        "line": [
          "5328 E ANDERSON DR"
        ],
        "city": "SCOTTSDALE",
        "state": "AZ",
        "postalCode": "85254-5891"
      },
      {
        "line": [
          "9012 W Sandra Terrace"
        ],
        "city": "PEORIA",
        "state": "AZ",
        "postalCode": "85382-3528"
      },
      {
        "line": [
          "9000 E San Victor Dr"
        ],
        "city": "SCOTTSDALE",
        "state": "AZ",
        "postalCode": "85258-5051"
      },
      {
        "line": [
          "5625 E. McKellips Road"
        ],
        "city": "MESA",
        "state": "AZ",
        "postalCode": "85215-3000"
      },
      {
        "line": [
          "8632 E Pecos Ln"
        ],
        "city": "SCOTTSDALE",
        "state": "AZ",
        "postalCode": "85250-6738"
      },
      {
        "line": [
          "8611 N 67TH AVE"
        ],
        "city": "GLENDALE",
        "state": "AZ",
        "postalCode": "85302-0701"
      },
      {
        "line": [
          "4123 N 21ST ST"
        ],
        "city": "PHOENIX",
        "state": "AZ",
        "postalCode": "85016-6109"
      },
      {
        "line": [
          "4812 E Osborn Rd"
        ],
        "city": "PHOENIX",
        "state": "AZ",
        "postalCode": "85018-5537"
      },
      {
        "line": [
          "25504 S 116th St"
        ],
        "city": "CHANDLER",
        "state": "AZ",
        "postalCode": "85249-4548"
      },
      {
        "line": [
          "6008 W PARADISE LN"
        ],
        "city": "GLENDALE",
        "state": "AZ",
        "postalCode": "85306-2345"
      },
      {
        "line": [
          "8300 E MCDOWELL RD"
        ],
        "city": "SCOTTSDALE",
        "state": "AZ",
        "postalCode": "85257-3968"
      },
      {
        "line": [
          "3828 N 36th St"
        ],
        "city": "PHOENIX",
        "state": "AZ",
        "postalCode": "85018-5106"
      },
      {
        "line": [
          "6250 N 19TH AVE"
        ],
        "city": "PHOENIX",
        "state": "AZ",
        "postalCode": "85015-1565"
      },
      {
        "line": [
          "5529 East Calle Tuberia"
        ],
        "city": "PHOENIX",
        "state": "AZ",
        "postalCode": "85018-4516"
      },
      {
        "line": [
          "13242 N 34TH DR"
        ],
        "city": "PHOENIX",
        "state": "AZ",
        "postalCode": "85029-1217"
      },
      {
        "line": [
          "15835 N 6TH PL"
        ],
        "city": "PHOENIX",
        "state": "AZ",
        "postalCode": "85022-3060"
      },
      {
        "line": [
          "3339 N Drinkwater Blvd"
        ],
        "city": "SCOTTSDALE",
        "state": "AZ",
        "postalCode": "85251-6452"
      },
      {
        "line": [
          "3870 W Alameda Rd"
        ],
        "city": "GLENDALE",
        "state": "AZ",
        "postalCode": "85310-3302"
      },
      {
        "line": [
          "11415 N 114th St"
        ],
        "city": "SCOTTSDALE",
        "state": "AZ",
        "postalCode": "85259-2564"
      },
      {
        "line": [
          "20371 N 65th Ave"
        ],
        "city": "GLENDALE",
        "state": "AZ",
        "postalCode": "85308-6619"
      },
      {
        "line": [
          "1782 E Camina Plata Court"
        ],
        "city": "GILBERT",
        "state": "AZ",
        "postalCode": "85298-9400"
      },
      {
        "line": [
          "18172 N 91ST AVE"
        ],
        "city": "PEORIA",
        "state": "AZ",
        "postalCode": "85382-3001"
      },
      {
        "line": [
          "2635 N DYSART RD"
        ],
        "city": "AVONDALE",
        "state": "AZ",
        "postalCode": "85392-2001"
      },
      {
        "line": [
          "8038 E Happy Valley Rd"
        ],
        "city": "SCOTTSDALE",
        "state": "AZ",
        "postalCode": "85255-2110"
      },
      {
        "line": [
          "1516 W LAUREL AVE"
        ],
        "city": "GILBERT",
        "state": "AZ",
        "postalCode": "85233-4130"
      },
      {
        "line": [
          "9494 E BECKER LN"
        ],
        "city": "SCOTTSDALE",
        "state": "AZ",
        "postalCode": "85260-6720"
      },
      {
        "line": [
          "15973 N 77th Ave"
        ],
        "city": "PEORIA",
        "state": "AZ",
        "postalCode": "85382-3867"
      },
      {
        "line": [
          "1825 W Emelita Ave"
        ],
        "city": "MESA",
        "state": "AZ",
        "postalCode": "85202-4034"
      },
      {
        "line": [
          "8319 E Hazelwood St"
        ],
        "city": "SCOTTSDALE",
        "state": "AZ",
        "postalCode": "85251-1751"
      },
      {
        "line": [
          "18510 N PARKVIEW PL"
        ],
        "city": "SURPRISE",
        "state": "AZ",
        "postalCode": "85374-6615"
      },
      {
        "line": [
          "2421 E CAIRO DR"
        ],
        "city": "TEMPE",
        "state": "AZ",
        "postalCode": "85282-4112"
      },
      {
        "line": [
          "4635 n 14th st"
        ],
        "city": "PHOENIX",
        "state": "AZ",
        "postalCode": "85014-4016"
      },
      {
        "line": [
          "4929 S Val Vista Rd"
        ],
        "city": "GILBERT",
        "state": "AZ",
        "postalCode": "85298-0089"
      },
      {
        "line": [
          "7554 W Libby St"
        ],
        "city": "GLENDALE",
        "state": "AZ",
        "postalCode": "85308-8235"
      },
      {
        "line": [
          "35 West Brown Road"
        ],
        "city": "MESA",
        "state": "AZ",
        "postalCode": "85201-3428"
      },
      {
        "line": [
          "3501 N SCOTTSDALE RD, SUITE 300"
        ],
        "city": "SCOTTSDALE",
        "state": "AZ",
        "postalCode": "85251-5638"
      },
      {
        "line": [
          "101 S YUCCA ST"
        ],
        "city": "CHANDLER",
        "state": "AZ",
        "postalCode": "85224-8191"
      },
      {
        "line": [
          "9450 EAST MOUNTAIN VIEW ROAD"
        ],
        "city": "SCOTTSDALE",
        "state": "AZ",
        "postalCode": "85258-9109"
      },
      {
        "line": [
          "4912 N 45TH PL"
        ],
        "city": "PHOENIX",
        "state": "AZ",
        "postalCode": "85018-2802"
      },
      {
        "line": [
          "16477 W BELL RD"
        ],
        "city": "SURPRISE",
        "state": "AZ",
        "postalCode": "85374-6603"
      },
      {
        "line": [
          "16124 N 87TH DR"
        ],
        "city": "PEORIA",
        "state": "AZ",
        "postalCode": "85382-3771"
      },
      {
        "line": [
          "15835 N 6th Pl"
        ],
        "city": "PHOENIX",
        "state": "AZ",
        "postalCode": "85022-3060"
      },
      {
        "line": [
          "765 N LINDSAY RD"
        ],
        "city": "GILBERT",
        "state": "AZ",
        "postalCode": "85234-4707"
      },
      {
        "line": [
          "140 W University Dr"
        ],
        "city": "MESA",
        "state": "AZ",
        "postalCode": "85201-5818"
      },
      {
        "line": [
          "5762 W Shaw Butte Dr"
        ],
        "city": "GLENDALE",
        "state": "AZ",
        "postalCode": "85304-2609"
      },
      {
        "line": [
          "5545 E Yucca ST"
        ],
        "city": "SCOTTSDALE",
        "state": "AZ",
        "postalCode": "85254-4756"
      },
      {
        "line": [
          "16602 E PALISADES BLVD"
        ],
        "city": "FOUNTAIN HILLS",
        "state": "AZ",
        "postalCode": "85268-3705"
      },
      {
        "line": [
          "2228 S SARANAC"
        ],
        "city": "MESA",
        "state": "AZ",
        "postalCode": "85209-6640"
      },
      {
        "line": [
          "9660 E Clinton Ln"
        ],
        "city": "SCOTTSDALE",
        "state": "AZ",
        "postalCode": "85260-6210"
      },
      {
        "line": [
          "42015 N VENTURE DR"
        ],
        "city": "PHOENIX",
        "state": "AZ",
        "postalCode": "85086-3301"
      },
      {
        "line": [
          "618 North Central Avenue"
        ],
        "city": "PHOENIX",
        "state": "AZ",
        "postalCode": "85004-2196"
      },
      {
        "line": [
          "3333 N Civic Center Plaza"
        ],
        "city": "SCOTTSDALE",
        "state": "AZ",
        "postalCode": "85251-6413"
      },
      {
        "line": [
          "2730 S PENNINGTON"
        ],
        "city": "MESA",
        "state": "AZ",
        "postalCode": "85202-7455"
      },
      {
        "line": [
          "13825 CAVE CREEK RD"
        ],
        "city": "PHOENIX",
        "state": "AZ",
        "postalCode": "85022-6178"
      },
      {
        "line": [
          "2733 E Nora St"
        ],
        "city": "MESA",
        "state": "AZ",
        "postalCode": "85213-1540"
      },
      {
        "line": [
          "1415 N San Benito Dr"
        ],
        "city": "GILBERT",
        "state": "AZ",
        "postalCode": "85234-8523"
      }
    ],
    "extension": [
      {
        "url": "https://fhir.athena.io/StructureDefinition/ah-practice",
        "valueReference": {
          "reference": "Organization/a-1.Practice-15588"
        }
      },
      {
        "url": "https://fhir.athena.io/StructureDefinition/ah-brand",
        "valueReference": {
          "reference": "Organization/a-15588.Brand-1"
        }
      }
    ]
  },
  "fullUrl": "urn:uuid:5fa6b327-967e-5053-9d4f-cfc7bcd52687"
}