{
  "resource": {
    "resourceType": "Organization",
    "id": "377fab63-328d-54cb-befa-c07f46024b50",
    "name": "FourPoints Health",
    "endpoint": [
      {
        "reference": "Endpoint/27a4e967-47aa-5a9c-a572-b8297ee268a2"
      },
      {
        "reference": "Endpoint/bcd1da70-a049-5bbe-97ab-e878b9a06b60"
      }
    ],
    "identifier": [
      {
        "system": "http://hl7.org/fhir/sid/us-npi",
        "value": "1336316975"
      },
      {
        "system": "http://hl7.org/fhir/sid/us-npi",
        "value": "1487087078"
      },
      {
        "system": "http://hl7.org/fhir/sid/us-npi",
        "value": "1992972525"
      },
      {
        "system": "http://hl7.org/fhir/sid/us-npi",
        "value": "1801063441"
      },
      {
        "system": "http://hl7.org/fhir/sid/us-npi",
        "value": "1700062296"
      }
    ],
    "address": [
      {
        "line": [
          "440 S Main"
        ],
        "city": "RICHFIELD",
        "state": "UT",
        "postalCode": "84701-2070"
      },
      {
        "line": [
          "1449 N 1400 W STE 19"
        ],
        "city": "SAINT GEORGE",
        "state": "UT",
        "postalCode": "84770-5237"
      },
      {
        "line": [
          "376 N PAIUTE DR"
        ],
        "city": "CEDAR CITY",
        "state": "UT",
        "postalCode": "84721-6181"
      },
      {
        "line": [
          "6109 W 3700 N"
        ],
        "city": "IVINS",
        "state": "UT",
        "postalCode": "84738-6663"
      },
      {
        "line": [
          "440 North Paiute Drive"
        ],
        "city": "CEDAR CITY",
        "state": "UT",
        "postalCode": "84721-6181"
      },
      {
        "line": [
          "376 N Paiute Drive"
        ],
        "city": "CEDAR CITY",
        "state": "UT",
        "postalCode": "84721-6181"
      },
      {
        "line": [
          "440 S MAIN ST"
        ],
        "city": "RICHFIELD",
        "state": "UT",
        "postalCode": "84701-2855"
      },
      {
        "line": [
          "157 North Reservation Drive"
        ],
        "city": "KANOSH",
        "state": "UT",
        "postalCode": "84637-0007"
      },
      {
        "line": [
          "157 N RESERVATION DR"
        ],
        "city": "KANOSH",
        "state": "UT",
        "postalCode": "84637-7700"
      },
      {
        "line": [
          "1449 North 1400 West",
          "#19"
        ],
        "city": "SAINT GEORGE",
        "state": "UT",
        "postalCode": "84770-0600"
      }
    ],
    "extension": [
      {
        "url": "https://fhir.athena.io/StructureDefinition/ah-practice",
        "valueReference": {
          "reference": "Organization/a-1.Practice-14860"
        }
      },
      {
        "url": "https://fhir.athena.io/StructureDefinition/ah-brand",
        "valueReference": {
          "reference": "Organization/a-14860.Brand-1"
        }
      }
    ]
  },
  "fullUrl": "urn:uuid:377fab63-328d-54cb-befa-c07f46024b50"
}