{
  "resource": {
    "resourceType": "Organization",
    "id": "587d30ff-ae1b-5303-a9a2-676981bb8c63",
    "name": "BARRY J BROCK MD INC",
    "endpoint": [
      {
        "reference": "Endpoint/27a4e967-47aa-5a9c-a572-b8297ee268a2"
      },
      {
        "reference": "Endpoint/abc4abdb-eb94-5967-b526-c75ded708ce0"
      }
    ],
    "identifier": [
      {
        "system": "http://hl7.org/fhir/sid/us-npi",
        "value": "1891107553"
      },
      {
        "system": "http://hl7.org/fhir/sid/us-npi",
        "value": "1295181956"
      },
      {
        "system": "http://hl7.org/fhir/sid/us-npi",
        "value": "1194216283"
      },
      {
        "system": "http://hl7.org/fhir/sid/us-npi",
        "value": "1760850317"
      },
      {
        "system": "http://hl7.org/fhir/sid/us-npi",
        "value": "1245585991"
      },
      {
        "system": "http://hl7.org/fhir/sid/us-npi",
        "value": "1902363203"
      },
      {
        "system": "http://hl7.org/fhir/sid/us-npi",
        "value": "1619218575"
      }
    ],
    "address": [
      {
        "line": [
          "421 N Rodeo",
          "PH1"
        ],
        "city": "BEVERLY HILLS",
        "state": "CA",
        "postalCode": "90210-4531"
      },
      {
        "line": [
          "421 N Rodeo Drive Penthouse 1"
        ],
        "city": "BEVERLY HILLS",
        "state": "CA",
        "postalCode": "90210-4531"
      },
      {
        "line": [
          "421 N RODEO DRIVE PH1"
        ],
        "city": "BEVERLY HILLS",
        "state": "CA",
        "postalCode": "90210-4531"
      },
      {
        "line": [
          "421 N Rodeo Dr Ste Ph1"
        ],
        "city": "BEVERLY HILLS",
        "state": "CA",
        "postalCode": "90210-4531"
      },
      {
        "line": [
          "450 N Roxbury Dr #600"
        ],
        "city": "BEVERLY HILLS",
        "state": "CA",
        "postalCode": "90210-4266"
      },
      {
        "line": [
          "421 N RODEO DR PH 1"
        ],
        "city": "BEVERLY HILLS",
        "state": "CA",
        "postalCode": "90210-4531"
      },
      {
        "line": [
          "8700 Beverly Blvd"
        ],
        "city": "LOS ANGELES",
        "state": "CA",
        "postalCode": "90048-1804"
      },
      {
        "line": [
          "8700 BEVERLY BLVD"
        ],
        "city": "LOS ANGELES",
        "state": "CA",
        "postalCode": "90048-1804"
      },
      {
        "line": [
          "450 N ROXBURY DR",
          "SUITE 500"
        ],
        "city": "BEVERLY HILLS",
        "state": "CA",
        "postalCode": "90210-4226"
      },
      {
        "line": [
          "450 N ROXBURY DR",
          "SUITE 520"
        ],
        "city": "BEVERLY HILLS",
        "state": "CA",
        "postalCode": "90210-4226"
      },
      {
        "line": [
          "8700 BEVERLY BLVD"
        ],
        "city": "LOS ANGELES",
        "state": "CA",
        "postalCode": "90048-1865"
      },
      {
        "line": [
          "2121 Santa Monica Blvd"
        ],
        "city": "SANTA MONICA",
        "state": "CA",
        "postalCode": "90404-2303"
      }
    ],
    "extension": [
      {
        "url": "https://fhir.athena.io/StructureDefinition/ah-practice",
        "valueReference": {
          "reference": "Organization/a-1.Practice-13490"
        }
      },
      {
        "url": "https://fhir.athena.io/StructureDefinition/ah-brand",
        "valueReference": {
          "reference": "Organization/a-13490.Brand-1"
        }
      }
    ]
  },
  "fullUrl": "urn:uuid:587d30ff-ae1b-5303-a9a2-676981bb8c63"
}