{
  "resource": {
    "resourceType": "Organization",
    "id": "b070f6c2-fbd6-5e75-bfb2-2eee367ac51e",
    "name": "Ascension Medical Group Seton Orthopedics",
    "endpoint": [
      {
        "reference": "Endpoint/27a4e967-47aa-5a9c-a572-b8297ee268a2"
      },
      {
        "reference": "Endpoint/9cc18d86-9cfd-51f4-8362-613d94d57769"
      }
    ],
    "identifier": [
      {
        "system": "http://hl7.org/fhir/sid/us-npi",
        "value": "1275290694"
      },
      {
        "system": "http://hl7.org/fhir/sid/us-npi",
        "value": "1629538491"
      },
      {
        "system": "http://hl7.org/fhir/sid/us-npi",
        "value": "1962025148"
      },
      {
        "system": "http://hl7.org/fhir/sid/us-npi",
        "value": "1730412388"
      },
      {
        "system": "http://hl7.org/fhir/sid/us-npi",
        "value": "1588997233"
      },
      {
        "system": "http://hl7.org/fhir/sid/us-npi",
        "value": "1508489782"
      }
    ],
    "address": [
      {
        "line": [
          "201 University Oak Blvd",
          "STE 1260"
        ],
        "city": "ROUND ROCK",
        "state": "TX",
        "postalCode": "78665-2437"
      },
      {
        "line": [
          "1101 Wolf Lakes Drive Suite 225"
        ],
        "city": "GEORGETOWN",
        "state": "TX",
        "postalCode": "78628-3778"
      },
      {
        "line": [
          "1101 Wolf Lakes Drive STE 225"
        ],
        "city": "GEORGETOWN",
        "state": "TX",
        "postalCode": "78628-3778"
      },
      {
        "line": [
          "5103 KYLE CENTRE DR",
          "STE 108"
        ],
        "city": "KYLE",
        "state": "TX",
        "postalCode": "78640-8666"
      },
      {
        "line": [
          "201 University Oaks Blvd",
          "STE 1260"
        ],
        "city": "Round Rock",
        "state": "TX",
        "postalCode": "78665-2437"
      },
      {
        "line": [
          "1101 Wolf Lake Dr",
          "STE 225"
        ],
        "city": "GEORGETOWN",
        "state": "TX",
        "postalCode": "78628-3778"
      },
      {
        "line": [
          "1101 Wolf Lakes Drive, Suite 225, Georgetown"
        ],
        "city": "GEORGETOWN",
        "state": "TX",
        "postalCode": "78628-3778"
      },
      {
        "line": [
          "207 AVENUE E"
        ],
        "city": "LAMPASAS",
        "state": "TX",
        "postalCode": "76550-1820"
      },
      {
        "line": [
          "3800 W.S. Young Ste 201"
        ],
        "city": "KILLEEN",
        "state": "TX",
        "postalCode": "76542-3340"
      },
      {
        "line": [
          "5103 KYLE CENTRE DR",
          "STE 104"
        ],
        "city": "KYLE",
        "state": "TX",
        "postalCode": "78640-8666"
      },
      {
        "line": [
          "800 W Central Tx Expressway STE 155"
        ],
        "city": "HARKER HEIGHTS",
        "state": "TX",
        "postalCode": "76548-1995"
      },
      {
        "line": [
          "800 W Central Tx Expressway Suite 155"
        ],
        "city": "Harker Heights",
        "state": "TX",
        "postalCode": "76548-1995"
      }
    ],
    "extension": [
      {
        "url": "https://fhir.athena.io/StructureDefinition/ah-practice",
        "valueReference": {
          "reference": "Organization/a-1.Practice-8363"
        }
      },
      {
        "url": "https://fhir.athena.io/StructureDefinition/ah-brand",
        "valueReference": {
          "reference": "Organization/a-8363.Brand-1"
        }
      }
    ]
  },
  "fullUrl": "urn:uuid:b070f6c2-fbd6-5e75-bfb2-2eee367ac51e"
}