{
  "resource": {
    "resourceType": "Organization",
    "id": "722a7a99-d12c-5dfc-a67d-79f6cb46f9f4",
    "name": "Southwest Nephrology Associates",
    "endpoint": [
      {
        "reference": "Endpoint/27a4e967-47aa-5a9c-a572-b8297ee268a2"
      },
      {
        "reference": "Endpoint/7a886e18-02e3-5371-a070-c59bd7c4f268"
      }
    ],
    "identifier": [
      {
        "system": "http://hl7.org/fhir/sid/us-npi",
        "value": "1588774087"
      }
    ],
    "address": [
      {
        "line": [
          "16545 SOUTHWEST FWY STE 275"
        ],
        "city": "SUGAR LAND",
        "state": "TX",
        "postalCode": "77479-2891"
      },
      {
        "line": [
          "21755 PROVINCIAL BLVD"
        ],
        "city": "KATY",
        "state": "TX",
        "postalCode": "77450-6508"
      },
      {
        "line": [
          "1705 Jackson Street"
        ],
        "city": "RICHMOND",
        "state": "TX",
        "postalCode": "77469-3246"
      },
      {
        "line": [
          "3819 CARTWRIGHT RD"
        ],
        "city": "MISSOURI CITY",
        "state": "TX",
        "postalCode": "77459-2443"
      },
      {
        "line": [
          "7329 W SAM HOUSTON PKWY S # 101B"
        ],
        "city": "HOUSTON",
        "state": "TX",
        "postalCode": "77072-5251"
      },
      {
        "line": [
          "8925 HIGHWAY 6 N STE 100"
        ],
        "city": "HOUSTON",
        "state": "TX",
        "postalCode": "77095-3396"
      },
      {
        "line": [
          "2510 B F TERRY BLVD"
        ],
        "city": "ROSENBERG",
        "state": "TX",
        "postalCode": "77471-5636"
      },
      {
        "line": [
          "1317 Lake Pointe PKWY"
        ],
        "city": "SUGAR LAND",
        "state": "TX",
        "postalCode": "77478-3997"
      },
      {
        "line": [
          "8700 S GESSNER RD # 300"
        ],
        "city": "HOUSTON",
        "state": "TX",
        "postalCode": "77074-2916"
      },
      {
        "line": [
          "17500 W Grand Prkwy South"
        ],
        "city": "SUGAR LAND",
        "state": "TX",
        "postalCode": "77479-2562"
      },
      {
        "line": [
          "1445 NORTH LOOP W STE 720"
        ],
        "city": "HOUSTON",
        "state": "TX",
        "postalCode": "77008-1676"
      },
      {
        "line": [
          "12121 RICHMOND AVE STE 212"
        ],
        "city": "HOUSTON",
        "state": "TX",
        "postalCode": "77082-2422"
      },
      {
        "line": [
          "12121 WESTHEIMER RD STE 245"
        ],
        "city": "HOUSTON",
        "state": "TX",
        "postalCode": "77077-6898"
      },
      {
        "line": [
          "16545 SOUTHWEST FWY STE 275"
        ],
        "city": "SUGAR LAND",
        "state": "TX",
        "postalCode": "77479-3601"
      },
      {
        "line": [
          "1601 MAIN ST STE 202"
        ],
        "city": "RICHMOND",
        "state": "TX",
        "postalCode": "77469-3230"
      },
      {
        "line": [
          "23900 Katy Freeway"
        ],
        "city": "KATY",
        "state": "TX",
        "postalCode": "77494-1323"
      },
      {
        "line": [
          "7600 BEECHNUT ST"
        ],
        "city": "HOUSTON",
        "state": "TX",
        "postalCode": "77074-4302"
      },
      {
        "line": [
          "205 N ALABAMA RD"
        ],
        "city": "WHARTON",
        "state": "TX",
        "postalCode": "77488-5203"
      },
      {
        "line": [
          "6952 INDUSTRIAL PKWY"
        ],
        "city": "ROSENBERG",
        "state": "TX",
        "postalCode": "77471-5656"
      },
      {
        "line": [
          "8303 CREEKBEND DR"
        ],
        "city": "HOUSTON",
        "state": "TX",
        "postalCode": "77071-1147"
      },
      {
        "line": [
          "4740 W BELLFORT AVE STE A"
        ],
        "city": "HOUSTON",
        "state": "TX",
        "postalCode": "77035-3434"
      },
      {
        "line": [
          "1673 CARTWRIGHT RD"
        ],
        "city": "MISSOURI CITY",
        "state": "TX",
        "postalCode": "77489-4016"
      },
      {
        "line": [
          "5672 HIGHWAY 6"
        ],
        "city": "MISSOURI CITY",
        "state": "TX",
        "postalCode": "77459-4188"
      },
      {
        "line": [
          "18500 Katy Freeway"
        ],
        "city": "HOUSTON",
        "state": "TX",
        "postalCode": "77094-1110"
      },
      {
        "line": [
          "11411 N SAM HOUSTON PKWY E STE 120 # E"
        ],
        "city": "HUMBLE",
        "state": "TX",
        "postalCode": "77396-5903"
      },
      {
        "line": [
          "12919 SOUTHWEST FWY STE 138"
        ],
        "city": "STAFFORD",
        "state": "TX",
        "postalCode": "77477-4113"
      },
      {
        "line": [
          "12121 RICHMOND AVE STE 103"
        ],
        "city": "HOUSTON",
        "state": "TX",
        "postalCode": "77082-2420"
      },
      {
        "line": [
          "7777 SOUTHWEST FWY STE 304"
        ],
        "city": "HOUSTON",
        "state": "TX",
        "postalCode": "77074-1813"
      },
      {
        "line": [
          "7600 Beechnut St"
        ],
        "city": "HOUSTON",
        "state": "TX",
        "postalCode": "77074-4302"
      },
      {
        "line": [
          "13311 PIKE RD"
        ],
        "city": "STAFFORD",
        "state": "TX",
        "postalCode": "77477-5111"
      },
      {
        "line": [
          "21720 Kingsland Blvd STE 102"
        ],
        "city": "KATY",
        "state": "TX",
        "postalCode": "77450-2551"
      },
      {
        "line": [
          "1325 Highway 6"
        ],
        "city": "SUGAR LAND",
        "state": "TX",
        "postalCode": "77478-4906"
      },
      {
        "line": [
          "103 W AHLDAG ST"
        ],
        "city": "WHARTON",
        "state": "TX",
        "postalCode": "77488-2407"
      },
      {
        "line": [
          "16655 Southwest FWY"
        ],
        "city": "SUGAR LAND",
        "state": "TX",
        "postalCode": "77479-2329"
      },
      {
        "line": [
          "12141 Richmond Avenue"
        ],
        "city": "HOUSTON",
        "state": "TX",
        "postalCode": "77082-2408"
      },
      {
        "line": [
          "21927 CLAY RD STE 100"
        ],
        "city": "KATY",
        "state": "TX",
        "postalCode": "77449-0817"
      },
      {
        "line": [
          "17510 W GRAND PKWY S STE 590"
        ],
        "city": "SUGAR LAND",
        "state": "TX",
        "postalCode": "77479-2649"
      },
      {
        "line": [
          "12823 CAPRICORN ST"
        ],
        "city": "STAFFORD",
        "state": "TX",
        "postalCode": "77477-3914"
      },
      {
        "line": [
          "21026 W BELLFORT ST"
        ],
        "city": "RICHMOND",
        "state": "TX",
        "postalCode": "77406-1685"
      },
      {
        "line": [
          "21727 Provincial Blvd"
        ],
        "city": "KATY",
        "state": "TX",
        "postalCode": "77450-6508"
      },
      {
        "line": [
          "1550 First Colony Blvd"
        ],
        "city": "SUGAR LAND",
        "state": "TX",
        "postalCode": "77479-4000"
      },
      {
        "line": [
          "1107 SOLDIERS FIELD DR"
        ],
        "city": "SUGAR LAND",
        "state": "TX",
        "postalCode": "77479-4002"
      },
      {
        "line": [
          "7607 TOWN CENTER BLVD"
        ],
        "city": "ROSENBERG",
        "state": "TX",
        "postalCode": "77471-6219"
      },
      {
        "line": [
          "18500 KATY FWY"
        ],
        "city": "HOUSTON",
        "state": "TX",
        "postalCode": "77094-1110"
      },
      {
        "line": [
          "6886 HIGHWAY 6 S"
        ],
        "city": "HOUSTON",
        "state": "TX",
        "postalCode": "77083-3302"
      },
      {
        "line": [
          "4675 SWEETWATER BLVD UNIT B"
        ],
        "city": "SUGAR LAND",
        "state": "TX",
        "postalCode": "77479-3012"
      },
      {
        "line": [
          "1429 HIGHWAY 6 STE 305"
        ],
        "city": "SUGAR LAND",
        "state": "TX",
        "postalCode": "77478-5135"
      },
      {
        "line": [
          "13515 Southwest Fwy"
        ],
        "city": "SUGAR LAND",
        "state": "TX",
        "postalCode": "77478-3562"
      },
      {
        "line": [
          "1730 B F TERRY BLVD"
        ],
        "city": "ROSENBERG",
        "state": "TX",
        "postalCode": "77471-5534"
      },
      {
        "line": [
          "2242 CHAMPIONSHIP DR"
        ],
        "city": "SEALY",
        "state": "TX",
        "postalCode": "77474-8122"
      },
      {
        "line": [
          "2733 1ST ST"
        ],
        "city": "ROSENBERG",
        "state": "TX",
        "postalCode": "77471-5802"
      },
      {
        "line": [
          "21660 KINGSLAND BLVD STE 300"
        ],
        "city": "KATY",
        "state": "TX",
        "postalCode": "77450-2540"
      }
    ],
    "extension": [
      {
        "url": "https://fhir.athena.io/StructureDefinition/ah-practice",
        "valueReference": {
          "reference": "Organization/a-1.Practice-19285"
        }
      },
      {
        "url": "https://fhir.athena.io/StructureDefinition/ah-brand",
        "valueReference": {
          "reference": "Organization/a-19285.Brand-6"
        }
      }
    ]
  },
  "fullUrl": "urn:uuid:722a7a99-d12c-5dfc-a67d-79f6cb46f9f4"
}