{
  "resource": {
    "resourceType": "Organization",
    "id": "194096e5-e465-5e57-9875-a96bf6cb1ce4",
    "name": "Primary Care Select",
    "endpoint": [
      {
        "reference": "Endpoint/27a4e967-47aa-5a9c-a572-b8297ee268a2"
      },
      {
        "reference": "Endpoint/5fd567cc-9c9e-5f81-a09f-55d5be4a45e3"
      }
    ],
    "identifier": [
      {
        "system": "http://hl7.org/fhir/sid/us-npi",
        "value": "1083375414"
      }
    ],
    "address": [
      {
        "line": [
          "100 PERRY HILL ROAD"
        ],
        "city": "MONTGOMERY",
        "state": "AL",
        "postalCode": "36109-3630"
      },
      {
        "line": [
          "750 ALABAMA HIGHWAY 75N"
        ],
        "city": "ALBERTVILLE",
        "state": "AL",
        "postalCode": "35951-4014"
      },
      {
        "line": [
          "616 CHAFFEE STREET"
        ],
        "city": "TALLADEGA",
        "state": "AL",
        "postalCode": "35160-2899"
      },
      {
        "line": [
          "22444 US HIGHWAY 431"
        ],
        "city": "GUNTERSVILLE",
        "state": "AL",
        "postalCode": "35976-8520"
      },
      {
        "line": [
          "750 ALABAMA HIGHWAY 75 NORTH"
        ],
        "city": "ALBERTVILLE",
        "state": "AL",
        "postalCode": "35951-4014"
      },
      {
        "line": [
          "881 3RD STREET NE"
        ],
        "city": "ALABASTER",
        "state": "AL",
        "postalCode": "35007-8954"
      },
      {
        "line": [
          "100 PERRY HILL ROAD SUITE 575"
        ],
        "city": "MONTGOMERY",
        "state": "AL",
        "postalCode": "36109-3630"
      },
      {
        "line": [
          "22444 US HWY 431"
        ],
        "city": "GUNTERSVILLE",
        "state": "AL",
        "postalCode": "35976-8520"
      },
      {
        "line": [
          "22444 HWY 431 SUITE 500"
        ],
        "city": "GUNTERSVILLE",
        "state": "AL",
        "postalCode": "35976-8520"
      }
    ],
    "extension": [
      {
        "url": "https://fhir.athena.io/StructureDefinition/ah-practice",
        "valueReference": {
          "reference": "Organization/a-1.Practice-25773"
        }
      },
      {
        "url": "https://fhir.athena.io/StructureDefinition/ah-brand",
        "valueReference": {
          "reference": "Organization/a-25773.Brand-1"
        }
      }
    ]
  },
  "fullUrl": "urn:uuid:194096e5-e465-5e57-9875-a96bf6cb1ce4"
}