{
  "resource": {
    "resourceType": "Organization",
    "id": "ccb9c3d7-97ba-58da-955b-897449344cab",
    "name": "Ascension Medical Group St Vincents Cardiology",
    "endpoint": [
      {
        "reference": "Endpoint/27a4e967-47aa-5a9c-a572-b8297ee268a2"
      },
      {
        "reference": "Endpoint/41679759-bc4e-5bb2-88c8-0a8bdfd90431"
      }
    ],
    "identifier": [
      {
        "system": "http://hl7.org/fhir/sid/us-npi",
        "value": "1417987124"
      },
      {
        "system": "http://hl7.org/fhir/sid/us-npi",
        "value": "1558344978"
      }
    ],
    "address": [
      {
        "line": [
          "1900 TEBEAU ST"
        ],
        "city": "WAYCROSS",
        "state": "GA",
        "postalCode": "31501-6357"
      },
      {
        "line": [
          "1101 OCILLA RD",
          "PO BOX 1287"
        ],
        "city": "DOUGLAS",
        "state": "GA",
        "postalCode": "31533-2207"
      },
      {
        "line": [
          "159 N 3RD ST"
        ],
        "city": "MACCLENNY",
        "state": "FL",
        "postalCode": "32063-2103"
      },
      {
        "line": [
          "2345 Forbes Street"
        ],
        "city": "Jacksonville",
        "state": "FL",
        "postalCode": "32204-4311"
      },
      {
        "line": [
          "1324 KING ST",
          "SUITE 200"
        ],
        "city": "JACKSONVILLE",
        "state": "FL",
        "postalCode": "32204-4735"
      },
      {
        "line": [
          "3960 OAK ST"
        ],
        "city": "JACKSONVILLE",
        "state": "FL",
        "postalCode": "32205-9375"
      },
      {
        "line": [
          "2 Shircliff Way, Suite 400"
        ],
        "city": "JACKSONVILLE",
        "state": "FL",
        "postalCode": "32204-4765"
      },
      {
        "line": [
          "2035 PROFESSIONAL CENTER DR",
          "SUITE C"
        ],
        "city": "ORANGE PARK",
        "state": "FL",
        "postalCode": "32073-4492"
      },
      {
        "line": [
          "302 S Wayne St"
        ],
        "city": "ALMA",
        "state": "GA",
        "postalCode": "31510-2922"
      },
      {
        "line": [
          "232 PONTE VEDRA PARK DR"
        ],
        "city": "PONTE VEDRA BEACH",
        "state": "FL",
        "postalCode": "32082-6600"
      },
      {
        "line": [
          "2561 OAK ST"
        ],
        "city": "JACKSONVILLE",
        "state": "FL",
        "postalCode": "32204-4559"
      },
      {
        "line": [
          "3625 UNIVERSITY BLVD S"
        ],
        "city": "JACKSONVILLE",
        "state": "FL",
        "postalCode": "32216-4207"
      },
      {
        "line": [
          "390 EH COURT"
        ],
        "city": "BRUNSWICK",
        "state": "GA",
        "postalCode": "31520-2198"
      },
      {
        "line": [
          "1127 16TH AVE S"
        ],
        "city": "JACKSONVILLE BEACH",
        "state": "FL",
        "postalCode": "32250-3213"
      }
    ],
    "extension": [
      {
        "url": "https://fhir.athena.io/StructureDefinition/ah-practice",
        "valueReference": {
          "reference": "Organization/a-1.Practice-8967"
        }
      },
      {
        "url": "https://fhir.athena.io/StructureDefinition/ah-brand",
        "valueReference": {
          "reference": "Organization/a-8967.Brand-3"
        }
      }
    ]
  },
  "fullUrl": "urn:uuid:ccb9c3d7-97ba-58da-955b-897449344cab"
}