{
  "resource": {
    "resourceType": "Organization",
    "id": "81a133b9-b925-5309-b8a8-77f323d378ee",
    "name": "A. J. Brinckerhoff, M.D.",
    "endpoint": [
      {
        "reference": "Endpoint/27a4e967-47aa-5a9c-a572-b8297ee268a2"
      },
      {
        "reference": "Endpoint/eb1a24d4-504f-5207-814b-19b252e95fc1"
      }
    ],
    "identifier": [
      {
        "system": "http://hl7.org/fhir/sid/us-npi",
        "value": "1235111006"
      }
    ],
    "address": [
      {
        "line": [
          "1099 N TORREY PINES RD STE 290"
        ],
        "city": "LA JOLLA",
        "state": "CA",
        "postalCode": "92037-1234"
      },
      {
        "line": [
          "277 Cohasset Road"
        ],
        "city": "CHICO",
        "state": "CA",
        "postalCode": "95926-3411"
      },
      {
        "line": [
          "6480 Pentz Rd. suite B"
        ],
        "city": "PARADISE",
        "state": "CA",
        "postalCode": "95969-3674"
      },
      {
        "line": [
          "277 Cohasset Rd"
        ],
        "city": "CHICO",
        "state": "CA",
        "postalCode": "95926-2242"
      },
      {
        "line": [
          "277 Cohasset Rd"
        ],
        "city": "CHICO",
        "state": "CA",
        "postalCode": "95926-3411"
      },
      {
        "line": [
          "6470 Pentz Rd., STE B"
        ],
        "city": "PARADISE",
        "state": "CA",
        "postalCode": "95969-3674"
      },
      {
        "line": [
          "6470 Pentz Rd",
          "Suite A"
        ],
        "city": "PARADISE",
        "state": "CA",
        "postalCode": "95969-3674"
      },
      {
        "line": [
          "6470 Pentz Rd, Ste B & C"
        ],
        "city": "PARADISE",
        "state": "CA",
        "postalCode": "95969-3674"
      },
      {
        "line": [
          "2250 Douglas Blvd",
          "Ste 140"
        ],
        "city": "ROSEVILLE",
        "state": "CA",
        "postalCode": "95661-4204"
      },
      {
        "line": [
          "1040 Mangrove Ave"
        ],
        "city": "CHICO",
        "state": "CA",
        "postalCode": "95926-3509"
      },
      {
        "line": [
          "101 E GREEN ST STE 11"
        ],
        "city": "PASADENA",
        "state": "CA",
        "postalCode": "91105-2069"
      },
      {
        "line": [
          "6460 Pentz Rd, Ste A"
        ],
        "city": "PARADISE",
        "state": "CA",
        "postalCode": "95969-3673"
      },
      {
        "line": [
          "120 INDEPENDENCE CIR STE G"
        ],
        "city": "CHICO",
        "state": "CA",
        "postalCode": "95973-4925"
      },
      {
        "line": [
          "175 N Jackson Ave",
          "Ste 103A"
        ],
        "city": "SAN JOSE",
        "state": "CA",
        "postalCode": "95116-9998"
      },
      {
        "line": [
          "535 Lawrence St."
        ],
        "city": "QUINCY",
        "state": "CA",
        "postalCode": "95971-9490"
      },
      {
        "line": [
          "2298 Pike Ct"
        ],
        "city": "CONCORD",
        "state": "CA",
        "postalCode": "94520-1251"
      },
      {
        "line": [
          "6480 Pentz Road, STE D"
        ],
        "city": "PARADISE",
        "state": "CA",
        "postalCode": "95969-3674"
      },
      {
        "line": [
          "6470 Pentz Rd",
          "Ste B"
        ],
        "city": "PARADISE",
        "state": "CA",
        "postalCode": "95969-3674"
      },
      {
        "line": [
          "6470 Pentz Road, STE B"
        ],
        "city": "PARADISE",
        "state": "CA",
        "postalCode": "95969-3674"
      }
    ],
    "extension": [
      {
        "url": "https://fhir.athena.io/StructureDefinition/ah-practice",
        "valueReference": {
          "reference": "Organization/a-1.Practice-10649"
        }
      },
      {
        "url": "https://fhir.athena.io/StructureDefinition/ah-brand",
        "valueReference": {
          "reference": "Organization/a-10649.Brand-1"
        }
      }
    ]
  },
  "fullUrl": "urn:uuid:81a133b9-b925-5309-b8a8-77f323d378ee"
}