{
  "resource": {
    "resourceType": "Organization",
    "id": "6c408811-6911-5c73-ba61-7edbcff42d16",
    "name": "Admiral at the Lake",
    "endpoint": [
      {
        "reference": "Endpoint/27a4e967-47aa-5a9c-a572-b8297ee268a2"
      },
      {
        "reference": "Endpoint/210c14dd-ada6-5577-9d2a-2287ddbf4466"
      }
    ],
    "identifier": [
      {
        "system": "http://hl7.org/fhir/sid/us-npi",
        "value": "1831674654"
      },
      {
        "system": "http://hl7.org/fhir/sid/us-npi",
        "value": "1336676923"
      },
      {
        "system": "http://hl7.org/fhir/sid/us-npi",
        "value": "1669909388"
      },
      {
        "system": "http://hl7.org/fhir/sid/us-npi",
        "value": "1336625540"
      },
      {
        "system": "http://hl7.org/fhir/sid/us-npi",
        "value": "1558829937"
      }
    ],
    "address": [
      {
        "line": [
          "1000 S 12th Street"
        ],
        "city": "MURRAY",
        "state": "KY",
        "postalCode": "42071-9303"
      },
      {
        "line": [
          "9365 COUNSELORS ROW"
        ],
        "city": "INDIANAPOLIS",
        "state": "IN",
        "postalCode": "46240-6418"
      },
      {
        "line": [
          "2905 W Sycamore St"
        ],
        "city": "KOKOMO",
        "state": "IN",
        "postalCode": "46901-4078"
      },
      {
        "line": [
          "825 N MERIDIAN ST"
        ],
        "city": "GREENTOWN",
        "state": "IN",
        "postalCode": "46936-1263"
      },
      {
        "line": [
          "35150 Nankin Blvd",
          "STE 103"
        ],
        "city": "WESTLAND",
        "state": "MI",
        "postalCode": "48185-2091"
      },
      {
        "line": [
          "35055 W 12 MILE RD",
          "Ste 250"
        ],
        "city": "FARMINGTON",
        "state": "MI",
        "postalCode": "48331-3208"
      },
      {
        "line": [
          "125 S CLARK ST STE 900"
        ],
        "city": "CHICAGO",
        "state": "IL",
        "postalCode": "60603-4043"
      },
      {
        "line": [
          "329 RAINBOW DR"
        ],
        "city": "KOKOMO",
        "state": "IN",
        "postalCode": "46902-3869"
      },
      {
        "line": [
          "27275 Haggerty Rd",
          "Suite 500"
        ],
        "city": "NOVI",
        "state": "MI",
        "postalCode": "48377-3633"
      },
      {
        "line": [
          "656 WALSTON RD"
        ],
        "city": "ALMO",
        "state": "KY",
        "postalCode": "42020-9261"
      },
      {
        "line": [
          "800 N St. Joseph Drive"
        ],
        "city": "KOKOMO",
        "state": "IN",
        "postalCode": "46901-1983"
      },
      {
        "line": [
          "325 W WALNUT ST",
          "STE 600"
        ],
        "city": "LEBANON",
        "state": "KY",
        "postalCode": "40033-1378"
      },
      {
        "line": [
          "27275 Haggerty Rd"
        ],
        "city": "NOVI",
        "state": "MI",
        "postalCode": "48377-3633"
      },
      {
        "line": [
          "9365 COUNSELORS ROW",
          "STE 210"
        ],
        "city": "INDIANAPOLIS",
        "state": "IN",
        "postalCode": "46240-6418"
      },
      {
        "line": [
          "212 CRESTVIEW LN"
        ],
        "city": "ALMO",
        "state": "KY",
        "postalCode": "42020-9458"
      },
      {
        "line": [
          "1517 W BROADWAY"
        ],
        "city": "MAYFIELD",
        "state": "KY",
        "postalCode": "42066-1927"
      },
      {
        "line": [
          "971 BIRCH ST"
        ],
        "city": "BENTON",
        "state": "KY",
        "postalCode": "42025-1301"
      },
      {
        "line": [
          "1250 RADIO RD"
        ],
        "city": "ALMO",
        "state": "KY",
        "postalCode": "42020-9404"
      },
      {
        "line": [
          "2757 ERWIN RD"
        ],
        "city": "MURRAY",
        "state": "KY",
        "postalCode": "42071-7021"
      },
      {
        "line": [
          "1401 S 16th St"
        ],
        "city": "MURRAY",
        "state": "KY",
        "postalCode": "42071-9303"
      },
      {
        "line": [
          "3600 West Boulevard"
        ],
        "city": "KOKOMO",
        "state": "IN",
        "postalCode": "46902-5992"
      },
      {
        "line": [
          "1169 Robertson Rd S"
        ],
        "city": "MURRAY",
        "state": "KY",
        "postalCode": "42071-0001"
      },
      {
        "line": [
          "2200 S Dixon Rd"
        ],
        "city": "KOKOMO",
        "state": "IN",
        "postalCode": "46902-6406"
      },
      {
        "line": [
          "640 BYPASS RD"
        ],
        "city": "CADIZ",
        "state": "KY",
        "postalCode": "42211-8585"
      }
    ],
    "extension": [
      {
        "url": "https://fhir.athena.io/StructureDefinition/ah-practice",
        "valueReference": {
          "reference": "Organization/a-1.Practice-22064"
        }
      },
      {
        "url": "https://fhir.athena.io/StructureDefinition/ah-brand",
        "valueReference": {
          "reference": "Organization/a-22064.Brand-1"
        }
      }
    ]
  },
  "fullUrl": "urn:uuid:6c408811-6911-5c73-ba61-7edbcff42d16"
}