{
  "resource": {
    "resourceType": "Organization",
    "id": "2deef20d-c86a-591d-bfab-0161ee7d1cda",
    "name": "Augusta Physicians Group LLC",
    "endpoint": [
      {
        "reference": "Endpoint/27a4e967-47aa-5a9c-a572-b8297ee268a2"
      },
      {
        "reference": "Endpoint/759b72f0-6e53-5f4b-b2ff-fe9796e3bd40"
      }
    ],
    "identifier": [
      {
        "system": "http://hl7.org/fhir/sid/us-npi",
        "value": "1518169168"
      }
    ],
    "address": [
      {
        "line": [
          "1350 WALTON WAY"
        ],
        "city": "AUGUSTA",
        "state": "GA",
        "postalCode": "30901-2612"
      },
      {
        "line": [
          "200 OLIVE FIELD DRIVE"
        ],
        "city": "HOLLY SPRINGS",
        "state": "NC",
        "postalCode": "27540-6215"
      },
      {
        "line": [
          "6100 WESTBOROUGH DR"
        ],
        "city": "RALEIGH",
        "state": "NC",
        "postalCode": "27612-7449"
      },
      {
        "line": [
          "3229 CORSHAM DRIVE"
        ],
        "city": "APEX",
        "state": "NC",
        "postalCode": "27539-5729"
      },
      {
        "line": [
          "PO BOX 470"
        ],
        "city": "WEBSTER",
        "state": "NC",
        "postalCode": "28788-0470"
      },
      {
        "line": [
          "2260 WRIGHTSBORO ROAD"
        ],
        "city": "AUGUSTA",
        "state": "GA",
        "postalCode": "30904-4764"
      },
      {
        "line": [
          "1816 CENTER RIDGE DRIVE"
        ],
        "city": "APEX",
        "state": "NC",
        "postalCode": "27502-2483"
      },
      {
        "line": [
          "1937 PARTRIDGE BERRY DRIVE"
        ],
        "city": "RALEIGH",
        "state": "NC",
        "postalCode": "27606-9695"
      },
      {
        "line": [
          "2460 WASHINGTON ROAD, NE"
        ],
        "city": "THOMSON",
        "state": "GA",
        "postalCode": "30824-6600"
      },
      {
        "line": [
          "3934 SAINT MARKS ROAD"
        ],
        "city": "DURHAM",
        "state": "NC",
        "postalCode": "27707-5015"
      },
      {
        "line": [
          "7724 TUSCAN RIDGE DRIVE"
        ],
        "city": "WENDELL",
        "state": "NC",
        "postalCode": "27591-7438"
      },
      {
        "line": [
          "2209 STONEROSE CIRCLE"
        ],
        "city": "RALEIGH",
        "state": "NC",
        "postalCode": "27606-8767"
      },
      {
        "line": [
          "2507 DAWN RIDGE COURT"
        ],
        "city": "APEX",
        "state": "NC",
        "postalCode": "27523-6231"
      },
      {
        "line": [
          "13422 BLACK GUM COURT"
        ],
        "city": "CHANTILLY",
        "state": "VA",
        "postalCode": "20151-2405"
      },
      {
        "line": [
          "5700 MULLIGAN WAY"
        ],
        "city": "FUQUAY VARINA",
        "state": "NC",
        "postalCode": "27526-7578"
      },
      {
        "line": [
          "4205 FIELD OAK DRIVE"
        ],
        "city": "WAKE FOREST",
        "state": "NC",
        "postalCode": "27587-8202"
      }
    ],
    "extension": [
      {
        "url": "https://fhir.athena.io/StructureDefinition/ah-practice",
        "valueReference": {
          "reference": "Organization/a-1.Practice-14272"
        }
      },
      {
        "url": "https://fhir.athena.io/StructureDefinition/ah-brand",
        "valueReference": {
          "reference": "Organization/a-14272.Brand-40"
        }
      }
    ]
  },
  "fullUrl": "urn:uuid:2deef20d-c86a-591d-bfab-0161ee7d1cda"
}