{
  "resource": {
    "resourceType": "Organization",
    "id": "89778dcc-ec8a-5287-bc23-1d4fd41c4c3e",
    "name": "Live Well Center - Acupuncture",
    "endpoint": [
      {
        "reference": "Endpoint/27a4e967-47aa-5a9c-a572-b8297ee268a2"
      },
      {
        "reference": "Endpoint/90df4de4-24a5-56b1-b4f5-840ac4efec29"
      }
    ],
    "identifier": [
      {
        "system": "http://hl7.org/fhir/sid/us-npi",
        "value": "1821021361"
      }
    ],
    "address": [
      {
        "line": [
          "2056 N DIXIE HWY"
        ],
        "city": "WILTON MANORS",
        "state": "FL",
        "postalCode": "33305-2270"
      },
      {
        "line": [
          "2056 N DIXIE HWY"
        ],
        "city": "FORT LAUDERDALE",
        "state": "FL",
        "postalCode": "33305-2270"
      },
      {
        "line": [
          "2056 N Dixie Hwy"
        ],
        "city": "FORT LAUDERDALE",
        "state": "FL",
        "postalCode": "33305-0012"
      },
      {
        "line": [
          "411 Indiantown Road"
        ],
        "city": "JUPITER",
        "state": "FL",
        "postalCode": "33458-3538"
      },
      {
        "line": [
          "2056 N Dixie Hwy"
        ],
        "city": "FORT LAUDERDALE",
        "state": "FL",
        "postalCode": "33305-1010"
      },
      {
        "line": [
          "2200 NE 12TH AVE"
        ],
        "city": "WILTON MANORS",
        "state": "FL",
        "postalCode": "33305-2321"
      },
      {
        "line": [
          "2056 North Dixie Highway"
        ],
        "city": "FORT LAUDERDALE",
        "state": "FL",
        "postalCode": "33305-2270"
      },
      {
        "line": [
          "2056 N Dixie Hwy"
        ],
        "city": "FORT LAUDERDALE",
        "state": "FL",
        "postalCode": "33305-2270"
      },
      {
        "line": [
          "2200 NE 12TH AVENUE"
        ],
        "city": "FORT LAUDERDALE",
        "state": "FL",
        "postalCode": "33305-2270"
      },
      {
        "line": [
          "Pop up Palm Beach",
          "2056 N"
        ],
        "city": "FORT LAUDERDALE",
        "state": "FL",
        "postalCode": "33305-1001"
      },
      {
        "line": [
          "2056 North Dixie"
        ],
        "city": "FORT LAUDERDALE",
        "state": "FL",
        "postalCode": "33305-2270"
      },
      {
        "line": [
          "2056 N DIXIE HWY"
        ],
        "city": "Wilton Manors",
        "state": "FL",
        "postalCode": "33305-2270"
      },
      {
        "line": [
          "2056 N Dixie Hwy"
        ],
        "city": "FORT LAUDERDALE",
        "state": "FL",
        "postalCode": "33305-1004"
      }
    ],
    "extension": [
      {
        "url": "https://fhir.athena.io/StructureDefinition/ah-practice",
        "valueReference": {
          "reference": "Organization/a-1.Practice-14958"
        }
      },
      {
        "url": "https://fhir.athena.io/StructureDefinition/ah-brand",
        "valueReference": {
          "reference": "Organization/a-14958.Brand-1"
        }
      }
    ]
  },
  "fullUrl": "urn:uuid:89778dcc-ec8a-5287-bc23-1d4fd41c4c3e"
}