{
  "resource": {
    "resourceType": "Organization",
    "id": "6a8eaf34-779f-5d2b-b0c4-63cc53cf1c29",
    "name": "Anaheim Hills Primary Care",
    "endpoint": [
      {
        "reference": "Endpoint/27a4e967-47aa-5a9c-a572-b8297ee268a2"
      },
      {
        "reference": "Endpoint/bb2e9653-41b4-5355-a156-5358a2782009"
      }
    ],
    "identifier": [
      {
        "system": "http://hl7.org/fhir/sid/us-npi",
        "value": "1366590762"
      },
      {
        "system": "http://hl7.org/fhir/sid/us-npi",
        "value": "1205884392"
      },
      {
        "system": "http://hl7.org/fhir/sid/us-npi",
        "value": "1356399703"
      },
      {
        "system": "http://hl7.org/fhir/sid/us-npi",
        "value": "1902854078"
      },
      {
        "system": "http://hl7.org/fhir/sid/us-npi",
        "value": "1407806904"
      },
      {
        "system": "http://hl7.org/fhir/sid/us-npi",
        "value": "1255398533"
      },
      {
        "system": "http://hl7.org/fhir/sid/us-npi",
        "value": "1629026729"
      },
      {
        "system": "http://hl7.org/fhir/sid/us-npi",
        "value": "1487602546"
      },
      {
        "system": "http://hl7.org/fhir/sid/us-npi",
        "value": "1356304034"
      },
      {
        "system": "http://hl7.org/fhir/sid/us-npi",
        "value": "1659329746"
      },
      {
        "system": "http://hl7.org/fhir/sid/us-npi",
        "value": "1679521850"
      }
    ],
    "address": [
      {
        "line": [
          "7677 Center Ave Suite 104"
        ],
        "city": "HUNTINGTON BEACH",
        "state": "CA",
        "postalCode": "92647-3030"
      },
      {
        "line": [
          "3033 W Orange Avenue"
        ],
        "city": "ANAHEIM",
        "state": "CA",
        "postalCode": "92804-3156"
      },
      {
        "line": [
          "1700 Mount Vernon Ave"
        ],
        "city": "BAKERSFIELD",
        "state": "CA",
        "postalCode": "93306-4018"
      },
      {
        "line": [
          "875 N BREA BLVD"
        ],
        "city": "BREA",
        "state": "CA",
        "postalCode": "92821-2606"
      },
      {
        "line": [
          "1154 N. Euclid Street"
        ],
        "city": "ANAHEIM",
        "state": "CA",
        "postalCode": "92801-1955"
      },
      {
        "line": [
          "3700 E. South Street"
        ],
        "city": "LAKEWOOD",
        "state": "CA",
        "postalCode": "90712-1419"
      },
      {
        "line": [
          "2601 E Chapman Ave"
        ],
        "city": "ORANGE",
        "state": "CA",
        "postalCode": "92869-3206"
      },
      {
        "line": [
          "101 E Valencia Mesa Dr"
        ],
        "city": "FULLERTON",
        "state": "CA",
        "postalCode": "92835-3809"
      },
      {
        "line": [
          "11190 Warner Ave Ste 212"
        ],
        "city": "FOUNTAIN VALLEY",
        "state": "CA",
        "postalCode": "92708-4045"
      },
      {
        "line": [
          "400 W. Mineral King Ave"
        ],
        "city": "VISALIA",
        "state": "CA",
        "postalCode": "93291-6237"
      },
      {
        "line": [
          "1041 E Yorba Linda Blvd",
          "Suite 306"
        ],
        "city": "PLACENTIA",
        "state": "CA",
        "postalCode": "92870-3751"
      },
      {
        "line": [
          "1111 W La Palma Ave"
        ],
        "city": "ANAHEIM",
        "state": "CA",
        "postalCode": "92801-2804"
      },
      {
        "line": [
          "14662 Newport Beach"
        ],
        "city": "TUSTIN",
        "state": "CA",
        "postalCode": "92780-6064"
      },
      {
        "line": [
          "1772 Beach Blvd"
        ],
        "city": "HUNTINGTON BEACH",
        "state": "CA",
        "postalCode": "92647-6819"
      },
      {
        "line": [
          "3833 Worsham AVE Ste 200"
        ],
        "city": "LONG BEACH",
        "state": "CA",
        "postalCode": "90808-1745"
      },
      {
        "line": [
          "751 Weir Canyon",
          "Suite 167"
        ],
        "city": "ANAHEIM",
        "state": "CA",
        "postalCode": "92808-1962"
      },
      {
        "line": [
          "11160 Warner Ave",
          "Ste 117"
        ],
        "city": "FOUNTAIN VALLEY",
        "state": "CA",
        "postalCode": "92708-4010"
      },
      {
        "line": [
          "1510 San Pablo St"
        ],
        "city": "LOS ANGELES",
        "state": "CA",
        "postalCode": "90033-5320"
      },
      {
        "line": [
          "2240 N. Harbor STE #100"
        ],
        "city": "FULLERTON",
        "state": "CA",
        "postalCode": "92835-8300"
      },
      {
        "line": [
          "681 South Parker St",
          "Suite 150"
        ],
        "city": "ORANGE",
        "state": "CA",
        "postalCode": "92868-4761"
      },
      {
        "line": [
          "17772 BEACH BLVD"
        ],
        "city": "HUNTINGTON BEACH",
        "state": "CA",
        "postalCode": "92647-6819"
      },
      {
        "line": [
          "11160 Warner Ave",
          "Suite 117"
        ],
        "city": "FOUNTAIN VALLEY",
        "state": "CA",
        "postalCode": "92708-4010"
      },
      {
        "line": [
          "1301 N Rose Dr"
        ],
        "city": "PLACENTIA",
        "state": "CA",
        "postalCode": "92870-3802"
      },
      {
        "line": [
          "3771 Katella Ave",
          "STE 100"
        ],
        "city": "LOS ALAMITOS",
        "state": "CA",
        "postalCode": "90720-3111"
      },
      {
        "line": [
          "9920 Talbert Ave"
        ],
        "city": "FOUNTAIN VALLEY",
        "state": "CA",
        "postalCode": "92708-5153"
      },
      {
        "line": [
          "1025 S Anaheim Blvd"
        ],
        "city": "ANAHEIM",
        "state": "CA",
        "postalCode": "92805-5806"
      },
      {
        "line": [
          "17100 EUCLID ST"
        ],
        "city": "FOUNTAIN VALLEY",
        "state": "CA",
        "postalCode": "92708-4004"
      },
      {
        "line": [
          "21250 Hawthorne Blvd Suite 435"
        ],
        "city": "TORRANCE",
        "state": "CA",
        "postalCode": "90503-5504"
      },
      {
        "line": [
          "17772 Beach Blvd"
        ],
        "city": "HUNTINGTON BEACH",
        "state": "CA",
        "postalCode": "92647-6819"
      }
    ],
    "extension": [
      {
        "url": "https://fhir.athena.io/StructureDefinition/ah-practice",
        "valueReference": {
          "reference": "Organization/a-1.Practice-30912"
        }
      },
      {
        "url": "https://fhir.athena.io/StructureDefinition/ah-brand",
        "valueReference": {
          "reference": "Organization/a-30912.Brand-1"
        }
      }
    ]
  },
  "fullUrl": "urn:uuid:6a8eaf34-779f-5d2b-b0c4-63cc53cf1c29"
}