{
  "resource": {
    "resourceType": "Organization",
    "id": "45c2850d-4b2f-52e3-afb1-37df3021992d",
    "name": "BETHESDA HOSPITAL EAST",
    "endpoint": [
      {
        "reference": "Endpoint/27a4e967-47aa-5a9c-a572-b8297ee268a2"
      },
      {
        "reference": "Endpoint/c94fe2d8-2183-51a6-9c86-62fd294077fc"
      }
    ],
    "identifier": [
      {
        "system": "http://hl7.org/fhir/sid/us-npi",
        "value": "1952728131"
      },
      {
        "system": "http://hl7.org/fhir/sid/us-npi",
        "value": "1831299767"
      },
      {
        "system": "http://hl7.org/fhir/sid/us-npi",
        "value": "1710126537"
      }
    ],
    "address": [
      {
        "line": [
          "1800 SE TIFFANY"
        ],
        "city": "PORT SAINT LUCIE",
        "state": "FL",
        "postalCode": "34952-7521"
      },
      {
        "line": [
          "2815 S SEACREST BLVD"
        ],
        "city": "BOYNTON BEACH",
        "state": "FL",
        "postalCode": "33435-7934"
      },
      {
        "line": [
          "2815 S SEACREST BLVD"
        ],
        "city": "BOYNTON BEACH",
        "state": "FL",
        "postalCode": "33435-9734"
      },
      {
        "line": [
          "901 45TH STREET"
        ],
        "city": "WEST PALM BEACH",
        "state": "FL",
        "postalCode": "33407-2413"
      },
      {
        "line": [
          "1309 N. FLAGLER DR"
        ],
        "city": "WEST PALM BEACH",
        "state": "FL",
        "postalCode": "33401-3406"
      },
      {
        "line": [
          "39200 Hooker Highway"
        ],
        "city": "BELLE GLADE",
        "state": "FL",
        "postalCode": "33430-5368"
      },
      {
        "line": [
          "2700 PGA BLVD STE 103"
        ],
        "city": "PALM BEACH GARDENS",
        "state": "FL",
        "postalCode": "33410-2958"
      },
      {
        "line": [
          "13001 SOUTHERN BLVD"
        ],
        "city": "LOXAHATCHEE",
        "state": "FL",
        "postalCode": "33470-9203"
      },
      {
        "line": [
          "1700 S 23RD STREET"
        ],
        "city": "FORT PIERCE",
        "state": "FL",
        "postalCode": "34950-4803"
      },
      {
        "line": [
          "8645 N Military Trl",
          "suite 508"
        ],
        "city": "PALM BEACH GARDENS",
        "state": "FL",
        "postalCode": "33410-6294"
      }
    ],
    "extension": [
      {
        "url": "https://fhir.athena.io/StructureDefinition/ah-practice",
        "valueReference": {
          "reference": "Organization/a-1.Practice-6516"
        }
      },
      {
        "url": "https://fhir.athena.io/StructureDefinition/ah-brand",
        "valueReference": {
          "reference": "Organization/a-6516.Brand-1"
        }
      }
    ]
  },
  "fullUrl": "urn:uuid:45c2850d-4b2f-52e3-afb1-37df3021992d"
}