{
  "resource": {
    "resourceType": "Organization",
    "id": "ef3661aa-2e99-5038-9100-e7ba54ecb8ef",
    "name": "Bach & Godofsky MD PA",
    "endpoint": [
      {
        "reference": "Endpoint/27a4e967-47aa-5a9c-a572-b8297ee268a2"
      },
      {
        "reference": "Endpoint/6abf4da9-7633-5f78-afbf-10499803ee8d"
      }
    ],
    "identifier": [
      {
        "system": "http://hl7.org/fhir/sid/us-npi",
        "value": "1821246661"
      },
      {
        "system": "http://hl7.org/fhir/sid/us-npi",
        "value": "1255396016"
      }
    ],
    "address": [
      {
        "line": [
          "6400 EDGELAKE DR"
        ],
        "city": "SARASOTA",
        "state": "FL",
        "postalCode": "34240-8813"
      },
      {
        "line": [
          "206 2ND ST E"
        ],
        "city": "BRADENTON",
        "state": "FL",
        "postalCode": "34208-1042"
      },
      {
        "line": [
          "1533 4TH AVE W"
        ],
        "city": "BRADENTON",
        "state": "FL",
        "postalCode": "34205-5949"
      },
      {
        "line": [
          "6010 Pointe West Blvd"
        ],
        "city": "BRADENTON",
        "state": "FL",
        "postalCode": "34209-5531"
      },
      {
        "line": [
          "6050 STATE ROAD 70 E UNIT B"
        ],
        "city": "BRADENTON",
        "state": "FL",
        "postalCode": "34203-9700"
      },
      {
        "line": [
          "8330 LAKEWOOD RANCH BLVD",
          "SUITE 280"
        ],
        "city": "BRADENTON",
        "state": "FL",
        "postalCode": "34202-5174"
      },
      {
        "line": [
          "6010 POINTE WEST BLVD"
        ],
        "city": "BRADENTON",
        "state": "FL",
        "postalCode": "34209-5531"
      },
      {
        "line": [
          "6150 EDGELAKE DRIVE"
        ],
        "city": "SARASOTA",
        "state": "FL",
        "postalCode": "34240-8803"
      }
    ],
    "extension": [
      {
        "url": "https://fhir.athena.io/StructureDefinition/ah-practice",
        "valueReference": {
          "reference": "Organization/a-1.Practice-1079"
        }
      },
      {
        "url": "https://fhir.athena.io/StructureDefinition/ah-brand",
        "valueReference": {
          "reference": "Organization/a-1079.Brand-1"
        }
      }
    ]
  },
  "fullUrl": "urn:uuid:ef3661aa-2e99-5038-9100-e7ba54ecb8ef"
}