{
  "resource": {
    "resourceType": "Organization",
    "id": "0e4f315b-161d-5cee-ad3f-5aec7e0d54db",
    "name": "MPO_HMOP_Houston_Methodist_Oncology_Partners",
    "endpoint": [
      {
        "reference": "Endpoint/27a4e967-47aa-5a9c-a572-b8297ee268a2"
      },
      {
        "reference": "Endpoint/b9ccd698-92c5-564e-a188-fcacdd34aa5a"
      }
    ],
    "identifier": [
      {
        "system": "http://hl7.org/fhir/sid/us-npi",
        "value": "1265766281"
      },
      {
        "system": "http://hl7.org/fhir/sid/us-npi",
        "value": "1235183096"
      },
      {
        "system": "http://hl7.org/fhir/sid/us-npi",
        "value": "1154590255"
      },
      {
        "system": "http://hl7.org/fhir/sid/us-npi",
        "value": "1255648200"
      },
      {
        "system": "http://hl7.org/fhir/sid/us-npi",
        "value": "1447567490"
      },
      {
        "system": "http://hl7.org/fhir/sid/us-npi",
        "value": "1922316876"
      },
      {
        "system": "http://hl7.org/fhir/sid/us-npi",
        "value": "1265601355"
      },
      {
        "system": "http://hl7.org/fhir/sid/us-npi",
        "value": "1568770410"
      }
    ],
    "address": [
      {
        "line": [
          "921 Gessner"
        ],
        "city": "HOUSTON",
        "state": "TX",
        "postalCode": "77024-2501"
      },
      {
        "line": [
          "6565 Fannin St"
        ],
        "city": "HOUSTON",
        "state": "TX",
        "postalCode": "77030-2703"
      },
      {
        "line": [
          "7600 Beechnut"
        ],
        "city": "HOUSTON",
        "state": "TX",
        "postalCode": "77074-4302"
      },
      {
        "line": [
          "23900 Katy Frwy"
        ],
        "city": "KATY",
        "state": "TX",
        "postalCode": "77494-1323"
      },
      {
        "line": [
          "23900 Katy Fwy"
        ],
        "city": "KATY",
        "state": "TX",
        "postalCode": "77494-1323"
      },
      {
        "line": [
          "1317 Lake Pointe Parkway"
        ],
        "city": "SUGAR LAND",
        "state": "TX",
        "postalCode": "77479-3997"
      },
      {
        "line": [
          "921 Gessner Road"
        ],
        "city": "HOUSTON",
        "state": "TX",
        "postalCode": "77024-2501"
      },
      {
        "line": [
          "6441 Main St"
        ],
        "city": "HOUSTON",
        "state": "TX",
        "postalCode": "77030-1502"
      },
      {
        "line": [
          "6565 Fannin St",
          "Houston"
        ],
        "city": "HOUSTON",
        "state": "TX",
        "postalCode": "77030-2703"
      },
      {
        "line": [
          "6445 Main Street"
        ],
        "city": "HOUSTON",
        "state": "TX",
        "postalCode": "77030-1502"
      },
      {
        "line": [
          "17500 W Grand Pkwy South"
        ],
        "city": "SUGAR LAND",
        "state": "TX",
        "postalCode": "77479-2562"
      },
      {
        "line": [
          "18500 Katy Freeway"
        ],
        "city": "HOUSTON",
        "state": "TX",
        "postalCode": "77094-1110"
      },
      {
        "line": [
          "7501 Fannin Street"
        ],
        "city": "HOUSTON",
        "state": "TX",
        "postalCode": "77054-1938"
      },
      {
        "line": [
          "18220 Tomball Pkwy"
        ],
        "city": "HOUSTON",
        "state": "TX",
        "postalCode": "77070-4347"
      },
      {
        "line": [
          "1317 Lake Pinte Parkway"
        ],
        "city": "SUGAR LAND",
        "state": "TX",
        "postalCode": "77478-3997"
      },
      {
        "line": [
          "17500 W Grand Pkwy S"
        ],
        "city": "SUGAR LAND",
        "state": "TX",
        "postalCode": "77479-2562"
      },
      {
        "line": [
          "16655 Southwest Fwy"
        ],
        "city": "SUGAR LAND",
        "state": "TX",
        "postalCode": "77479-2348"
      },
      {
        "line": [
          "6720 Bertner Avenue"
        ],
        "city": "HOUSTON",
        "state": "TX",
        "postalCode": "77030-2604"
      },
      {
        "line": [
          "16655 Southwest Fwy"
        ],
        "city": "SUGAR LAND",
        "state": "TX",
        "postalCode": "77479-2329"
      },
      {
        "line": [
          "1635 North Loop West"
        ],
        "city": "HOUSTON",
        "state": "TX",
        "postalCode": "77008-1532"
      },
      {
        "line": [
          "7600 Beechnut"
        ],
        "city": "HOUSTON",
        "state": "TX",
        "postalCode": "77074-4203"
      },
      {
        "line": [
          "13300 Hargrave"
        ],
        "city": "HOUSTON",
        "state": "TX",
        "postalCode": "77070-4348"
      },
      {
        "line": [
          "1317 Lake Pointe Parkway"
        ],
        "city": "SUGAR LAND",
        "state": "TX",
        "postalCode": "77478-3997"
      },
      {
        "line": [
          "13300 Hargrave"
        ],
        "city": "HOUSTON",
        "state": "TX",
        "postalCode": "77070-4347"
      }
    ],
    "extension": [
      {
        "url": "https://fhir.athena.io/StructureDefinition/ah-practice",
        "valueReference": {
          "reference": "Organization/a-1.Practice-1171"
        }
      },
      {
        "url": "https://fhir.athena.io/StructureDefinition/ah-brand",
        "valueReference": {
          "reference": "Organization/a-1171.Brand-1"
        }
      }
    ]
  },
  "fullUrl": "urn:uuid:0e4f315b-161d-5cee-ad3f-5aec7e0d54db"
}