{
  "resource": {
    "resourceType": "Organization",
    "id": "0c3dd64a-eed3-5366-a328-649305d214aa",
    "name": "Westlake Orthopaedics Spine and Sports",
    "endpoint": [
      {
        "reference": "Endpoint/27a4e967-47aa-5a9c-a572-b8297ee268a2"
      },
      {
        "reference": "Endpoint/718ed9ab-65a8-53e6-a230-73ad408e6be4"
      }
    ],
    "identifier": [
      {
        "system": "http://hl7.org/fhir/sid/us-npi",
        "value": "1023110129"
      }
    ],
    "address": [
      {
        "line": [
          "5656 BEE CAVES RD STE K200"
        ],
        "city": "AUSTIN",
        "state": "TX",
        "postalCode": "78746-5811"
      },
      {
        "line": [
          "601 E. 15TH. STREET"
        ],
        "city": "AUSTIN",
        "state": "TX",
        "postalCode": "78701-1930"
      },
      {
        "line": [
          "5656 BEE CAVES RD. SUITE M-302"
        ],
        "city": "AUSTIN",
        "state": "TX",
        "postalCode": "78746-5814"
      },
      {
        "line": [
          "2501 W WILLIAM CANNON DR SUITE 301"
        ],
        "city": "AUSTIN",
        "state": "TX",
        "postalCode": "78745-5256"
      },
      {
        "line": [
          "5656 BEE CAVES RD. SUITE J"
        ],
        "city": "AUSTIN",
        "state": "TX",
        "postalCode": "78746-5814"
      },
      {
        "line": [
          "5656 BEE CAVE RD STE K200"
        ],
        "city": "AUSTIN",
        "state": "TX",
        "postalCode": "78746-5811"
      },
      {
        "line": [
          "2501 W. WILLIAM CANNON"
        ],
        "city": "AUSTIN",
        "state": "TX",
        "postalCode": "78745-5256"
      },
      {
        "line": [
          "5200 Davis Ln"
        ],
        "city": "AUSTIN",
        "state": "TX",
        "postalCode": "78749-4065"
      },
      {
        "line": [
          "6818 AUSTIN CENTER BLVD."
        ],
        "city": "AUSTIN",
        "state": "TX",
        "postalCode": "78731-3158"
      },
      {
        "line": [
          "12221 NORTH MOPAC EXPRESSWAY"
        ],
        "city": "AUSTIN",
        "state": "TX",
        "postalCode": "78758-2401"
      },
      {
        "line": [
          "11113 RESEARCH BLVD."
        ],
        "city": "AUSTIN",
        "state": "TX",
        "postalCode": "78758-5236"
      },
      {
        "line": [
          "351 CYPRESS CREEK RD. SUITE 102"
        ],
        "city": "CEDAR PARK",
        "state": "TX",
        "postalCode": "78613-4655"
      },
      {
        "line": [
          "5329 Serene Hills Dr, STE"
        ],
        "city": "LAKEWAY",
        "state": "TX",
        "postalCode": "78738-1256"
      },
      {
        "line": [
          "12221 NORTH MOPAC EXPY"
        ],
        "city": "AUSTIN",
        "state": "TX",
        "postalCode": "78758-2401"
      },
      {
        "line": [
          "919 E. 32ND ST."
        ],
        "city": "AUSTIN",
        "state": "TX",
        "postalCode": "78705-2703"
      },
      {
        "line": [
          "4207 JAMES CASEY"
        ],
        "city": "AUSTIN",
        "state": "TX",
        "postalCode": "78745-3300"
      },
      {
        "line": [
          "5200 Davis Lane",
          "Ste B 200"
        ],
        "city": "AUSTIN",
        "state": "TX",
        "postalCode": "78749-4064"
      },
      {
        "line": [
          "901 W. BEN WHITE BLVD."
        ],
        "city": "AUSTIN",
        "state": "TX",
        "postalCode": "78704-6903"
      },
      {
        "line": [
          "6818 AUSTIN CENTER BLVD"
        ],
        "city": "AUSTIN",
        "state": "TX",
        "postalCode": "78731-3158"
      },
      {
        "line": [
          "1201 W LOUIS HENNA BLVD"
        ],
        "city": "ROUND ROCK",
        "state": "TX",
        "postalCode": "78681-2301"
      },
      {
        "line": [
          "351 CYPRESS CREEK RD."
        ],
        "city": "CEDAR PARK",
        "state": "TX",
        "postalCode": "78613-4655"
      },
      {
        "line": [
          "3003 BEE CAVE RD."
        ],
        "city": "AUSTIN",
        "state": "TX",
        "postalCode": "78746-5542"
      },
      {
        "line": [
          "919 E. 32ND. ST."
        ],
        "city": "AUSTIN",
        "state": "TX",
        "postalCode": "78705-2703"
      },
      {
        "line": [
          "901 W BEN WHITE BLVD"
        ],
        "city": "AUSTIN",
        "state": "TX",
        "postalCode": "78704-6903"
      },
      {
        "line": [
          "5656 BEE CAVE RD STE K200"
        ],
        "city": "AUSTIN",
        "state": "TX",
        "postalCode": "78745-5511"
      },
      {
        "line": [
          "4611 GUADALUPE #100"
        ],
        "city": "AUSTIN",
        "state": "TX",
        "postalCode": "78751-2928"
      },
      {
        "line": [
          "5329 Serene Hills Dr, STE"
        ],
        "city": "AUSTIN",
        "state": "TX",
        "postalCode": "78738-1256"
      }
    ],
    "extension": [
      {
        "url": "https://fhir.athena.io/StructureDefinition/ah-practice",
        "valueReference": {
          "reference": "Organization/a-1.Practice-15685"
        }
      },
      {
        "url": "https://fhir.athena.io/StructureDefinition/ah-brand",
        "valueReference": {
          "reference": "Organization/a-15685.Brand-1"
        }
      }
    ]
  },
  "fullUrl": "urn:uuid:0c3dd64a-eed3-5366-a328-649305d214aa"
}