{
  "resource": {
    "resourceType": "Organization",
    "id": "52ecbef3-6555-5dc8-90e5-4dc2b53d647c",
    "name": "SaVida Health",
    "endpoint": [
      {
        "reference": "Endpoint/27a4e967-47aa-5a9c-a572-b8297ee268a2"
      },
      {
        "reference": "Endpoint/2642887e-4dc4-5d58-a0ae-848c42236120"
      }
    ],
    "identifier": [
      {
        "system": "http://hl7.org/fhir/sid/us-npi",
        "value": "1861118846"
      },
      {
        "system": "http://hl7.org/fhir/sid/us-npi",
        "value": "1285388546"
      },
      {
        "system": "http://hl7.org/fhir/sid/us-npi",
        "value": "1316253875"
      },
      {
        "system": "http://hl7.org/fhir/sid/us-npi",
        "value": "1548739170"
      },
      {
        "system": "http://hl7.org/fhir/sid/us-npi",
        "value": "1598225021"
      },
      {
        "system": "http://hl7.org/fhir/sid/us-npi",
        "value": "1396201000"
      },
      {
        "system": "http://hl7.org/fhir/sid/us-npi",
        "value": "1588226328"
      }
    ],
    "address": [
      {
        "line": [
          "41 Acme Rd",
          "Suite 3"
        ],
        "city": "BREWER",
        "state": "ME",
        "postalCode": "04412-1543"
      },
      {
        "line": [
          "12 Dallaire Ave"
        ],
        "city": "CHICOPEE",
        "state": "MA",
        "postalCode": "01020-1237"
      },
      {
        "line": [
          "655 Main Street",
          "Suite 2"
        ],
        "city": "BENNINGTON",
        "state": "VT",
        "postalCode": "05201-2225"
      },
      {
        "line": [
          "54 Chickering Dr.",
          "Suite A"
        ],
        "city": "BRATTLEBORO",
        "state": "VT",
        "postalCode": "05301-8805"
      },
      {
        "line": [
          "402 Bna Dr",
          "Suite 112"
        ],
        "city": "NASHVILLE",
        "state": "TN",
        "postalCode": "37217-2519"
      },
      {
        "line": [
          "214 Main St"
        ],
        "city": "VERGENNES",
        "state": "VT",
        "postalCode": "05491-1157"
      },
      {
        "line": [
          "462 Hegeman Ave"
        ],
        "city": "COLCHESTER",
        "state": "VT",
        "postalCode": "05446-3187"
      },
      {
        "line": [
          "31 Lower Main Street",
          "Suite 3"
        ],
        "city": "MORRISVILLE",
        "state": "VT",
        "postalCode": "05661-6100"
      },
      {
        "line": [
          "77 Hospital Ave",
          "Suite 104"
        ],
        "city": "NORTH ADAMS",
        "state": "MA",
        "postalCode": "01247-2550"
      },
      {
        "line": [
          "409 Alfred St",
          "Units 4 & 5"
        ],
        "city": "BIDDEFORD",
        "state": "ME",
        "postalCode": "04005-3756"
      }
    ],
    "extension": [
      {
        "url": "https://fhir.athena.io/StructureDefinition/ah-practice",
        "valueReference": {
          "reference": "Organization/a-1.Practice-24804"
        }
      },
      {
        "url": "https://fhir.athena.io/StructureDefinition/ah-brand",
        "valueReference": {
          "reference": "Organization/a-24804.Brand-1"
        }
      }
    ]
  },
  "fullUrl": "urn:uuid:52ecbef3-6555-5dc8-90e5-4dc2b53d647c"
}