{
  "resource": {
    "resourceType": "Organization",
    "id": "35be5815-9fb4-5923-874a-278a84806130",
    "name": "Merit Health Medical Group",
    "endpoint": [
      {
        "reference": "Endpoint/27a4e967-47aa-5a9c-a572-b8297ee268a2"
      },
      {
        "reference": "Endpoint/26e98536-f1d1-5d7d-b4c6-935507e1f903"
      }
    ],
    "identifier": [
      {
        "system": "http://hl7.org/fhir/sid/us-npi",
        "value": "1922029040"
      }
    ],
    "address": [
      {
        "line": [
          "350 CROSSGATES BLVD"
        ],
        "city": "BRANDON",
        "state": "MS",
        "postalCode": "39042-2601"
      },
      {
        "line": [
          "1860 Chadwick Dr Ste 150A"
        ],
        "city": "JACKSON",
        "state": "MS",
        "postalCode": "39204-3486"
      },
      {
        "line": [
          "1860 CHADWICK DR STE 101"
        ],
        "city": "JACKSON",
        "state": "MS",
        "postalCode": "39204-3465"
      },
      {
        "line": [
          "1026 N FLOWOOD DR"
        ],
        "city": "FLOWOOD",
        "state": "MS",
        "postalCode": "39232-9532"
      },
      {
        "line": [
          "300 3rd Ave SE"
        ],
        "city": "MAGEE",
        "state": "MS",
        "postalCode": "39111-3665"
      },
      {
        "line": [
          "102 Metroplex Blvd Ste B"
        ],
        "city": "PEARL",
        "state": "MS",
        "postalCode": "39208-9202"
      },
      {
        "line": [
          "321 Highway 13 S"
        ],
        "city": "MORTON",
        "state": "MS",
        "postalCode": "39117-3353"
      },
      {
        "line": [
          "1860 Chadwick Dr Ste 256"
        ],
        "city": "JACKSON",
        "state": "MS",
        "postalCode": "39204-3486"
      },
      {
        "line": [
          "200 KEY DR"
        ],
        "city": "MADISON",
        "state": "MS",
        "postalCode": "39110-7361"
      },
      {
        "line": [
          "1033 N FLOWOOD DR"
        ],
        "city": "FLOWOOD",
        "state": "MS",
        "postalCode": "39232-9533"
      },
      {
        "line": [
          "163 RIVER OAKS DR STE 101"
        ],
        "city": "CANTON",
        "state": "MS",
        "postalCode": "39046-9999"
      },
      {
        "line": [
          "346 CROSSGATES BLVD STE 102"
        ],
        "city": "BRANDON",
        "state": "MS",
        "postalCode": "39042-2608"
      },
      {
        "line": [
          "732 CLINTON PKWY"
        ],
        "city": "CLINTON",
        "state": "MS",
        "postalCode": "39056-9999"
      },
      {
        "line": [
          "161 RIVER OAKS DR"
        ],
        "city": "CANTON",
        "state": "MS",
        "postalCode": "39046-5375"
      },
      {
        "line": [
          "7732 Old Canton Rd"
        ],
        "city": "MADISON",
        "state": "MS",
        "postalCode": "39110-9299"
      },
      {
        "line": [
          "4290 Lakeland Dr Ste A"
        ],
        "city": "FLOWOOD",
        "state": "MS",
        "postalCode": "39232-9571"
      },
      {
        "line": [
          "1030 RIVER OAKS DR"
        ],
        "city": "FLOWOOD",
        "state": "MS",
        "postalCode": "39232-9553"
      },
      {
        "line": [
          "1020 N FLOWOOD DR STE A"
        ],
        "city": "FLOWOOD",
        "state": "MS",
        "postalCode": "39232-9532"
      },
      {
        "line": [
          "7215 Siwell Rd"
        ],
        "city": "Byram",
        "state": "MS",
        "postalCode": "39272-9776"
      },
      {
        "line": [
          "7215 Siwell Rd"
        ],
        "city": "BYRAM",
        "state": "MS",
        "postalCode": "39272-9776"
      },
      {
        "line": [
          "2080 S Frontage Rd Ste 113"
        ],
        "city": "VICKSBURG",
        "state": "MS",
        "postalCode": "39180-5328"
      },
      {
        "line": [
          "732 CLINTON PKWY"
        ],
        "city": "CLINTON",
        "state": "MS",
        "postalCode": "39056-5227"
      },
      {
        "line": [
          "2500 N STATE ST"
        ],
        "city": "JACKSON",
        "state": "MS",
        "postalCode": "39216-4500"
      },
      {
        "line": [
          "102 Metroplex Blvd Ste B"
        ],
        "city": "Pearl",
        "state": "MS",
        "postalCode": "39208-9202"
      },
      {
        "line": [
          "2200 HIGHWAY 61 N STE 3200"
        ],
        "city": "VICKSBURG",
        "state": "MS",
        "postalCode": "39183-8246"
      },
      {
        "line": [
          "2500 N STATE ST"
        ],
        "city": "JACKSON",
        "state": "MS",
        "postalCode": "39216-4503"
      },
      {
        "line": [
          "2100 Highway 61 N"
        ],
        "city": "VICKSBURG",
        "state": "MS",
        "postalCode": "39183-8211"
      },
      {
        "line": [
          "360 SIMPSON HWY 149 STE D"
        ],
        "city": "MAGEE",
        "state": "MS",
        "postalCode": "39111-3841"
      },
      {
        "line": [
          "1860 CHADWICK DR STE 351"
        ],
        "city": "JACKSON",
        "state": "MS",
        "postalCode": "39204-3472"
      },
      {
        "line": [
          "1860 CHADWICK DR STE 303"
        ],
        "city": "JACKSON",
        "state": "MS",
        "postalCode": "39204-3465"
      },
      {
        "line": [
          "2841 HWY 18 STE A"
        ],
        "city": "BRANDON",
        "state": "MS",
        "postalCode": "39042-2769"
      },
      {
        "line": [
          "1201 HIGHWAY 49 S STE 4"
        ],
        "city": "RICHLAND",
        "state": "MS",
        "postalCode": "39218-9438"
      },
      {
        "line": [
          "1220 Northshore Pkwy Ste A"
        ],
        "city": "BRANDON",
        "state": "MS",
        "postalCode": "39047-6383"
      },
      {
        "line": [
          "163 RIVER OAKS DR STE 201"
        ],
        "city": "CANTON",
        "state": "MS",
        "postalCode": "39046-5324"
      }
    ],
    "extension": [
      {
        "url": "https://fhir.athena.io/StructureDefinition/ah-practice",
        "valueReference": {
          "reference": "Organization/a-1.Practice-4695"
        }
      },
      {
        "url": "https://fhir.athena.io/StructureDefinition/ah-brand",
        "valueReference": {
          "reference": "Organization/a-4695.Brand-10"
        }
      }
    ]
  },
  "fullUrl": "urn:uuid:35be5815-9fb4-5923-874a-278a84806130"
}