{
  "resource": {
    "resourceType": "Organization",
    "id": "74ac4752-c794-5fdf-bf3f-a3555558ee3e",
    "name": "MEDEXPRESS URGENT CARE, INC. - WEST VIRGINIA",
    "endpoint": [
      {
        "reference": "Endpoint/27a4e967-47aa-5a9c-a572-b8297ee268a2"
      },
      {
        "reference": "Endpoint/d6a4720f-fc53-5962-98c7-bd16c5da4e49"
      }
    ],
    "identifier": [
      {
        "system": "http://hl7.org/fhir/sid/us-npi",
        "value": "1912133315"
      }
    ],
    "address": [
      {
        "line": [
          "2832 Pike Street"
        ],
        "city": "PARKERSBURG",
        "state": "WV",
        "postalCode": "26101-8674"
      },
      {
        "line": [
          "1585 Wheeling Ave"
        ],
        "city": "GLEN DALE",
        "state": "WV",
        "postalCode": "26038-1731"
      },
      {
        "line": [
          "101 Emily Drive"
        ],
        "city": "CLARKSBURG",
        "state": "WV",
        "postalCode": "26301-5502"
      },
      {
        "line": [
          "4812 MacCorkle Ave."
        ],
        "city": "CHARLESTON",
        "state": "WV",
        "postalCode": "25309-1340"
      },
      {
        "line": [
          "1709 Harper Rd."
        ],
        "city": "BECKLEY",
        "state": "WV",
        "postalCode": "25801-3311"
      },
      {
        "line": [
          "630 Fairmont Avenue"
        ],
        "city": "FAIRMONT",
        "state": "WV",
        "postalCode": "26554-5104"
      },
      {
        "line": [
          "215 Don Knotts Blvd.",
          "Suite 130"
        ],
        "city": "MORGANTOWN",
        "state": "WV",
        "postalCode": "26501-6734"
      },
      {
        "line": [
          "5447 MAPLE LN",
          "Suite B"
        ],
        "city": "FAYETTEVILLE",
        "state": "WV",
        "postalCode": "25840-6872"
      },
      {
        "line": [
          "218 Three Springs Dr."
        ],
        "city": "WEIRTON",
        "state": "WV",
        "postalCode": "26062-3815"
      },
      {
        "line": [
          "5430 MacCorkle Ave. SE"
        ],
        "city": "CHARLESTON",
        "state": "WV",
        "postalCode": "25304-2224"
      },
      {
        "line": [
          "120 Medical Park Drive",
          "Suite 100"
        ],
        "city": "BRIDGEPORT",
        "state": "WV",
        "postalCode": "26330-9013"
      },
      {
        "line": [
          "613 Randolph Ave"
        ],
        "city": "ELKINS",
        "state": "WV",
        "postalCode": "26241-3356"
      },
      {
        "line": [
          "5870 Webster Rd, Suite 101"
        ],
        "city": "SUMMERSVILLE",
        "state": "WV",
        "postalCode": "26651-9105"
      },
      {
        "line": [
          "563 State Route 34"
        ],
        "city": "HURRICANE",
        "state": "WV",
        "postalCode": "25526-7000"
      },
      {
        "line": [
          "1355A Edwin Miller Blvd."
        ],
        "city": "MARTINSBURG",
        "state": "WV",
        "postalCode": "25404-3703"
      },
      {
        "line": [
          "277 Greasy Ridge Road"
        ],
        "city": "PRINCETON",
        "state": "WV",
        "postalCode": "24739-6900"
      },
      {
        "line": [
          "1416 MacCorkle Ave SW"
        ],
        "city": "CHARLESTON",
        "state": "WV",
        "postalCode": "25303-1324"
      },
      {
        "line": [
          "10 Elm Grove Crossing Mall"
        ],
        "city": "WHEELING",
        "state": "WV",
        "postalCode": "26003-5300"
      },
      {
        "line": [
          "620 National Rd.",
          "Suite 300"
        ],
        "city": "WHEELING",
        "state": "WV",
        "postalCode": "26003-6560"
      },
      {
        "line": [
          "301 RHL BLVD"
        ],
        "city": "SOUTH CHARLESTON",
        "state": "WV",
        "postalCode": "25309-8275"
      },
      {
        "line": [
          "520 Beckley Crossing"
        ],
        "city": "BECKLEY",
        "state": "WV",
        "postalCode": "25801-7110"
      },
      {
        "line": [
          "956 Maple Drive"
        ],
        "city": "MORGANTOWN",
        "state": "WV",
        "postalCode": "26505-2813"
      },
      {
        "line": [
          "83 Retail Commons PKWY"
        ],
        "city": "MARTINSBURG",
        "state": "WV",
        "postalCode": "25403-6172"
      },
      {
        "line": [
          "3120 US Route 60"
        ],
        "city": "HUNTINGTON",
        "state": "WV",
        "postalCode": "25705-2739"
      },
      {
        "line": [
          "123 ENTERPRISE DR"
        ],
        "city": "LOGAN",
        "state": "WV",
        "postalCode": "25601-3442"
      },
      {
        "line": [
          "1560 Jefferson St N"
        ],
        "city": "LEWISBURG",
        "state": "WV",
        "postalCode": "24901-2203"
      },
      {
        "line": [
          "1500 Grand Central Ave.",
          "Suite 115"
        ],
        "city": "PARKERSBURG",
        "state": "WV",
        "postalCode": "26105-1079"
      },
      {
        "line": [
          "1370 Johnson Ave."
        ],
        "city": "BRIDGEPORT",
        "state": "WV",
        "postalCode": "26330-1492"
      },
      {
        "line": [
          "5161 Washington Street W"
        ],
        "city": "CROSS LANES",
        "state": "WV",
        "postalCode": "25313-1535"
      },
      {
        "line": [
          "10 Adams Street"
        ],
        "city": "HUNTINGTON",
        "state": "WV",
        "postalCode": "25701-1131"
      }
    ],
    "extension": [
      {
        "url": "https://fhir.athena.io/StructureDefinition/ah-practice",
        "valueReference": {
          "reference": "Organization/a-1.Practice-3908"
        }
      },
      {
        "url": "https://fhir.athena.io/StructureDefinition/ah-brand",
        "valueReference": {
          "reference": "Organization/a-3908.Brand-1"
        }
      }
    ]
  },
  "fullUrl": "urn:uuid:74ac4752-c794-5fdf-bf3f-a3555558ee3e"
}