{
  "resource": {
    "resourceType": "Organization",
    "id": "da165c1a-1e52-5619-9a80-f714d0863afa",
    "name": "GUIRGUIS OBSTETRICS AND GYNECOLOGY GROUP",
    "endpoint": [
      {
        "reference": "Endpoint/27a4e967-47aa-5a9c-a572-b8297ee268a2"
      },
      {
        "reference": "Endpoint/46264cf4-ab0d-5f5a-b327-75703289c4b1"
      }
    ],
    "identifier": [
      {
        "system": "http://hl7.org/fhir/sid/us-npi",
        "value": "1356688220"
      }
    ],
    "address": [
      {
        "line": [
          "464 77TH STREET"
        ],
        "city": "BROOKLYN",
        "state": "NY",
        "postalCode": "11209-3206"
      },
      {
        "line": [
          "506 6TH STREET"
        ],
        "city": "BROOKLYN",
        "state": "NY",
        "postalCode": "11215-3609"
      },
      {
        "line": [
          "355 BARD AVE"
        ],
        "city": "STATEN ISLAND",
        "state": "NY",
        "postalCode": "10310-1664"
      },
      {
        "line": [
          "322 SEAVIEW AVE"
        ],
        "city": "STATEN ISLAND",
        "state": "NY",
        "postalCode": "10305-2246"
      },
      {
        "line": [
          "475 SEAVIEW AVE"
        ],
        "city": "STATEN ISLAND",
        "state": "NY",
        "postalCode": "10305-3436"
      },
      {
        "line": [
          "522 3RD ST"
        ],
        "city": "BROOKLYN",
        "state": "NY",
        "postalCode": "11215-3003"
      },
      {
        "line": [
          "506 6th street",
          "Dr. Peter Guirguis, MD OBGYN"
        ],
        "city": "BROOKLYN",
        "state": "NY",
        "postalCode": "11215-3609"
      },
      {
        "line": [
          "322 SEAVIEW AVE",
          "Guirguis OBGYN Group"
        ],
        "city": "STATEN ISLAND",
        "state": "NY",
        "postalCode": "10305-2246"
      },
      {
        "line": [
          "475 SEAVIEW AVE",
          "Dr. Peter Guirguis OBGYN"
        ],
        "city": "STATEN ISLAND",
        "state": "NY",
        "postalCode": "10305-3436"
      },
      {
        "line": [
          "174 Lily Pond Avenue",
          "Second Floor"
        ],
        "city": "STATEN ISLAND",
        "state": "NY",
        "postalCode": "10305-4608"
      }
    ],
    "extension": [
      {
        "url": "https://fhir.athena.io/StructureDefinition/ah-practice",
        "valueReference": {
          "reference": "Organization/a-1.Practice-25913"
        }
      },
      {
        "url": "https://fhir.athena.io/StructureDefinition/ah-brand",
        "valueReference": {
          "reference": "Organization/a-25913.Brand-1"
        }
      }
    ]
  },
  "fullUrl": "urn:uuid:da165c1a-1e52-5619-9a80-f714d0863afa"
}