{
  "resource": {
    "resourceType": "Organization",
    "id": "89fe0ed4-fb00-50c5-9a55-391020455c31",
    "name": "KDMG N Glendale",
    "endpoint": [
      {
        "reference": "Endpoint/27a4e967-47aa-5a9c-a572-b8297ee268a2"
      },
      {
        "reference": "Endpoint/a1c48404-8806-5eea-8e81-4823a3e5410f"
      }
    ],
    "identifier": [
      {
        "system": "http://hl7.org/fhir/sid/us-npi",
        "value": "1740392810"
      }
    ],
    "address": [
      {
        "line": [
          "1287 N HACIENDA BLVD"
        ],
        "city": "LA PUENTE",
        "state": "CA",
        "postalCode": "91744-1631"
      },
      {
        "line": [
          "1427 S. Glendale Avenue"
        ],
        "city": "GLENDALE",
        "state": "CA",
        "postalCode": "91205-3313"
      },
      {
        "line": [
          "1509 Wilson Terrace North Tower",
          "2nd floor"
        ],
        "city": "GLENDALE",
        "state": "CA",
        "postalCode": "91204-0432"
      },
      {
        "line": [
          "511 S Harbor Blvd",
          "Suite T"
        ],
        "city": "LA HABRA",
        "state": "CA",
        "postalCode": "90631-9374"
      },
      {
        "line": [
          "1427 S. Glendale Ave"
        ],
        "city": "GLENDALE",
        "state": "CA",
        "postalCode": "91205-3313"
      },
      {
        "line": [
          "1000 E. Palmer"
        ],
        "city": "GLENDALE",
        "state": "CA",
        "postalCode": "91205-3532"
      },
      {
        "line": [
          "2031 W. Alameda"
        ],
        "city": "BURBANK",
        "state": "CA",
        "postalCode": "91506-2959"
      },
      {
        "line": [
          "6850 San Fernando RD"
        ],
        "city": "GLENDALE",
        "state": "CA",
        "postalCode": "91201-0001"
      },
      {
        "line": [
          "6840 Sepulveda Blvd",
          "# 101"
        ],
        "city": "VAN NUYS",
        "state": "CA",
        "postalCode": "91405-4401"
      },
      {
        "line": [
          "1212 WILSHIRE BLVD"
        ],
        "city": "LOS ANGELES",
        "state": "CA",
        "postalCode": "90017-1902"
      },
      {
        "line": [
          "1505 WILSON TERRACE, SUITE 155",
          "SUITE 155"
        ],
        "city": "GLENDALE",
        "state": "CA",
        "postalCode": "91206-4032"
      },
      {
        "line": [
          "1808 Verdugo Blvd",
          "Suite 200"
        ],
        "city": "GLENDALE",
        "state": "CA",
        "postalCode": "91208-3501"
      },
      {
        "line": [
          "1420 S. Central Ave"
        ],
        "city": "GLENDALE",
        "state": "CA",
        "postalCode": "91204-2508"
      },
      {
        "line": [
          "15107 Vanowen Street"
        ],
        "city": "VAN NUYS",
        "state": "CA",
        "postalCode": "91405-4542"
      },
      {
        "line": [
          "1509 Wilson Terrace"
        ],
        "city": "GLENDALE",
        "state": "CA",
        "postalCode": "91206-4007"
      },
      {
        "line": [
          "8239 Rochester Ave",
          "Suite110"
        ],
        "city": "RANCHO CUCAMONGA",
        "state": "CA",
        "postalCode": "91730-0715"
      },
      {
        "line": [
          "11702 Victory Blvd"
        ],
        "city": "NORTH HOLLYWOOD",
        "state": "CA",
        "postalCode": "91606-0001"
      },
      {
        "line": [
          "2031 W. Alameda",
          "Suite 202"
        ],
        "city": "BURBANK",
        "state": "CA",
        "postalCode": "91506-2959"
      },
      {
        "line": [
          "6850 San Fernando Rd"
        ],
        "city": "GLENDALE",
        "state": "CA",
        "postalCode": "91201-0001"
      },
      {
        "line": [
          "1505 Wilson Terrace",
          "Suite 155"
        ],
        "city": "GLENDALE",
        "state": "CA",
        "postalCode": "91206-4032"
      },
      {
        "line": [
          "2570 Newport Blvd"
        ],
        "city": "COSTA MESA",
        "state": "CA",
        "postalCode": "92627-1331"
      },
      {
        "line": [
          "1540 West Covina Parkway"
        ],
        "city": "WEST COVINA",
        "state": "CA",
        "postalCode": "91790-2703"
      },
      {
        "line": [
          "1505 Wilson Terrace"
        ],
        "city": "GLENDALE",
        "state": "CA",
        "postalCode": "91206-4032"
      },
      {
        "line": [
          "623 S. Central"
        ],
        "city": "GLENDALE",
        "state": "CA",
        "postalCode": "91204-2008"
      },
      {
        "line": [
          "511 S. Harbor Blvd",
          "Suite T"
        ],
        "city": "LA HABRA",
        "state": "CA",
        "postalCode": "90631-9375"
      },
      {
        "line": [
          "4835 Van Nuys Ave",
          "SUITE 111"
        ],
        "city": "SHERMAN OAKS",
        "state": "CA",
        "postalCode": "91403-2136"
      },
      {
        "line": [
          "1505 Wilson Terrace",
          "Suite 190"
        ],
        "city": "GLENDALE",
        "state": "CA",
        "postalCode": "91206-0001"
      },
      {
        "line": [
          "1801 W Valley Blvd",
          "#204"
        ],
        "city": "ALHAMBRA",
        "state": "CA",
        "postalCode": "91803-2300"
      },
      {
        "line": [
          "1505 Wilson Terrace, Suite 155",
          "Suite 190"
        ],
        "city": "GLENDALE",
        "state": "CA",
        "postalCode": "91206-4032"
      },
      {
        "line": [
          "390 S Fair Oaks Av #120"
        ],
        "city": "PASADENA",
        "state": "CA",
        "postalCode": "91105-2540"
      },
      {
        "line": [
          "17875 COLIMA RD STE A"
        ],
        "city": "ROWLAND HEIGHTS",
        "state": "CA",
        "postalCode": "91748-1869"
      },
      {
        "line": [
          "8239 Rochester Ave",
          "Suite 110"
        ],
        "city": "RANCHO CUCAMONGA",
        "state": "CA",
        "postalCode": "91730-0714"
      },
      {
        "line": [
          "14101 Francisquito Ave"
        ],
        "city": "BALDWIN PARK",
        "state": "CA",
        "postalCode": "91706-6100"
      },
      {
        "line": [
          "1500 S. Central Ave",
          "Suite 300"
        ],
        "city": "GLendale",
        "state": "CA",
        "postalCode": "91204-2508"
      },
      {
        "line": [
          "14434 Sherman Way"
        ],
        "city": "VAN NUYS",
        "state": "CA",
        "postalCode": "91405-2340"
      },
      {
        "line": [
          "390 S. Fair Oaks Ave"
        ],
        "city": "PASADENA",
        "state": "CA",
        "postalCode": "91105-2540"
      },
      {
        "line": [
          "1547 West Garvey Ave"
        ],
        "city": "WEST COVINA",
        "state": "CA",
        "postalCode": "91790-2139"
      },
      {
        "line": [
          "1812 Verdugo Blvd"
        ],
        "city": "GLENDALE",
        "state": "CA",
        "postalCode": "91208-1407"
      },
      {
        "line": [
          "4635 Fountain Ave"
        ],
        "city": "LOS ANGELES",
        "state": "CA",
        "postalCode": "90029-1830"
      },
      {
        "line": [
          "146 S Main St"
        ],
        "city": "ORANGE",
        "state": "CA",
        "postalCode": "92868-0870"
      },
      {
        "line": [
          "1505 Wilson Terrace",
          "suite 190"
        ],
        "city": "GLENDALE",
        "state": "CA",
        "postalCode": "91206-0001"
      },
      {
        "line": [
          "1000 E. Palmer Ave"
        ],
        "city": "GLENDALE",
        "state": "CA",
        "postalCode": "91205-3532"
      },
      {
        "line": [
          "1300 N. Vermont Ave"
        ],
        "city": "LOS ANGELES",
        "state": "CA",
        "postalCode": "90027-6098"
      },
      {
        "line": [
          "5108 W SUNSET BLVD"
        ],
        "city": "LOS ANGELES",
        "state": "CA",
        "postalCode": "90027-5708"
      },
      {
        "line": [
          "623 S. Central Ave"
        ],
        "city": "GLENDALE",
        "state": "CA",
        "postalCode": "91204-2008"
      },
      {
        "line": [
          "1540 West Covina PKWY"
        ],
        "city": "WEST COVINA",
        "state": "CA",
        "postalCode": "91790-2729"
      }
    ],
    "extension": [
      {
        "url": "https://fhir.athena.io/StructureDefinition/ah-practice",
        "valueReference": {
          "reference": "Organization/a-1.Practice-15679"
        }
      },
      {
        "url": "https://fhir.athena.io/StructureDefinition/ah-brand",
        "valueReference": {
          "reference": "Organization/a-15679.Brand-1"
        }
      }
    ]
  },
  "fullUrl": "urn:uuid:89fe0ed4-fb00-50c5-9a55-391020455c31"
}