{
  "resource": {
    "resourceType": "Organization",
    "id": "f9ce2c5b-97e4-5ae0-a129-3a364c6ba2bc",
    "name": "Jennie Stuart Health",
    "endpoint": [
      {
        "reference": "Endpoint/27a4e967-47aa-5a9c-a572-b8297ee268a2"
      },
      {
        "reference": "Endpoint/a1f39c41-ccd2-535a-b373-33879bf06a8f"
      }
    ],
    "identifier": [
      {
        "system": "http://hl7.org/fhir/sid/us-npi",
        "value": "1790086767"
      },
      {
        "system": "http://hl7.org/fhir/sid/us-npi",
        "value": "1588384671"
      },
      {
        "system": "http://hl7.org/fhir/sid/us-npi",
        "value": "1407576580"
      },
      {
        "system": "http://hl7.org/fhir/sid/us-npi",
        "value": "1912627605"
      },
      {
        "system": "http://hl7.org/fhir/sid/us-npi",
        "value": "1679293369"
      },
      {
        "system": "http://hl7.org/fhir/sid/us-npi",
        "value": "1891415972"
      },
      {
        "system": "http://hl7.org/fhir/sid/us-npi",
        "value": "1821385329"
      }
    ],
    "address": [
      {
        "line": [
          "10755 EAGLE WAY STE 100"
        ],
        "city": "HOPKINSVILLE",
        "state": "KY",
        "postalCode": "42240-8742"
      },
      {
        "line": [
          "227 BURLEY AVE"
        ],
        "city": "HOPKINSVILLE",
        "state": "KY",
        "postalCode": "42240-8725"
      },
      {
        "line": [
          "1717 HIGH ST, SUITE 4B"
        ],
        "city": "HOPKINSVILLE",
        "state": "KY",
        "postalCode": "42240-6300"
      },
      {
        "line": [
          "320 W 18TH ST"
        ],
        "city": "HOPKINSVILLE",
        "state": "KY",
        "postalCode": "42241-2400"
      },
      {
        "line": [
          "1717 HIGH ST",
          "STE 3"
        ],
        "city": "HOPKINSVILLE",
        "state": "KY",
        "postalCode": "42240-6300"
      },
      {
        "line": [
          "105 KEETON DR"
        ],
        "city": "HOPKINSVILLE",
        "state": "KY",
        "postalCode": "42240-1961"
      },
      {
        "line": [
          "1717 HIGH ST.",
          "STE 1A"
        ],
        "city": "HOPKINSVILLE",
        "state": "KY",
        "postalCode": "42240-6300"
      },
      {
        "line": [
          "120 N MAIN ST"
        ],
        "city": "TRENTON",
        "state": "KY",
        "postalCode": "42286-0317"
      },
      {
        "line": [],
        "city": "HOPKINSVILLE",
        "state": "KY",
        "postalCode": "42240-2400"
      },
      {
        "line": [
          "222 W 18TH ST"
        ],
        "city": "HOPKINSVILLE",
        "state": "KY",
        "postalCode": "42240-1963"
      }
    ],
    "extension": [
      {
        "url": "https://fhir.athena.io/StructureDefinition/ah-practice",
        "valueReference": {
          "reference": "Organization/a-1.Practice-3346"
        }
      },
      {
        "url": "https://fhir.athena.io/StructureDefinition/ah-brand",
        "valueReference": {
          "reference": "Organization/a-3346.Brand-1"
        }
      }
    ]
  },
  "fullUrl": "urn:uuid:f9ce2c5b-97e4-5ae0-a129-3a364c6ba2bc"
}