{
  "resource": {
    "resourceType": "Organization",
    "id": "86dd3881-a55d-5867-a1c8-3941ecaf278d",
    "name": "PREMIER ORTHOPAEDIC TRAUMA SPECIALISTS",
    "endpoint": [
      {
        "reference": "Endpoint/27a4e967-47aa-5a9c-a572-b8297ee268a2"
      },
      {
        "reference": "Endpoint/b0bf67a7-ec8f-56b9-8573-db26411474af"
      }
    ],
    "identifier": [
      {
        "system": "http://hl7.org/fhir/sid/us-npi",
        "value": "1407304439"
      }
    ],
    "address": [
      {
        "line": [
          "3630 E IMPERIAL HWY"
        ],
        "city": "LYNWOOD",
        "state": "CA",
        "postalCode": "90262-2609"
      },
      {
        "line": [
          "25915 BARTON RD STE 203"
        ],
        "city": "LOMA LINDA",
        "state": "CA",
        "postalCode": "92354-3818"
      },
      {
        "line": [
          "600 N EUCLID AVE STE 202"
        ],
        "city": "UPLAND",
        "state": "CA",
        "postalCode": "91786-4779"
      },
      {
        "line": [
          "1325 N ROSE DR",
          "#210"
        ],
        "city": "PLACENTIA",
        "state": "CA",
        "postalCode": "92870-3840"
      },
      {
        "line": [
          "264 N HIGHLAND SPRINGS AVE BLD 3 SUITE B"
        ],
        "city": "BANNING",
        "state": "CA",
        "postalCode": "92220-3082"
      },
      {
        "line": [
          "1798 N GAREY AVE"
        ],
        "city": "POMONA",
        "state": "CA",
        "postalCode": "91767-2918"
      },
      {
        "line": [
          "12490 BUSINESS CENTER DR STE 100"
        ],
        "city": "VICTORVILLE",
        "state": "CA",
        "postalCode": "92395-5833"
      },
      {
        "line": [
          "160 E ARTESIA ST STE 255"
        ],
        "city": "POMONA",
        "state": "CA",
        "postalCode": "91767-2921"
      },
      {
        "line": [
          "400 N MOUNTAIN AVE STE 100"
        ],
        "city": "UPLAND",
        "state": "CA",
        "postalCode": "91786-0109"
      },
      {
        "line": [
          "2140 GRAND AVE STE 120"
        ],
        "city": "CHINO HILLS",
        "state": "CA",
        "postalCode": "91709-6801"
      },
      {
        "line": [
          "2150 N WATERMAN AVE STE 303"
        ],
        "city": "SAN BERNARDINO",
        "state": "CA",
        "postalCode": "92404-4811"
      }
    ],
    "extension": [
      {
        "url": "https://fhir.athena.io/StructureDefinition/ah-practice",
        "valueReference": {
          "reference": "Organization/a-1.Practice-20474"
        }
      },
      {
        "url": "https://fhir.athena.io/StructureDefinition/ah-brand",
        "valueReference": {
          "reference": "Organization/a-20474.Brand-1"
        }
      }
    ]
  },
  "fullUrl": "urn:uuid:86dd3881-a55d-5867-a1c8-3941ecaf278d"
}