{
  "resource": {
    "resourceType": "Organization",
    "id": "e80a5a48-4520-5916-9c7b-4a634208d2fc",
    "name": "REAP- Brownwood",
    "endpoint": [
      {
        "reference": "Endpoint/27a4e967-47aa-5a9c-a572-b8297ee268a2"
      },
      {
        "reference": "Endpoint/e9766494-e276-5c72-863b-42a0411ffe96"
      }
    ],
    "identifier": [
      {
        "system": "http://hl7.org/fhir/sid/us-npi",
        "value": "1669801585"
      },
      {
        "system": "http://hl7.org/fhir/sid/us-npi",
        "value": "1124080320"
      },
      {
        "system": "http://hl7.org/fhir/sid/us-npi",
        "value": "1053373951"
      },
      {
        "system": "http://hl7.org/fhir/sid/us-npi",
        "value": "1881656247"
      },
      {
        "system": "http://hl7.org/fhir/sid/us-npi",
        "value": "1649232984"
      },
      {
        "system": "http://hl7.org/fhir/sid/us-npi",
        "value": "1215348487"
      },
      {
        "system": "http://hl7.org/fhir/sid/us-npi",
        "value": "1730484031"
      },
      {
        "system": "http://hl7.org/fhir/sid/us-npi",
        "value": "1750302923"
      },
      {
        "system": "http://hl7.org/fhir/sid/us-npi",
        "value": "1215999511"
      },
      {
        "system": "http://hl7.org/fhir/sid/us-npi",
        "value": "1962602300"
      }
    ],
    "address": [
      {
        "line": [
          "2502 CROCKETT DR STE A"
        ],
        "city": "BROWNWOOD",
        "state": "TX",
        "postalCode": "76801-5900"
      },
      {
        "line": [
          "2500 SONG BIRD CIR"
        ],
        "city": "BROWNWOOD",
        "state": "TX",
        "postalCode": "76801-6488"
      },
      {
        "line": [
          "1501 BURNET RD"
        ],
        "city": "BROWNWOOD",
        "state": "TX",
        "postalCode": "76801-8520"
      },
      {
        "line": [
          "1514 INDIAN CREEK DR"
        ],
        "city": "BROWNWOOD",
        "state": "TX",
        "postalCode": "76801-6536"
      },
      {
        "line": [
          "101 MILLER DR"
        ],
        "city": "BROWNWOOD",
        "state": "TX",
        "postalCode": "76801-5949"
      },
      {
        "line": [
          "2700 MEMORIAL PARK DR"
        ],
        "city": "BROWNWOOD",
        "state": "TX",
        "postalCode": "76801-8481"
      },
      {
        "line": [
          "2400 W BROWN ST"
        ],
        "city": "SAN SABA",
        "state": "TX",
        "postalCode": "76877-3863"
      },
      {
        "line": [
          "2410 SONG BIRD CIR"
        ],
        "city": "BROWNWOOD",
        "state": "TX",
        "postalCode": "76801-8413"
      },
      {
        "line": [
          "2501 Morris Sheppard Dr"
        ],
        "city": "BROWNWOOD",
        "state": "TX",
        "postalCode": "76801-5919"
      },
      {
        "line": [
          "1105 FITZGERALD ST"
        ],
        "city": "BANGS",
        "state": "TX",
        "postalCode": "76823-3232"
      },
      {
        "line": [
          "200 COUNTY ROAD 616"
        ],
        "city": "BROWNWOOD",
        "state": "TX",
        "postalCode": "76802-3294"
      }
    ],
    "extension": [
      {
        "url": "https://fhir.athena.io/StructureDefinition/ah-practice",
        "valueReference": {
          "reference": "Organization/a-1.Practice-1902"
        }
      },
      {
        "url": "https://fhir.athena.io/StructureDefinition/ah-brand",
        "valueReference": {
          "reference": "Organization/a-1902.Brand-1"
        }
      }
    ]
  },
  "fullUrl": "urn:uuid:e80a5a48-4520-5916-9c7b-4a634208d2fc"
}