{
  "resource": {
    "resourceType": "Organization",
    "id": "e831d370-5f74-58ce-b96b-3bd7065ba70f",
    "name": "Acuity Specialty Hospital",
    "endpoint": [
      {
        "reference": "Endpoint/27a4e967-47aa-5a9c-a572-b8297ee268a2"
      },
      {
        "reference": "Endpoint/f8c3eb84-f0cf-58c3-b896-361796fc4361"
      }
    ],
    "identifier": [
      {
        "system": "http://hl7.org/fhir/sid/us-npi",
        "value": "1265831259"
      }
    ],
    "address": [
      {
        "line": [
          "741 NORTHFIELD AVE STE 102"
        ],
        "city": "WEST ORANGE",
        "state": "NJ",
        "postalCode": "07052-1104"
      },
      {
        "line": [
          "187 NJ-36"
        ],
        "city": "WEST LONG BRANCH",
        "state": "NJ",
        "postalCode": "07764-1306"
      },
      {
        "line": [
          "1101 NOTT ST"
        ],
        "city": "SCHENECTADY",
        "state": "NY",
        "postalCode": "12308-2425"
      },
      {
        "line": [
          "300 Central Ave"
        ],
        "city": "EAST ORANGE",
        "state": "NJ",
        "postalCode": "07018-2819"
      },
      {
        "line": [
          "7600 River Road",
          "4th floor"
        ],
        "city": "NORTH BERGEN",
        "state": "NJ",
        "postalCode": "07047-6217"
      },
      {
        "line": [
          "37 BRUNSWICK WOODS DR"
        ],
        "city": "EAST BRUNSWICK",
        "state": "NJ",
        "postalCode": "08816-5601"
      },
      {
        "line": [
          "187 NJ-36",
          "STE 220"
        ],
        "city": "WEST LONG BRANCH",
        "state": "NJ",
        "postalCode": "07764-1306"
      },
      {
        "line": [
          "475 Jack Martin Boulevard"
        ],
        "city": "BRICK",
        "state": "NJ",
        "postalCode": "08724-7737"
      },
      {
        "line": [
          "111 Central Ave"
        ],
        "city": "NEWARK",
        "state": "NJ",
        "postalCode": "07102-1909"
      },
      {
        "line": [
          "2480 STATE ROUTE 27"
        ],
        "city": "NORTH BRUNSWICK",
        "state": "NJ",
        "postalCode": "08902-1020"
      },
      {
        "line": [
          "42 Throckmorton Lane"
        ],
        "city": "OLD BRIDGE",
        "state": "NJ",
        "postalCode": "08857-2572"
      },
      {
        "line": [
          "255 STATE RT 3 East"
        ],
        "city": "SECAUCUS",
        "state": "NJ",
        "postalCode": "07094-3857"
      },
      {
        "line": [
          "365 Broad Street"
        ],
        "city": "RED BANK",
        "state": "NJ",
        "postalCode": "07701-2150"
      },
      {
        "line": [
          "187 STATE ROUTE 36 STE 230"
        ],
        "city": "WEST LONG BRANCH",
        "state": "NJ",
        "postalCode": "07764-1306"
      },
      {
        "line": [
          "7600 River Road",
          "4th Floor"
        ],
        "city": "NORTH BERGEN",
        "state": "NJ",
        "postalCode": "07047-6217"
      },
      {
        "line": [
          "495 N 13TH ST"
        ],
        "city": "NEWARK",
        "state": "NJ",
        "postalCode": "07107-1317"
      },
      {
        "line": [
          "140 SYLVAN AVE STE 101A"
        ],
        "city": "ENGLEWOOD CLIFFS",
        "state": "NJ",
        "postalCode": "07632-2554"
      },
      {
        "line": [
          "799 BLOOMFIELD AVE STE 101"
        ],
        "city": "VERONA",
        "state": "NJ",
        "postalCode": "07044-1301"
      },
      {
        "line": [
          "495 13th S"
        ],
        "city": "NEWARK",
        "state": "NJ",
        "postalCode": "07107-1317"
      },
      {
        "line": [
          "695 CHESTNUT ST"
        ],
        "city": "UNION",
        "state": "NJ",
        "postalCode": "07083-7200"
      },
      {
        "line": [
          "270 SYLVAN AVE STE 1160"
        ],
        "city": "ENGLEWOOD CLIFFS",
        "state": "NJ",
        "postalCode": "07632-2561"
      },
      {
        "line": [
          "235 Old River Road"
        ],
        "city": "EDGEWATER",
        "state": "NJ",
        "postalCode": "07020-1079"
      },
      {
        "line": [
          "187 NJ-36",
          "Suite 220"
        ],
        "city": "WEST LONG BRANCH",
        "state": "NJ",
        "postalCode": "07764-1306"
      },
      {
        "line": [
          "1 CLARA MAASS DR"
        ],
        "city": "BELLEVILLE",
        "state": "NJ",
        "postalCode": "07109-3550"
      },
      {
        "line": [
          "365 Broad St"
        ],
        "city": "RED BANK",
        "state": "NJ",
        "postalCode": "07701-2150"
      },
      {
        "line": [
          "1049 Burnt Tavern Rd"
        ],
        "city": "BRICK",
        "state": "NJ",
        "postalCode": "08724-7737"
      },
      {
        "line": [
          "1308 MORRIS AVE",
          "STE 202"
        ],
        "city": "UNION",
        "state": "NJ",
        "postalCode": "07083-3328"
      }
    ],
    "extension": [
      {
        "url": "https://fhir.athena.io/StructureDefinition/ah-practice",
        "valueReference": {
          "reference": "Organization/a-1.Practice-24721"
        }
      },
      {
        "url": "https://fhir.athena.io/StructureDefinition/ah-brand",
        "valueReference": {
          "reference": "Organization/a-24721.Brand-1"
        }
      }
    ]
  },
  "fullUrl": "urn:uuid:e831d370-5f74-58ce-b96b-3bd7065ba70f"
}