{
  "resource": {
    "resourceType": "Organization",
    "id": "16400712-5c5f-5ce9-b089-5538d5715af1",
    "name": "KENDALL P TABOR DPM",
    "endpoint": [
      {
        "reference": "Endpoint/27a4e967-47aa-5a9c-a572-b8297ee268a2"
      },
      {
        "reference": "Endpoint/f611bfdd-b6e0-5091-8d3e-d342bcea66d5"
      }
    ],
    "identifier": [
      {
        "system": "http://hl7.org/fhir/sid/us-npi",
        "value": "1053597914"
      }
    ],
    "address": [
      {
        "line": [
          "1414 W FAIR AVE STE 215"
        ],
        "city": "MARQUETTE",
        "state": "MI",
        "postalCode": "49855-2675"
      },
      {
        "line": [
          "900 MAAS ST"
        ],
        "city": "NEGAUNEE",
        "state": "MI",
        "postalCode": "49866-1502"
      },
      {
        "line": [
          "701 HOMESTEAD ST"
        ],
        "city": "MARQUETTE",
        "state": "MI",
        "postalCode": "49855-4438"
      },
      {
        "line": [
          "200 SAGINAW ST"
        ],
        "city": "ISHPEMING",
        "state": "MI",
        "postalCode": "49849-2469"
      },
      {
        "line": [
          "901 LAKESHORE DR"
        ],
        "city": "ISHPEMING",
        "state": "MI",
        "postalCode": "49849-2197"
      },
      {
        "line": [
          "435 STONEVILLE RD"
        ],
        "city": "ISHPEMING",
        "state": "MI",
        "postalCode": "49849-2921"
      },
      {
        "line": [
          "1414 WEST FAIR STE 385"
        ],
        "city": "MARQUETTE",
        "state": "MI",
        "postalCode": "49855-5407"
      },
      {
        "line": [
          "425 FISHER ST"
        ],
        "city": "MARQUETTE",
        "state": "MI",
        "postalCode": "49855-4521"
      },
      {
        "line": [
          "420 MAGNETIC AVE"
        ],
        "city": "MARQUETTE",
        "state": "MI",
        "postalCode": "49855-2700"
      }
    ],
    "extension": [
      {
        "url": "https://fhir.athena.io/StructureDefinition/ah-practice",
        "valueReference": {
          "reference": "Organization/a-1.Practice-9590"
        }
      },
      {
        "url": "https://fhir.athena.io/StructureDefinition/ah-brand",
        "valueReference": {
          "reference": "Organization/a-9590.Brand-1"
        }
      }
    ]
  },
  "fullUrl": "urn:uuid:16400712-5c5f-5ce9-b089-5538d5715af1"
}