{
  "resource": {
    "resourceType": "Organization",
    "id": "f69b1c0d-6785-5164-b030-c33b21c4f3e9",
    "name": "Archpoint Pain Institute",
    "endpoint": [
      {
        "reference": "Endpoint/27a4e967-47aa-5a9c-a572-b8297ee268a2"
      },
      {
        "reference": "Endpoint/52567ef3-4144-5c6b-be2c-683c08fcf197"
      }
    ],
    "identifier": [
      {
        "system": "http://hl7.org/fhir/sid/us-npi",
        "value": "1013535855"
      },
      {
        "system": "urn:oid:2.16.840.1.113883.4.336",
        "value": "45D2242160"
      }
    ],
    "address": [
      {
        "line": [
          "13031 WORTHAM CENTER DR"
        ],
        "city": "HOUSTON",
        "state": "TX",
        "postalCode": "77065-5662"
      },
      {
        "line": [
          "18220 STATE HIGHWAY 249"
        ],
        "city": "HOUSTON",
        "state": "TX",
        "postalCode": "77070-4347"
      },
      {
        "line": [
          "21214 Northwest Fwy"
        ],
        "city": "CYPRESS",
        "state": "TX",
        "postalCode": "77429-2105"
      },
      {
        "line": [
          "20180 CHASEWOOD PARK DR"
        ],
        "city": "HOUSTON",
        "state": "TX",
        "postalCode": "77070-1436"
      },
      {
        "line": [
          "605 HOLDERRIETH BLVD"
        ],
        "city": "TOMBALL",
        "state": "TX",
        "postalCode": "77375-6445"
      },
      {
        "line": [
          "11297 FALLBROOK DRIVE"
        ],
        "city": "HOUSTON",
        "state": "TX",
        "postalCode": "77065-4230"
      },
      {
        "line": [
          "20823 Park Row Dr Ste A"
        ],
        "city": "KATY",
        "state": "TX",
        "postalCode": "77449-5015"
      },
      {
        "line": [
          "4800 FEDERAL PLZ"
        ],
        "city": "HOUSTON",
        "state": "TX",
        "postalCode": "77092-1704"
      },
      {
        "line": [
          "9638 HUFFMEISTER RD STE A"
        ],
        "city": "HOUSTON",
        "state": "TX",
        "postalCode": "77095-2895"
      },
      {
        "line": [
          "8731 KATY FWY STE 400"
        ],
        "city": "HOUSTON",
        "state": "TX",
        "postalCode": "77024-1703"
      },
      {
        "line": [
          "1485 FM 1960 BYPASS RD E STE 100"
        ],
        "city": "HUMBLE",
        "state": "TX",
        "postalCode": "77338-3965"
      },
      {
        "line": [
          "27800 Northwest Freeway"
        ],
        "city": "CYPRESS",
        "state": "TX",
        "postalCode": "77433-5302"
      }
    ],
    "extension": [
      {
        "url": "https://fhir.athena.io/StructureDefinition/ah-practice",
        "valueReference": {
          "reference": "Organization/a-1.Practice-21910"
        }
      },
      {
        "url": "https://fhir.athena.io/StructureDefinition/ah-brand",
        "valueReference": {
          "reference": "Organization/a-21910.Brand-1"
        }
      }
    ]
  },
  "fullUrl": "urn:uuid:f69b1c0d-6785-5164-b030-c33b21c4f3e9"
}