{
  "resource": {
    "resourceType": "Organization",
    "id": "c5eed80c-619a-58db-97e9-bb55fb1c6128",
    "name": "EAST LAKE MEDICAL CLINIC, P.A",
    "endpoint": [
      {
        "reference": "Endpoint/27a4e967-47aa-5a9c-a572-b8297ee268a2"
      },
      {
        "reference": "Endpoint/b5fc2cc5-b642-5987-98ec-73434a79e794"
      }
    ],
    "identifier": [
      {
        "system": "http://hl7.org/fhir/sid/us-npi",
        "value": "1790124741"
      }
    ],
    "address": [
      {
        "line": [
          "2906 17 Street"
        ],
        "city": "SAINT CLOUD",
        "state": "FL",
        "postalCode": "34769-6006"
      },
      {
        "line": [
          "50 w oak street"
        ],
        "city": "KISSIMMEE",
        "state": "FL",
        "postalCode": "34741-4416"
      },
      {
        "line": [],
        "city": "SAINT CLOUD",
        "state": "FL",
        "postalCode": "34769-1400"
      },
      {
        "line": [
          "4737 OLD CANOE CREEK ROAD"
        ],
        "city": "ST CLOUD",
        "state": "FL",
        "postalCode": "34769-1400"
      },
      {
        "line": [
          "5579 S. Orange Ave"
        ],
        "city": "ORLANDO",
        "state": "FL",
        "postalCode": "32809-3493"
      },
      {
        "line": [
          "4361 HUNTERS PARK LN"
        ],
        "city": "ORLANDO",
        "state": "FL",
        "postalCode": "32837-7614"
      },
      {
        "line": [
          "4737 Old Canoe Creek Rd"
        ],
        "city": "SAINT CLOUD",
        "state": "FL",
        "postalCode": "34769-1400"
      },
      {
        "line": [
          "2906 17th Street"
        ],
        "city": "SAINT CLOUD",
        "state": "FL",
        "postalCode": "34769-6006"
      }
    ],
    "extension": [
      {
        "url": "https://fhir.athena.io/StructureDefinition/ah-practice",
        "valueReference": {
          "reference": "Organization/a-1.Practice-7278"
        }
      },
      {
        "url": "https://fhir.athena.io/StructureDefinition/ah-brand",
        "valueReference": {
          "reference": "Organization/a-7278.Brand-1"
        }
      }
    ]
  },
  "fullUrl": "urn:uuid:c5eed80c-619a-58db-97e9-bb55fb1c6128"
}