{
  "resource": {
    "resourceType": "Organization",
    "id": "2553e362-d754-55d9-8bec-64d49364d255",
    "name": "BELL FAMILY MEDICINE",
    "endpoint": [
      {
        "reference": "Endpoint/27a4e967-47aa-5a9c-a572-b8297ee268a2"
      },
      {
        "reference": "Endpoint/5c66fb79-d810-508e-a30f-c4b6909a1176"
      }
    ],
    "identifier": [
      {
        "system": "http://hl7.org/fhir/sid/us-npi",
        "value": "1730437245"
      },
      {
        "system": "http://hl7.org/fhir/sid/us-npi",
        "value": "1487902995"
      },
      {
        "system": "http://hl7.org/fhir/sid/us-npi",
        "value": "1073861431"
      },
      {
        "system": "http://hl7.org/fhir/sid/us-npi",
        "value": "1215287362"
      },
      {
        "system": "http://hl7.org/fhir/sid/us-npi",
        "value": "1265780621"
      }
    ],
    "address": [
      {
        "line": [
          "2176 WIGGINS WALK"
        ],
        "city": "ATLANTA",
        "state": "GA",
        "postalCode": "30316-2500"
      },
      {
        "line": [
          "10101 GARDEN RETREAT CT"
        ],
        "city": "TAMPA",
        "state": "FL",
        "postalCode": "33647-3167"
      },
      {
        "line": [
          "1416 SAVOY TRL"
        ],
        "city": "LAWRENCEVILLE",
        "state": "GA",
        "postalCode": "30045-5414"
      },
      {
        "line": [
          "5284 FLOYD RD SW # 704"
        ],
        "city": "MABLETON",
        "state": "GA",
        "postalCode": "30126-6105"
      },
      {
        "line": [
          "3521 KILGALLEN CT"
        ],
        "city": "ORMOND BEACH",
        "state": "FL",
        "postalCode": "32174-2830"
      },
      {
        "line": [
          "4054 BRUSHY CREEK RD"
        ],
        "city": "SPARKS",
        "state": "GA",
        "postalCode": "31647-4104"
      },
      {
        "line": [
          "3437 CATALAN ALY"
        ],
        "city": "DECATUR",
        "state": "GA",
        "postalCode": "30032-5868"
      },
      {
        "line": [
          "1298 JANDRAS LN SE"
        ],
        "city": "ATLANTA",
        "state": "GA",
        "postalCode": "30316-3228"
      },
      {
        "line": [
          "10003 PALISADE LAKES DR"
        ],
        "city": "HOUSTON",
        "state": "TX",
        "postalCode": "77095-6648"
      },
      {
        "line": [
          "1810 E CARY ST APT 135"
        ],
        "city": "RICHMOND",
        "state": "VA",
        "postalCode": "23223-7489"
      },
      {
        "line": [
          "6445 PARADISE VALLEY RD"
        ],
        "city": "FORT WORTH",
        "state": "TX",
        "postalCode": "76112-7536"
      },
      {
        "line": [
          "54 GESEL LN"
        ],
        "city": "BUFFALO",
        "state": "NY",
        "postalCode": "14221-3892"
      },
      {
        "line": [
          "601 WOODLAND TER"
        ],
        "city": "ALEXANDRIA",
        "state": "VA",
        "postalCode": "22302-3320"
      }
    ],
    "extension": [
      {
        "url": "https://fhir.athena.io/StructureDefinition/ah-practice",
        "valueReference": {
          "reference": "Organization/a-1.Practice-8233"
        }
      },
      {
        "url": "https://fhir.athena.io/StructureDefinition/ah-brand",
        "valueReference": {
          "reference": "Organization/a-8233.Brand-6"
        }
      }
    ]
  },
  "fullUrl": "urn:uuid:2553e362-d754-55d9-8bec-64d49364d255"
}