{
  "resource": {
    "resourceType": "Organization",
    "id": "52189d62-58a1-58d2-9b89-8c89eddf2b6b",
    "name": "Column Health",
    "endpoint": [
      {
        "reference": "Endpoint/27a4e967-47aa-5a9c-a572-b8297ee268a2"
      },
      {
        "reference": "Endpoint/4354dcae-33cc-553d-aeb8-52dcd91bc31f"
      }
    ],
    "identifier": [
      {
        "system": "http://hl7.org/fhir/sid/us-npi",
        "value": "1861898934"
      }
    ],
    "address": [
      {
        "line": [
          "1 Carriage Place"
        ],
        "city": "WATERBURY",
        "state": "CT",
        "postalCode": "06702-2108"
      },
      {
        "line": [
          "310 Barnstable Rd",
          "Suite 103"
        ],
        "city": "HYANNIS",
        "state": "MA",
        "postalCode": "02601-2902"
      },
      {
        "line": [
          "182 N MAIN ST"
        ],
        "city": "FALL RIVER",
        "state": "MA",
        "postalCode": "02720-2142"
      },
      {
        "line": [
          "110 MUNROE ST"
        ],
        "city": "LYNN",
        "state": "MA",
        "postalCode": "01901-1520"
      },
      {
        "line": [
          "108 MERRIMACK ST"
        ],
        "city": "HAVERHILL",
        "state": "MA",
        "postalCode": "01830-5210"
      },
      {
        "line": [
          "190 FREMONT ST"
        ],
        "city": "WORCESTER",
        "state": "MA",
        "postalCode": "01603-2362"
      },
      {
        "line": [
          "23 Aldrin Road"
        ],
        "city": "PLYMOUTH",
        "state": "MA",
        "postalCode": "02360-4803"
      },
      {
        "line": [
          "231 Main Street",
          "Suite 102"
        ],
        "city": "BROCKTON",
        "state": "MA",
        "postalCode": "02301-4342"
      },
      {
        "line": [
          "100 Migeon Avenue"
        ],
        "city": "TORRINGTON",
        "state": "CT",
        "postalCode": "06790-4861"
      },
      {
        "line": [
          "259A NORTH ST"
        ],
        "city": "HYANNIS",
        "state": "MA",
        "postalCode": "02601-3823"
      }
    ],
    "extension": [
      {
        "url": "https://fhir.athena.io/StructureDefinition/ah-practice",
        "valueReference": {
          "reference": "Organization/a-1.Practice-11044"
        }
      },
      {
        "url": "https://fhir.athena.io/StructureDefinition/ah-brand",
        "valueReference": {
          "reference": "Organization/a-11044.Brand-1"
        }
      }
    ]
  },
  "fullUrl": "urn:uuid:52189d62-58a1-58d2-9b89-8c89eddf2b6b"
}