{
  "resource": {
    "resourceType": "Organization",
    "id": "27c627c0-79c8-5097-98c8-cf05e1015ffc",
    "name": "Atlanta Center for Reproductive Medicine",
    "endpoint": [
      {
        "reference": "Endpoint/27a4e967-47aa-5a9c-a572-b8297ee268a2"
      },
      {
        "reference": "Endpoint/4ce6f695-5aff-5a68-8858-8811d49b34cc"
      }
    ],
    "identifier": [
      {
        "system": "http://hl7.org/fhir/sid/us-npi",
        "value": "1639203516"
      },
      {
        "system": "http://hl7.org/fhir/sid/us-npi",
        "value": "1407386501"
      },
      {
        "system": "http://hl7.org/fhir/sid/us-npi",
        "value": "1679963912"
      },
      {
        "system": "http://hl7.org/fhir/sid/us-npi",
        "value": "1578049052"
      },
      {
        "system": "http://hl7.org/fhir/sid/us-npi",
        "value": "1548837503"
      },
      {
        "system": "http://hl7.org/fhir/sid/us-npi",
        "value": "1568993855"
      },
      {
        "system": "http://hl7.org/fhir/sid/us-npi",
        "value": "1821292582"
      },
      {
        "system": "http://hl7.org/fhir/sid/us-npi",
        "value": "1083166003"
      },
      {
        "system": "http://hl7.org/fhir/sid/us-npi",
        "value": "1831375740"
      },
      {
        "system": "http://hl7.org/fhir/sid/us-npi",
        "value": "1437636636"
      },
      {
        "system": "http://hl7.org/fhir/sid/us-npi",
        "value": "1659823680"
      },
      {
        "system": "http://hl7.org/fhir/sid/us-npi",
        "value": "1689106908"
      },
      {
        "system": "http://hl7.org/fhir/sid/us-npi",
        "value": "1154718070"
      },
      {
        "system": "http://hl7.org/fhir/sid/us-npi",
        "value": "1750752580"
      },
      {
        "system": "http://hl7.org/fhir/sid/us-npi",
        "value": "1548407828"
      },
      {
        "system": "http://hl7.org/fhir/sid/us-npi",
        "value": "1811090624"
      },
      {
        "system": "http://hl7.org/fhir/sid/us-npi",
        "value": "1326622747"
      },
      {
        "system": "http://hl7.org/fhir/sid/us-npi",
        "value": "1942840699"
      },
      {
        "system": "http://hl7.org/fhir/sid/us-npi",
        "value": "1669904520"
      },
      {
        "system": "http://hl7.org/fhir/sid/us-npi",
        "value": "1265825228"
      },
      {
        "system": "http://hl7.org/fhir/sid/us-npi",
        "value": "1982238192"
      },
      {
        "system": "http://hl7.org/fhir/sid/us-npi",
        "value": "1598297269"
      },
      {
        "system": "http://hl7.org/fhir/sid/us-npi",
        "value": "1710017017"
      },
      {
        "system": "http://hl7.org/fhir/sid/us-npi",
        "value": "1871045815"
      },
      {
        "system": "http://hl7.org/fhir/sid/us-npi",
        "value": "1083794184"
      },
      {
        "system": "http://hl7.org/fhir/sid/us-npi",
        "value": "1053018267"
      }
    ],
    "address": [
      {
        "line": [
          "810 7TH AVENUE",
          "21st Floor"
        ],
        "city": "NEW YORK",
        "state": "NY",
        "postalCode": "10019-5923"
      },
      {
        "line": [
          "5909 PEACHTREE DUNWOODY RD STE 600"
        ],
        "city": "ATLANTA",
        "state": "GA",
        "postalCode": "30328-8101"
      },
      {
        "line": [
          "8010 TOWERS CRESCENT DR FL 5"
        ],
        "city": "VIENNA",
        "state": "VA",
        "postalCode": "22182-2710"
      },
      {
        "line": [
          "5301 SOUTHWEST PKWY STE 350"
        ],
        "city": "AUSTIN",
        "state": "TX",
        "postalCode": "78735-8985"
      },
      {
        "line": [
          "1060 MARSH ROAD"
        ],
        "city": "MENLO PARK",
        "state": "CA",
        "postalCode": "94025-1020"
      },
      {
        "line": [
          "6565 FRANCE AVE S STE 400A"
        ],
        "city": "EDINA",
        "state": "MN",
        "postalCode": "55435-2141"
      },
      {
        "line": [
          "929 GESSNER RD STE 2300"
        ],
        "city": "HOUSTON",
        "state": "TX",
        "postalCode": "77024-2585"
      },
      {
        "line": [
          "400 Northridge Rd",
          "#500"
        ],
        "city": "ATLANTA",
        "state": "GA",
        "postalCode": "30350-3312"
      },
      {
        "line": [
          "10290 RIDGEGATE CIR"
        ],
        "city": "LONE TREE",
        "state": "CO",
        "postalCode": "80124-5331"
      },
      {
        "line": [
          "810 7TH AVE FL 21"
        ],
        "city": "NEW YORK",
        "state": "NY",
        "postalCode": "10019-5923"
      },
      {
        "line": [
          "4735 Ogletown Rd",
          "#3217"
        ],
        "city": "NEWARK",
        "state": "DE",
        "postalCode": "19713-2072"
      },
      {
        "line": [
          "94 Old Short Hills Rd",
          "Suite 403E, East Wing"
        ],
        "city": "LIVINGSTON",
        "state": "NJ",
        "postalCode": "07039-5672"
      },
      {
        "line": [
          "6565 France Avenue South"
        ],
        "city": "MINNEAPOLIS",
        "state": "MN",
        "postalCode": "55435-2137"
      },
      {
        "line": [
          "7777 Forest Lane",
          "Suite C-650"
        ],
        "city": "DALLAS",
        "state": "TX",
        "postalCode": "75230-2571"
      },
      {
        "line": [
          "400 northridge rd",
          "#500"
        ],
        "city": "ATLANTA",
        "state": "GA",
        "postalCode": "30350-3312"
      },
      {
        "line": [
          "400 Northridge rd",
          "#500"
        ],
        "city": "ATLANTA",
        "state": "GA",
        "postalCode": "30350-3312"
      },
      {
        "line": [
          "4735 OGLETOWN STANTON RD STE 3217"
        ],
        "city": "NEWARK",
        "state": "DE",
        "postalCode": "19713-2072"
      },
      {
        "line": [
          "3501 JAMBOREE RD STE 1100"
        ],
        "city": "NEWPORT BEACH",
        "state": "CA",
        "postalCode": "92660-2956"
      },
      {
        "line": [
          "120 OSLER STE 100"
        ],
        "city": "NAPERVILLE",
        "state": "IL",
        "postalCode": "60540-7429"
      },
      {
        "line": [
          "7400 FANNIN ST",
          "Suite 910"
        ],
        "city": "HOUSTON",
        "state": "TX",
        "postalCode": "77054-1921"
      },
      {
        "line": [
          "300 BOYLSTON STREET",
          "Suite 300"
        ],
        "city": "NEWTON CENTER",
        "state": "MA",
        "postalCode": "02459-1959"
      },
      {
        "line": [
          "94 OLD SHORT HILLS RD STE 403E"
        ],
        "city": "LIVINGSTON",
        "state": "NJ",
        "postalCode": "07039-5672"
      },
      {
        "line": [
          "448 VIKING DR STE 100"
        ],
        "city": "VIRGINIA BEACH",
        "state": "VA",
        "postalCode": "23452-7331"
      },
      {
        "line": [
          "1060 MARSH RD FL 1"
        ],
        "city": "MENLO PARK",
        "state": "CA",
        "postalCode": "94025-1964"
      },
      {
        "line": [
          "4735 OGLETOWN STANTON RD STE 3217 # MAP2"
        ],
        "city": "NEWARK",
        "state": "DE",
        "postalCode": "19713-2094"
      },
      {
        "line": [
          "5909 PEACHTREE DUNWOODY RD STE 720"
        ],
        "city": "ATLANTA",
        "state": "GA",
        "postalCode": "30328-8101"
      },
      {
        "line": [
          "300 BOYLSTON ST STE 300"
        ],
        "city": "CHESTNUT HILL",
        "state": "MA",
        "postalCode": "02467-1976"
      },
      {
        "line": [
          "8380 WARREN PKWY STE 201"
        ],
        "city": "FRISCO",
        "state": "TX",
        "postalCode": "75034-4199"
      },
      {
        "line": [
          "1401 AVOCADO AVE STE 403"
        ],
        "city": "NEWPORT BEACH",
        "state": "CA",
        "postalCode": "92660-8725"
      },
      {
        "line": [
          "19505 Biscayne Blvd"
        ],
        "city": "MIAMI",
        "state": "FL",
        "postalCode": "33180-2314"
      },
      {
        "line": [
          "400 Northridge rd",
          "ste 500"
        ],
        "city": "ATLANTA",
        "state": "GA",
        "postalCode": "30350-3312"
      },
      {
        "line": [
          "19505 BISCAYNE BLVD"
        ],
        "city": "MIAMI",
        "state": "FL",
        "postalCode": "33180-2314"
      }
    ],
    "extension": [
      {
        "url": "https://fhir.athena.io/StructureDefinition/ah-practice",
        "valueReference": {
          "reference": "Organization/a-1.Practice-17469"
        }
      },
      {
        "url": "https://fhir.athena.io/StructureDefinition/ah-brand",
        "valueReference": {
          "reference": "Organization/a-17469.Brand-1"
        }
      }
    ]
  },
  "fullUrl": "urn:uuid:27c627c0-79c8-5097-98c8-cf05e1015ffc"
}