{
  "resource": {
    "resourceType": "Organization",
    "id": "6670cfaf-fa74-59ed-bfa7-a325de1fb54d",
    "name": "Upperline Heatlh",
    "endpoint": [
      {
        "reference": "Endpoint/27a4e967-47aa-5a9c-a572-b8297ee268a2"
      },
      {
        "reference": "Endpoint/4d5369b5-aea7-5dbd-85de-c400e9123893"
      }
    ],
    "identifier": [
      {
        "system": "http://hl7.org/fhir/sid/us-npi",
        "value": "1225663826"
      }
    ],
    "address": [
      {
        "line": [
          "7485 MISSION VALLEY RD"
        ],
        "city": "SAN DIEGO",
        "state": "CA",
        "postalCode": "92108-4422"
      },
      {
        "line": [
          "2400 E 4th"
        ],
        "city": "NATIONAL CITY",
        "state": "CA",
        "postalCode": "91950-2026"
      },
      {
        "line": [
          "5555 Grossmont Center Drive"
        ],
        "city": "LA MESA",
        "state": "CA",
        "postalCode": "91942-3019"
      },
      {
        "line": [
          "995 GATEWAY CENTER WAY STE 207"
        ],
        "city": "SAN DIEGO",
        "state": "CA",
        "postalCode": "92102-4544"
      },
      {
        "line": [
          "751 Medical Center Ct"
        ],
        "city": "CHULA VISTA",
        "state": "CA",
        "postalCode": "91911-6617"
      },
      {
        "line": [
          "550 Washignton Street Suite 101"
        ],
        "city": "SAN DIEGO",
        "state": "CA",
        "postalCode": "92103-2105"
      },
      {
        "line": [
          "7901 Frost Street"
        ],
        "city": "SAN DIEGO",
        "state": "CA",
        "postalCode": "92123-2701"
      },
      {
        "line": [
          "610 Euclid Avenue Suite 301"
        ],
        "city": "NATIONAL CITY",
        "state": "CA",
        "postalCode": "91950-2953"
      },
      {
        "line": [
          "345 F Street Suite 100"
        ],
        "city": "CHULA VISTA",
        "state": "CA",
        "postalCode": "91910-2632"
      },
      {
        "line": [
          "501 Washigton Street Suite S525"
        ],
        "city": "SAN DIEGO",
        "state": "CA",
        "postalCode": "92103-2105"
      },
      {
        "line": [
          "5525 Grossmont Center Drive"
        ],
        "city": "LA MESA",
        "state": "CA",
        "postalCode": "91942-3019"
      },
      {
        "line": [
          "5565 Grossmont Center Drive Suite 510"
        ],
        "city": "LA MESA",
        "state": "CA",
        "postalCode": "91942-3024"
      },
      {
        "line": [
          "4077 5th Avenue"
        ],
        "city": "SAN DIEGO",
        "state": "CA",
        "postalCode": "92103-2105"
      },
      {
        "line": [
          "435 H Street"
        ],
        "city": "CHULA VISTA",
        "state": "CA",
        "postalCode": "91910-4307"
      },
      {
        "line": [
          "3939 Ruffin Road"
        ],
        "city": "SAN DIEGO",
        "state": "CA",
        "postalCode": "92123-2701"
      }
    ],
    "extension": [
      {
        "url": "https://fhir.athena.io/StructureDefinition/ah-practice",
        "valueReference": {
          "reference": "Organization/a-1.Practice-4399"
        }
      },
      {
        "url": "https://fhir.athena.io/StructureDefinition/ah-brand",
        "valueReference": {
          "reference": "Organization/a-4399.Brand-19"
        }
      }
    ]
  },
  "fullUrl": "urn:uuid:6670cfaf-fa74-59ed-bfa7-a325de1fb54d"
}