{
  "resource": {
    "resourceType": "Organization",
    "id": "03cb0e21-540b-5cb3-9b08-c6649e2fd7fc",
    "name": "365 Care, Legend Health Center",
    "endpoint": [
      {
        "reference": "Endpoint/27a4e967-47aa-5a9c-a572-b8297ee268a2"
      },
      {
        "reference": "Endpoint/08e05161-882c-51a3-8a0b-4adb0b0c1049"
      }
    ],
    "identifier": [
      {
        "system": "http://hl7.org/fhir/sid/us-npi",
        "value": "1861400095"
      },
      {
        "system": "http://hl7.org/fhir/sid/us-npi",
        "value": "1558588772"
      },
      {
        "system": "http://hl7.org/fhir/sid/us-npi",
        "value": "1750560009"
      },
      {
        "system": "http://hl7.org/fhir/sid/us-npi",
        "value": "1225348584"
      }
    ],
    "address": [
      {
        "line": [
          "28050 GRAND RIVER AVE"
        ],
        "city": "FARMINGTON HILLS",
        "state": "MI",
        "postalCode": "48336-5919"
      },
      {
        "line": [
          "39312 Woodward Ave"
        ],
        "city": "BLOOMFIELD HILLS",
        "state": "MI",
        "postalCode": "48304-5007"
      },
      {
        "line": [
          "909 W MAPLE RD STE 111"
        ],
        "city": "CLAWSON",
        "state": "MI",
        "postalCode": "48017-1000"
      },
      {
        "line": [
          "908 W ARYGLE"
        ],
        "city": "CHICAGO",
        "state": "IL",
        "postalCode": "60640-3894"
      },
      {
        "line": [
          "9912 E Grand River Rd, Ste 1000"
        ],
        "city": "BRIGHTON",
        "state": "MI",
        "postalCode": "48116-1994"
      },
      {
        "line": [
          "1695 12 MILE RD STE 220"
        ],
        "city": "BERKLEY",
        "state": "MI",
        "postalCode": "48072-2100"
      },
      {
        "line": [
          "33400 6 MILE RD STE B"
        ],
        "city": "LIVONIA",
        "state": "MI",
        "postalCode": "48152-3165"
      },
      {
        "line": [
          "909 W Maple Rd, Ste 100"
        ],
        "city": "CLAWSON",
        "state": "MI",
        "postalCode": "48017-1000"
      },
      {
        "line": [
          "8401 HOLLY RD"
        ],
        "city": "GRAND BLANC",
        "state": "MI",
        "postalCode": "48439-1812"
      },
      {
        "line": [
          "2900 N LAKE SHORE DR"
        ],
        "city": "CHICAGO",
        "state": "IL",
        "postalCode": "60657-5640"
      },
      {
        "line": [
          "20300 FORT ST"
        ],
        "city": "RIVERVIEW",
        "state": "MI",
        "postalCode": "48193-4560"
      },
      {
        "line": [
          "120 DODGE AVE"
        ],
        "city": "EVANSTON",
        "state": "IL",
        "postalCode": "60202-3622"
      },
      {
        "line": [
          "835 MASON ST",
          "Suite C350"
        ],
        "city": "DEARBORN",
        "state": "MI",
        "postalCode": "48124-2231"
      },
      {
        "line": [
          "5050 TOUHY AVE"
        ],
        "city": "SKOKIE",
        "state": "IL",
        "postalCode": "60077-3542"
      },
      {
        "line": [
          "G4007 W COURT ST STE B"
        ],
        "city": "FLINT",
        "state": "MI",
        "postalCode": "48532-3560"
      },
      {
        "line": [
          "105 WATER ST"
        ],
        "city": "PLYMOUTH",
        "state": "IN",
        "postalCode": "46563-2148"
      },
      {
        "line": [
          "16001 W 9 MILE RD"
        ],
        "city": "SOUTHFIELD",
        "state": "MI",
        "postalCode": "48075-4818"
      },
      {
        "line": [
          "900 COOK RD"
        ],
        "city": "GROSSE POINTE",
        "state": "MI",
        "postalCode": "48236-2739"
      },
      {
        "line": [
          "43494 WOODWARD AVE STE 208"
        ],
        "city": "BLOOMFIELD HILLS",
        "state": "MI",
        "postalCode": "48302-5054"
      }
    ],
    "extension": [
      {
        "url": "https://fhir.athena.io/StructureDefinition/ah-practice",
        "valueReference": {
          "reference": "Organization/a-1.Practice-24172"
        }
      },
      {
        "url": "https://fhir.athena.io/StructureDefinition/ah-brand",
        "valueReference": {
          "reference": "Organization/a-24172.Brand-1"
        }
      }
    ]
  },
  "fullUrl": "urn:uuid:03cb0e21-540b-5cb3-9b08-c6649e2fd7fc"
}