{
  "resource": {
    "resourceType": "Organization",
    "id": "7917ea3f-fe3c-5a2d-9df0-c79138c4cdba",
    "name": "Advanced Podiatry",
    "endpoint": [
      {
        "reference": "Endpoint/27a4e967-47aa-5a9c-a572-b8297ee268a2"
      },
      {
        "reference": "Endpoint/49ff3423-8196-5467-85d0-dc1def7ce6c3"
      }
    ],
    "identifier": [
      {
        "system": "http://hl7.org/fhir/sid/us-npi",
        "value": "1477983906"
      }
    ],
    "address": [
      {
        "line": [
          "8660 GRANT RD"
        ],
        "city": "SAINT LOUIS",
        "state": "MO",
        "postalCode": "63123-1044"
      },
      {
        "line": [
          "1425 N New Florissant Rd"
        ],
        "city": "FLORISSANT",
        "state": "MO",
        "postalCode": "63033-2154"
      },
      {
        "line": [],
        "city": "SAINT PETERS",
        "state": "MO",
        "postalCode": "63376-7370"
      },
      {
        "line": [
          "5401 VETERANS MEMORIAL PARKWAY",
          "Suite 102"
        ],
        "city": "SAINT PETERS",
        "state": "MO",
        "postalCode": "63376-1681"
      },
      {
        "line": [
          "2 McKnight Place"
        ],
        "city": "SAINT LOUIS",
        "state": "MO",
        "postalCode": "63124-1900"
      },
      {
        "line": [
          "12563 VILLAGE CIRCLE DR"
        ],
        "city": "SAINT LOUIS",
        "state": "MO",
        "postalCode": "63127-1758"
      },
      {
        "line": [
          "One McKnight Place"
        ],
        "city": "SAINT LOUIS",
        "state": "MO",
        "postalCode": "63124-2229"
      },
      {
        "line": [
          "5401 VETERANS MEMORIAL PARKWAY SUITE 102"
        ],
        "city": "SAINT PETERS",
        "state": "MO",
        "postalCode": "63376-7370"
      },
      {
        "line": [
          "909 E Pitman Ave"
        ],
        "city": "WENTZVILLE",
        "state": "MO",
        "postalCode": "63385-1818"
      },
      {
        "line": [
          "10 Dubray Drive"
        ],
        "city": "SAINT PETERS",
        "state": "MO",
        "postalCode": "63376-3515"
      },
      {
        "line": [
          "15201 OLIVE BLVD"
        ],
        "city": "CHESTERFIELD",
        "state": "MO",
        "postalCode": "63017-1810"
      },
      {
        "line": [
          "265 SPENCER RD"
        ],
        "city": "SAINT PETERS",
        "state": "MO",
        "postalCode": "63376-2430"
      },
      {
        "line": [
          "693 Decker Ln"
        ],
        "city": "SAINT LOUIS",
        "state": "MO",
        "postalCode": "63141-6766"
      },
      {
        "line": [
          "12303 De Paul Dr"
        ],
        "city": "BRIDGETON",
        "state": "MO",
        "postalCode": "63044-2512"
      },
      {
        "line": [
          "3801 MCClay Rd"
        ],
        "city": "SAINT PETERS",
        "state": "MO",
        "postalCode": "63376-7327"
      },
      {
        "line": [
          "2929 Dougherty Ferry Road"
        ],
        "city": "SAINT LOUIS",
        "state": "MO",
        "postalCode": "63122-3318"
      },
      {
        "line": [
          "27 Reinke Rd"
        ],
        "city": "BALLWIN",
        "state": "MO",
        "postalCode": "63021-4700"
      },
      {
        "line": [
          "35 LILLIAN DR"
        ],
        "city": "SAINT CHARLES",
        "state": "MO",
        "postalCode": "63304-7032"
      },
      {
        "line": [
          "206 N Main St"
        ],
        "city": "O FALLON",
        "state": "MO",
        "postalCode": "63366-2290"
      },
      {
        "line": [
          "723 1st Capitol Dr"
        ],
        "city": "SAINT CHARLES",
        "state": "MO",
        "postalCode": "63301-2729"
      },
      {
        "line": [
          "114 PIPER HILL DR"
        ],
        "city": "SAINT PETERS",
        "state": "MO",
        "postalCode": "63376-1661"
      },
      {
        "line": [
          "575 COUCH AVE"
        ],
        "city": "SAINT LOUIS",
        "state": "MO",
        "postalCode": "63122-5536"
      },
      {
        "line": [
          "125 KLONDIKE CROSSING"
        ],
        "city": "SAINT PETERS",
        "state": "MO",
        "postalCode": "63376-5394"
      }
    ],
    "extension": [
      {
        "url": "https://fhir.athena.io/StructureDefinition/ah-practice",
        "valueReference": {
          "reference": "Organization/a-1.Practice-13289"
        }
      },
      {
        "url": "https://fhir.athena.io/StructureDefinition/ah-brand",
        "valueReference": {
          "reference": "Organization/a-13289.Brand-1"
        }
      }
    ]
  },
  "fullUrl": "urn:uuid:7917ea3f-fe3c-5a2d-9df0-c79138c4cdba"
}