{
  "resource": {
    "resourceType": "Organization",
    "id": "7bfc65fa-fb63-5b2d-a050-707cea6bddc2",
    "name": "Emerge Healthcare",
    "endpoint": [
      {
        "reference": "Endpoint/27a4e967-47aa-5a9c-a572-b8297ee268a2"
      },
      {
        "reference": "Endpoint/f04f0293-e732-5dec-9130-e545546ec5bb"
      }
    ],
    "identifier": [
      {
        "system": "http://hl7.org/fhir/sid/us-npi",
        "value": "1578846564"
      }
    ],
    "address": [
      {
        "line": [
          "8000 RON BEATTY BLVD",
          "SUITE A1"
        ],
        "city": "MICCO",
        "state": "FL",
        "postalCode": "32976-7474"
      },
      {
        "line": [
          "1344 S. Apollo Blvd.",
          "Suite 100"
        ],
        "city": "MELBOURNE",
        "state": "FL",
        "postalCode": "32901-1936"
      },
      {
        "line": [
          "255 N. SYKES CREEK PKWY",
          "SUITE 103"
        ],
        "city": "MERRITT ISLAND",
        "state": "FL",
        "postalCode": "32953-3518"
      },
      {
        "line": [
          "4311 Norfolk Pkwy",
          "Suite 116"
        ],
        "city": "MELBOURNE",
        "state": "FL",
        "postalCode": "32904-8617"
      },
      {
        "line": [
          "1344 S. Apollo Blvd. Suite 300"
        ],
        "city": "MELBOURNE",
        "state": "FL",
        "postalCode": "32901-1936"
      },
      {
        "line": [
          "6300 North Wickham Road",
          "Suite 116"
        ],
        "city": "MELBOURNE",
        "state": "FL",
        "postalCode": "32940-2030"
      },
      {
        "line": [
          "1344 S. Apollo Blvd Suite 300"
        ],
        "city": "MELBOURNE",
        "state": "FL",
        "postalCode": "32901-1938"
      },
      {
        "line": [
          "5445 Murrell Road",
          "Suite 105"
        ],
        "city": "ROCKLEDGE",
        "state": "FL",
        "postalCode": "32955-6679"
      },
      {
        "line": [
          "95 BULLDOG BLVD",
          "ste 201"
        ],
        "city": "MELBOURNE",
        "state": "FL",
        "postalCode": "32901-3176"
      },
      {
        "line": [
          "709 S. Harbor City Blvd",
          "Suite 100"
        ],
        "city": "MELBOURNE",
        "state": "FL",
        "postalCode": "32901-1936"
      },
      {
        "line": [
          "95 BULLDOG BLVD STE 104"
        ],
        "city": "MELBOURNE",
        "state": "FL",
        "postalCode": "32901-3175"
      },
      {
        "line": [
          "2030 South Patrick Drive",
          "Suite 3"
        ],
        "city": "SATELLITE BEACH",
        "state": "FL",
        "postalCode": "32937-4400"
      },
      {
        "line": [
          "709 S. Harbor City Blvd.",
          "Suite 100"
        ],
        "city": "MELBOURNE",
        "state": "FL",
        "postalCode": "32901-1936"
      },
      {
        "line": [
          "1344 S. APOLLO BLVD",
          "SUITE 100"
        ],
        "city": "MELBOURNE",
        "state": "FL",
        "postalCode": "32901-1936"
      },
      {
        "line": [
          "123 MAIN ST"
        ],
        "city": "NEW YORK",
        "state": "NY",
        "postalCode": "10017-1100"
      },
      {
        "line": [
          "110 Longwood Avenue"
        ],
        "city": "ROCKLEDGE",
        "state": "FL",
        "postalCode": "32955-2828"
      }
    ],
    "extension": [
      {
        "url": "https://fhir.athena.io/StructureDefinition/ah-practice",
        "valueReference": {
          "reference": "Organization/a-1.Practice-8524"
        }
      },
      {
        "url": "https://fhir.athena.io/StructureDefinition/ah-brand",
        "valueReference": {
          "reference": "Organization/a-8524.Brand-1"
        }
      }
    ]
  },
  "fullUrl": "urn:uuid:7bfc65fa-fb63-5b2d-a050-707cea6bddc2"
}