{
  "resource": {
    "resourceType": "Organization",
    "id": "d67b30bf-fc63-57dd-9cba-813912ab3858",
    "name": "*Telehealth - TMI Sports Medicine & Orthopedic Sur",
    "endpoint": [
      {
        "reference": "Endpoint/27a4e967-47aa-5a9c-a572-b8297ee268a2"
      },
      {
        "reference": "Endpoint/5967e311-ec95-552c-80cc-2dae18823384"
      }
    ],
    "identifier": [
      {
        "system": "http://hl7.org/fhir/sid/us-npi",
        "value": "1972582690"
      }
    ],
    "address": [
      {
        "line": [
          "3533 MATLOCK RD"
        ],
        "city": "ARLINGTON",
        "state": "TX",
        "postalCode": "76015-3604"
      },
      {
        "line": [
          "17051 DALLAS PKWY STE 100"
        ],
        "city": "ADDISON",
        "state": "TX",
        "postalCode": "75001-7102"
      },
      {
        "line": [
          "267 N STATE HIGHWAY 360"
        ],
        "city": "MANSFIELD",
        "state": "TX",
        "postalCode": "76063-9073"
      },
      {
        "line": [
          "1441 N BECKLEY AVE"
        ],
        "city": "DALLAS",
        "state": "TX",
        "postalCode": "75203-1201"
      },
      {
        "line": [
          "2222 WELBORN ST"
        ],
        "city": "DALLAS",
        "state": "TX",
        "postalCode": "75219-3924"
      },
      {
        "line": [
          "5575 FRISCO SQUARE BLVD STE 100"
        ],
        "city": "FRISCO",
        "state": "TX",
        "postalCode": "75034-3309"
      },
      {
        "line": [
          "4351 Centreway Place"
        ],
        "city": "ARLINGTON",
        "state": "TX",
        "postalCode": "76018-1116"
      },
      {
        "line": [
          "17101 DALLAS PARKWAY"
        ],
        "city": "ADDISON",
        "state": "TX",
        "postalCode": "75001-7103"
      }
    ],
    "extension": [
      {
        "url": "https://fhir.athena.io/StructureDefinition/ah-practice",
        "valueReference": {
          "reference": "Organization/a-1.Practice-25955"
        }
      },
      {
        "url": "https://fhir.athena.io/StructureDefinition/ah-brand",
        "valueReference": {
          "reference": "Organization/a-25955.Brand-1"
        }
      }
    ]
  },
  "fullUrl": "urn:uuid:d67b30bf-fc63-57dd-9cba-813912ab3858"
}