{
  "resource": {
    "resourceType": "Organization",
    "id": "d7b8fa23-4021-5bee-9338-52dc2aef9f66",
    "name": "Los Angeles County Nephrology Associates Billing Dept",
    "endpoint": [
      {
        "reference": "Endpoint/27a4e967-47aa-5a9c-a572-b8297ee268a2"
      },
      {
        "reference": "Endpoint/ffb7e4c8-8caa-5d1c-a718-4f4d79559f11"
      }
    ],
    "identifier": [
      {
        "system": "http://hl7.org/fhir/sid/us-npi",
        "value": "1083649651"
      }
    ],
    "address": [
      {
        "line": [
          "1720 E. Cesar Chavez Ave"
        ],
        "city": "LOS ANGELES",
        "state": "CA",
        "postalCode": "90023-2414"
      },
      {
        "line": [
          "16453 S. Colorado Ave"
        ],
        "city": "PARAMOUNT",
        "state": "CA",
        "postalCode": "90723-5011"
      },
      {
        "line": [
          "3705 S La Brea Avenue"
        ],
        "city": "LOS ANGELES",
        "state": "CA",
        "postalCode": "90016-5309"
      },
      {
        "line": [
          "14148 FRANCISQUITO AVE"
        ],
        "city": "BALDWIN PARK",
        "state": "CA",
        "postalCode": "91706-6120"
      },
      {
        "line": [
          "15625 LAKEWOOD BLVD"
        ],
        "city": "PARAMOUNT",
        "state": "CA",
        "postalCode": "90723-4633"
      },
      {
        "line": [
          "8319 ALONDRA BLVD"
        ],
        "city": "PARAMOUNT",
        "state": "CA",
        "postalCode": "90723-4403"
      },
      {
        "line": [
          "3575 WHITTIER BLVD"
        ],
        "city": "LOS ANGELES",
        "state": "CA",
        "postalCode": "90023-1709"
      },
      {
        "line": [
          "16453 COLORADO AVE"
        ],
        "city": "PARAMOUNT",
        "state": "CA",
        "postalCode": "90723-5011"
      },
      {
        "line": [
          "340 E COMMONWEALTH AVE"
        ],
        "city": "FULLERTON",
        "state": "CA",
        "postalCode": "92832-2017"
      },
      {
        "line": [
          "12401 Washington Blvd"
        ],
        "city": "WHITTIER",
        "state": "CA",
        "postalCode": "90602-1006"
      },
      {
        "line": [
          "8333 IOWA ST STE 100"
        ],
        "city": "DOWNEY",
        "state": "CA",
        "postalCode": "90241-4994"
      },
      {
        "line": [
          "2300 W VALLEY BLVD"
        ],
        "city": "ALHAMBRA",
        "state": "CA",
        "postalCode": "91803-1930"
      },
      {
        "line": [
          "1824 E Slauson Ave"
        ],
        "city": "VERNON",
        "state": "CA",
        "postalCode": "90058-3829"
      },
      {
        "line": [
          "3114 W BEVERLY BLVD"
        ],
        "city": "MONTEBELLO",
        "state": "CA",
        "postalCode": "90640-2217"
      },
      {
        "line": [
          "100 Washington Blvd"
        ],
        "city": "MONTEBELLO",
        "state": "CA",
        "postalCode": "90640-6211"
      },
      {
        "line": [
          "4036 WHITTIER BLVD STE 201"
        ],
        "city": "LOS ANGELES",
        "state": "CA",
        "postalCode": "90023-2561"
      },
      {
        "line": [
          "9080 Colina Road"
        ],
        "city": "WHITTIER",
        "state": "CA",
        "postalCode": "90605-1600"
      },
      {
        "line": [
          "4036 Whittier Blvd"
        ],
        "city": "LOS ANGELES",
        "state": "CA",
        "postalCode": "90023-2560"
      },
      {
        "line": [
          "883 S ATLANTIC BLVD STE H"
        ],
        "city": "MONTEREY PARK",
        "state": "CA",
        "postalCode": "91754-4725"
      },
      {
        "line": [
          "13222 Bloomfield Ave"
        ],
        "city": "NORWALK",
        "state": "CA",
        "postalCode": "90650-3249"
      },
      {
        "line": [
          "19222 Pioneer Blvd",
          "Ste 101"
        ],
        "city": "CERRITOS",
        "state": "CA",
        "postalCode": "90703-6603"
      },
      {
        "line": [
          "5949 STATE ST"
        ],
        "city": "HUNTINGTON PARK",
        "state": "CA",
        "postalCode": "90255-3139"
      },
      {
        "line": [
          "950 S. Eastern Ave"
        ],
        "city": "LOS ANGELES",
        "state": "CA",
        "postalCode": "90022-4801"
      },
      {
        "line": [
          "7403 Hellman Avenue"
        ],
        "city": "ROSEMEAD",
        "state": "CA",
        "postalCode": "91770-2213"
      },
      {
        "line": [
          "14101 FRANCISQUITO AVE"
        ],
        "city": "BALDWIN PARK",
        "state": "CA",
        "postalCode": "91706-6104"
      }
    ],
    "extension": [
      {
        "url": "https://fhir.athena.io/StructureDefinition/ah-practice",
        "valueReference": {
          "reference": "Organization/a-1.Practice-16656"
        }
      },
      {
        "url": "https://fhir.athena.io/StructureDefinition/ah-brand",
        "valueReference": {
          "reference": "Organization/a-16656.Brand-1"
        }
      }
    ]
  },
  "fullUrl": "urn:uuid:d7b8fa23-4021-5bee-9338-52dc2aef9f66"
}