{
  "resource": {
    "resourceType": "Organization",
    "id": "c99605f3-60d2-5ee0-8633-bc8e39867e06",
    "name": "Colorado Shoulder, Hip and Knee Institute",
    "endpoint": [
      {
        "reference": "Endpoint/27a4e967-47aa-5a9c-a572-b8297ee268a2"
      },
      {
        "reference": "Endpoint/8e883307-96b6-5a5b-9133-5785caeccd71"
      }
    ],
    "identifier": [
      {
        "system": "http://hl7.org/fhir/sid/us-npi",
        "value": "1437741071"
      }
    ],
    "address": [
      {
        "line": [
          "135 INVERNESS DR E"
        ],
        "city": "ENGLEWOOD",
        "state": "CO",
        "postalCode": "80112-5115"
      },
      {
        "line": [
          "9395 CROWN CREST BLVD"
        ],
        "city": "PARKER",
        "state": "CO",
        "postalCode": "80138-8573"
      },
      {
        "line": [
          "501 E HAMPDEN AVE"
        ],
        "city": "ENGLEWOOD",
        "state": "CO",
        "postalCode": "80113-2702"
      },
      {
        "line": [
          "10101 RIDGEGATE PKWY"
        ],
        "city": "LONE TREE",
        "state": "CO",
        "postalCode": "80124-5522"
      },
      {
        "line": [
          "11 W Dry Creek Circle Ste 120"
        ],
        "city": "LITTLETON",
        "state": "CO",
        "postalCode": "80120-8078"
      },
      {
        "line": [
          "2350 MEADOWS BLVD"
        ],
        "city": "CASTLE ROCK",
        "state": "CO",
        "postalCode": "80109-8405"
      },
      {
        "line": [
          "9191 GRANT ST"
        ],
        "city": "DENVER",
        "state": "CO",
        "postalCode": "80229-4361"
      },
      {
        "line": [
          "1501 S POTOMAC ST"
        ],
        "city": "AURORA",
        "state": "CO",
        "postalCode": "80012-5411"
      },
      {
        "line": [
          "145 INVERNESS DRIVE EASTSUITE 350"
        ],
        "city": "ENGLEWOOD",
        "state": "CO",
        "postalCode": "80112-5172"
      },
      {
        "line": [
          "2525 S DOWNING ST"
        ],
        "city": "DENVER",
        "state": "CO",
        "postalCode": "80210-5817"
      },
      {
        "line": [
          "11 W DRY CREEK CIR STE 120"
        ],
        "city": "LITTLETON",
        "state": "CO",
        "postalCode": "80120-8078"
      },
      {
        "line": [
          "4397 RONALD REAGAN BOULEVARD"
        ],
        "city": "JOHNSTOWN",
        "state": "CO",
        "postalCode": "80534-6441"
      },
      {
        "line": [
          "1719 E 19TH AVE"
        ],
        "city": "DENVER",
        "state": "CO",
        "postalCode": "80218-1235"
      },
      {
        "line": [
          "4397 RONALD REAGAN BLVD"
        ],
        "city": "JOHNSTOWN",
        "state": "CO",
        "postalCode": "80534-6445"
      },
      {
        "line": [
          "145 Inverness Dr East",
          "Suite 350"
        ],
        "city": "ENGLEWOOD",
        "state": "CO",
        "postalCode": "80112-5172"
      },
      {
        "line": [
          "2350 Meadows Blvd"
        ],
        "city": "CASTLE ROCK",
        "state": "CO",
        "postalCode": "80109-8078"
      }
    ],
    "extension": [
      {
        "url": "https://fhir.athena.io/StructureDefinition/ah-practice",
        "valueReference": {
          "reference": "Organization/a-1.Practice-24051"
        }
      },
      {
        "url": "https://fhir.athena.io/StructureDefinition/ah-brand",
        "valueReference": {
          "reference": "Organization/a-24051.Brand-1"
        }
      }
    ]
  },
  "fullUrl": "urn:uuid:c99605f3-60d2-5ee0-8633-bc8e39867e06"
}