{
  "resource": {
    "resourceType": "Organization",
    "id": "e9cd476b-e555-58a0-9b69-19c8b41ede92",
    "name": "NEW BRAUNFELS BONE & JOINT CLINIC",
    "endpoint": [
      {
        "reference": "Endpoint/27a4e967-47aa-5a9c-a572-b8297ee268a2"
      },
      {
        "reference": "Endpoint/23f5e8d2-1bb6-5202-a45d-bacd9556157c"
      }
    ],
    "identifier": [
      {
        "system": "http://hl7.org/fhir/sid/us-npi",
        "value": "1497979546"
      }
    ],
    "address": [
      {
        "line": [
          "1445 Hanz Drive"
        ],
        "city": "NEW BRAUNFELS",
        "state": "TX",
        "postalCode": "78130-2567"
      },
      {
        "line": [
          "54 GRUENE PARK DRIVE"
        ],
        "city": "NEW BRAUNFELS",
        "state": "TX",
        "postalCode": "78130-2460"
      },
      {
        "line": [
          "54 gruene park dr"
        ],
        "city": "NEW BRAUNFELS",
        "state": "TX",
        "postalCode": "78130-2460"
      },
      {
        "line": [
          "1301 WONDER WORLD DR"
        ],
        "city": "SAN MARCOS",
        "state": "TX",
        "postalCode": "78666-7533"
      },
      {
        "line": [
          "600 N. Union Ave"
        ],
        "city": "NEW BRAUNFELS",
        "state": "TX",
        "postalCode": "78130-4194"
      },
      {
        "line": [
          "244 CREEKSIDE CROSSING"
        ],
        "city": "NEW BRAUNFELS",
        "state": "TX",
        "postalCode": "78130-3927"
      },
      {
        "line": [
          "2041 Sundance Parkway"
        ],
        "city": "NEW BRAUNFELS",
        "state": "TX",
        "postalCode": "78130-2779"
      },
      {
        "line": [
          "555 Creekside Crossing"
        ],
        "city": "NEW BRAUNFELS",
        "state": "TX",
        "postalCode": "78130-2594"
      },
      {
        "line": [
          "54 Gruene Park Dr"
        ],
        "city": "NEW BRAUNFELS",
        "state": "TX",
        "postalCode": "78130-2460"
      },
      {
        "line": [
          "1738 E. Common St."
        ],
        "city": "NEW BRAUNFELS",
        "state": "TX",
        "postalCode": "78130-3156"
      },
      {
        "line": [
          "555 Creekside crossing"
        ],
        "city": "NEW BRAUNFELS",
        "state": "TX",
        "postalCode": "78130-2594"
      }
    ],
    "extension": [
      {
        "url": "https://fhir.athena.io/StructureDefinition/ah-practice",
        "valueReference": {
          "reference": "Organization/a-1.Practice-3406"
        }
      },
      {
        "url": "https://fhir.athena.io/StructureDefinition/ah-brand",
        "valueReference": {
          "reference": "Organization/a-3406.Brand-1"
        }
      }
    ]
  },
  "fullUrl": "urn:uuid:e9cd476b-e555-58a0-9b69-19c8b41ede92"
}