{
  "resource": {
    "resourceType": "Organization",
    "id": "b2bc8d01-97ae-5536-821e-30c1276700ac",
    "name": "Summit Medical Group TESTING DO NOT USE",
    "endpoint": [
      {
        "reference": "Endpoint/27a4e967-47aa-5a9c-a572-b8297ee268a2"
      },
      {
        "reference": "Endpoint/2f25b3e9-6966-57f6-8c2b-080c85d60dc8"
      }
    ],
    "identifier": [
      {
        "system": "http://hl7.org/fhir/sid/us-npi",
        "value": "1558872432"
      },
      {
        "system": "http://hl7.org/fhir/sid/us-npi",
        "value": "1134738974"
      }
    ],
    "address": [
      {
        "line": [
          "1625 RIDENOUR BLVD NW",
          "Ste 305"
        ],
        "city": "KENNESAW",
        "state": "GA",
        "postalCode": "30152-4466"
      },
      {
        "line": [
          "6025 Professional Pkwy",
          "Ste 200"
        ],
        "city": "DOUGLASVILLE",
        "state": "GA",
        "postalCode": "30134-5609"
      },
      {
        "line": [
          "181 S CLAYTON ST"
        ],
        "city": "LAWRENCEVILLE",
        "state": "GA",
        "postalCode": "30046-5716"
      },
      {
        "line": [
          "3334 HIGHWAY 155 STE B"
        ],
        "city": "LOCUST GROVE",
        "state": "GA",
        "postalCode": "30248-3513"
      },
      {
        "line": [
          "2580 SANDY PLAINS RD"
        ],
        "city": "MARIETTA",
        "state": "GA",
        "postalCode": "30066-5798"
      },
      {
        "line": [
          "105 Carnegie Pl #103"
        ],
        "city": "FAYETTEVILLE",
        "state": "GA",
        "postalCode": "30214-5900"
      },
      {
        "line": [
          "1104 West Taylor Street"
        ],
        "city": "GRIFFIN",
        "state": "GA",
        "postalCode": "30223-2610"
      },
      {
        "line": [
          "545 VENTURE CT"
        ],
        "city": "MONTICELLO",
        "state": "GA",
        "postalCode": "31064-7788"
      },
      {
        "line": [
          "4553 N SHALLOWFORD RD",
          "STE 30B"
        ],
        "city": "ATLANTA",
        "state": "GA",
        "postalCode": "30338-6449"
      },
      {
        "line": [
          "3687 HIGHWAY 5"
        ],
        "city": "DOUGLASVILLE",
        "state": "GA",
        "postalCode": "30135-2385"
      },
      {
        "line": [
          "235 Medical Blvd"
        ],
        "city": "STOCKBRIDGE",
        "state": "GA",
        "postalCode": "30281-7218"
      },
      {
        "line": [
          "3445 Peachtree Rd NE",
          "Ste 1200"
        ],
        "city": "ATLANTA",
        "state": "GA",
        "postalCode": "30326-3251"
      },
      {
        "line": [
          "12970 HIGHWAY 9"
        ],
        "city": "ALPHARETTA",
        "state": "GA",
        "postalCode": "30004-3609"
      },
      {
        "line": [
          "619 S 8th ST",
          "Ste 200"
        ],
        "city": "GRIFFIN",
        "state": "GA",
        "postalCode": "30224-4260"
      },
      {
        "line": [
          "3445 PEACHTREE RD NE STE 1200"
        ],
        "city": "ATLANTA",
        "state": "GA",
        "postalCode": "30326-3251"
      },
      {
        "line": [
          "189 Medical Way Suite A"
        ],
        "city": "RIVERDALE",
        "state": "GA",
        "postalCode": "30274-4905"
      },
      {
        "line": [
          "4166 Snapfinger Woods Dr"
        ],
        "city": "DECATUR",
        "state": "GA",
        "postalCode": "30035-3411"
      },
      {
        "line": [
          "210 COLLEGE ST"
        ],
        "city": "MCDONOUGH",
        "state": "GA",
        "postalCode": "30253-3300"
      },
      {
        "line": [
          "2975 DELK RD SE"
        ],
        "city": "MARIETTA",
        "state": "GA",
        "postalCode": "30067-5318"
      },
      {
        "line": [
          "3001 SIMPSON RD STE 101"
        ],
        "city": "KISSIMMEE",
        "state": "FL",
        "postalCode": "34744-4680"
      },
      {
        "line": [
          "5000 FLOYD RD SW"
        ],
        "city": "MABLETON",
        "state": "GA",
        "postalCode": "30126-1608"
      }
    ],
    "extension": [
      {
        "url": "https://fhir.athena.io/StructureDefinition/ah-practice",
        "valueReference": {
          "reference": "Organization/a-1.Practice-21533"
        }
      },
      {
        "url": "https://fhir.athena.io/StructureDefinition/ah-brand",
        "valueReference": {
          "reference": "Organization/a-21533.Brand-1"
        }
      }
    ]
  },
  "fullUrl": "urn:uuid:b2bc8d01-97ae-5536-821e-30c1276700ac"
}