{
  "resource": {
    "resourceType": "Organization",
    "id": "e2f49a28-e322-5b3b-9ce4-09c3f01c8015",
    "name": "Enterprise Office",
    "endpoint": [
      {
        "reference": "Endpoint/27a4e967-47aa-5a9c-a572-b8297ee268a2"
      },
      {
        "reference": "Endpoint/a9f078e4-21c6-5cfa-8180-19765902918f"
      }
    ],
    "identifier": [
      {
        "system": "http://hl7.org/fhir/sid/us-npi",
        "value": "1952873283"
      }
    ],
    "address": [
      {
        "line": [
          "107 E watts street"
        ],
        "city": "ENTERPRISE",
        "state": "AL",
        "postalCode": "36330-2511"
      },
      {
        "line": [
          "400 N EDWARDS ST"
        ],
        "city": "ENTERPRISE",
        "state": "AL",
        "postalCode": "36330-2510"
      },
      {
        "line": [
          "300 Plaza drive"
        ],
        "city": "ENTERPRISE",
        "state": "AL",
        "postalCode": "36330-3311"
      },
      {
        "line": [
          "109 Chaney St"
        ],
        "city": "ENTERPRISE",
        "state": "AL",
        "postalCode": "36330-1304"
      },
      {
        "line": [
          "107 E Watts St"
        ],
        "city": "ENTERPRISE",
        "state": "AL",
        "postalCode": "36330-2511"
      },
      {
        "line": [
          "171 Grimes Road"
        ],
        "city": "OZARK",
        "state": "AL",
        "postalCode": "36360-3346"
      },
      {
        "line": [
          "141 Scouting Circle"
        ],
        "city": "TROY",
        "state": "AL",
        "postalCode": "36081-2540"
      },
      {
        "line": [
          "203 Wynn road"
        ],
        "city": "ENTERPRISE",
        "state": "AL",
        "postalCode": "36330-2082"
      },
      {
        "line": [
          "3657 Montgomery Hwy"
        ],
        "city": "DOTHAN",
        "state": "AL",
        "postalCode": "36303-2169"
      },
      {
        "line": [
          "301 Medical Park Dr Suite B"
        ],
        "city": "ANDALUSIA",
        "state": "AL",
        "postalCode": "36420-5325"
      },
      {
        "line": [
          "1008 Boll Weevil Circle",
          "Suite B"
        ],
        "city": "ENTERPRISE",
        "state": "AL",
        "postalCode": "36330-3400"
      },
      {
        "line": [
          "107 E Watts St"
        ],
        "city": "Enterprise",
        "state": "AL",
        "postalCode": "36330-2511"
      },
      {
        "line": [
          "1008 Boll Weevil Cir Ste B"
        ],
        "city": "ENTERPRISE",
        "state": "AL",
        "postalCode": "36330-3400"
      },
      {
        "line": [
          "508 E. Church Street"
        ],
        "city": "HEADLAND",
        "state": "AL",
        "postalCode": "36345-1814"
      },
      {
        "line": [
          "201 E WATTS ST"
        ],
        "city": "ENTERPRISE",
        "state": "AL",
        "postalCode": "36330-1812"
      },
      {
        "line": [
          "107 E WATTS ST"
        ],
        "city": "ENTERPRISE",
        "state": "AL",
        "postalCode": "36330-2511"
      }
    ],
    "extension": [
      {
        "url": "https://fhir.athena.io/StructureDefinition/ah-practice",
        "valueReference": {
          "reference": "Organization/a-1.Practice-19193"
        }
      },
      {
        "url": "https://fhir.athena.io/StructureDefinition/ah-brand",
        "valueReference": {
          "reference": "Organization/a-19193.Brand-1"
        }
      }
    ]
  },
  "fullUrl": "urn:uuid:e2f49a28-e322-5b3b-9ce4-09c3f01c8015"
}