{
  "resource": {
    "resourceType": "Organization",
    "id": "1498b701-2a99-5d55-9ca4-5e8e677dc381",
    "name": "Care Beyond the Boulevard",
    "endpoint": [
      {
        "reference": "Endpoint/27a4e967-47aa-5a9c-a572-b8297ee268a2"
      },
      {
        "reference": "Endpoint/91a9212c-0e97-5a6c-9aad-439617a563e0"
      }
    ],
    "identifier": [
      {
        "system": "http://hl7.org/fhir/sid/us-npi",
        "value": "1234567890"
      }
    ],
    "address": [
      {
        "line": [
          "1900 NE ENGLEWOOD RD"
        ],
        "city": "KANSAS CITY",
        "state": "MO",
        "postalCode": "64118-5625"
      },
      {
        "line": [
          "3308 E 12TH ST"
        ],
        "city": "KANSAS CITY",
        "state": "MO",
        "postalCode": "64127-1437"
      },
      {
        "line": [
          "606 GLADSTONE AVE"
        ],
        "city": "KANSAS CITY",
        "state": "MO",
        "postalCode": "64124-2522"
      },
      {
        "line": [
          "5108 INDEPENDENCE AVE"
        ],
        "city": "KANSAS CITY",
        "state": "MO",
        "postalCode": "64124-3004"
      },
      {
        "line": [
          "750 PASEO BLVD"
        ],
        "city": "KANSAS CITY",
        "state": "MO",
        "postalCode": "64106-1738"
      },
      {
        "line": [
          "3150 FIBERGLASS RD"
        ],
        "city": "KANSAS CITY",
        "state": "KS",
        "postalCode": "66115-1211"
      },
      {
        "line": [
          "530 QUINDARO BLVD"
        ],
        "city": "KANSAS CITY",
        "state": "KS",
        "postalCode": "66101-1458"
      },
      {
        "line": [
          "5100 E LINWOOD BLVD"
        ],
        "city": "KANSAS CITY",
        "state": "MO",
        "postalCode": "64128-5100"
      }
    ],
    "extension": [
      {
        "url": "https://fhir.athena.io/StructureDefinition/ah-practice",
        "valueReference": {
          "reference": "Organization/a-1.Practice-19814"
        }
      },
      {
        "url": "https://fhir.athena.io/StructureDefinition/ah-brand",
        "valueReference": {
          "reference": "Organization/a-19814.Brand-1"
        }
      }
    ]
  },
  "fullUrl": "urn:uuid:1498b701-2a99-5d55-9ca4-5e8e677dc381"
}