{
  "resource": {
    "resourceType": "Organization",
    "id": "73a41d99-d9f7-5d9e-a7e2-6ebab1a543a1",
    "name": "Tri-State Bariatrics",
    "endpoint": [
      {
        "reference": "Endpoint/27a4e967-47aa-5a9c-a572-b8297ee268a2"
      },
      {
        "reference": "Endpoint/49862358-1b5a-583a-a678-9aa05e67be67"
      }
    ],
    "identifier": [
      {
        "system": "http://hl7.org/fhir/sid/us-npi",
        "value": "1801993175"
      },
      {
        "system": "http://hl7.org/fhir/sid/us-npi",
        "value": "1184859381"
      }
    ],
    "address": [
      {
        "line": [
          "68 Harris Bushville Rd"
        ],
        "city": "HARRIS",
        "state": "NY",
        "postalCode": "12742-0800"
      },
      {
        "line": [
          "161 East Main Street",
          "Suite 301"
        ],
        "city": "PORT JERVIS",
        "state": "NY",
        "postalCode": "12771-2113"
      },
      {
        "line": [
          "384 Crystal Run Rd, Suite 201"
        ],
        "city": "MIDDLETOWN",
        "state": "NY",
        "postalCode": "10941-4013"
      },
      {
        "line": [
          "Scheduled Hospital Address"
        ],
        "city": "SUFFERN",
        "state": "NY",
        "postalCode": "10901-5013"
      },
      {
        "line": [
          "160 E MAIN ST"
        ],
        "city": "PORT JERVIS",
        "state": "NY",
        "postalCode": "12771-2114"
      },
      {
        "line": [
          "5 HUDSON VALLEY PROFESSIONAL PLAZA"
        ],
        "city": "NEWBURGH",
        "state": "NY",
        "postalCode": "12550-3117"
      },
      {
        "line": [
          "214 West Street"
        ],
        "city": "WARWICK",
        "state": "NY",
        "postalCode": "10990-3214"
      },
      {
        "line": [
          "111 Maltese Drive"
        ],
        "city": "MIDDLETOWN",
        "state": "NY",
        "postalCode": "10941-2115"
      },
      {
        "line": [
          "Scheduled Hospital Address"
        ],
        "city": "MIDDLETOWN",
        "state": "NY",
        "postalCode": "10941-4013"
      },
      {
        "line": [
          "384 Crystal Run Rd",
          "Ste 201"
        ],
        "city": "MIDDLETOWN",
        "state": "NY",
        "postalCode": "10941-4073"
      }
    ],
    "extension": [
      {
        "url": "https://fhir.athena.io/StructureDefinition/ah-practice",
        "valueReference": {
          "reference": "Organization/a-1.Practice-3127"
        }
      },
      {
        "url": "https://fhir.athena.io/StructureDefinition/ah-brand",
        "valueReference": {
          "reference": "Organization/a-3127.Brand-1"
        }
      }
    ]
  },
  "fullUrl": "urn:uuid:73a41d99-d9f7-5d9e-a7e2-6ebab1a543a1"
}