{
  "resource": {
    "resourceType": "Organization",
    "id": "485b4df7-8e3a-5d8a-a359-33cfbf859ad5",
    "name": "Biofourmis",
    "endpoint": [
      {
        "reference": "Endpoint/27a4e967-47aa-5a9c-a572-b8297ee268a2"
      },
      {
        "reference": "Endpoint/8d476b4a-83f3-5955-a54c-6a7a00a11b8a"
      }
    ],
    "identifier": [
      {
        "system": "http://hl7.org/fhir/sid/us-npi",
        "value": "1174299333"
      },
      {
        "system": "http://hl7.org/fhir/sid/us-npi",
        "value": "1134855711"
      },
      {
        "system": "http://hl7.org/fhir/sid/us-npi",
        "value": "1851048565"
      },
      {
        "system": "http://hl7.org/fhir/sid/us-npi",
        "value": "1528728375"
      }
    ],
    "address": [
      {
        "line": [
          "145 W OSTEND ST"
        ],
        "city": "BALTIMORE",
        "state": "MD",
        "postalCode": "21230-3764"
      },
      {
        "line": [
          "28062 BAXTER RD"
        ],
        "city": "MURRIETA",
        "state": "CA",
        "postalCode": "92563-1401"
      },
      {
        "line": [
          " 33 ARCH ST 17th FLOOR"
        ],
        "city": "BOSTON",
        "state": "MA",
        "postalCode": "02110-1424"
      },
      {
        "line": [
          "39755 MURRIETA HOT SPRINGS RD STE E130"
        ],
        "city": "MURRIETA",
        "state": "CA",
        "postalCode": "92563-9116"
      },
      {
        "line": [
          "1000 HIGHLAND COLONY PKWY BLDG 5000 STE 5"
        ],
        "city": "RIDGELAND",
        "state": "MS",
        "postalCode": "39157-2073"
      },
      {
        "line": [
          "6400 EDGELAKE DR"
        ],
        "city": "SARASOTA",
        "state": "FL",
        "postalCode": "34240-8813"
      },
      {
        "line": [
          "17875 Von Karmen Ave",
          "Suit 150 & 250"
        ],
        "city": "IRVINE",
        "state": "CA",
        "postalCode": "92614-6212"
      },
      {
        "line": [
          "1200 S PINE ISLAND RD"
        ],
        "city": "PLANTATION",
        "state": "FL",
        "postalCode": "33324-4413"
      },
      {
        "line": [
          "11234 ANDERSON ST"
        ],
        "city": "LOMA LINDA",
        "state": "CA",
        "postalCode": "92354-2804"
      },
      {
        "line": [
          "1251 STAFFORD ST STE B UNIT 6"
        ],
        "city": "MONROE",
        "state": "NC",
        "postalCode": "28110-3350"
      },
      {
        "line": [
          "2175 PARK PL"
        ],
        "city": "EL SEGUNDO",
        "state": "CA",
        "postalCode": "90245-4705"
      },
      {
        "line": [
          "1341 W MOCKINGBIRD LN STE 600W"
        ],
        "city": "DALLAS",
        "state": "TX",
        "postalCode": "75247-6904"
      },
      {
        "line": [
          "33 ARCH ST"
        ],
        "city": "BOSTON",
        "state": "MA",
        "postalCode": "02110-1424"
      },
      {
        "line": [
          "820 BEAR TAVERN RD"
        ],
        "city": "WEST TRENTON",
        "state": "NJ",
        "postalCode": "08628-1021"
      },
      {
        "line": [
          "820 BEAR TAVERN RD"
        ],
        "city": "Ewing",
        "state": "NJ",
        "postalCode": "08628-1021"
      }
    ],
    "extension": [
      {
        "url": "https://fhir.athena.io/StructureDefinition/ah-practice",
        "valueReference": {
          "reference": "Organization/a-1.Practice-24694"
        }
      },
      {
        "url": "https://fhir.athena.io/StructureDefinition/ah-brand",
        "valueReference": {
          "reference": "Organization/a-24694.Brand-1"
        }
      }
    ]
  },
  "fullUrl": "urn:uuid:485b4df7-8e3a-5d8a-a359-33cfbf859ad5"
}