{
  "resource": {
    "resourceType": "Organization",
    "id": "40d9a15f-2429-5c5e-bc15-e6a8d3dedeae",
    "name": "Privia Medical Group",
    "endpoint": [
      {
        "reference": "Endpoint/27a4e967-47aa-5a9c-a572-b8297ee268a2"
      },
      {
        "reference": "Endpoint/0344bd9b-08ba-58fa-bb19-b8f730279693"
      }
    ],
    "identifier": [
      {
        "system": "http://hl7.org/fhir/sid/us-npi",
        "value": "1013042480"
      },
      {
        "system": "http://hl7.org/fhir/sid/us-npi",
        "value": "1578969465"
      },
      {
        "system": "http://hl7.org/fhir/sid/us-npi",
        "value": "1073679379"
      },
      {
        "system": "http://hl7.org/fhir/sid/us-npi",
        "value": "1245686617"
      },
      {
        "system": "http://hl7.org/fhir/sid/us-npi",
        "value": "1821026352"
      },
      {
        "system": "http://hl7.org/fhir/sid/us-npi",
        "value": "1013313857"
      },
      {
        "system": "http://hl7.org/fhir/sid/us-npi",
        "value": "1750626495"
      },
      {
        "system": "http://hl7.org/fhir/sid/us-npi",
        "value": "1740242957"
      },
      {
        "system": "http://hl7.org/fhir/sid/us-npi",
        "value": "1710385513"
      },
      {
        "system": "http://hl7.org/fhir/sid/us-npi",
        "value": "1841350063"
      }
    ],
    "address": [
      {
        "line": [
          "900 23rd St NW"
        ],
        "city": "WASHINGTON",
        "state": "DC",
        "postalCode": "20037-2342"
      },
      {
        "line": [
          "24500 Northwest Freeway"
        ],
        "city": "CYPRESS",
        "state": "TX",
        "postalCode": "77429-2199"
      },
      {
        "line": [
          "6621 Fannin St"
        ],
        "city": "HOUSTON",
        "state": "TX",
        "postalCode": "77030-2358"
      },
      {
        "line": [
          "1900 Tate Springs Road"
        ],
        "city": "LYNCHBURG",
        "state": "VA",
        "postalCode": "24501-1167"
      },
      {
        "line": [
          "17201 I-45"
        ],
        "city": "THE WOODLANDS",
        "state": "TX",
        "postalCode": "77385-3311"
      },
      {
        "line": [
          "5425 Western Ave. NW"
        ],
        "city": "WASHINGTON",
        "state": "DC",
        "postalCode": "20015-2931"
      },
      {
        "line": [
          "1897 Preston White Drive",
          "Suite 105"
        ],
        "city": "RESTON",
        "state": "VA",
        "postalCode": "20191-5475"
      },
      {
        "line": [
          "2331 Seminole Ln #201"
        ],
        "city": "CHARLOTTESVILLE",
        "state": "VA",
        "postalCode": "22901-8319"
      },
      {
        "line": [
          "950 n glebe"
        ],
        "city": "ARLINGTON",
        "state": "VA",
        "postalCode": "22204-1824"
      },
      {
        "line": [
          "5252 West University Drive"
        ],
        "city": "MCKINNEY",
        "state": "TX",
        "postalCode": "75071-7822"
      },
      {
        "line": [
          "950 n glebe"
        ],
        "city": "ARLINGTON",
        "state": "VA",
        "postalCode": "22203-1824"
      },
      {
        "line": [
          "6200 West Parker Road"
        ],
        "city": "PLANO",
        "state": "TX",
        "postalCode": "75093-8185"
      },
      {
        "line": [
          "1635 North Loop W Houston"
        ],
        "city": "HOUSTON",
        "state": "TX",
        "postalCode": "77008-1532"
      },
      {
        "line": [
          "7130 Glen Forest Drive"
        ],
        "city": "RICHMOND",
        "state": "VA",
        "postalCode": "23226-3754"
      },
      {
        "line": [
          "3150 Horizon Road"
        ],
        "city": "ROCKWALL",
        "state": "TX",
        "postalCode": "75032-7805"
      },
      {
        "line": [
          "18951 North Memorial Drive"
        ],
        "city": "HUMBLE",
        "state": "TX",
        "postalCode": "77338-4217"
      },
      {
        "line": [
          "351 Cypress Creek Road",
          "Suite 102"
        ],
        "city": "CEDAR PARK",
        "state": "TX",
        "postalCode": "78613-4655"
      },
      {
        "line": [
          "1155 West College Street"
        ],
        "city": "BAINBRIDGE",
        "state": "GA",
        "postalCode": "39819-6400"
      },
      {
        "line": [
          "16100 South Freeway"
        ],
        "city": "PEARLAND",
        "state": "TX",
        "postalCode": "77584-1895"
      },
      {
        "line": [
          "200 N River Street"
        ],
        "city": "CLAXTON",
        "state": "GA",
        "postalCode": "30417-1659"
      },
      {
        "line": [
          "721 Del Prado Boulevard South",
          "Suite 100"
        ],
        "city": "CAPE CORAL",
        "state": "FL",
        "postalCode": "33904-5781"
      },
      {
        "line": [
          "5550 Friendship Boulevard",
          "Suite 100"
        ],
        "city": "CHEVY CHASE",
        "state": "MD",
        "postalCode": "20815-7256"
      },
      {
        "line": [
          "8810 Long Point Rd"
        ],
        "city": "HOUSTON",
        "state": "TX",
        "postalCode": "77055-3006"
      },
      {
        "line": [],
        "city": "ARLINGTON",
        "state": "VA",
        "postalCode": "22203-1824"
      },
      {
        "line": [
          "5656 BEE CAVES RD"
        ],
        "city": "West Lake Hill",
        "state": "TX",
        "postalCode": "78746-5280"
      },
      {
        "line": [
          "950 N Glebe"
        ],
        "city": "ARLINGTON",
        "state": "VA",
        "postalCode": "22203-1824"
      },
      {
        "line": [
          "4000 Spencer Hwy"
        ],
        "city": "PASADENA",
        "state": "TX",
        "postalCode": "77504-1202"
      },
      {
        "line": [
          "7777 Forest Lane"
        ],
        "city": "DALLAS",
        "state": "TX",
        "postalCode": "75230-2571"
      },
      {
        "line": [
          "70 Sherry Lane",
          "Suite 101"
        ],
        "city": "PRINCE FREDERICK",
        "state": "MD",
        "postalCode": "20678-3276"
      },
      {
        "line": [
          "249 Holland Drive"
        ],
        "city": "SAVANNAH",
        "state": "GA",
        "postalCode": "31419-2203"
      },
      {
        "line": [
          "8106 Georgia Ave"
        ],
        "city": "SILVER SPRING",
        "state": "MD",
        "postalCode": "20910-4991"
      },
      {
        "line": [
          "9330 STATE ROAD 54"
        ],
        "city": "NEW PORT RICHEY",
        "state": "FL",
        "postalCode": "34655-1808"
      },
      {
        "line": [
          "7600 Fannin St"
        ],
        "city": "HOUSTON",
        "state": "TX",
        "postalCode": "77054-1906"
      },
      {
        "line": [
          "7600 Carroll Ave"
        ],
        "city": "TAKOMA PARK",
        "state": "MD",
        "postalCode": "20912-6392"
      },
      {
        "line": [
          "7502 Greenville Ave"
        ],
        "city": "DALLAS",
        "state": "TX",
        "postalCode": "75231-3802"
      },
      {
        "line": [
          "1317 Lola Ave"
        ],
        "city": "ALTAVISTA",
        "state": "VA",
        "postalCode": "24517-1352"
      },
      {
        "line": [
          "950 N Glebe"
        ],
        "city": "ARLINGTON",
        "state": "VA",
        "postalCode": "22204-1824"
      },
      {
        "line": [
          "3710 Lee Hwy"
        ],
        "city": "ARLINGTON",
        "state": "VA",
        "postalCode": "22207-3721"
      },
      {
        "line": [
          "3300 Gallows Rd"
        ],
        "city": "FALLS CHURCH",
        "state": "VA",
        "postalCode": "22042-3307"
      },
      {
        "line": [
          "11800 Astoria Boulevard"
        ],
        "city": "HOUSTON",
        "state": "TX",
        "postalCode": "77089-6041"
      },
      {
        "line": [
          "6501 North Charles Street"
        ],
        "city": "TOWSON",
        "state": "MD",
        "postalCode": "21204-6819"
      },
      {
        "line": [
          "251 N 4th St"
        ],
        "city": "OAKLAND",
        "state": "MD",
        "postalCode": "21550-1375"
      },
      {
        "line": [
          "9901 Medical Center Dr"
        ],
        "city": "ROCKVILLE",
        "state": "MD",
        "postalCode": "20850-3357"
      },
      {
        "line": [
          "14851 Southwest Freeway"
        ],
        "city": "SUGAR LAND",
        "state": "TX",
        "postalCode": "77478-5016"
      },
      {
        "line": [
          "123 Vision Park Boulevard"
        ],
        "city": "Shenandoah",
        "state": "TX",
        "postalCode": "77384-3001"
      },
      {
        "line": [
          "2201 W Lampasas St"
        ],
        "city": "ENNIS",
        "state": "TX",
        "postalCode": "75119-5644"
      },
      {
        "line": [
          "13111 East Fwy"
        ],
        "city": "HOUSTON",
        "state": "TX",
        "postalCode": "77015-5803"
      },
      {
        "line": [
          "6445 Main Street"
        ],
        "city": "HOUSTON",
        "state": "TX",
        "postalCode": "77030-2008"
      },
      {
        "line": [
          "710 FM 1960 West,"
        ],
        "city": "HOUSTON",
        "state": "TX",
        "postalCode": "77090-3402"
      },
      {
        "line": [
          "5255 Loughboro Road"
        ],
        "city": "WASHINGTON",
        "state": "DC",
        "postalCode": "20016-2633"
      },
      {
        "line": [
          "530 Huntmar Park Drive",
          "Suite D"
        ],
        "city": "HERNDON",
        "state": "VA",
        "postalCode": "20170-5100"
      },
      {
        "line": [
          "900 23rd Street NW"
        ],
        "city": "WASHINGTON",
        "state": "DC",
        "postalCode": "20037-2327"
      },
      {
        "line": [
          "7777 FOREST LN SUITE C-150"
        ],
        "city": "DALLAS",
        "state": "TX",
        "postalCode": "75230-2505"
      },
      {
        "line": [
          "4320 Seminary Road"
        ],
        "city": "ALEXANDRIA",
        "state": "VA",
        "postalCode": "22304-1535"
      },
      {
        "line": [
          "5601 Warren Pkwy"
        ],
        "city": "FRISCO",
        "state": "TX",
        "postalCode": "75034-4069"
      },
      {
        "line": [
          "1635 N Loop W Freeway"
        ],
        "city": "HOUSTON",
        "state": "TX",
        "postalCode": "77008-1532"
      },
      {
        "line": [
          "1111 West 34th Street"
        ],
        "city": "AUSTIN",
        "state": "TX",
        "postalCode": "78705-1900"
      },
      {
        "line": [
          "5353 Reynolds Street"
        ],
        "city": "SAVANNAH",
        "state": "GA",
        "postalCode": "31405-6015"
      },
      {
        "line": [
          "250 N Wickham Rd"
        ],
        "city": "MELBOURNE",
        "state": "FL",
        "postalCode": "32935-8625"
      },
      {
        "line": [
          "1350 Hickory ST"
        ],
        "city": "MELBOURNE",
        "state": "FL",
        "postalCode": "32901-3224"
      },
      {
        "line": [
          "1850 Town Center Pkway"
        ],
        "city": "RESTON",
        "state": "VA",
        "postalCode": "20190-3219"
      },
      {
        "line": [
          "18101 Prince Phillip Drive"
        ],
        "city": "OLNEY",
        "state": "MD",
        "postalCode": "20832-1514"
      },
      {
        "line": [
          "2406 Atherholt Rd"
        ],
        "city": "LYNCHBURG",
        "state": "VA",
        "postalCode": "24501-2148"
      },
      {
        "line": [],
        "city": "ARLINGTON",
        "state": "VA",
        "postalCode": "22204-1824"
      },
      {
        "line": [
          "1850 Town Center Pkwy"
        ],
        "city": "RESTON",
        "state": "VA",
        "postalCode": "20190-3219"
      },
      {
        "line": [
          "18839 McKay Dr"
        ],
        "city": "HUMBLE",
        "state": "TX",
        "postalCode": "77338-5721"
      },
      {
        "line": [
          "2650 Carswell Ave"
        ],
        "city": "WAYCROSS",
        "state": "GA",
        "postalCode": "31503-4081"
      },
      {
        "line": [
          "5755 Cedar Lane"
        ],
        "city": "COLUMBIA",
        "state": "MD",
        "postalCode": "21044-2912"
      },
      {
        "line": [
          "118 William Mills Dr"
        ],
        "city": "STANARDSVILLE",
        "state": "VA",
        "postalCode": "22973-3054"
      },
      {
        "line": [
          "636 Del Prado Boulevard South"
        ],
        "city": "CAPE CORAL",
        "state": "FL",
        "postalCode": "33990-2695"
      },
      {
        "line": [
          "601 CHILDRENS LANE"
        ],
        "city": "NORFOLK",
        "state": "VA",
        "postalCode": "23507-1910"
      },
      {
        "line": [
          "636 Del Prado Blvd"
        ],
        "city": "CAPE CORAL",
        "state": "FL",
        "postalCode": "33990-2695"
      },
      {
        "line": [
          "24440 Stone Springs BLVD"
        ],
        "city": "DULLES",
        "state": "VA",
        "postalCode": "20166-2247"
      },
      {
        "line": [
          "4320 Seminary Road"
        ],
        "city": "ALEXANDRIA",
        "state": "VA",
        "postalCode": "22304-3554"
      },
      {
        "line": [
          "N/A"
        ],
        "city": "ARLINGTON",
        "state": "VA",
        "postalCode": "22203-1824"
      },
      {
        "line": [
          "0"
        ],
        "city": "ARLINGTON",
        "state": "VA",
        "postalCode": "22203-1824"
      },
      {
        "line": [
          "8600 Old Georgetown Road"
        ],
        "city": "BETHESDA",
        "state": "MD",
        "postalCode": "20814-1422"
      },
      {
        "line": [
          "4901 Connecticut Ave. NW"
        ],
        "city": "WASHINGTON",
        "state": "DC",
        "postalCode": "20008-2022"
      },
      {
        "line": [
          "110 Longwood Avenue"
        ],
        "city": "ROCKLEDGE",
        "state": "FL",
        "postalCode": "32955-2828"
      },
      {
        "line": [
          "250 N Wickham RD"
        ],
        "city": "MELBOURNE",
        "state": "FL",
        "postalCode": "32935-8625"
      },
      {
        "line": [
          "6565 Fannin St"
        ],
        "city": "HOUSTON",
        "state": "TX",
        "postalCode": "77030-2703"
      },
      {
        "line": [
          "19801 Observation Dr"
        ],
        "city": "GERMANTOWN",
        "state": "MD",
        "postalCode": "20876-4070"
      },
      {
        "line": [
          "1500 Forest Glen Road"
        ],
        "city": "SILVER SPRING",
        "state": "MD",
        "postalCode": "20910-1460"
      },
      {
        "line": [
          "12400 DALLAS PKWY"
        ],
        "city": "FRISCO",
        "state": "TX",
        "postalCode": "75033-4224"
      },
      {
        "line": [
          "504 Medical Center Boulevard"
        ],
        "city": "CONROE",
        "state": "TX",
        "postalCode": "77304-2808"
      },
      {
        "line": [
          "1401 St. Joseph Pkwy"
        ],
        "city": "HOUSTON",
        "state": "TX",
        "postalCode": "77002-8301"
      },
      {
        "line": [
          "3300 Gallows Road"
        ],
        "city": "FALLS CHURCH",
        "state": "VA",
        "postalCode": "22042-3307"
      },
      {
        "line": [
          "6701 N Charles St"
        ],
        "city": "TOWSON",
        "state": "MD",
        "postalCode": "21204-6808"
      },
      {
        "line": [
          "5314 Dashwood Drive",
          "Houston"
        ],
        "city": "HOUSTON",
        "state": "TX",
        "postalCode": "77081-4603"
      },
      {
        "line": [
          "4700 Waters Avenue"
        ],
        "city": "SAVANNAH",
        "state": "GA",
        "postalCode": "31404-6200"
      },
      {
        "line": [
          "1625 N. George Mason Dr."
        ],
        "city": "ARLINGTON",
        "state": "VA",
        "postalCode": "22205-3690"
      },
      {
        "line": [
          "1701 North George Mason Dr."
        ],
        "city": "ARLINGTON",
        "state": "VA",
        "postalCode": "22205-3610"
      },
      {
        "line": [
          "900 Caton Ave"
        ],
        "city": "ARLINGTON",
        "state": "VA",
        "postalCode": "22203-1824"
      },
      {
        "line": [
          "399 Saffold Road"
        ],
        "city": "SOUTH HILL",
        "state": "VA",
        "postalCode": "23970-6434"
      },
      {
        "line": [
          "8710 Cameron St"
        ],
        "city": "SILVER SPRING",
        "state": "MD",
        "postalCode": "20910-3703"
      },
      {
        "line": [
          "2450 North Orange Blossom Trail"
        ],
        "city": "KISSIMMEE",
        "state": "FL",
        "postalCode": "34744-2316"
      },
      {
        "line": [
          "8700 Sudley Road"
        ],
        "city": "MANASSAS",
        "state": "VA",
        "postalCode": "20110-4418"
      },
      {
        "line": [
          "9981 S HealthPark Dr"
        ],
        "city": "Fort Myers",
        "state": "FL",
        "postalCode": "33908-3618"
      },
      {
        "line": [
          "1234 CNGRSL"
        ],
        "city": "ARLINGTON",
        "state": "VA",
        "postalCode": "22203-1824"
      },
      {
        "line": [
          "1500 Lee Blvd"
        ],
        "city": "LEHIGH ACRES",
        "state": "FL",
        "postalCode": "33936-4835"
      },
      {
        "line": [
          "3131 University Dr E"
        ],
        "city": "BRYAN",
        "state": "TX",
        "postalCode": "77802-3473"
      },
      {
        "line": [
          "1626 W BAKER RD"
        ],
        "city": "BAYTOWN",
        "state": "TX",
        "postalCode": "77521-2271"
      },
      {
        "line": [
          "20823 Park Row Boulevard",
          "Suite A"
        ],
        "city": "KATY",
        "state": "TX",
        "postalCode": "77449-5015"
      },
      {
        "line": [
          "605 Holderrieth Boulevard"
        ],
        "city": "TOMBALL",
        "state": "TX",
        "postalCode": "77375-6445"
      },
      {
        "line": [
          "1917 Ashland St"
        ],
        "city": "HOUSTON",
        "state": "TX",
        "postalCode": "77008-3907"
      },
      {
        "line": [
          "1550 First Colony BLVD"
        ],
        "city": "SUGAR LAND",
        "state": "TX",
        "postalCode": "77479-4000"
      },
      {
        "line": [
          "2300 Opitz Boulevard"
        ],
        "city": "WOODBRIDGE",
        "state": "VA",
        "postalCode": "22191-3311"
      },
      {
        "line": [
          "21308 Provincial Blvd"
        ],
        "city": "ARLINGTON",
        "state": "VA",
        "postalCode": "22204-1824"
      },
      {
        "line": [
          "5615 Seminole Ave"
        ],
        "city": "LYNCHBURG",
        "state": "VA",
        "postalCode": "24502-2201"
      },
      {
        "line": [
          "350 Malabar Road Ne"
        ],
        "city": "PALM BAY",
        "state": "FL",
        "postalCode": "32907-2947"
      },
      {
        "line": [
          "1515 Port Malabar Blvd NE"
        ],
        "city": "PALM BAY",
        "state": "FL",
        "postalCode": "32905-5437"
      },
      {
        "line": [
          "1401 St Joseph Pkwy"
        ],
        "city": "HOUSTON",
        "state": "TX",
        "postalCode": "77002-8301"
      },
      {
        "line": [
          "17500 West Grand Parkway South"
        ],
        "city": "SUGAR LAND",
        "state": "TX",
        "postalCode": "77479-2562"
      },
      {
        "line": [
          "1701 N George Mason Dr"
        ],
        "city": "ARLINGTON",
        "state": "VA",
        "postalCode": "22205-3610"
      },
      {
        "line": [
          "1600 Gordon Ave"
        ],
        "city": "CHARLOTTESVILLE",
        "state": "VA",
        "postalCode": "22903-1996"
      },
      {
        "line": [
          "5530 Wisconsin Avenue",
          "#1620"
        ],
        "city": "CHEVY CHASE",
        "state": "MD",
        "postalCode": "20815-4322"
      },
      {
        "line": [
          "21720 Kingsland Blvd"
        ],
        "city": "KATY",
        "state": "TX",
        "postalCode": "77450-2550"
      },
      {
        "line": [
          "17201 I-45"
        ],
        "city": "Shenandoah",
        "state": "TX",
        "postalCode": "77385-3311"
      },
      {
        "line": [
          "1635 North Loop West"
        ],
        "city": "HOUSTON",
        "state": "TX",
        "postalCode": "77008-1532"
      },
      {
        "line": [
          "Yelu"
        ],
        "city": "ARLINGTON",
        "state": "VA",
        "postalCode": "22203-1824"
      },
      {
        "line": [
          "6411 Fannin St"
        ],
        "city": "HOUSTON",
        "state": "TX",
        "postalCode": "77030-1501"
      },
      {
        "line": [
          "17080 Red Oak  Dr"
        ],
        "city": "HOUSTON",
        "state": "TX",
        "postalCode": "77090-9998"
      },
      {
        "line": [
          "2041 Georgia Ave., NW",
          "Suite 1-400"
        ],
        "city": "WASHINGTON",
        "state": "DC",
        "postalCode": "20060-0001"
      },
      {
        "line": [
          "8700 Sudley Rd"
        ],
        "city": "MANASSAS",
        "state": "VA",
        "postalCode": "20110-4418"
      },
      {
        "line": [
          "8700 Sudley Rd."
        ],
        "city": "MANASSAS",
        "state": "VA",
        "postalCode": "20110-4418"
      },
      {
        "line": [
          "24440 Gum Spring Rd."
        ],
        "city": "Dulles",
        "state": "VA",
        "postalCode": "20166-9356"
      },
      {
        "line": [
          "8600 Old Georgetown Rd"
        ],
        "city": "BETHESDA",
        "state": "MD",
        "postalCode": "20814-1422"
      },
      {
        "line": [
          "1150 Varnum St NE"
        ],
        "city": "WASHINGTON",
        "state": "DC",
        "postalCode": "20017-2982"
      },
      {
        "line": [
          "600 North Union Avenue"
        ],
        "city": "NEW BRAUNFELS",
        "state": "TX",
        "postalCode": "78130-4191"
      },
      {
        "line": [
          "950 N. Gleebe Rd"
        ],
        "city": "ARLINGTON",
        "state": "VA",
        "postalCode": "22204-1824"
      },
      {
        "line": [
          "459 Ga Highway 119 South"
        ],
        "city": "SPRINGFIELD",
        "state": "GA",
        "postalCode": "31329-3021"
      },
      {
        "line": [
          "2013 Deats Rd"
        ],
        "city": "DICKINSON",
        "state": "TX",
        "postalCode": "77539-4612"
      },
      {
        "line": [
          "12191 Clipper Dr"
        ],
        "city": "WOODBRIDGE",
        "state": "VA",
        "postalCode": "22192-2237"
      },
      {
        "line": [
          "6500 Rock Spring Drive #100"
        ],
        "city": "BETHESDA",
        "state": "MD",
        "postalCode": "20817-1182"
      },
      {
        "line": [
          "4000 Spencer Highway"
        ],
        "city": "PASADENA",
        "state": "TX",
        "postalCode": "77504-1202"
      },
      {
        "line": [
          "100 Medical DR"
        ],
        "city": "LAKE JACKSON",
        "state": "TX",
        "postalCode": "77566-5674"
      },
      {
        "line": [
          "422 William Mills Drive"
        ],
        "city": "STANARDSVILLE",
        "state": "VA",
        "postalCode": "22973-3056"
      },
      {
        "line": [
          "901 Harry S Truman Dr"
        ],
        "city": "Largo",
        "state": "MD",
        "postalCode": "20774-5477"
      },
      {
        "line": [
          "500 Hospital Dr"
        ],
        "city": "WARRENTON",
        "state": "VA",
        "postalCode": "20186-3027"
      },
      {
        "line": [
          "1840 Amherst St"
        ],
        "city": "WINCHESTER",
        "state": "VA",
        "postalCode": "22601-2808"
      },
      {
        "line": [
          "3600 Joseph Siewick Dr"
        ],
        "city": "FAIRFAX",
        "state": "VA",
        "postalCode": "22033-1709"
      },
      {
        "line": [
          "400 Blue Ridge St"
        ],
        "city": "MARTINSVILLE",
        "state": "VA",
        "postalCode": "24112-7265"
      },
      {
        "line": [
          "701 W Cocoa Beach Cswy"
        ],
        "city": "COCOA BEACH",
        "state": "FL",
        "postalCode": "32931-3585"
      },
      {
        "line": [
          "9539 Huffmeister Rd"
        ],
        "city": "ARLINGTON",
        "state": "VA",
        "postalCode": "22204-1824"
      },
      {
        "line": [
          "2050 Abbey Road",
          "Suite D"
        ],
        "city": "CHARLOTTESVILLE",
        "state": "VA",
        "postalCode": "22911-3553"
      },
      {
        "line": [
          "7601 Osler Drive"
        ],
        "city": "TOWSON",
        "state": "MD",
        "postalCode": "21204-7700"
      },
      {
        "line": [
          "10655 Steepletop Dr"
        ],
        "city": "HOUSTON",
        "state": "TX",
        "postalCode": "77065-4222"
      },
      {
        "line": [
          "3300 Rivermont Ave"
        ],
        "city": "LYNCHBURG",
        "state": "VA",
        "postalCode": "24503-2030"
      },
      {
        "line": [
          "2812 Williams Street"
        ],
        "city": "SAVANNAH",
        "state": "GA",
        "postalCode": "31404-4134"
      },
      {
        "line": [
          "7600 Fannin Street"
        ],
        "city": "HOUSTON",
        "state": "TX",
        "postalCode": "77054-1906"
      },
      {
        "line": [
          "1455 Manor Dr",
          "Suite 200"
        ],
        "city": "BAYTOWN",
        "state": "TX",
        "postalCode": "77521-2271"
      },
      {
        "line": [
          "6801 EF Lowry Expwy"
        ],
        "city": "TEXAS CITY",
        "state": "TX",
        "postalCode": "77591-2500"
      },
      {
        "line": [
          "24440 Stone Springs Boulevard"
        ],
        "city": "STERLING",
        "state": "VA",
        "postalCode": "20166-2247"
      },
      {
        "line": [
          "28 Rice Pond Road"
        ],
        "city": "RIDGELAND",
        "state": "SC",
        "postalCode": "29936-8170"
      },
      {
        "line": [
          "15015 Kirby Drive",
          "Suite 100"
        ],
        "city": "Pearland",
        "state": "TX",
        "postalCode": "77047-2581"
      },
      {
        "line": [
          "(N/A)"
        ],
        "city": "ARLINGTON",
        "state": "VA",
        "postalCode": "22203-1824"
      },
      {
        "line": [
          "1155 5th Street South East"
        ],
        "city": "CAIRO",
        "state": "GA",
        "postalCode": "39828-3142"
      },
      {
        "line": [
          "1901 Tate Springs Rd."
        ],
        "city": "LYNCHBURG",
        "state": "VA",
        "postalCode": "24501-1109"
      },
      {
        "line": [
          "22999 US-59 N"
        ],
        "city": "KINGWOOD",
        "state": "TX",
        "postalCode": "77339-4412"
      },
      {
        "line": [
          "1111 Corporate Park Drive",
          "Suite D"
        ],
        "city": "FOREST",
        "state": "VA",
        "postalCode": "24551-2279"
      },
      {
        "line": [
          "7150 Contee Rd"
        ],
        "city": "LAUREL",
        "state": "MD",
        "postalCode": "20707-9527"
      },
      {
        "line": [
          "2401 West Belvedere Avenue"
        ],
        "city": "BALTIMORE",
        "state": "MD",
        "postalCode": "21215-5126"
      },
      {
        "line": [
          "17201 I-45"
        ],
        "city": "CONROE",
        "state": "TX",
        "postalCode": "77385-3311"
      },
      {
        "line": [
          "9250 Pinecroft"
        ],
        "city": "SPRING",
        "state": "TX",
        "postalCode": "77380-3218"
      },
      {
        "line": [
          "18500 Katy FWY"
        ],
        "city": "HOUSTON",
        "state": "TX",
        "postalCode": "77094-1110"
      },
      {
        "line": [
          "44045 Riverside Parkway"
        ],
        "city": "LEESBURG",
        "state": "VA",
        "postalCode": "20176-5101"
      },
      {
        "line": [
          "1221 E McPherson Avenue"
        ],
        "city": "NASHVILLE",
        "state": "GA",
        "postalCode": "31639-2326"
      },
      {
        "line": [
          "175 Villa Nueva Avenue NE"
        ],
        "city": "PALM BAY",
        "state": "FL",
        "postalCode": "32907-2595"
      },
      {
        "line": [
          "9901 Medical Center Drive"
        ],
        "city": "ROCKVILLE",
        "state": "MD",
        "postalCode": "20850-3357"
      },
      {
        "line": [
          "1902 Grace Street"
        ],
        "city": "LYNCHBURG",
        "state": "VA",
        "postalCode": "24504-3524"
      },
      {
        "line": [
          "1604 Rock Prairie Rd"
        ],
        "city": "COLLEGE STATION",
        "state": "TX",
        "postalCode": "77845-8343"
      },
      {
        "line": [
          "5255 Loughboro Road NW"
        ],
        "city": "WASHINGTON",
        "state": "DC",
        "postalCode": "20016-2633"
      },
      {
        "line": [
          "11705 Mercy Blvd"
        ],
        "city": "SAVANNAH",
        "state": "GA",
        "postalCode": "31419-1711"
      },
      {
        "line": [
          "24640 Southpoint Drive",
          "Suite 160"
        ],
        "city": "CHANTILLY",
        "state": "VA",
        "postalCode": "20152-4140"
      },
      {
        "line": [
          "3300 Gallows road"
        ],
        "city": "FALLS CHURCH",
        "state": "VA",
        "postalCode": "22042-3307"
      },
      {
        "line": [
          "Hospital Medical Pavilion",
          "25 HOSPITAL CENTER BOULEVARD"
        ],
        "city": "HILTON HEAD ISLAND",
        "state": "SC",
        "postalCode": "29926-2738"
      },
      {
        "line": [
          "11705 Mercy Boulevard"
        ],
        "city": "SAVANNAH",
        "state": "GA",
        "postalCode": "31419-1711"
      },
      {
        "line": [
          "5111 Connecticut Ave. NW"
        ],
        "city": "WASHINGTON",
        "state": "DC",
        "postalCode": "20008-2004"
      },
      {
        "line": [
          "800 E 68Th Street"
        ],
        "city": "SAVANNAH",
        "state": "GA",
        "postalCode": "31405-4710"
      },
      {
        "line": [
          "1313 Hermann Drive"
        ],
        "city": "HOUSTON",
        "state": "TX",
        "postalCode": "77004-7005"
      },
      {
        "line": [
          "4500 Medical Center Drive"
        ],
        "city": "MCKINNEY",
        "state": "TX",
        "postalCode": "75069-1652"
      },
      {
        "line": [
          "950 N Glebe Road"
        ],
        "city": "ARLINGTON",
        "state": "VA",
        "postalCode": "22203-1824"
      },
      {
        "line": [
          "710 Cypress Creek Parkway"
        ],
        "city": "HOUSTON",
        "state": "TX",
        "postalCode": "77090-3402"
      },
      {
        "line": [
          "24440 Gum Spring Rd"
        ],
        "city": "STERLING",
        "state": "VA",
        "postalCode": "20166-9356"
      },
      {
        "line": [
          "44045 Riverside Pkwy"
        ],
        "city": "LEESBURG",
        "state": "VA",
        "postalCode": "20176-5101"
      },
      {
        "line": [
          "NA"
        ],
        "city": "ARLINGTON",
        "state": "VA",
        "postalCode": "22204-1824"
      },
      {
        "line": [
          "24440 Gum Spring Rd."
        ],
        "city": "STERLING",
        "state": "VA",
        "postalCode": "20166-9356"
      },
      {
        "line": [
          "2925 Fork Mountain Road"
        ],
        "city": "ROCKY MOUNT",
        "state": "VA",
        "postalCode": "24151-3664"
      },
      {
        "line": [
          "5615 Seminole Avenue"
        ],
        "city": "LYNCHBURG",
        "state": "VA",
        "postalCode": "24502-2282"
      },
      {
        "line": [
          "1850 Town Center Parkway"
        ],
        "city": "RESTON",
        "state": "VA",
        "postalCode": "20190-3219"
      },
      {
        "line": [
          "1051 S Hickory Street"
        ],
        "city": "MELBOURNE",
        "state": "FL",
        "postalCode": "32901-1962"
      },
      {
        "line": [
          "17376 NORTHWEST FWY"
        ],
        "city": "HOUSTON",
        "state": "TX",
        "postalCode": "77040-1114"
      },
      {
        "line": [
          "5450 Abercorn Street"
        ],
        "city": "SAVANNAH",
        "state": "GA",
        "postalCode": "31405-6918"
      },
      {
        "line": [
          "8644 Sudley Road # 201"
        ],
        "city": "MANASSAS",
        "state": "VA",
        "postalCode": "20110-4425"
      },
      {
        "line": [
          "78 Medical Center Dr."
        ],
        "city": "FISHERSVILLE",
        "state": "VA",
        "postalCode": "22939-2332"
      },
      {
        "line": [
          "950 N glebe"
        ],
        "city": "ARLINGTON",
        "state": "VA",
        "postalCode": "22204-1824"
      },
      {
        "line": [
          "2406 Atherholt Road"
        ],
        "city": "LYNCHBURG",
        "state": "VA",
        "postalCode": "24501-2148"
      },
      {
        "line": [
          "25440 Interstate 45 North"
        ],
        "city": "SPRING",
        "state": "TX",
        "postalCode": "77386-1343"
      },
      {
        "line": [
          "950 N GLEBE"
        ],
        "city": "ARLINGTON",
        "state": "VA",
        "postalCode": "22204-1824"
      },
      {
        "line": [
          "3201 E State Hwy 22"
        ],
        "city": "CORSICANA",
        "state": "TX",
        "postalCode": "75110-2469"
      },
      {
        "line": [
          "6565 Fannin Street"
        ],
        "city": "HOUSTON",
        "state": "TX",
        "postalCode": "77030-2703"
      },
      {
        "line": [
          "3600 JOSEPH SIEWICK DR"
        ],
        "city": "FAIRFAX",
        "state": "VA",
        "postalCode": "22033-1709"
      },
      {
        "line": [
          "2125 Hilliard Rd"
        ],
        "city": "RICHMOND",
        "state": "VA",
        "postalCode": "23228-4600"
      },
      {
        "line": [
          "235 Evergreen Avenue"
        ],
        "city": "APPOMATTOX",
        "state": "VA",
        "postalCode": "24522-8721"
      },
      {
        "line": [
          "17200 St Lukes Way"
        ],
        "city": "CONROE",
        "state": "TX",
        "postalCode": "77384-8007"
      },
      {
        "line": [
          "251 Florida Ave"
        ],
        "city": "MELBOURNE",
        "state": "FL",
        "postalCode": "32901-8303"
      },
      {
        "line": [
          "8745 N Wickham Rd"
        ],
        "city": "MELBOURNE",
        "state": "FL",
        "postalCode": "32940-5997"
      },
      {
        "line": [
          "13681 DOCTORS WAY"
        ],
        "city": "Fort Myers",
        "state": "FL",
        "postalCode": "33912-4300"
      },
      {
        "line": [
          "8600 OLD GEORGETOWN ROAD"
        ],
        "city": "BETHESDA",
        "state": "MD",
        "postalCode": "20814-1422"
      },
      {
        "line": [
          "15149 Wallisville Rd"
        ],
        "city": "HOUSTON",
        "state": "TX",
        "postalCode": "77049-4619"
      },
      {
        "line": [
          "3901 W 15TH ST"
        ],
        "city": "PLANO",
        "state": "TX",
        "postalCode": "75075-7738"
      },
      {
        "line": [
          "3150 Horizon Rd"
        ],
        "city": "ROCKWALL",
        "state": "TX",
        "postalCode": "75032-7805"
      },
      {
        "line": [
          "2001 Hermann Dr"
        ],
        "city": "HOUSTON",
        "state": "TX",
        "postalCode": "77004-7643"
      },
      {
        "line": [
          "60 Oak Forest Road"
        ],
        "city": "BLUFFTON",
        "state": "SC",
        "postalCode": "29910-5010"
      },
      {
        "line": [
          "11110 Medical Campus Rd"
        ],
        "city": "ARLINGTON",
        "state": "VA",
        "postalCode": "22203-1824"
      },
      {
        "line": [
          "1150 Varnum St NE"
        ],
        "city": "WASHINGTON",
        "state": "DC",
        "postalCode": "20017-2104"
      },
      {
        "line": [
          "8575 Rixlew Ln"
        ],
        "city": "MANASSAS",
        "state": "VA",
        "postalCode": "20109-3701"
      },
      {
        "line": [
          "251 N 4th Street"
        ],
        "city": "OAKLAND",
        "state": "MD",
        "postalCode": "21550-1375"
      },
      {
        "line": [
          "18220 TX-249"
        ],
        "city": "HOUSTON",
        "state": "TX",
        "postalCode": "77070-4347"
      },
      {
        "line": [
          "3600 Joseph Sewick Drive"
        ],
        "city": "FAIRFAX",
        "state": "VA",
        "postalCode": "22033-1709"
      },
      {
        "line": [
          "950 N Glebe Rd."
        ],
        "city": "ARLINGTON",
        "state": "VA",
        "postalCode": "22203-4173"
      },
      {
        "line": [
          "751 Hillsdale Dr"
        ],
        "city": "CHARLOTTESVILLE",
        "state": "VA",
        "postalCode": "22901-3300"
      },
      {
        "line": [
          "710 Cypress Creek Pkwy"
        ],
        "city": "HOUSTON",
        "state": "TX",
        "postalCode": "77090-3402"
      },
      {
        "line": [
          "1902 Morgan Avenue"
        ],
        "city": "CORPUS CHRISTI",
        "state": "TX",
        "postalCode": "78404-3554"
      },
      {
        "line": [
          "915 Gordon Ave"
        ],
        "city": "THOMASVILLE",
        "state": "GA",
        "postalCode": "31792-6195"
      },
      {
        "line": [
          "800 Southerly Rd"
        ],
        "city": "TOWSON",
        "state": "MD",
        "postalCode": "21286-8403"
      },
      {
        "line": [
          "3914 Centreville Rd"
        ],
        "city": "CHANTILLY",
        "state": "VA",
        "postalCode": "20151-3209"
      },
      {
        "line": [
          "5973 Ogeechee Rd"
        ],
        "city": "SAVANNAH",
        "state": "GA",
        "postalCode": "31419-8901"
      },
      {
        "line": [
          "3300 S Fiske Boulevard",
          "Building A"
        ],
        "city": "ROCKLEDGE",
        "state": "FL",
        "postalCode": "32955-4306"
      },
      {
        "line": [
          "19211 McKay Blvd"
        ],
        "city": "HUMBLE",
        "state": "TX",
        "postalCode": "77338-5502"
      },
      {
        "line": [
          "5656 Bee Caves RD"
        ],
        "city": "West Lake Hills",
        "state": "TX",
        "postalCode": "78746-5280"
      },
      {
        "line": [
          "8510 Whitfield Avenue"
        ],
        "city": "SAVANNAH",
        "state": "GA",
        "postalCode": "31406-6137"
      },
      {
        "line": [
          "950 N Glebe Rd."
        ],
        "city": "ARLINGTON",
        "state": "VA",
        "postalCode": "22203-1824"
      },
      {
        "line": [
          "6430 Rockledge Drive",
          "Suite 160"
        ],
        "city": "BETHESDA",
        "state": "MD",
        "postalCode": "20817-1847"
      },
      {
        "line": [
          "22003 Southwest FWY"
        ],
        "city": "RICHMOND",
        "state": "TX",
        "postalCode": "77469-7003"
      },
      {
        "line": [
          "16750 Red Oak Drive"
        ],
        "city": "HOUSTON",
        "state": "TX",
        "postalCode": "77090-2543"
      },
      {
        "line": [
          "1850 TOWN CENTER PARKWAY"
        ],
        "city": "RESTON",
        "state": "VA",
        "postalCode": "20190-3219"
      },
      {
        "line": [
          "5604 Warren Parkway"
        ],
        "city": "FRISCO",
        "state": "TX",
        "postalCode": "75034-4069"
      },
      {
        "line": [
          "555 Creekside Crossing"
        ],
        "city": "NEW BRAUNFELS",
        "state": "TX",
        "postalCode": "78130-2594"
      },
      {
        "line": [
          "1255 HIighway 54 W"
        ],
        "city": "FAYETTEVILLE",
        "state": "GA",
        "postalCode": "30214-4526"
      },
      {
        "line": [
          "745 Poplar RD"
        ],
        "city": "NEWNAN",
        "state": "GA",
        "postalCode": "30265-1618"
      },
      {
        "line": [
          "5656 Bee Caves Road"
        ],
        "city": "West Lake Hill",
        "state": "TX",
        "postalCode": "78746-5280"
      },
      {
        "line": [
          "1901 Lockhouse Drive"
        ],
        "city": "POINT OF ROCKS",
        "state": "MD",
        "postalCode": "21777-2104"
      },
      {
        "line": [
          "459 Hwy 119 S"
        ],
        "city": "SPRINGFIELD",
        "state": "GA",
        "postalCode": "31329-3021"
      },
      {
        "line": [
          "23900 Katy Freeway"
        ],
        "city": "KATY",
        "state": "TX",
        "postalCode": "77494-1323"
      },
      {
        "line": [
          "120 Skyline Dr"
        ],
        "city": "THOMASVILLE",
        "state": "GA",
        "postalCode": "31757-2507"
      },
      {
        "line": [
          "10565 Fairfax Boulevard",
          "Suite 205"
        ],
        "city": "FAIRFAX",
        "state": "VA",
        "postalCode": "22030-3104"
      },
      {
        "line": [
          "11395 Richmond Avenue,"
        ],
        "city": "HOUSTON",
        "state": "TX",
        "postalCode": "77082-2615"
      },
      {
        "line": [
          "8200 Walnut Hill Lane"
        ],
        "city": "DALLAS",
        "state": "TX",
        "postalCode": "75231-4426"
      },
      {
        "line": [
          "5255 Loughboro Rd NW"
        ],
        "city": "WASHINGTON",
        "state": "DC",
        "postalCode": "20016-2633"
      },
      {
        "line": [
          "6701 North Charles Street"
        ],
        "city": "TOWSON",
        "state": "MD",
        "postalCode": "21204-6808"
      },
      {
        "line": [
          "4910 Massachusetts Ave Suite 114"
        ],
        "city": "WASHINGTON",
        "state": "DC",
        "postalCode": "20016-4384"
      },
      {
        "line": [
          "44 North Cummings Street"
        ],
        "city": "BELLVILLE",
        "state": "TX",
        "postalCode": "77418-1347"
      },
      {
        "line": [
          "3200 Tower Oaks Boulevard",
          "Suite 100"
        ],
        "city": "ROCKVILLE",
        "state": "MD",
        "postalCode": "20852-4273"
      },
      {
        "line": [
          "112 E Oglethorpe Highway"
        ],
        "city": "HINESVILLE",
        "state": "GA",
        "postalCode": "31313-3600"
      },
      {
        "line": [
          "1000 Medical Center Drive"
        ],
        "city": "HARDEEVILLE",
        "state": "SC",
        "postalCode": "29927-3446"
      },
      {
        "line": [
          "95 Bulldog Boulevard"
        ],
        "city": "MELBOURNE",
        "state": "FL",
        "postalCode": "32901-3332"
      },
      {
        "line": [
          "1917 Ashland St."
        ],
        "city": "HOUSTON",
        "state": "TX",
        "postalCode": "77008-3907"
      },
      {
        "line": [
          "1625 N George Mason Dr"
        ],
        "city": "ARLINGTON",
        "state": "VA",
        "postalCode": "22205-3698"
      },
      {
        "line": [
          "6400 Goldsboro Rd Ste 400"
        ],
        "city": "BETHESDA",
        "state": "MD",
        "postalCode": "20817-5846"
      },
      {
        "line": [
          "1600 Riverside Ave"
        ],
        "city": "WAYCROSS",
        "state": "GA",
        "postalCode": "31501-7028"
      },
      {
        "line": [
          "6011 W Sam",
          "Houston Pkwy S"
        ],
        "city": "HOUSTON",
        "state": "TX",
        "postalCode": "77072-1646"
      },
      {
        "line": [
          "1850 Town Center Pkwy"
        ],
        "city": "RESTON",
        "state": "VA",
        "postalCode": "20190-3298"
      },
      {
        "line": [
          "1070 Hardscrabble Rd"
        ],
        "city": "ROSWELL",
        "state": "GA",
        "postalCode": "30075-2204"
      },
      {
        "line": [
          "501 VES Road"
        ],
        "city": "LYNCHBURG",
        "state": "VA",
        "postalCode": "24503-4638"
      },
      {
        "line": [
          "19400 Space Centre Blvd"
        ],
        "city": "HOUSTON",
        "state": "TX",
        "postalCode": "77058-3792"
      },
      {
        "line": [
          "950 N Glebe Rd"
        ],
        "city": "ARLINGTON",
        "state": "VA",
        "postalCode": "22203-1824"
      },
      {
        "line": [
          "6020 Parker Rd"
        ],
        "city": "PLANO",
        "state": "TX",
        "postalCode": "75093-8171"
      },
      {
        "line": [
          "8845 SIX PINES",
          "STE 202"
        ],
        "city": "SPRING",
        "state": "TX",
        "postalCode": "77380-4296"
      },
      {
        "line": [
          "1255 Highway 54 West"
        ],
        "city": "FAYETTEVILLE",
        "state": "GA",
        "postalCode": "30214-4526"
      },
      {
        "line": [
          "501 Sunset Lane"
        ],
        "city": "CULPEPER",
        "state": "VA",
        "postalCode": "22701-3917"
      },
      {
        "line": [
          "6701 N Charles St",
          "suite 2372"
        ],
        "city": "TOWSON",
        "state": "MD",
        "postalCode": "21204-6808"
      },
      {
        "line": [
          "10005 S Main ST"
        ],
        "city": "HOUSTON",
        "state": "TX",
        "postalCode": "77025-5209"
      },
      {
        "line": [
          "880 Naff Road"
        ],
        "city": "HENRY",
        "state": "VA",
        "postalCode": "24102-3207"
      },
      {
        "line": [
          "621 Academy Ln"
        ],
        "city": "SOUTH HILL",
        "state": "VA",
        "postalCode": "23970-2234"
      },
      {
        "line": [
          "11801 SOUTH FWY"
        ],
        "city": "BURLESON",
        "state": "TX",
        "postalCode": "76028-7021"
      },
      {
        "line": [
          "3600 Joseph Siewick Drive"
        ],
        "city": "FAIRFAX",
        "state": "VA",
        "postalCode": "22033-1709"
      },
      {
        "line": [
          "5812 Little Falls Rd NW"
        ],
        "city": "WASHINGTON",
        "state": "DC",
        "postalCode": "20016-2003"
      },
      {
        "line": [
          "20635 Kuykendahl RD"
        ],
        "city": "SPRING",
        "state": "TX",
        "postalCode": "77379-3533"
      },
      {
        "line": [
          "3620 Joseph Siewick Drive"
        ],
        "city": "FAIRFAX",
        "state": "VA",
        "postalCode": "22033-1760"
      },
      {
        "line": [
          "3800 Reservoir Rd NW"
        ],
        "city": "WASHINGTON",
        "state": "DC",
        "postalCode": "20007-2113"
      },
      {
        "line": [
          "10730 Main Street"
        ],
        "city": "FAIRFAX",
        "state": "VA",
        "postalCode": "22030-3704"
      },
      {
        "line": [],
        "city": "ARLINGTON",
        "state": "VA",
        "postalCode": "22202-1824"
      },
      {
        "line": [
          "17705 Red Oak Drive,"
        ],
        "city": "HOUSTON",
        "state": "TX",
        "postalCode": "77090-7706"
      },
      {
        "line": [
          "601 E Rollins St Ste 400"
        ],
        "city": "ORLANDO",
        "state": "FL",
        "postalCode": "32803-1248"
      },
      {
        "line": [
          "5920 Wilson Boulevard"
        ],
        "city": "ARLINGTON",
        "state": "VA",
        "postalCode": "22205-1561"
      },
      {
        "line": [
          "Glob"
        ],
        "city": "ARLINGTON",
        "state": "VA",
        "postalCode": "22203-1824"
      },
      {
        "line": [
          "2700 N. Charles St"
        ],
        "city": "BALTIMORE",
        "state": "MD",
        "postalCode": "21218-4300"
      },
      {
        "line": [
          "3300 Gallows Road"
        ],
        "city": "FALLS CHURCH",
        "state": "VA",
        "postalCode": "22042-3300"
      },
      {
        "line": [
          "1626 W Baker Rd"
        ],
        "city": "BAYTOWN",
        "state": "TX",
        "postalCode": "77521-2271"
      },
      {
        "line": [
          "2200 Landover Place"
        ],
        "city": "LYNCHBURG",
        "state": "VA",
        "postalCode": "24501-2116"
      },
      {
        "line": [
          "7601 Osler Dr"
        ],
        "city": "TOWSON",
        "state": "MD",
        "postalCode": "21204-7700"
      },
      {
        "line": [
          "9250 Pinecroft Dr"
        ],
        "city": "SPRING",
        "state": "TX",
        "postalCode": "77380-3218"
      },
      {
        "line": [
          "1222 Tugwell drive"
        ],
        "city": "CATONSVILLE",
        "state": "MD",
        "postalCode": "21228-1802"
      },
      {
        "line": [
          "1850 Town Center Parkway"
        ],
        "city": "RESTON",
        "state": "VA",
        "postalCode": "20190-5899"
      },
      {
        "line": [
          "330 N Washington Street"
        ],
        "city": "FALLS CHURCH",
        "state": "VA",
        "postalCode": "22046-3431"
      },
      {
        "line": [
          "1840 Amherst Street"
        ],
        "city": "WINCHESTER",
        "state": "VA",
        "postalCode": "22601-6157"
      },
      {
        "line": [
          "7600 Carroll Ave"
        ],
        "city": "TAKOMA PARK",
        "state": "MD",
        "postalCode": "20912-6367"
      },
      {
        "line": [
          "Viped"
        ],
        "city": "ARLINGTON",
        "state": "VA",
        "postalCode": "22203-1824"
      },
      {
        "line": [
          "2501 westerland Drive"
        ],
        "city": "HOUSTON",
        "state": "TX",
        "postalCode": "77063-2207"
      },
      {
        "line": [
          "4301 GARTH RD"
        ],
        "city": "BAYTOWN",
        "state": "TX",
        "postalCode": "77521-3153"
      },
      {
        "line": [
          "18951 N Memorial Dr"
        ],
        "city": "HUMBLE",
        "state": "TX",
        "postalCode": "77338-4217"
      },
      {
        "line": [
          "11116 Medical Campus Road"
        ],
        "city": "HAGERSTOWN",
        "state": "MD",
        "postalCode": "21742-6700"
      },
      {
        "line": [
          "1739 Kirby Road"
        ],
        "city": "MC LEAN",
        "state": "VA",
        "postalCode": "22101-4817"
      },
      {
        "line": [
          "1602 Skipwith Road"
        ],
        "city": "RICHMOND",
        "state": "VA",
        "postalCode": "23229-5205"
      },
      {
        "line": [
          "17200 STREET LUKES WAY"
        ],
        "city": "THE WOODLANDS",
        "state": "TX",
        "postalCode": "77384-8007"
      },
      {
        "line": [
          "11250 Fallbrook"
        ],
        "city": "HOUSTON",
        "state": "TX",
        "postalCode": "77065-4229"
      },
      {
        "line": [
          "10005 S Main ST Houston"
        ],
        "city": "HOUSTON",
        "state": "TX",
        "postalCode": "77025-5209"
      },
      {
        "line": [
          "12141 Richmond Ave"
        ],
        "city": "HOUSTON",
        "state": "TX",
        "postalCode": "77082-2408"
      },
      {
        "line": [
          "2501 Parkers Lane 4th Floor"
        ],
        "city": "ALEXANDRIA",
        "state": "VA",
        "postalCode": "22306-3209"
      },
      {
        "line": [
          "10201 Hwy 16 North"
        ],
        "city": "COMANCHE",
        "state": "TX",
        "postalCode": "76442-4462"
      },
      {
        "line": [
          "1350 Hickory Street"
        ],
        "city": "MELBOURNE",
        "state": "FL",
        "postalCode": "32901-3224"
      },
      {
        "line": [
          "1165 Pepsi Pl"
        ],
        "city": "CHARLOTTESVILLE",
        "state": "VA",
        "postalCode": "22901-2866"
      },
      {
        "line": [
          "8200 Walnut Hill Ln"
        ],
        "city": "DALLAS",
        "state": "TX",
        "postalCode": "75231-4402"
      },
      {
        "line": [
          "1201 Seven Locks Road",
          "Suite 111"
        ],
        "city": "POTOMAC",
        "state": "MD",
        "postalCode": "20854-2957"
      },
      {
        "line": [
          "1414 Sandy Springs Road,"
        ],
        "city": "HOUSTON",
        "state": "TX",
        "postalCode": "77042-1378"
      },
      {
        "line": [
          "6020 W PARKER RD"
        ],
        "city": "PLANO",
        "state": "TX",
        "postalCode": "75093-8171"
      },
      {
        "line": [
          "101 Okatie Center Boulevard S"
        ],
        "city": "BLUFFTON",
        "state": "SC",
        "postalCode": "29910-7547"
      },
      {
        "line": [
          "1035 S Apollo Boulevard"
        ],
        "city": "MELBOURNE",
        "state": "FL",
        "postalCode": "32901-1969"
      },
      {
        "line": [
          "1500 FOREST GLEN ROAD"
        ],
        "city": "SILVER SPRING",
        "state": "MD",
        "postalCode": "20910-1483"
      },
      {
        "line": [
          "19211 McKay Dr"
        ],
        "city": "HUMBLE",
        "state": "TX",
        "postalCode": "77338-5502"
      },
      {
        "line": [
          "NA"
        ],
        "city": "ARLINGTON",
        "state": "VA",
        "postalCode": "22203-1824"
      },
      {
        "line": [
          "5755 Cedar Ln"
        ],
        "city": "COLUMBIA",
        "state": "MD",
        "postalCode": "21044-2912"
      },
      {
        "line": [
          "950 NORTH GLEBE RD",
          "Ste 4000"
        ],
        "city": "ARLINGTON",
        "state": "VA",
        "postalCode": "22203-1824"
      },
      {
        "line": [
          "King"
        ],
        "city": "ARLINGTON",
        "state": "VA",
        "postalCode": "22203-1824"
      },
      {
        "line": [
          "8200 WALNUT HILL LANE"
        ],
        "city": "DALLAS",
        "state": "TX",
        "postalCode": "75231-4426"
      },
      {
        "line": [
          "421 E. State Hwy 114"
        ],
        "city": "SOUTHLAKE",
        "state": "TX",
        "postalCode": "76092-3635"
      },
      {
        "line": [
          "2249 Murrell Road"
        ],
        "city": "LYNCHBURG",
        "state": "VA",
        "postalCode": "24501-2131"
      },
      {
        "line": [
          "8111 Tiswell Drive"
        ],
        "city": "ALEXANDRIA",
        "state": "VA",
        "postalCode": "22306-3211"
      },
      {
        "line": [
          "3540 Mission Home Lane"
        ],
        "city": "FREE UNION",
        "state": "VA",
        "postalCode": "22940-1505"
      },
      {
        "line": [
          "2000 Fowler Grove"
        ],
        "city": "WINTER GARDEN",
        "state": "FL",
        "postalCode": "34787-5050"
      },
      {
        "line": [
          "224D Cornwall Street Northwest",
          "Suite 100"
        ],
        "city": "LEESBURG",
        "state": "VA",
        "postalCode": "20176-2700"
      },
      {
        "line": [
          "5694A Ogeechee Road"
        ],
        "city": "SAVANNAH",
        "state": "GA",
        "postalCode": "31405-9500"
      },
      {
        "line": [
          " 950 N Glebe"
        ],
        "city": "ARLINGTON",
        "state": "VA",
        "postalCode": "22203-1824"
      },
      {
        "line": [
          "gma"
        ],
        "city": "ARLINGTON",
        "state": "VA",
        "postalCode": "22203-1824"
      },
      {
        "line": [
          "205 Hollow Tree Lane"
        ],
        "city": "HOUSTON",
        "state": "TX",
        "postalCode": "77090-2801"
      },
      {
        "line": [
          "1600 Hospital Pkwy"
        ],
        "city": "BEDFORD",
        "state": "TX",
        "postalCode": "76022-6913"
      },
      {
        "line": [
          "710 CYPRESS CREEK PKWY"
        ],
        "city": "HOUSTON",
        "state": "TX",
        "postalCode": "77090-3402"
      },
      {
        "line": [
          "FFPPPC"
        ],
        "city": "ARLINGTON",
        "state": "VA",
        "postalCode": "22203-1824"
      },
      {
        "line": [
          "1611 South Freeway"
        ],
        "city": "PEARLAND",
        "state": "TX",
        "postalCode": "77584-6041"
      },
      {
        "line": [
          "17500 W Grand PKWY"
        ],
        "city": "SUGAR LAND",
        "state": "TX",
        "postalCode": "77479-2562"
      },
      {
        "line": [
          "Parkway Medical, 1860 Town Center Dr Tower",
          "STE G100"
        ],
        "city": "RESTON",
        "state": "VA",
        "postalCode": "20190-5897"
      },
      {
        "line": [
          "2980 District Ave."
        ],
        "city": "FAIRFAX",
        "state": "VA",
        "postalCode": "22031-2218"
      },
      {
        "line": [
          "413 Garland Drive"
        ],
        "city": "LAKE JACKSON",
        "state": "TX",
        "postalCode": "77566-6240"
      },
      {
        "line": [
          "6800 Scenic Drive"
        ],
        "city": "ROWLETT",
        "state": "TX",
        "postalCode": "75088-4552"
      },
      {
        "line": [
          "7922 Ewing Halsell Dr",
          "suite 170"
        ],
        "city": "SAN ANTONIO",
        "state": "TX",
        "postalCode": "78229-3786"
      },
      {
        "line": [
          "25 Cassidy Dr"
        ],
        "city": "BLUFFTON",
        "state": "SC",
        "postalCode": "29910-4143"
      },
      {
        "line": [
          "433 North McGriff Street"
        ],
        "city": "WHIGHAM",
        "state": "GA",
        "postalCode": "39897-2146"
      },
      {
        "line": [
          "11110 Medical Campus Road"
        ],
        "city": "HAGERSTOWN",
        "state": "MD",
        "postalCode": "21742-6700"
      },
      {
        "line": [
          "6400 Arlington Boulevard",
          "STE 500"
        ],
        "city": "FALLS CHURCH",
        "state": "VA",
        "postalCode": "22042-2325"
      },
      {
        "line": [
          "200 S Courtenay Parkway"
        ],
        "city": "MERRITT ISLAND",
        "state": "FL",
        "postalCode": "32952-4807"
      },
      {
        "line": [
          "9901 Medical Center Dr"
        ],
        "city": "ROCKVILLE",
        "state": "MD",
        "postalCode": "20850-1150"
      },
      {
        "line": [
          "189 Monica Blvd"
        ],
        "city": "LYNCHBURG",
        "state": "VA",
        "postalCode": "24502-2213"
      },
      {
        "line": [
          "1014 Windsor Lakes Boulevard"
        ],
        "city": "The Woodlands",
        "state": "TX",
        "postalCode": "77384-4886"
      },
      {
        "line": [
          "2395 N Courtenay Pkwy"
        ],
        "city": "MERRITT ISLAND",
        "state": "FL",
        "postalCode": "32953-4034"
      },
      {
        "line": [
          "10333 Kuykendahl Road",
          " Suite B"
        ],
        "city": "SPRING",
        "state": "TX",
        "postalCode": "77382-2878"
      },
      {
        "line": [
          "745 Poplar Road"
        ],
        "city": "NEWNAN",
        "state": "GA",
        "postalCode": "30265-1618"
      },
      {
        "line": [
          "500 Hospital Dr."
        ],
        "city": "WARRENTON",
        "state": "VA",
        "postalCode": "20186-3027"
      },
      {
        "line": [
          "East 5th Street,"
        ],
        "city": "KATY",
        "state": "TX",
        "postalCode": "77493-1986"
      },
      {
        "line": [
          "15225 Heathcote Blvd"
        ],
        "city": "ARLINGTON",
        "state": "VA",
        "postalCode": "22203-1824"
      },
      {
        "line": [
          "103 E General Stewart Way"
        ],
        "city": "HINESVILLE",
        "state": "GA",
        "postalCode": "31313-2607"
      },
      {
        "line": [
          "1852 Town Center Pkwy"
        ],
        "city": "RESTON",
        "state": "VA",
        "postalCode": "20190-3204"
      },
      {
        "line": [
          "950 Gleebe Rd"
        ],
        "city": "ARLINGTON",
        "state": "VA",
        "postalCode": "22203-1824"
      },
      {
        "line": [
          "300 Blue Ridge Street"
        ],
        "city": "MARTINSVILLE",
        "state": "VA",
        "postalCode": "24112-7261"
      },
      {
        "line": [
          "7727 Lake Underhill Road"
        ],
        "city": "ORLANDO",
        "state": "FL",
        "postalCode": "32822-8224"
      },
      {
        "line": [
          "44084 Riverside Parkway",
          "Suite 100"
        ],
        "city": "LEESBURG",
        "state": "VA",
        "postalCode": "20176-5159"
      },
      {
        "line": [
          "1917 Ashland Street"
        ],
        "city": "HOUSTON",
        "state": "TX",
        "postalCode": "77008-3907"
      },
      {
        "line": [
          "7600 Beechnut St"
        ],
        "city": "HOUSTON",
        "state": "TX",
        "postalCode": "77074-4302"
      },
      {
        "line": [
          "8320 Old Courthouse Rd",
          "Ste 300"
        ],
        "city": "VIENNA",
        "state": "VA",
        "postalCode": "22182-3811"
      },
      {
        "line": [
          "400 W. 7th St"
        ],
        "city": "FREDERICK",
        "state": "MD",
        "postalCode": "21701-4506"
      },
      {
        "line": [
          "3901 West 15th Street"
        ],
        "city": "PLANO",
        "state": "TX",
        "postalCode": "75075-7738"
      },
      {
        "line": [
          "18839 McKay Drive,"
        ],
        "city": "HUMBLE",
        "state": "TX",
        "postalCode": "77338-5721"
      },
      {
        "line": [
          "6001 George Bush Drive"
        ],
        "city": "KATY",
        "state": "TX",
        "postalCode": "77493-1991"
      },
      {
        "line": [
          "2501 Parkers Lane"
        ],
        "city": "ALEXANDRIA",
        "state": "VA",
        "postalCode": "22306-3169"
      },
      {
        "line": [
          "44035 Riverside Pkwy",
          "Suite 200"
        ],
        "city": "LEESBURG",
        "state": "VA",
        "postalCode": "20176-8260"
      },
      {
        "line": [
          "1400 S Apollo Blvd"
        ],
        "city": "MELBOURNE",
        "state": "FL",
        "postalCode": "32901-3145"
      },
      {
        "line": [
          "23920 Katy Freeway",
          "Suite 200"
        ],
        "city": "KATY",
        "state": "TX",
        "postalCode": "77494-0881"
      },
      {
        "line": [
          "303 Adclare Rd"
        ],
        "city": "ROCKVILLE",
        "state": "MD",
        "postalCode": "20850-3825"
      },
      {
        "line": [
          "75 Thomas Johnson Dr Ste J"
        ],
        "city": "FREDERICK",
        "state": "MD",
        "postalCode": "21702-4895"
      },
      {
        "line": [
          "6441 Main St."
        ],
        "city": "HOUSTON",
        "state": "TX",
        "postalCode": "77030-1502"
      },
      {
        "line": [
          "125 Buena Vista Circle"
        ],
        "city": "SOUTH HILL",
        "state": "VA",
        "postalCode": "23970-1431"
      },
      {
        "line": [
          "1500 FOREST GLEN RD"
        ],
        "city": "SILVER SPRING",
        "state": "MD",
        "postalCode": "20910-1460"
      },
      {
        "line": [
          "9250 PINECROFT DRIVE"
        ],
        "city": "SHENANDOAH",
        "state": "TX",
        "postalCode": "77380-3218"
      },
      {
        "line": [
          "46 West Gude Drive"
        ],
        "city": "ROCKVILLE",
        "state": "MD",
        "postalCode": "20850-1150"
      },
      {
        "line": [
          "1350 HICKORY St"
        ],
        "city": "MELBOURNE",
        "state": "FL",
        "postalCode": "32901-3224"
      },
      {
        "line": [
          "400 CELEBRATION PL"
        ],
        "city": "KISSIMMEE",
        "state": "FL",
        "postalCode": "34747-4970"
      },
      {
        "line": [
          "420 Lantern Bend Drive,"
        ],
        "city": "HOUSTON",
        "state": "TX",
        "postalCode": "77090-2832"
      },
      {
        "line": [
          "9111 Jordan Lane",
          "STE 300"
        ],
        "city": "WOODWAY",
        "state": "TX",
        "postalCode": "76712-9111"
      },
      {
        "line": [
          "700 Walter Reed Blvd"
        ],
        "city": "GARLAND",
        "state": "TX",
        "postalCode": "75042-3701"
      },
      {
        "line": [
          "601 East Altamonte Drive"
        ],
        "city": "ALTAMONTE SPRINGS",
        "state": "FL",
        "postalCode": "32701-4802"
      },
      {
        "line": [
          "17200 St. Lukes Way"
        ],
        "city": "The Woodlands",
        "state": "TX",
        "postalCode": "77384-8007"
      },
      {
        "line": [
          "240 Riverside Dr"
        ],
        "city": "BASSETT",
        "state": "VA",
        "postalCode": "24055-4257"
      },
      {
        "line": [
          "7600 Fannin ST"
        ],
        "city": "HOUSTON",
        "state": "TX",
        "postalCode": "77054-1906"
      },
      {
        "line": [
          "5255 LOUGHBORO ROAD, NW"
        ],
        "city": "WASHINGTON",
        "state": "DC",
        "postalCode": "20016-2633"
      },
      {
        "line": [
          "173 Brockman Park Drive"
        ],
        "city": "AMHERST",
        "state": "VA",
        "postalCode": "24521-2583"
      },
      {
        "line": [
          "864 US-158 BUS"
        ],
        "city": "WARRENTON",
        "state": "NC",
        "postalCode": "27589-1651"
      },
      {
        "line": [
          "6655 Travis Street",
          "Suite 600"
        ],
        "city": "HOUSTON",
        "state": "TX",
        "postalCode": "77030-1341"
      },
      {
        "line": [
          "17500 West Grand Parkway"
        ],
        "city": "SUGAR LAND",
        "state": "TX",
        "postalCode": "77479-2562"
      },
      {
        "line": [
          "1722 Lawrenceville Plank Rd"
        ],
        "city": "LAWRENCEVILLE",
        "state": "VA",
        "postalCode": "23868-3351"
      },
      {
        "line": [
          "12221 North Mopac Expressway"
        ],
        "city": "AUSTIN",
        "state": "TX",
        "postalCode": "78758-2401"
      },
      {
        "line": [
          "587 Barton Blvd"
        ],
        "city": "ROCKLEDGE",
        "state": "FL",
        "postalCode": "32955-3145"
      },
      {
        "line": [
          "6701 N Charles St",
          "Suite 1610"
        ],
        "city": "TOWSON",
        "state": "MD",
        "postalCode": "21204-6808"
      },
      {
        "line": [
          "5353 Reynolds Street"
        ],
        "city": "SAVANNAH",
        "state": "GA",
        "postalCode": "31405-6005"
      },
      {
        "line": [
          "19002 McKay Dr"
        ],
        "city": "HUMBLE",
        "state": "TX",
        "postalCode": "77338-5701"
      },
      {
        "line": [
          "1116 Medical Campus Rd"
        ],
        "city": "HAGERSTOWN",
        "state": "MD",
        "postalCode": "21742-6700"
      },
      {
        "line": [
          "111 MICHIGAN AVENUE"
        ],
        "city": "WASHINGTON",
        "state": "DC",
        "postalCode": "20010-2916"
      },
      {
        "line": [
          "1677 W. Baker Rd"
        ],
        "city": "BAYTOWN",
        "state": "TX",
        "postalCode": "77521-2422"
      },
      {
        "line": [
          "16655 Southwest Fwy"
        ],
        "city": "SUGAR LAND",
        "state": "TX",
        "postalCode": "77479-2329"
      },
      {
        "line": [
          "4009 David Lane"
        ],
        "city": "ALEXANDRIA",
        "state": "VA",
        "postalCode": "22311-1110"
      },
      {
        "line": [
          "11900 Barryknoll Lane,"
        ],
        "city": "HOUSTON",
        "state": "TX",
        "postalCode": "77024-4459"
      },
      {
        "line": [
          "2255 East Mossy Oaks"
        ],
        "city": "SPRING",
        "state": "TX",
        "postalCode": "77389-1811"
      },
      {
        "line": [
          "NA"
        ],
        "city": "BETHESDA",
        "state": "MD",
        "postalCode": "20814-1422"
      },
      {
        "line": [
          "900 S Caton Ave"
        ],
        "city": "BALTIMORE",
        "state": "MD",
        "postalCode": "21229-5201"
      },
      {
        "line": [
          "1400 Enterprise Drive"
        ],
        "city": "LYNCHBURG",
        "state": "VA",
        "postalCode": "24502-5769"
      },
      {
        "line": [
          "101 ST. Joseph/Candler Drive"
        ],
        "city": "POOLER",
        "state": "GA",
        "postalCode": "31322-9584"
      },
      {
        "line": [
          "110 Irving St NW"
        ],
        "city": "WASHINGTON",
        "state": "DC",
        "postalCode": "20010-3017"
      },
      {
        "line": [
          "1120 Business Center DR",
          "STE 110"
        ],
        "city": "HOUSTON",
        "state": "TX",
        "postalCode": "77043-2735"
      },
      {
        "line": [
          "1502 Frederick Rd"
        ],
        "city": "CATONSVILLE",
        "state": "MD",
        "postalCode": "21228-5019"
      },
      {
        "line": [
          "1500 FOREST GLENN ROAD"
        ],
        "city": "SILVER SPRING",
        "state": "MD",
        "postalCode": "20910-1484"
      },
      {
        "line": [
          "24727 Tomball Parkway",
          "Suite 100"
        ],
        "city": "TOMBALL",
        "state": "TX",
        "postalCode": "77375-7877"
      },
      {
        "line": [
          "11890 Healing Wy"
        ],
        "city": "SILVER SPRING",
        "state": "MD",
        "postalCode": "20904-7917"
      },
      {
        "line": [
          "8 Hampton Lake Drive"
        ],
        "city": "BLUFFTON",
        "state": "SC",
        "postalCode": "29910-9568"
      },
      {
        "line": [
          "3600 Joseph Siewick Drive"
        ],
        "city": "FAIRFAX",
        "state": "VA",
        "postalCode": "22033-1798"
      },
      {
        "line": [
          "3030 W. Dr. Martin Luther King Jr. Blvd"
        ],
        "city": "TAMPA",
        "state": "FL",
        "postalCode": "33607-6308"
      },
      {
        "line": [
          "8960 Colonial Center Drive"
        ],
        "city": "FORT MYERS",
        "state": "FL",
        "postalCode": "33905-7810"
      },
      {
        "line": [
          "21214 Northwest Freeway"
        ],
        "city": "CYPRESS",
        "state": "TX",
        "postalCode": "77429-2105"
      },
      {
        "line": [
          "19465 Deerfield Avenue",
          "Suite 410"
        ],
        "city": "LEESBURG",
        "state": "VA",
        "postalCode": "20176-1708"
      },
      {
        "line": [
          "23900 Katy Fwy"
        ],
        "city": "KATY",
        "state": "TX",
        "postalCode": "77494-1323"
      },
      {
        "line": [
          "5500 Frisco Square Boulevard"
        ],
        "city": "FRISCO",
        "state": "TX",
        "postalCode": "75034-3305"
      },
      {
        "line": [
          "1201 West Louis Henna Boulevard"
        ],
        "city": "ROUND ROCK",
        "state": "TX",
        "postalCode": "78681-2301"
      },
      {
        "line": [
          "11909B McAuley Drive, Plaza C"
        ],
        "city": "SAVANNAH",
        "state": "GA",
        "postalCode": "31419-1709"
      },
      {
        "line": [
          "2100 Ocoee Apopka Road"
        ],
        "city": "APOPKA",
        "state": "FL",
        "postalCode": "32703-9210"
      },
      {
        "line": [
          "539 Fair Street"
        ],
        "city": "BAXLEY",
        "state": "GA",
        "postalCode": "31513-0112"
      },
      {
        "line": [
          "1500 Forest Glen Rd"
        ],
        "city": "SILVER SPRING",
        "state": "MD",
        "postalCode": "20910-1460"
      },
      {
        "line": [
          "9901 MEDICAL CENTER DRIVE"
        ],
        "city": "ROCKVILLE",
        "state": "MD",
        "postalCode": "20850-3357"
      },
      {
        "line": [
          "7987 Georgia Ave"
        ],
        "city": "SILVER SPRING",
        "state": "MD",
        "postalCode": "20910-4838"
      },
      {
        "line": [
          "110 Brandywine Blvd"
        ],
        "city": "FAYETTEVILLE",
        "state": "GA",
        "postalCode": "30214-1500"
      },
      {
        "line": [
          "24441 Stone Springs Blvd"
        ],
        "city": "DULLES",
        "state": "VA",
        "postalCode": "20166-2247"
      },
      {
        "line": [
          "3000 North I 35"
        ],
        "city": "DENTON",
        "state": "TX",
        "postalCode": "76201-5119"
      },
      {
        "line": [
          "221 E Carter Ave"
        ],
        "city": "BLACKSHEAR",
        "state": "GA",
        "postalCode": "31516-1545"
      },
      {
        "line": [
          "4800 Fillmore Ave"
        ],
        "city": "ALEXANDRIA",
        "state": "VA",
        "postalCode": "22311-5070"
      },
      {
        "line": [
          "17400 St. Lukes Way"
        ],
        "city": "The Woodlands",
        "state": "TX",
        "postalCode": "77384-8036"
      },
      {
        "line": [
          "1401 Johnston Willis Dr"
        ],
        "city": "RICHMOND",
        "state": "VA",
        "postalCode": "23235-4730"
      },
      {
        "line": [
          "501 Ves Road"
        ],
        "city": "LYNCHBURG",
        "state": "VA",
        "postalCode": "24503-4638"
      },
      {
        "line": [
          "8230 Walnut Hill Ln"
        ],
        "city": "DALLAS",
        "state": "TX",
        "postalCode": "75231-4482"
      },
      {
        "line": [
          "22003 Southwest Fwy"
        ],
        "city": "RICHMOND",
        "state": "TX",
        "postalCode": "77469-7003"
      },
      {
        "line": [
          "10629 US-19, Thomasville"
        ],
        "city": "THOMASVILLE",
        "state": "GA",
        "postalCode": "31792-6195"
      },
      {
        "line": [
          "14703 Eagle Vista Drive"
        ],
        "city": "HOUSTON",
        "state": "TX",
        "postalCode": "77077-5394"
      },
      {
        "line": [
          "18500 Katy Fwy"
        ],
        "city": "HOUSTON",
        "state": "TX",
        "postalCode": "77094-1110"
      },
      {
        "line": [
          "8988 Lorton Station Blvd.",
          "Suite 201"
        ],
        "city": "LORTON",
        "state": "VA",
        "postalCode": "22079-4758"
      },
      {
        "line": [
          "2125 W New Haven Ave"
        ],
        "city": "MELBOURNE",
        "state": "FL",
        "postalCode": "32904-3803"
      },
      {
        "line": [
          "7101 Jahnke Rd"
        ],
        "city": "RICHMOND",
        "state": "VA",
        "postalCode": "23225-4017"
      },
      {
        "line": [
          "5255 Loughboro Rd. NW"
        ],
        "city": "WASHINGTON",
        "state": "DC",
        "postalCode": "20016-2633"
      },
      {
        "line": [
          "9901 MEDICAL CENTER DR"
        ],
        "city": "ROCKVILLE",
        "state": "MD",
        "postalCode": "20850-3357"
      },
      {
        "line": [
          "12345 WOOD"
        ],
        "city": "ARLINGTON",
        "state": "VA",
        "postalCode": "22203-1824"
      },
      {
        "line": [
          "950 N GLEBE RD"
        ],
        "city": "ARLINGTON",
        "state": "VA",
        "postalCode": "22203-1824"
      },
      {
        "line": [
          "20823 Park Row Drive",
          "Suite A"
        ],
        "city": "KATY",
        "state": "TX",
        "postalCode": "77449-5015"
      },
      {
        "line": [
          "11310 White Bluff Road"
        ],
        "city": "SAVANNAH",
        "state": "GA",
        "postalCode": "31419-1506"
      },
      {
        "line": [
          "5200 Habersham Street"
        ],
        "city": "SAVANNAH",
        "state": "GA",
        "postalCode": "31405-5300"
      },
      {
        "line": [
          "2100 Powhatan St"
        ],
        "city": "FALLS CHURCH",
        "state": "VA",
        "postalCode": "22043-1940"
      },
      {
        "line": [
          "6500 Rock Spring Dr"
        ],
        "city": "BETHESDA",
        "state": "MD",
        "postalCode": "20817-1105"
      },
      {
        "line": [
          "1607 Spruce Street"
        ],
        "city": "MARTINSVILLE",
        "state": "VA",
        "postalCode": "24112-5814"
      },
      {
        "line": [
          "1425 MALABAR Rd NE"
        ],
        "city": "PALM BAY",
        "state": "FL",
        "postalCode": "32907-2506"
      },
      {
        "line": [
          "1917 ASHLAND ST FL 1"
        ],
        "city": "HOUSTON",
        "state": "TX",
        "postalCode": "77008-3907"
      },
      {
        "line": [
          "12040 South Lakes Dr Ste 207"
        ],
        "city": "RESTON",
        "state": "VA",
        "postalCode": "20191-1236"
      },
      {
        "line": [
          "104 E Broad St Suite A"
        ],
        "city": "FALLS CHURCH",
        "state": "VA",
        "postalCode": "22046-4501"
      },
      {
        "line": [
          "804 S Broad St"
        ],
        "city": "THOMASVILLE",
        "state": "GA",
        "postalCode": "31792-6111"
      },
      {
        "line": [
          "1860 Town Center Drive",
          "Suite G100"
        ],
        "city": "RESTON",
        "state": "VA",
        "postalCode": "20190-5896"
      },
      {
        "line": [
          "6106 Health Center Ln"
        ],
        "city": "FREDERICKSBURG",
        "state": "VA",
        "postalCode": "22407-6687"
      },
      {
        "line": [
          "2055 Valley Avenue"
        ],
        "city": "WINCHESTER",
        "state": "VA",
        "postalCode": "22601-2751"
      },
      {
        "line": [
          "3600 Joseph Siewick Dr"
        ],
        "city": "FAIRFAX",
        "state": "VA",
        "postalCode": "22033-1708"
      },
      {
        "line": [
          "83 West Miller Street"
        ],
        "city": "ORLANDO",
        "state": "FL",
        "postalCode": "32806-2031"
      },
      {
        "line": [
          "1500 FOREST GLEN ROAD"
        ],
        "city": "SILVER SPRING",
        "state": "MD",
        "postalCode": "20910-1484"
      },
      {
        "line": [
          "1405 S Orange AVE",
          "STE 500"
        ],
        "city": "ORLANDO",
        "state": "FL",
        "postalCode": "32806-2153"
      },
      {
        "line": [
          "6323 Georgia Ave NW"
        ],
        "city": "WASHINGTON",
        "state": "DC",
        "postalCode": "20011-1101"
      },
      {
        "line": [
          "4401 Garth Road"
        ],
        "city": "BAYTOWN",
        "state": "TX",
        "postalCode": "77521-2122"
      },
      {
        "line": [
          "711 Academy Rd"
        ],
        "city": "CATONSVILLE",
        "state": "MD",
        "postalCode": "21228-1802"
      },
      {
        "line": [
          "12221 N Mopac Expressway"
        ],
        "city": "AUSTIN",
        "state": "TX",
        "postalCode": "78758-1222"
      },
      {
        "line": [
          "1701 N GEORGE MASON DR"
        ],
        "city": "ARLINGTON",
        "state": "VA",
        "postalCode": "22205-3610"
      },
      {
        "line": [
          "950 N. Glebe Rd., Suite 700"
        ],
        "city": "ARLINGTON",
        "state": "VA",
        "postalCode": "22203-1824"
      },
      {
        "line": [
          "19002 McKay Drive"
        ],
        "city": "HUMBLE",
        "state": "TX",
        "postalCode": "77338-5701"
      },
      {
        "line": [
          "5200 Loughboro Rd NW"
        ],
        "city": "WASHINGTON",
        "state": "DC",
        "postalCode": "20016-9996"
      },
      {
        "line": [
          "10730 Main Street"
        ],
        "city": "FAIRFAX",
        "state": "VA",
        "postalCode": "22030-3781"
      },
      {
        "line": [
          "625 N Coastal Hwy"
        ],
        "city": "MIDWAY",
        "state": "GA",
        "postalCode": "31320-3433"
      },
      {
        "line": [
          "300 KINGWOOD MEDICAL DR"
        ],
        "city": "KINGWOOD",
        "state": "TX",
        "postalCode": "77339-6400"
      },
      {
        "line": [
          "15225 HEATHCOTE BLVD"
        ],
        "city": "HAYMARKET",
        "state": "VA",
        "postalCode": "20169-6264"
      },
      {
        "line": [
          "500 Martha Jefferson Dr,"
        ],
        "city": "CHARLOTTESVILLE",
        "state": "VA",
        "postalCode": "22911-4668"
      },
      {
        "line": [
          "16655 Southwest FWY"
        ],
        "city": "SUGAR LAND",
        "state": "TX",
        "postalCode": "77479-2329"
      },
      {
        "line": [
          "1775 Huntington Ln"
        ],
        "city": "ROCKLEDGE",
        "state": "FL",
        "postalCode": "32955-3136"
      },
      {
        "line": [
          "11116 Medical Campus Road"
        ],
        "city": "HAGERSTOWN",
        "state": "MD",
        "postalCode": "21742-6710"
      },
      {
        "line": [
          "12325 New Hampshire Ave NE"
        ],
        "city": "SILVER SPRING",
        "state": "MD",
        "postalCode": "20904-2957"
      },
      {
        "line": [
          "13681 Doctors Way"
        ],
        "city": "Fort Myers",
        "state": "FL",
        "postalCode": "33912-4300"
      },
      {
        "line": [
          "801 West Gordon Street"
        ],
        "city": "THOMASTON",
        "state": "GA",
        "postalCode": "30286-3426"
      },
      {
        "line": [
          "2901 Fourth Street"
        ],
        "city": "LONGVIEW",
        "state": "TX",
        "postalCode": "75605-5128"
      },
      {
        "line": [
          "1701 N George Mason Dr."
        ],
        "city": "ARLINGTON",
        "state": "VA",
        "postalCode": "22205-3610"
      },
      {
        "line": [
          "11706 Mercy Boulevard",
          "Suite 9"
        ],
        "city": "SAVANNAH",
        "state": "GA",
        "postalCode": "31419-1751"
      },
      {
        "line": [
          "2406 Atherholt Road",
          "PO Box 2526"
        ],
        "city": "LYNCHBURG",
        "state": "VA",
        "postalCode": "24501-2148"
      },
      {
        "line": [
          "95 Skidaway Island Park Road"
        ],
        "city": "SAVANNAH",
        "state": "GA",
        "postalCode": "31411-1104"
      },
      {
        "line": [
          "24440 Stone Springs Blvd"
        ],
        "city": "STERLING",
        "state": "VA",
        "postalCode": "20166-2247"
      },
      {
        "line": [
          "1703 Meadows Regional Lane",
          "PO BOX  1048"
        ],
        "city": "VIDALIA",
        "state": "GA",
        "postalCode": "30474-8915"
      },
      {
        "line": [
          "8745 N Wickham Road"
        ],
        "city": "MELBOURNE",
        "state": "FL",
        "postalCode": "32940-5997"
      },
      {
        "line": [
          "13710 St Francis Blvd"
        ],
        "city": "MIDLOTHIAN",
        "state": "VA",
        "postalCode": "23114-3267"
      },
      {
        "line": [
          "27800 Northwest Fwy"
        ],
        "city": "CYPRESS",
        "state": "TX",
        "postalCode": "77433-4144"
      },
      {
        "line": [
          "16655 SOUTHWEST FREEWAY"
        ],
        "city": "SUGAR LAND",
        "state": "TX",
        "postalCode": "77479-2329"
      },
      {
        "line": [
          "44035 Riverside Pkwy",
          "Ste 200"
        ],
        "city": "LEESBURG",
        "state": "VA",
        "postalCode": "20176-8260"
      },
      {
        "line": [
          "1120 Business Center Dr"
        ],
        "city": "HOUSTON",
        "state": "TX",
        "postalCode": "77043-2735"
      },
      {
        "line": [
          "1211 Hwy 6"
        ],
        "city": "SUGAR LAND",
        "state": "TX",
        "postalCode": "77478-1211"
      },
      {
        "line": [
          "18101 Prince Philip Dr"
        ],
        "city": "OLNEY",
        "state": "MD",
        "postalCode": "20832-1514"
      },
      {
        "line": [
          "1475 Farm to Market 1960 Bypass RD E"
        ],
        "city": "HUMBLE",
        "state": "TX",
        "postalCode": "77338-3909"
      },
      {
        "line": [
          "30 Monica Boulevard"
        ],
        "city": "LYNCHBURG",
        "state": "VA",
        "postalCode": "24502-2269"
      },
      {
        "line": [
          "1300 Binz St"
        ],
        "city": "HOUSTON",
        "state": "TX",
        "postalCode": "77004-6900"
      },
      {
        "line": [
          "540 E Oglethorpe Avenue"
        ],
        "city": "SAVANNAH",
        "state": "GA",
        "postalCode": "31401-4121"
      },
      {
        "line": [
          "500 Martha Jefferson Drive"
        ],
        "city": "CHARLOTTESVILLE",
        "state": "VA",
        "postalCode": "22911-4668"
      },
      {
        "line": [
          "1701 N George Mason Drive"
        ],
        "city": "ARLINGTON",
        "state": "VA",
        "postalCode": "22205-3610"
      },
      {
        "line": [
          "2001 MEDICAL PARKWAY"
        ],
        "city": "ANNAPOLIS",
        "state": "MD",
        "postalCode": "21401-3280"
      },
      {
        "line": [
          "13681 DOCTORS WAY"
        ],
        "city": "FORT MYERS",
        "state": "FL",
        "postalCode": "33912-4300"
      },
      {
        "line": [
          "1850 Town Center Pkwy"
        ],
        "city": "RESTON",
        "state": "VA",
        "postalCode": "20190-3204"
      },
      {
        "line": [
          "8710 Cameron Street, Suite 100"
        ],
        "city": "SILVER SPRING",
        "state": "MD",
        "postalCode": "20910-3772"
      },
      {
        "line": [
          "7431 N University Drive",
          "Suite 200"
        ],
        "city": "Tamarac",
        "state": "FL",
        "postalCode": "33321-2956"
      },
      {
        "line": [
          "1518 Miluli Avenue"
        ],
        "city": "BAINBRIDGE",
        "state": "GA",
        "postalCode": "39819-4256"
      },
      {
        "line": [
          "2 BERNARDINE DRIVE"
        ],
        "city": "NEWPORT NEWS",
        "state": "VA",
        "postalCode": "23602-4404"
      },
      {
        "line": [
          "1425 Malabar RD NE"
        ],
        "city": "PALM BAY",
        "state": "FL",
        "postalCode": "32907-2506"
      },
      {
        "line": [
          "3033 Sarno Road"
        ],
        "city": "MELBOURNE",
        "state": "FL",
        "postalCode": "32934-7229"
      },
      {
        "line": [
          "1120 Business Center Dr 110"
        ],
        "city": "HOUSTON",
        "state": "TX",
        "postalCode": "77043-2735"
      },
      {
        "line": [
          "351 Cypress Creek Road #102"
        ],
        "city": "CEDAR PARK",
        "state": "TX",
        "postalCode": "78613-4655"
      },
      {
        "line": [
          "2331 Seminole Lane",
          "Suite 201"
        ],
        "city": "CHARLOTTESVILLE",
        "state": "VA",
        "postalCode": "22901-8319"
      },
      {
        "line": [
          "7777 Forest Ln"
        ],
        "city": "DALLAS",
        "state": "TX",
        "postalCode": "75230-2571"
      },
      {
        "line": [
          "6400 Goldsboro Road",
          "Suite 400"
        ],
        "city": "BETHESDA",
        "state": "MD",
        "postalCode": "20817-5826"
      },
      {
        "line": [
          "8501 Arlington Blvd #100"
        ],
        "city": "FAIRFAX",
        "state": "VA",
        "postalCode": "22031-4625"
      },
      {
        "line": [
          "2225 Knox Mcrae DR"
        ],
        "city": "TITUSVILLE",
        "state": "FL",
        "postalCode": "32780-5236"
      },
      {
        "line": [
          "1500 LEE BLVD"
        ],
        "city": "LEHIGH ACRES",
        "state": "FL",
        "postalCode": "33936-4835"
      },
      {
        "line": [
          "7601 Lewinsville Road",
          "Suite 440"
        ],
        "city": "MC LEAN",
        "state": "VA",
        "postalCode": "22102-2834"
      },
      {
        "line": [
          "12950 EAST FWY",
          "SUITE 100"
        ],
        "city": "HOUSTON",
        "state": "TX",
        "postalCode": "77015-5710"
      },
      {
        "line": [
          "11500 Fallbrook Drive"
        ],
        "city": "HOUSTON",
        "state": "TX",
        "postalCode": "77065-4280"
      },
      {
        "line": [
          "504 Medical Center BLVD"
        ],
        "city": "CONROE",
        "state": "TX",
        "postalCode": "77304-2808"
      },
      {
        "line": [
          "4938 Saint Elmo Avenue"
        ],
        "city": "BETHESDA",
        "state": "MD",
        "postalCode": "20814-6008"
      },
      {
        "line": [
          "1425 Malabar Road NE"
        ],
        "city": "PALM BAY",
        "state": "FL",
        "postalCode": "32907-2506"
      },
      {
        "line": [
          "125 Buena Vista Circle",
          "PO Box 90"
        ],
        "city": "SOUTH HILL",
        "state": "VA",
        "postalCode": "23970-1431"
      },
      {
        "line": [
          "1705 Jackson ST"
        ],
        "city": "RICHMOND",
        "state": "TX",
        "postalCode": "77469-3246"
      },
      {
        "line": [
          "11614 FM2244",
          "150#"
        ],
        "city": "AUSTIN",
        "state": "TX",
        "postalCode": "78738-5471"
      },
      {
        "line": [
          "18101 Prince Philip Drive"
        ],
        "city": "OLNEY",
        "state": "MD",
        "postalCode": "20832-1514"
      },
      {
        "line": [
          "111 Michigan Avenue",
          "District of Columbia"
        ],
        "city": "WASHINGTON",
        "state": "DC",
        "postalCode": "20010-2916"
      },
      {
        "line": [
          "1000 Johnson Ferry Road NE"
        ],
        "city": "ATLANTA",
        "state": "GA",
        "postalCode": "30342-1606"
      },
      {
        "line": [
          "7830 W Grand Pkwy S"
        ],
        "city": "RICHMOND",
        "state": "TX",
        "postalCode": "77406-5816"
      },
      {
        "line": [
          "46531 Harry Byrd Highway"
        ],
        "city": "STERLING",
        "state": "VA",
        "postalCode": "20164-3555"
      },
      {
        "line": [
          "921 Gessner Rd"
        ],
        "city": "HOUSTON",
        "state": "TX",
        "postalCode": "77024-2501"
      },
      {
        "line": [
          "765 W NASA BLVD"
        ],
        "city": "MELBOURNE",
        "state": "FL",
        "postalCode": "32901-1815"
      },
      {
        "line": [
          "5255 Loughboro Road Northwest"
        ],
        "city": "WASHINGTON",
        "state": "DC",
        "postalCode": "20016-2633"
      },
      {
        "line": [
          "350 Kings Way Road"
        ],
        "city": "MARTINSVILLE",
        "state": "VA",
        "postalCode": "24112-6631"
      },
      {
        "line": [
          "6206 Waters Avenue"
        ],
        "city": "SAVANNAH",
        "state": "GA",
        "postalCode": "31406-2708"
      },
      {
        "line": [
          "1600 Grand Lakes Drive"
        ],
        "city": "CONROE",
        "state": "TX",
        "postalCode": "77304-2834"
      },
      {
        "line": [
          "26940 Kuykendahl Road",
          "Suite 300"
        ],
        "city": "TOMBALL",
        "state": "TX",
        "postalCode": "77375-0160"
      },
      {
        "line": [
          "224 Cornwall Street",
          "Medical Campus"
        ],
        "city": "LEESBURG",
        "state": "VA",
        "postalCode": "20176-2701"
      },
      {
        "line": [
          "250 Hollow Tree"
        ],
        "city": "HOUSTON",
        "state": "TX",
        "postalCode": "77090-2802"
      },
      {
        "line": [
          "1550 First Colony Boulevard"
        ],
        "city": "SUGAR LAND",
        "state": "TX",
        "postalCode": "77479-4000"
      },
      {
        "line": [
          "2906 17th ST"
        ],
        "city": "SAINT CLOUD",
        "state": "FL",
        "postalCode": "34769-6006"
      },
      {
        "line": [
          "9722 US Highway 90A"
        ],
        "city": "ARLINGTON",
        "state": "VA",
        "postalCode": "22203-1824"
      },
      {
        "line": [
          "1400 Enterprise Drive"
        ],
        "city": "LYNCHBURG",
        "state": "VA",
        "postalCode": "24502-5746"
      },
      {
        "line": [
          "6 Taft Court"
        ],
        "city": "ROCKVILLE",
        "state": "MD",
        "postalCode": "20850-5331"
      },
      {
        "line": [
          "1215 E. Court St."
        ],
        "city": "SEGUIN",
        "state": "TX",
        "postalCode": "78155-5129"
      },
      {
        "line": [
          "522 Elma G Miles Pkwy"
        ],
        "city": "HINESVILLE",
        "state": "GA",
        "postalCode": "31313-4021"
      },
      {
        "line": [
          "940 N Glebe"
        ],
        "city": "ARLINGTON",
        "state": "VA",
        "postalCode": "22203-1824"
      },
      {
        "line": [
          "7700 Floyd Curl Drive"
        ],
        "city": "SAN ANTONIO",
        "state": "TX",
        "postalCode": "78229-3902"
      },
      {
        "line": [
          "8230 Walnut Hill Ln",
          "STE 101"
        ],
        "city": "DALLAS",
        "state": "TX",
        "postalCode": "75231-4444"
      },
      {
        "line": [
          "11851 JOLLYVILLE RD STE 104"
        ],
        "city": "AUSTIN",
        "state": "TX",
        "postalCode": "78759-2350"
      },
      {
        "line": [
          "5255 LOUGHBORO RD NW"
        ],
        "city": "WASHINGTON",
        "state": "DC",
        "postalCode": "20016-2633"
      },
      {
        "line": [
          "915 Gordon Ave"
        ],
        "city": "THOMASVILLE",
        "state": "GA",
        "postalCode": "31792-6614"
      },
      {
        "line": [
          "2 Choke Cherry Rd",
          "Suite 125"
        ],
        "city": "ROCKVILLE",
        "state": "MD",
        "postalCode": "20850-1150"
      },
      {
        "line": [
          "5018 Dorsey Hall Drive",
          "Suite 104"
        ],
        "city": "ELLICOTT CITY",
        "state": "MD",
        "postalCode": "21042-7856"
      },
      {
        "line": [
          "2227 Idlewood Rd"
        ],
        "city": "ARLINGTON",
        "state": "VA",
        "postalCode": "22203-1824"
      },
      {
        "line": [
          "23920 Katy Freeway",
          "STE 200"
        ],
        "city": "KATY",
        "state": "TX",
        "postalCode": "77494-0881"
      },
      {
        "line": [
          "8 Baltimore Rd"
        ],
        "city": "ROCKVILLE",
        "state": "MD",
        "postalCode": "20850-4604"
      },
      {
        "line": [
          "1860 Amherst Street"
        ],
        "city": "WINCHESTER",
        "state": "VA",
        "postalCode": "22601-2808"
      },
      {
        "line": [
          "1403 Medical Plaza Drive"
        ],
        "city": "SANFORD",
        "state": "FL",
        "postalCode": "32771-1000"
      },
      {
        "line": [
          "1301 Pennsylvania Ave"
        ],
        "city": "FORT WORTH",
        "state": "TX",
        "postalCode": "76104-2122"
      },
      {
        "line": [
          "18300 Houston Methodist Dr"
        ],
        "city": "HOUSTON",
        "state": "TX",
        "postalCode": "77058-6302"
      },
      {
        "line": [
          "10260 N Central EXPY",
          "STE 100N"
        ],
        "city": "DALLAS",
        "state": "TX",
        "postalCode": "75231-3437"
      },
      {
        "line": [
          "6800 Scenic Dr."
        ],
        "city": "ROWLETT",
        "state": "TX",
        "postalCode": "75088-4552"
      },
      {
        "line": [
          "7601 Lewinsville Rd",
          "Suite 440"
        ],
        "city": "MC LEAN",
        "state": "VA",
        "postalCode": "22102-2834"
      },
      {
        "line": [
          "2355 Vidina Drive"
        ],
        "city": "MELBOURNE",
        "state": "FL",
        "postalCode": "32940-7698"
      },
      {
        "line": [
          "929 GESSNER RD"
        ],
        "city": "HOUSTON",
        "state": "TX",
        "postalCode": "77024-2515"
      },
      {
        "line": [
          " Stone Springs Blvd"
        ],
        "city": "DULLES",
        "state": "VA",
        "postalCode": "20166-2247"
      },
      {
        "line": [
          "701 West Cocoa Beach Cswy"
        ],
        "city": "COCOA BEACH",
        "state": "FL",
        "postalCode": "32931-3585"
      },
      {
        "line": [
          "7667 Woodway Dr."
        ],
        "city": "HOUSTON",
        "state": "TX",
        "postalCode": "77063-1540"
      },
      {
        "line": [
          "2 BERNARDINE DRIVE"
        ],
        "city": "ARLINGTON",
        "state": "VA",
        "postalCode": "22203-1824"
      },
      {
        "line": [
          "117 Vision Park Boulevard"
        ],
        "city": "Shenandoah",
        "state": "TX",
        "postalCode": "77384-3001"
      },
      {
        "line": [
          "9981 S HealthPark Dr"
        ],
        "city": "FORT MYERS",
        "state": "FL",
        "postalCode": "33908-3618"
      },
      {
        "line": [
          "1626 West Baker Rd"
        ],
        "city": "BAYTOWN",
        "state": "TX",
        "postalCode": "77521-2271"
      },
      {
        "line": [
          "6711 Laroche Avenue"
        ],
        "city": "SAVANNAH",
        "state": "GA",
        "postalCode": "31406-2226"
      },
      {
        "line": [
          "700 Scott & White Dr"
        ],
        "city": "COLLEGE STATION",
        "state": "TX",
        "postalCode": "77845-6441"
      },
      {
        "line": [
          "3599 Joseph Siewick Dr"
        ],
        "city": "FAIRFAX",
        "state": "VA",
        "postalCode": "22033-1708"
      },
      {
        "line": [
          "0",
          "0"
        ],
        "city": "ARLINGTON",
        "state": "VA",
        "postalCode": "22203-1824"
      },
      {
        "line": [
          "1500 East Shotwell Street"
        ],
        "city": "BAINBRIDGE",
        "state": "GA",
        "postalCode": "39819-4256"
      },
      {
        "line": [
          "5510 PRESIDIO PARKWAY",
          "SUITE 100"
        ],
        "city": "SAN ANTONIO",
        "state": "TX",
        "postalCode": "78249-3192"
      },
      {
        "line": [
          "1150 Northwest Dr"
        ],
        "city": "CHARLOTTESVILLE",
        "state": "VA",
        "postalCode": "22901-2309"
      },
      {
        "line": [
          "2401 Atherholt Rd"
        ],
        "city": "LYNCHBURG",
        "state": "VA",
        "postalCode": "24501-2184"
      },
      {
        "line": [
          "601 E Rollins Street"
        ],
        "city": "ORLANDO",
        "state": "FL",
        "postalCode": "32803-1248"
      },
      {
        "line": [
          "2635 Riva RD",
          "STE 118"
        ],
        "city": "ANNAPOLIS",
        "state": "MD",
        "postalCode": "21401-7430"
      },
      {
        "line": [
          "1241 Boundary Street",
          "PO BOX 946"
        ],
        "city": "FAIRFAX",
        "state": "SC",
        "postalCode": "29827-3611"
      },
      {
        "line": [
          "5812 Little Falls Rd NW"
        ],
        "city": "WASHINGTON",
        "state": "DC",
        "postalCode": "20016-2600"
      },
      {
        "line": [
          "3600 Joseph Siewick Dr"
        ],
        "city": "FAIRFAX",
        "state": "VA",
        "postalCode": "22033-5053"
      },
      {
        "line": [
          "20823 Park Row Drive",
          "SUITE A"
        ],
        "city": "KATY",
        "state": "TX",
        "postalCode": "77449-5015"
      },
      {
        "line": [
          "5303 Montgomery Street"
        ],
        "city": "SAVANNAH",
        "state": "GA",
        "postalCode": "31405-5138"
      },
      {
        "line": [
          "16655 SOUTHWEST FWY"
        ],
        "city": "SUGAR LAND",
        "state": "TX",
        "postalCode": "77479-2329"
      },
      {
        "line": [
          "355 WILLIAM MILLS DR"
        ],
        "city": "STANARDSVILLE",
        "state": "VA",
        "postalCode": "22973-3055"
      },
      {
        "line": [
          "Midha"
        ],
        "city": "ARLINGTON",
        "state": "VA",
        "postalCode": "22204-1824"
      },
      {
        "line": [
          "20180 Chasewood Park Drive"
        ],
        "city": "HOUSTON",
        "state": "TX",
        "postalCode": "77070-1436"
      },
      {
        "line": [
          "46396 Benedict Drive",
          "Suite 100"
        ],
        "city": "STERLING",
        "state": "VA",
        "postalCode": "20164-6626"
      },
      {
        "line": [
          "1000 Dorset Road"
        ],
        "city": "PORT WENTWORTH",
        "state": "GA",
        "postalCode": "31407-1517"
      },
      {
        "line": [
          "100 Professional Park",
          "Suite 201"
        ],
        "city": "CARROLLTON",
        "state": "GA",
        "postalCode": "30117-3802"
      },
      {
        "line": [
          "1860 Town Center Drive"
        ],
        "city": "RESTON",
        "state": "VA",
        "postalCode": "20190-3219"
      },
      {
        "line": [
          "2001 North Jefferson Avenue"
        ],
        "city": "MOUNT PLEASANT",
        "state": "TX",
        "postalCode": "75455-2338"
      },
      {
        "line": [
          "765 W Nasa Blvd"
        ],
        "city": "MELBOURNE",
        "state": "FL",
        "postalCode": "32901-1815"
      },
      {
        "line": [
          "12141 Richmond Avenue"
        ],
        "city": "HOUSTON",
        "state": "TX",
        "postalCode": "77082-2408"
      },
      {
        "line": [
          "25 Hospital Center Boulevard"
        ],
        "city": "HILTON HEAD ISLAND",
        "state": "SC",
        "postalCode": "29926-2738"
      },
      {
        "line": [
          "1500 Forest Glenn Road"
        ],
        "city": "SILVER SPRING",
        "state": "MD",
        "postalCode": "20910-1460"
      },
      {
        "line": [
          "2001 Medical Pkwy"
        ],
        "city": "ANNAPOLIS",
        "state": "MD",
        "postalCode": "21401-3773"
      },
      {
        "line": [
          "1201 West 38TH Street"
        ],
        "city": "AUSTIN",
        "state": "TX",
        "postalCode": "78705-1006"
      },
      {
        "line": [
          "5329 Serene Hill Drive"
        ],
        "city": "LAKEWAY",
        "state": "TX",
        "postalCode": "78738-1256"
      },
      {
        "line": [
          "604 Towne Park Loop"
        ],
        "city": "RINCON",
        "state": "GA",
        "postalCode": "31326-5180"
      },
      {
        "line": [
          "9250 Pinecroft"
        ],
        "city": "The Woodlands",
        "state": "TX",
        "postalCode": "77380-3218"
      },
      {
        "line": [
          "400 E Sheridan Road"
        ],
        "city": "MELBOURNE",
        "state": "FL",
        "postalCode": "32901-3184"
      },
      {
        "line": [
          "18300 HOUSTON METHODIST DR"
        ],
        "city": "HOUSTON",
        "state": "TX",
        "postalCode": "77058-6302"
      },
      {
        "line": [
          "355 Brandywine Blvd"
        ],
        "city": "FAYETTEVILLE",
        "state": "GA",
        "postalCode": "30214-1564"
      },
      {
        "line": [
          "5601 Warren Parkway"
        ],
        "city": "FRISCO",
        "state": "TX",
        "postalCode": "75034-4069"
      },
      {
        "line": [
          "7600 N Capital of Texas Hwy"
        ],
        "city": "AUSTIN",
        "state": "TX",
        "postalCode": "78713-1184"
      },
      {
        "line": [
          "9250 Pinecroft DR"
        ],
        "city": "The Woodlands",
        "state": "TX",
        "postalCode": "77380-3218"
      },
      {
        "line": [
          "Henley"
        ],
        "city": "ARLINGTON",
        "state": "VA",
        "postalCode": "22203-1824"
      },
      {
        "line": [
          "16062 Southwest Freeway Sugarland"
        ],
        "city": "SUGAR LAND",
        "state": "TX",
        "postalCode": "77479-2659"
      },
      {
        "line": [
          "541 Sunset Lane"
        ],
        "city": "CULPEPER",
        "state": "VA",
        "postalCode": "22701-3912"
      },
      {
        "line": [
          "301 St Paul Place"
        ],
        "city": "BALTIMORE",
        "state": "MD",
        "postalCode": "21202-2147"
      },
      {
        "line": [
          "8200 Walnut Hill Ln"
        ],
        "city": "DALLAS",
        "state": "TX",
        "postalCode": "75231-4426"
      },
      {
        "line": [
          "15225 Heathcote Blvd"
        ],
        "city": "HAYMARKET",
        "state": "VA",
        "postalCode": "20169-6264"
      },
      {
        "line": [
          "900 N Taylor St"
        ],
        "city": "ARLINGTON",
        "state": "VA",
        "postalCode": "22203-1858"
      },
      {
        "line": [
          "3011 Roundelay Road"
        ],
        "city": "LYNCHBURG",
        "state": "VA",
        "postalCode": "24502-2036"
      },
      {
        "line": [
          "12825 White Bluff Road"
        ],
        "city": "SAVANNAH",
        "state": "GA",
        "postalCode": "31419-2993"
      },
      {
        "line": [
          "231 West Montgomery Crossroads"
        ],
        "city": "SAVANNAH",
        "state": "GA",
        "postalCode": "31406-7189"
      },
      {
        "line": [
          "1851 Town Center Pkwy"
        ],
        "city": "RESTON",
        "state": "VA",
        "postalCode": "20190-3204"
      },
      {
        "line": [
          "8050 Spyglass Hill Rd"
        ],
        "city": "MELBOURNE",
        "state": "FL",
        "postalCode": "32940-7983"
      },
      {
        "line": [
          "600 Elmwood Avenue"
        ],
        "city": "LYNCHBURG",
        "state": "VA",
        "postalCode": "24503-4414"
      },
      {
        "line": [
          "2081 Langhorne Road"
        ],
        "city": "LYNCHBURG",
        "state": "VA",
        "postalCode": "24501-1443"
      },
      {
        "line": [
          "2201 South Clear Creek Road"
        ],
        "city": "KILLEEN",
        "state": "TX",
        "postalCode": "76549-4110"
      },
      {
        "line": [
          "24560 Southpoint DR",
          "STE 320"
        ],
        "city": "ALDIE",
        "state": "VA",
        "postalCode": "20105-3510"
      },
      {
        "line": [
          "1583 Common street",
          "Suite 105"
        ],
        "city": "NEW BRAUNFELS",
        "state": "TX",
        "postalCode": "78130-3321"
      },
      {
        "line": [
          "2831 E PRESIDENT GEORGE BUSH HWY"
        ],
        "city": "RICHARDSON",
        "state": "TX",
        "postalCode": "75082-3561"
      },
      {
        "line": [
          "10005 S Main St"
        ],
        "city": "HOUSTON",
        "state": "TX",
        "postalCode": "77025-5209"
      },
      {
        "line": [
          "Tcfm"
        ],
        "city": "ARLINGTON",
        "state": "VA",
        "postalCode": "22203-1824"
      },
      {
        "line": [
          "19801 Observation Drive"
        ],
        "city": "GERMANTOWN",
        "state": "MD",
        "postalCode": "20876-4070"
      },
      {
        "line": [
          "1475 Farm to Market 1960 Bypass Road East"
        ],
        "city": "HUMBLE",
        "state": "TX",
        "postalCode": "77338-3909"
      },
      {
        "line": [
          "2801 Franciscan Dr"
        ],
        "city": "BRYAN",
        "state": "TX",
        "postalCode": "77802-2544"
      },
      {
        "line": [
          "345 St Paul Pl"
        ],
        "city": "BALTIMORE",
        "state": "MD",
        "postalCode": "21202-2123"
      },
      {
        "line": [
          "5955 Harbour Park Drive"
        ],
        "city": "ARLINGTON",
        "state": "VA",
        "postalCode": "22203-1824"
      },
      {
        "line": [
          "17183 I-45 S Ste 360"
        ],
        "city": "The Woodlands",
        "state": "TX",
        "postalCode": "77385-3313"
      },
      {
        "line": [
          "240 Riverside Drive"
        ],
        "city": "BASSETT",
        "state": "VA",
        "postalCode": "24055-4257"
      },
      {
        "line": [
          "1701 N. George Mason Dr."
        ],
        "city": "ARLINGTON",
        "state": "VA",
        "postalCode": "22205-3698"
      },
      {
        "line": [
          "6701 N Charles Street"
        ],
        "city": "TOWSON",
        "state": "MD",
        "postalCode": "21204-6808"
      },
      {
        "line": [
          "930 S Broad St."
        ],
        "city": "THOMASVILLE",
        "state": "GA",
        "postalCode": "31792-6195"
      },
      {
        "line": [
          "1631 Goron Hwy",
          "Suite 1B"
        ],
        "city": "AUGUSTA",
        "state": "GA",
        "postalCode": "30906-2221"
      },
      {
        "line": [
          "950 N. Glebe Rd"
        ],
        "city": "ARLINGTON",
        "state": "VA",
        "postalCode": "22203-1824"
      },
      {
        "line": [
          "1350 HICKORY ST"
        ],
        "city": "MELBOURNE",
        "state": "FL",
        "postalCode": "32901-3224"
      },
      {
        "line": [
          "1100 RIVES RD"
        ],
        "city": "MARTINSVILLE",
        "state": "VA",
        "postalCode": "24112-5104"
      },
      {
        "line": [
          "1350 South Hickory Street"
        ],
        "city": "MELBOURNE",
        "state": "FL",
        "postalCode": "32901-3224"
      },
      {
        "line": [
          "123 WEST"
        ],
        "city": "ARLINGTON",
        "state": "VA",
        "postalCode": "22203-1824"
      },
      {
        "line": [
          "5405 Babcock Street NE"
        ],
        "city": "PALM BAY",
        "state": "FL",
        "postalCode": "32905-5020"
      },
      {
        "line": [
          "8535 Highway One"
        ],
        "city": "SOUTH HILL",
        "state": "VA",
        "postalCode": "23970-5713"
      },
      {
        "line": [
          "7800 North Stadium Drive,"
        ],
        "city": "HOUSTON",
        "state": "TX",
        "postalCode": "77030-4442"
      },
      {
        "line": [
          "343 Price ST"
        ],
        "city": "STATHAM",
        "state": "GA",
        "postalCode": "30666-1648"
      },
      {
        "line": [
          "407 N Washington Street"
        ],
        "city": "ARLINGTON",
        "state": "VA",
        "postalCode": "22203-1824"
      },
      {
        "line": [
          "3300 Fiske Boulevard"
        ],
        "city": "ROCKLEDGE",
        "state": "FL",
        "postalCode": "32955-4306"
      },
      {
        "line": [
          "17080 Red Oak Drive"
        ],
        "city": "HOUSTON",
        "state": "TX",
        "postalCode": "77090-2602"
      },
      {
        "line": [
          "1860 Town Center Drive",
          "Suite G100"
        ],
        "city": "RESTON",
        "state": "VA",
        "postalCode": "20190-5897"
      },
      {
        "line": [
          "3300 Gallows RD"
        ],
        "city": "FALLS CHURCH",
        "state": "VA",
        "postalCode": "22042-3300"
      },
      {
        "line": [
          "3490 Gran Avenue"
        ],
        "city": "PALM BAY",
        "state": "FL",
        "postalCode": "32905-6044"
      },
      {
        "line": [
          "7600 Fannin St."
        ],
        "city": "ARLINGTON",
        "state": "VA",
        "postalCode": "22203-1824"
      },
      {
        "line": [
          "77 Van Horne Street"
        ],
        "city": "TYBEE ISLAND",
        "state": "GA",
        "postalCode": "31328-9726"
      },
      {
        "line": [
          "320 HOSPITAL DRIVE"
        ],
        "city": "MARTINSVILLE",
        "state": "VA",
        "postalCode": "24112-1900"
      },
      {
        "line": [
          "7600 Carroll Avenue"
        ],
        "city": "TAKOMA PARK",
        "state": "MD",
        "postalCode": "20912-6392"
      },
      {
        "line": [
          "4901 Connecticut Ave."
        ],
        "city": "WASHINGTON",
        "state": "DC",
        "postalCode": "20008-2022"
      },
      {
        "line": [
          "8700 Sudley Rd."
        ],
        "city": "MANASSAS",
        "state": "VA",
        "postalCode": "20110-4754"
      },
      {
        "line": [
          "2041 Georgia Ave., NW"
        ],
        "city": "WASHINGTON",
        "state": "DC",
        "postalCode": "20060-0001"
      },
      {
        "line": [
          "17201 45 South"
        ],
        "city": "Shenandoah",
        "state": "TX",
        "postalCode": "77385-3111"
      },
      {
        "line": [
          "5743 Edmondson Ave"
        ],
        "city": "CATONSVILLE",
        "state": "MD",
        "postalCode": "21228-1926"
      },
      {
        "line": [
          "130 Lubrano Dr."
        ],
        "city": "ARLINGTON",
        "state": "VA",
        "postalCode": "22203-1824"
      },
      {
        "line": [
          "1475 Farm to Market 1960 Bypass Rd E"
        ],
        "city": "HUMBLE",
        "state": "TX",
        "postalCode": "77338-3909"
      },
      {
        "line": [
          "4608 Jimmy Carter Blvd"
        ],
        "city": "NORCROSS",
        "state": "GA",
        "postalCode": "30093-3758"
      },
      {
        "line": [
          "9250 Pinecroft"
        ],
        "city": "THE WOODLANDS",
        "state": "TX",
        "postalCode": "77380-3218"
      },
      {
        "line": [
          "951 N Washington Avenue"
        ],
        "city": "TITUSVILLE",
        "state": "FL",
        "postalCode": "32796-2163"
      },
      {
        "line": [
          "7120 Braddock Rd"
        ],
        "city": "ANNANDALE",
        "state": "VA",
        "postalCode": "22003-6007"
      },
      {
        "line": [
          "2401 W Belvedere Ave"
        ],
        "city": "BALTIMORE",
        "state": "MD",
        "postalCode": "21215-5216"
      },
      {
        "line": [
          "1320 Enterprise Drive"
        ],
        "city": "LYNCHBURG",
        "state": "VA",
        "postalCode": "24502-5746"
      },
      {
        "line": [
          "7740 Gunston Plaza Drive"
        ],
        "city": "ARLINGTON",
        "state": "VA",
        "postalCode": "22203-1824"
      },
      {
        "line": [
          "3202 Tower Oaks Blvd Ste 100"
        ],
        "city": "ARLINGTON",
        "state": "VA",
        "postalCode": "22203-1824"
      },
      {
        "line": [
          "1901 Tate Springs Rd"
        ],
        "city": "LYNCHBURG",
        "state": "VA",
        "postalCode": "24501-1109"
      },
      {
        "line": [
          "7218 Crawford Road"
        ],
        "city": "ARGYLE",
        "state": "TX",
        "postalCode": "76226-2579"
      },
      {
        "line": [
          "921 Gessner Roaad"
        ],
        "city": "HOUSTON",
        "state": "TX",
        "postalCode": "77024-2501"
      },
      {
        "line": [
          "17510 West Grand Parkway South",
          "Suite 200"
        ],
        "city": "SUGAR LAND",
        "state": "TX",
        "postalCode": "77479-2647"
      },
      {
        "line": [
          "3601  Joseph Siewick Dr"
        ],
        "city": "FAIRFAX",
        "state": "VA",
        "postalCode": "22033-1708"
      },
      {
        "line": [
          "1050 Valdsota Highway"
        ],
        "city": "HOMERVILLE",
        "state": "GA",
        "postalCode": "31634-9701"
      },
      {
        "line": [
          "7900 Fannin Street",
          "Suite 4000"
        ],
        "city": "HOUSTON",
        "state": "TX",
        "postalCode": "77054-2934"
      },
      {
        "line": [
          "921 Gessner Road",
          "Houston"
        ],
        "city": "HOUSTON",
        "state": "TX",
        "postalCode": "77024-2501"
      },
      {
        "line": [
          "11270 Pepper RD"
        ],
        "city": "HUNT VALLEY",
        "state": "MD",
        "postalCode": "21031-1202"
      },
      {
        "line": [
          "5550 Tuckerman Lane"
        ],
        "city": "ROCKVILLE",
        "state": "MD",
        "postalCode": "20852-4683"
      },
      {
        "line": [
          "1201 W 38th Steet"
        ],
        "city": "AUSTIN",
        "state": "TX",
        "postalCode": "78705-1201"
      },
      {
        "line": [
          "7777 Forest Lane"
        ],
        "city": "DALLAS",
        "state": "TX",
        "postalCode": "75230-6868"
      },
      {
        "line": [
          "1525 N Rolling Rd"
        ],
        "city": "CATONSVILLE",
        "state": "MD",
        "postalCode": "21228-1100"
      },
      {
        "line": [
          "3039 Okatie Hwy"
        ],
        "city": "BLUFFTON",
        "state": "SC",
        "postalCode": "29910-5101"
      },
      {
        "line": [
          "950 N Glebe Rd.",
          "Suite 700"
        ],
        "city": "ARLINGTON",
        "state": "VA",
        "postalCode": "22203-1824"
      },
      {
        "line": [
          "2400 N, I-35E"
        ],
        "city": "WAXAHACHIE",
        "state": "TX",
        "postalCode": "75165-5240"
      },
      {
        "line": [
          "n/A"
        ],
        "city": "ARLINGTON",
        "state": "VA",
        "postalCode": "22203-1824"
      },
      {
        "line": [
          "10730 Main ST"
        ],
        "city": "FAIRFAX",
        "state": "VA",
        "postalCode": "22030-3704"
      },
      {
        "line": [
          "2040 Colonial Drive"
        ],
        "city": "SAVANNAH",
        "state": "GA",
        "postalCode": "31408-2226"
      },
      {
        "line": [
          "950 NORTH GLEBE RD"
        ],
        "city": "ARLINGTON",
        "state": "VA",
        "postalCode": "22203-1824"
      },
      {
        "line": [
          "2800 Polo Parkway"
        ],
        "city": "MIDLOTHIAN",
        "state": "VA",
        "postalCode": "23113-1454"
      },
      {
        "line": [
          "4200 Twelve Oaks Pl"
        ],
        "city": "HOUSTON",
        "state": "TX",
        "postalCode": "77027-6812"
      },
      {
        "line": [
          "300 Kingwood Medical Drive"
        ],
        "city": "KINGWOOD",
        "state": "TX",
        "postalCode": "77339-6400"
      },
      {
        "line": [
          "3200 Tower Oaks Blvd",
          "Suite 100"
        ],
        "city": "ROCKVILLE",
        "state": "MD",
        "postalCode": "20852-4273"
      },
      {
        "line": [
          "SDP"
        ],
        "city": "ARLINGTON",
        "state": "VA",
        "postalCode": "22203-1824"
      },
      {
        "line": [
          "1850 Town Center Parkway"
        ],
        "city": "RESTON",
        "state": "VA",
        "postalCode": "20190-3298"
      },
      {
        "line": [
          "351 Wilmington Island Road"
        ],
        "city": "SAVANNAH",
        "state": "GA",
        "postalCode": "31410-3851"
      },
      {
        "line": [
          "1607 Spruce Street"
        ],
        "city": "MARTINSVILLE",
        "state": "VA",
        "postalCode": "24112-5437"
      },
      {
        "line": [
          "10005 South Main Street"
        ],
        "city": "HOUSTON",
        "state": "TX",
        "postalCode": "77025-5209"
      },
      {
        "line": [
          "21720 Kingsland Blvd",
          "Suite 101"
        ],
        "city": "KATY",
        "state": "TX",
        "postalCode": "77450-2551"
      },
      {
        "line": [
          "5707 Dawes Avenue"
        ],
        "city": "ALEXANDRIA",
        "state": "VA",
        "postalCode": "22311-1103"
      },
      {
        "line": [
          "3710 Lee Highway"
        ],
        "city": "ARLINGTON",
        "state": "VA",
        "postalCode": "22207-3599"
      },
      {
        "line": [
          "16750 Red Oak Dr"
        ],
        "city": "Houston",
        "state": "TX",
        "postalCode": "77090-2543"
      },
      {
        "line": [
          "6020 Richmond Hwy"
        ],
        "city": "ARLINGTON",
        "state": "VA",
        "postalCode": "22203-1824"
      },
      {
        "line": [
          "400 Celebration Place"
        ],
        "city": "CELEBRATION",
        "state": "FL",
        "postalCode": "34747-4970"
      },
      {
        "line": [
          "104 7th Street"
        ],
        "city": "BAY CITY",
        "state": "TX",
        "postalCode": "77414-4853"
      },
      {
        "line": [
          "1900 Lauderdale Dr"
        ],
        "city": "HENRICO",
        "state": "VA",
        "postalCode": "23238-3933"
      },
      {
        "line": [
          "815 S Voss Rd"
        ],
        "city": "HOUSTON",
        "state": "TX",
        "postalCode": "77057-1031"
      },
      {
        "line": [
          "701 King Farm Blvd"
        ],
        "city": "ROCKVILLE",
        "state": "MD",
        "postalCode": "20850-5728"
      },
      {
        "line": [
          "2377 Hwy 196  West"
        ],
        "city": "HINESVILLE",
        "state": "GA",
        "postalCode": "31313-8036"
      },
      {
        "line": [
          "600 NORTH WOLFE STREET"
        ],
        "city": "BALTIMORE",
        "state": "MD",
        "postalCode": "21287-3034"
      },
      {
        "line": [
          "3289 Woodburn Road",
          "Suite 100"
        ],
        "city": "ANNANDALE",
        "state": "VA",
        "postalCode": "22003-7343"
      },
      {
        "line": [
          "16655 Southwest Freeway"
        ],
        "city": "SUGAR LAND",
        "state": "TX",
        "postalCode": "77479-2329"
      },
      {
        "line": [
          "7600 Fannin St"
        ],
        "city": " Houston",
        "state": "TX",
        "postalCode": "77054-1906"
      },
      {
        "line": [
          "5353 Reynolds Street",
          "4 South"
        ],
        "city": "SAVANNAH",
        "state": "GA",
        "postalCode": "31405-6015"
      },
      {
        "line": [
          "950 N. Glebe Rd., Suite 4000"
        ],
        "city": "ARLINGTON",
        "state": "VA",
        "postalCode": "22203-1824"
      },
      {
        "line": [
          "343 Archer Ave"
        ],
        "city": "CHARLOTTESVILLE",
        "state": "VA",
        "postalCode": "22911-5619"
      },
      {
        "line": [
          "8000 Eldorado Parkway"
        ],
        "city": "MCKINNEY",
        "state": "TX",
        "postalCode": "75070-4136"
      },
      {
        "line": [
          "1460 E Victory Drive"
        ],
        "city": "SAVANNAH",
        "state": "GA",
        "postalCode": "31404-4108"
      },
      {
        "line": [
          "200 Blossom St"
        ],
        "city": "WEBSTER",
        "state": "TX",
        "postalCode": "77598-4204"
      },
      {
        "line": [
          "950 Glebe Rd"
        ],
        "city": "ARLINGTON",
        "state": "VA",
        "postalCode": "22203-1824"
      },
      {
        "line": [
          "725 N Central Ave"
        ],
        "city": "ARLINGTON",
        "state": "VA",
        "postalCode": "22203-1824"
      },
      {
        "line": [
          "0"
        ],
        "city": "BETHESDA",
        "state": "MD",
        "postalCode": "20814-6512"
      },
      {
        "line": [
          "1900 North Loop W"
        ],
        "city": "HOUSTON",
        "state": "TX",
        "postalCode": "77018-8100"
      },
      {
        "line": [
          "210 GULF FWY"
        ],
        "city": "TEXAS CITY",
        "state": "TX",
        "postalCode": "77591-2819"
      },
      {
        "line": [
          "201 Lillian Lane"
        ],
        "city": "LYNCHBURG",
        "state": "VA",
        "postalCode": "24502-4379"
      },
      {
        "line": [
          "1223 Gateway Dr."
        ],
        "city": "MELBOURNE",
        "state": "FL",
        "postalCode": "32901-2607"
      },
      {
        "line": [
          "3450 Old Washington Road"
        ],
        "city": "ARLINGTON",
        "state": "VA",
        "postalCode": "22203-1824"
      },
      {
        "line": [
          "736 BATTLEFIELD BLVD NORTH"
        ],
        "city": "CHESAPEAKE",
        "state": "VA",
        "postalCode": "23320-4941"
      },
      {
        "line": [
          "10851 Crescent Moon Dr"
        ],
        "city": "HOUSTON",
        "state": "TX",
        "postalCode": "77064-4020"
      },
      {
        "line": [
          "101 E Florida Drive"
        ],
        "city": "MELBOURNE",
        "state": "FL",
        "postalCode": "32901-8301"
      },
      {
        "line": [
          "6701 N. Charles St."
        ],
        "city": "TOWSON",
        "state": "MD",
        "postalCode": "21204-6808"
      },
      {
        "line": [
          "44045 Riverside PKWY"
        ],
        "city": "LEESBURG",
        "state": "VA",
        "postalCode": "20176-5101"
      },
      {
        "line": [
          "400 W. 7th Street"
        ],
        "city": "FREDERICK",
        "state": "MD",
        "postalCode": "21701-4506"
      },
      {
        "line": [
          "7600 Carroll Ave"
        ],
        "city": "WASHINGTON",
        "state": "DC",
        "postalCode": "20010-3017"
      },
      {
        "line": [
          "3600 Joseph Siewick Dr."
        ],
        "city": "FAIRFAX",
        "state": "VA",
        "postalCode": "22033-5053"
      },
      {
        "line": [
          "18220 State Highway 249",
          "Suite 100"
        ],
        "city": "HOUSTON",
        "state": "TX",
        "postalCode": "77070-4349"
      },
      {
        "line": [
          "27800 NORTHWEST FWY"
        ],
        "city": "CYPRESS",
        "state": "TX",
        "postalCode": "77433-5302"
      },
      {
        "line": [
          "4800 Federal Plaza Drive"
        ],
        "city": "HOUSTON",
        "state": "TX",
        "postalCode": "77092-1704"
      },
      {
        "line": [
          "19490 Sandridge Way",
          "Suite 140"
        ],
        "city": "LEESBURG",
        "state": "VA",
        "postalCode": "20176-4367"
      },
      {
        "line": [
          "200 Rockaway Road"
        ],
        "city": "PEACHTREE CITY",
        "state": "GA",
        "postalCode": "30269-2034"
      },
      {
        "line": [
          "1701 North George Mason Drive"
        ],
        "city": "ARLINGTON",
        "state": "VA",
        "postalCode": "22205-3610"
      },
      {
        "line": [
          "24429 Tomball Pkwy"
        ],
        "city": "TOMBALL",
        "state": "TX",
        "postalCode": "77375-3700"
      },
      {
        "line": [
          "1113 Mary Drive"
        ],
        "city": "OAKLAND",
        "state": "MD",
        "postalCode": "21550-1428"
      },
      {
        "line": [
          "9250 PINECROFT"
        ],
        "city": "SPRING",
        "state": "TX",
        "postalCode": "77380-3218"
      },
      {
        "line": [
          "8391 Old Courthouse",
          "Unit 160"
        ],
        "city": "VIENNA",
        "state": "VA",
        "postalCode": "22182-3819"
      },
      {
        "line": [
          "950 N. Glebe"
        ],
        "city": "ARLINGTON",
        "state": "VA",
        "postalCode": "22203-1824"
      },
      {
        "line": [
          "44035 Riverside Parkway",
          "Suite 200"
        ],
        "city": "LEESBURG",
        "state": "VA",
        "postalCode": "20176-8260"
      },
      {
        "line": [
          "700 East Marshall Avenue"
        ],
        "city": "LONGVIEW",
        "state": "TX",
        "postalCode": "75601-5580"
      },
      {
        "line": [
          "112 Weathersbee Drive"
        ],
        "city": "RIDGELAND",
        "state": "SC",
        "postalCode": "29936-9514"
      },
      {
        "line": [
          "18220 State Highway 249"
        ],
        "city": "HOUSTON",
        "state": "TX",
        "postalCode": "77070-4347"
      },
      {
        "line": [
          "3750 Joseph Siewick Drive"
        ],
        "city": "FAIRFAX",
        "state": "VA",
        "postalCode": "22033-1742"
      },
      {
        "line": [
          "950 N Glebe"
        ],
        "city": "ANNANDALE",
        "state": "VA",
        "postalCode": "22003-1824"
      },
      {
        "line": [
          "135 Bunton Creek Road"
        ],
        "city": "KYLE",
        "state": "TX",
        "postalCode": "78640-5787"
      },
      {
        "line": [
          "4 Taft Court"
        ],
        "city": "ROCKVILLE",
        "state": "MD",
        "postalCode": "20850-5310"
      },
      {
        "line": [
          "125 Alma Blvd"
        ],
        "city": "MERRITT ISLAND",
        "state": "FL",
        "postalCode": "32953-4345"
      },
      {
        "line": [
          "1 Peachtree Drive"
        ],
        "city": "SAVANNAH",
        "state": "GA",
        "postalCode": "31419-1200"
      },
      {
        "line": [
          "23450 Via Coconut Point"
        ],
        "city": "ESTERO",
        "state": "FL",
        "postalCode": "33928-1877"
      },
      {
        "line": [
          "3901 West, 15th Street"
        ],
        "city": "PLANO",
        "state": "TX",
        "postalCode": "75075-7738"
      },
      {
        "line": [
          "2125 W New Haven Avenue"
        ],
        "city": "MELBOURNE",
        "state": "FL",
        "postalCode": "32904-3803"
      },
      {
        "line": [
          "4251 Stack Boulevard"
        ],
        "city": "MELBOURNE",
        "state": "FL",
        "postalCode": "32901-8526"
      },
      {
        "line": [
          "6720B Rockledge Drive",
          "Suite 500"
        ],
        "city": "BETHESDA",
        "state": "MD",
        "postalCode": "20817-1885"
      },
      {
        "line": [
          "200 North Lakemont Avenue"
        ],
        "city": "WINTER PARK",
        "state": "FL",
        "postalCode": "32792-3273"
      },
      {
        "line": [
          "2710 Prosperity Avenue",
          "Suite 150"
        ],
        "city": "FAIRFAX",
        "state": "VA",
        "postalCode": "22031-4320"
      },
      {
        "line": [
          "6400 Goldsboro Road",
          "Suite 400"
        ],
        "city": "BETHESDA",
        "state": "MD",
        "postalCode": "20817-5846"
      },
      {
        "line": [
          "1305 Hickory ST"
        ],
        "city": "MELBOURNE",
        "state": "FL",
        "postalCode": "32901-3223"
      },
      {
        "line": [
          "350 Kings Way Rd"
        ],
        "city": "MARTINSVILLE",
        "state": "VA",
        "postalCode": "24112-6631"
      },
      {
        "line": [
          "950 North Glebe Road"
        ],
        "city": "ARLINGTON",
        "state": "VA",
        "postalCode": "22203-1824"
      },
      {
        "line": [
          "112 Hill Pond Ln"
        ],
        "city": "STATESBORO",
        "state": "GA",
        "postalCode": "30458-0872"
      },
      {
        "line": [
          "600 GRESHAM DRIVE"
        ],
        "city": "NORFOLK",
        "state": "VA",
        "postalCode": "23507-1904"
      },
      {
        "line": [
          "235 Evergreen Ave"
        ],
        "city": "APPOMATTOX",
        "state": "VA",
        "postalCode": "24522-8721"
      },
      {
        "line": [
          "6001 Kyle Parkway"
        ],
        "city": "KYLE",
        "state": "TX",
        "postalCode": "78640-6112"
      },
      {
        "line": [
          "5801 Bremo Rd"
        ],
        "city": "RICHMOND",
        "state": "VA",
        "postalCode": "23226-1907"
      },
      {
        "line": [
          "27800 Northwest Freeway"
        ],
        "city": "CYPRESS",
        "state": "TX",
        "postalCode": "77433-5302"
      },
      {
        "line": [
          "1317 Lake Pointe Pkwy"
        ],
        "city": "SUGAR LAND",
        "state": "TX",
        "postalCode": "77479-3997"
      },
      {
        "line": [
          "2722 North Decatur Rd."
        ],
        "city": "DECATUR",
        "state": "GA",
        "postalCode": "30033-5910"
      },
      {
        "line": [
          "200 North  Lakemont Avenue"
        ],
        "city": "WINTER PARK",
        "state": "FL",
        "postalCode": "32792-3273"
      },
      {
        "line": [
          "500 Crockett Blvd"
        ],
        "city": "MELBOURNE",
        "state": "FL",
        "postalCode": "32901-8205"
      },
      {
        "line": [
          "825 W YELLOWJACKET LN",
          "Suite 211"
        ],
        "city": "ROCKWALL",
        "state": "TX",
        "postalCode": "75087-4818"
      },
      {
        "line": [
          "8745 N Wickham RD"
        ],
        "city": "MELBOURNE",
        "state": "FL",
        "postalCode": "32940-5997"
      },
      {
        "line": [
          "24440 Stone Springs Blvd"
        ],
        "city": "DULLES",
        "state": "VA",
        "postalCode": "20166-2247"
      },
      {
        "line": [
          "1860 Town Center Dr",
          "Ste G100"
        ],
        "city": "RESTON",
        "state": "VA",
        "postalCode": "20190-3219"
      },
      {
        "line": [
          "5454 WISCONSIN AVENUE",
          "SUITE 1335"
        ],
        "city": "CHEVY CHASE",
        "state": "MD",
        "postalCode": "20815-6955"
      },
      {
        "line": [
          "300 Woodhaven Drive"
        ],
        "city": "HILTON HEAD ISLAND",
        "state": "SC",
        "postalCode": "29928-7511"
      },
      {
        "line": [
          "1910 Dorothy Street"
        ],
        "city": "WAYCROSS",
        "state": "GA",
        "postalCode": "31501-7636"
      },
      {
        "line": [
          "7930 Floyd Curl Drive"
        ],
        "city": "SAN ANTONIO",
        "state": "TX",
        "postalCode": "78229-3925"
      },
      {
        "line": [
          "1000 Johnson Ferry Rd NE"
        ],
        "city": "ATLANTA",
        "state": "GA",
        "postalCode": "30342-1606"
      },
      {
        "line": [
          "11100 Shadow Creek Parkway"
        ],
        "city": "PEARLAND",
        "state": "TX",
        "postalCode": "77584-7285"
      },
      {
        "line": [
          "6400 Fannin St",
          "Ste 500"
        ],
        "city": "HOUSTON",
        "state": "TX",
        "postalCode": "77030-1501"
      },
      {
        "line": [
          "peet"
        ],
        "city": "ARLINGTON",
        "state": "VA",
        "postalCode": "22203-1824"
      },
      {
        "line": [
          "1901 Tate Springs Road"
        ],
        "city": "LYNCHBURG",
        "state": "VA",
        "postalCode": "24501-1109"
      },
      {
        "line": [
          "12825 MINNIEVILLE ROAD",
          "Suite 204"
        ],
        "city": "WOODBRIDGE",
        "state": "VA",
        "postalCode": "22192-3602"
      },
      {
        "line": [
          "9901 Medical Center Dr."
        ],
        "city": "ROCKVILLE",
        "state": "MD",
        "postalCode": "20850-3357"
      },
      {
        "line": [
          "25450 KUYKENDAHL RD"
        ],
        "city": "TOMBALL",
        "state": "TX",
        "postalCode": "77375-3437"
      },
      {
        "line": [
          "113 Minus Avenue"
        ],
        "city": "GARDEN CITY",
        "state": "GA",
        "postalCode": "31408-2119"
      },
      {
        "line": [
          "12401 Gayton Rd"
        ],
        "city": "HENRICO",
        "state": "VA",
        "postalCode": "23238-2291"
      },
      {
        "line": [
          "3300 Rivermont Avenue"
        ],
        "city": "LYNCHBURG",
        "state": "VA",
        "postalCode": "24503-2030"
      },
      {
        "line": [
          "6300 W Parker Rd"
        ],
        "city": "PLANO",
        "state": "TX",
        "postalCode": "75093-8100"
      },
      {
        "line": [
          "5191 Babcock St NE"
        ],
        "city": "PALM BAY",
        "state": "FL",
        "postalCode": "32905-4610"
      },
      {
        "line": [
          "950 NORTH GLEBE RD",
          "Suite 4000"
        ],
        "city": "ARLINGTON",
        "state": "VA",
        "postalCode": "22203-1824"
      },
      {
        "line": [
          "3301 Spring Stuebner Road",
          "Suite 100"
        ],
        "city": "SPRING",
        "state": "TX",
        "postalCode": "77389-5195"
      },
      {
        "line": [
          "20171 Chasewood Park Drive"
        ],
        "city": "HOUSTON",
        "state": "TX",
        "postalCode": "77070-1437"
      },
      {
        "line": [
          "77 Van Horne Avenue"
        ],
        "city": "TYBEE ISLAND",
        "state": "GA",
        "postalCode": "31328-9726"
      },
      {
        "line": [
          "197 Thomas Johnson Drive"
        ],
        "city": "FREDERICK",
        "state": "MD",
        "postalCode": "21702-4314"
      },
      {
        "line": [
          "3301 Spring Stuebner RD",
          "STE 100"
        ],
        "city": "SPRING",
        "state": "TX",
        "postalCode": "77389-5195"
      },
      {
        "line": [
          "4601 Sheridan Street",
          "Suite 500"
        ],
        "city": "HOLLYWOOD",
        "state": "FL",
        "postalCode": "33021-3439"
      },
      {
        "line": [
          "21214 NORTHWEST FWY"
        ],
        "city": "CYPRESS",
        "state": "TX",
        "postalCode": "77429-2105"
      },
      {
        "line": [
          "3033 Pearland Pkwy"
        ],
        "city": "PEARLAND",
        "state": "TX",
        "postalCode": "77581-4162"
      },
      {
        "line": [
          "1611 South Freeway"
        ],
        "city": "ARLINGTON",
        "state": "VA",
        "postalCode": "22203-1824"
      },
      {
        "line": [
          "500 Martha Jefferson Drive",
          "Charlottesville"
        ],
        "city": "CHARLOTTESVILLE",
        "state": "VA",
        "postalCode": "22911-4668"
      },
      {
        "line": [
          "3661 South Babcock"
        ],
        "city": "MELBOURNE",
        "state": "FL",
        "postalCode": "32901-8205"
      },
      {
        "line": [
          "6430 Rockledge DR",
          "STE 160"
        ],
        "city": "BETHESDA",
        "state": "MD",
        "postalCode": "20817-1847"
      },
      {
        "line": [
          "1162 Ebenezer Church Road"
        ],
        "city": "RISING SUN",
        "state": "MD",
        "postalCode": "21911-2518"
      },
      {
        "line": [
          "950 n glebe",
          "100 Professional Park"
        ],
        "city": "ARLINGTON",
        "state": "VA",
        "postalCode": "22204-1824"
      },
      {
        "line": [
          "7410 Skidaway Road"
        ],
        "city": "SAVANNAH",
        "state": "GA",
        "postalCode": "31406-6446"
      },
      {
        "line": [
          "19455 Deerfield Ave"
        ],
        "city": "ARLINGTON",
        "state": "VA",
        "postalCode": "22203-1824"
      },
      {
        "line": [
          "1500 Grand Lake Drive"
        ],
        "city": "CONROE",
        "state": "TX",
        "postalCode": "77304-2891"
      },
      {
        "line": [
          "8600 Old Georgetown Road"
        ],
        "city": "BETHESDA",
        "state": "MD",
        "postalCode": "20814-1497"
      },
      {
        "line": [
          "1150 Varnum ST NE"
        ],
        "city": "WASHINGTON",
        "state": "DC",
        "postalCode": "20017-2104"
      },
      {
        "line": [
          "220 S Pantops Dr"
        ],
        "city": "CHARLOTTESVILLE",
        "state": "VA",
        "postalCode": "22911-8674"
      },
      {
        "line": [
          "20212 Leesville Road"
        ],
        "city": "LYNCHBURG",
        "state": "VA",
        "postalCode": "24502-3669"
      },
      {
        "line": [
          "6400 OAK CANYON"
        ],
        "city": "IRVINE",
        "state": "CA",
        "postalCode": "92618-5233"
      },
      {
        "line": [
          "1035 S Apollo Blvd"
        ],
        "city": "MELBOURNE",
        "state": "FL",
        "postalCode": "32901-1969"
      },
      {
        "line": [
          "8240 Devereux Dr Ste 100"
        ],
        "city": "MELBOURNE",
        "state": "FL",
        "postalCode": "32940-8200"
      },
      {
        "line": [
          "2501 North Orange Avenue",
          "Suite 439"
        ],
        "city": "ORLANDO",
        "state": "FL",
        "postalCode": "32804-4675"
      },
      {
        "line": [
          "1341 Blalock Rd"
        ],
        "city": "HOUSTON",
        "state": "TX",
        "postalCode": "77055-6427"
      },
      {
        "line": [
          "1800 Orleans Street"
        ],
        "city": "BALTIMORE",
        "state": "MD",
        "postalCode": "21287-0010"
      },
      {
        "line": [
          "930 S Broad St"
        ],
        "city": "THOMASVILLE",
        "state": "GA",
        "postalCode": "31792-6195"
      },
      {
        "line": [
          "2776 Cleveland Avenue"
        ],
        "city": "FORT MYERS",
        "state": "FL",
        "postalCode": "33901-5864"
      },
      {
        "line": [
          "1057 5th Street SE Cairo"
        ],
        "city": "CAIRO",
        "state": "GA",
        "postalCode": "39828-3140"
      },
      {
        "line": [
          "516 W Spotswood Trl"
        ],
        "city": "ELKTON",
        "state": "VA",
        "postalCode": "22827-1128"
      },
      {
        "line": [
          "5530 Wisconsin AVE",
          "STE 1620"
        ],
        "city": "CHEVY CHASE",
        "state": "MD",
        "postalCode": "20815-4322"
      },
      {
        "line": [
          "1240 Orange Rd."
        ],
        "city": "PRATTS",
        "state": "VA",
        "postalCode": "22731-3108"
      },
      {
        "line": [
          "606 Sheridan Rd"
        ],
        "city": "MELBOURNE",
        "state": "FL",
        "postalCode": "32901-3227"
      },
      {
        "line": [
          "25 Commerce Park Drive"
        ],
        "city": "RAPHINE",
        "state": "VA",
        "postalCode": "24472-2547"
      },
      {
        "line": [
          "950 N. Gleebe Rd"
        ],
        "city": "ARLINGTON",
        "state": "VA",
        "postalCode": "22203-1824"
      },
      {
        "line": [
          "215 Kingwood Executive Drive",
          "Suite 200"
        ],
        "city": "KINGWOOD",
        "state": "TX",
        "postalCode": "77339-2764"
      },
      {
        "line": [
          "12460 Brantley Commons Court,"
        ],
        "city": "FORT MYERS",
        "state": "FL",
        "postalCode": "33907-5685"
      },
      {
        "line": [
          "107 Seagrass Station Road"
        ],
        "city": "BLUFFTON",
        "state": "SC",
        "postalCode": "29910-9549"
      },
      {
        "line": [
          "1631 N Loop W",
          "Suite 300"
        ],
        "city": "HOUSTON",
        "state": "TX",
        "postalCode": "77008-1528"
      },
      {
        "line": [
          "1860 Town Center Drive #G100"
        ],
        "city": "RESTON",
        "state": "VA",
        "postalCode": "20190-3219"
      },
      {
        "line": [
          "15015 Cypress Woods Medical Drive"
        ],
        "city": "HOUSTON",
        "state": "TX",
        "postalCode": "77014-1461"
      },
      {
        "line": [
          "8305 Wisconsin Avenue"
        ],
        "city": "ARLINGTON",
        "state": "VA",
        "postalCode": "22203-1824"
      },
      {
        "line": [
          "10730 MAIN STREET"
        ],
        "city": "FAIRFAX",
        "state": "VA",
        "postalCode": "22030-3704"
      },
      {
        "line": [
          "6510 Seawright Drive"
        ],
        "city": "SAVANNAH",
        "state": "GA",
        "postalCode": "31406-2752"
      },
      {
        "line": [
          "676 FM 517 RD W"
        ],
        "city": "DICKINSON",
        "state": "TX",
        "postalCode": "77539-3904"
      },
      {
        "line": [
          "1550 Jess Parrish Ct"
        ],
        "city": "TITUSVILLE",
        "state": "FL",
        "postalCode": "32796-2147"
      },
      {
        "line": [
          "3700 Joseph Siewick Dr"
        ],
        "city": "FAIRFAX",
        "state": "VA",
        "postalCode": "22033-1744"
      },
      {
        "line": [
          "208 Gristmill Road"
        ],
        "city": "FOREST",
        "state": "VA",
        "postalCode": "24551-2604"
      }
    ],
    "extension": [
      {
        "url": "https://fhir.athena.io/StructureDefinition/ah-practice",
        "valueReference": {
          "reference": "Organization/a-1.Practice-8042"
        }
      },
      {
        "url": "https://fhir.athena.io/StructureDefinition/ah-brand",
        "valueReference": {
          "reference": "Organization/a-8042.Brand-1"
        }
      }
    ]
  },
  "fullUrl": "urn:uuid:40d9a15f-2429-5c5e-bc15-e6a8d3dedeae"
}