{
  "resource": {
    "resourceType": "Organization",
    "id": "f9edef81-443d-5bf0-8eb6-b05f617ddf70",
    "name": "Fresenius Medical Care Dialysis",
    "endpoint": [
      {
        "reference": "Endpoint/27a4e967-47aa-5a9c-a572-b8297ee268a2"
      },
      {
        "reference": "Endpoint/0f2721c3-85ca-5019-92ee-6d0b25be3743"
      }
    ],
    "identifier": [
      {
        "system": "http://hl7.org/fhir/sid/us-npi",
        "value": "1568858686"
      },
      {
        "system": "http://hl7.org/fhir/sid/us-npi",
        "value": "1942254347"
      }
    ],
    "address": [
      {
        "line": [
          "348 E Northfield Road"
        ],
        "city": "LIVINGSTON",
        "state": "NJ",
        "postalCode": "07039-4812"
      },
      {
        "line": [
          "55 MADISON AVE STE 170"
        ],
        "city": "MORRISTOWN",
        "state": "NJ",
        "postalCode": "07960-7337"
      },
      {
        "line": [
          "879 Rahway Ave"
        ],
        "city": "UNION",
        "state": "NJ",
        "postalCode": "07083-6633"
      },
      {
        "line": [
          "2130 Millburn ave"
        ],
        "city": "MAPLEWOOD",
        "state": "NJ",
        "postalCode": "07040-3725"
      },
      {
        "line": [
          "400 W Blackwell Street"
        ],
        "city": "DOVER",
        "state": "NJ",
        "postalCode": "07801-2525"
      },
      {
        "line": [
          "55 Madison Ave"
        ],
        "city": "MORRISTOWN",
        "state": "NJ",
        "postalCode": "07960-7397"
      },
      {
        "line": [
          "879 Rahway Avenue"
        ],
        "city": "UNION",
        "state": "NJ",
        "postalCode": "07083-6633"
      },
      {
        "line": [
          "2200 Route 10 west"
        ],
        "city": "PARSIPPANY",
        "state": "NJ",
        "postalCode": "07054-5304"
      },
      {
        "line": [
          "206 Belleville Ave"
        ],
        "city": "BLOOMFIELD",
        "state": "NJ",
        "postalCode": "07003-3589"
      },
      {
        "line": [
          "2201 South Clinton Ave"
        ],
        "city": "SOUTH PLAINFIELD",
        "state": "NJ",
        "postalCode": "07080-1473"
      },
      {
        "line": [
          "10 CLIFTON BLVD STE 1"
        ],
        "city": "CLIFTON",
        "state": "NJ",
        "postalCode": "07011-3802"
      },
      {
        "line": [
          "2 Kings Court"
        ],
        "city": "FLEMINGTON",
        "state": "NJ",
        "postalCode": "08822-6019"
      },
      {
        "line": [
          "471 Center St"
        ],
        "city": "PHILLIPSBURG",
        "state": "NJ",
        "postalCode": "08865-4384"
      }
    ],
    "extension": [
      {
        "url": "https://fhir.athena.io/StructureDefinition/ah-practice",
        "valueReference": {
          "reference": "Organization/a-1.Practice-2983"
        }
      },
      {
        "url": "https://fhir.athena.io/StructureDefinition/ah-brand",
        "valueReference": {
          "reference": "Organization/a-2983.Brand-1"
        }
      }
    ]
  },
  "fullUrl": "urn:uuid:f9edef81-443d-5bf0-8eb6-b05f617ddf70"
}