{
  "resource": {
    "resourceType": "Organization",
    "id": "96325ad8-ca19-5699-824c-4c09654b9f5f",
    "name": "YOUNGSTOWN OHIO PHYSICIAN SERVICES",
    "endpoint": [
      {
        "reference": "Endpoint/27a4e967-47aa-5a9c-a572-b8297ee268a2"
      },
      {
        "reference": "Endpoint/b29bd56f-efa5-5533-b511-20ddb8dcde11"
      }
    ],
    "identifier": [
      {
        "system": "http://hl7.org/fhir/sid/us-npi",
        "value": "1013223312"
      }
    ],
    "address": [
      {
        "line": [
          "1280 Boardman Canfield Rd."
        ],
        "city": "YOUNGSTOWN",
        "state": "OH",
        "postalCode": "44512-4073"
      },
      {
        "line": [
          "8064 South Ave."
        ],
        "city": "YOUNGSTOWN",
        "state": "OH",
        "postalCode": "44512-6153"
      },
      {
        "line": [
          "500 GYPSY LANE"
        ],
        "city": "YOUNGSTOWN",
        "state": "OH",
        "postalCode": "44504-1315"
      },
      {
        "line": [
          "7000 South Ave."
        ],
        "city": "YOUNGSTOWN",
        "state": "OH",
        "postalCode": "44512-3644"
      },
      {
        "line": [
          "7525 CALIFORNIA AVE"
        ],
        "city": "YOUNGSTOWN",
        "state": "OH",
        "postalCode": "44512-5633"
      },
      {
        "line": [
          "20 OHLTOWN RD"
        ],
        "city": "YOUNGSTOWN",
        "state": "OH",
        "postalCode": "44515-2331"
      },
      {
        "line": [
          "500 Gypsy Lane"
        ],
        "city": "YOUNGSTOWN",
        "state": "OH",
        "postalCode": "44504-1315"
      },
      {
        "line": [
          "20 Ohltown Rd.",
          "Suite 2G"
        ],
        "city": "YOUNGSTOWN",
        "state": "OH",
        "postalCode": "44515-2331"
      },
      {
        "line": [
          "14450 S. Springdale Ave."
        ],
        "city": "MIDDLEFIELD",
        "state": "OH",
        "postalCode": "44062-7225"
      },
      {
        "line": [
          "450 E MAIN ST"
        ],
        "city": "CANFIELD",
        "state": "OH",
        "postalCode": "44406-1581"
      },
      {
        "line": [
          "461 S. Canfield Niles Rd"
        ],
        "city": "YOUNGSTOWN",
        "state": "OH",
        "postalCode": "44515-4022"
      },
      {
        "line": [
          "51 State St."
        ],
        "city": "STRUTHERS",
        "state": "OH",
        "postalCode": "44471-1939"
      },
      {
        "line": [
          "20 Ohltown Rd.",
          "Suite G"
        ],
        "city": "YOUNGSTOWN",
        "state": "OH",
        "postalCode": "44515-2331"
      },
      {
        "line": [
          "6426 MARKET ST"
        ],
        "city": "YOUNGSTOWN",
        "state": "OH",
        "postalCode": "44512-3434"
      },
      {
        "line": [
          "5665 South Ave."
        ],
        "city": "YOUNGSTOWN",
        "state": "OH",
        "postalCode": "44512-2459"
      },
      {
        "line": [
          "1350 MARKET ST"
        ],
        "city": "WARREN",
        "state": "OH",
        "postalCode": "44483-6608"
      }
    ],
    "extension": [
      {
        "url": "https://fhir.athena.io/StructureDefinition/ah-practice",
        "valueReference": {
          "reference": "Organization/a-1.Practice-2695"
        }
      },
      {
        "url": "https://fhir.athena.io/StructureDefinition/ah-brand",
        "valueReference": {
          "reference": "Organization/a-2695.Brand-1"
        }
      }
    ]
  },
  "fullUrl": "urn:uuid:96325ad8-ca19-5699-824c-4c09654b9f5f"
}