{
  "resource": {
    "resourceType": "Organization",
    "id": "95affaae-64b9-56da-a611-c6ba6f0393c8",
    "name": "Advanced Mobile Medicine",
    "endpoint": [
      {
        "reference": "Endpoint/27a4e967-47aa-5a9c-a572-b8297ee268a2"
      },
      {
        "reference": "Endpoint/a37483db-16f4-5e58-a9ac-d9d4fca0df8e"
      }
    ],
    "identifier": [
      {
        "system": "http://hl7.org/fhir/sid/us-npi",
        "value": "1134616212"
      }
    ],
    "address": [
      {
        "line": [
          "11308 Blondo St"
        ],
        "city": "OMAHA",
        "state": "NE",
        "postalCode": "68164-3822"
      },
      {
        "line": [
          "5030 S. 155th St."
        ],
        "city": "OMAHA",
        "state": "NE",
        "postalCode": "68137-5002"
      },
      {
        "line": [
          "6600 JULIET COURT"
        ],
        "city": "LINCOLN",
        "state": "NE",
        "postalCode": "68521-6000"
      },
      {
        "line": [
          "16811 BURDETTE ST."
        ],
        "city": "OMAHA",
        "state": "NE",
        "postalCode": "68116-2776"
      },
      {
        "line": [
          "4610 Mandarin Cir"
        ],
        "city": "LINCOLN",
        "state": "NE",
        "postalCode": "68516-4434"
      },
      {
        "line": [
          "13510 S 36TH ST"
        ],
        "city": "BELLEVUE",
        "state": "NE",
        "postalCode": "68123-2270"
      },
      {
        "line": [
          "2355 Superior St."
        ],
        "city": "LINCOLN",
        "state": "NE",
        "postalCode": "68521-4193"
      },
      {
        "line": [
          "3777 N. 58th St."
        ],
        "city": "LINCOLN",
        "state": "NE",
        "postalCode": "68507-1658"
      },
      {
        "line": [
          "7655 Archer Place"
        ],
        "city": "LINCOLN",
        "state": "NE",
        "postalCode": "68516-5286"
      },
      {
        "line": [
          "6021 GRAND LODGE AVE"
        ],
        "city": "PAPILLION",
        "state": "NE",
        "postalCode": "68133-3206"
      },
      {
        "line": [
          "12301 N. 149th Circle"
        ],
        "city": "BENNINGTON",
        "state": "NE",
        "postalCode": "68007-5775"
      },
      {
        "line": [
          "2961 S. 169TH PLZ"
        ],
        "city": "OMAHA",
        "state": "NE",
        "postalCode": "68130-2053"
      },
      {
        "line": [
          "410 W. 5TH ST."
        ],
        "city": "LOUISVILLE",
        "state": "NE",
        "postalCode": "68037-6006"
      },
      {
        "line": [
          "17555 Emmet St."
        ],
        "city": "OMAHA",
        "state": "NE",
        "postalCode": "68116-1129"
      },
      {
        "line": [
          "749 e. 32nd st"
        ],
        "city": "FREMONT",
        "state": "NE",
        "postalCode": "68025-2312"
      },
      {
        "line": [
          "4503 Eastridge Drive"
        ],
        "city": "OMAHA",
        "state": "NE",
        "postalCode": "68134-2555"
      },
      {
        "line": [
          "9421 Gable Pines Rd."
        ],
        "city": "LINCOLN",
        "state": "NE",
        "postalCode": "68520-1478"
      },
      {
        "line": [
          "3720 GEORGE B LAKE PKWY"
        ],
        "city": "ELKHORN",
        "state": "NE",
        "postalCode": "68022-3556"
      },
      {
        "line": [
          "2820 S. 80th St."
        ],
        "city": "OMAHA",
        "state": "NE",
        "postalCode": "68124-3266"
      },
      {
        "line": [
          "1617 BILLS DR"
        ],
        "city": "ASHLAND",
        "state": "NE",
        "postalCode": "68003-1273"
      },
      {
        "line": [
          "13225 Westwood Lane"
        ],
        "city": "OMAHA",
        "state": "NE",
        "postalCode": "68144-3515"
      },
      {
        "line": [
          "8939 KEYSTONE DR"
        ],
        "city": "LINCOLN",
        "state": "NE",
        "postalCode": "68516-4127"
      },
      {
        "line": [
          "3940 PINE LAKE RD"
        ],
        "city": "LINCOLN",
        "state": "NE",
        "postalCode": "68516-5485"
      },
      {
        "line": [
          "13208 MEREDITH AVE"
        ],
        "city": "OMAHA",
        "state": "NE",
        "postalCode": "68164-1711"
      },
      {
        "line": [
          "2331 Nash Blvd."
        ],
        "city": "COUNCIL BLUFFS",
        "state": "IA",
        "postalCode": "51501-0914"
      },
      {
        "line": [
          "3507 W 12TH ST"
        ],
        "city": "HASTINGS",
        "state": "NE",
        "postalCode": "68901-1736"
      },
      {
        "line": [
          "5500 S. CODDINGTON AVE"
        ],
        "city": "LINCOLN",
        "state": "NE",
        "postalCode": "68523-9152"
      },
      {
        "line": [
          "4451 Old Cheney Rd."
        ],
        "city": "LINCOLN",
        "state": "NE",
        "postalCode": "68516-2821"
      },
      {
        "line": [
          "1502 FORT CROOK RD SOUTH"
        ],
        "city": "BELLEVUE",
        "state": "NE",
        "postalCode": "68005-2972"
      },
      {
        "line": [
          "411 W. 5th St."
        ],
        "city": "LOUISVILLE",
        "state": "NE",
        "postalCode": "68037-6007"
      },
      {
        "line": [
          "4102 WOOLWORTH AVE"
        ],
        "city": "OMAHA",
        "state": "NE",
        "postalCode": "68105-1851"
      },
      {
        "line": [
          "1831 East Kanesville Blvd"
        ],
        "city": "COUNCIL BLUFFS",
        "state": "IA",
        "postalCode": "51503-4767"
      },
      {
        "line": [
          "14325 EAGLE RUN"
        ],
        "city": "OMAHA",
        "state": "NE",
        "postalCode": "68164-5435"
      },
      {
        "line": [
          "10890 S 208TH ST"
        ],
        "city": "GRETNA",
        "state": "NE",
        "postalCode": "68028-5175"
      },
      {
        "line": [
          "900 N. 90th St."
        ],
        "city": "OMAHA",
        "state": "NE",
        "postalCode": "68114-2704"
      },
      {
        "line": [
          "240 S. 70th St."
        ],
        "city": "LINCOLN",
        "state": "NE",
        "postalCode": "68510-2406"
      },
      {
        "line": [
          "445 S 193RD ST"
        ],
        "city": "ELKHORN",
        "state": "NE",
        "postalCode": "68022-2829"
      },
      {
        "line": [
          "16811 BURDETTE ST"
        ],
        "city": "OMAHA",
        "state": "NE",
        "postalCode": "68116-2778"
      },
      {
        "line": [
          "5700 Fremont St."
        ],
        "city": "LINCOLN",
        "state": "NE",
        "postalCode": "68507-1674"
      },
      {
        "line": [
          "1902 HARLAN DR STE B"
        ],
        "city": "BELLEVUE",
        "state": "NE",
        "postalCode": "68005-6609"
      },
      {
        "line": [
          "14509 echo hills drive"
        ],
        "city": "OMAHA",
        "state": "NE",
        "postalCode": "68138-6558"
      },
      {
        "line": [
          "6062 GRAND LODGE AVE"
        ],
        "city": "PAPILLION",
        "state": "NE",
        "postalCode": "68133-3200"
      },
      {
        "line": [
          "4620 Randolph St."
        ],
        "city": "LINCOLN",
        "state": "NE",
        "postalCode": "68510-3716"
      },
      {
        "line": [
          "1420 N. 10th St."
        ],
        "city": "NEBRASKA CITY",
        "state": "NE",
        "postalCode": "68410-1236"
      },
      {
        "line": [
          "749 29th st"
        ],
        "city": "FREMONT",
        "state": "NE",
        "postalCode": "68025-7711"
      },
      {
        "line": [
          "2315 south 168th st."
        ],
        "city": "OMAHA",
        "state": "NE",
        "postalCode": "68130-1552"
      },
      {
        "line": [
          "20332 Hackberry Dr."
        ],
        "city": "GRETNA",
        "state": "NE",
        "postalCode": "68028-4951"
      },
      {
        "line": [
          "6616 s. 84th st."
        ],
        "city": "LINCOLN",
        "state": "NE",
        "postalCode": "68516-3911"
      },
      {
        "line": [
          "8140 S 97TH PLZ"
        ],
        "city": "LA VISTA",
        "state": "NE",
        "postalCode": "68128-7104"
      },
      {
        "line": [
          "4400 s. 80th st."
        ],
        "city": "LINCOLN",
        "state": "NE",
        "postalCode": "68516-4456"
      },
      {
        "line": [
          "5710 S. 108TH"
        ],
        "city": "OMAHA",
        "state": "NE",
        "postalCode": "68137-3592"
      },
      {
        "line": [
          "4609 Hilltop St."
        ],
        "city": "PAPILLION",
        "state": "NE",
        "postalCode": "68133-3323"
      },
      {
        "line": [
          "8601 Firethorn Lane"
        ],
        "city": "LINCOLN",
        "state": "NE",
        "postalCode": "68520-1469"
      },
      {
        "line": [
          "1111 STERLING RIDGE DR."
        ],
        "city": "OMAHA",
        "state": "NE",
        "postalCode": "68144-1275"
      },
      {
        "line": [
          "7337 HICKORY ST."
        ],
        "city": "OMAHA",
        "state": "NE",
        "postalCode": "68124-1677"
      },
      {
        "line": [
          "1507 E. Gold Coast Rd."
        ],
        "city": "PAPILLION",
        "state": "NE",
        "postalCode": "68046-4722"
      },
      {
        "line": [
          "620 FORT CROOK RD SOUTH"
        ],
        "city": "BELLEVUE",
        "state": "NE",
        "postalCode": "68005-2931"
      },
      {
        "line": [
          "1801 East Kanesville Blvd."
        ],
        "city": "COUNCIL BLUFFS",
        "state": "IA",
        "postalCode": "51503-4769"
      },
      {
        "line": [
          "13208 MEREDITH"
        ],
        "city": "OMAHA",
        "state": "NE",
        "postalCode": "68164-1711"
      },
      {
        "line": [
          "5728 S 108TH ST"
        ],
        "city": "OMAHA",
        "state": "NE",
        "postalCode": "68137-3547"
      },
      {
        "line": [
          "700 S. Hwy 6"
        ],
        "city": "GRETNA",
        "state": "NE",
        "postalCode": "68028-7970"
      },
      {
        "line": [
          "5720 S 25TH ST"
        ],
        "city": "LINCOLN",
        "state": "NE",
        "postalCode": "68512-2000"
      },
      {
        "line": [
          "1913 E. HWY 34"
        ],
        "city": "PLATTSMOUTH",
        "state": "NE",
        "postalCode": "68048-5677"
      },
      {
        "line": [
          "1702 HILLCREST DR."
        ],
        "city": "BELLEVUE",
        "state": "NE",
        "postalCode": "68005-3652"
      },
      {
        "line": [
          "3121 MacIneery Dr."
        ],
        "city": "COUNCIL BLUFFS",
        "state": "IA",
        "postalCode": "51501-8218"
      },
      {
        "line": [
          "7200 VAN DORN ST"
        ],
        "city": "LINCOLN",
        "state": "NE",
        "postalCode": "68506-3716"
      },
      {
        "line": [
          "5600 Pioneers Blvd."
        ],
        "city": "LINCOLN",
        "state": "NE",
        "postalCode": "68506-5172"
      }
    ],
    "extension": [
      {
        "url": "https://fhir.athena.io/StructureDefinition/ah-practice",
        "valueReference": {
          "reference": "Organization/a-1.Practice-18254"
        }
      },
      {
        "url": "https://fhir.athena.io/StructureDefinition/ah-brand",
        "valueReference": {
          "reference": "Organization/a-18254.Brand-1"
        }
      }
    ]
  },
  "fullUrl": "urn:uuid:95affaae-64b9-56da-a611-c6ba6f0393c8"
}