{
  "resource": {
    "resourceType": "Organization",
    "id": "73447625-c7e2-5047-8d21-a5c6585ad3c5",
    "name": "Mercy Physician Practice, LLC",
    "endpoint": [
      {
        "reference": "Endpoint/27a4e967-47aa-5a9c-a572-b8297ee268a2"
      },
      {
        "reference": "Endpoint/f729047c-231c-58f4-badd-daf2f1e35a76"
      }
    ],
    "identifier": [
      {
        "system": "http://hl7.org/fhir/sid/us-npi",
        "value": "1356942155"
      },
      {
        "system": "http://hl7.org/fhir/sid/us-npi",
        "value": "1639720493"
      },
      {
        "system": "http://hl7.org/fhir/sid/us-npi",
        "value": "1962128124"
      }
    ],
    "address": [
      {
        "line": [
          "955 W DARDEAU ST"
        ],
        "city": "VILLE PLATTE",
        "state": "LA",
        "postalCode": "70586-2517"
      },
      {
        "line": [
          "906 Cherry Street"
        ],
        "city": "MAMOU",
        "state": "LA",
        "postalCode": "70554-2215"
      },
      {
        "line": [
          "906 CHERRY ST"
        ],
        "city": "MAMOU",
        "state": "LA",
        "postalCode": "70554-2215"
      },
      {
        "line": [
          "1050 EDWIN ELLIOTT DR",
          "PO Box 500"
        ],
        "city": "PINE PRAIRIE",
        "state": "LA",
        "postalCode": "70576-0500"
      },
      {
        "line": [
          "7014 Hwy 71"
        ],
        "city": "PALMETTO",
        "state": "LA",
        "postalCode": "71358-0112"
      },
      {
        "line": [
          "1050 Edwin Elliot Drive"
        ],
        "city": "PINE PRAIRIE",
        "state": "LA",
        "postalCode": "70576-0500"
      },
      {
        "line": [
          "7941 I 49 S SERVICE RD"
        ],
        "city": "OPELOUSAS",
        "state": "LA",
        "postalCode": "70570-9003"
      },
      {
        "line": [
          "2020 W MAIN ST"
        ],
        "city": "VILLE PLATTE",
        "state": "LA",
        "postalCode": "70586-2830"
      },
      {
        "line": [
          "909 CHERRY ST"
        ],
        "city": "MAMOU",
        "state": "LA",
        "postalCode": "70554-2244"
      },
      {
        "line": [
          "1001 N REED ST"
        ],
        "city": "VILLE PLATTE",
        "state": "LA",
        "postalCode": "70586-2505"
      },
      {
        "line": [
          "315 Harry Gilbeau Rd"
        ],
        "city": "OPELOUSAS",
        "state": "LA",
        "postalCode": "70570-6958"
      },
      {
        "line": [
          "315 Harry Gilbeau Road"
        ],
        "city": "OPELOUSAS",
        "state": "LA",
        "postalCode": "70570-6958"
      },
      {
        "line": [
          "883 MAIN ST"
        ],
        "city": "ARNAUDVILLE",
        "state": "LA",
        "postalCode": "70512-5716"
      }
    ],
    "extension": [
      {
        "url": "https://fhir.athena.io/StructureDefinition/ah-practice",
        "valueReference": {
          "reference": "Organization/a-1.Practice-5868"
        }
      },
      {
        "url": "https://fhir.athena.io/StructureDefinition/ah-brand",
        "valueReference": {
          "reference": "Organization/a-5868.Brand-1"
        }
      }
    ]
  },
  "fullUrl": "urn:uuid:73447625-c7e2-5047-8d21-a5c6585ad3c5"
}