{
  "resource": {
    "resourceType": "Organization",
    "id": "7a39ada2-9755-5008-934a-eef5f53f6058",
    "name": "ADVANCED GERIATRIC CARE AND FAMILY PRACTICE ASSOC.",
    "endpoint": [
      {
        "reference": "Endpoint/27a4e967-47aa-5a9c-a572-b8297ee268a2"
      },
      {
        "reference": "Endpoint/7eb7f70e-58fc-51ba-b6d7-7c0ddf707a8f"
      }
    ],
    "identifier": [
      {
        "system": "http://hl7.org/fhir/sid/us-npi",
        "value": "1346286721"
      }
    ],
    "address": [
      {
        "line": [
          "23636 MESSINA",
          "YORK RETIREMENT HOME"
        ],
        "city": "LAGUNA HILLS",
        "state": "CA",
        "postalCode": "92653-1831"
      },
      {
        "line": [
          "24516 SATURNA STREET",
          "JP SENIOR HOMES LLC."
        ],
        "city": "MISSION VIEJO",
        "state": "CA",
        "postalCode": "92691-4522"
      },
      {
        "line": [
          "12141 ORA DRIVE"
        ],
        "city": "GARDEN GROVE",
        "state": "CA",
        "postalCode": "92840-3432"
      },
      {
        "line": [
          "6468 EAST CALLE DEL NORTE"
        ],
        "city": "ANAHEIM",
        "state": "CA",
        "postalCode": "92807-4204"
      },
      {
        "line": [
          "18021 E SANTA CLARA AVE"
        ],
        "city": "SANTA ANA",
        "state": "CA",
        "postalCode": "92705-2065"
      },
      {
        "line": [
          "26762 CARLOTA DR"
        ],
        "city": "MISSION VIEJO",
        "state": "CA",
        "postalCode": "92691-4306"
      },
      {
        "line": [
          "920 W LA VETA AVE"
        ],
        "city": "ORANGE",
        "state": "CA",
        "postalCode": "92868-4302"
      },
      {
        "line": [
          "26051 CAMINO ADELANTO"
        ],
        "city": "MISSION VIEJO",
        "state": "CA",
        "postalCode": "92691-3241"
      },
      {
        "line": [
          "16840 MT EDEN STREET"
        ],
        "city": "FOUNTAIN VALLEY",
        "state": "CA",
        "postalCode": "92708-2518"
      },
      {
        "line": [
          "13541 TEA HOUSE STREET"
        ],
        "city": "SANTA ANA",
        "state": "CA",
        "postalCode": "92705-2850"
      },
      {
        "line": [
          "1184 N. LINDA VISTA STREET"
        ],
        "city": "ORANGE",
        "state": "CA",
        "postalCode": "92869-1315"
      },
      {
        "line": [
          "29681 Preston Drive"
        ],
        "city": "LAGUNA NIGUEL",
        "state": "CA",
        "postalCode": "92677-2014"
      },
      {
        "line": [
          "273 VIA BALLENA"
        ],
        "city": "SAN CLEMENTE",
        "state": "CA",
        "postalCode": "92672-3708"
      },
      {
        "line": [
          "16840 MOUNT EDEN STREET"
        ],
        "city": "FOUNTAIN VALLEY",
        "state": "CA",
        "postalCode": "92708-2518"
      }
    ],
    "extension": [
      {
        "url": "https://fhir.athena.io/StructureDefinition/ah-practice",
        "valueReference": {
          "reference": "Organization/a-1.Practice-8136"
        }
      },
      {
        "url": "https://fhir.athena.io/StructureDefinition/ah-brand",
        "valueReference": {
          "reference": "Organization/a-8136.Brand-1"
        }
      }
    ]
  },
  "fullUrl": "urn:uuid:7a39ada2-9755-5008-934a-eef5f53f6058"
}