{
  "resource": {
    "resourceType": "Organization",
    "id": "a73d0a4e-4899-55f4-b972-4c042eb13f19",
    "name": "SUSQ_REFUNDS",
    "endpoint": [
      {
        "reference": "Endpoint/27a4e967-47aa-5a9c-a572-b8297ee268a2"
      },
      {
        "reference": "Endpoint/2b620a9a-66e7-50ac-b543-342c97bf84f2"
      }
    ],
    "identifier": [
      {
        "system": "http://hl7.org/fhir/sid/us-npi",
        "value": "1104818871"
      }
    ],
    "address": [
      {
        "line": [
          "500 Upper Chesapeake Drive"
        ],
        "city": "BEL AIR",
        "state": "MD",
        "postalCode": "21014-4375"
      },
      {
        "line": [
          "308 N. UNION AVE."
        ],
        "city": "HAVRE DE GRACE",
        "state": "MD",
        "postalCode": "21078-2825"
      },
      {
        "line": [
          "500 UPPER CHESAPEAKE DR."
        ],
        "city": "BEL AIR",
        "state": "MD",
        "postalCode": "21014-4375"
      },
      {
        "line": [
          "308 N. UNION AVE.",
          "P.O. BOX 420"
        ],
        "city": "HAVRE DE GRACE",
        "state": "MD",
        "postalCode": "21078-2825"
      },
      {
        "line": [
          "520 Upper Chesapeake Dr.",
          "Ste. 301"
        ],
        "city": "BEL AIR",
        "state": "MD",
        "postalCode": "21014-4375"
      },
      {
        "line": [
          "520 UPPER CHESAPEAKE DRIVE",
          "SUITE 301"
        ],
        "city": "BEL AIR",
        "state": "MD",
        "postalCode": "21014-4375"
      },
      {
        "line": [
          "520 UPPER CHESAPEAKE DR.",
          "STE. 301"
        ],
        "city": "BEL AIR",
        "state": "MD",
        "postalCode": "21014-4375"
      },
      {
        "line": [
          "520 UPPER CHESAPEAKE DR STE 301"
        ],
        "city": "BEL AIR",
        "state": "MD",
        "postalCode": "21014-4375"
      },
      {
        "line": [
          "520 UPPER CHESAPEAKE DRIVE"
        ],
        "city": "BEL AIR",
        "state": "MD",
        "postalCode": "21014-4375"
      }
    ],
    "extension": [
      {
        "url": "https://fhir.athena.io/StructureDefinition/ah-practice",
        "valueReference": {
          "reference": "Organization/a-1.Practice-18404"
        }
      },
      {
        "url": "https://fhir.athena.io/StructureDefinition/ah-brand",
        "valueReference": {
          "reference": "Organization/a-18404.Brand-1"
        }
      }
    ]
  },
  "fullUrl": "urn:uuid:a73d0a4e-4899-55f4-b972-4c042eb13f19"
}