{
  "resource": {
    "resourceType": "Organization",
    "id": "a73d7dbc-2bf6-5a1f-8547-54f3143bffda",
    "name": "Washington Vascular Specialists",
    "endpoint": [
      {
        "reference": "Endpoint/27a4e967-47aa-5a9c-a572-b8297ee268a2"
      },
      {
        "reference": "Endpoint/5c4ffbf1-409b-5dc1-bd68-6f55d428d1d4"
      }
    ],
    "identifier": [
      {
        "system": "http://hl7.org/fhir/sid/us-npi",
        "value": "1386391332"
      },
      {
        "system": "http://hl7.org/fhir/sid/us-npi",
        "value": "1205835485"
      },
      {
        "system": "http://hl7.org/fhir/sid/us-npi",
        "value": "1205605342"
      },
      {
        "system": "http://hl7.org/fhir/sid/us-npi",
        "value": "1326746389"
      },
      {
        "system": "http://hl7.org/fhir/sid/us-npi",
        "value": "1285493650"
      },
      {
        "system": "http://hl7.org/fhir/sid/us-npi",
        "value": "1346905437"
      }
    ],
    "address": [
      {
        "line": [
          "75 THOMAS JOHNSON DR STE I"
        ],
        "city": "FREDERICK",
        "state": "MD",
        "postalCode": "21702-4895"
      },
      {
        "line": [
          "333 Mill Street"
        ],
        "city": "HAGERSTOWN",
        "state": "MD",
        "postalCode": "21740-6473"
      },
      {
        "line": [
          "725 BUCHANAN ST NE"
        ],
        "city": "WASHINGTON",
        "state": "DC",
        "postalCode": "20017-2340"
      },
      {
        "line": [
          "2222 COLTS NECK RD"
        ],
        "city": "RESTON",
        "state": "VA",
        "postalCode": "20191-2843"
      },
      {
        "line": [
          "10540 METROPOLITAN AVE"
        ],
        "city": "KENSINGTON",
        "state": "MD",
        "postalCode": "20895-2608"
      },
      {
        "line": [
          "12725 ROUTE 29"
        ],
        "city": "FAIRFAX",
        "state": "VA",
        "postalCode": "22030-6549"
      },
      {
        "line": [
          "45 SAINT PATRICKS DR"
        ],
        "city": "WALDORF",
        "state": "MD",
        "postalCode": "20603-4507"
      },
      {
        "line": [
          "7420 Marlboro Pike"
        ],
        "city": "FORESTVILLE",
        "state": "MD",
        "postalCode": "20747-4343"
      },
      {
        "line": [
          "17001 GEORGIA AVE"
        ],
        "city": "OLNEY",
        "state": "MD",
        "postalCode": "20832-2428"
      },
      {
        "line": [
          "303 ADCLARE RD"
        ],
        "city": "ROCKVILLE",
        "state": "MD",
        "postalCode": "20850-3825"
      },
      {
        "line": [
          "44 E VILLAGE LN"
        ],
        "city": "WILLIAMSPORT",
        "state": "MD",
        "postalCode": "21795-1125"
      },
      {
        "line": [
          "2700 Barker St."
        ],
        "city": "SILVER SPRING",
        "state": "MD",
        "postalCode": "20910-1001"
      },
      {
        "line": [
          "2000 W BALTIMORE ST"
        ],
        "city": "BALTIMORE",
        "state": "MD",
        "postalCode": "21223-1558"
      },
      {
        "line": [
          "6336 CEDAR LN"
        ],
        "city": "COLUMBIA",
        "state": "MD",
        "postalCode": "21044-3897"
      },
      {
        "line": [
          "12300 Welling Lane"
        ],
        "city": "BOWIE",
        "state": "MD",
        "postalCode": "20715-1250"
      },
      {
        "line": [
          "3709 SHANNONS GREEN WAY"
        ],
        "city": "ALEXANDRIA",
        "state": "VA",
        "postalCode": "22309-3659"
      },
      {
        "line": [
          "351 W CAMDEN ST"
        ],
        "city": "BALTIMORE",
        "state": "MD",
        "postalCode": "21201-7912"
      },
      {
        "line": [
          "4918 Lasalle Rd"
        ],
        "city": "HYATTSVILLE",
        "state": "MD",
        "postalCode": "20782-3302"
      },
      {
        "line": [
          "154 N ARTIZAN ST"
        ],
        "city": "WILLIAMSPORT",
        "state": "MD",
        "postalCode": "21795-1104"
      },
      {
        "line": [
          "7610 Carroll Ave",
          "100"
        ],
        "city": "TAKOMA PARK",
        "state": "MD",
        "postalCode": "20912-6311"
      },
      {
        "line": [
          "9307 Master Derby Dr"
        ],
        "city": "RANDALLSTOWN",
        "state": "MD",
        "postalCode": "21133-3321"
      },
      {
        "line": [
          "45 WASHINGTON RD"
        ],
        "city": "WESTMINSTER",
        "state": "MD",
        "postalCode": "21157-5640"
      },
      {
        "line": [
          "12021 LIVINGSTON RD"
        ],
        "city": "FORT WASHINGTON",
        "state": "MD",
        "postalCode": "20744-4210"
      },
      {
        "line": [
          "7407 Willow Rd"
        ],
        "city": "FREDERICK",
        "state": "MD",
        "postalCode": "21702-2500"
      },
      {
        "line": [
          "1501 BLENHIEM FARM LN"
        ],
        "city": "HAVRE DE GRACE",
        "state": "MD",
        "postalCode": "21078-2047"
      },
      {
        "line": [
          "10717 HUNTING LN"
        ],
        "city": "COLUMBIA",
        "state": "MD",
        "postalCode": "21044-4205"
      },
      {
        "line": [
          "1380 Southern Ave. SE"
        ],
        "city": "WASHINGTON",
        "state": "DC",
        "postalCode": "20032-4623"
      },
      {
        "line": [
          "223 7th St. NE"
        ],
        "city": "WASHINGTON",
        "state": "DC",
        "postalCode": "20002-7045"
      },
      {
        "line": [
          "7610 Carroll Ave",
          "110"
        ],
        "city": "TAKOMA PARK",
        "state": "MD",
        "postalCode": "20912-6311"
      },
      {
        "line": [
          "10450 Lottsford Rd"
        ],
        "city": "BOWIE",
        "state": "MD",
        "postalCode": "20721-2724"
      },
      {
        "line": [
          "5426 CLOVER RD"
        ],
        "city": "BALTIMORE",
        "state": "MD",
        "postalCode": "21215-4714"
      },
      {
        "line": [
          "1234 Washington Rd"
        ],
        "city": "WESTMINSTER",
        "state": "MD",
        "postalCode": "21157-5854"
      },
      {
        "line": [
          "8315 TURNING LEAF LN"
        ],
        "city": "MC LEAN",
        "state": "VA",
        "postalCode": "22102-2615"
      },
      {
        "line": [
          "2812 OLD LEE HWY # 100B-D"
        ],
        "city": "FAIRFAX",
        "state": "VA",
        "postalCode": "22031-4315"
      },
      {
        "line": [
          "2101 Fairland Rd"
        ],
        "city": "SILVER SPRING",
        "state": "MD",
        "postalCode": "20904-5427"
      },
      {
        "line": [
          "6700 Columbia Pike"
        ],
        "city": "ANNANDALE",
        "state": "VA",
        "postalCode": "22003-3450"
      },
      {
        "line": [
          "2700 SOUTHAVEN RD"
        ],
        "city": "ANNAPOLIS",
        "state": "MD",
        "postalCode": "21401-7122"
      },
      {
        "line": [
          "4409 EAST WEST HWY"
        ],
        "city": "RIVERDALE",
        "state": "MD",
        "postalCode": "20737-1058"
      },
      {
        "line": [
          "310 CAMEO DR"
        ],
        "city": "HAGERSTOWN",
        "state": "MD",
        "postalCode": "21740-5854"
      },
      {
        "line": [
          "10701 MAIN ST"
        ],
        "city": "FAIRFAX",
        "state": "VA",
        "postalCode": "22030-6904"
      },
      {
        "line": [
          "6334 CEDAR LN"
        ],
        "city": "COLUMBIA",
        "state": "MD",
        "postalCode": "21044-3898"
      },
      {
        "line": [
          "702 RUSSELL AVE STE 105"
        ],
        "city": "GAITHERSBURG",
        "state": "MD",
        "postalCode": "20877-2606"
      },
      {
        "line": [
          "4101 BALTIMORE NAT'L PIKE"
        ],
        "city": "MOUNT AIRY",
        "state": "MD",
        "postalCode": "21771-4115"
      },
      {
        "line": [
          "3030 BROOKWOOD RD"
        ],
        "city": "ELLICOTT CITY",
        "state": "MD",
        "postalCode": "21042-2504"
      },
      {
        "line": [
          "1302 Concourse Dr.",
          "Suite 200"
        ],
        "city": "LINTHICUM HEIGHTS",
        "state": "MD",
        "postalCode": "21090-1037"
      },
      {
        "line": [
          "1626 FRENCHS AVE"
        ],
        "city": "ESSEX",
        "state": "MD",
        "postalCode": "21221-2908"
      },
      {
        "line": [
          "14200 Laurel Park Dr"
        ],
        "city": "LAUREL",
        "state": "MD",
        "postalCode": "20707-5201"
      },
      {
        "line": [
          "5000 NANNIE HELEN BURROUGHS AVE NE"
        ],
        "city": "WASHINGTON",
        "state": "DC",
        "postalCode": "20019-5506"
      },
      {
        "line": [
          "12799 BUTTERCUP CT"
        ],
        "city": "WEST FRIENDSHIP",
        "state": "MD",
        "postalCode": "21794-9601"
      },
      {
        "line": [
          "1820 Latham Dr."
        ],
        "city": "FREDERICK",
        "state": "MD",
        "postalCode": "21701-9393"
      },
      {
        "line": [
          "75 Thomas Johnson Dr.",
          "Suite I"
        ],
        "city": "FREDERICK",
        "state": "MD",
        "postalCode": "21702-4895"
      },
      {
        "line": [
          "1121 RESTON AVE"
        ],
        "city": "HERNDON",
        "state": "VA",
        "postalCode": "20170-2402"
      },
      {
        "line": [
          "1801 BRIGGS CHANEY RD"
        ],
        "city": "SILVER SPRING",
        "state": "MD",
        "postalCode": "20905-5531"
      },
      {
        "line": [
          "9101 2ND AVE"
        ],
        "city": "SILVER SPRING",
        "state": "MD",
        "postalCode": "20910-2152"
      },
      {
        "line": [
          "7101 BAY FRONT DR"
        ],
        "city": "ANNAPOLIS",
        "state": "MD",
        "postalCode": "21403-3622"
      },
      {
        "line": [
          "141 S Main Street"
        ],
        "city": "BOONSBORO",
        "state": "MD",
        "postalCode": "21713-1203"
      },
      {
        "line": [
          "6904 River Rd"
        ],
        "city": "BETHESDA",
        "state": "MD",
        "postalCode": "20817-4744"
      },
      {
        "line": [
          "400W 7th Street"
        ],
        "city": "FREDERICK",
        "state": "MD",
        "postalCode": "21701-4506"
      },
      {
        "line": [
          "1909 EDMONSTON RD"
        ],
        "city": "BEL AIR",
        "state": "MD",
        "postalCode": "21015-6256"
      },
      {
        "line": [
          "7600 Laurel Bowie Rd"
        ],
        "city": "BOWIE",
        "state": "MD",
        "postalCode": "20715-1075"
      },
      {
        "line": [
          "7610 CARROLL AVE"
        ],
        "city": "TAKOMA PARK",
        "state": "MD",
        "postalCode": "20912-6384"
      },
      {
        "line": [
          "12021 Livingston Rd"
        ],
        "city": "FORT WASHINGTON",
        "state": "MD",
        "postalCode": "20744-4210"
      },
      {
        "line": [
          "11150 RESORT RD"
        ],
        "city": "ELLICOTT CITY",
        "state": "MD",
        "postalCode": "21042-2050"
      },
      {
        "line": [
          "7407 WILLOW RD"
        ],
        "city": "FREDERICK",
        "state": "MD",
        "postalCode": "21702-2500"
      },
      {
        "line": [
          "7120 Braddock Rd"
        ],
        "city": "ANNANDALE",
        "state": "VA",
        "postalCode": "22003-6007"
      },
      {
        "line": [
          "8301 BARRON ST"
        ],
        "city": "TAKOMA PARK",
        "state": "MD",
        "postalCode": "20912-7363"
      },
      {
        "line": [
          "2301 Research Blvd",
          "Suite 310"
        ],
        "city": "ROCKVILLE",
        "state": "MD",
        "postalCode": "20850-6265"
      },
      {
        "line": [
          "10450 LOTTSFORD RD"
        ],
        "city": "BOWIE",
        "state": "MD",
        "postalCode": "20721-2724"
      },
      {
        "line": [
          "7610 Carroll Ave",
          "Suite 110"
        ],
        "city": "TAKOMA PARK",
        "state": "MD",
        "postalCode": "20912-6311"
      },
      {
        "line": [
          "4010 BUCKINGHAM RD"
        ],
        "city": "GWYNN OAK",
        "state": "MD",
        "postalCode": "21207-4610"
      },
      {
        "line": [
          "3620 LITTLEDALE RD"
        ],
        "city": "KENSINGTON",
        "state": "MD",
        "postalCode": "20895-3424"
      },
      {
        "line": [
          "8700 JONES MILL RD"
        ],
        "city": "CHEVY CHASE",
        "state": "MD",
        "postalCode": "20815-4729"
      },
      {
        "line": [
          "7525 Carroll Avenue"
        ],
        "city": "TAKOMA PARK",
        "state": "MD",
        "postalCode": "20912-5715"
      },
      {
        "line": [
          "111 WEST RD"
        ],
        "city": "TOWSON",
        "state": "MD",
        "postalCode": "21204-2315"
      },
      {
        "line": [
          "3415 Greencastle Rd"
        ],
        "city": "BURTONSVILLE",
        "state": "MD",
        "postalCode": "20866-1715"
      },
      {
        "line": [
          "2480 WATERSIDE DR"
        ],
        "city": "FREDERICK",
        "state": "MD",
        "postalCode": "21701-3445"
      },
      {
        "line": [
          "5330 DORSEY HALL DR"
        ],
        "city": "ELLICOTT CITY",
        "state": "MD",
        "postalCode": "21042-7831"
      },
      {
        "line": [
          "8710 EMGE RD"
        ],
        "city": "PARKVILLE",
        "state": "MD",
        "postalCode": "21234-3504"
      },
      {
        "line": [
          "1785 S HAYES ST"
        ],
        "city": "ARLINGTON",
        "state": "VA",
        "postalCode": "22202-2714"
      },
      {
        "line": [
          "415 Morgnec Rd"
        ],
        "city": "CHESTERTOWN",
        "state": "MD",
        "postalCode": "21620-1046"
      },
      {
        "line": [
          "1818 Newton St. NW",
          "#1017"
        ],
        "city": "WASHINGTON",
        "state": "DC",
        "postalCode": "20010-1017"
      },
      {
        "line": [
          "351 W CAMDEN ST",
          "SUITE 201"
        ],
        "city": "BALTIMORE",
        "state": "MD",
        "postalCode": "21201-7912"
      },
      {
        "line": [
          "9701 MEDICAL CENTER DR"
        ],
        "city": "ROCKVILLE",
        "state": "MD",
        "postalCode": "20850-3326"
      },
      {
        "line": [
          "2095 ROCKROSE AVE"
        ],
        "city": "BALTIMORE",
        "state": "MD",
        "postalCode": "21211-1328"
      },
      {
        "line": [
          "6121 MONTROSE RD"
        ],
        "city": "ROCKVILLE",
        "state": "MD",
        "postalCode": "20852-4803"
      },
      {
        "line": [
          "415 Market St"
        ],
        "city": "HAVRE DE GRACE",
        "state": "MD",
        "postalCode": "21078-3301"
      },
      {
        "line": [
          "1920 Rosemont Avenue"
        ],
        "city": "FREDERICK",
        "state": "MD",
        "postalCode": "21702-8249"
      },
      {
        "line": [
          "2850 NORTH RIDGE RD"
        ],
        "city": "ELLICOTT CITY",
        "state": "MD",
        "postalCode": "21043-3464"
      },
      {
        "line": [
          "5721 GROSVENOR LN"
        ],
        "city": "BETHESDA",
        "state": "MD",
        "postalCode": "20814-1833"
      },
      {
        "line": [
          "55 W GUDE DR"
        ],
        "city": "ROCKVILLE",
        "state": "MD",
        "postalCode": "20850-1159"
      },
      {
        "line": [
          "2131 O Street NW"
        ],
        "city": "WASHINGTON",
        "state": "DC",
        "postalCode": "20037-1008"
      },
      {
        "line": [
          "5800 GENESIS LN"
        ],
        "city": "FREDERICK",
        "state": "MD",
        "postalCode": "21703-5116"
      },
      {
        "line": [
          "9701 VEIRS DR"
        ],
        "city": "ROCKVILLE",
        "state": "MD",
        "postalCode": "20850-3414"
      },
      {
        "line": [
          "16 FUSTING AVE"
        ],
        "city": "CATONSVILLE",
        "state": "MD",
        "postalCode": "21228-4413"
      },
      {
        "line": [
          "400 W 7th Street"
        ],
        "city": "FREDERICK",
        "state": "MD",
        "postalCode": "21701-4506"
      },
      {
        "line": [
          "100 ANTRIM BLVD"
        ],
        "city": "TANEYTOWN",
        "state": "MD",
        "postalCode": "21787-2288"
      },
      {
        "line": [
          "20 RIVERWOOD CT"
        ],
        "city": "POTOMAC",
        "state": "MD",
        "postalCode": "20854-1535"
      },
      {
        "line": [
          "2706 ELSINORE AVE"
        ],
        "city": "BALTIMORE",
        "state": "MD",
        "postalCode": "21216-2131"
      },
      {
        "line": [
          "1525 N ROLLING RD"
        ],
        "city": "CATONSVILLE",
        "state": "MD",
        "postalCode": "21228-1100"
      },
      {
        "line": [
          "2700 N charles St"
        ],
        "city": "BALTIMORE",
        "state": "MD",
        "postalCode": "21218-4300"
      },
      {
        "line": [
          "7600 LAUREL BOWIE RD"
        ],
        "city": "BOWIE",
        "state": "MD",
        "postalCode": "20715-1075"
      },
      {
        "line": [
          "5550 CARDINAL PL"
        ],
        "city": "ALEXANDRIA",
        "state": "VA",
        "postalCode": "22304-8716"
      },
      {
        "line": [
          "713 MIDWAY AVE"
        ],
        "city": "MOUNT AIRY",
        "state": "MD",
        "postalCode": "21771-2833"
      },
      {
        "line": [
          "2131 DAVIDSONVILLE RD"
        ],
        "city": "CROFTON",
        "state": "MD",
        "postalCode": "21114-1632"
      },
      {
        "line": [
          "9229 ARLINGTON BLVD"
        ],
        "city": "FAIRFAX",
        "state": "VA",
        "postalCode": "22031-2504"
      },
      {
        "line": [
          "1803 THORNBURY RD"
        ],
        "city": "BALTIMORE",
        "state": "MD",
        "postalCode": "21209-3638"
      },
      {
        "line": [
          "6441 Jefferson Pike"
        ],
        "city": "FREDERICK",
        "state": "MD",
        "postalCode": "21703-7039"
      },
      {
        "line": [
          "5009 FRANKFORD AVE"
        ],
        "city": "BALTIMORE",
        "state": "MD",
        "postalCode": "21206-5353"
      },
      {
        "line": [
          "18131 SLADE SCHOOL RD"
        ],
        "city": "SANDY SPRING",
        "state": "MD",
        "postalCode": "20860-1346"
      },
      {
        "line": [
          "351 W. CAMDEN ST",
          "SUITE 201"
        ],
        "city": "BALTIMORE",
        "state": "MD",
        "postalCode": "21201-7912"
      },
      {
        "line": [
          "1454 FAIRFIELD LOOP RD"
        ],
        "city": "CROWNSVILLE",
        "state": "MD",
        "postalCode": "21032-2006"
      },
      {
        "line": [
          "979 BAY VILLAGE DR"
        ],
        "city": "ANNAPOLIS",
        "state": "MD",
        "postalCode": "21403-4089"
      },
      {
        "line": [
          "9211 Stuart Ln"
        ],
        "city": "CLINTON",
        "state": "MD",
        "postalCode": "20735-2712"
      },
      {
        "line": [
          "2131 Davidsonville Rd"
        ],
        "city": "CROFTON",
        "state": "MD",
        "postalCode": "21114-3211"
      },
      {
        "line": [
          "17340 Quaker Lane"
        ],
        "city": "SANDY SPRING",
        "state": "MD",
        "postalCode": "20860-1247"
      },
      {
        "line": [
          "400 W 7th St."
        ],
        "city": "FREDERICK",
        "state": "MD",
        "postalCode": "21701-4506"
      },
      {
        "line": [
          "7309 2nd Avenue"
        ],
        "city": "SYKESVILLE",
        "state": "MD",
        "postalCode": "21784-7531"
      },
      {
        "line": [
          "30 NORTH PL"
        ],
        "city": "FREDERICK",
        "state": "MD",
        "postalCode": "21701-6200"
      },
      {
        "line": [
          "13908 NEW HAMPSHIRE AVE"
        ],
        "city": "SILVER SPRING",
        "state": "MD",
        "postalCode": "20904-6212"
      },
      {
        "line": [
          "4922 LASALLE RD"
        ],
        "city": "HYATTSVILLE",
        "state": "MD",
        "postalCode": "20782-3302"
      },
      {
        "line": [
          "1051 Brightseat Rd"
        ],
        "city": "HYATTSVILLE",
        "state": "MD",
        "postalCode": "20785-3788"
      },
      {
        "line": [
          "1349 JONES STATION RD"
        ],
        "city": "ARNOLD",
        "state": "MD",
        "postalCode": "21012-2371"
      },
      {
        "line": [
          "410 E MCPHAIL RD"
        ],
        "city": "BEL AIR",
        "state": "MD",
        "postalCode": "21014-4410"
      },
      {
        "line": [
          "990 WATERFORD DR"
        ],
        "city": "FREDERICK",
        "state": "MD",
        "postalCode": "21702-4414"
      },
      {
        "line": [
          "310 CAMEO DR",
          "SUITE 100"
        ],
        "city": "HAGERSTOWN",
        "state": "MD",
        "postalCode": "21740-5854"
      },
      {
        "line": [
          "750 DUAL HIGHWAY"
        ],
        "city": "HAGERSTOWN",
        "state": "MD",
        "postalCode": "21740-5909"
      },
      {
        "line": [
          "5955 Quinn Orchard Rd"
        ],
        "city": "FREDERICK",
        "state": "MD",
        "postalCode": "21704-6656"
      },
      {
        "line": [
          "19801 OBSERVATION DR"
        ],
        "city": "GERMANTOWN",
        "state": "MD",
        "postalCode": "20876-4070"
      },
      {
        "line": [
          "305 COLLEGE PKWY"
        ],
        "city": "ARNOLD",
        "state": "MD",
        "postalCode": "21012-2903"
      },
      {
        "line": [
          "9851 BRANCHLEIGH RD"
        ],
        "city": "RANDALLSTOWN",
        "state": "MD",
        "postalCode": "21133-2003"
      },
      {
        "line": [
          "2201 COLSTON DR"
        ],
        "city": "SILVER SPRING",
        "state": "MD",
        "postalCode": "20910-2545"
      },
      {
        "line": [
          "600 Largo Rd"
        ],
        "city": "LARGO",
        "state": "MD",
        "postalCode": "20774-2122"
      },
      {
        "line": [
          "4601 MARTIN LUTHER KING JR AVE SW"
        ],
        "city": "WASHINGTON",
        "state": "DC",
        "postalCode": "20032-1131"
      },
      {
        "line": [
          "3939 PENHURST AVE"
        ],
        "city": "BALTIMORE",
        "state": "MD",
        "postalCode": "21215-5632"
      },
      {
        "line": [
          "2913 GREENWAY DR"
        ],
        "city": "ELLICOTT CITY",
        "state": "MD",
        "postalCode": "21042-2526"
      },
      {
        "line": [
          "6012 Jefferson Blvd"
        ],
        "city": "FREDERICK",
        "state": "MD",
        "postalCode": "21703-6953"
      },
      {
        "line": [
          "19301 WATKINS MILL RD"
        ],
        "city": "MONTGOMERY VILLAGE",
        "state": "MD",
        "postalCode": "20886-6914"
      },
      {
        "line": [
          "2601 Bel Pre Rd"
        ],
        "city": "SILVER SPRING",
        "state": "MD",
        "postalCode": "20906-2313"
      },
      {
        "line": [
          "16505 VIRGINIA AVE"
        ],
        "city": "WILLIAMSPORT",
        "state": "MD",
        "postalCode": "21795-1321"
      },
      {
        "line": [
          "56 W Frederick St."
        ],
        "city": "WALKERSVILLE",
        "state": "MD",
        "postalCode": "21793-8254"
      },
      {
        "line": [
          "7615 WASHINGTON BLVD"
        ],
        "city": "ELKRIDGE",
        "state": "MD",
        "postalCode": "21075-6443"
      },
      {
        "line": [
          "200 E 16TH ST"
        ],
        "city": "FREDERICK",
        "state": "MD",
        "postalCode": "21701-4400"
      },
      {
        "line": [
          "144 Washington RD"
        ],
        "city": "EDGEWATER",
        "state": "MD",
        "postalCode": "21037-1412"
      },
      {
        "line": [
          "8000 ILIFF DR"
        ],
        "city": "DUNN LORING",
        "state": "VA",
        "postalCode": "22027-1235"
      },
      {
        "line": [
          "7575 Howard Rd"
        ],
        "city": "GLEN BURNIE",
        "state": "MD",
        "postalCode": "21060-8312"
      },
      {
        "line": [
          "901 1st Street NW"
        ],
        "city": "WASHINGTON",
        "state": "DC",
        "postalCode": "20001-1403"
      },
      {
        "line": [
          "6205 NORVO RD"
        ],
        "city": "GWYNN OAK",
        "state": "MD",
        "postalCode": "21207-6250"
      },
      {
        "line": [
          "300 SAINT LUKE CIR"
        ],
        "city": "WESTMINSTER",
        "state": "MD",
        "postalCode": "21158-4174"
      },
      {
        "line": [
          "1235 Potomac Valley Rd"
        ],
        "city": "ROCKVILLE",
        "state": "MD",
        "postalCode": "20850-2757"
      },
      {
        "line": [
          "9001 CHERRY LN"
        ],
        "city": "LAUREL",
        "state": "MD",
        "postalCode": "20708-1120"
      },
      {
        "line": [
          "5805 Queens Chapel Rd"
        ],
        "city": "HYATTSVILLE",
        "state": "MD",
        "postalCode": "20782-3867"
      },
      {
        "line": [
          "6200 OREGON AVE NW"
        ],
        "city": "WASHINGTON",
        "state": "DC",
        "postalCode": "20015-1543"
      },
      {
        "line": [
          "10 N ROCK GLEN RD"
        ],
        "city": "BALTIMORE",
        "state": "MD",
        "postalCode": "21229-3250"
      },
      {
        "line": [
          "7355 E FURNACE BRANCH RD"
        ],
        "city": "GLEN BURNIE",
        "state": "MD",
        "postalCode": "21060-7060"
      },
      {
        "line": [
          "19310 Club House Rd"
        ],
        "city": "MONTGOMERY VILLAGE",
        "state": "MD",
        "postalCode": "20886-3029"
      },
      {
        "line": [
          "7600 Carroll Ave"
        ],
        "city": "TAKOMA PARK",
        "state": "MD",
        "postalCode": "20912-6367"
      },
      {
        "line": [
          "3320 BENSON AVE"
        ],
        "city": "HALETHORPE",
        "state": "MD",
        "postalCode": "21227-1035"
      },
      {
        "line": [
          "6601 ENGLISH MUFFIN WAY"
        ],
        "city": "FREDERICK",
        "state": "MD",
        "postalCode": "21703-7368"
      },
      {
        "line": [
          "1 Magnolia Dr"
        ],
        "city": "LA PLATA",
        "state": "MD",
        "postalCode": "20646-9357"
      },
      {
        "line": [
          "4475 MONTGOMERY RD"
        ],
        "city": "ELLICOTT CITY",
        "state": "MD",
        "postalCode": "21043-6007"
      },
      {
        "line": [
          "3000 N. Ridge Rd"
        ],
        "city": "ELLICOTT CITY",
        "state": "MD",
        "postalCode": "21043-3311"
      },
      {
        "line": [
          "30 North Place"
        ],
        "city": "FREDERICK",
        "state": "MD",
        "postalCode": "21701-6200"
      },
      {
        "line": [
          "347 Ballenger Center Dr"
        ],
        "city": "FREDERICK",
        "state": "MD",
        "postalCode": "21703-7095"
      },
      {
        "line": [
          "45 THOMAS JOHNSON DR STE 207"
        ],
        "city": "FREDERICK",
        "state": "MD",
        "postalCode": "21702-4490"
      },
      {
        "line": [
          "6012 JEFFERSON BLVD"
        ],
        "city": "FREDERICK",
        "state": "MD",
        "postalCode": "21703-6953"
      },
      {
        "line": [
          "1502 Frederick Rd"
        ],
        "city": "CATONSVILLE",
        "state": "MD",
        "postalCode": "21228-5019"
      },
      {
        "line": [
          "8111 TIS WELL DR"
        ],
        "city": "ALEXANDRIA",
        "state": "VA",
        "postalCode": "22306-3211"
      },
      {
        "line": [
          "2100B WHITTIER DR"
        ],
        "city": "FREDERICK",
        "state": "MD",
        "postalCode": "21702-3188"
      },
      {
        "line": [
          "1515 DUNSTER RD"
        ],
        "city": "POTOMAC",
        "state": "MD",
        "postalCode": "20854-6113"
      },
      {
        "line": [
          "10461 WATERFOWL TER"
        ],
        "city": "COLUMBIA",
        "state": "MD",
        "postalCode": "21044-2465"
      },
      {
        "line": [
          "35 Milkshake Ln"
        ],
        "city": "ANNAPOLIS",
        "state": "MD",
        "postalCode": "21403-1507"
      },
      {
        "line": [
          "715 Benfield Rd"
        ],
        "city": "SEVERNA PARK",
        "state": "MD",
        "postalCode": "21146-2210"
      },
      {
        "line": [
          "12230 ROUNDWOOD RD"
        ],
        "city": "LUTHERVILLE TIMONIUM",
        "state": "MD",
        "postalCode": "21093-3233"
      },
      {
        "line": [
          "18100 Slade School Rd"
        ],
        "city": "SANDY SPRING",
        "state": "MD",
        "postalCode": "20860-1313"
      },
      {
        "line": [
          "11621 New Hampshire Ave"
        ],
        "city": "SILVER SPRING",
        "state": "MD",
        "postalCode": "20904-2731"
      }
    ],
    "extension": [
      {
        "url": "https://fhir.athena.io/StructureDefinition/ah-practice",
        "valueReference": {
          "reference": "Organization/a-1.Practice-10710"
        }
      },
      {
        "url": "https://fhir.athena.io/StructureDefinition/ah-brand",
        "valueReference": {
          "reference": "Organization/a-10710.Brand-1"
        }
      }
    ]
  },
  "fullUrl": "urn:uuid:a73d7dbc-2bf6-5a1f-8547-54f3143bffda"
}