{
  "resource": {
    "resourceType": "Organization",
    "id": "77424bb1-1918-547d-8104-1b7cc5bcb7f6",
    "name": "Angelic Health",
    "endpoint": [
      {
        "reference": "Endpoint/27a4e967-47aa-5a9c-a572-b8297ee268a2"
      },
      {
        "reference": "Endpoint/e2cfde24-468d-5b3a-b29d-49486964fe00"
      }
    ],
    "identifier": [
      {
        "system": "http://hl7.org/fhir/sid/us-npi",
        "value": "1629565015"
      },
      {
        "system": "http://hl7.org/fhir/sid/us-npi",
        "value": "1477199446"
      }
    ],
    "address": [
      {
        "line": [
          "151 9th Ave"
        ],
        "city": "Little Egg Harbor",
        "state": "NJ",
        "postalCode": "08087-4218"
      },
      {
        "line": [
          "1045 E. Chestnut Ave"
        ],
        "city": "VINELAND",
        "state": "NJ",
        "postalCode": "08360-5838"
      },
      {
        "line": [
          "3000 Hilltop Road"
        ],
        "city": "Whiting",
        "state": "NJ",
        "postalCode": "08759-1349"
      },
      {
        "line": [
          "114 Hayes Mill Road"
        ],
        "city": "ATCO",
        "state": "NJ",
        "postalCode": "08004-2457"
      },
      {
        "line": [
          "449 S Pennsville Auburn Rd"
        ],
        "city": "PENNS GROVE",
        "state": "NJ",
        "postalCode": "08069-2961"
      },
      {
        "line": [
          "43 N White Horse Pike"
        ],
        "city": "HAMMONTON",
        "state": "NJ",
        "postalCode": "08037-1875"
      },
      {
        "line": [
          "201 New Road"
        ],
        "city": "LINWOOD",
        "state": "NJ",
        "postalCode": "08221-1201"
      },
      {
        "line": [
          "199 Steelmanville Road"
        ],
        "city": "EGG HARBOR TOWNSHIP",
        "state": "NJ",
        "postalCode": "08234-7571"
      },
      {
        "line": [
          "8025 Black Horse Pike, Suite 501"
        ],
        "city": "PLEASANTVILLE",
        "state": "NJ",
        "postalCode": "08232-2967"
      },
      {
        "line": [
          "917 S. Main Street"
        ],
        "city": "PLEASANTVILLE",
        "state": "NJ",
        "postalCode": "08232-3617"
      },
      {
        "line": [
          "1205 N Church Street"
        ],
        "city": "MOORESTOWN",
        "state": "NJ",
        "postalCode": "08057-1198"
      },
      {
        "line": [
          "3700 New Jersey Ave"
        ],
        "city": "WILDWOOD",
        "state": "NJ",
        "postalCode": "08260-6154"
      },
      {
        "line": [
          "600 Medical Center Drive"
        ],
        "city": "SEWELL",
        "state": "NJ",
        "postalCode": "08080-2361"
      },
      {
        "line": [
          "5090 N Broad Street"
        ],
        "city": "WOODBURY",
        "state": "NJ",
        "postalCode": "08096-1617"
      },
      {
        "line": [
          "1100 Clematis Avenue"
        ],
        "city": "PLEASANTVILLE",
        "state": "NJ",
        "postalCode": "08232-3302"
      },
      {
        "line": [
          "1399 Chapel Ave W"
        ],
        "city": "CHERRY HILL",
        "state": "NJ",
        "postalCode": "08002-2233"
      },
      {
        "line": [
          "849 Big Oak Road"
        ],
        "city": "ELMER",
        "state": "NJ",
        "postalCode": "08318-4054"
      },
      {
        "line": [
          "2201 Bay Avenue"
        ],
        "city": "OCEAN CITY",
        "state": "NJ",
        "postalCode": "08226-2568"
      },
      {
        "line": [
          "1100 Laurel Oak Road"
        ],
        "city": "VOORHEES",
        "state": "NJ",
        "postalCode": "08043-4363"
      },
      {
        "line": [
          "1 Brendenwood Drive"
        ],
        "city": "VOORHEES",
        "state": "NJ",
        "postalCode": "08043-1656"
      },
      {
        "line": [
          "535 N Oak Avenue"
        ],
        "city": "PITMAN",
        "state": "NJ",
        "postalCode": "08071-1025"
      },
      {
        "line": [
          "214 W. Jimmie Leeds Road"
        ],
        "city": "ABSECON",
        "state": "NJ",
        "postalCode": "08205-9408"
      },
      {
        "line": [
          "432 Central Ave"
        ],
        "city": "LINWOOD",
        "state": "NJ",
        "postalCode": "08221-1372"
      },
      {
        "line": [
          "235 Dolphin Ave"
        ],
        "city": "NORTHFIELD",
        "state": "NJ",
        "postalCode": "08225-2015"
      },
      {
        "line": [
          "6 Allard Road"
        ],
        "city": "BAYVILLE",
        "state": "NJ",
        "postalCode": "08721-2148"
      },
      {
        "line": [
          "591 Route 9 South"
        ],
        "city": "CAPE MAY COURT HOUSE",
        "state": "NJ",
        "postalCode": "08210-2369"
      },
      {
        "line": [
          "460 Haddon Ave"
        ],
        "city": "COLLINGSWOOD",
        "state": "NJ",
        "postalCode": "08108-1336"
      },
      {
        "line": [
          "1400 Route 70"
        ],
        "city": "LAKEWOOD",
        "state": "NJ",
        "postalCode": "08701-5949"
      },
      {
        "line": [
          "207 Laurel Road"
        ],
        "city": "VOORHEES",
        "state": "NJ",
        "postalCode": "08043-2317"
      },
      {
        "line": [
          "122 E. Main Street"
        ],
        "city": "MILLVILLE",
        "state": "NJ",
        "postalCode": "08332-4259"
      },
      {
        "line": [
          "22 W Jimmie Leeds Road"
        ],
        "city": "Galloway",
        "state": "NJ",
        "postalCode": "08205-9422"
      },
      {
        "line": [
          "467 Cooper Street"
        ],
        "city": "WOODBURY",
        "state": "NJ",
        "postalCode": "08096-2519"
      },
      {
        "line": [
          "101 Boardwalk"
        ],
        "city": "ATLANTIC CITY",
        "state": "NJ",
        "postalCode": "08401-7957"
      },
      {
        "line": [
          "66 W Jimmie Leeds Road"
        ],
        "city": "ABSECON",
        "state": "NJ",
        "postalCode": "08205-9401"
      },
      {
        "line": [
          "3025 Chapel Ave W"
        ],
        "city": "CHERRY HILL",
        "state": "NJ",
        "postalCode": "08002-1503"
      },
      {
        "line": [
          "610 Town Bank Road"
        ],
        "city": "CAPE MAY",
        "state": "NJ",
        "postalCode": "08204-3561"
      },
      {
        "line": [
          "256 County House Road"
        ],
        "city": "CLARKSBORO",
        "state": "NJ",
        "postalCode": "08020-1395"
      },
      {
        "line": [
          "378 Fries Mill Road"
        ],
        "city": "SEWELL",
        "state": "NJ",
        "postalCode": "08080-9023"
      },
      {
        "line": [
          "1417 Brace Road"
        ],
        "city": "CHERRY HILL",
        "state": "NJ",
        "postalCode": "08034-3524"
      },
      {
        "line": [
          "6818 Delilah Road"
        ],
        "city": "EGG HARBOR TOWNSHIP",
        "state": "NJ",
        "postalCode": "08234-9594"
      },
      {
        "line": [
          "685 Salina Rd"
        ],
        "city": "SEWELL",
        "state": "NJ",
        "postalCode": "08080-4602"
      },
      {
        "line": [
          "1674 Delsea Drive"
        ],
        "city": "WOODBURY",
        "state": "NJ",
        "postalCode": "08096-4117"
      },
      {
        "line": [
          "1020 Pitney Road"
        ],
        "city": "ABSECON",
        "state": "NJ",
        "postalCode": "08201-9716"
      },
      {
        "line": [
          "1511 Clements Bridge Road"
        ],
        "city": "WOODBURY",
        "state": "NJ",
        "postalCode": "08096-3007"
      },
      {
        "line": [
          "122 Green Avenue"
        ],
        "city": "WOODBURY",
        "state": "NJ",
        "postalCode": "08096-2764"
      },
      {
        "line": [
          "339 Greentree Road"
        ],
        "city": "SEWELL",
        "state": "NJ",
        "postalCode": "08080-4602"
      },
      {
        "line": [
          "535 Egg Harbor Road"
        ],
        "city": "SEWELL",
        "state": "NJ",
        "postalCode": "08080-2335"
      },
      {
        "line": [
          "29 N Vermont Ave"
        ],
        "city": "ATLANTIC CITY",
        "state": "NJ",
        "postalCode": "08401-5561"
      },
      {
        "line": [
          "2 Cooper Plaza"
        ],
        "city": "CAMDEN",
        "state": "NJ",
        "postalCode": "08103-1461"
      },
      {
        "line": [
          "550 Jessup Road"
        ],
        "city": "PAULSBORO",
        "state": "NJ",
        "postalCode": "08066-1921"
      },
      {
        "line": [
          "752 Cooper Street"
        ],
        "city": "WOODBURY",
        "state": "NJ",
        "postalCode": "08096-2521"
      },
      {
        "line": [
          "895 Westfield Rd"
        ],
        "city": "MOORESTOWN",
        "state": "NJ",
        "postalCode": "08057-2123"
      },
      {
        "line": [
          "210 Saint Mary's Drive"
        ],
        "city": "CHERRY HILL",
        "state": "NJ",
        "postalCode": "08003-2517"
      },
      {
        "line": [
          "2721 US 9"
        ],
        "city": "OCEAN VIEW",
        "state": "NJ",
        "postalCode": "08230-1097"
      },
      {
        "line": [
          "8025 BLACK HORSE PIKE, SUITE 501"
        ],
        "city": "PLEASANTVILLE",
        "state": "NJ",
        "postalCode": "08232-2967"
      },
      {
        "line": [
          "700 Mullica Hill Road"
        ],
        "city": "MULLICA HILL",
        "state": "NJ",
        "postalCode": "08062-4413"
      },
      {
        "line": [
          "161 Mullica Hill Road"
        ],
        "city": "MULLICA HILL",
        "state": "NJ",
        "postalCode": "08062-2634"
      },
      {
        "line": [
          "5030 Unami Boulevard"
        ],
        "city": "MAYS LANDING",
        "state": "NJ",
        "postalCode": "08330-2009"
      },
      {
        "line": [
          "1 Friends Drive"
        ],
        "city": "WOODSTOWN",
        "state": "NJ",
        "postalCode": "08098-1066"
      },
      {
        "line": [
          "1361 Route 72 West"
        ],
        "city": "MANAHAWKIN",
        "state": "NJ",
        "postalCode": "08050-2417"
      }
    ],
    "extension": [
      {
        "url": "https://fhir.athena.io/StructureDefinition/ah-practice",
        "valueReference": {
          "reference": "Organization/a-1.Practice-22434"
        }
      },
      {
        "url": "https://fhir.athena.io/StructureDefinition/ah-brand",
        "valueReference": {
          "reference": "Organization/a-22434.Brand-1"
        }
      }
    ]
  },
  "fullUrl": "urn:uuid:77424bb1-1918-547d-8104-1b7cc5bcb7f6"
}