{
  "resource": {
    "resourceType": "Organization",
    "id": "82582830-88af-56cf-bd2d-72fa65d1c245",
    "name": "ANGIE ETHRIDGE, APRN, PLLC",
    "endpoint": [
      {
        "reference": "Endpoint/27a4e967-47aa-5a9c-a572-b8297ee268a2"
      },
      {
        "reference": "Endpoint/1716a9c2-11b2-56b7-b90d-a28bc270d534"
      }
    ],
    "identifier": [
      {
        "system": "http://hl7.org/fhir/sid/us-npi",
        "value": "1114621661"
      }
    ],
    "address": [
      {
        "line": [
          "599 Rogersville Rd"
        ],
        "city": "RADCLIFF",
        "state": "KY",
        "postalCode": "40160-9321"
      },
      {
        "line": [
          "201 Harmony Way"
        ],
        "city": "ELIZABETHTOWN",
        "state": "KY",
        "postalCode": "42701-5965"
      },
      {
        "line": [
          "814 OLD EKRON RD"
        ],
        "city": "BRANDENBURG",
        "state": "KY",
        "postalCode": "40108-1149"
      },
      {
        "line": [
          "108 Diecks Dr"
        ],
        "city": "ELIZABETHTOWN",
        "state": "KY",
        "postalCode": "42701-2450"
      },
      {
        "line": [
          "125 Hilltop Dr. NE"
        ],
        "city": "CORYDON",
        "state": "IN",
        "postalCode": "47112-2142"
      },
      {
        "line": [
          "150 BEECHMONT DR NE"
        ],
        "city": "CORYDON",
        "state": "IN",
        "postalCode": "47112-1717"
      },
      {
        "line": [
          "871 PACER DR NW"
        ],
        "city": "CORYDON",
        "state": "IN",
        "postalCode": "47112-2145"
      },
      {
        "line": [
          "3715 Highway 135 SWW"
        ],
        "city": "CORYDON",
        "state": "IN",
        "postalCode": "47112-5836"
      },
      {
        "line": [
          "1299 Christian Church Rd"
        ],
        "city": "BRANDENBURG",
        "state": "KY",
        "postalCode": "40108-9512"
      },
      {
        "line": [
          "1850 VETERANS WAY"
        ],
        "city": "ELIZABETHTOWN",
        "state": "KY",
        "postalCode": "42701-2774"
      },
      {
        "line": [
          "1108 Regency Way"
        ],
        "city": "ELIZABETHTOWN",
        "state": "KY",
        "postalCode": "42701-7133"
      },
      {
        "line": [
          "133 Heartland Dr"
        ],
        "city": "ELIZABETHTOWN",
        "state": "KY",
        "postalCode": "42701-3802"
      }
    ],
    "extension": [
      {
        "url": "https://fhir.athena.io/StructureDefinition/ah-practice",
        "valueReference": {
          "reference": "Organization/a-1.Practice-29428"
        }
      },
      {
        "url": "https://fhir.athena.io/StructureDefinition/ah-brand",
        "valueReference": {
          "reference": "Organization/a-29428.Brand-4"
        }
      }
    ]
  },
  "fullUrl": "urn:uuid:82582830-88af-56cf-bd2d-72fa65d1c245"
}