{
  "resource": {
    "resourceType": "Organization",
    "id": "083c15e2-47b2-5f60-b15c-61b4c690c215",
    "name": "CENTER FOR WOUND CARE and HYPERBARIC",
    "endpoint": [
      {
        "reference": "Endpoint/27a4e967-47aa-5a9c-a572-b8297ee268a2"
      },
      {
        "reference": "Endpoint/35c93cbb-5802-5a21-b6c5-9c0266025b3c"
      }
    ],
    "identifier": [
      {
        "system": "http://hl7.org/fhir/sid/us-npi",
        "value": "1205866274"
      },
      {
        "system": "http://hl7.org/fhir/sid/us-npi",
        "value": "1538775481"
      },
      {
        "system": "http://hl7.org/fhir/sid/us-npi",
        "value": "1578561569"
      },
      {
        "system": "http://hl7.org/fhir/sid/us-npi",
        "value": "1053019588"
      }
    ],
    "address": [
      {
        "line": [
          "800 Falmouth Road",
          "Suite 102A"
        ],
        "city": "MASHPEE",
        "state": "MA",
        "postalCode": "02649-3303"
      },
      {
        "line": [
          "20 Indian Hill Road"
        ],
        "city": "VINEYARD HAVEN",
        "state": "MA",
        "postalCode": "02568-0001"
      },
      {
        "line": [
          "2014 Washington Street"
        ],
        "city": "NEWTON LOWER FALLS",
        "state": "MA",
        "postalCode": "02462-1607"
      },
      {
        "line": [
          "85 Lincoln Street",
          "Suite T4002"
        ],
        "city": "FRAMINGHAM",
        "state": "MA",
        "postalCode": "01702-6351"
      },
      {
        "line": [
          "123 SUMMER STREET"
        ],
        "city": "WORCESTER",
        "state": "MA",
        "postalCode": "01608-1216"
      },
      {
        "line": [
          "214 Charlton Road"
        ],
        "city": "STURBRIDGE",
        "state": "MA",
        "postalCode": "01566-1519"
      },
      {
        "line": [
          "981 WORCESTER ST, FLOOR 2"
        ],
        "city": "WELLESLEY",
        "state": "MA",
        "postalCode": "02482-3716"
      },
      {
        "line": [
          "114 Merriam Avenue",
          "Suite 101"
        ],
        "city": "LEOMINSTER",
        "state": "MA",
        "postalCode": "01453-3175"
      },
      {
        "line": [
          "33 EDGERTON DR"
        ],
        "city": "NORTH FALMOUTH",
        "state": "MA",
        "postalCode": "02556-2821"
      },
      {
        "line": [
          "2100 Dorchester Ave"
        ],
        "city": "DORCHESTER CENTER",
        "state": "MA",
        "postalCode": "02124-5666"
      },
      {
        "line": [
          "21 EASTERN AVENUE",
          "THIRD FLOOR"
        ],
        "city": "WORCESTER",
        "state": "MA",
        "postalCode": "01605-3094"
      },
      {
        "line": [
          "55 Fruit Street"
        ],
        "city": "BOSTON",
        "state": "MA",
        "postalCode": "02114-2621"
      },
      {
        "line": [
          "1 Loving Kindness Way"
        ],
        "city": "YORK",
        "state": "ME",
        "postalCode": "03909-1158"
      },
      {
        "line": [
          "27 Park Street"
        ],
        "city": "HYANNIS",
        "state": "MA",
        "postalCode": "02601-5230"
      },
      {
        "line": [
          "86 Baker Avenue Extension, Suite 307"
        ],
        "city": "CONCORD",
        "state": "MA",
        "postalCode": "01742-4169"
      },
      {
        "line": [
          "2033 MAIN ST"
        ],
        "city": "ATHOL",
        "state": "MA",
        "postalCode": "01331-3535"
      },
      {
        "line": [
          "85 Lincoln Street"
        ],
        "city": "FRAMINGHAM",
        "state": "MA",
        "postalCode": "01702-8200"
      },
      {
        "line": [
          "114 MERRIAM AVE",
          "SUITE 101"
        ],
        "city": "LEOMINSTER",
        "state": "MA",
        "postalCode": "01453-2238"
      },
      {
        "line": [
          "100 South St"
        ],
        "city": "SOUTHBRIDGE",
        "state": "MA",
        "postalCode": "01550-4047"
      },
      {
        "line": [
          "52 WALTHAM ST"
        ],
        "city": "LEXINGTON",
        "state": "MA",
        "postalCode": "02421-5407"
      },
      {
        "line": [
          "100 Ter Heun Drive"
        ],
        "city": "FALMOUTH",
        "state": "MA",
        "postalCode": "02540-2503"
      },
      {
        "line": [
          "175 FORE RIVER PKWY"
        ],
        "city": "PORTLAND",
        "state": "ME",
        "postalCode": "04102-2779"
      },
      {
        "line": [
          "736 CAMBRIDGE ST"
        ],
        "city": "BRIGHTON",
        "state": "MA",
        "postalCode": "02135-2907"
      },
      {
        "line": [
          "100 CAMP STREET"
        ],
        "city": "HYANNIS",
        "state": "MA",
        "postalCode": "02601-3063"
      },
      {
        "line": [
          "40 Industrial Park Road",
          "Suite 203"
        ],
        "city": "PLYMOUTH",
        "state": "MA",
        "postalCode": "02360-6123"
      },
      {
        "line": [
          "85 Lincoln Street",
          "STE T4002"
        ],
        "city": "FRAMINGHAM",
        "state": "MA",
        "postalCode": "01702-8200"
      },
      {
        "line": [
          "981 WORCESTER ST STE 2A"
        ],
        "city": "WELLESLEY",
        "state": "MA",
        "postalCode": "02482-3716"
      },
      {
        "line": [
          "28 PACIFIC ST"
        ],
        "city": "ROCKLAND",
        "state": "MA",
        "postalCode": "02370-2214"
      },
      {
        "line": [
          "275 SANDWICH ST"
        ],
        "city": "PLYMOUTH",
        "state": "MA",
        "postalCode": "02360-2183"
      },
      {
        "line": [
          "100 South Street"
        ],
        "city": "SOUTHBRIDGE",
        "state": "MA",
        "postalCode": "01550-4047"
      },
      {
        "line": [
          "85 Lincoln Street",
          "Ste T4002"
        ],
        "city": "FRAMINGHAM",
        "state": "MA",
        "postalCode": "01702-8200"
      },
      {
        "line": [
          "250 green st"
        ],
        "city": "GARDNER",
        "state": "MA",
        "postalCode": "01440-1396"
      },
      {
        "line": [
          "60 HOSPITAL"
        ],
        "city": "LEOMINSTER",
        "state": "MA",
        "postalCode": "01453-2205"
      },
      {
        "line": [
          "54 BAKER AVENUE EXTENSION"
        ],
        "city": "CONCORD",
        "state": "MA",
        "postalCode": "01742-2137"
      },
      {
        "line": [
          " 115 Lincoln St, Framingham, MA 01702",
          "Ste T4002"
        ],
        "city": "FRAMINGHAM",
        "state": "MA",
        "postalCode": "01702-8200"
      },
      {
        "line": [
          "127 LONG SANDS RD UNIT GA"
        ],
        "city": "YORK",
        "state": "ME",
        "postalCode": "03909-1158"
      },
      {
        "line": [
          "400 SOUTHBOROUGH DR STE 400-102"
        ],
        "city": "SOUTH PORTLAND",
        "state": "ME",
        "postalCode": "04106-3249"
      },
      {
        "line": [
          "60 HOSPITAL ROAD"
        ],
        "city": "LEOMINSTER",
        "state": "MA",
        "postalCode": "01453-2205"
      },
      {
        "line": [
          "2014 Washington Street"
        ],
        "city": "NEWTON LOWER FALLS",
        "state": "MA",
        "postalCode": "02462-1624"
      }
    ],
    "extension": [
      {
        "url": "https://fhir.athena.io/StructureDefinition/ah-practice",
        "valueReference": {
          "reference": "Organization/a-1.Practice-2915"
        }
      },
      {
        "url": "https://fhir.athena.io/StructureDefinition/ah-brand",
        "valueReference": {
          "reference": "Organization/a-2915.Brand-1"
        }
      }
    ]
  },
  "fullUrl": "urn:uuid:083c15e2-47b2-5f60-b15c-61b4c690c215"
}