{
  "resource": {
    "resourceType": "Organization",
    "id": "363e4fa8-29ea-5e72-a2c0-1531727db2d7",
    "name": "Wellspring Pain Solutions",
    "endpoint": [
      {
        "reference": "Endpoint/27a4e967-47aa-5a9c-a572-b8297ee268a2"
      },
      {
        "reference": "Endpoint/8ccb98dc-459f-5ed3-ae8a-99391d078bf0"
      }
    ],
    "identifier": [
      {
        "system": "http://hl7.org/fhir/sid/us-npi",
        "value": "1124100961"
      },
      {
        "system": "http://hl7.org/fhir/sid/us-npi",
        "value": "1346322187"
      }
    ],
    "address": [
      {
        "line": [
          "747 E. COUNTY LINE RD"
        ],
        "city": "GREENWOOD",
        "state": "IN",
        "postalCode": "46143-1082"
      },
      {
        "line": [
          "1421 N 7TH ST"
        ],
        "city": "TERRE HAUTE",
        "state": "IN",
        "postalCode": "47807-1005"
      },
      {
        "line": [
          "965 EMERSON PKWY SUITE K"
        ],
        "city": "GREENWOOD",
        "state": "IN",
        "postalCode": "46143-6274"
      },
      {
        "line": [
          "455 S LANDMARK AVE"
        ],
        "city": "BLOOMINGTON",
        "state": "IN",
        "postalCode": "47403-5004"
      },
      {
        "line": [
          "2400 17TH ST"
        ],
        "city": "COLUMBUS",
        "state": "IN",
        "postalCode": "47201-5351"
      },
      {
        "line": [
          "3740 S. 4th St"
        ],
        "city": "TERRE HAUTE",
        "state": "IN",
        "postalCode": "47802-5507"
      },
      {
        "line": [
          "2400 NORTHPARK DR",
          "STE 20"
        ],
        "city": "COLUMBUS",
        "state": "IN",
        "postalCode": "47203-4467"
      },
      {
        "line": [
          "24 SIX PINE RANCH ROAD"
        ],
        "city": "BATESVILLE",
        "state": "IN",
        "postalCode": "47006-1399"
      },
      {
        "line": [
          "2907 MCINTIRE DR SUITE C"
        ],
        "city": "BLOOMINGTON",
        "state": "IN",
        "postalCode": "47403-4224"
      },
      {
        "line": [
          "374 NORTHSIDE DR SUITE A"
        ],
        "city": "BATESVILLE",
        "state": "IN",
        "postalCode": "47006-7052"
      },
      {
        "line": [
          "2400 NORTHPARK DR"
        ],
        "city": "COLUMBUS",
        "state": "IN",
        "postalCode": "47203-4467"
      },
      {
        "line": [
          "907 W 2nd Street"
        ],
        "city": "BLOOMINGTON",
        "state": "IN",
        "postalCode": "47403-2214"
      },
      {
        "line": [
          "227 E. McCallister Drive"
        ],
        "city": "TERRE HAUTE",
        "state": "IN",
        "postalCode": "47802-4248"
      }
    ],
    "extension": [
      {
        "url": "https://fhir.athena.io/StructureDefinition/ah-practice",
        "valueReference": {
          "reference": "Organization/a-1.Practice-20982"
        }
      },
      {
        "url": "https://fhir.athena.io/StructureDefinition/ah-brand",
        "valueReference": {
          "reference": "Organization/a-20982.Brand-3"
        }
      }
    ]
  },
  "fullUrl": "urn:uuid:363e4fa8-29ea-5e72-a2c0-1531727db2d7"
}