{
  "resource": {
    "resourceType": "Organization",
    "id": "be16d173-f998-5706-8f28-77a3dfd3c991",
    "name": "River City Nephrology",
    "endpoint": [
      {
        "reference": "Endpoint/27a4e967-47aa-5a9c-a572-b8297ee268a2"
      },
      {
        "reference": "Endpoint/6fbfda1c-36ba-598b-a2d7-3b9b8dacaa76"
      }
    ],
    "identifier": [
      {
        "system": "http://hl7.org/fhir/sid/us-npi",
        "value": "1093450652"
      }
    ],
    "address": [
      {
        "line": [
          "3625 UNIVERSITY BLVD S"
        ],
        "city": "JACKSONVILLE",
        "state": "FL",
        "postalCode": "32216-4207"
      },
      {
        "line": [
          "1 SHIRCLIFF WAY"
        ],
        "city": "JACKSONVILLE",
        "state": "FL",
        "postalCode": "32204-4748"
      },
      {
        "line": [
          "4201 BELFORT RD"
        ],
        "city": "JACKSONVILLE",
        "state": "FL",
        "postalCode": "32216-1431"
      },
      {
        "line": [
          "9765 SAN JOSE BLVD",
          "STE 102"
        ],
        "city": "JACKSONVILLE",
        "state": "FL",
        "postalCode": "32257-5467"
      },
      {
        "line": [
          "7685 103RD ST # SUIT1"
        ],
        "city": "Jacksonville",
        "state": "FL",
        "postalCode": "32210-9325"
      },
      {
        "line": [
          "2001 KINGSLEY AVE"
        ],
        "city": "ORANGE PARK",
        "state": "FL",
        "postalCode": "32073-5148"
      },
      {
        "line": [
          "1883 KINGSLEY AVE"
        ],
        "city": "ORANGE PARK",
        "state": "FL",
        "postalCode": "32073-4479"
      },
      {
        "line": [
          "14550 OLD SAINT AUGUSTINE RD"
        ],
        "city": "JACKSONVILLE",
        "state": "FL",
        "postalCode": "32258-2460"
      },
      {
        "line": [
          "2449 UNIVERSITY BLVD W"
        ],
        "city": "JACKSONVILLE",
        "state": "FL",
        "postalCode": "32217-2037"
      },
      {
        "line": [
          "1670 ST VINCENTS WAY"
        ],
        "city": "MIDDLEBURG",
        "state": "FL",
        "postalCode": "32068-8447"
      },
      {
        "line": [
          "400 COLLEGE DR"
        ],
        "city": "MIDDLEBURG",
        "state": "FL",
        "postalCode": "32068-8523"
      },
      {
        "line": [
          "3599 UNIVERSITY BLVD S"
        ],
        "city": "JACKSONVILLE",
        "state": "FL",
        "postalCode": "32216-4252"
      },
      {
        "line": [
          "4901 RICHARD ST"
        ],
        "city": "JACKSONVILLE",
        "state": "FL",
        "postalCode": "32207-7328"
      },
      {
        "line": [
          "800 PRUDENTIAL DR"
        ],
        "city": "JACKSONVILLE",
        "state": "FL",
        "postalCode": "32207-8202"
      },
      {
        "line": [
          "444 W MADISON ST"
        ],
        "city": "STARKE",
        "state": "FL",
        "postalCode": "32091-3926"
      }
    ],
    "extension": [
      {
        "url": "https://fhir.athena.io/StructureDefinition/ah-practice",
        "valueReference": {
          "reference": "Organization/a-1.Practice-26160"
        }
      },
      {
        "url": "https://fhir.athena.io/StructureDefinition/ah-brand",
        "valueReference": {
          "reference": "Organization/a-26160.Brand-1"
        }
      }
    ]
  },
  "fullUrl": "urn:uuid:be16d173-f998-5706-8f28-77a3dfd3c991"
}