{
  "resource": {
    "resourceType": "Organization",
    "id": "8606b10f-df83-5c44-918f-7f7cbe236054",
    "name": "Greenbrook Alexandria",
    "endpoint": [
      {
        "reference": "Endpoint/27a4e967-47aa-5a9c-a572-b8297ee268a2"
      },
      {
        "reference": "Endpoint/ca22cad7-e172-5ca8-ab38-fb90214a777d"
      }
    ],
    "identifier": [
      {
        "system": "http://hl7.org/fhir/sid/us-npi",
        "value": "1326598244"
      },
      {
        "system": "http://hl7.org/fhir/sid/us-npi",
        "value": "1104457126"
      },
      {
        "system": "http://hl7.org/fhir/sid/us-npi",
        "value": "1114454808"
      },
      {
        "system": "http://hl7.org/fhir/sid/us-npi",
        "value": "1366005183"
      },
      {
        "system": "http://hl7.org/fhir/sid/us-npi",
        "value": "1477012813"
      },
      {
        "system": "http://hl7.org/fhir/sid/us-npi",
        "value": "1295286920"
      },
      {
        "system": "http://hl7.org/fhir/sid/us-npi",
        "value": "1154892230"
      },
      {
        "system": "http://hl7.org/fhir/sid/us-npi",
        "value": "1093282360"
      },
      {
        "system": "http://hl7.org/fhir/sid/us-npi",
        "value": "1578126306"
      },
      {
        "system": "http://hl7.org/fhir/sid/us-npi",
        "value": "1700440203"
      },
      {
        "system": "http://hl7.org/fhir/sid/us-npi",
        "value": "1144713884"
      },
      {
        "system": "http://hl7.org/fhir/sid/us-npi",
        "value": "1275983330"
      },
      {
        "system": "http://hl7.org/fhir/sid/us-npi",
        "value": "1417420456"
      },
      {
        "system": "http://hl7.org/fhir/sid/us-npi",
        "value": "1073179123"
      },
      {
        "system": "http://hl7.org/fhir/sid/us-npi",
        "value": "1376102772"
      }
    ],
    "address": [
      {
        "line": [
          "1450 Frazee Road",
          "STE 210"
        ],
        "city": "SAN DIEGO",
        "state": "CA",
        "postalCode": "92108-4337"
      },
      {
        "line": [
          "505 5th Street",
          "Suite 433"
        ],
        "city": "SIOUX CITY",
        "state": "IA",
        "postalCode": "51101-1505"
      },
      {
        "line": [
          "2741 Debarr Road",
          "STE 411"
        ],
        "city": "ANCHORAGE",
        "state": "AK",
        "postalCode": "99508-2998"
      },
      {
        "line": [
          "596 Lynnhaven Pkwy",
          "STE 100"
        ],
        "city": "VIRGINIA BEACH",
        "state": "VA",
        "postalCode": "23452-7371"
      },
      {
        "line": [
          "8755 SW Citizens Drive",
          "STE 203"
        ],
        "city": "WILSONVILLE",
        "state": "OR",
        "postalCode": "97070-8405"
      },
      {
        "line": [
          "6701 CARMEL RD STE 305"
        ],
        "city": "CHARLOTTE",
        "state": "NC",
        "postalCode": "28226-0209"
      },
      {
        "line": [
          "820 N. Mountain Avenue",
          "STE 215"
        ],
        "city": "UPLAND",
        "state": "CA",
        "postalCode": "91786-4111"
      },
      {
        "line": [
          "29800 Agoura Rd",
          "Suite 200"
        ],
        "city": "AGOURA HILLS",
        "state": "CA",
        "postalCode": "91301-2560"
      },
      {
        "line": [
          "9555 SW BARNES RD STE 351"
        ],
        "city": "PORTLAND",
        "state": "OR",
        "postalCode": "97225-6664"
      },
      {
        "line": [
          "5475 E. La Palma",
          "STE 200"
        ],
        "city": "ANAHEIM",
        "state": "CA",
        "postalCode": "92807-2075"
      },
      {
        "line": [
          "541 MAIN ST STE 316"
        ],
        "city": "SOUTH WEYMOUTH",
        "state": "MA",
        "postalCode": "02190-1857"
      },
      {
        "line": [
          "703 Hebron Ave",
          "2nd Floor SW"
        ],
        "city": "GLASTONBURY",
        "state": "CT",
        "postalCode": "06033-5001"
      },
      {
        "line": [
          "209 W. Central Street",
          "Suite 208"
        ],
        "city": "NATICK",
        "state": "MA",
        "postalCode": "01760-3716"
      },
      {
        "line": [
          "6605 Cypresswood Drive",
          "Suite 185"
        ],
        "city": "SPRING",
        "state": "TX",
        "postalCode": "77379-7890"
      },
      {
        "line": [
          "140 Sherman St.",
          "5th floor"
        ],
        "city": "FAIRFIELD",
        "state": "CT",
        "postalCode": "06824-5849"
      },
      {
        "line": [
          "88 Noble Avenue Suite 202"
        ],
        "city": "MILFORD",
        "state": "CT",
        "postalCode": "06460-5200"
      },
      {
        "line": [
          "299 Carew Street",
          "Suite 418"
        ],
        "city": "SPRINGFIELD",
        "state": "MA",
        "postalCode": "01104-2361"
      },
      {
        "line": [
          "33 LYMAN ST"
        ],
        "city": "WESTBOROUGH",
        "state": "MA",
        "postalCode": "01581-1404"
      },
      {
        "line": [
          "1111 CIRCLE DR"
        ],
        "city": "MONROE",
        "state": "NC",
        "postalCode": "28112-5834"
      },
      {
        "line": [
          "9 E. Southridge Road",
          "Suite E"
        ],
        "city": "MARSHALLTOWN",
        "state": "IA",
        "postalCode": "50158-4550"
      },
      {
        "line": [
          "5060 Shoreham Dr",
          "Ste 100"
        ],
        "city": "SAN DIEGO",
        "state": "CA",
        "postalCode": "92122-5903"
      },
      {
        "line": [
          "1981 E. Palmer-Wasilla Highway",
          "STE 230"
        ],
        "city": "WASILLA",
        "state": "AK",
        "postalCode": "99654-7235"
      },
      {
        "line": [
          "72980 Fred Waring Road",
          "STE C"
        ],
        "city": "PALM DESERT",
        "state": "CA",
        "postalCode": "92260-2898"
      },
      {
        "line": [
          "820 N Mountain Ave",
          "Ste 215"
        ],
        "city": "CHULA VISTA",
        "state": "CA",
        "postalCode": "91910-5261"
      },
      {
        "line": [
          "2949 Crouse Lane",
          "STE 500"
        ],
        "city": "BURLINGTON",
        "state": "NC",
        "postalCode": "27215-9350"
      },
      {
        "line": [
          "700 N Hayden Island Drive",
          "STE 350"
        ],
        "city": "PORTLAND",
        "state": "OR",
        "postalCode": "97217-8170"
      },
      {
        "line": [
          "15005 SHADY GROVE ROAD",
          "SUITE 400"
        ],
        "city": "ROCKVILLE",
        "state": "MD",
        "postalCode": "20850-6321"
      },
      {
        "line": [
          "2774 Electric Rd",
          "STE B"
        ],
        "city": "ROANOKE",
        "state": "VA",
        "postalCode": "24018-3586"
      },
      {
        "line": [
          "28545 ORCHARD LAKE RD STE A"
        ],
        "city": "FARMINGTON",
        "state": "MI",
        "postalCode": "48334-2996"
      },
      {
        "line": [
          "400 West Cummings Park",
          "Suite 4175"
        ],
        "city": "WOBURN",
        "state": "MA",
        "postalCode": "01801-6509"
      },
      {
        "line": [
          "3950 S. Rochester Rd"
        ],
        "city": "ROCHESTER",
        "state": "MI",
        "postalCode": "48307-9999"
      },
      {
        "line": [
          "1 Meeting House Road",
          "Suite 3"
        ],
        "city": "CHELMSFORD",
        "state": "MA",
        "postalCode": "01824-2734"
      },
      {
        "line": [
          "3220 S Higuera",
          "STE 306"
        ],
        "city": "SAN LUIS OBISPO",
        "state": "CA",
        "postalCode": "93401-6987"
      },
      {
        "line": [
          "7945 MACARTHUR BLVD STE 208"
        ],
        "city": "CABIN JOHN",
        "state": "MD",
        "postalCode": "20818-1634"
      },
      {
        "line": [
          "30343 Canwood Street",
          "STE 104"
        ],
        "city": "AGOURA HILLS",
        "state": "CA",
        "postalCode": "91301-4398"
      },
      {
        "line": [
          "1500 Sunday Dr",
          "STE 102"
        ],
        "city": "RALEIGH",
        "state": "NC",
        "postalCode": "27607-5151"
      },
      {
        "line": [
          "17075 Devonshire Street",
          "STE 204"
        ],
        "city": "NORTHRIDGE",
        "state": "CA",
        "postalCode": "91325-1600"
      },
      {
        "line": [
          "900 Lane Avenue",
          "STE 114"
        ],
        "city": "CHULA VISTA",
        "state": "CA",
        "postalCode": "91914-4515"
      },
      {
        "line": [
          "1917 Abbott Road",
          "STE 101"
        ],
        "city": "ANCHORAGE",
        "state": "AK",
        "postalCode": "99507-3449"
      },
      {
        "line": [
          "28 FIRST ST"
        ],
        "city": "MOUNT CLEMENS",
        "state": "MI",
        "postalCode": "48043-2523"
      },
      {
        "line": [
          "1981 E. Palmer-Wasilla Highway",
          "STE 202"
        ],
        "city": "WASILLA",
        "state": "AK",
        "postalCode": "99654-7289"
      },
      {
        "line": [
          "700 NE Multnomah Street",
          "STE 870"
        ],
        "city": "PORTLAND",
        "state": "OR",
        "postalCode": "97232-2131"
      },
      {
        "line": [
          "836 Farmington Ave",
          "STE 109"
        ],
        "city": "WEST HARTFORD",
        "state": "CT",
        "postalCode": "06119-1544"
      },
      {
        "line": [
          "1113 Healthway Drive"
        ],
        "city": "SALISBURY",
        "state": "MD",
        "postalCode": "21804-4470"
      },
      {
        "line": [
          "32605 Temecula Parkway",
          "STE 220"
        ],
        "city": "TEMECULA",
        "state": "CA",
        "postalCode": "92592-6837"
      },
      {
        "line": [
          "305 E. Eisenhower Parkway",
          "STE 316"
        ],
        "city": "ANN ARBOR",
        "state": "MI",
        "postalCode": "48108-3348"
      },
      {
        "line": [
          "5700 Mexico Road",
          "STE 10"
        ],
        "city": "SAINT PETERS",
        "state": "MO",
        "postalCode": "63376-1667"
      },
      {
        "line": [
          "9904 Clayton Rd"
        ],
        "city": "SAINT LOUIS",
        "state": "MO",
        "postalCode": "63124-1147"
      },
      {
        "line": [
          "18700 Main Street",
          "STE 108"
        ],
        "city": "HUNTINGTON BEACH",
        "state": "CA",
        "postalCode": "92648-1706"
      },
      {
        "line": [
          "50 MEMORIAL DR STE 112"
        ],
        "city": "LEOMINSTER",
        "state": "MA",
        "postalCode": "01453-2238"
      },
      {
        "line": [
          "603 Dolley Madison, Suite 204"
        ],
        "city": "GREENSBORO",
        "state": "NC",
        "postalCode": "27410-2558"
      },
      {
        "line": [
          "2 Dundee Park Drive",
          "Suite 205A"
        ],
        "city": "ANDOVER",
        "state": "MA",
        "postalCode": "01810-3735"
      },
      {
        "line": [
          "1829 Reisterstown Rd",
          "ste 460"
        ],
        "city": "PIKESVILLE",
        "state": "MD",
        "postalCode": "21208-7107"
      },
      {
        "line": [
          "5060 Shoreham Place",
          "STE 330"
        ],
        "city": "SAN DIEGO",
        "state": "CA",
        "postalCode": "92122-5903"
      },
      {
        "line": [
          "39520 WOODWARD AVE STE 233"
        ],
        "city": "BLOOMFIELD HILLS",
        "state": "MI",
        "postalCode": "48304-5059"
      },
      {
        "line": [
          "3220 S Higuera",
          "STE 205"
        ],
        "city": "SAN LUIS OBISPO",
        "state": "CA",
        "postalCode": "93401-6987"
      },
      {
        "line": [
          "1450 Frazee Rd",
          "Ste 210"
        ],
        "city": "SAN DIEGO",
        "state": "CA",
        "postalCode": "92108-4337"
      },
      {
        "line": [
          "8800 SE Sunnyside Road",
          "STE 137S"
        ],
        "city": "CLACKAMAS",
        "state": "OR",
        "postalCode": "97015-5738"
      },
      {
        "line": [
          "2560 Huntington Ave",
          "Suite 306"
        ],
        "city": "ALEXANDRIA",
        "state": "VA",
        "postalCode": "22303-9999"
      },
      {
        "line": [
          "51221 Schoenherr Rd",
          "STE 107"
        ],
        "city": "Shelby Township",
        "state": "MI",
        "postalCode": "48315-2715"
      },
      {
        "line": [
          "299 Ca50 MEMORIAL DR STE 112rew Street"
        ],
        "city": "LEOMINSTER",
        "state": "MA",
        "postalCode": "01453-2238"
      },
      {
        "line": [
          "505 5th Street",
          "Suite 627"
        ],
        "city": "SIOUX CITY",
        "state": "IA",
        "postalCode": "51101-1505"
      },
      {
        "line": [
          "7474 Greenway Center Dr",
          "STE 700A"
        ],
        "city": "GREENBELT",
        "state": "MD",
        "postalCode": "20770-4110"
      },
      {
        "line": [
          "1517 N. Ankeny Blvd.",
          "Suite E"
        ],
        "city": "ANKENY",
        "state": "IA",
        "postalCode": "50023-4120"
      },
      {
        "line": [
          "780 BAY BLVD STE 203"
        ],
        "city": "CHULA VISTA",
        "state": "CA",
        "postalCode": "91910-5261"
      },
      {
        "line": [
          "16835 West Bernardo Drive",
          "STE 202"
        ],
        "city": "SAN DIEGO",
        "state": "CA",
        "postalCode": "92127-1611"
      },
      {
        "line": [
          "534 Main Street",
          "Suite 4"
        ],
        "city": "SOUTH WEYMOUTH",
        "state": "MA",
        "postalCode": "02190-1872"
      },
      {
        "line": [
          "4807 Rockside Road",
          "Suite 450"
        ],
        "city": "INDEPENDENCE",
        "state": "OH",
        "postalCode": "44131-2192"
      },
      {
        "line": [
          "225 Water Street",
          "Suite 200"
        ],
        "city": "PLYMOUTH",
        "state": "MA",
        "postalCode": "02360-4060"
      },
      {
        "line": [
          "1867 Airport Way",
          "STE 220"
        ],
        "city": "FAIRBANKS",
        "state": "AK",
        "postalCode": "99701-4062"
      },
      {
        "line": [
          "19 Cedar Street"
        ],
        "city": "WORCESTER",
        "state": "MA",
        "postalCode": "01609-2530"
      },
      {
        "line": [
          "6595 S Florida Ave",
          "Unit 1"
        ],
        "city": "LAKELAND",
        "state": "FL",
        "postalCode": "33813-9999"
      },
      {
        "line": [
          "3815 Pelham St",
          "STE 16"
        ],
        "city": "DEARBORN",
        "state": "MI",
        "postalCode": "48124-3852"
      },
      {
        "line": [
          "16835 West Bernardo Dr"
        ],
        "city": "SAN DIEGO",
        "state": "CA",
        "postalCode": "92127-1611"
      },
      {
        "line": [
          "17782 Cowan",
          "STE C"
        ],
        "city": "IRVINE",
        "state": "CA",
        "postalCode": "92614-6030"
      },
      {
        "line": [
          "410 Foulk Road",
          "Suite 106"
        ],
        "city": "WILMINGTON",
        "state": "DE",
        "postalCode": "19803-9999"
      },
      {
        "line": [
          "121 Beckwood Drive",
          "Suite 202"
        ],
        "city": "BEAR",
        "state": "DE",
        "postalCode": "19701-9999"
      },
      {
        "line": [
          "1675 SW Marlow Ave",
          "STE 309"
        ],
        "city": "PORTLAND",
        "state": "OR",
        "postalCode": "97225-5104"
      },
      {
        "line": [
          "8800 SE SUNNYSIDE RD STE 305N"
        ],
        "city": "CLACKAMAS",
        "state": "OR",
        "postalCode": "97015-5703"
      },
      {
        "line": [
          "33971 Selva Road",
          "STE 200"
        ],
        "city": "DANA POINT",
        "state": "CA",
        "postalCode": "92629-3788"
      },
      {
        "line": [
          "2386 Faraday Avenue",
          "STE 110"
        ],
        "city": "CARLSBAD",
        "state": "CA",
        "postalCode": "92008-7224"
      },
      {
        "line": [
          "11350 RANDOM HILLS RD STE 250"
        ],
        "city": "FAIRFAX",
        "state": "VA",
        "postalCode": "22030-7481"
      },
      {
        "line": [
          "9890 CLAYTON RD STE 100"
        ],
        "city": "SAINT LOUIS",
        "state": "MO",
        "postalCode": "63124-1685"
      },
      {
        "line": [
          "47 Pleasant Street",
          "Suite 1-NW"
        ],
        "city": "NORTHAMPTON",
        "state": "MA",
        "postalCode": "01060-3984"
      },
      {
        "line": [
          "780 Bay Blvd"
        ],
        "city": "CHULA VISTA",
        "state": "CA",
        "postalCode": "91910-5261"
      },
      {
        "line": [
          "1675 SW Marlow Avenue",
          "STE 309"
        ],
        "city": "PORTLAND",
        "state": "OR",
        "postalCode": "97225-5104"
      },
      {
        "line": [
          "1085 TUNNEL RD",
          "Suite 301"
        ],
        "city": "ASHEVILLE",
        "state": "NC",
        "postalCode": "28805-2056"
      },
      {
        "line": [
          "45 Lyman Street",
          "Suite 24"
        ],
        "city": "WESTBOROUGH",
        "state": "MA",
        "postalCode": "01581-2658"
      }
    ],
    "extension": [
      {
        "url": "https://fhir.athena.io/StructureDefinition/ah-practice",
        "valueReference": {
          "reference": "Organization/a-1.Practice-18773"
        }
      },
      {
        "url": "https://fhir.athena.io/StructureDefinition/ah-brand",
        "valueReference": {
          "reference": "Organization/a-18773.Brand-1"
        }
      }
    ]
  },
  "fullUrl": "urn:uuid:8606b10f-df83-5c44-918f-7f7cbe236054"
}