{
  "resource": {
    "resourceType": "Organization",
    "id": "fcc8a3e5-7400-5157-98c0-a309546d0031",
    "name": "CORE ORTHOPEDICS & SPORTS MEDICINE",
    "endpoint": [
      {
        "reference": "Endpoint/27a4e967-47aa-5a9c-a572-b8297ee268a2"
      },
      {
        "reference": "Endpoint/dc44aea8-7fbe-5e0c-97ac-ce493b7d6cb6"
      }
    ],
    "identifier": [
      {
        "system": "http://hl7.org/fhir/sid/us-npi",
        "value": "1093918161"
      }
    ],
    "address": [
      {
        "line": [
          "1555 BARRINGTON RD"
        ],
        "city": "HOFFMAN ESTATES",
        "state": "IL",
        "postalCode": "60169-1019"
      },
      {
        "line": [
          "1555 BARRINTON RD"
        ],
        "city": "HOFFMAN ESTATES",
        "state": "IL",
        "postalCode": "60169-1019"
      },
      {
        "line": [
          "450 W II ROUTE 22"
        ],
        "city": "BARRINGTON",
        "state": "IL",
        "postalCode": "60010-1919"
      },
      {
        "line": [
          "800  BIESTERFIELD RD."
        ],
        "city": "ELK GROVE VILLAGE",
        "state": "IL",
        "postalCode": "60007-3306"
      },
      {
        "line": [
          "2380 Lakewood Blve"
        ],
        "city": "HOFFMAN ESTATES",
        "state": "IL",
        "postalCode": "60192-2025"
      },
      {
        "line": [
          "450 W II Route 22"
        ],
        "city": "BARRINGTON",
        "state": "IL",
        "postalCode": "60010-1919"
      },
      {
        "line": [
          "800 Biesterfield Rd"
        ],
        "city": "ELK GROVE VILLAGE",
        "state": "IL",
        "postalCode": "60007-3306"
      },
      {
        "line": [
          "680 BIESTERFIELD RD."
        ],
        "city": "ELK GROVE VILLAGE",
        "state": "IL",
        "postalCode": "60007-3306"
      },
      {
        "line": [
          "555 BIESTERFIELD RD."
        ],
        "city": "ELK GROVE VILLAGE",
        "state": "IL",
        "postalCode": "60007-3306"
      },
      {
        "line": [
          "555 Biesterfield Road"
        ],
        "city": "ELK GROVE VILLAGE",
        "state": "IL",
        "postalCode": "60007-3306"
      },
      {
        "line": [
          "2380 LAKEWOOD BLVD"
        ],
        "city": "HOFFMAN ESTATES",
        "state": "IL",
        "postalCode": "60192-2025"
      },
      {
        "line": [
          "1555 BARRINGTON ROAD"
        ],
        "city": "HOFFMAN ESTATES",
        "state": "IL",
        "postalCode": "60169-1019"
      },
      {
        "line": [
          "555 BIESTERFIELD RD"
        ],
        "city": "ELK GROVE VILLAGE",
        "state": "IL",
        "postalCode": "60007-3306"
      },
      {
        "line": [
          "2550 W Algonquin Road",
          "#3503"
        ],
        "city": "LAKE IN THE HILLS",
        "state": "IL",
        "postalCode": "60156-3503"
      }
    ],
    "extension": [
      {
        "url": "https://fhir.athena.io/StructureDefinition/ah-practice",
        "valueReference": {
          "reference": "Organization/a-1.Practice-9398"
        }
      },
      {
        "url": "https://fhir.athena.io/StructureDefinition/ah-brand",
        "valueReference": {
          "reference": "Organization/a-9398.Brand-1"
        }
      }
    ]
  },
  "fullUrl": "urn:uuid:fcc8a3e5-7400-5157-98c0-a309546d0031"
}