{
  "resource": {
    "resourceType": "Organization",
    "id": "c11e17c7-2bb6-58d0-91db-c4cb45836693",
    "name": "Gautam Medical",
    "endpoint": [
      {
        "reference": "Endpoint/27a4e967-47aa-5a9c-a572-b8297ee268a2"
      },
      {
        "reference": "Endpoint/8ca46f9f-f408-566b-92fe-96ecd2aca44c"
      }
    ],
    "identifier": [
      {
        "system": "http://hl7.org/fhir/sid/us-npi",
        "value": "1366490310"
      }
    ],
    "address": [
      {
        "line": [
          "15428 CIVIC DR"
        ],
        "city": "VICTORVILLE",
        "state": "CA",
        "postalCode": "92392-2383"
      },
      {
        "line": [
          "11030 ARROW RTE STE 202"
        ],
        "city": "RANCHO CUCAMONGA",
        "state": "CA",
        "postalCode": "91730-4837"
      },
      {
        "line": [
          "16850 BEAR VALLEY RD"
        ],
        "city": "VICTORVILLE",
        "state": "CA",
        "postalCode": "92395-5794"
      },
      {
        "line": [
          "356 W COLORADO ST STE A"
        ],
        "city": "GLENDALE",
        "state": "CA",
        "postalCode": "91204-1603"
      },
      {
        "line": [
          "8213 ROCHESTER AVE"
        ],
        "city": "RANCHO CUCAMONGA",
        "state": "CA",
        "postalCode": "91730-0739"
      },
      {
        "line": [
          "121 S 7TH AVE",
          "STE B"
        ],
        "city": "BARSTOW",
        "state": "CA",
        "postalCode": "92311-3059"
      },
      {
        "line": [
          "2505 FOOTHILL BLVD"
        ],
        "city": "LA CRESCENTA",
        "state": "CA",
        "postalCode": "91214-3550"
      },
      {
        "line": [
          "20135 ONEIDA AVE"
        ],
        "city": "APPLE VALLEY",
        "state": "CA",
        "postalCode": "92307-5207"
      },
      {
        "line": [
          "12598 CENTRAL AVE STE 210"
        ],
        "city": "CHINO",
        "state": "CA",
        "postalCode": "91710-3530"
      },
      {
        "line": [
          "14455 PARK AVE STE E"
        ],
        "city": "VICTORVILLE",
        "state": "CA",
        "postalCode": "92392-2344"
      },
      {
        "line": [
          "12241 Industrial Blvd STE 202"
        ],
        "city": "VICTORVILLE",
        "state": "CA",
        "postalCode": "92395-2395"
      },
      {
        "line": [
          "820 E MOUNTAIN VIEW ST"
        ],
        "city": "BARSTOW",
        "state": "CA",
        "postalCode": "92311-3004"
      },
      {
        "line": [
          "639 S GLENWOOD PL",
          "UNIT 19"
        ],
        "city": "BURBANK",
        "state": "CA",
        "postalCode": "91506-2819"
      },
      {
        "line": [
          "26922 CAMINO DE ESTRELLA"
        ],
        "city": "CAPISTRANO BEACH",
        "state": "CA",
        "postalCode": "92624-1603"
      },
      {
        "line": [
          "16484 VICTOR ST"
        ],
        "city": "VICTORVILLE",
        "state": "CA",
        "postalCode": "92395-3918"
      },
      {
        "line": [
          "3355 Cahuenga Blvd W Ste #7"
        ],
        "city": "LOS ANGELES",
        "state": "CA",
        "postalCode": "90068-0068"
      },
      {
        "line": [
          "27555 RIMROCK RD"
        ],
        "city": "BARSTOW",
        "state": "CA",
        "postalCode": "92311-4230"
      },
      {
        "line": [
          "1421 E COOLEY DR STE 4"
        ],
        "city": "COLTON",
        "state": "CA",
        "postalCode": "92324-3979"
      },
      {
        "line": [
          "705 E VIRGINIA WAY",
          "STE D"
        ],
        "city": "BARSTOW",
        "state": "CA",
        "postalCode": "92311-3955"
      },
      {
        "line": [
          "19031 US HIGHWAY 18"
        ],
        "city": "APPLE VALLEY",
        "state": "CA",
        "postalCode": "92307-2515"
      },
      {
        "line": [
          "14070 HESPERIA RD"
        ],
        "city": "VICTORVILLE",
        "state": "CA",
        "postalCode": "92395-4546"
      }
    ],
    "extension": [
      {
        "url": "https://fhir.athena.io/StructureDefinition/ah-practice",
        "valueReference": {
          "reference": "Organization/a-1.Practice-28873"
        }
      },
      {
        "url": "https://fhir.athena.io/StructureDefinition/ah-brand",
        "valueReference": {
          "reference": "Organization/a-28873.Brand-1"
        }
      }
    ]
  },
  "fullUrl": "urn:uuid:c11e17c7-2bb6-58d0-91db-c4cb45836693"
}