{
  "resource": {
    "resourceType": "Organization",
    "id": "3258d948-9fc8-573f-8be3-3f582fa75d91",
    "name": "Annapolis Family Clinic",
    "endpoint": [
      {
        "reference": "Endpoint/27a4e967-47aa-5a9c-a572-b8297ee268a2"
      },
      {
        "reference": "Endpoint/d19dbc08-8715-52df-9f78-5954126921d1"
      }
    ],
    "identifier": [
      {
        "system": "http://hl7.org/fhir/sid/us-npi",
        "value": "1083745475"
      }
    ],
    "address": [
      {
        "line": [
          "110 S 2ND ST"
        ],
        "city": "ELLINGTON",
        "state": "MO",
        "postalCode": "63638-9400"
      },
      {
        "line": [
          "750 PARK DR"
        ],
        "city": "IRONTON",
        "state": "MO",
        "postalCode": "63650-1480"
      },
      {
        "line": [
          "100 Hard Rock Road"
        ],
        "city": "VAN BUREN",
        "state": "MO",
        "postalCode": "63965-0220"
      },
      {
        "line": [
          "110 South Second Street",
          "P O Box 157"
        ],
        "city": "ELLINGTON",
        "state": "MO",
        "postalCode": "63638-0157"
      },
      {
        "line": [
          "1300 VICTORY LN"
        ],
        "city": "POPLAR BLUFF",
        "state": "MO",
        "postalCode": "63901-3300"
      },
      {
        "line": [
          "2300 BAUGH LN"
        ],
        "city": "POPLAR BLUFF",
        "state": "MO",
        "postalCode": "63901-2402"
      },
      {
        "line": [
          "3100 Oak Grove Road"
        ],
        "city": "POPLAR BLUFF",
        "state": "MO",
        "postalCode": "63901-1573"
      },
      {
        "line": [
          "PO BOX 157"
        ],
        "city": "ELLINGTON",
        "state": "MO",
        "postalCode": "63638-0157"
      },
      {
        "line": [
          "109 Plum Street"
        ],
        "city": "DONIPHAN",
        "state": "MO",
        "postalCode": "63935-0109"
      },
      {
        "line": [
          "202 West College Street"
        ],
        "city": "VAN BUREN",
        "state": "MO",
        "postalCode": "63965-0202"
      },
      {
        "line": [
          "711 NICKEY ST"
        ],
        "city": "POPLAR BLUFF",
        "state": "MO",
        "postalCode": "63901-6544"
      },
      {
        "line": [
          "123 Testing Road"
        ],
        "city": "ELLINGTON",
        "state": "MO",
        "postalCode": "63638-9400"
      },
      {
        "line": [
          "603 E SUMMIT ST"
        ],
        "city": "DONIPHAN",
        "state": "MO",
        "postalCode": "63935-1142"
      },
      {
        "line": [
          "101 E. Batten St"
        ],
        "city": "NAYLOR",
        "state": "MO",
        "postalCode": "63953-7837"
      },
      {
        "line": [
          "110 S. 2nd Street"
        ],
        "city": "ELLINGTON",
        "state": "MO",
        "postalCode": "63638-9400"
      },
      {
        "line": [
          "289 Broadway Street"
        ],
        "city": "NEELYVILLE",
        "state": "MO",
        "postalCode": "63954-7176"
      },
      {
        "line": [
          "11001 US 60"
        ],
        "city": "HARVIELL",
        "state": "MO",
        "postalCode": "63945-9999"
      },
      {
        "line": [
          "2210 BARRON RD STE 222"
        ],
        "city": "POPLAR BLUFF",
        "state": "MO",
        "postalCode": "63901-1906"
      },
      {
        "line": [
          "3277 US Highway 160 W."
        ],
        "city": "DONIPHAN",
        "state": "MO",
        "postalCode": "63935-5710"
      },
      {
        "line": [
          "210 School St"
        ],
        "city": "ANNAPOLIS",
        "state": "MO",
        "postalCode": "63620-0210"
      }
    ],
    "extension": [
      {
        "url": "https://fhir.athena.io/StructureDefinition/ah-practice",
        "valueReference": {
          "reference": "Organization/a-1.Practice-14422"
        }
      },
      {
        "url": "https://fhir.athena.io/StructureDefinition/ah-brand",
        "valueReference": {
          "reference": "Organization/a-14422.Brand-1"
        }
      }
    ]
  },
  "fullUrl": "urn:uuid:3258d948-9fc8-573f-8be3-3f582fa75d91"
}