{
  "resource": {
    "resourceType": "Organization",
    "id": "42fdff0b-bf66-5cc8-80ed-13a0f182a582",
    "name": "Mount Carmel Neurosurgery",
    "endpoint": [
      {
        "reference": "Endpoint/27a4e967-47aa-5a9c-a572-b8297ee268a2"
      },
      {
        "reference": "Endpoint/3c5d93b4-0410-5d8f-ab0c-f5b50749feda"
      }
    ],
    "identifier": [
      {
        "system": "http://hl7.org/fhir/sid/us-npi",
        "value": "1134154750"
      }
    ],
    "address": [
      {
        "line": [
          "7100 Graphics Way Suite 2400"
        ],
        "city": "LEWIS CENTER",
        "state": "OH",
        "postalCode": "43035-8114"
      },
      {
        "line": [
          "117 W High Street Suite 108"
        ],
        "city": "London",
        "state": "OH",
        "postalCode": "43140-1300"
      },
      {
        "line": [
          "5350 N Meadows Drive"
        ],
        "city": "Grove City",
        "state": "OH",
        "postalCode": "43123-9827"
      },
      {
        "line": [
          "955 Eastwind Drive"
        ],
        "city": "WESTERVILLE",
        "state": "OH",
        "postalCode": "43081-3376"
      },
      {
        "line": [
          "237 West Schrock Road"
        ],
        "city": "Westerville",
        "state": "OH",
        "postalCode": "43081-2874"
      },
      {
        "line": [
          "955 Eastwind Drive",
          "Suite 150"
        ],
        "city": "WESTERVILLE",
        "state": "OH",
        "postalCode": "43081-3376"
      },
      {
        "line": [
          "7901 Diley Road Suite 200"
        ],
        "city": "Canal Winchester",
        "state": "OH",
        "postalCode": "43110-9612"
      },
      {
        "line": [
          "750 Mount Carmel Mall Suite 230"
        ],
        "city": "Columbus",
        "state": "OH",
        "postalCode": "43222-1553"
      },
      {
        "line": [
          "4995 Bradenton Ave",
          "Suite 130"
        ],
        "city": "DUBLIN",
        "state": "OH",
        "postalCode": "43017-3551"
      }
    ],
    "extension": [
      {
        "url": "https://fhir.athena.io/StructureDefinition/ah-practice",
        "valueReference": {
          "reference": "Organization/a-1.Practice-11128"
        }
      },
      {
        "url": "https://fhir.athena.io/StructureDefinition/ah-brand",
        "valueReference": {
          "reference": "Organization/a-11128.Brand-1"
        }
      }
    ]
  },
  "fullUrl": "urn:uuid:42fdff0b-bf66-5cc8-80ed-13a0f182a582"
}