{
  "resource": {
    "resourceType": "Organization",
    "id": "2610c3ab-868d-51fb-81e3-df94a5ee37ac",
    "name": "AWAL Winnsboro",
    "endpoint": [
      {
        "reference": "Endpoint/27a4e967-47aa-5a9c-a572-b8297ee268a2"
      },
      {
        "reference": "Endpoint/0f77add5-5f72-5ca4-9811-8112d8f4448a"
      }
    ],
    "identifier": [
      {
        "system": "http://hl7.org/fhir/sid/us-npi",
        "value": "1154717536"
      }
    ],
    "address": [
      {
        "line": [
          "501 YATES ST"
        ],
        "city": "MOUNT VERNON",
        "state": "TX",
        "postalCode": "75457-3233"
      },
      {
        "line": [
          "1004 E Coke Road"
        ],
        "city": "WINNSBORO",
        "state": "TX",
        "postalCode": "75494-2604"
      },
      {
        "line": [
          "100 W Douglas St"
        ],
        "city": "JEFFERSON",
        "state": "TX",
        "postalCode": "75657-9988"
      },
      {
        "line": [
          "502 Meadow Park"
        ],
        "city": "MOUNT VERNON",
        "state": "TX",
        "postalCode": "75457-9988"
      },
      {
        "line": [
          "901 S Beech St"
        ],
        "city": "WINNSBORO",
        "state": "TX",
        "postalCode": "75494-9988"
      },
      {
        "line": [
          "209 E Broadway St."
        ],
        "city": "WINNSBORO",
        "state": "TX",
        "postalCode": "75494-9988"
      },
      {
        "line": [
          "1031 E. Goode St"
        ],
        "city": "QUITMAN",
        "state": "TX",
        "postalCode": "75783-1663"
      },
      {
        "line": [
          "2009 N. Edwards"
        ],
        "city": "MOUNT PLEASANT",
        "state": "TX",
        "postalCode": "75455-9988"
      },
      {
        "line": [
          "5415 Cowhorn Creek Rd"
        ],
        "city": "TEXARKANA",
        "state": "TX",
        "postalCode": "75503-9988"
      },
      {
        "line": [
          "901 S Beech St."
        ],
        "city": "WINNSBORO",
        "state": "TX",
        "postalCode": "75494-9988"
      },
      {
        "line": [
          "4100 Moores Lane"
        ],
        "city": "TEXARKANA",
        "state": "TX",
        "postalCode": "75503-9988"
      },
      {
        "line": [
          "4350 Lamar Ave"
        ],
        "city": "PARIS",
        "state": "TX",
        "postalCode": "75460-9988"
      },
      {
        "line": [
          "209 E Broadway St"
        ],
        "city": "WINNSBORO",
        "state": "TX",
        "postalCode": "75494-2604"
      },
      {
        "line": [
          "231 Quail Dr"
        ],
        "city": "GILMER",
        "state": "TX",
        "postalCode": "75645-9988"
      },
      {
        "line": [
          "1026 E GOODE ST"
        ],
        "city": "QUITMAN",
        "state": "TX",
        "postalCode": "75783-1641"
      },
      {
        "line": [
          "5002 Elizabeth St."
        ],
        "city": "TEXARKANA",
        "state": "TX",
        "postalCode": "75503-9988"
      },
      {
        "line": [
          "1 Autumn Circle"
        ],
        "city": "NEW BOSTON",
        "state": "TX",
        "postalCode": "75570-9988"
      },
      {
        "line": [
          "135 Autumn Wind"
        ],
        "city": "MINEOLA",
        "state": "TX",
        "postalCode": "75773-9888"
      },
      {
        "line": [
          "209 E Broadway"
        ],
        "city": "WINNSBORO",
        "state": "TX",
        "postalCode": "75494-9988"
      },
      {
        "line": [
          "102 Floyd St."
        ],
        "city": "NAPLES",
        "state": "TX",
        "postalCode": "75568-9988"
      },
      {
        "line": [
          "209 East Broadway"
        ],
        "city": "WINNSBORO",
        "state": "TX",
        "postalCode": "75494-2604"
      },
      {
        "line": [
          "4204 Moores Ln"
        ],
        "city": "TEXARKANA",
        "state": "TX",
        "postalCode": "75503-9988"
      },
      {
        "line": [
          "501 Yates St."
        ],
        "city": "MOUNT VERNON",
        "state": "TX",
        "postalCode": "75457-9988"
      },
      {
        "line": [
          "209 EAST BROADWAY"
        ],
        "city": "WINNSBORO",
        "state": "TX",
        "postalCode": "75494-2604"
      },
      {
        "line": [
          "1200 JACKSON ST N"
        ],
        "city": "SULPHUR SPRINGS",
        "state": "TX",
        "postalCode": "75482-2104"
      },
      {
        "line": [
          "1714 N. Edwards Ave"
        ],
        "city": "MOUNT PLEASANT",
        "state": "TX",
        "postalCode": "75455-2028"
      },
      {
        "line": [
          "1704 N. Bradford St"
        ],
        "city": "GILMER",
        "state": "TX",
        "postalCode": "75644-9988"
      }
    ],
    "extension": [
      {
        "url": "https://fhir.athena.io/StructureDefinition/ah-practice",
        "valueReference": {
          "reference": "Organization/a-1.Practice-11327"
        }
      },
      {
        "url": "https://fhir.athena.io/StructureDefinition/ah-brand",
        "valueReference": {
          "reference": "Organization/a-11327.Brand-1"
        }
      }
    ]
  },
  "fullUrl": "urn:uuid:2610c3ab-868d-51fb-81e3-df94a5ee37ac"
}