{
  "resource": {
    "resourceType": "Organization",
    "id": "4e375022-a3dd-58c1-9259-536001c1bb2c",
    "name": "Cascade Kidney Specialists",
    "endpoint": [
      {
        "reference": "Endpoint/27a4e967-47aa-5a9c-a572-b8297ee268a2"
      },
      {
        "reference": "Endpoint/fc3071ab-6dae-5905-a4c4-e2bc801cee08"
      }
    ],
    "identifier": [
      {
        "system": "http://hl7.org/fhir/sid/us-npi",
        "value": "1124458310"
      }
    ],
    "address": [
      {
        "line": [
          "1005 PACIFIC AVE"
        ],
        "city": "EVERETT",
        "state": "WA",
        "postalCode": "98201-4148"
      },
      {
        "line": [
          "14524 BOTHELL WAY NE"
        ],
        "city": "SEATTLE",
        "state": "WA",
        "postalCode": "98155-7606"
      },
      {
        "line": [
          "13619 MUKILTEO SPEEDWAY STE D1"
        ],
        "city": "LYNNWOOD",
        "state": "WA",
        "postalCode": "98087-1672"
      },
      {
        "line": [
          "18121 149TH ST SE"
        ],
        "city": "MONROE",
        "state": "WA",
        "postalCode": "98272-1104"
      },
      {
        "line": [
          "1501 W VALLEY HWY N STE 104"
        ],
        "city": "AUBURN",
        "state": "WA",
        "postalCode": "98001-1606"
      },
      {
        "line": [
          "125 16TH AVE E"
        ],
        "city": "SEATTLE",
        "state": "WA",
        "postalCode": "98112-5211"
      },
      {
        "line": [
          "857 ROOSEVELT AVE E"
        ],
        "city": "ENUMCLAW",
        "state": "WA",
        "postalCode": "98022-9239"
      },
      {
        "line": [
          "1370 116TH AVE NE STE 209"
        ],
        "city": "BELLEVUE",
        "state": "WA",
        "postalCode": "98004-3825"
      },
      {
        "line": [
          "11327 NE 120TH ST"
        ],
        "city": "KIRKLAND",
        "state": "WA",
        "postalCode": "98034-6907"
      },
      {
        "line": [
          "12040 NE 128TH ST"
        ],
        "city": "KIRKLAND",
        "state": "WA",
        "postalCode": "98034-3013"
      },
      {
        "line": [
          "18001 BOTHELL EVERETT HWY STE 112"
        ],
        "city": "BOTHELL",
        "state": "WA",
        "postalCode": "98012-1661"
      },
      {
        "line": [
          "27320 PACIFIC HWY S"
        ],
        "city": "FEDERAL WAY",
        "state": "WA",
        "postalCode": "98003-2413"
      },
      {
        "line": [
          "700 BROADWAY"
        ],
        "city": "SEATTLE",
        "state": "WA",
        "postalCode": "98122-4302"
      },
      {
        "line": [
          "2615 SW TRENTON ST"
        ],
        "city": "SEATTLE",
        "state": "WA",
        "postalCode": "98126-3745"
      },
      {
        "line": [
          "2150 N 107TH ST STE 105"
        ],
        "city": "SEATTLE",
        "state": "WA",
        "postalCode": "98133-1305"
      },
      {
        "line": [
          "1474 112TH AVE NE"
        ],
        "city": "BELLEVUE",
        "state": "WA",
        "postalCode": "98004-3762"
      },
      {
        "line": [
          "1250 STATE AVE"
        ],
        "city": "MARYSVILLE",
        "state": "WA",
        "postalCode": "98270-3602"
      },
      {
        "line": [
          "6021 12TH ST E STE 100"
        ],
        "city": "TACOMA",
        "state": "WA",
        "postalCode": "98424-1399"
      },
      {
        "line": [
          "4110 NE 4TH ST"
        ],
        "city": "RENTON",
        "state": "WA",
        "postalCode": "98059-5045"
      },
      {
        "line": [
          "17900 INTERNATIONAL BLVD STE 301"
        ],
        "city": "SEATTLE",
        "state": "WA",
        "postalCode": "98188-4232"
      },
      {
        "line": [
          "4401 S TRENTON ST"
        ],
        "city": "SEATTLE",
        "state": "WA",
        "postalCode": "98118-4923"
      },
      {
        "line": [
          "548 15TH AVE"
        ],
        "city": "SEATTLE",
        "state": "WA",
        "postalCode": "98122-5609"
      },
      {
        "line": [
          "21309 44TH AVE W"
        ],
        "city": "MOUNTLAKE TERRACE",
        "state": "WA",
        "postalCode": "98043-3507"
      },
      {
        "line": [
          "602 OAKESDALE AVE SW"
        ],
        "city": "RENTON",
        "state": "WA",
        "postalCode": "98057-5224"
      },
      {
        "line": [
          "25316 74TH AVE S STE 101"
        ],
        "city": "KENT",
        "state": "WA",
        "postalCode": "98032-6022"
      },
      {
        "line": [
          "1035 116TH AVE NE"
        ],
        "city": "BELLEVUE",
        "state": "WA",
        "postalCode": "98004-4604"
      },
      {
        "line": [
          "33820 WEYERHAEUSER WAY S"
        ],
        "city": "AUBURN",
        "state": "WA",
        "postalCode": "98001-9617"
      },
      {
        "line": [
          "4045 DELRIDGE WAY SW"
        ],
        "city": "SEATTLE",
        "state": "WA",
        "postalCode": "98106-1278"
      },
      {
        "line": [
          "8130 EVERGREEN WAY"
        ],
        "city": "EVERETT",
        "state": "WA",
        "postalCode": "98203-6419"
      },
      {
        "line": [
          "1115 REGENTS BLVD"
        ],
        "city": "Fircrest",
        "state": "WA",
        "postalCode": "98466-6031"
      },
      {
        "line": [
          "3535 Factoria Blvd SE",
          "Suite 150"
        ],
        "city": "BELLEVUE",
        "state": "WA",
        "postalCode": "98006-1293"
      },
      {
        "line": [
          "35131 SE DOUGLAS ST"
        ],
        "city": "SNOQUALMIE",
        "state": "WA",
        "postalCode": "98065-9233"
      },
      {
        "line": [
          "730 NW GILMAN BLVD"
        ],
        "city": "ISSAQUAH",
        "state": "WA",
        "postalCode": "98027-5326"
      }
    ],
    "extension": [
      {
        "url": "https://fhir.athena.io/StructureDefinition/ah-practice",
        "valueReference": {
          "reference": "Organization/a-1.Practice-31057"
        }
      },
      {
        "url": "https://fhir.athena.io/StructureDefinition/ah-brand",
        "valueReference": {
          "reference": "Organization/a-31057.Brand-1"
        }
      }
    ]
  },
  "fullUrl": "urn:uuid:4e375022-a3dd-58c1-9259-536001c1bb2c"
}