{
  "resource": {
    "resourceType": "Organization",
    "id": "23c9e8a8-8387-5e6c-af7d-0400ba9002bc",
    "name": "Lawrence Internal Medicine, PA",
    "endpoint": [
      {
        "reference": "Endpoint/27a4e967-47aa-5a9c-a572-b8297ee268a2"
      },
      {
        "reference": "Endpoint/98073f58-8401-5af3-a398-ddb2707f02cd"
      }
    ],
    "identifier": [
      {
        "system": "http://hl7.org/fhir/sid/us-npi",
        "value": "1346218955"
      }
    ],
    "address": [
      {
        "line": [
          "1429 KASOLD DRIVE"
        ],
        "city": "LAWRENCE",
        "state": "KS",
        "postalCode": "66049-3425"
      },
      {
        "line": [
          "1501 INVERNESS DRIVE"
        ],
        "city": "LAWRENCE",
        "state": "KS",
        "postalCode": "66047-2085"
      },
      {
        "line": [
          "3310 CLINTON PKWY CT"
        ],
        "city": "LAWRENCE",
        "state": "KS",
        "postalCode": "66047-2629"
      },
      {
        "line": [
          "1701 RESEARCH PARK DR"
        ],
        "city": "LAWRENCE",
        "state": "KS",
        "postalCode": "66047-4530"
      },
      {
        "line": [
          "1415 MAPLE ST"
        ],
        "city": "EUDORA",
        "state": "KS",
        "postalCode": "66025-9419"
      },
      {
        "line": [
          "3220 PETERSON RD"
        ],
        "city": "LAWRENCE",
        "state": "KS",
        "postalCode": "66049-1963"
      },
      {
        "line": [
          "321 CRIMSON AVE"
        ],
        "city": "BALDWIN CITY",
        "state": "KS",
        "postalCode": "66006-4157"
      },
      {
        "line": [
          "325 MAINE ST"
        ],
        "city": "LAWRENCE",
        "state": "KS",
        "postalCode": "66044-1393"
      },
      {
        "line": [
          "3566 62ND ST"
        ],
        "city": "MERIDEN",
        "state": "KS",
        "postalCode": "66512-9213"
      },
      {
        "line": [
          "4851 HARVARD RD"
        ],
        "city": "LAWRENCE",
        "state": "KS",
        "postalCode": "66049-3964"
      },
      {
        "line": [
          "1440 WAKARUSA DR",
          "STE 300"
        ],
        "city": "LAWRENCE",
        "state": "KS",
        "postalCode": "66049-3879"
      },
      {
        "line": [
          "1223 ORCHARD LANE"
        ],
        "city": "BALDWIN CITY",
        "state": "KS",
        "postalCode": "66006-4011"
      },
      {
        "line": [
          "3911 W 13TH ST"
        ],
        "city": "LAWRENCE",
        "state": "KS",
        "postalCode": "66049-3515"
      },
      {
        "line": [
          "3901 RAINBOW BLVD"
        ],
        "city": "KANSAS CITY",
        "state": "KS",
        "postalCode": "66160-8500"
      },
      {
        "line": [
          "1216 BILTMORE DRIVE"
        ],
        "city": "LAWRENCE",
        "state": "KS",
        "postalCode": "66049-1995"
      }
    ],
    "extension": [
      {
        "url": "https://fhir.athena.io/StructureDefinition/ah-practice",
        "valueReference": {
          "reference": "Organization/a-1.Practice-17261"
        }
      },
      {
        "url": "https://fhir.athena.io/StructureDefinition/ah-brand",
        "valueReference": {
          "reference": "Organization/a-17261.Brand-1"
        }
      }
    ]
  },
  "fullUrl": "urn:uuid:23c9e8a8-8387-5e6c-af7d-0400ba9002bc"
}