{
  "resource": {
    "resourceType": "Organization",
    "id": "407f8e1f-67b6-5e47-9b66-026e979ccb0d",
    "name": "Way Out West Spine + Mobility",
    "endpoint": [
      {
        "reference": "Endpoint/27a4e967-47aa-5a9c-a572-b8297ee268a2"
      },
      {
        "reference": "Endpoint/cae498e4-6808-5949-8446-4ebef1062d4d"
      }
    ],
    "identifier": [
      {
        "system": "http://hl7.org/fhir/sid/us-npi",
        "value": "1942769476"
      }
    ],
    "address": [
      {
        "line": [
          "1800 PARK PLACE AVE"
        ],
        "city": "FORT WORTH",
        "state": "TX",
        "postalCode": "76110-1381"
      },
      {
        "line": [
          "120 ST LOUIS AVE SUITE 100"
        ],
        "city": "FORT WORTH",
        "state": "TX",
        "postalCode": "76101-1345"
      },
      {
        "line": [
          "900 8TH AVE"
        ],
        "city": "FORT WORTH",
        "state": "TX",
        "postalCode": "76104-3902"
      },
      {
        "line": [
          "909 9TH AVE"
        ],
        "city": "FORT WORTH",
        "state": "TX",
        "postalCode": "76104-3903"
      },
      {
        "line": [
          "120 SAINT LOUIS AVE STE 100"
        ],
        "city": "FORT WORTH",
        "state": "TX",
        "postalCode": "76104-1256"
      },
      {
        "line": [
          "3455 LOCKE AVE"
        ],
        "city": "FORT WORTH",
        "state": "TX",
        "postalCode": "76107-5745"
      },
      {
        "line": [
          "120 ST LOUIS AVE",
          "STE 100"
        ],
        "city": "FORT WORTH",
        "state": "TX",
        "postalCode": "76104-1228"
      },
      {
        "line": [
          "120 JIMMA DR"
        ],
        "city": "WEATHERFORD",
        "state": "TX",
        "postalCode": "76087-1330"
      },
      {
        "line": [
          "410 SHOPS BLVD",
          "Suite 300"
        ],
        "city": "Willow Park",
        "state": "TX",
        "postalCode": "76087-2075"
      }
    ],
    "extension": [
      {
        "url": "https://fhir.athena.io/StructureDefinition/ah-practice",
        "valueReference": {
          "reference": "Organization/a-1.Practice-19180"
        }
      },
      {
        "url": "https://fhir.athena.io/StructureDefinition/ah-brand",
        "valueReference": {
          "reference": "Organization/a-19180.Brand-1"
        }
      }
    ]
  },
  "fullUrl": "urn:uuid:407f8e1f-67b6-5e47-9b66-026e979ccb0d"
}