{
  "resource": {
    "resourceType": "Organization",
    "id": "fa2cecd8-4c3c-56ca-9170-5fd522b17929",
    "name": "John Mendelson MD",
    "endpoint": [
      {
        "reference": "Endpoint/27a4e967-47aa-5a9c-a572-b8297ee268a2"
      },
      {
        "reference": "Endpoint/bad4c19c-9a6b-577e-9e5b-fe378783bee2"
      }
    ],
    "identifier": [
      {
        "system": "http://hl7.org/fhir/sid/us-npi",
        "value": "1700311933"
      },
      {
        "system": "http://hl7.org/fhir/sid/us-npi",
        "value": "1326539404"
      }
    ],
    "address": [
      {
        "line": [
          "107 FOX PLAN RD"
        ],
        "city": "MONROEVILLE",
        "state": "PA",
        "postalCode": "15146-2687"
      },
      {
        "line": [
          "17935 SW 35TH DR"
        ],
        "city": "HOLLYWOOD",
        "state": "FL",
        "postalCode": "33029-1688"
      },
      {
        "line": [
          "1390 Market St",
          "Ste 200"
        ],
        "city": "SAN FRANCISCO",
        "state": "CA",
        "postalCode": "94102-5404"
      },
      {
        "line": [
          "8 BUCHANAN ST"
        ],
        "city": "SAN FRANCISCO",
        "state": "CA",
        "postalCode": "94102-6292"
      },
      {
        "line": [
          "212 W TROY ST STE B"
        ],
        "city": "DOTHAN",
        "state": "AL",
        "postalCode": "36303-4455"
      },
      {
        "line": [
          "7904 ARTIFACT DR"
        ],
        "city": "ZEPHYRHILLS",
        "state": "FL",
        "postalCode": "33541-7736"
      },
      {
        "line": [
          "3201 G ST"
        ],
        "city": "ANTIOCH",
        "state": "CA",
        "postalCode": "94509-5926"
      },
      {
        "line": [
          "12049 PIONEERS WAY",
          "APT 2219"
        ],
        "city": "ORLANDO",
        "state": "FL",
        "postalCode": "32832-2811"
      },
      {
        "line": [
          "3003 32ND AVE S STE 240"
        ],
        "city": "FARGO",
        "state": "ND",
        "postalCode": "58103-6118"
      },
      {
        "line": [
          "400 FOXBOROUGH BLVD",
          "APT 3105"
        ],
        "city": "FOXBORO",
        "state": "MA",
        "postalCode": "02035-3803"
      },
      {
        "line": [
          "3083 E TIFFANY WAY"
        ],
        "city": "GILBERT",
        "state": "AZ",
        "postalCode": "85298-8707"
      },
      {
        "line": [
          "254 28TH ST"
        ],
        "city": "SAN FRANCISCO",
        "state": "CA",
        "postalCode": "94131-2359"
      },
      {
        "line": [
          "110 MAIN ST"
        ],
        "city": "BECKLEY",
        "state": "WV",
        "postalCode": "25801-4611"
      },
      {
        "line": [
          "4030 WAKE FOREST RD STE 349"
        ],
        "city": "RALEIGH",
        "state": "NC",
        "postalCode": "27609-0010"
      },
      {
        "line": [
          "3628 MANCHESTER WAY"
        ],
        "city": "KENT",
        "state": "WA",
        "postalCode": "98032-7088"
      },
      {
        "line": [
          "17935 SW 35TH DR"
        ],
        "city": "Miramar",
        "state": "FL",
        "postalCode": "33029-1688"
      },
      {
        "line": [
          "27418 N 93RD ST"
        ],
        "city": "SCOTTSDALE",
        "state": "AZ",
        "postalCode": "85262-9015"
      },
      {
        "line": [
          "615 THOMPSON RD"
        ],
        "city": "LITHIA",
        "state": "FL",
        "postalCode": "33547-2826"
      },
      {
        "line": [
          "6650 RIVERS AVE STE 100"
        ],
        "city": "CHARLESTON",
        "state": "SC",
        "postalCode": "29406-4809"
      },
      {
        "line": [
          "2222 W GRAND RIVER AVE STE A"
        ],
        "city": "OKEMOS",
        "state": "MI",
        "postalCode": "48864-1604"
      },
      {
        "line": [
          "4548 BAKERSTOWN CULMERVILLE RD"
        ],
        "city": "GIBSONIA",
        "state": "PA",
        "postalCode": "15044-7707"
      },
      {
        "line": [
          "119 SE 43RD ST"
        ],
        "city": "OAK ISLAND",
        "state": "NC",
        "postalCode": "28465-5536"
      },
      {
        "line": [
          "10572 LAKE SEMINOLE TER"
        ],
        "city": "SEMINOLE",
        "state": "FL",
        "postalCode": "33772-5467"
      },
      {
        "line": [
          "7533 S CENTER VIEW CT STE N"
        ],
        "city": "WEST JORDAN",
        "state": "UT",
        "postalCode": "84084-5526"
      },
      {
        "line": [
          "1049 Market Street",
          "Suite 603"
        ],
        "city": "SAN FRANCISCO",
        "state": "CA",
        "postalCode": "94103-1365"
      }
    ],
    "extension": [
      {
        "url": "https://fhir.athena.io/StructureDefinition/ah-practice",
        "valueReference": {
          "reference": "Organization/a-1.Practice-16211"
        }
      },
      {
        "url": "https://fhir.athena.io/StructureDefinition/ah-brand",
        "valueReference": {
          "reference": "Organization/a-16211.Brand-2"
        }
      }
    ]
  },
  "fullUrl": "urn:uuid:fa2cecd8-4c3c-56ca-9170-5fd522b17929"
}