{
  "resource": {
    "resourceType": "Organization",
    "id": "89da892c-bf9e-52f5-8389-f9bf1dc1b127",
    "name": "Ascension Medical Group Saint Thomas Midtown",
    "endpoint": [
      {
        "reference": "Endpoint/27a4e967-47aa-5a9c-a572-b8297ee268a2"
      },
      {
        "reference": "Endpoint/f67628aa-42b5-5e0f-a003-f23e4861bd7b"
      }
    ],
    "identifier": [
      {
        "system": "http://hl7.org/fhir/sid/us-npi",
        "value": "1881981033"
      },
      {
        "system": "http://hl7.org/fhir/sid/us-npi",
        "value": "1902043433"
      },
      {
        "system": "http://hl7.org/fhir/sid/us-npi",
        "value": "1033294673"
      },
      {
        "system": "http://hl7.org/fhir/sid/us-npi",
        "value": "1598929135"
      },
      {
        "system": "http://hl7.org/fhir/sid/us-npi",
        "value": "1396798302"
      },
      {
        "system": "http://hl7.org/fhir/sid/us-npi",
        "value": "1437194669"
      }
    ],
    "address": [
      {
        "line": [
          "300 20th Ave North 8th Floor"
        ],
        "city": "NASHVILLE",
        "state": "TN",
        "postalCode": "37203-2170"
      },
      {
        "line": [
          "300 20th Ave N",
          "9th Fl"
        ],
        "city": "NASHVILLE",
        "state": "TN",
        "postalCode": "37203-2131"
      },
      {
        "line": [
          "1818 State St"
        ],
        "city": "NASHVILLE",
        "state": "TN",
        "postalCode": "37203-2209"
      },
      {
        "line": [
          "1911 State St"
        ],
        "city": "NASHVILLE",
        "state": "TN",
        "postalCode": "37203-2209"
      },
      {
        "line": [
          "300 20th Avenue North"
        ],
        "city": "NASHVILLE",
        "state": "TN",
        "postalCode": "37203-2131"
      },
      {
        "line": [
          "300 20th Ave N",
          "8th Fl"
        ],
        "city": "NASHVILLE",
        "state": "TN",
        "postalCode": "37203-2131"
      },
      {
        "line": [
          "300 20th Ave North, 8th floor"
        ],
        "city": "NASHVILLE",
        "state": "TN",
        "postalCode": "37203-2170"
      },
      {
        "line": [
          "300 20th Ave N",
          "7th Fl"
        ],
        "city": "NASHVILLE",
        "state": "TN",
        "postalCode": "37203-2131"
      },
      {
        "line": [
          "300 20th Ave N 9th FL"
        ],
        "city": "Nashville",
        "state": "TN",
        "postalCode": "37203-2131"
      },
      {
        "line": [
          "300 20th Ave N",
          "Suite G8"
        ],
        "city": "Nashville",
        "state": "TN",
        "postalCode": "37203-2225"
      },
      {
        "line": [
          "300 20TH AVENUE NORTH",
          "SUITE 301"
        ],
        "city": "NASHVILLE",
        "state": "TN",
        "postalCode": "37203-2131"
      }
    ],
    "extension": [
      {
        "url": "https://fhir.athena.io/StructureDefinition/ah-practice",
        "valueReference": {
          "reference": "Organization/a-1.Practice-7654"
        }
      },
      {
        "url": "https://fhir.athena.io/StructureDefinition/ah-brand",
        "valueReference": {
          "reference": "Organization/a-7654.Brand-1"
        }
      }
    ]
  },
  "fullUrl": "urn:uuid:89da892c-bf9e-52f5-8389-f9bf1dc1b127"
}