{
  "resource": {
    "resourceType": "Organization",
    "id": "da5f50d0-729a-53d3-a155-347c29d3a309",
    "name": "HYPERTENSION AND NEPHROLOGY INC",
    "endpoint": [
      {
        "reference": "Endpoint/27a4e967-47aa-5a9c-a572-b8297ee268a2"
      },
      {
        "reference": "Endpoint/9378c37d-5348-549c-97f9-1f4489750d63"
      }
    ],
    "identifier": [
      {
        "system": "http://hl7.org/fhir/sid/us-npi",
        "value": "1366426801"
      }
    ],
    "address": [
      {
        "line": [
          "318 WATERMAN AVE"
        ],
        "city": "EAST PROVIDENCE",
        "state": "RI",
        "postalCode": "02914-3525"
      },
      {
        "line": [
          "314 TAUNTON AVE"
        ],
        "city": "EAST PROVIDENCE",
        "state": "RI",
        "postalCode": "02914-2641"
      },
      {
        "line": [
          "1526 ATWOOD AVENUE"
        ],
        "city": "JOHNSTON",
        "state": "RI",
        "postalCode": "02919-3289"
      },
      {
        "line": [
          "1775 BALD HILL RD"
        ],
        "city": "WARWICK",
        "state": "RI",
        "postalCode": "02886-4231"
      },
      {
        "line": [
          "2100 DIAMOND HILL ROAD"
        ],
        "city": "WOONSOCKET",
        "state": "RI",
        "postalCode": "02895-1416"
      },
      {
        "line": [
          "115 CASS AVENUE"
        ],
        "city": "WOONSOCKET",
        "state": "RI",
        "postalCode": "02895-4705"
      },
      {
        "line": [
          "15 FRANCIS ST # PBB215"
        ],
        "city": "BOSTON",
        "state": "MA",
        "postalCode": "02115-6105"
      },
      {
        "line": [
          "48 WEAVER ST"
        ],
        "city": "FALL RIVER",
        "state": "MA",
        "postalCode": "02720-1310"
      },
      {
        "line": [
          "2109 HARTFORD AVE"
        ],
        "city": "JOHNSTON",
        "state": "RI",
        "postalCode": "02919-3246"
      },
      {
        "line": [
          "116 EDDIE DOWLING HWY"
        ],
        "city": "NORTH SMITHFIELD",
        "state": "RI",
        "postalCode": "02896-7327"
      },
      {
        "line": [
          "101 DUDLEY STREET"
        ],
        "city": "PROVIDENCE",
        "state": "RI",
        "postalCode": "02905-2401"
      },
      {
        "line": [
          "48 WEAVER STREET"
        ],
        "city": "FALL RIVER",
        "state": "MA",
        "postalCode": "02720-1310"
      },
      {
        "line": [
          "318 WATERMAN AVENUE"
        ],
        "city": "EAST PROVIDENCE",
        "state": "RI",
        "postalCode": "02914-3525"
      },
      {
        "line": [
          "164 SUMMIT AVENUE"
        ],
        "city": "PROVIDENCE",
        "state": "RI",
        "postalCode": "02906-2853"
      },
      {
        "line": [
          "211 PARK STREET"
        ],
        "city": "ATTLEBORO",
        "state": "MA",
        "postalCode": "02703-3143"
      },
      {
        "line": [
          "825 CHALKSTONE AVENUE"
        ],
        "city": "PROVIDENCE",
        "state": "RI",
        "postalCode": "02908-4728"
      },
      {
        "line": [
          "11 FRIENDSHIP STREET"
        ],
        "city": "NEWPORT",
        "state": "RI",
        "postalCode": "02840-2209"
      },
      {
        "line": [
          "610 SMITHFIELD RD"
        ],
        "city": "PROVIDENCE",
        "state": "RI",
        "postalCode": "02904-3820"
      },
      {
        "line": [
          "2191 POST RD",
          "HEALTHTRAX BUILDING"
        ],
        "city": "WARWICK",
        "state": "RI",
        "postalCode": "02886-1509"
      },
      {
        "line": [
          "363 HIGHLAND AVENUE"
        ],
        "city": "FALL RIVER",
        "state": "MA",
        "postalCode": "02720-3703"
      },
      {
        "line": [
          "200 HIGH SERVICE AVENUE"
        ],
        "city": "PROVIDENCE",
        "state": "RI",
        "postalCode": "02904-5113"
      },
      {
        "line": [
          "201 ARMISTICE BOULEVARD"
        ],
        "city": "PAWTUCKET",
        "state": "RI",
        "postalCode": "02860-3242"
      },
      {
        "line": [
          "795 MIDDLE STREET"
        ],
        "city": "FALL RIVER",
        "state": "MA",
        "postalCode": "02721-1733"
      },
      {
        "line": [
          "455 TOLLGATE ROAD"
        ],
        "city": "WARWICK",
        "state": "RI",
        "postalCode": "02886-2759"
      },
      {
        "line": [
          "593 EDDY ST"
        ],
        "city": "PROVIDENCE",
        "state": "RI",
        "postalCode": "02903-4923"
      },
      {
        "line": [
          "593 EDDY STREET"
        ],
        "city": "PROVIDENCE",
        "state": "RI",
        "postalCode": "02903-4923"
      },
      {
        "line": [
          "1635 MINERAL SPRING AVENUE"
        ],
        "city": "PROVIDENCE",
        "state": "RI",
        "postalCode": "02904-4025"
      },
      {
        "line": [
          "9 PLENTY STREET"
        ],
        "city": "PROVIDENCE",
        "state": "RI",
        "postalCode": "02907-1418"
      },
      {
        "line": [
          "217 SOUTH MAIN STREET"
        ],
        "city": "ATTLEBORO",
        "state": "MA",
        "postalCode": "02703-4160"
      },
      {
        "line": [
          "22 HURST LANE"
        ],
        "city": "TIVERTON",
        "state": "RI",
        "postalCode": "02878-2312"
      }
    ],
    "extension": [
      {
        "url": "https://fhir.athena.io/StructureDefinition/ah-practice",
        "valueReference": {
          "reference": "Organization/a-1.Practice-25334"
        }
      },
      {
        "url": "https://fhir.athena.io/StructureDefinition/ah-brand",
        "valueReference": {
          "reference": "Organization/a-25334.Brand-1"
        }
      }
    ]
  },
  "fullUrl": "urn:uuid:da5f50d0-729a-53d3-a155-347c29d3a309"
}