{
  "resource": {
    "resourceType": "Organization",
    "id": "c5e9c82e-06c8-5ce0-8b95-3f15d6bb43de",
    "name": "Amberwell Hiawatha",
    "endpoint": [
      {
        "reference": "Endpoint/27a4e967-47aa-5a9c-a572-b8297ee268a2"
      },
      {
        "reference": "Endpoint/0f07b12e-59f7-56c4-9870-7dd0b04b5009"
      }
    ],
    "identifier": [
      {
        "system": "http://hl7.org/fhir/sid/us-npi",
        "value": "1518572395"
      },
      {
        "system": "http://hl7.org/fhir/sid/us-npi",
        "value": "1831273044"
      },
      {
        "system": "http://hl7.org/fhir/sid/us-npi",
        "value": "1700936440"
      },
      {
        "system": "http://hl7.org/fhir/sid/us-npi",
        "value": "1952485161"
      },
      {
        "system": "http://hl7.org/fhir/sid/us-npi",
        "value": "1023175064"
      }
    ],
    "address": [
      {
        "line": [
          "300 Utah Street"
        ],
        "city": "HIAWATHA",
        "state": "KS",
        "postalCode": "66434-2314"
      },
      {
        "line": [
          "1441 Oregon"
        ],
        "city": "SABETHA",
        "state": "KS",
        "postalCode": "66534-2134"
      },
      {
        "line": [
          "505 S 1st St"
        ],
        "city": "HIAWATHA",
        "state": "KS",
        "postalCode": "66434-2702"
      },
      {
        "line": [
          "511 Paramount Street"
        ],
        "city": "SABETHA",
        "state": "KS",
        "postalCode": "66534-2120"
      },
      {
        "line": [
          "300 utah street"
        ],
        "city": "HIAWATHA",
        "state": "KS",
        "postalCode": "66434-2314"
      },
      {
        "line": [
          "300 Utah St"
        ],
        "city": "HIAWATHA",
        "state": "KS",
        "postalCode": "66434-2314"
      },
      {
        "line": [
          "101 E Virginia"
        ],
        "city": "HIGHLAND",
        "state": "KS",
        "postalCode": "66035-4005"
      },
      {
        "line": [
          "402 South Ave"
        ],
        "city": "HIGHLAND",
        "state": "KS",
        "postalCode": "66035-4162"
      },
      {
        "line": [
          "1890 Euclid"
        ],
        "city": "HORTON",
        "state": "KS",
        "postalCode": "66439-1247"
      },
      {
        "line": [
          "302 E Iowa"
        ],
        "city": "HIAWATHA",
        "state": "KS",
        "postalCode": "66434-9826"
      },
      {
        "line": [
          "300 Utah"
        ],
        "city": "HIAWATHA",
        "state": "KS",
        "postalCode": "66434-2314"
      },
      {
        "line": [
          "400 Kansas"
        ],
        "city": "HIAWATHA",
        "state": "KS",
        "postalCode": "66434-1954"
      },
      {
        "line": [
          "505 S 1st St"
        ],
        "city": "HIAWATHA",
        "state": "KS",
        "postalCode": "66434-2314"
      }
    ],
    "extension": [
      {
        "url": "https://fhir.athena.io/StructureDefinition/ah-practice",
        "valueReference": {
          "reference": "Organization/a-1.Practice-16891"
        }
      },
      {
        "url": "https://fhir.athena.io/StructureDefinition/ah-brand",
        "valueReference": {
          "reference": "Organization/a-16891.Brand-1"
        }
      }
    ]
  },
  "fullUrl": "urn:uuid:c5e9c82e-06c8-5ce0-8b95-3f15d6bb43de"
}