{
  "resource": {
    "resourceType": "Organization",
    "id": "000afd6c-f857-5f3a-a1a8-70fdbdd5c038",
    "name": "21st Century Oncology",
    "endpoint": [
      {
        "reference": "Endpoint/27a4e967-47aa-5a9c-a572-b8297ee268a2"
      },
      {
        "reference": "Endpoint/f5737457-6c57-5ee2-aa5f-bf16dee55443"
      }
    ],
    "identifier": [
      {
        "system": "http://hl7.org/fhir/sid/us-npi",
        "value": "1659417467"
      },
      {
        "system": "http://hl7.org/fhir/sid/us-npi",
        "value": "1689600280"
      }
    ],
    "address": [
      {
        "line": [
          "2601 SW 37th Avenue",
          "Suite 901"
        ],
        "city": "MIAMI",
        "state": "FL",
        "postalCode": "33133-2751"
      },
      {
        "line": [
          "21644 State Road 7"
        ],
        "city": "BOCA RATON",
        "state": "FL",
        "postalCode": "33428-1842"
      },
      {
        "line": [
          "1411 N Flagler Dr",
          "Suite 4900"
        ],
        "city": "WEST PALM BEACH",
        "state": "FL",
        "postalCode": "33401-3410"
      },
      {
        "line": [
          "2100 Southeast Salerno Road"
        ],
        "city": "STUART",
        "state": "FL",
        "postalCode": "34997-6503"
      },
      {
        "line": [
          "817 S University Dr",
          "Suite 104"
        ],
        "city": "PLANTATION",
        "state": "FL",
        "postalCode": "33324-3345"
      },
      {
        "line": [
          "5301 S Congress AVE"
        ],
        "city": "LAKE WORTH",
        "state": "FL",
        "postalCode": "33462-1149"
      },
      {
        "line": [
          "4725 N Federal HWY"
        ],
        "city": "FORT LAUDERDALE",
        "state": "FL",
        "postalCode": "33308-4603"
      },
      {
        "line": [
          "651 E 25th St"
        ],
        "city": "HIALEAH",
        "state": "FL",
        "postalCode": "33013-3814"
      },
      {
        "line": [
          "4485 N State Road 7"
        ],
        "city": "FORT LAUDERDALE",
        "state": "FL",
        "postalCode": "33319-5876"
      },
      {
        "line": [
          "4675 Linton BLVD"
        ],
        "city": "DELRAY BEACH",
        "state": "FL",
        "postalCode": "33445-6615"
      },
      {
        "line": [
          "5901 NW 79th Ave"
        ],
        "city": "TAMARAC",
        "state": "FL",
        "postalCode": "33321-4639"
      },
      {
        "line": [
          "6401 N Federal Hwy"
        ],
        "city": "FORT LAUDERDALE",
        "state": "FL",
        "postalCode": "33308-1427"
      },
      {
        "line": [
          "800 MEADOWS RD"
        ],
        "city": "BOCA RATON",
        "state": "FL",
        "postalCode": "33486-2304"
      },
      {
        "line": [
          "200 Northpoint PKWY"
        ],
        "city": "WEST PALM BEACH",
        "state": "FL",
        "postalCode": "33407-1967"
      },
      {
        "line": [
          "2815 S Seacrest BLVD"
        ],
        "city": "BOYNTON BEACH",
        "state": "FL",
        "postalCode": "33435-7934"
      },
      {
        "line": [
          "7150 W 20th AVE",
          "STE 615"
        ],
        "city": "HIALEAH",
        "state": "FL",
        "postalCode": "33016-5511"
      },
      {
        "line": [
          "3995 Northwest Goldenrod Road"
        ],
        "city": "JENSEN BEACH",
        "state": "FL",
        "postalCode": "34957-3699"
      },
      {
        "line": [
          "509 SE Riverside Drive"
        ],
        "city": "STUART",
        "state": "FL",
        "postalCode": "34994-2579"
      },
      {
        "line": [
          "200 Southeast Hospital Avenue"
        ],
        "city": "STUART",
        "state": "FL",
        "postalCode": "34994-2346"
      },
      {
        "line": [
          "210 Jupiter Lakes Blvd",
          "Suite 4202"
        ],
        "city": "JUPITER",
        "state": "FL",
        "postalCode": "33458-7190"
      },
      {
        "line": [
          "800 Meadows Rd"
        ],
        "city": "BOCA RATON",
        "state": "FL",
        "postalCode": "33486-2304"
      },
      {
        "line": [
          "5350 Linton Boulevard"
        ],
        "city": "DELRAY BEACH",
        "state": "FL",
        "postalCode": "33484-6514"
      },
      {
        "line": [
          "3200 Ponce De Leon Blvd"
        ],
        "city": "MIAMI",
        "state": "FL",
        "postalCode": "33134-7239"
      },
      {
        "line": [
          "3001 NW 49th Ave",
          "Suite 104"
        ],
        "city": "FORT LAUDERDALE",
        "state": "FL",
        "postalCode": "33313-7257"
      },
      {
        "line": [
          "10101 Forest Hill Boulevard"
        ],
        "city": "WELLINGTON",
        "state": "FL",
        "postalCode": "33414-6103"
      },
      {
        "line": [
          "9655 Boynton Beach BLVD"
        ],
        "city": "BOYNTON BEACH",
        "state": "FL",
        "postalCode": "33472-4421"
      },
      {
        "line": [
          "5352 Linton Boulevard"
        ],
        "city": "DELRAY BEACH",
        "state": "FL",
        "postalCode": "33484-6514"
      },
      {
        "line": [
          "651 East 25th ST"
        ],
        "city": "HIALEAH",
        "state": "FL",
        "postalCode": "33013-3814"
      },
      {
        "line": [
          "10000 Southwest Innovation Way"
        ],
        "city": "PORT SAINT LUCIE",
        "state": "FL",
        "postalCode": "34987-2111"
      },
      {
        "line": [
          "7100 W 20th Ave",
          "Suite 107"
        ],
        "city": "HIALEAH",
        "state": "FL",
        "postalCode": "33016-1813"
      },
      {
        "line": [
          "5000 University Drive"
        ],
        "city": "Coral Gables",
        "state": "FL",
        "postalCode": "33146-2008"
      },
      {
        "line": [
          "1190 NW 95th St",
          "Suite 404"
        ],
        "city": "MIAMI",
        "state": "FL",
        "postalCode": "33150-2067"
      },
      {
        "line": [
          "1309 N Flagler Dr"
        ],
        "city": "WEST PALM BEACH",
        "state": "FL",
        "postalCode": "33401-3406"
      },
      {
        "line": [
          "1600 S Andrews Ave"
        ],
        "city": "FORT LAUDERDALE",
        "state": "FL",
        "postalCode": "33316-2510"
      },
      {
        "line": [
          "8393 W Oakland Park Blvd"
        ],
        "city": "SUNRISE",
        "state": "FL",
        "postalCode": "33351-7307"
      },
      {
        "line": [
          "901 Village Blvd",
          "Suite 702"
        ],
        "city": "WEST PALM BEACH",
        "state": "FL",
        "postalCode": "33409-1947"
      },
      {
        "line": [
          "9868 S State RD 7",
          "STE 100"
        ],
        "city": "BOYNTON BEACH",
        "state": "FL",
        "postalCode": "33472-4472"
      },
      {
        "line": [
          "310 Southeast Veranda West Boulevard"
        ],
        "city": "PORT SAINT LUCIE",
        "state": "FL",
        "postalCode": "34984-2101"
      },
      {
        "line": [
          "7421 N University Dr",
          "Suite 101"
        ],
        "city": "TAMARAC",
        "state": "FL",
        "postalCode": "33321-2952"
      },
      {
        "line": [
          "2307 W Broward Blvd",
          "Suite 200"
        ],
        "city": "FORT LAUDERDALE",
        "state": "FL",
        "postalCode": "33312-1420"
      },
      {
        "line": [
          "4900 W Oakland Blvd",
          "Suite 101"
        ],
        "city": "FORT LAUDERDALE",
        "state": "FL",
        "postalCode": "33313-1555"
      },
      {
        "line": [
          "8200 Jog Rd",
          "Suite 204"
        ],
        "city": "BOYNTON BEACH",
        "state": "FL",
        "postalCode": "33472-2981"
      },
      {
        "line": [
          "1005 Joe DiMaggio DR"
        ],
        "city": "HOLLYWOOD",
        "state": "FL",
        "postalCode": "33021-5402"
      },
      {
        "line": [
          "2501 North A ST"
        ],
        "city": "LAKE WORTH",
        "state": "FL",
        "postalCode": "33460-6013"
      },
      {
        "line": [
          "2601 SW 37th Ave",
          "Suite 901"
        ],
        "city": "MIAMI",
        "state": "FL",
        "postalCode": "33133-2751"
      },
      {
        "line": [
          "1309 N Flagler DR",
          "STE 1092"
        ],
        "city": "WEST PALM BEACH",
        "state": "FL",
        "postalCode": "33401-3406"
      },
      {
        "line": [
          "9655 W Boynton Beach BLVD"
        ],
        "city": "BOYNTON BEACH",
        "state": "FL",
        "postalCode": "33472-4421"
      },
      {
        "line": [
          "601 East Rollins Street"
        ],
        "city": "ORLANDO",
        "state": "FL",
        "postalCode": "32803-1248"
      },
      {
        "line": [
          "901 45th St"
        ],
        "city": "WEST PALM BEACH",
        "state": "FL",
        "postalCode": "33407-2413"
      },
      {
        "line": [
          "2645 Douglas RD"
        ],
        "city": "MIAMI",
        "state": "FL",
        "postalCode": "33133-2754"
      },
      {
        "line": [
          "2307 W Broward Blvd",
          "Suite 101"
        ],
        "city": "FORT LAUDERDALE",
        "state": "FL",
        "postalCode": "33312-1417"
      },
      {
        "line": [
          "500 University Blvd",
          "Suite 208"
        ],
        "city": "JUPITER",
        "state": "FL",
        "postalCode": "33458-2775"
      },
      {
        "line": [
          "7100 W 20th Ave",
          "Suite 314"
        ],
        "city": "HIALEAH",
        "state": "FL",
        "postalCode": "33016-1811"
      },
      {
        "line": [
          "3502 Kyoto Gardens DR",
          "STE A"
        ],
        "city": "PALM BEACH GARDENS",
        "state": "FL",
        "postalCode": "33410-2899"
      },
      {
        "line": [
          "1330 S Andrews Ave"
        ],
        "city": "FORT LAUDERDALE",
        "state": "FL",
        "postalCode": "33316-1883"
      },
      {
        "line": [
          "3001 NW 49th AVE",
          "STE 104"
        ],
        "city": "FORT LAUDERDALE",
        "state": "FL",
        "postalCode": "33313-7257"
      }
    ],
    "extension": [
      {
        "url": "https://fhir.athena.io/StructureDefinition/ah-practice",
        "valueReference": {
          "reference": "Organization/a-1.Practice-13023"
        }
      },
      {
        "url": "https://fhir.athena.io/StructureDefinition/ah-brand",
        "valueReference": {
          "reference": "Organization/a-13023.Brand-4"
        }
      }
    ]
  },
  "fullUrl": "urn:uuid:000afd6c-f857-5f3a-a1a8-70fdbdd5c038"
}