{
  "resource": {
    "resourceType": "Organization",
    "id": "c662b43f-8bcf-597e-b8eb-5ff7c6ad5d78",
    "name": "Orthopedics Unlimited a division of Redefine Healthcare",
    "endpoint": [
      {
        "reference": "Endpoint/27a4e967-47aa-5a9c-a572-b8297ee268a2"
      },
      {
        "reference": "Endpoint/12a2afb7-a154-5ad7-b342-2589db6a8c6a"
      }
    ],
    "identifier": [
      {
        "system": "http://hl7.org/fhir/sid/us-npi",
        "value": "1922771377"
      }
    ],
    "address": [
      {
        "line": [
          "2501 KUSER RD",
          "STE 3"
        ],
        "city": "TRENTON",
        "state": "NJ",
        "postalCode": "08691-3386"
      },
      {
        "line": [
          "10 FORRESTAL RD S STE 105 FL 1"
        ],
        "city": "PRINCETON",
        "state": "NJ",
        "postalCode": "08540-6666"
      },
      {
        "line": [
          "445 Pleasant Valley Way"
        ],
        "city": "WEST ORANGE",
        "state": "NJ",
        "postalCode": "07052-2919"
      },
      {
        "line": [
          "1814 E 2ND ST"
        ],
        "city": "SCOTCH PLAINS",
        "state": "NJ",
        "postalCode": "07076-1751"
      },
      {
        "line": [
          "2A PRINCESS RD STE 200 FL 2"
        ],
        "city": "LAWRENCE TOWNSHIP",
        "state": "NJ",
        "postalCode": "08648-2302"
      },
      {
        "line": [
          "10 Parsonage Road",
          "Ste 208"
        ],
        "city": "EDISON",
        "state": "NJ",
        "postalCode": "08837-2429"
      },
      {
        "line": [
          "2500 Morris Avenue",
          "Ste 220"
        ],
        "city": "UNION",
        "state": "NJ",
        "postalCode": "07083-5675"
      },
      {
        "line": [
          "922 Main St",
          "Ste 201"
        ],
        "city": "PATERSON",
        "state": "NJ",
        "postalCode": "07503-2602"
      },
      {
        "line": [
          "266-272 Chestnut St"
        ],
        "city": "NEWARK",
        "state": "NJ",
        "postalCode": "07105-6521"
      }
    ],
    "extension": [
      {
        "url": "https://fhir.athena.io/StructureDefinition/ah-practice",
        "valueReference": {
          "reference": "Organization/a-1.Practice-21449"
        }
      },
      {
        "url": "https://fhir.athena.io/StructureDefinition/ah-brand",
        "valueReference": {
          "reference": "Organization/a-21449.Brand-3"
        }
      }
    ]
  },
  "fullUrl": "urn:uuid:c662b43f-8bcf-597e-b8eb-5ff7c6ad5d78"
}