{
  "resource": {
    "resourceType": "Organization",
    "id": "a0eadc66-32f9-5b93-a5c0-e746fc11d41d",
    "name": "ADVANCED DIAGNOSTIC HOSPITAL - IP",
    "endpoint": [
      {
        "reference": "Endpoint/27a4e967-47aa-5a9c-a572-b8297ee268a2"
      },
      {
        "reference": "Endpoint/05dc4daf-1b3b-5448-9604-40efd6d6ca42"
      }
    ],
    "identifier": [
      {
        "system": "http://hl7.org/fhir/sid/us-npi",
        "value": "1114486305"
      }
    ],
    "address": [
      {
        "line": [
          "3720 WESTHEIMER RD",
          "STE 601"
        ],
        "city": "HOUSTON",
        "state": "TX",
        "postalCode": "77027-5277"
      },
      {
        "line": [
          "9804 BROADWAY ST"
        ],
        "city": "PEARLAND",
        "state": "TX",
        "postalCode": "77584-8258"
      },
      {
        "line": [
          "500 W. MEDICAL CENTER BLVD"
        ],
        "city": "WEBSTER",
        "state": "TX",
        "postalCode": "77598-4220"
      },
      {
        "line": [
          "12950 EAST FREEWAY"
        ],
        "city": "HOUSTON",
        "state": "TX",
        "postalCode": "77015-5710"
      },
      {
        "line": [
          "4600 EAST SAM HOUSTON PKWY SOUTH"
        ],
        "city": "PASADENA",
        "state": "TX",
        "postalCode": "77505-3948"
      },
      {
        "line": [
          "333 N TEXAS AVE, STE 1"
        ],
        "city": "WEBSTER",
        "state": "TX",
        "postalCode": "77598-4962"
      },
      {
        "line": [
          "15015 KIRBY DR STE 200B"
        ],
        "city": "HOUSTON",
        "state": "TX",
        "postalCode": "77047-2580"
      },
      {
        "line": [
          "11800 ASTORIA BLVD"
        ],
        "city": "HOUSTON",
        "state": "TX",
        "postalCode": "77089-6041"
      },
      {
        "line": [
          "16100 SOUTH FREEWAY"
        ],
        "city": "PEARLAND",
        "state": "TX",
        "postalCode": "77584-1895"
      },
      {
        "line": [
          "11100 SHADOW CREEK PKWY"
        ],
        "city": "PEARLAND",
        "state": "TX",
        "postalCode": "77584-7285"
      },
      {
        "line": [
          "12930 EAST FREEWAY"
        ],
        "city": "HOUSTON",
        "state": "TX",
        "postalCode": "77015-5710"
      },
      {
        "line": [
          "4000 SPENCER HWY"
        ],
        "city": "PASADENA",
        "state": "TX",
        "postalCode": "77504-1202"
      },
      {
        "line": [
          "4211 FAIRMONT PKWY"
        ],
        "city": "PASADENA",
        "state": "TX",
        "postalCode": "77504-3324"
      },
      {
        "line": [
          "5044 CRENSHAW RD, SUITE 100"
        ],
        "city": "PASADENA",
        "state": "TX",
        "postalCode": "77505-3162"
      },
      {
        "line": [
          "15015 KIRBY DR STE 200-B"
        ],
        "city": "HOUSTON",
        "state": "TX",
        "postalCode": "77047-2580"
      },
      {
        "line": [
          "15015 KIRBY DR."
        ],
        "city": "HOUSTON",
        "state": "TX",
        "postalCode": "77047-2580"
      },
      {
        "line": [
          "1505 WINDING WAY DR 200"
        ],
        "city": "FRIENDSWOOD",
        "state": "TX",
        "postalCode": "77546-5395"
      },
      {
        "line": [
          "5146 PRESTON ROAD"
        ],
        "city": "PASADENA",
        "state": "TX",
        "postalCode": "77504-2054"
      }
    ],
    "extension": [
      {
        "url": "https://fhir.athena.io/StructureDefinition/ah-practice",
        "valueReference": {
          "reference": "Organization/a-1.Practice-22067"
        }
      },
      {
        "url": "https://fhir.athena.io/StructureDefinition/ah-brand",
        "valueReference": {
          "reference": "Organization/a-22067.Brand-1"
        }
      }
    ]
  },
  "fullUrl": "urn:uuid:a0eadc66-32f9-5b93-a5c0-e746fc11d41d"
}