{
  "resource": {
    "resourceType": "Organization",
    "id": "a73f3f7f-c960-51b8-b7ab-6bd00631388a",
    "name": "Advanced Urology",
    "endpoint": [
      {
        "reference": "Endpoint/27a4e967-47aa-5a9c-a572-b8297ee268a2"
      },
      {
        "reference": "Endpoint/8cbdc692-0e67-5cc6-b1ab-57e791f76341"
      }
    ],
    "identifier": [
      {
        "system": "http://hl7.org/fhir/sid/us-npi",
        "value": "1386702868"
      }
    ],
    "address": [
      {
        "line": [
          "100 MADISON AVE"
        ],
        "city": "MORRISTOWN",
        "state": "NJ",
        "postalCode": "07960-7400"
      },
      {
        "line": [
          "8 SADDLE RD"
        ],
        "city": "CEDAR KNOLLS",
        "state": "NJ",
        "postalCode": "07927-1901"
      },
      {
        "line": [
          "290 Madison Ave"
        ],
        "city": "MORRISTOWN",
        "state": "NJ",
        "postalCode": "07960-7400"
      },
      {
        "line": [
          "200 SOUTH ORANGE AVE"
        ],
        "city": "LIVINGSTON",
        "state": "NJ",
        "postalCode": "07039-5817"
      },
      {
        "line": [
          "100 Madison Ave"
        ],
        "city": "MORRISTOWN",
        "state": "NJ",
        "postalCode": "07960-6136"
      },
      {
        "line": [
          "8 Saddle Road, Suite 204"
        ],
        "city": "CEDAR KNOLLS",
        "state": "NJ",
        "postalCode": "07927-1900"
      },
      {
        "line": [
          "175 MORRISTOWN RD",
          "SUITE 102"
        ],
        "city": "BASKING RIDGE",
        "state": "NJ",
        "postalCode": "07920-1655"
      },
      {
        "line": [
          "150 BERGEN STREET"
        ],
        "city": "NEWARK",
        "state": "NJ",
        "postalCode": "07103-2496"
      },
      {
        "line": [
          "150 Bergen Street"
        ],
        "city": "NEWARK",
        "state": "NJ",
        "postalCode": "07101-1709"
      }
    ],
    "extension": [
      {
        "url": "https://fhir.athena.io/StructureDefinition/ah-practice",
        "valueReference": {
          "reference": "Organization/a-1.Practice-18307"
        }
      },
      {
        "url": "https://fhir.athena.io/StructureDefinition/ah-brand",
        "valueReference": {
          "reference": "Organization/a-18307.Brand-1"
        }
      }
    ]
  },
  "fullUrl": "urn:uuid:a73f3f7f-c960-51b8-b7ab-6bd00631388a"
}