{
  "resource": {
    "resourceType": "Organization",
    "id": "6f648aac-8eeb-5dda-9d33-27cabdb47519",
    "name": "ARA - ARLINGTON DIALYSIS CENTER",
    "endpoint": [
      {
        "reference": "Endpoint/27a4e967-47aa-5a9c-a572-b8297ee268a2"
      },
      {
        "reference": "Endpoint/c97acacc-a33c-5152-bc8a-158e6b1ac2cc"
      }
    ],
    "identifier": [
      {
        "system": "http://hl7.org/fhir/sid/us-npi",
        "value": "1821169632"
      }
    ],
    "address": [
      {
        "line": [
          "2304 State Highway 121"
        ],
        "city": "BEDFORD",
        "state": "TX",
        "postalCode": "76021-5985"
      },
      {
        "line": [
          "785 CROSS TIMBERS ROAD #145"
        ],
        "city": "FLOWER MOUND",
        "state": "TX",
        "postalCode": "75028-1365"
      },
      {
        "line": [
          "7777 Forest Lane"
        ],
        "city": "DALLAS",
        "state": "TX",
        "postalCode": "75230-2571"
      },
      {
        "line": [
          "2800 West 15th Street"
        ],
        "city": "PLANO",
        "state": "TX",
        "postalCode": "75075-7526"
      },
      {
        "line": [
          "425 Alabama Avenue"
        ],
        "city": "FORT WORTH",
        "state": "TX",
        "postalCode": "76104-1022"
      },
      {
        "line": [
          "11970 N Central Expwy"
        ],
        "city": "DALLAS",
        "state": "TX",
        "postalCode": "75243-3768"
      },
      {
        "line": [
          "401 West Campbell Rd."
        ],
        "city": "RICHARDSON",
        "state": "TX",
        "postalCode": "75080-3416"
      },
      {
        "line": [
          "6701 Oakmont Blvd"
        ],
        "city": "FORT WORTH",
        "state": "TX",
        "postalCode": "76102-4510"
      },
      {
        "line": [
          "1778 N. Plano Rd. Suite 118"
        ],
        "city": "RICHARDSON",
        "state": "TX",
        "postalCode": "75081-1968"
      },
      {
        "line": [
          "4309 MESA DRIVE"
        ],
        "city": "DENTON",
        "state": "TX",
        "postalCode": "76207-3457"
      },
      {
        "line": [
          "8615 LULLWATER DR"
        ],
        "city": "DALLAS",
        "state": "TX",
        "postalCode": "75238-4754"
      },
      {
        "line": [
          "12400 Dallas Parkway"
        ],
        "city": "FRISCO",
        "state": "TX",
        "postalCode": "75033-4224"
      },
      {
        "line": [
          "1231 MAHARD PKWY"
        ],
        "city": "PROSPER",
        "state": "TX",
        "postalCode": "75078-5710"
      },
      {
        "line": [
          "6190 LBJ FREEWAY SUITE 700"
        ],
        "city": "DALLAS",
        "state": "TX",
        "postalCode": "75240-6383"
      },
      {
        "line": [
          "1650 West College"
        ],
        "city": "GRAPEVINE",
        "state": "TX",
        "postalCode": "76051-3565"
      },
      {
        "line": [
          "1600 WATERS RIDGE DR STE A"
        ],
        "city": "LEWISVILLE",
        "state": "TX",
        "postalCode": "75057-6039"
      },
      {
        "line": [
          "6200 West Parker Rd."
        ],
        "city": "PLANO",
        "state": "TX",
        "postalCode": "75093-7914"
      },
      {
        "line": [
          "1001 Raintree Circle"
        ],
        "city": "ALLEN",
        "state": "TX",
        "postalCode": "75013-4912"
      },
      {
        "line": [
          "4121 DENTON HWY"
        ],
        "city": "HALTOM CITY",
        "state": "TX",
        "postalCode": "76117-2012"
      },
      {
        "line": [
          "500 West Main Street"
        ],
        "city": "LEWISVILLE",
        "state": "TX",
        "postalCode": "75057-3639"
      },
      {
        "line": [
          "1434 North Central Expressway Suite 116"
        ],
        "city": "MCKINNEY",
        "state": "TX",
        "postalCode": "75070-3108"
      },
      {
        "line": [
          "3600 MAPLESHADE LN"
        ],
        "city": "PLANO",
        "state": "TX",
        "postalCode": "75075-5715"
      },
      {
        "line": [
          "4343 N. Josey Lane"
        ],
        "city": "CARROLLTON",
        "state": "TX",
        "postalCode": "75010-4603"
      },
      {
        "line": [
          "2329 West Parker Road"
        ],
        "city": "CARROLLTON",
        "state": "TX",
        "postalCode": "75010-4713"
      },
      {
        "line": [
          "815 Eighth Avenue"
        ],
        "city": "FORT WORTH",
        "state": "TX",
        "postalCode": "76104-2606"
      },
      {
        "line": [
          "4500 MEDICAL CENTER DR"
        ],
        "city": "MCKINNEY",
        "state": "TX",
        "postalCode": "75069-1650"
      },
      {
        "line": [
          "11855 LEBANON RD"
        ],
        "city": "FRISCO",
        "state": "TX",
        "postalCode": "75035-8225"
      },
      {
        "line": [
          "7 MEDICAL PKWY"
        ],
        "city": "DALLAS",
        "state": "TX",
        "postalCode": "75234-7823"
      },
      {
        "line": [
          "4717 MEDICAL CENTER DR"
        ],
        "city": "MCKINNEY",
        "state": "TX",
        "postalCode": "75069-1870"
      },
      {
        "line": [
          "4401 Booth Calloway Rd."
        ],
        "city": "NORTH RICHLAND HILLS",
        "state": "TX",
        "postalCode": "76180-7371"
      },
      {
        "line": [
          "10864 Texas Health Trail"
        ],
        "city": "KELLER",
        "state": "TX",
        "postalCode": "76244-4879"
      },
      {
        "line": [
          "3351 WATERVIEW PKWY"
        ],
        "city": "RICHARDSON",
        "state": "TX",
        "postalCode": "75080-1449"
      },
      {
        "line": [
          "3901 W 15th St."
        ],
        "city": "PLANO",
        "state": "TX",
        "postalCode": "75075-7738"
      },
      {
        "line": [
          "401 W Campbell Road"
        ],
        "city": "RICHARDSON",
        "state": "TX",
        "postalCode": "75080-3416"
      },
      {
        "line": [
          "13340 Preston Rd"
        ],
        "city": "DALLAS",
        "state": "TX",
        "postalCode": "75240-5287"
      },
      {
        "line": [
          "10150 LEGACY DR STE 100B"
        ],
        "city": "FRISCO",
        "state": "TX",
        "postalCode": "75033-6736"
      },
      {
        "line": [
          "3351 Waterview Parkway"
        ],
        "city": "RICHARDSON",
        "state": "TX",
        "postalCode": "75080-1449"
      },
      {
        "line": [
          "310 Jupiter Road"
        ],
        "city": "ALLEN",
        "state": "TX",
        "postalCode": "75002-3039"
      },
      {
        "line": [
          "4491 LONG PRAIRIE RD STE 200"
        ],
        "city": "FLOWER MOUND",
        "state": "TX",
        "postalCode": "75028-2012"
      },
      {
        "line": [
          "10700 Rolater Rd."
        ],
        "city": "FRISCO",
        "state": "TX",
        "postalCode": "75035-2972"
      },
      {
        "line": [
          "3417 GASTON AVE STE 180"
        ],
        "city": "DALLAS",
        "state": "TX",
        "postalCode": "75246-2024"
      },
      {
        "line": [
          "3000 Int. 35 Frontage Rd"
        ],
        "city": "DENTON",
        "state": "TX",
        "postalCode": "76201-5119"
      },
      {
        "line": [
          "4201 William D. Tate Avenue"
        ],
        "city": "GRAPEVINE",
        "state": "TX",
        "postalCode": "76051-5736"
      },
      {
        "line": [
          "2831 E. President George Bush Highway"
        ],
        "city": "RICHARDSON",
        "state": "TX",
        "postalCode": "75082-3561"
      },
      {
        "line": [
          "5036 TENNYSON PKWY"
        ],
        "city": "PLANO",
        "state": "TX",
        "postalCode": "75024-3002"
      },
      {
        "line": [
          "1032 Sandy Ln."
        ],
        "city": "FORT WORTH",
        "state": "TX",
        "postalCode": "76120-3314"
      },
      {
        "line": [
          "4333 N. Josey Lane, Plaza 2, Ste 205"
        ],
        "city": "CARROLLTON",
        "state": "TX",
        "postalCode": "75010-4620"
      },
      {
        "line": [
          "2813 South Mayhill Road"
        ],
        "city": "DENTON",
        "state": "TX",
        "postalCode": "76208-5910"
      },
      {
        "line": [
          "3511 CORINTH PKWY"
        ],
        "city": "DENTON",
        "state": "TX",
        "postalCode": "76208-5384"
      },
      {
        "line": [
          "999 Raintree Circle"
        ],
        "city": "ALLEN",
        "state": "TX",
        "postalCode": "75013-4947"
      },
      {
        "line": [
          "941 S WESTGATE WAY"
        ],
        "city": "WYLIE",
        "state": "TX",
        "postalCode": "75098-4947"
      },
      {
        "line": [
          "2990 Legacy Drive"
        ],
        "city": "FRISCO",
        "state": "TX",
        "postalCode": "75034-6066"
      },
      {
        "line": [
          "251 UNIVERSITY DR #101"
        ],
        "city": "FORT WORTH",
        "state": "TX",
        "postalCode": "76107-1986"
      },
      {
        "line": [
          "1301 Custer Rd."
        ],
        "city": "POTTSBORO",
        "state": "TX",
        "postalCode": "75076-9400"
      },
      {
        "line": [
          "4101 Long Prairie Rd"
        ],
        "city": "FLOWER MOUND",
        "state": "TX",
        "postalCode": "75028-1567"
      },
      {
        "line": [
          "7927 Boulevard 26"
        ],
        "city": "NORTH RICHLAND HILLS",
        "state": "TX",
        "postalCode": "76180-7103"
      },
      {
        "line": [
          "6800 Preston Road"
        ],
        "city": "PLANO",
        "state": "TX",
        "postalCode": "75024-2505"
      },
      {
        "line": [
          "2280 SPRING LAKE RD #110"
        ],
        "city": "DALLAS",
        "state": "TX",
        "postalCode": "75234-5873"
      },
      {
        "line": [
          "700 East Vista Ridge Mall Dr."
        ],
        "city": "LEWISVILLE",
        "state": "TX",
        "postalCode": "75067-8339"
      },
      {
        "line": [
          "6331 BLVD 26 #200"
        ],
        "city": "NORTH RICHLAND HILLS",
        "state": "TX",
        "postalCode": "76180-1590"
      },
      {
        "line": [
          "900 Eighth Ave."
        ],
        "city": "FORT WORTH",
        "state": "TX",
        "postalCode": "76104-3902"
      },
      {
        "line": [
          "1301 Pennsylvania Ave"
        ],
        "city": "FORT WORTH",
        "state": "TX",
        "postalCode": "76104-2122"
      },
      {
        "line": [
          "5601 Warren Pkwy."
        ],
        "city": "FRISCO",
        "state": "TX",
        "postalCode": "75034-4069"
      },
      {
        "line": [
          "2620 Scripture Street"
        ],
        "city": "DENTON",
        "state": "TX",
        "postalCode": "76201-4315"
      },
      {
        "line": [
          "4941 LONG PRAIRIE RD."
        ],
        "city": "FLOWER MOUND",
        "state": "TX",
        "postalCode": "75028-2782"
      },
      {
        "line": [
          "3511 Corinth Parkway"
        ],
        "city": "DENTON",
        "state": "TX",
        "postalCode": "76208-5384"
      },
      {
        "line": [
          "1105 Central Expway"
        ],
        "city": "ALLEN",
        "state": "TX",
        "postalCode": "75013-6103"
      },
      {
        "line": [
          "3420 K. Ave Suite 250"
        ],
        "city": "PLANO",
        "state": "TX",
        "postalCode": "75074-2330"
      },
      {
        "line": [
          "2813 Mayhill"
        ],
        "city": "DENTON",
        "state": "TX",
        "postalCode": "76208-5910"
      },
      {
        "line": [
          "11855 LEBANON ROAD"
        ],
        "city": "FRISCO",
        "state": "TX",
        "postalCode": "75035-8225"
      },
      {
        "line": [
          "10850 FRISCO ST. #300"
        ],
        "city": "FRISCO",
        "state": "TX",
        "postalCode": "75034-3586"
      },
      {
        "line": [
          "117 EAST HARWOOD RD"
        ],
        "city": "HURST",
        "state": "TX",
        "postalCode": "76054-3043"
      },
      {
        "line": [
          "10150 Legacy Drive"
        ],
        "city": "FRISCO",
        "state": "TX",
        "postalCode": "75033-6279"
      },
      {
        "line": [
          "700 E VISTA RIDGE MALL DR"
        ],
        "city": "LEWISVILLE",
        "state": "TX",
        "postalCode": "75067-8339"
      },
      {
        "line": [
          "4405 TRADITION TRAIL"
        ],
        "city": "PLANO",
        "state": "TX",
        "postalCode": "75093-5633"
      },
      {
        "line": [
          "9525 GREENVILLE AVE"
        ],
        "city": "DALLAS",
        "state": "TX",
        "postalCode": "75243-4116"
      },
      {
        "line": [
          "3345 MEDPARK DR"
        ],
        "city": "DENTON",
        "state": "TX",
        "postalCode": "76210-6898"
      },
      {
        "line": [
          "4101 LONG PRAIRIE RD"
        ],
        "city": "FLOWER MOUND",
        "state": "TX",
        "postalCode": "75028-1567"
      },
      {
        "line": [
          "5252 W. University DR."
        ],
        "city": "MCKINNEY",
        "state": "TX",
        "postalCode": "75071-7822"
      },
      {
        "line": [
          "7600 BETTER WAY"
        ],
        "city": "FRISCO",
        "state": "TX",
        "postalCode": "75033-3797"
      },
      {
        "line": [
          "3535 S. Interstate 35"
        ],
        "city": "DENTON",
        "state": "TX",
        "postalCode": "76210-6850"
      },
      {
        "line": [
          "6190 LBJ FREEWAY SUITE 702"
        ],
        "city": "DALLAS",
        "state": "TX",
        "postalCode": "75240-6385"
      },
      {
        "line": [
          "3325 W PLANO PKWY"
        ],
        "city": "PLANO",
        "state": "TX",
        "postalCode": "75075-8010"
      },
      {
        "line": [
          "1600 WATERS RIDGE DR #B"
        ],
        "city": "LEWISVILLE",
        "state": "TX",
        "postalCode": "75057-6039"
      },
      {
        "line": [
          "2800 W 15TH ST"
        ],
        "city": "PLANO",
        "state": "TX",
        "postalCode": "75075-7526"
      },
      {
        "line": [
          "10708 VICTORIA ASH DR"
        ],
        "city": "KELLER",
        "state": "TX",
        "postalCode": "76244-6392"
      },
      {
        "line": [
          "101 E Southwest PKWY",
          "#110"
        ],
        "city": "LEWISVILLE",
        "state": "TX",
        "postalCode": "75067-8753"
      },
      {
        "line": [
          "1400 Eighth Avenue"
        ],
        "city": "FORT WORTH",
        "state": "TX",
        "postalCode": "76104-4100"
      },
      {
        "line": [
          "3812 E Belknap St."
        ],
        "city": "FORT WORTH",
        "state": "TX",
        "postalCode": "76111-6012"
      },
      {
        "line": [
          "4501 Plano Parkway"
        ],
        "city": "CARROLLTON",
        "state": "TX",
        "postalCode": "75010-4971"
      },
      {
        "line": [
          "4700 Alliance Blvd."
        ],
        "city": "PLANO",
        "state": "TX",
        "postalCode": "75093-5348"
      },
      {
        "line": [
          "3845 E Loop 820 S"
        ],
        "city": "FORT WORTH",
        "state": "TX",
        "postalCode": "76119-4337"
      },
      {
        "line": [
          "810 E RALPH HALL PKWY, SUITE 150"
        ],
        "city": "ROCKWALL",
        "state": "TX",
        "postalCode": "75032-6878"
      },
      {
        "line": [
          "3101 North Tarrant Pkwy."
        ],
        "city": "FORT WORTH",
        "state": "TX",
        "postalCode": "76177-8601"
      },
      {
        "line": [
          "4333 N JOSEY LN STE 103 # PROFESSI"
        ],
        "city": "CARROLLTON",
        "state": "TX",
        "postalCode": "75010-4620"
      },
      {
        "line": [
          "2421 CALLENDER RD STE 135"
        ],
        "city": "MANSFIELD",
        "state": "TX",
        "postalCode": "76063-8868"
      },
      {
        "line": [
          "1414 WEST WHEATLAND RD #100"
        ],
        "city": "DUNCANVILLE",
        "state": "TX",
        "postalCode": "75116-4249"
      },
      {
        "line": [
          "241 N Preston Rd"
        ],
        "city": "PROSPER",
        "state": "TX",
        "postalCode": "75078-8792"
      },
      {
        "line": [
          "4710 SLIDE RD"
        ],
        "city": "LUBBOCK",
        "state": "TX",
        "postalCode": "79414-3404"
      },
      {
        "line": [
          "4400 Long Prairie Rd."
        ],
        "city": "FLOWER MOUND",
        "state": "TX",
        "postalCode": "75028-1892"
      },
      {
        "line": [
          "6301 OAKMONT BLVD"
        ],
        "city": "FORT WORTH",
        "state": "TX",
        "postalCode": "76132-2814"
      },
      {
        "line": [
          "2245 MARSH LN"
        ],
        "city": "CARROLLTON",
        "state": "TX",
        "postalCode": "75006-2612"
      },
      {
        "line": [
          "3305 UNICORN LAKE BLVD"
        ],
        "city": "DENTON",
        "state": "TX",
        "postalCode": "76210-0102"
      },
      {
        "line": [
          "6116 Sports Village RD"
        ],
        "city": "FRISCO",
        "state": "TX",
        "postalCode": "75033-3584"
      },
      {
        "line": [
          "13136 DALLAS PKWY STE 530"
        ],
        "city": "FRISCO",
        "state": "TX",
        "postalCode": "75033-4247"
      },
      {
        "line": [
          "5500 Frisco Square Blvd."
        ],
        "city": "FRISCO",
        "state": "TX",
        "postalCode": "75034-3305"
      },
      {
        "line": [
          "3100 Peters Colony Rd."
        ],
        "city": "FLOWER MOUND",
        "state": "TX",
        "postalCode": "75022-2949"
      },
      {
        "line": [
          "6201 Overton Ridge Blvd."
        ],
        "city": "FORT WORTH",
        "state": "TX",
        "postalCode": "76132-3613"
      },
      {
        "line": [
          "3901 W. 15th St."
        ],
        "city": "PLANO",
        "state": "TX",
        "postalCode": "75075-7738"
      },
      {
        "line": [
          "4112 WEST SPRINGCREEK PKWY #D200"
        ],
        "city": "PLANO",
        "state": "TX",
        "postalCode": "75024-5231"
      },
      {
        "line": [
          "1100 Allied Dr."
        ],
        "city": "PLANO",
        "state": "TX",
        "postalCode": "75093-5348"
      },
      {
        "line": [
          "900 N. BLUE MOUND RD #192"
        ],
        "city": "FORT WORTH",
        "state": "TX",
        "postalCode": "76131-8828"
      },
      {
        "line": [
          "900 Westpark Way"
        ],
        "city": "EULESS",
        "state": "TX",
        "postalCode": "76040-3977"
      },
      {
        "line": [
          "6101 WINDHAVEN PKWY"
        ],
        "city": "PLANO",
        "state": "TX",
        "postalCode": "75093-8197"
      },
      {
        "line": [
          "2301 Marsh Lane Ste. 200"
        ],
        "city": "PLANO",
        "state": "TX",
        "postalCode": "75093-8497"
      },
      {
        "line": [
          "1000 ST. LOUIS AVE STE 101"
        ],
        "city": "FORT WORTH",
        "state": "TX",
        "postalCode": "76104-3366"
      },
      {
        "line": [
          "4708 DEXTER DR"
        ],
        "city": "PLANO",
        "state": "TX",
        "postalCode": "75093-5288"
      },
      {
        "line": [
          "4108 W. 15th ST #100"
        ],
        "city": "PLANO",
        "state": "TX",
        "postalCode": "75093-5819"
      },
      {
        "line": [
          "112 Barnett Blvd"
        ],
        "city": "LEWISVILLE",
        "state": "TX",
        "postalCode": "75077-3176"
      },
      {
        "line": [
          "925 WEST EXCHANGE PKWY"
        ],
        "city": "ALLEN",
        "state": "TX",
        "postalCode": "75013-7016"
      },
      {
        "line": [
          "9840 N CENTRAL EXPWY SUITE 34"
        ],
        "city": "DALLAS",
        "state": "TX",
        "postalCode": "75231-4325"
      },
      {
        "line": [
          "6621 DAN DANCIGER ROAD"
        ],
        "city": "FORT WORTH",
        "state": "TX",
        "postalCode": "76133-4905"
      },
      {
        "line": [
          "1600 Hospital Pkwy."
        ],
        "city": "BEDFORD",
        "state": "TX",
        "postalCode": "76022-6913"
      },
      {
        "line": [
          "2135 Denton Dr"
        ],
        "city": "CARROLLTON",
        "state": "TX",
        "postalCode": "75006-3103"
      },
      {
        "line": [
          "6190 LYNDON B JOHNSON FWY STE 702"
        ],
        "city": "DALLAS",
        "state": "TX",
        "postalCode": "75240-6385"
      },
      {
        "line": [
          "1301 PENNSYLVANIA AVE"
        ],
        "city": "FORT WORTH",
        "state": "TX",
        "postalCode": "76104-2122"
      },
      {
        "line": [
          "4240 INTERNATIONAL PKWY #158"
        ],
        "city": "CARROLLTON",
        "state": "TX",
        "postalCode": "75007-1974"
      },
      {
        "line": [
          "4306 24TH ST"
        ],
        "city": "LUBBOCK",
        "state": "TX",
        "postalCode": "79410-1818"
      },
      {
        "line": [
          "9009 WHITE ROCK TRL"
        ],
        "city": "DALLAS",
        "state": "TX",
        "postalCode": "75238-3347"
      },
      {
        "line": [
          "2245 Marsh Lane"
        ],
        "city": "CARROLLTON",
        "state": "TX",
        "postalCode": "75006-2612"
      },
      {
        "line": [
          "1831 HARROUN AVE"
        ],
        "city": "MCKINNEY",
        "state": "TX",
        "postalCode": "75069-5003"
      },
      {
        "line": [
          "12505 Lebanon Road"
        ],
        "city": "FRISCO",
        "state": "TX",
        "postalCode": "75035-8298"
      },
      {
        "line": [
          "1621 N Central Expwy",
          "#200"
        ],
        "city": "RICHARDSON",
        "state": "TX",
        "postalCode": "75080-3504"
      },
      {
        "line": [
          "2801 S. Mayhill Rd."
        ],
        "city": "DENTON",
        "state": "TX",
        "postalCode": "76208-5910"
      }
    ],
    "extension": [
      {
        "url": "https://fhir.athena.io/StructureDefinition/ah-practice",
        "valueReference": {
          "reference": "Organization/a-1.Practice-23918"
        }
      },
      {
        "url": "https://fhir.athena.io/StructureDefinition/ah-brand",
        "valueReference": {
          "reference": "Organization/a-23918.Brand-1"
        }
      }
    ]
  },
  "fullUrl": "urn:uuid:6f648aac-8eeb-5dda-9d33-27cabdb47519"
}