{
  "resource": {
    "resourceType": "Organization",
    "id": "7bbd19ad-4c10-581d-bf31-57940a0649ee",
    "name": "Ascend Medical",
    "endpoint": [
      {
        "reference": "Endpoint/27a4e967-47aa-5a9c-a572-b8297ee268a2"
      },
      {
        "reference": "Endpoint/b2a7396b-3cff-5c4f-8eb4-499c74b5300d"
      }
    ],
    "identifier": [
      {
        "system": "http://hl7.org/fhir/sid/us-npi",
        "value": "1659966075"
      },
      {
        "system": "http://hl7.org/fhir/sid/us-npi",
        "value": "1841800836"
      },
      {
        "system": "http://hl7.org/fhir/sid/us-npi",
        "value": "1366015794"
      }
    ],
    "address": [
      {
        "line": [
          "13682 HIGHWAY 92"
        ],
        "city": "WOODSTOCK",
        "state": "GA",
        "postalCode": "30188-4558"
      },
      {
        "line": [
          "171 HIGHWAY 78"
        ],
        "city": "MONROE",
        "state": "GA",
        "postalCode": "30655-4477"
      },
      {
        "line": [
          "619 RANKIN ST NE"
        ],
        "city": "ATLANTA",
        "state": "GA",
        "postalCode": "30308-2920"
      },
      {
        "line": [
          "7456 HIGHWAY 82 SPUR"
        ],
        "city": "MAYSVILLE",
        "state": "GA",
        "postalCode": "30558-3405"
      },
      {
        "line": [
          "805 LAS CIMAS PKWY",
          "STE 130"
        ],
        "city": "AUSTIN",
        "state": "TX",
        "postalCode": "78746-6527"
      },
      {
        "line": [
          "110 E PACES DR"
        ],
        "city": "ATHENS",
        "state": "GA",
        "postalCode": "30605-5217"
      },
      {
        "line": [
          "933 US-29 N"
        ],
        "city": "ATHENS",
        "state": "GA",
        "postalCode": "30601-3920"
      },
      {
        "line": [
          "50 SUMNER WAY"
        ],
        "city": "JEFFERSON",
        "state": "GA",
        "postalCode": "30549-7002"
      },
      {
        "line": [
          "343 PRICE ST"
        ],
        "city": "STATHAM",
        "state": "GA",
        "postalCode": "30666-1648"
      },
      {
        "line": [
          "4355 S LEE ST"
        ],
        "city": "BUFORD",
        "state": "GA",
        "postalCode": "30518-5756"
      },
      {
        "line": [
          "423 COVINGTON AVE"
        ],
        "city": "THOMASVILLE",
        "state": "GA",
        "postalCode": "31792-5264"
      },
      {
        "line": [
          "8256  Main St"
        ],
        "city": "WOODSTOCK",
        "state": "GA",
        "postalCode": "30188-5047"
      },
      {
        "line": [
          "5373 THOMPSON MILL RD"
        ],
        "city": "HOSCHTON",
        "state": "GA",
        "postalCode": "30548-4037"
      },
      {
        "line": [
          "5828 HIGHWAY 82 SPUR"
        ],
        "city": "COMMERCE",
        "state": "GA",
        "postalCode": "30529-6023"
      },
      {
        "line": [
          "339 MANOR LAKE CIR"
        ],
        "city": "HOSCHTON",
        "state": "GA",
        "postalCode": "30548-1545"
      },
      {
        "line": [
          "624 GAINESVILLE HWY"
        ],
        "city": "WINDER",
        "state": "GA",
        "postalCode": "30680-1658"
      },
      {
        "line": [
          "4125 N POINT PKWY"
        ],
        "city": "ALPHARETTA",
        "state": "GA",
        "postalCode": "30022-4100"
      },
      {
        "line": [
          "3660 HOWELL FERRY RD BLDG B"
        ],
        "city": "DULUTH",
        "state": "GA",
        "postalCode": "30096-3178"
      },
      {
        "line": [
          "130 HAWTHORNE PARK"
        ],
        "city": "ATHENS",
        "state": "GA",
        "postalCode": "30606-2147"
      },
      {
        "line": [
          "1291 CEDAR SHOALS DR"
        ],
        "city": "ATHENS",
        "state": "GA",
        "postalCode": "30605-3509"
      },
      {
        "line": [
          "199 W W GARY RD"
        ],
        "city": "COMMERCE",
        "state": "GA",
        "postalCode": "30529-1241"
      },
      {
        "line": [
          "138 GATEWAY LN"
        ],
        "city": "BETHLEHEM",
        "state": "GA",
        "postalCode": "30620-1818"
      },
      {
        "line": [
          "801 RIVERHILL DR"
        ],
        "city": "ATHENS",
        "state": "GA",
        "postalCode": "30606-4067"
      },
      {
        "line": [
          "755 EPPS BRIDGE PKWY"
        ],
        "city": "ATHENS",
        "state": "GA",
        "postalCode": "30606-6987"
      },
      {
        "line": [
          "432 S 4TH ST"
        ],
        "city": "COLBERT",
        "state": "GA",
        "postalCode": "30628-3320"
      },
      {
        "line": [
          "4491 S MAIN ST"
        ],
        "city": "ACWORTH",
        "state": "GA",
        "postalCode": "30101-5564"
      },
      {
        "line": [
          "200 BOLTON DR"
        ],
        "city": "COMMERCE",
        "state": "GA",
        "postalCode": "30529-1092"
      },
      {
        "line": [
          "883 ROY WOODS RD"
        ],
        "city": "COMER",
        "state": "GA",
        "postalCode": "30629-1926"
      },
      {
        "line": [
          "1375 WEBB GIN HOUSE RD"
        ],
        "city": "LAWRENCEVILLE",
        "state": "GA",
        "postalCode": "30045-5440"
      },
      {
        "line": [
          "124 AVERY ST"
        ],
        "city": "WINTERVILLE",
        "state": "GA",
        "postalCode": "30683-1627"
      }
    ],
    "extension": [
      {
        "url": "https://fhir.athena.io/StructureDefinition/ah-practice",
        "valueReference": {
          "reference": "Organization/a-1.Practice-30437"
        }
      },
      {
        "url": "https://fhir.athena.io/StructureDefinition/ah-brand",
        "valueReference": {
          "reference": "Organization/a-30437.Brand-1"
        }
      }
    ]
  },
  "fullUrl": "urn:uuid:7bbd19ad-4c10-581d-bf31-57940a0649ee"
}