{
  "resource": {
    "resourceType": "Organization",
    "id": "4320021c-7c42-5253-b369-a9bc2c2d126c",
    "name": "Astia Health",
    "endpoint": [
      {
        "reference": "Endpoint/27a4e967-47aa-5a9c-a572-b8297ee268a2"
      },
      {
        "reference": "Endpoint/52597480-7fa4-5179-91c1-02054e446b43"
      }
    ],
    "identifier": [
      {
        "system": "http://hl7.org/fhir/sid/us-npi",
        "value": "1649647462"
      }
    ],
    "address": [
      {
        "line": [
          "10898 US-10"
        ],
        "city": "MARSHFIELD",
        "state": "WI",
        "postalCode": "54449-6001"
      },
      {
        "line": [
          "630 S CENTRAL AVE",
          "STE 303"
        ],
        "city": "MARSHFIELD",
        "state": "WI",
        "postalCode": "54449-4196"
      },
      {
        "line": [
          "1932 E 26TH ST"
        ],
        "city": "MARSHFIELD",
        "state": "WI",
        "postalCode": "54449-5500"
      },
      {
        "line": [
          "1011 E SPRUCE ST STE 6"
        ],
        "city": "ABBOTSFORD",
        "state": "WI",
        "postalCode": "54405-9459"
      },
      {
        "line": [
          "1811 E 29TH ST"
        ],
        "city": "MARSHFIELD",
        "state": "WI",
        "postalCode": "54449-6001"
      },
      {
        "line": [
          "11079 MAIN ST"
        ],
        "city": "HEWITT",
        "state": "WI",
        "postalCode": "54441-9006"
      },
      {
        "line": [
          "8765 E 29TH ST"
        ],
        "city": "MARSHFIELD",
        "state": "WI",
        "postalCode": "54449-5512"
      },
      {
        "line": [
          "1000 LAKE VIEW DR # DOOR # 34"
        ],
        "city": "WAUSAU",
        "state": "WI",
        "postalCode": "54403-6784"
      },
      {
        "line": [
          "2101 N PACKER RD"
        ],
        "city": "SPRINGFIELD",
        "state": "MO",
        "postalCode": "65803-5021"
      },
      {
        "line": [
          "539 N MERIDIAN ST"
        ],
        "city": "CURTISS",
        "state": "WI",
        "postalCode": "54422-8814"
      },
      {
        "line": [
          "900 ALDERSON ST"
        ],
        "city": "SCHOFIELD",
        "state": "WI",
        "postalCode": "54476-1488"
      },
      {
        "line": [
          "6303 SCHOFIELD AVE"
        ],
        "city": "SCHOFIELD",
        "state": "WI",
        "postalCode": "54476-4352"
      },
      {
        "line": [
          "1616 S RODDIS AVE"
        ],
        "city": "MARSHFIELD",
        "state": "WI",
        "postalCode": "54449-4905"
      }
    ],
    "extension": [
      {
        "url": "https://fhir.athena.io/StructureDefinition/ah-practice",
        "valueReference": {
          "reference": "Organization/a-1.Practice-32839"
        }
      },
      {
        "url": "https://fhir.athena.io/StructureDefinition/ah-brand",
        "valueReference": {
          "reference": "Organization/a-32839.Brand-1"
        }
      }
    ]
  },
  "fullUrl": "urn:uuid:4320021c-7c42-5253-b369-a9bc2c2d126c"
}