{
  "resource": {
    "resourceType": "Organization",
    "id": "aaba1130-3c1a-5e2d-94d6-7f677b29ba53",
    "name": "Park Hill Medicine",
    "endpoint": [
      {
        "reference": "Endpoint/27a4e967-47aa-5a9c-a572-b8297ee268a2"
      },
      {
        "reference": "Endpoint/5d4f7020-680a-5ede-ae3f-e6d9c6512f35"
      }
    ],
    "identifier": [
      {
        "system": "http://hl7.org/fhir/sid/us-npi",
        "value": "1598194284"
      }
    ],
    "address": [
      {
        "line": [
          "41 TORE'S DR UNIT 24"
        ],
        "city": "FLAT ROCK",
        "state": "NC",
        "postalCode": "28731-0076"
      },
      {
        "line": [
          "510 PARK HILL CT"
        ],
        "city": "HENDERSONVILLE",
        "state": "NC",
        "postalCode": "28739-4265"
      },
      {
        "line": [
          "306 Spring St"
        ],
        "city": "HENDERSONVILLE",
        "state": "NC",
        "postalCode": "28739-5137"
      },
      {
        "line": [
          "100 HOSPITAL DR"
        ],
        "city": "HENDERSONVILLE",
        "state": "NC",
        "postalCode": "28792-5272"
      },
      {
        "line": [
          "290 CLEAR CREEK RD"
        ],
        "city": "HENDERSONVILLE",
        "state": "NC",
        "postalCode": "28792-6148"
      },
      {
        "line": [
          "1820 PISGAH DR"
        ],
        "city": "HENDERSONVILLE",
        "state": "NC",
        "postalCode": "28791-3759"
      },
      {
        "line": [
          "581 S ALLEN RD"
        ],
        "city": "FLAT ROCK",
        "state": "NC",
        "postalCode": "28731-9447"
      },
      {
        "line": [
          "510 Park Hill ct"
        ],
        "city": "HENDERSONVILLE",
        "state": "NC",
        "postalCode": "28739-4265"
      },
      {
        "line": [
          "800 N JUSTICE ST"
        ],
        "city": "HENDERSONVILLE",
        "state": "NC",
        "postalCode": "28791-3410"
      },
      {
        "line": [
          "501 park hill ct"
        ],
        "city": "HENDERSONVILLE",
        "state": "NC",
        "postalCode": "28739-0001"
      },
      {
        "line": [
          "1000 W ALLEN ST"
        ],
        "city": "HENDERSONVILLE",
        "state": "NC",
        "postalCode": "28739-4800"
      },
      {
        "line": [
          "358 CLEAR CREEK RD"
        ],
        "city": "HENDERSONVILLE",
        "state": "NC",
        "postalCode": "28792-2595"
      },
      {
        "line": [
          "2601 CHIMNEY ROCK RD"
        ],
        "city": "HENDERSONVILLE",
        "state": "NC",
        "postalCode": "28792-9673"
      },
      {
        "line": [
          "260 CENTERWAY DR"
        ],
        "city": "HENDERSONVILLE",
        "state": "NC",
        "postalCode": "28792-7074"
      },
      {
        "line": [
          "334 Thompson st"
        ],
        "city": "HENDERSONVILLE",
        "state": "NC",
        "postalCode": "28792-0003"
      },
      {
        "line": [
          "510 park hill ct"
        ],
        "city": "HENDERSONVILLE",
        "state": "NC",
        "postalCode": "28739-4265"
      },
      {
        "line": [
          "43 Tore's dr"
        ],
        "city": "FLAT ROCK",
        "state": "NC",
        "postalCode": "28731-0076"
      },
      {
        "line": [
          "510 park hill court"
        ],
        "city": "HENDERSONVILLE",
        "state": "NC",
        "postalCode": "28739-4265"
      },
      {
        "line": [
          "3851 HOWARD GAP RD"
        ],
        "city": "HENDERSONVILLE",
        "state": "NC",
        "postalCode": "28792-3102"
      },
      {
        "line": [
          "5593 OLD HAYWOOD RD"
        ],
        "city": "MILLS RIVER",
        "state": "NC",
        "postalCode": "28759-7502"
      },
      {
        "line": [
          "1825 PISGAH DR"
        ],
        "city": "HENDERSONVILLE",
        "state": "NC",
        "postalCode": "28791-3760"
      },
      {
        "line": [
          "600 CAROLINA VILLAGE RD SUITE Z"
        ],
        "city": "HENDERSONVILLE",
        "state": "NC",
        "postalCode": "28792-1800"
      },
      {
        "line": [
          "200 HERITAGE CIR"
        ],
        "city": "HENDERSONVILLE",
        "state": "NC",
        "postalCode": "28791-0713"
      },
      {
        "line": [
          "1870 PISGAH DR"
        ],
        "city": "HENDERSONVILLE",
        "state": "NC",
        "postalCode": "28791-3759"
      },
      {
        "line": [
          "400 THOMPSON ST"
        ],
        "city": "HENDERSONVILLE",
        "state": "NC",
        "postalCode": "28792-2811"
      },
      {
        "line": [
          "4143 HAYWOOD RD"
        ],
        "city": "MILLS RIVER",
        "state": "NC",
        "postalCode": "28759-9740"
      },
      {
        "line": [
          "74 LOTUS LN"
        ],
        "city": "HENDERSONVILLE",
        "state": "NC",
        "postalCode": "28792-0001"
      },
      {
        "line": [
          "600 Carolina Village Rd suite z"
        ],
        "city": "HENDERSONVILLE",
        "state": "NC",
        "postalCode": "28792-2892"
      },
      {
        "line": [
          "1510 HEBRON RD"
        ],
        "city": "HENDERSONVILLE",
        "state": "NC",
        "postalCode": "28739-4794"
      }
    ],
    "extension": [
      {
        "url": "https://fhir.athena.io/StructureDefinition/ah-practice",
        "valueReference": {
          "reference": "Organization/a-1.Practice-18495"
        }
      },
      {
        "url": "https://fhir.athena.io/StructureDefinition/ah-brand",
        "valueReference": {
          "reference": "Organization/a-18495.Brand-1"
        }
      }
    ]
  },
  "fullUrl": "urn:uuid:aaba1130-3c1a-5e2d-94d6-7f677b29ba53"
}