{
  "resource": {
    "resourceType": "Organization",
    "id": "f10a4dc8-175d-5320-b73a-206c8914af35",
    "name": "ADVANCED GERIATRIC CARE AND FAMILY PRACTICE ASSOC",
    "endpoint": [
      {
        "reference": "Endpoint/27a4e967-47aa-5a9c-a572-b8297ee268a2"
      },
      {
        "reference": "Endpoint/7eb7f70e-58fc-51ba-b6d7-7c0ddf707a8f"
      }
    ],
    "identifier": [
      {
        "system": "http://hl7.org/fhir/sid/us-npi",
        "value": "1346286721"
      }
    ],
    "address": [
      {
        "line": [
          "25302 EARHART RD."
        ],
        "city": "LAGUNA HILLS",
        "state": "CA",
        "postalCode": "92653-5260"
      },
      {
        "line": [
          "12681 HASTER ST"
        ],
        "city": "GARDEN GROVE",
        "state": "CA",
        "postalCode": "92840-6040"
      },
      {
        "line": [
          "25321 paseo de valencia",
          "laguna hills"
        ],
        "city": "LAGUNA HILLS",
        "state": "CA",
        "postalCode": "92653-3144"
      },
      {
        "line": [
          "24672 ARGUS DRIVE"
        ],
        "city": "MISSION VIEJO",
        "state": "CA",
        "postalCode": "92691-4610"
      },
      {
        "line": [
          "24331 SPARTAN ST"
        ],
        "city": "MISSION VIEJO",
        "state": "CA",
        "postalCode": "92691-3920"
      },
      {
        "line": [
          "27642 ROSEDALE DRIVE"
        ],
        "city": "SAN JUAN CAPISTRANO",
        "state": "CA",
        "postalCode": "92675-1825"
      },
      {
        "line": [
          "25652 OLD TRABUCO ROAD"
        ],
        "city": "LAKE FOREST",
        "state": "CA",
        "postalCode": "92630-2776"
      },
      {
        "line": [
          "24371 SPARTAN ST"
        ],
        "city": "MISSION VIEJO",
        "state": "CA",
        "postalCode": "92691-3920"
      },
      {
        "line": [
          "24672 PASEO VENDAVAL",
          "CASA MARIA BOARD AND CARE"
        ],
        "city": "LAKE FOREST",
        "state": "CA",
        "postalCode": "92630-2113"
      },
      {
        "line": [
          "11680 WARNER AVENUE"
        ],
        "city": "FOUNTAIN VALLEY",
        "state": "CA",
        "postalCode": "92708-2513"
      },
      {
        "line": [
          "23981 GOWDY AVENUE"
        ],
        "city": "LAKE FOREST",
        "state": "CA",
        "postalCode": "92630-3771"
      },
      {
        "line": [
          "13075 BLACKBIRD ST"
        ],
        "city": "GARDEN GROVE",
        "state": "CA",
        "postalCode": "92843-2902"
      },
      {
        "line": [
          "555 E MEMORY LANE"
        ],
        "city": "SANTA ANA",
        "state": "CA",
        "postalCode": "92706-1705"
      },
      {
        "line": [
          "19462 SIERRA CHULA"
        ],
        "city": "IRVINE",
        "state": "CA",
        "postalCode": "92603-3809"
      },
      {
        "line": [
          "35410 DEL REY"
        ],
        "city": "CAPISTRANO BEACH",
        "state": "CA",
        "postalCode": "92624-1814"
      },
      {
        "line": [
          "24821 Argus Drive",
          "Argus Home Board & Care"
        ],
        "city": "MISSION VIEJO",
        "state": "CA",
        "postalCode": "92691-4613"
      },
      {
        "line": [
          "24652 DORIA AVE"
        ],
        "city": "MISSION VIEJO",
        "state": "CA",
        "postalCode": "92691-4636"
      },
      {
        "line": [
          "23911 VIA LA CORUNA",
          "PACIFIC HOME BOARD AND CARE"
        ],
        "city": "MISSION VIEJO",
        "state": "CA",
        "postalCode": "92691-3526"
      },
      {
        "line": [
          "24741 ACROPOLIS DR",
          "PACIFIC SHORES M.V. HOME"
        ],
        "city": "MISSION VIEJO",
        "state": "CA",
        "postalCode": "92691-4605"
      },
      {
        "line": [
          "24321 BLUERIDGE RD"
        ],
        "city": "LAKE FOREST",
        "state": "CA",
        "postalCode": "92630-3802"
      },
      {
        "line": [
          "24402 APHENA AVENUE"
        ],
        "city": "MISSION VIEJO",
        "state": "CA",
        "postalCode": "92691-4513"
      },
      {
        "line": [
          "24262 TWIG ST"
        ],
        "city": "LAKE FOREST",
        "state": "CA",
        "postalCode": "92630-5256"
      },
      {
        "line": [
          "24262 GRASS ST",
          "QUALITY SENIOR LIVING"
        ],
        "city": "LAKE FOREST",
        "state": "CA",
        "postalCode": "92630-5242"
      },
      {
        "line": [
          "23191 LA VACA ST"
        ],
        "city": "LAKE FOREST",
        "state": "CA",
        "postalCode": "92630-4521"
      },
      {
        "line": [
          "23792 MARGUERITE PKWY"
        ],
        "city": "MISSION VIEJO",
        "state": "CA",
        "postalCode": "92692-1547"
      },
      {
        "line": [
          "25622 MINOS ST"
        ],
        "city": "MISSION VIEJO",
        "state": "CA",
        "postalCode": "92691-4659"
      },
      {
        "line": [
          "24052 PLANT AVE.",
          "SEASON AT LAGUNA 4"
        ],
        "city": "MISSION VIEJO",
        "state": "CA",
        "postalCode": "92691-3725"
      },
      {
        "line": [
          "24221 CHRISTANTA DRIVE"
        ],
        "city": "MISSION VIEJO",
        "state": "CA",
        "postalCode": "92691-4003"
      },
      {
        "line": [
          "24932 SOUTHPORT ST",
          "HAMPTON COURT JOYFUL HOME"
        ],
        "city": "LAGUNA HILLS",
        "state": "CA",
        "postalCode": "92653-4924"
      },
      {
        "line": [
          "25005 COSTEAU ST"
        ],
        "city": "LAGUNA HILLS",
        "state": "CA",
        "postalCode": "92653-4937"
      },
      {
        "line": [
          "26642 SALAMANCA"
        ],
        "city": "MISSION VIEJO",
        "state": "CA",
        "postalCode": "92691-4923"
      },
      {
        "line": [
          "3 PURSUIT"
        ],
        "city": "ALISO VIEJO",
        "state": "CA",
        "postalCode": "92656-4213"
      },
      {
        "line": [
          "2720 EAST VIRGINIA AVE",
          "BOARD AND CARE"
        ],
        "city": "ANAHEIM",
        "state": "CA",
        "postalCode": "92806-4353"
      },
      {
        "line": [
          "24666 SAN ANDRES LN",
          "ST. ANDRES BOARD AND CARE"
        ],
        "city": "MISSION VIEJO",
        "state": "CA",
        "postalCode": "92691-4925"
      },
      {
        "line": [
          "25522 MAXIMUS ST"
        ],
        "city": "MISSION VIEJO",
        "state": "CA",
        "postalCode": "92691-4650"
      },
      {
        "line": [
          "24302 BARK ST"
        ],
        "city": "LAKE FOREST",
        "state": "CA",
        "postalCode": "92630-5227"
      },
      {
        "line": [
          "24336 APHENA DRIVE"
        ],
        "city": "MISSION VIEJO",
        "state": "CA",
        "postalCode": "92691-4511"
      },
      {
        "line": [
          "9856 MARIPOSA AVE"
        ],
        "city": "FOUNTAIN VALLEY",
        "state": "CA",
        "postalCode": "92708-2911"
      },
      {
        "line": [
          "26871 LA SIERRA",
          "ALLIANCE BOARD AND CARE"
        ],
        "city": "MISSION VIEJO",
        "state": "CA",
        "postalCode": "92691-6049"
      },
      {
        "line": [
          "23442 EL TORO ROAD"
        ],
        "city": "LAKE FOREST",
        "state": "CA",
        "postalCode": "92630-6979"
      },
      {
        "line": [
          "7571 Westminster Boulevard"
        ],
        "city": "WESTMINSTER",
        "state": "CA",
        "postalCode": "92683-8606"
      },
      {
        "line": [
          "24452 HEALTH CENTER DR"
        ],
        "city": "LAGUNA HILLS",
        "state": "CA",
        "postalCode": "92653-3604"
      },
      {
        "line": [
          "24922 MOSQUERO LANE"
        ],
        "city": "MISSION VIEJO",
        "state": "CA",
        "postalCode": "92691-4919"
      },
      {
        "line": [
          "1835 W LA VETA AVE"
        ],
        "city": "ORANGE",
        "state": "CA",
        "postalCode": "92868-4132"
      },
      {
        "line": [
          "24632 ARTEMIA AVE"
        ],
        "city": "MISSION VIEJO",
        "state": "CA",
        "postalCode": "92691-4618"
      },
      {
        "line": [
          "26791 MORENA DRIVE"
        ],
        "city": "MISSION VIEJO",
        "state": "CA",
        "postalCode": "92691-6140"
      },
      {
        "line": [
          "26711 VAL PARISO"
        ],
        "city": "MISSION VIEJO",
        "state": "CA",
        "postalCode": "92691-3428"
      },
      {
        "line": [
          "12332 GARDEN GROVE BLVD"
        ],
        "city": "GARDEN GROVE",
        "state": "CA",
        "postalCode": "92843-1804"
      },
      {
        "line": [
          "26531 NACCOME DR"
        ],
        "city": "MISSION VIEJO",
        "state": "CA",
        "postalCode": "92691-6123"
      },
      {
        "line": [
          "24016 SALERO LANE"
        ],
        "city": "MISSION VIEJO",
        "state": "CA",
        "postalCode": "92691-4128"
      },
      {
        "line": [
          "25431 ESROSE CT"
        ],
        "city": "LAKE FOREST",
        "state": "CA",
        "postalCode": "92630-5307"
      },
      {
        "line": [
          "23762 SAN ESTEBAN DR",
          "BOARD AND CARE"
        ],
        "city": "MISSION VIEJO",
        "state": "CA",
        "postalCode": "92691-3346"
      },
      {
        "line": [
          "26881 LA SIERRA"
        ],
        "city": "MISSION VIEJO",
        "state": "CA",
        "postalCode": "92691-6049"
      },
      {
        "line": [
          "31741 RANCHO VIEJO RD"
        ],
        "city": "SAN JUAN CAPISTRANO",
        "state": "CA",
        "postalCode": "92675-6722"
      },
      {
        "line": [
          "24332 TWIG STREET"
        ],
        "city": "LAKE FOREST",
        "state": "CA",
        "postalCode": "92630-6644"
      },
      {
        "line": [
          "32170 Niguel Rd"
        ],
        "city": "LAGUNA NIGUEL",
        "state": "CA",
        "postalCode": "92677-4264"
      },
      {
        "line": [
          "24962 CALLE ARAGON"
        ],
        "city": "LAGUNA HILLS",
        "state": "CA",
        "postalCode": "92637-3882"
      },
      {
        "line": [
          "25422 PACIFICA AVE"
        ],
        "city": "MISSION VIEJO",
        "state": "CA",
        "postalCode": "92691-3854"
      },
      {
        "line": [
          "25776 PERICLES ST"
        ],
        "city": "MISSION VIEJO",
        "state": "CA",
        "postalCode": "92691-4665"
      },
      {
        "line": [
          "26982 FLORESTA LANE"
        ],
        "city": "MISSION VIEJO",
        "state": "CA",
        "postalCode": "92691-5202"
      },
      {
        "line": [
          "25475 ADRIANA ST.",
          "SEASIDE TERRACE 3 HOME"
        ],
        "city": "MISSION VIEJO",
        "state": "CA",
        "postalCode": "92691-3819"
      },
      {
        "line": [
          "24132 DELPHI ST"
        ],
        "city": "MISSION VIEJO",
        "state": "CA",
        "postalCode": "92691-3907"
      },
      {
        "line": [
          "24932 CAMBERWELL ST"
        ],
        "city": "LAGUNA HILLS",
        "state": "CA",
        "postalCode": "92653-4625"
      },
      {
        "line": [
          "25511 CLASSIC DR",
          "ALLIANCE SENIOR LIVING BOARD AND CARE"
        ],
        "city": "MISSION VIEJO",
        "state": "CA",
        "postalCode": "92691-3853"
      },
      {
        "line": [
          "24441 CALLE SONORA"
        ],
        "city": "LAGUNA HILLS",
        "state": "CA",
        "postalCode": "92637-7700"
      },
      {
        "line": [
          "24682 TABUENCA"
        ],
        "city": "MISSION VIEJO",
        "state": "CA",
        "postalCode": "92692-2345"
      },
      {
        "line": [
          "273 VIA BALLENA",
          "ACCENT ON SENIORS HOME"
        ],
        "city": "SAN CLEMENTE",
        "state": "CA",
        "postalCode": "92672-3708"
      },
      {
        "line": [
          "24552 PASEO DE VALENCIA"
        ],
        "city": "LAGUNA HILLS",
        "state": "CA",
        "postalCode": "92653-4236"
      },
      {
        "line": [
          "555 E MEMORY LN"
        ],
        "city": "SANTA ANA",
        "state": "CA",
        "postalCode": "92706-1705"
      },
      {
        "line": [
          "12882 SHACKELFORD LANE"
        ],
        "city": "GARDEN GROVE",
        "state": "CA",
        "postalCode": "92841-5109"
      },
      {
        "line": [
          "660 CAMINO DE LOS MARES"
        ],
        "city": "SAN CLEMENTE",
        "state": "CA",
        "postalCode": "92673-1801"
      },
      {
        "line": [
          "26751 CARRANZA DRIVE"
        ],
        "city": "MISSION VIEJO",
        "state": "CA",
        "postalCode": "92691-4945"
      },
      {
        "line": [
          "25215 ROMERA PLACE"
        ],
        "city": "LAKE FOREST",
        "state": "CA",
        "postalCode": "92630-4241"
      },
      {
        "line": [
          "24272 CASTILLA LANE"
        ],
        "city": "MISSION VIEJO",
        "state": "CA",
        "postalCode": "92691-4142"
      },
      {
        "line": [
          "1835 W LA VETA AVE"
        ],
        "city": "ORANGE",
        "state": "CA",
        "postalCode": "92868-4182"
      },
      {
        "line": [
          "22305 SAVONA"
        ],
        "city": "LAGUNA HILLS",
        "state": "CA",
        "postalCode": "92653-1853"
      },
      {
        "line": [
          "24832 ARGUS DR"
        ],
        "city": "MISSION VIEJO",
        "state": "CA",
        "postalCode": "92691-4614"
      },
      {
        "line": [
          "29751 ANA MARIA LANE"
        ],
        "city": "LAGUNA NIGUEL",
        "state": "CA",
        "postalCode": "92677-1720"
      },
      {
        "line": [
          "18811 FLORIDA ST"
        ],
        "city": "HUNTINGTON BEACH",
        "state": "CA",
        "postalCode": "92648-1920"
      },
      {
        "line": [
          "30311 CAMINO CAPISTRANO"
        ],
        "city": "SAN JUAN CAPISTRANO",
        "state": "CA",
        "postalCode": "92675-1303"
      },
      {
        "line": [
          "24371 AUGUSTIN"
        ],
        "city": "MISSION VIEJO",
        "state": "CA",
        "postalCode": "92691-4708"
      },
      {
        "line": [
          "22122 Padova Street",
          "JOYFUL HOME V"
        ],
        "city": "LAGUNA HILLS",
        "state": "CA",
        "postalCode": "92653-1850"
      },
      {
        "line": [
          "13092 NEWLAND ST",
          "GOOD HANDS SENIOR CARE"
        ],
        "city": "GARDEN GROVE",
        "state": "CA",
        "postalCode": "92844-2335"
      },
      {
        "line": [
          "24671 ELOISA DR"
        ],
        "city": "MISSION VIEJO",
        "state": "CA",
        "postalCode": "92691-4637"
      },
      {
        "line": [
          "26151 COUNTRY CLUB DR"
        ],
        "city": "MISSION VIEJO",
        "state": "CA",
        "postalCode": "92691-5907"
      },
      {
        "line": [
          "25231 MAMMOTH CIR"
        ],
        "city": "LAKE FOREST",
        "state": "CA",
        "postalCode": "92630-2520"
      },
      {
        "line": [
          "25752 PERICLES"
        ],
        "city": "MISSION VIEJO",
        "state": "CA",
        "postalCode": "92691-4665"
      },
      {
        "line": [
          "24596 DARDANIA AVE"
        ],
        "city": "MISSION VIEJO",
        "state": "CA",
        "postalCode": "92691-4623"
      },
      {
        "line": [
          "25182 CAMPO ROJO"
        ],
        "city": "LAKE FOREST",
        "state": "CA",
        "postalCode": "92630-4210"
      },
      {
        "line": [
          "13772 PALACE WAY"
        ],
        "city": "TUSTIN",
        "state": "CA",
        "postalCode": "92780-1843"
      },
      {
        "line": [
          "32353 SAN JUAN CREEK ROAD"
        ],
        "city": "SAN JUAN CAPISTRANO",
        "state": "CA",
        "postalCode": "92675-4254"
      },
      {
        "line": [
          "1 WITHERSOON"
        ],
        "city": "IRVINE",
        "state": "CA",
        "postalCode": "92604-8637"
      },
      {
        "line": [
          "25746 SANTO DR",
          "AMERICAN LEGENDS BOARD AND CARE"
        ],
        "city": "MISSION VIEJO",
        "state": "CA",
        "postalCode": "92691-5722"
      },
      {
        "line": [
          "24672 CAVERNA CIRCLE"
        ],
        "city": "MISSION VIEJO",
        "state": "CA",
        "postalCode": "92691-4807"
      },
      {
        "line": [
          "26922 CAMINO DE ESTRELLA"
        ],
        "city": "CAPISTRANO BEACH",
        "state": "CA",
        "postalCode": "92624-1603"
      },
      {
        "line": [
          "24176 MCCOY RD"
        ],
        "city": "LAKE FOREST",
        "state": "CA",
        "postalCode": "92630-3834"
      },
      {
        "line": [
          "25411 SEA BLUFFS"
        ],
        "city": "DANA POINT",
        "state": "CA",
        "postalCode": "92629-2190"
      },
      {
        "line": [
          "26851 LA SIERRA"
        ],
        "city": "MISSION VIEJO",
        "state": "CA",
        "postalCode": "92691-6049"
      },
      {
        "line": [
          "24362 APHENA AVE"
        ],
        "city": "MISSION VIEJO",
        "state": "CA",
        "postalCode": "92691-4511"
      },
      {
        "line": [
          "25011 MONTE VERDE DR"
        ],
        "city": "LAGUNA NIGUEL",
        "state": "CA",
        "postalCode": "92677-1530"
      },
      {
        "line": [
          "12882 Shackelford Lane"
        ],
        "city": "GARDEN GROVE",
        "state": "CA",
        "postalCode": "92841-5109"
      },
      {
        "line": [
          "26462 VIA DELSOL"
        ],
        "city": "MISSION VIEJO",
        "state": "CA",
        "postalCode": "92691-6123"
      },
      {
        "line": [
          "22272 TERNI ST",
          "LIZ HOME CARE BOARD AND CARE"
        ],
        "city": "LAGUNA HILLS",
        "state": "CA",
        "postalCode": "92653-1836"
      },
      {
        "line": [
          "32200 DEL OBISPO ST"
        ],
        "city": "SAN JUAN CAPISTRANO",
        "state": "CA",
        "postalCode": "92675-3438"
      },
      {
        "line": [
          "22841 RIDGE ROUTE DRIVE"
        ],
        "city": "LAKE FOREST",
        "state": "CA",
        "postalCode": "92630-3675"
      },
      {
        "line": [
          "16827 MOUNT EDEN ST",
          "IVY COTTAGE II HOME"
        ],
        "city": "FOUNTAIN VALLEY",
        "state": "CA",
        "postalCode": "92708-2517"
      },
      {
        "line": [
          "27076 LOST COLT DR",
          "CORNERSTONE HOMES"
        ],
        "city": "LAGUNA HILLS",
        "state": "CA",
        "postalCode": "92653-5812"
      },
      {
        "line": [
          "8792 CERRITOS AVE"
        ],
        "city": "ANAHEIM",
        "state": "CA",
        "postalCode": "92804-5780"
      },
      {
        "line": [
          "27783 CENTER DRIVE"
        ],
        "city": "MISSION VIEJO",
        "state": "CA",
        "postalCode": "92692-3603"
      },
      {
        "line": [
          "24152 JAGGER ST"
        ],
        "city": "LAKE FOREST",
        "state": "CA",
        "postalCode": "92630-3658"
      },
      {
        "line": [
          "24901 ADELANTO DR",
          "ADELANTO COVENANT CARE HOME"
        ],
        "city": "LAGUNA NIGUEL",
        "state": "CA",
        "postalCode": "92677-1837"
      },
      {
        "line": [
          "22845 WILLARD AVENUE"
        ],
        "city": "LAKE FOREST",
        "state": "CA",
        "postalCode": "92630-4031"
      },
      {
        "line": [
          "25881 PINEWOOD DR"
        ],
        "city": "LAGUNA HILLS",
        "state": "CA",
        "postalCode": "92653-5414"
      },
      {
        "line": [
          "9152 HYDE PARK DR",
          "HELENS GUEST HOME BOARD AND CARE"
        ],
        "city": "HUNTINGTON BEACH",
        "state": "CA",
        "postalCode": "92646-2327"
      },
      {
        "line": [
          "600 E WASHINGTON AVE"
        ],
        "city": "SANTA ANA",
        "state": "CA",
        "postalCode": "92701-3843"
      },
      {
        "line": [
          "24862 LA PLATA DR"
        ],
        "city": "LAGUNA NIGUEL",
        "state": "CA",
        "postalCode": "92677-1911"
      },
      {
        "line": [
          "24351 REGINA ST"
        ],
        "city": "MISSION VIEJO",
        "state": "CA",
        "postalCode": "92691-4714"
      },
      {
        "line": [
          "24672 ELOISA DRIVE",
          "A PERFECT HOME"
        ],
        "city": "MISSION VIEJO",
        "state": "CA",
        "postalCode": "92691-4638"
      },
      {
        "line": [
          "25002 HENDON ST"
        ],
        "city": "LAGUNA HILLS",
        "state": "CA",
        "postalCode": "92653-4629"
      },
      {
        "line": [
          "25822 PERICLES"
        ],
        "city": "MISSION VIEJO",
        "state": "CA",
        "postalCode": "92691-4600"
      },
      {
        "line": [
          "24111 OLIVERA DRIVE"
        ],
        "city": "MISSION VIEJO",
        "state": "CA",
        "postalCode": "92691-4113"
      },
      {
        "line": [
          "24272 CHRISANTA DRIVE"
        ],
        "city": "MISSION VIEJO",
        "state": "CA",
        "postalCode": "92691-4004"
      },
      {
        "line": [
          "26972 VIA GRANDE",
          "GOOD SAMARITAN GUEST HOME"
        ],
        "city": "MISSION VIEJO",
        "state": "CA",
        "postalCode": "92692-6137"
      },
      {
        "line": [
          "24141 ROMA DRIVE"
        ],
        "city": "MISSION VIEJO",
        "state": "CA",
        "postalCode": "92691-3849"
      },
      {
        "line": [
          "24622 ADOBE LANE"
        ],
        "city": "MISSION VIEJO",
        "state": "CA",
        "postalCode": "92691-4901"
      },
      {
        "line": [
          "7 MOSLOW"
        ],
        "city": "IRVINE",
        "state": "CA",
        "postalCode": "92620-3369"
      },
      {
        "line": [
          "24182 ADONIS STREET"
        ],
        "city": "MISSION VIEJO",
        "state": "CA",
        "postalCode": "92691-3814"
      },
      {
        "line": [
          "24962 CALLE ARAGON"
        ],
        "city": "LAGUNA HILLS",
        "state": "CA",
        "postalCode": "92637-3883"
      },
      {
        "line": [
          "27356 BELLOGENTE"
        ],
        "city": "MISSION VIEJO",
        "state": "CA",
        "postalCode": "92691-6341"
      },
      {
        "line": [
          "27041 MALLORCA",
          "DEL SOL HOME"
        ],
        "city": "MISSION VIEJO",
        "state": "CA",
        "postalCode": "92691-6111"
      },
      {
        "line": [
          "24731 NYMPHA DR"
        ],
        "city": "MISSION VIEJO",
        "state": "CA",
        "postalCode": "92691-4662"
      },
      {
        "line": [
          "25232 COSTEAU ST"
        ],
        "city": "LAGUNA HILLS",
        "state": "CA",
        "postalCode": "92653-5026"
      },
      {
        "line": [
          "23931 GOWDY AVE",
          "BASIA RESIDENTIAL CARE"
        ],
        "city": "LAKE FOREST",
        "state": "CA",
        "postalCode": "92630-3771"
      },
      {
        "line": [
          "25102 VESPUCCI RD",
          "ABERDEEN TERRACE BOARD AND CARE"
        ],
        "city": "LAGUNA HILLS",
        "state": "CA",
        "postalCode": "92653-5229"
      },
      {
        "line": [
          "25982 VIA MAREJADA"
        ],
        "city": "MISSION VIEJO",
        "state": "CA",
        "postalCode": "92691-5611"
      },
      {
        "line": [
          "23272 DOWNLAND DR  ROYAL INN I BOARD AND CARE"
        ],
        "city": "LAKE FOREST",
        "state": "CA",
        "postalCode": "92630-3810"
      },
      {
        "line": [
          "26452 VIA DEL SOL"
        ],
        "city": "MISSION VIEJO",
        "state": "CA",
        "postalCode": "92691-6123"
      },
      {
        "line": [
          "546 N WRIGHTWOOD DR."
        ],
        "city": "ORANGE",
        "state": "CA",
        "postalCode": "92869-2666"
      }
    ],
    "extension": [
      {
        "url": "https://fhir.athena.io/StructureDefinition/ah-practice",
        "valueReference": {
          "reference": "Organization/a-1.Practice-8136"
        }
      },
      {
        "url": "https://fhir.athena.io/StructureDefinition/ah-brand",
        "valueReference": {
          "reference": "Organization/a-8136.Brand-1"
        }
      }
    ]
  },
  "fullUrl": "urn:uuid:f10a4dc8-175d-5320-b73a-206c8914af35"
}