{
  "resource": {
    "resourceType": "Organization",
    "id": "aa1420bf-1033-5706-b741-275934334e7c",
    "name": "Upper Palmetto YMCA",
    "endpoint": [
      {
        "reference": "Endpoint/27a4e967-47aa-5a9c-a572-b8297ee268a2"
      },
      {
        "reference": "Endpoint/abb5f7d5-468e-5806-be46-fb2282afef02"
      }
    ],
    "identifier": [
      {
        "system": "http://hl7.org/fhir/sid/us-npi",
        "value": "1710435409"
      }
    ],
    "address": [
      {
        "line": [
          "325 Rawlinson"
        ],
        "city": "ROCK HILL",
        "state": "SC",
        "postalCode": "29732-9172"
      },
      {
        "line": [
          "157 Columbia St"
        ],
        "city": "CHESTER",
        "state": "SC",
        "postalCode": "29706-1298"
      },
      {
        "line": [
          "107 S Main St"
        ],
        "city": "CLOVER",
        "state": "SC",
        "postalCode": "29710-1418"
      },
      {
        "line": [
          "857 Promenade Walk"
        ],
        "city": "FORT MILL",
        "state": "SC",
        "postalCode": "29708-6992"
      },
      {
        "line": [
          "1299 Camp Cherokee Rd"
        ],
        "city": "BLACKSBURG",
        "state": "SC",
        "postalCode": "29702-7384"
      },
      {
        "line": [
          "5485 Charlotte Highway"
        ],
        "city": "CLOVER",
        "state": "SC",
        "postalCode": "29710-7520"
      },
      {
        "line": [
          "151 S Oakland Ave"
        ],
        "city": "ROCK HILL",
        "state": "SC",
        "postalCode": "29730-4521"
      },
      {
        "line": [
          "1735 Heckle Blvd Ste 122"
        ],
        "city": "ROCK HILL",
        "state": "SC",
        "postalCode": "29732-1885"
      },
      {
        "line": [
          "117 Carolina Crossing Dr"
        ],
        "city": "YORK",
        "state": "SC",
        "postalCode": "29745-8850"
      },
      {
        "line": [
          "1785 Gold Hill Rd"
        ],
        "city": "FORT MILL",
        "state": "SC",
        "postalCode": "29708-6919"
      },
      {
        "line": [
          "998 Riverwald Pkwy"
        ],
        "city": "ROCK HILL",
        "state": "SC",
        "postalCode": "29730-1234"
      },
      {
        "line": [
          "402 Charlotte Ave"
        ],
        "city": "ROCK HILL",
        "state": "SC",
        "postalCode": "29730-4955"
      },
      {
        "line": [
          "103 East Madison St"
        ],
        "city": "YORK",
        "state": "SC",
        "postalCode": "29745-1555"
      },
      {
        "line": [
          "4036 Charlotte Hwy Ste 110"
        ],
        "city": "CLOVER",
        "state": "SC",
        "postalCode": "29710-1418"
      }
    ],
    "extension": [
      {
        "url": "https://fhir.athena.io/StructureDefinition/ah-practice",
        "valueReference": {
          "reference": "Organization/a-1.Practice-14268"
        }
      },
      {
        "url": "https://fhir.athena.io/StructureDefinition/ah-brand",
        "valueReference": {
          "reference": "Organization/a-14268.Brand-1"
        }
      }
    ]
  },
  "fullUrl": "urn:uuid:aa1420bf-1033-5706-b741-275934334e7c"
}