{
  "resource": {
    "resourceType": "Organization",
    "id": "eb7ef6f5-9ef7-5ef1-bc0f-eea412e82d63",
    "name": "Thrive Clinic",
    "endpoint": [
      {
        "reference": "Endpoint/27a4e967-47aa-5a9c-a572-b8297ee268a2"
      },
      {
        "reference": "Endpoint/93b39f5e-7363-5d5d-adb5-23328867b55f"
      }
    ],
    "identifier": [
      {
        "system": "http://hl7.org/fhir/sid/us-npi",
        "value": "1447779715"
      }
    ],
    "address": [
      {
        "line": [
          "6283 CLARK RD"
        ],
        "city": "PARADISE",
        "state": "CA",
        "postalCode": "95969-4100"
      },
      {
        "line": [
          "34 MARK WEST SPRINGS RD SUITE 100"
        ],
        "city": "SANTA ROSA",
        "state": "CA",
        "postalCode": "95403-1436"
      },
      {
        "line": [
          "416 AVIATION BLVD"
        ],
        "city": "SANTA ROSA",
        "state": "CA",
        "postalCode": "95403-1069"
      },
      {
        "line": [
          "347 ANDRIEUX ST"
        ],
        "city": "SONOMA",
        "state": "CA",
        "postalCode": "95476-1000"
      },
      {
        "line": [
          "1375 UNIVERSITY AVE"
        ],
        "city": "HEALDSBURG",
        "state": "CA",
        "postalCode": "95448-3382"
      },
      {
        "line": [
          "10 WOODLAND RD"
        ],
        "city": "SAINT HELENA",
        "state": "CA",
        "postalCode": "94574-9554"
      },
      {
        "line": [
          "5125 SKYWAY"
        ],
        "city": "PARADISE",
        "state": "CA",
        "postalCode": "95969-5624"
      },
      {
        "line": [
          "651 1ST STREET WEST SUITE L"
        ],
        "city": "SONOMA",
        "state": "CA",
        "postalCode": "95476-7046"
      },
      {
        "line": [
          "421 MARCH AVE STE B"
        ],
        "city": "HEALDSBURG",
        "state": "CA",
        "postalCode": "95448-3367"
      },
      {
        "line": [
          "935 TRANCAS STREET ST, SUITE 4B"
        ],
        "city": "NAPA",
        "state": "CA",
        "postalCode": "94558-2943"
      }
    ],
    "extension": [
      {
        "url": "https://fhir.athena.io/StructureDefinition/ah-practice",
        "valueReference": {
          "reference": "Organization/a-1.Practice-16755"
        }
      },
      {
        "url": "https://fhir.athena.io/StructureDefinition/ah-brand",
        "valueReference": {
          "reference": "Organization/a-16755.Brand-1"
        }
      }
    ]
  },
  "fullUrl": "urn:uuid:eb7ef6f5-9ef7-5ef1-bc0f-eea412e82d63"
}