{
  "resource": {
    "resourceType": "Organization",
    "id": "33bdd3ed-8cf1-5c9a-bcff-e2f2526f02db",
    "name": "MEDEXPRESS URGENT CARE ARKANSAS, P.A.",
    "endpoint": [
      {
        "reference": "Endpoint/27a4e967-47aa-5a9c-a572-b8297ee268a2"
      },
      {
        "reference": "Endpoint/af8f846a-26df-5d1e-9da9-adb1c5cef5a7"
      }
    ],
    "identifier": [
      {
        "system": "http://hl7.org/fhir/sid/us-npi",
        "value": "1578984357"
      }
    ],
    "address": [
      {
        "line": [
          "805 OAK STREET"
        ],
        "city": "CONWAY",
        "state": "AR",
        "postalCode": "72032-4408"
      },
      {
        "line": [
          "1160 S 40TH ST"
        ],
        "city": "SPRINGDALE",
        "state": "AR",
        "postalCode": "72762-4832"
      },
      {
        "line": [
          "3426 Central Ave"
        ],
        "city": "HOT SPRINGS",
        "state": "AR",
        "postalCode": "71913-6277"
      },
      {
        "line": [
          "2890 North College Avenue"
        ],
        "city": "FAYETTEVILLE",
        "state": "AR",
        "postalCode": "72703-3412"
      },
      {
        "line": [
          "511 West Main Street"
        ],
        "city": "RUSSELLVILLE",
        "state": "AR",
        "postalCode": "72801-3601"
      },
      {
        "line": [
          "1850 WEST MAIN ST",
          "SUITE A"
        ],
        "city": "CABOT",
        "state": "AR",
        "postalCode": "72023-9999"
      },
      {
        "line": [
          "1005 SE Walton Blvd"
        ],
        "city": "BENTONVILLE",
        "state": "AR",
        "postalCode": "72712-6775"
      },
      {
        "line": [
          "1900 West Walnut Street"
        ],
        "city": "ROGERS",
        "state": "AR",
        "postalCode": "72756-3367"
      },
      {
        "line": [
          "5326 WEST MARKHAM ST"
        ],
        "city": "LITTLE ROCK",
        "state": "AR",
        "postalCode": "72205-3528"
      },
      {
        "line": [
          "305 HIGHWAY 62 E"
        ],
        "city": "MOUNTAIN HOME",
        "state": "AR",
        "postalCode": "72653-3655"
      },
      {
        "line": [
          "12300 CHENAL PARKWAY"
        ],
        "city": "LITTLE ROCK",
        "state": "AR",
        "postalCode": "72211-2724"
      },
      {
        "line": [
          "2890 NORTH COLLEGE AVENUE"
        ],
        "city": "FAYETTEVILLE",
        "state": "AR",
        "postalCode": "72703-3412"
      },
      {
        "line": [
          "4600 Rogers Avenue"
        ],
        "city": "FORT SMITH",
        "state": "AR",
        "postalCode": "72903-3149"
      },
      {
        "line": [
          "5510 S Olive Street"
        ],
        "city": "PINE BLUFF",
        "state": "AR",
        "postalCode": "71603-7607"
      },
      {
        "line": [
          "1501 Military Road"
        ],
        "city": "BENTON",
        "state": "AR",
        "postalCode": "72015-2914"
      },
      {
        "line": [
          "5505 JOHN F KENNEDY BLVD"
        ],
        "city": "NORTH LITTLE ROCK",
        "state": "AR",
        "postalCode": "72116-6707"
      }
    ],
    "extension": [
      {
        "url": "https://fhir.athena.io/StructureDefinition/ah-practice",
        "valueReference": {
          "reference": "Organization/a-1.Practice-3908"
        }
      },
      {
        "url": "https://fhir.athena.io/StructureDefinition/ah-brand",
        "valueReference": {
          "reference": "Organization/a-3908.Brand-1"
        }
      }
    ]
  },
  "fullUrl": "urn:uuid:33bdd3ed-8cf1-5c9a-bcff-e2f2526f02db"
}