{
  "resource": {
    "resourceType": "Organization",
    "id": "1d353c3b-c2bd-5cb6-ac48-51c0173ada90",
    "name": "AGNAR HEALTH SOLUTIONS",
    "endpoint": [
      {
        "reference": "Endpoint/27a4e967-47aa-5a9c-a572-b8297ee268a2"
      },
      {
        "reference": "Endpoint/44c51950-b2ba-5288-9bed-739111aece0d"
      }
    ],
    "identifier": [
      {
        "system": "http://hl7.org/fhir/sid/us-npi",
        "value": "1396144937"
      }
    ],
    "address": [
      {
        "line": [
          "2689 E SNOW RD"
        ],
        "city": "BERRIEN SPRINGS",
        "state": "MI",
        "postalCode": "49103-9637"
      },
      {
        "line": [
          "706 Kentucky Ave"
        ],
        "city": "SOUTH HAVEN",
        "state": "MI",
        "postalCode": "49090-9607"
      },
      {
        "line": [
          "620 ELY ST"
        ],
        "city": "ALLEGAN",
        "state": "MI",
        "postalCode": "49010-1514"
      },
      {
        "line": [
          "60261 M 43"
        ],
        "city": "BANGOR",
        "state": "MI",
        "postalCode": "49013-9617"
      },
      {
        "line": [
          "677 Hazen"
        ],
        "city": "PAW PAW",
        "state": "MI",
        "postalCode": "49079-1010"
      },
      {
        "line": [
          "150 Northshore Dr"
        ],
        "city": "COLDWATER",
        "state": "MI",
        "postalCode": "49036-1262"
      },
      {
        "line": [
          "1451 Bronson Way"
        ],
        "city": "KALAMAZOO",
        "state": "MI",
        "postalCode": "49009-1095"
      },
      {
        "line": [
          "14661 Helmer Rd SO"
        ],
        "city": "BATTLE CREEK",
        "state": "MI",
        "postalCode": "49015-8632"
      },
      {
        "line": [
          "732 EAST CENTRE AVENUE"
        ],
        "city": "PORTAGE",
        "state": "MI",
        "postalCode": "49002-5517"
      },
      {
        "line": [
          "5905 Edson St"
        ],
        "city": "HASLETT",
        "state": "MI",
        "postalCode": "48840-8422"
      },
      {
        "line": [
          "1700 Bronson Way"
        ],
        "city": "KALAMAZOO",
        "state": "MI",
        "postalCode": "49009-1095"
      },
      {
        "line": [
          "607 Turner St"
        ],
        "city": "DEWITT",
        "state": "MI",
        "postalCode": "48820-9605"
      },
      {
        "line": [
          "17650 Generations Drive"
        ],
        "city": "SOUTH BEND",
        "state": "IN",
        "postalCode": "46635-1536"
      },
      {
        "line": [
          "5499 73RD ST"
        ],
        "city": "SOUTH HAVEN",
        "state": "MI",
        "postalCode": "49090-9206"
      },
      {
        "line": [
          "3440 NILES RD"
        ],
        "city": "SAINT JOSEPH",
        "state": "MI",
        "postalCode": "49085-8628"
      },
      {
        "line": [
          "285 N State St"
        ],
        "city": "ZEELAND",
        "state": "MI",
        "postalCode": "49464-1297"
      },
      {
        "line": [
          "3951 W MILHAM AVE"
        ],
        "city": "PORTAGE",
        "state": "MI",
        "postalCode": "49024-1088"
      },
      {
        "line": [
          "2824 S STATE ST"
        ],
        "city": "SAINT JOSEPH",
        "state": "MI",
        "postalCode": "49085-2478"
      },
      {
        "line": [
          "1821 N. East Street"
        ],
        "city": "HASTINGS",
        "state": "MI",
        "postalCode": "49058-1367"
      },
      {
        "line": [
          "9481 Pentatech Dr."
        ],
        "city": "ZEELAND",
        "state": "MI",
        "postalCode": "49464-8000"
      },
      {
        "line": [
          "320 Brigham St"
        ],
        "city": "PLAINWELL",
        "state": "MI",
        "postalCode": "49080-1577"
      },
      {
        "line": [
          "916 E Lewis St"
        ],
        "city": "WHITEHALL",
        "state": "MI",
        "postalCode": "49461-1699"
      },
      {
        "line": [
          "14420 Helmer Road S"
        ],
        "city": "BATTLE CREEK",
        "state": "MI",
        "postalCode": "49015-8632"
      },
      {
        "line": [
          "4232 RED ARROW HWY"
        ],
        "city": "STEVENSVILLE",
        "state": "MI",
        "postalCode": "49127-8308"
      },
      {
        "line": [
          "2920 Crystal Lane"
        ],
        "city": "KALAMAZOO",
        "state": "MI",
        "postalCode": "49009-2108"
      },
      {
        "line": [
          "1147 South Third Street"
        ],
        "city": "NILES",
        "state": "MI",
        "postalCode": "49120-3472"
      },
      {
        "line": [
          "2920 Crystal Lane"
        ],
        "city": "KALAMAZOO",
        "state": "MI",
        "postalCode": "49009-3306"
      },
      {
        "line": [
          "8170 Vineyard Parkway"
        ],
        "city": "KALAMAZOO",
        "state": "MI",
        "postalCode": "49009-3816"
      },
      {
        "line": [
          "2575 N DRAKE RD"
        ],
        "city": "KALAMAZOO",
        "state": "MI",
        "postalCode": "49006-1358"
      },
      {
        "line": [
          "2077 Haslett Rd"
        ],
        "city": "HASLETT",
        "state": "MI",
        "postalCode": "48840-8602"
      },
      {
        "line": [
          "500 PARKSIDE DR"
        ],
        "city": "ZEELAND",
        "state": "MI",
        "postalCode": "49464-2056"
      },
      {
        "line": [
          "300 White Oak Rd"
        ],
        "city": "LAWTON",
        "state": "MI",
        "postalCode": "49065-9541"
      },
      {
        "line": [
          "2024 County Road"
        ],
        "city": "ELKHART",
        "state": "IN",
        "postalCode": "46517-9607"
      },
      {
        "line": [
          "618 North Main St",
          "Suite A"
        ],
        "city": "MISHAWAKA",
        "state": "IN",
        "postalCode": "46545-6620"
      },
      {
        "line": [
          "1061 W Hackley Ave"
        ],
        "city": "MUSKEGON",
        "state": "MI",
        "postalCode": "49441-3059"
      },
      {
        "line": [
          "2109 HAMILTON RD STE 217"
        ],
        "city": "OKEMOS",
        "state": "MI",
        "postalCode": "48864-1700"
      },
      {
        "line": [
          "400 PARKSIDE DR"
        ],
        "city": "ZEELAND",
        "state": "MI",
        "postalCode": "49464-2087"
      },
      {
        "line": [
          "14316 Helmer Rd S"
        ],
        "city": "BATTLE CREEK",
        "state": "MI",
        "postalCode": "49015-8631"
      },
      {
        "line": [
          "15 E Liberty St"
        ],
        "city": "QUINCY",
        "state": "MI",
        "postalCode": "49082-1203"
      },
      {
        "line": [
          "2109 Hamilton Rd Ste 217"
        ],
        "city": "OKEMOS",
        "state": "MI",
        "postalCode": "48864-1700"
      }
    ],
    "extension": [
      {
        "url": "https://fhir.athena.io/StructureDefinition/ah-practice",
        "valueReference": {
          "reference": "Organization/a-1.Practice-12919"
        }
      },
      {
        "url": "https://fhir.athena.io/StructureDefinition/ah-brand",
        "valueReference": {
          "reference": "Organization/a-12919.Brand-1"
        }
      }
    ]
  },
  "fullUrl": "urn:uuid:1d353c3b-c2bd-5cb6-ac48-51c0173ada90"
}