{
  "resource": {
    "resourceType": "Organization",
    "id": "49fff5ce-14b3-5262-9e78-faeb5d53227e",
    "name": "ALTA BATES MEDICAL CENTER",
    "endpoint": [
      {
        "reference": "Endpoint/27a4e967-47aa-5a9c-a572-b8297ee268a2"
      },
      {
        "reference": "Endpoint/48d55389-2470-54c9-8488-7536a33019a2"
      }
    ],
    "identifier": [
      {
        "system": "http://hl7.org/fhir/sid/us-npi",
        "value": "1184719809"
      },
      {
        "system": "http://hl7.org/fhir/sid/us-npi",
        "value": "1871699074"
      }
    ],
    "address": [
      {
        "line": [
          "2089 VALE RD, SUITE 32"
        ],
        "city": "SAN PABLO",
        "state": "CA",
        "postalCode": "94806-3850"
      },
      {
        "line": [
          "2905 Telegraph Ave"
        ],
        "city": "BERKELEY",
        "state": "CA",
        "postalCode": "94705-2017"
      },
      {
        "line": [
          "560 FIRST ST SUITE 103"
        ],
        "city": "BENICIA",
        "state": "CA",
        "postalCode": "94510-3295"
      },
      {
        "line": [
          "675 Ygnacio Valley Road"
        ],
        "city": "WALNUT CREEK",
        "state": "CA",
        "postalCode": "94596-3860"
      },
      {
        "line": [
          "3443 VILLA LN STE 6"
        ],
        "city": "NAPA",
        "state": "CA",
        "postalCode": "94558-6417"
      },
      {
        "line": [
          "125 Corporate Place Suite C"
        ],
        "city": "VALLEJO",
        "state": "CA",
        "postalCode": "94590-6968"
      },
      {
        "line": [
          "10690 San Pablo Ave"
        ],
        "city": "EL CERRITO",
        "state": "CA",
        "postalCode": "94530-2870"
      },
      {
        "line": [
          "127 HOSPITAL DRIVE",
          "SUITE 204"
        ],
        "city": "VALLEJO",
        "state": "CA",
        "postalCode": "94589-2562"
      },
      {
        "line": [
          "2450 ASHBY AVENUE"
        ],
        "city": "BERKELEY",
        "state": "CA",
        "postalCode": "94705-2017"
      },
      {
        "line": [
          "4300 Sonoma Blvd",
          "Suite 25"
        ],
        "city": "VALLEJO",
        "state": "CA",
        "postalCode": "94589-2200"
      },
      {
        "line": [
          "230 CALIFORNIA DR"
        ],
        "city": "YOUNTVILLE",
        "state": "CA",
        "postalCode": "94599-1412"
      },
      {
        "line": [
          "2905 TELEGRAPH AVENUE"
        ],
        "city": "BERKELEY",
        "state": "CA",
        "postalCode": "94705-2017"
      },
      {
        "line": [
          "1100 Trancas St",
          "Ste 266 And 267"
        ],
        "city": "NAPA",
        "state": "CA",
        "postalCode": "94558-2921"
      },
      {
        "line": [
          "1250 BROADWAY"
        ],
        "city": "SONOMA",
        "state": "CA",
        "postalCode": "95476-7500"
      },
      {
        "line": [
          "125 CORPORATE PLACE",
          "SUITE B"
        ],
        "city": "VALLEJO",
        "state": "CA",
        "postalCode": "94590-6968"
      },
      {
        "line": [
          "3443 VILLA LN, STE 6"
        ],
        "city": "NAPA",
        "state": "CA",
        "postalCode": "94558-6417"
      },
      {
        "line": [
          "1040 Davis St, 101"
        ],
        "city": "SAN LEANDRO",
        "state": "CA",
        "postalCode": "94577-1513"
      },
      {
        "line": [
          "350 30TH ST STE 311"
        ],
        "city": "OAKLAND",
        "state": "CA",
        "postalCode": "94609-3425"
      }
    ],
    "extension": [
      {
        "url": "https://fhir.athena.io/StructureDefinition/ah-practice",
        "valueReference": {
          "reference": "Organization/a-1.Practice-6134"
        }
      },
      {
        "url": "https://fhir.athena.io/StructureDefinition/ah-brand",
        "valueReference": {
          "reference": "Organization/a-6134.Brand-1"
        }
      }
    ]
  },
  "fullUrl": "urn:uuid:49fff5ce-14b3-5262-9e78-faeb5d53227e"
}