{
  "resource": {
    "resourceType": "Organization",
    "id": "2a9f2470-f057-5ca7-bc6b-4f6508073450",
    "name": "Los Angeles - Melrose Ave._A",
    "endpoint": [
      {
        "reference": "Endpoint/27a4e967-47aa-5a9c-a572-b8297ee268a2"
      },
      {
        "reference": "Endpoint/0bb45c47-624a-5358-b57f-1e22a922d659"
      }
    ],
    "identifier": [
      {
        "system": "http://hl7.org/fhir/sid/us-npi",
        "value": "1033309372"
      }
    ],
    "address": [
      {
        "line": [
          "233 EAST WILLOW STREET"
        ],
        "city": "LONG BEACH",
        "state": "CA",
        "postalCode": "90806-2623"
      },
      {
        "line": [
          "1771 PLEASANT GROVE BLVD., STE #100"
        ],
        "city": "ROSEVILLE",
        "state": "CA",
        "postalCode": "95747-8720"
      },
      {
        "line": [
          "1123 S CALIFORNIA BLVD"
        ],
        "city": "WALNUT CREEK",
        "state": "CA",
        "postalCode": "94596-4413"
      },
      {
        "line": [
          "23357 MULHOLLAND DRIVE"
        ],
        "city": "WOODLAND HILLS",
        "state": "CA",
        "postalCode": "91364-2734"
      },
      {
        "line": [
          "812 S Grand Ave."
        ],
        "city": "LOS ANGELES",
        "state": "CA",
        "postalCode": "90017-4610"
      },
      {
        "line": [
          "19353 VICTORY BLVD"
        ],
        "city": "RESEDA",
        "state": "CA",
        "postalCode": "91335-6302"
      },
      {
        "line": [
          "7096 N West Ave."
        ],
        "city": "FRESNO",
        "state": "CA",
        "postalCode": "93711-0462"
      },
      {
        "line": [
          "1107 N WILLOW AVE"
        ],
        "city": "CLOVIS",
        "state": "CA",
        "postalCode": "93611-4408"
      },
      {
        "line": [
          "13303 EAST SOUTH STREET"
        ],
        "city": "CERRITOS",
        "state": "CA",
        "postalCode": "90703-7308"
      },
      {
        "line": [
          "10 BAYHILL SHOPPING CTR"
        ],
        "city": "SAN BRUNO",
        "state": "CA",
        "postalCode": "94066-2902"
      },
      {
        "line": [
          "1900 19th Avenue"
        ],
        "city": "SAN FRANCISCO",
        "state": "CA",
        "postalCode": "94116-1250"
      },
      {
        "line": [
          "3999 Santa Rita Road"
        ],
        "city": "PLEASANTON",
        "state": "CA",
        "postalCode": "94588-3462"
      },
      {
        "line": [
          "130 N GRAND AVE"
        ],
        "city": "GLENDORA",
        "state": "CA",
        "postalCode": "91741-2434"
      },
      {
        "line": [
          "1401 Baldwin Ave"
        ],
        "city": "ARCADIA",
        "state": "CA",
        "postalCode": "91007-7922"
      },
      {
        "line": [
          "7500 MELROSE AVE."
        ],
        "city": "LOS ANGELES",
        "state": "CA",
        "postalCode": "90046-7418"
      },
      {
        "line": [
          "2050 CLUB CENTER DR"
        ],
        "city": "SACRAMENTO",
        "state": "CA",
        "postalCode": "95835-1324"
      },
      {
        "line": [
          "8252 Van Nuys Blvd."
        ],
        "city": "PANORAMA CITY",
        "state": "CA",
        "postalCode": "91402-1002"
      },
      {
        "line": [
          "491 E ALESSANDRO BLVD"
        ],
        "city": "RIVERSIDE",
        "state": "CA",
        "postalCode": "92508-6071"
      },
      {
        "line": [
          "1451 Shattuck Avenue"
        ],
        "city": "BERKELEY",
        "state": "CA",
        "postalCode": "94709-1410"
      },
      {
        "line": [
          "5995 EAST KINGS CANYON RD"
        ],
        "city": "FRESNO",
        "state": "CA",
        "postalCode": "93727-5594"
      },
      {
        "line": [
          "470 BLOSSOM HILL RD"
        ],
        "city": "SAN JOSE",
        "state": "CA",
        "postalCode": "95123-3301"
      }
    ],
    "extension": [
      {
        "url": "https://fhir.athena.io/StructureDefinition/ah-practice",
        "valueReference": {
          "reference": "Organization/a-1.Practice-1647"
        }
      },
      {
        "url": "https://fhir.athena.io/StructureDefinition/ah-brand",
        "valueReference": {
          "reference": "Organization/a-1647.Brand-1"
        }
      }
    ]
  },
  "fullUrl": "urn:uuid:2a9f2470-f057-5ca7-bc6b-4f6508073450"
}