{
  "resource": {
    "resourceType": "Organization",
    "id": "a2838c24-5df1-5738-868c-e770e4fb2ab4",
    "name": "Paloma Health",
    "endpoint": [
      {
        "reference": "Endpoint/27a4e967-47aa-5a9c-a572-b8297ee268a2"
      },
      {
        "reference": "Endpoint/91dca331-1e13-5606-a3d7-3d5aa72959c6"
      }
    ],
    "identifier": [
      {
        "system": "http://hl7.org/fhir/sid/us-npi",
        "value": "1346873015"
      },
      {
        "system": "http://hl7.org/fhir/sid/us-npi",
        "value": "1639895055"
      },
      {
        "system": "http://hl7.org/fhir/sid/us-npi",
        "value": "1407324379"
      },
      {
        "system": "http://hl7.org/fhir/sid/us-npi",
        "value": "1245701812"
      },
      {
        "system": "http://hl7.org/fhir/sid/us-npi",
        "value": "1215408240"
      }
    ],
    "address": [
      {
        "line": [
          "386 Park Avenue South",
          "5th floor,"
        ],
        "city": "New York",
        "state": "NY",
        "postalCode": "10016-8804"
      },
      {
        "line": [
          "386 Park Avenue South",
          "5th floor"
        ],
        "city": "NEW YORK",
        "state": "NY",
        "postalCode": "10016-8804"
      },
      {
        "line": [
          "386 PARK AVE SOUTH",
          "5TH FLOOR"
        ],
        "city": "NEW YORK",
        "state": "NY",
        "postalCode": "10016-8804"
      },
      {
        "line": [
          "386 Park Avenue South",
          "5th floor,"
        ],
        "city": "NEW YORK",
        "state": "NY",
        "postalCode": "10016-8804"
      },
      {
        "line": [
          "6160 Summit Drive N",
          "Suite 205"
        ],
        "city": "MINNEAPOLIS",
        "state": "MN",
        "postalCode": "55430-2118"
      },
      {
        "line": [
          "4470 W Sunset Blvd"
        ],
        "city": "LOS ANGELES",
        "state": "CA",
        "postalCode": "90027-6302"
      },
      {
        "line": [
          "9255 Kingston Pike",
          "PMB 11311"
        ],
        "city": "KNOXVILLE",
        "state": "TN",
        "postalCode": "37922-2318"
      },
      {
        "line": [
          "386 PARK AVE SOUTH",
          "5th floor"
        ],
        "city": "NEW YORK",
        "state": "NY",
        "postalCode": "10016-8804"
      },
      {
        "line": [
          "4592 CAMINO DEL MIRASOL"
        ],
        "city": "SANTA BARBARA",
        "state": "CA",
        "postalCode": "93110-1003"
      },
      {
        "line": [
          "1519 York Road"
        ],
        "city": "LUTHERVILLE",
        "state": "MD",
        "postalCode": "21093-5611"
      },
      {
        "line": [
          "901 South Whitney Way"
        ],
        "city": "MADISON",
        "state": "WI",
        "postalCode": "53711-2553"
      },
      {
        "line": [
          "900 Old Roswell Lakes Pkwy",
          "Suite 310"
        ],
        "city": "ROSWELL",
        "state": "GA",
        "postalCode": "30076-8663"
      },
      {
        "line": [
          "250 Browns Hill Court"
        ],
        "city": "MIDLOTHIAN",
        "state": "VA",
        "postalCode": "23114-9510"
      },
      {
        "line": [
          "2030 W Baseline Rd #182-1844"
        ],
        "city": "PHOENIX",
        "state": "AZ",
        "postalCode": "85041-6574"
      },
      {
        "line": [
          "9666 Olive Blvd",
          "Suite 690"
        ],
        "city": "SAINT LOUIS",
        "state": "MO",
        "postalCode": "63132-3026"
      },
      {
        "line": [
          "386 PARK AVENUE SOUTH, 5TH FLOOR",
          "5th floor"
        ],
        "city": "NEW YORK",
        "state": "NY",
        "postalCode": "10016-8804"
      },
      {
        "line": [
          "229 Brookwood Drive",
          "Suite 14"
        ],
        "city": "SOUTH LYON",
        "state": "MI",
        "postalCode": "48178-1858"
      },
      {
        "line": [
          "2205 W 136th Avenue",
          "Suite 106 PMB 85921"
        ],
        "city": "BROOMFIELD",
        "state": "CO",
        "postalCode": "80023-9306"
      },
      {
        "line": [
          "9221 Crawfordsville Road"
        ],
        "city": "INDIANAPOLIS",
        "state": "IN",
        "postalCode": "46234-1521"
      },
      {
        "line": [
          "382 NE 191st Street",
          "PMB 52404"
        ],
        "city": "MIAMI",
        "state": "FL",
        "postalCode": "33179-3899"
      },
      {
        "line": [
          "386 Park Avenue South, 5th floor"
        ],
        "city": "NEW YORK",
        "state": "NY",
        "postalCode": "10016-8804"
      },
      {
        "line": [
          "1780 BARNES BLVD SW"
        ],
        "city": "OLYMPIA",
        "state": "WA",
        "postalCode": "98512-0410"
      },
      {
        "line": [
          "1658 Milwaukee Avenue",
          "PMB 93871"
        ],
        "city": "CHICAGO",
        "state": "IL",
        "postalCode": "60647-6905"
      },
      {
        "line": [
          "600 North 2nd Street"
        ],
        "city": "HARRISBURG",
        "state": "PA",
        "postalCode": "17101-1092"
      },
      {
        "line": [
          "3958-D Brown Park Dr"
        ],
        "city": "HILLIARD",
        "state": "OH",
        "postalCode": "43026-1160"
      },
      {
        "line": [
          "945 McKinney Street",
          "#14629"
        ],
        "city": "HOUSTON",
        "state": "TX",
        "postalCode": "77002-6308"
      }
    ],
    "extension": [
      {
        "url": "https://fhir.athena.io/StructureDefinition/ah-practice",
        "valueReference": {
          "reference": "Organization/a-1.Practice-19041"
        }
      },
      {
        "url": "https://fhir.athena.io/StructureDefinition/ah-brand",
        "valueReference": {
          "reference": "Organization/a-19041.Brand-1"
        }
      }
    ]
  },
  "fullUrl": "urn:uuid:a2838c24-5df1-5738-868c-e770e4fb2ab4"
}