{
  "resource": {
    "resourceType": "Organization",
    "id": "3b8d0988-8ecb-51fd-8c65-58a9a4943677",
    "name": "KidneyLink",
    "endpoint": [
      {
        "reference": "Endpoint/27a4e967-47aa-5a9c-a572-b8297ee268a2"
      },
      {
        "reference": "Endpoint/2dc78f24-36c8-5183-a2c0-a03456069fb9"
      }
    ],
    "identifier": [
      {
        "system": "http://hl7.org/fhir/sid/us-npi",
        "value": "1558181636"
      },
      {
        "system": "http://hl7.org/fhir/sid/us-npi",
        "value": "1487126124"
      },
      {
        "system": "http://hl7.org/fhir/sid/us-npi",
        "value": "1861082117"
      },
      {
        "system": "http://hl7.org/fhir/sid/us-npi",
        "value": "1316761943"
      }
    ],
    "address": [
      {
        "line": [
          "5127 Granbury Road"
        ],
        "city": "FORT WORTH",
        "state": "TX",
        "postalCode": "76133-2017"
      },
      {
        "line": [
          "230 KNOLLWOOD DR"
        ],
        "city": "SAN ANTONIO",
        "state": "TX",
        "postalCode": "78227-4427"
      },
      {
        "line": [
          "1011 North Highway 77"
        ],
        "city": "WAXAHACHIE",
        "state": "TX",
        "postalCode": "75165-1399"
      },
      {
        "line": [
          "19910 Interstate 35 S  Ste 101"
        ],
        "city": "LYTLE",
        "state": "TX",
        "postalCode": "78052-3547"
      },
      {
        "line": [
          "12011 STATE HIGHWAY 151 STE 222"
        ],
        "city": "SAN ANTONIO",
        "state": "TX",
        "postalCode": "78251-1233"
      },
      {
        "line": [
          "850 EAGLERIDGE BLVD"
        ],
        "city": "PUEBLO",
        "state": "CO",
        "postalCode": "81008-2148"
      },
      {
        "line": [
          "6801 MCPHERSON RD STE 107"
        ],
        "city": "LAREDO",
        "state": "TX",
        "postalCode": "78041-6403"
      },
      {
        "line": [
          "9777 South Yosemite Street"
        ],
        "city": "LONE TREE",
        "state": "CO",
        "postalCode": "80124-3191"
      },
      {
        "line": [
          "219 W KINGSLEY RD STE 316"
        ],
        "city": "GARLAND",
        "state": "TX",
        "postalCode": "75041-3434"
      },
      {
        "line": [
          "400 E. Edinburg Ave"
        ],
        "city": "ELSA",
        "state": "TX",
        "postalCode": "78543-3008"
      },
      {
        "line": [
          "11255 GARLAND RD STE 1160"
        ],
        "city": "DALLAS",
        "state": "TX",
        "postalCode": "75218-2573"
      },
      {
        "line": [
          "2635 SE MILITARY DR"
        ],
        "city": "SAN ANTONIO",
        "state": "TX",
        "postalCode": "78223-4312"
      },
      {
        "line": [
          "3571 W WHEATLAND RD STE 103"
        ],
        "city": "DALLAS",
        "state": "TX",
        "postalCode": "75237-3461"
      },
      {
        "line": [
          "1006 N. Carrier Parkway"
        ],
        "city": "GRAND PRAIRIE",
        "state": "TX",
        "postalCode": "75050-3301"
      },
      {
        "line": [
          "100 E House St"
        ],
        "city": "ALVIN",
        "state": "TX",
        "postalCode": "77511-3542"
      },
      {
        "line": [
          "215 N SAN SABA STE 314"
        ],
        "city": "SAN ANTONIO",
        "state": "TX",
        "postalCode": "78207-3164"
      },
      {
        "line": [
          "4108 W 15TH ST STE 100"
        ],
        "city": "PLANO",
        "state": "TX",
        "postalCode": "75093-5849"
      },
      {
        "line": [
          "501 College Avenue"
        ],
        "city": "FORT WORTH",
        "state": "TX",
        "postalCode": "76104-2270"
      },
      {
        "line": [
          "3250 W PLEASANT RUN RD STE 280"
        ],
        "city": "LANCASTER",
        "state": "TX",
        "postalCode": "75146-1067"
      },
      {
        "line": [
          "8119 S FLORES ST"
        ],
        "city": "SAN ANTONIO",
        "state": "TX",
        "postalCode": "78221-3019"
      },
      {
        "line": [
          "206 CONQUEST"
        ],
        "city": "EDINBURG",
        "state": "TX",
        "postalCode": "78539-3041"
      },
      {
        "line": [
          "1444 South Potomac st"
        ],
        "city": "AURORA",
        "state": "CO",
        "postalCode": "80012-4508"
      },
      {
        "line": [
          "8115 Data Point Dr. Suite 100"
        ],
        "city": "SAN ANTONIO",
        "state": "TX",
        "postalCode": "78229-3227"
      },
      {
        "line": [
          "2000 S CYNTHIA ST"
        ],
        "city": "MCALLEN",
        "state": "TX",
        "postalCode": "78503-1208"
      },
      {
        "line": [
          "7831 WESTCHASE"
        ],
        "city": "SAN ANTONIO",
        "state": "TX",
        "postalCode": "78240-2976"
      },
      {
        "line": [
          "10001 S INTERSTATE 35 STE 1 STE 100"
        ],
        "city": "AUSTIN",
        "state": "TX",
        "postalCode": "78747-1702"
      },
      {
        "line": [
          "3400 NW Centre Dr."
        ],
        "city": "FORT WORTH",
        "state": "TX",
        "postalCode": "76135-3629"
      },
      {
        "line": [
          "4201 E. Berry St."
        ],
        "city": "FORT WORTH",
        "state": "TX",
        "postalCode": "76105-5053"
      },
      {
        "line": [
          "2011 E HOUSTON ST STE 102D"
        ],
        "city": "SAN ANTONIO",
        "state": "TX",
        "postalCode": "78202-2916"
      },
      {
        "line": [
          "265 SE John Jones Drive"
        ],
        "city": "BURLESON",
        "state": "TX",
        "postalCode": "76028-8355"
      },
      {
        "line": [
          "4420 Heritage Trace Pkwy"
        ],
        "city": "KELLER",
        "state": "TX",
        "postalCode": "76244-8904"
      },
      {
        "line": [
          "725 N. Industrial Blvd."
        ],
        "city": "BEDFORD",
        "state": "TX",
        "postalCode": "76021-6134"
      },
      {
        "line": [
          "200 W MILE 2 RD"
        ],
        "city": "MISSION",
        "state": "TX",
        "postalCode": "78574-2160"
      },
      {
        "line": [
          "4511 NW LOOP 410 STE 101"
        ],
        "city": "SAN ANTONIO",
        "state": "TX",
        "postalCode": "78229-5124"
      },
      {
        "line": [
          "8181 N STADIUM DR STE 100"
        ],
        "city": "HOUSTON",
        "state": "TX",
        "postalCode": "77054-1847"
      },
      {
        "line": [
          "3307 BOB ROGERS DR"
        ],
        "city": "EAGLE PASS",
        "state": "TX",
        "postalCode": "78852-6781"
      },
      {
        "line": [
          "215 North San Saba Suite 101"
        ],
        "city": "SAN ANTONIO",
        "state": "TX",
        "postalCode": "78207-3121"
      },
      {
        "line": [
          "1704 S. Cherry Lane"
        ],
        "city": "FORT WORTH",
        "state": "TX",
        "postalCode": "76108-3629"
      },
      {
        "line": [
          "1301 E RIDGE RD STE B"
        ],
        "city": "MCALLEN",
        "state": "TX",
        "postalCode": "78503-1619"
      },
      {
        "line": [
          "1320 W OAKLAWN RD STE G"
        ],
        "city": "PLEASANTON",
        "state": "TX",
        "postalCode": "78064-4316"
      },
      {
        "line": [
          "3402 BURKE RD STE 100"
        ],
        "city": "PASADENA",
        "state": "TX",
        "postalCode": "77504-1805"
      },
      {
        "line": [
          "913 N 13TH ST STE 29"
        ],
        "city": "HARLINGEN",
        "state": "TX",
        "postalCode": "78550-5034"
      },
      {
        "line": [
          "1978 Ephriham Ave."
        ],
        "city": "FORT WORTH",
        "state": "TX",
        "postalCode": "76164-6670"
      },
      {
        "line": [
          "137 PALO ALTO RD"
        ],
        "city": "SAN ANTONIO",
        "state": "TX",
        "postalCode": "78211-3736"
      },
      {
        "line": [
          "11161 SHADOW CREEK PKWY STE 101"
        ],
        "city": "PEARLAND",
        "state": "TX",
        "postalCode": "77584-7226"
      },
      {
        "line": [
          "5729 Bryant Irvin Road"
        ],
        "city": "FORT WORTH",
        "state": "TX",
        "postalCode": "76132-4024"
      },
      {
        "line": [
          "1005 S AIRPORT DR"
        ],
        "city": "WESLACO",
        "state": "TX",
        "postalCode": "78596-6607"
      },
      {
        "line": [
          "2300 W FM 544 STE 140"
        ],
        "city": "WYLIE",
        "state": "TX",
        "postalCode": "75098-4939"
      },
      {
        "line": [
          "1434 N CENTRAL EXPY STE 116"
        ],
        "city": "MCKINNEY",
        "state": "TX",
        "postalCode": "75070-3108"
      },
      {
        "line": [
          "9777 S YOSEMITE ST",
          "STE 110"
        ],
        "city": "LONE TREE",
        "state": "CO",
        "postalCode": "80124-3115"
      },
      {
        "line": [
          "1038 E HIGHWAY 67"
        ],
        "city": "DUNCANVILLE",
        "state": "TX",
        "postalCode": "75137-2704"
      },
      {
        "line": [
          "12011 State Hwy 151"
        ],
        "city": "SAN ANTONIO",
        "state": "TX",
        "postalCode": "78251-1230"
      },
      {
        "line": [
          "8515 FANNIN ST STE 190"
        ],
        "city": "HOUSTON",
        "state": "TX",
        "postalCode": "77054-4813"
      },
      {
        "line": [
          "2916 WOODRIDGE DR"
        ],
        "city": "HOUSTON",
        "state": "TX",
        "postalCode": "77087-2514"
      },
      {
        "line": [
          "1595 S MAIN ST STE 107"
        ],
        "city": "BOERNE",
        "state": "TX",
        "postalCode": "78006-3329"
      },
      {
        "line": [
          "205 22ND ST"
        ],
        "city": "HONDO",
        "state": "TX",
        "postalCode": "78861-2520"
      },
      {
        "line": [
          "4708 DEXTER DR"
        ],
        "city": "PLANO",
        "state": "TX",
        "postalCode": "75093-5568"
      },
      {
        "line": [
          "2787 PHARMACY RD"
        ],
        "city": "RIO GRANDE CITY",
        "state": "TX",
        "postalCode": "78582-6201"
      },
      {
        "line": [
          "801 E. Border St"
        ],
        "city": "ARLINGTON",
        "state": "TX",
        "postalCode": "76010-7494"
      },
      {
        "line": [
          "946 BLUEBONNET DR"
        ],
        "city": "STEPHENVILLE",
        "state": "TX",
        "postalCode": "76401-1764"
      },
      {
        "line": [
          "12970 TOEPPERWEIN RD STE 101"
        ],
        "city": "SAN ANTONIO",
        "state": "TX",
        "postalCode": "78233-4767"
      },
      {
        "line": [
          "1221 E 10TH ST STE 106"
        ],
        "city": "WESLACO",
        "state": "TX",
        "postalCode": "78596-4282"
      },
      {
        "line": [
          "2850 RIDGE RD STE 112"
        ],
        "city": "ROCKWALL",
        "state": "TX",
        "postalCode": "75032-5506"
      },
      {
        "line": [
          "3417 GASTON AVE STE 180"
        ],
        "city": "DALLAS",
        "state": "TX",
        "postalCode": "75246-2024"
      },
      {
        "line": [
          "12100 E ILIFF AVE STE 102"
        ],
        "city": "AURORA",
        "state": "CO",
        "postalCode": "80014-1277"
      },
      {
        "line": [
          "4602 BENCHA DR"
        ],
        "city": "LAREDO",
        "state": "TX",
        "postalCode": "78043-9701"
      },
      {
        "line": [
          "1800 Hwy 157 North"
        ],
        "city": "MANSFIELD",
        "state": "TX",
        "postalCode": "76063-3990"
      },
      {
        "line": [
          "4045 S Great SW Pkwy"
        ],
        "city": "GRAND PRAIRIE",
        "state": "TX",
        "postalCode": "75052-3837"
      },
      {
        "line": [
          "1206 W. Henderson"
        ],
        "city": "CLEBURNE",
        "state": "TX",
        "postalCode": "76033-8772"
      },
      {
        "line": [
          "6450 Brentwood Stair Rd"
        ],
        "city": "FORT WORTH",
        "state": "TX",
        "postalCode": "76112-3239"
      },
      {
        "line": [
          "1301 E RIDGE RD STE C"
        ],
        "city": "MCALLEN",
        "state": "TX",
        "postalCode": "78503-1619"
      },
      {
        "line": [
          "4302 E SESAME DR"
        ],
        "city": "HARLINGEN",
        "state": "TX",
        "postalCode": "78550-7981"
      },
      {
        "line": [
          "6455 Hilltop Drive"
        ],
        "city": "NORTH RICHLAND HILLS",
        "state": "TX",
        "postalCode": "76180-6039"
      },
      {
        "line": [
          "2011 E HOUSTON ST STE 101A"
        ],
        "city": "SAN ANTONIO",
        "state": "TX",
        "postalCode": "78202-2916"
      },
      {
        "line": [
          "501 COLLEGE AVE STE 200"
        ],
        "city": "FORT WORTH",
        "state": "TX",
        "postalCode": "76104-2272"
      },
      {
        "line": [
          "100 W HUNTINGTON ST"
        ],
        "city": "BEEVILLE",
        "state": "TX",
        "postalCode": "78102-3324"
      },
      {
        "line": [
          "203 W RANDOL MILL RD"
        ],
        "city": "ARLINGTON",
        "state": "TX",
        "postalCode": "76011-5857"
      },
      {
        "line": [
          "9777 S YOSEMITE ST STE 130A"
        ],
        "city": "LONE TREE",
        "state": "CO",
        "postalCode": "80124-3115"
      },
      {
        "line": [
          "1902 Windsor Pl Suite 100"
        ],
        "city": "FORT WORTH",
        "state": "TX",
        "postalCode": "76110-1866"
      },
      {
        "line": [
          "3330 N GALLOWAY AVE STE 160"
        ],
        "city": "MESQUITE",
        "state": "TX",
        "postalCode": "75150-4701"
      },
      {
        "line": [
          "8181  N. Stadium Drive Suite 200"
        ],
        "city": "HOUSTON",
        "state": "TX",
        "postalCode": "77054-1847"
      },
      {
        "line": [
          "4 Willow Glen Avenue"
        ],
        "city": "OAKDALE",
        "state": "CA",
        "postalCode": "95361-3319"
      },
      {
        "line": [
          "24006 HIGHWAY 59 N"
        ],
        "city": "KINGWOOD",
        "state": "TX",
        "postalCode": "77339-1536"
      },
      {
        "line": [
          "504 Santa Fe Dr."
        ],
        "city": "WEATHERFORD",
        "state": "TX",
        "postalCode": "76086-6503"
      },
      {
        "line": [
          "1914 CAROLINE ST STE 100"
        ],
        "city": "HOUSTON",
        "state": "TX",
        "postalCode": "77002-8210"
      },
      {
        "line": [
          "10502 SANDIA DR"
        ],
        "city": "LAREDO",
        "state": "TX",
        "postalCode": "78045-6631"
      },
      {
        "line": [
          "1200 ST CLAIRE BLVD"
        ],
        "city": "MISSION",
        "state": "TX",
        "postalCode": "78572-6601"
      },
      {
        "line": [
          "2651 E. Broad Street"
        ],
        "city": "MANSFIELD",
        "state": "TX",
        "postalCode": "76063-3898"
      },
      {
        "line": [
          "458 N HIGHWAY 67 STE 400"
        ],
        "city": "CEDAR HILL",
        "state": "TX",
        "postalCode": "75104-0004"
      }
    ],
    "extension": [
      {
        "url": "https://fhir.athena.io/StructureDefinition/ah-practice",
        "valueReference": {
          "reference": "Organization/a-1.Practice-19427"
        }
      },
      {
        "url": "https://fhir.athena.io/StructureDefinition/ah-brand",
        "valueReference": {
          "reference": "Organization/a-19427.Brand-4"
        }
      }
    ]
  },
  "fullUrl": "urn:uuid:3b8d0988-8ecb-51fd-8c65-58a9a4943677"
}