{
  "resource": {
    "resourceType": "Organization",
    "id": "e12aae07-b397-5a1d-bbba-497e9095e16f",
    "name": "Indiana Ear",
    "endpoint": [
      {
        "reference": "Endpoint/27a4e967-47aa-5a9c-a572-b8297ee268a2"
      },
      {
        "reference": "Endpoint/9e5af1ab-5f45-554a-a3a5-8921d8734e10"
      }
    ],
    "identifier": [
      {
        "system": "http://hl7.org/fhir/sid/us-npi",
        "value": "1497055099"
      }
    ],
    "address": [
      {
        "line": [
          "7950 W JEFFERSON BLVD"
        ],
        "city": "FORT WAYNE",
        "state": "IN",
        "postalCode": "46804-4140"
      },
      {
        "line": [
          "4105 DICKE RD"
        ],
        "city": "FORT WAYNE",
        "state": "IN",
        "postalCode": "46804-6135"
      },
      {
        "line": [
          "11109 PARKVIEW PLAZA DR"
        ],
        "city": "FORT WAYNE",
        "state": "IN",
        "postalCode": "46845-1701"
      },
      {
        "line": [
          "9604 COLDWATER ROAD SUITE 103"
        ],
        "city": "FORT WAYNE",
        "state": "IN",
        "postalCode": "46825-2096"
      },
      {
        "line": [
          "9604 COLDWATER ROAD SUITE 101"
        ],
        "city": "FORT WAYNE",
        "state": "IN",
        "postalCode": "46825-2096"
      },
      {
        "line": [
          "335 FLORENCE AVE SUITE 1B"
        ],
        "city": "GRANGER",
        "state": "IN",
        "postalCode": "46530-8049"
      },
      {
        "line": [
          "2520 E DUPONT RD"
        ],
        "city": "FORT WAYNE",
        "state": "IN",
        "postalCode": "46825-1675"
      },
      {
        "line": [
          "1610 East Center Street"
        ],
        "city": "WARSAW",
        "state": "IN",
        "postalCode": "46580-3037"
      },
      {
        "line": [
          "11141 PARKVIEW PLAZA DR STE 200"
        ],
        "city": "FORT WAYNE",
        "state": "IN",
        "postalCode": "46845-1714"
      },
      {
        "line": [
          "6301 UNIVERSITY COMMONS, SUITE 360"
        ],
        "city": "SOUTH BEND",
        "state": "IN",
        "postalCode": "46635-3500"
      }
    ],
    "extension": [
      {
        "url": "https://fhir.athena.io/StructureDefinition/ah-practice",
        "valueReference": {
          "reference": "Organization/a-1.Practice-20253"
        }
      },
      {
        "url": "https://fhir.athena.io/StructureDefinition/ah-brand",
        "valueReference": {
          "reference": "Organization/a-20253.Brand-1"
        }
      }
    ]
  },
  "fullUrl": "urn:uuid:e12aae07-b397-5a1d-bbba-497e9095e16f"
}