{
  "resource": {
    "resourceType": "Organization",
    "id": "700f6325-de3a-5395-b648-02cf761510de",
    "name": "CAPE REGIONAL MC",
    "endpoint": [
      {
        "reference": "Endpoint/27a4e967-47aa-5a9c-a572-b8297ee268a2"
      },
      {
        "reference": "Endpoint/fadf1b9d-9ac5-58be-ba5c-bf665c3fbd41"
      }
    ],
    "identifier": [
      {
        "system": "http://hl7.org/fhir/sid/us-npi",
        "value": "1598443517"
      }
    ],
    "address": [
      {
        "line": [
          "2721 N ROUTE 9"
        ],
        "city": "OCEAN VIEW",
        "state": "NJ",
        "postalCode": "08230-1055"
      },
      {
        "line": [
          "502 ROUTE 9 N"
        ],
        "city": "CAPE MAY COURT HOUSE",
        "state": "NJ",
        "postalCode": "08210-1953"
      },
      {
        "line": [
          "4 MOORE RD"
        ],
        "city": "CAPE MAY COURT HOUSE",
        "state": "NJ",
        "postalCode": "08210-1654"
      },
      {
        "line": [
          "1740 BAYSHORE RD"
        ],
        "city": "VILLAS",
        "state": "NJ",
        "postalCode": "08251-2142"
      },
      {
        "line": [
          "1 UNIVERSITY PLZ"
        ],
        "city": "HACKENSACK",
        "state": "NJ",
        "postalCode": "07601-6201"
      },
      {
        "line": [
          "3809 BAYSHORE RD"
        ],
        "city": "CAPE MAY",
        "state": "NJ",
        "postalCode": "08204-3259"
      },
      {
        "line": [
          "144 MAGNOLIA DR"
        ],
        "city": "CAPE MAY COURT HOUSE",
        "state": "NJ",
        "postalCode": "08210-2141"
      },
      {
        "line": [
          "6817 BLACK HORSE PIKE"
        ],
        "city": "EGG HARBOR TOWNSHIP",
        "state": "NJ",
        "postalCode": "08234-4131"
      },
      {
        "line": [
          "235 DOLPHIN AVE"
        ],
        "city": "NORTHFIELD",
        "state": "NJ",
        "postalCode": "08225-2015"
      }
    ],
    "extension": [
      {
        "url": "https://fhir.athena.io/StructureDefinition/ah-practice",
        "valueReference": {
          "reference": "Organization/a-1.Practice-11851"
        }
      },
      {
        "url": "https://fhir.athena.io/StructureDefinition/ah-brand",
        "valueReference": {
          "reference": "Organization/a-11851.Brand-1"
        }
      }
    ]
  },
  "fullUrl": "urn:uuid:700f6325-de3a-5395-b648-02cf761510de"
}