{
  "resource": {
    "resourceType": "Organization",
    "id": "f962ae3b-54c2-5e9f-9b8c-56f838af5598",
    "name": "Center for Advanced Surgery",
    "endpoint": [
      {
        "reference": "Endpoint/27a4e967-47aa-5a9c-a572-b8297ee268a2"
      },
      {
        "reference": "Endpoint/8e2496ac-376c-5d33-8422-1ee1ce77c43e"
      }
    ],
    "identifier": [
      {
        "system": "http://hl7.org/fhir/sid/us-npi",
        "value": "1578157970"
      },
      {
        "system": "http://hl7.org/fhir/sid/us-npi",
        "value": "1417137068"
      },
      {
        "system": "http://hl7.org/fhir/sid/us-npi",
        "value": "1497349963"
      },
      {
        "system": "http://hl7.org/fhir/sid/us-npi",
        "value": "1972783520"
      },
      {
        "system": "http://hl7.org/fhir/sid/us-npi",
        "value": "1801888987"
      },
      {
        "system": "http://hl7.org/fhir/sid/us-npi",
        "value": "1396775367"
      },
      {
        "system": "http://hl7.org/fhir/sid/us-npi",
        "value": "1750525374"
      }
    ],
    "address": [
      {
        "line": [
          "2901 EMRICK BLVD SUITE 102"
        ],
        "city": "BETHLEHEM",
        "state": "PA",
        "postalCode": "18020-8017"
      },
      {
        "line": [
          "250 CETRONIA ROAD"
        ],
        "city": "ALLENTOWN",
        "state": "PA",
        "postalCode": "18104-9147"
      },
      {
        "line": [
          "2045 Westgate Dr, STE 101"
        ],
        "city": "BETHLEHEM",
        "state": "PA",
        "postalCode": "18017-7480"
      },
      {
        "line": [
          "2045 Westgate Dr STE 101"
        ],
        "city": "BETHLEHEM",
        "state": "PA",
        "postalCode": "18017-7480"
      },
      {
        "line": [
          "2085 Westgate Drive"
        ],
        "city": "BETHLEHEM",
        "state": "PA",
        "postalCode": "18017-7412"
      },
      {
        "line": [
          "7096 DECATUR STREET"
        ],
        "city": "NEW TRIPOLI",
        "state": "PA",
        "postalCode": "18066-3815"
      },
      {
        "line": [
          "724 Delaware Avenue"
        ],
        "city": "BETHLEHEM",
        "state": "PA",
        "postalCode": "18015-1108"
      },
      {
        "line": [
          "350 S Cedarbrook Road"
        ],
        "city": "ALLENTOWN",
        "state": "PA",
        "postalCode": "18104-5708"
      },
      {
        "line": [
          "1241 BLAKESLEE BLVD DRIVE E"
        ],
        "city": "LEHIGHTON",
        "state": "PA",
        "postalCode": "18235-2401"
      },
      {
        "line": [
          "2021 WESTGATE DRIVE",
          "BUILDING 1"
        ],
        "city": "BETHLEHEM",
        "state": "PA",
        "postalCode": "18017-7499"
      }
    ],
    "extension": [
      {
        "url": "https://fhir.athena.io/StructureDefinition/ah-practice",
        "valueReference": {
          "reference": "Organization/a-1.Practice-1453"
        }
      },
      {
        "url": "https://fhir.athena.io/StructureDefinition/ah-brand",
        "valueReference": {
          "reference": "Organization/a-1453.Brand-1"
        }
      }
    ]
  },
  "fullUrl": "urn:uuid:f962ae3b-54c2-5e9f-9b8c-56f838af5598"
}