{
  "resource": {
    "resourceType": "Organization",
    "id": "d4e62cb9-c7cb-572d-b986-5d30a39fe576",
    "name": "A Loving Heart Senior Care B&C",
    "endpoint": [
      {
        "reference": "Endpoint/27a4e967-47aa-5a9c-a572-b8297ee268a2"
      },
      {
        "reference": "Endpoint/f34b751d-b3b0-57bb-a6f6-d86466f3dc8d"
      }
    ],
    "identifier": [
      {
        "system": "http://hl7.org/fhir/sid/us-npi",
        "value": "1013109834"
      }
    ],
    "address": [
      {
        "line": [
          "Ocean Villa at Santa Monica",
          " 413 Ocean Ave."
        ],
        "city": "SANTA MONICA",
        "state": "CA",
        "postalCode": "90402-1200"
      },
      {
        "line": [
          "1273 Sheffield Place"
        ],
        "city": "THOUSAND OAKS",
        "state": "CA",
        "postalCode": "91360-5357"
      },
      {
        "line": [
          "Cogir of San Rafael Memory Care",
          "111 Merrydale Rd."
        ],
        "city": "SAN RAFAEL",
        "state": "CA",
        "postalCode": "94903-4004"
      },
      {
        "line": [
          "1154 South Alvarado Street"
        ],
        "city": "LOS ANGELES",
        "state": "CA",
        "postalCode": "90006-4110"
      },
      {
        "line": [
          "22615 Kittridge St."
        ],
        "city": "WEST HILLS",
        "state": "CA",
        "postalCode": "91307-3609"
      },
      {
        "line": [
          "29661 S Western Ave"
        ],
        "city": "RANCHO PALOS VERDES",
        "state": "CA",
        "postalCode": "90275-1314"
      },
      {
        "line": [
          "1550 Sutter St"
        ],
        "city": "SAN FRANCISCO",
        "state": "CA",
        "postalCode": "94109-5374"
      },
      {
        "line": [
          "3850 W Rancho Vista Blvd"
        ],
        "city": "PALMDALE",
        "state": "CA",
        "postalCode": "93551-2572"
      },
      {
        "line": [
          "7039 Claire Ave"
        ],
        "city": "RESEDA",
        "state": "CA",
        "postalCode": "91335-3822"
      },
      {
        "line": [
          "111 North Wells Road"
        ],
        "city": "VENTURA",
        "state": "CA",
        "postalCode": "93004-1159"
      },
      {
        "line": [
          " 7520 Van Buren"
        ],
        "city": "VENTURA",
        "state": "CA",
        "postalCode": "93003-2562"
      },
      {
        "line": [
          "16955 Vanowen St"
        ],
        "city": "VAN NUYS",
        "state": "CA",
        "postalCode": "91406-4542"
      },
      {
        "line": [
          "5217 Chesebro Rd"
        ],
        "city": "AGOURA HILLS",
        "state": "CA",
        "postalCode": "91301-2212"
      },
      {
        "line": [
          "28650 Newhall Ranch Rd"
        ],
        "city": "Santa Clarita",
        "state": "CA",
        "postalCode": "91355-2373"
      },
      {
        "line": [
          "4904 Telegraph Road"
        ],
        "city": "VENTURA",
        "state": "CA",
        "postalCode": "93003-4109"
      },
      {
        "line": [
          "6658 Capistrano Ave"
        ],
        "city": "WEST HILLS",
        "state": "CA",
        "postalCode": "91307-3731"
      },
      {
        "line": [
          "17220 Ballinger St.",
          "17220 BALLINGER ST."
        ],
        "city": "NORTHRIDGE",
        "state": "CA",
        "postalCode": "91325-1930"
      },
      {
        "line": [
          "28 WALES ST"
        ],
        "city": "THOUSAND OAKS",
        "state": "CA",
        "postalCode": "91360-3543"
      },
      {
        "line": [
          "6951 Lennox Avenue"
        ],
        "city": "VAN NUYS",
        "state": "CA",
        "postalCode": "91405-4000"
      },
      {
        "line": [
          "1725 W CATHERINE DR"
        ],
        "city": "ANAHEIM",
        "state": "CA",
        "postalCode": "92801-3502"
      },
      {
        "line": [
          "362 Camino Manzanas"
        ],
        "city": "THOUSAND OAKS",
        "state": "CA",
        "postalCode": "91360-2003"
      },
      {
        "line": [
          "829 N CRESCENT HEIGHTS BLVD"
        ],
        "city": "LOS ANGELES",
        "state": "CA",
        "postalCode": "90046-6901"
      },
      {
        "line": [
          "5540 Bedford Ave"
        ],
        "city": "LOS ANGELES",
        "state": "CA",
        "postalCode": "90056-1011"
      },
      {
        "line": [
          "2560 Faraday Avenue"
        ],
        "city": "CARLSBAD",
        "state": "CA",
        "postalCode": "92010-7224"
      },
      {
        "line": [
          "2020 Town Center West Way"
        ],
        "city": "EL DORADO HILLS",
        "state": "CA",
        "postalCode": "95762-7575"
      },
      {
        "line": [
          "7057 SHOUP AVE."
        ],
        "city": "WEST HILLS",
        "state": "CA",
        "postalCode": "91307-2335"
      },
      {
        "line": [
          "2375 McDonald Ct"
        ],
        "city": "SIMI VALLEY",
        "state": "CA",
        "postalCode": "93065-3158"
      },
      {
        "line": [
          "13000 Victory Blvd"
        ],
        "city": "NORTH HOLLYWOOD",
        "state": "CA",
        "postalCode": "91606-2926"
      },
      {
        "line": [
          "10955 Washington Blvd Culver City, CA 90232"
        ],
        "city": "CULVER CITY",
        "state": "CA",
        "postalCode": "90232-4045"
      },
      {
        "line": [
          "903 Carmen Dr."
        ],
        "city": "CAMARILLO",
        "state": "CA",
        "postalCode": "93010-4527"
      },
      {
        "line": [
          "2404 Loring St"
        ],
        "city": "SAN DIEGO",
        "state": "CA",
        "postalCode": "92109-2348"
      },
      {
        "line": [
          "6833 Fallbrook avenue"
        ],
        "city": "WEST HILLS",
        "state": "CA",
        "postalCode": "91307-2511"
      },
      {
        "line": [
          "2640 Honolulu Ave"
        ],
        "city": "MONTROSE",
        "state": "CA",
        "postalCode": "91020-1707"
      },
      {
        "line": [
          "5430 Tyrone Avenue"
        ],
        "city": "VAN NUYS",
        "state": "CA",
        "postalCode": "91401-5122"
      },
      {
        "line": [
          "334 Burton CT"
        ],
        "city": "THOUSAND OAKS",
        "state": "CA",
        "postalCode": "91360-9131"
      },
      {
        "line": [
          "4560 Cartwright Ave, Toluca Lake, CA 91602, United",
          "4560 Cartwright Ave"
        ],
        "city": "NORTH HOLLYWOOD",
        "state": "CA",
        "postalCode": "91602-1408"
      },
      {
        "line": [
          "24441 C. Sonora"
        ],
        "city": "LAGUNA WOODS",
        "state": "CA",
        "postalCode": "92637-7702"
      },
      {
        "line": [
          "11356 Covello St"
        ],
        "city": "SUN VALLEY",
        "state": "CA",
        "postalCode": "91352-4711"
      },
      {
        "line": [
          "13300 Arminta Ave."
        ],
        "city": "NORTH HOLLYWOOD",
        "state": "CA",
        "postalCode": "91605-1729"
      },
      {
        "line": [
          "3125 Lori Cir"
        ],
        "city": "SIMI VALLEY",
        "state": "CA",
        "postalCode": "93065-5060"
      },
      {
        "line": [
          "5225 S J St"
        ],
        "city": "OXNARD",
        "state": "CA",
        "postalCode": "93033-8320"
      },
      {
        "line": [
          "20900 Earl street"
        ],
        "city": "TORRANCE",
        "state": "CA",
        "postalCode": "90503-4309"
      },
      {
        "line": [
          "3110 Royal Avenue"
        ],
        "city": "SIMI VALLEY",
        "state": "CA",
        "postalCode": "93063-3110"
      },
      {
        "line": [
          "30822 JANLOR DRIVE"
        ],
        "city": "THOUSAND OAKS",
        "state": "CA",
        "postalCode": "91362-4109"
      },
      {
        "line": [
          "3318 Brookside Rd"
        ],
        "city": "STOCKTON",
        "state": "CA",
        "postalCode": "95219-2344"
      },
      {
        "line": [
          "8505 Orion Ave."
        ],
        "city": "NORTH HILLS",
        "state": "CA",
        "postalCode": "91343-5812"
      },
      {
        "line": [
          "8106 Loma Verde Ave"
        ],
        "city": "CANOGA PARK",
        "state": "CA",
        "postalCode": "91304-4306"
      },
      {
        "line": [
          "6728 Sepulveda Blvd"
        ],
        "city": "VAN NUYS",
        "state": "CA",
        "postalCode": "91411-1248"
      },
      {
        "line": [
          "5811 Capistrano Ave."
        ],
        "city": "WOODLAND HILLS",
        "state": "CA",
        "postalCode": "91367-4425"
      },
      {
        "line": [
          "6928 Peach Ave"
        ],
        "city": "VAN NUYS",
        "state": "CA",
        "postalCode": "91406-5230"
      },
      {
        "line": [
          "2905 Reynolds Ranch Pkwy"
        ],
        "city": "LODI",
        "state": "CA",
        "postalCode": "95240-6893"
      },
      {
        "line": [
          "11201 Ventura Boulevard"
        ],
        "city": "STUDIO CITY",
        "state": "CA",
        "postalCode": "91604-3136"
      },
      {
        "line": [
          "150 S Grand Ave."
        ],
        "city": "WEST COVINA",
        "state": "CA",
        "postalCode": "91791-2354"
      },
      {
        "line": [
          "3943 Cochran St Suite C"
        ],
        "city": "SIMI VALLEY",
        "state": "CA",
        "postalCode": "93063-2364"
      },
      {
        "line": [
          "24301 Oxnard St"
        ],
        "city": "WOODLAND HILLS",
        "state": "CA",
        "postalCode": "91367-5823"
      },
      {
        "line": [
          "3216 Yardley Place"
        ],
        "city": "SIMI VALLEY",
        "state": "CA",
        "postalCode": "93063-1046"
      },
      {
        "line": [
          "5128 Cedros Ave."
        ],
        "city": "VAN NUYS",
        "state": "CA",
        "postalCode": "91411-1404"
      },
      {
        "line": [
          "851 2nd street"
        ],
        "city": "SANTA MONICA",
        "state": "CA",
        "postalCode": "90403-1000"
      },
      {
        "line": [
          "Assistant Living (Sun Valley)",
          "8455 Springford Dr.,"
        ],
        "city": "SUN VALLEY",
        "state": "CA",
        "postalCode": "91352-3649"
      },
      {
        "line": [
          "5711 Reseda Boulevard"
        ],
        "city": "TARZANA",
        "state": "CA",
        "postalCode": "91356-2201"
      },
      {
        "line": [
          "3440 W. Flagstaff Ave"
        ],
        "city": "VISALIA",
        "state": "CA",
        "postalCode": "93291-8240"
      },
      {
        "line": [
          "Chateau of Oaks B&C",
          "15239 Camarillo St."
        ],
        "city": "SHERMAN OAKS",
        "state": "CA",
        "postalCode": "91403-1917"
      },
      {
        "line": [
          "3350 El Nido St"
        ],
        "city": "CAMARILLO",
        "state": "CA",
        "postalCode": "93010-2352"
      },
      {
        "line": [
          "7447 Sepulveda Blvd"
        ],
        "city": "VAN NUYS",
        "state": "CA",
        "postalCode": "91405-1631"
      },
      {
        "line": [
          "7055 Shoup Ave, West Hills, CA 91307, United State",
          "7055 Shoup Ave"
        ],
        "city": "WEST HILLS",
        "state": "CA",
        "postalCode": "91307-2335"
      },
      {
        "line": [
          "4762 Maureen Ln"
        ],
        "city": "MOORPARK",
        "state": "CA",
        "postalCode": "93021-7126"
      },
      {
        "line": [
          "7001 Garden Grove Ave"
        ],
        "city": "RESEDA",
        "state": "CA",
        "postalCode": "91335-4537"
      },
      {
        "line": [
          "3333 Manning Ave"
        ],
        "city": "LOS ANGELES",
        "state": "CA",
        "postalCode": "90064-4804"
      },
      {
        "line": [
          "2108 Oak St"
        ],
        "city": "SANTA MONICA",
        "state": "CA",
        "postalCode": "90405-5009"
      },
      {
        "line": [
          "Fallbrook Glen of West Hills",
          "6833 Fallbrook Ave"
        ],
        "city": "WEST HILLS",
        "state": "CA",
        "postalCode": "91307-2511"
      },
      {
        "line": [
          "154 THAMES ST"
        ],
        "city": "THOUSAND OAKS",
        "state": "CA",
        "postalCode": "91360-3440"
      },
      {
        "line": [
          "191 e gainsborough road"
        ],
        "city": "THOUSAND OAKS",
        "state": "CA",
        "postalCode": "91360-3555"
      },
      {
        "line": [
          "2614 Sirius St"
        ],
        "city": "THOUSAND OAKS",
        "state": "CA",
        "postalCode": "91360-2943"
      },
      {
        "line": [
          "24962 CALLE ARAGON"
        ],
        "city": "LAGUNA WOODS",
        "state": "CA",
        "postalCode": "92637-3883"
      },
      {
        "line": [
          "9811 Belmar Ave."
        ],
        "city": "NORTHRIDGE",
        "state": "CA",
        "postalCode": "91324-1609"
      },
      {
        "line": [
          "1220 Cypress Point Ln"
        ],
        "city": "VENTURA",
        "state": "CA",
        "postalCode": "93003-6037"
      },
      {
        "line": [
          "955 Grand Ave"
        ],
        "city": "SAN DIEGO",
        "state": "CA",
        "postalCode": "92109-4042"
      },
      {
        "line": [
          "1180 N BRADFORD AVE"
        ],
        "city": "PLACENTIA",
        "state": "CA",
        "postalCode": "92870-3301"
      },
      {
        "line": [
          "17300 Roscoe Blvd."
        ],
        "city": "NORTHRIDGE",
        "state": "CA",
        "postalCode": "91325-3902"
      },
      {
        "line": [
          "15460 Morrison St."
        ],
        "city": "SHERMAN OAKS",
        "state": "CA",
        "postalCode": "91403-1045"
      },
      {
        "line": [
          "10406 Magonlia Blvd"
        ],
        "city": "NORTH HOLLYWOOD",
        "state": "CA",
        "postalCode": "91601-4108"
      },
      {
        "line": [
          "455 Angeleno Avenue"
        ],
        "city": "BURBANK",
        "state": "CA",
        "postalCode": "91501-3077"
      },
      {
        "line": [
          "6156 HEDGEWALL DR."
        ],
        "city": "THOUSAND OAKS",
        "state": "CA",
        "postalCode": "91362-4129"
      },
      {
        "line": [
          "3050 Montrose Ave"
        ],
        "city": "Glendale",
        "state": "CA",
        "postalCode": "91214-3619"
      },
      {
        "line": [
          "602 E Oak St"
        ],
        "city": "OJAI",
        "state": "CA",
        "postalCode": "93023-2853"
      },
      {
        "line": [
          "9222 Corbin Ave"
        ],
        "city": "NORTHRIDGE",
        "state": "CA",
        "postalCode": "91324-2409"
      },
      {
        "line": [
          "Silverado Rolling Hills Memory Care",
          "2455 E Pacific Coast Hwy"
        ],
        "city": "TORRANCE",
        "state": "CA",
        "postalCode": "90505-0001"
      },
      {
        "line": [
          "12490 Fielding Cir"
        ],
        "city": "PLAYA VISTA",
        "state": "CA",
        "postalCode": "90094-3022"
      },
      {
        "line": [
          "2426 Garfield Ave,"
        ],
        "city": "CARMICHAEL",
        "state": "CA",
        "postalCode": "95608-5122"
      },
      {
        "line": [
          "16421 CHANERA AVENUE TORRANCE, CA 90504"
        ],
        "city": "TORRANCE",
        "state": "CA",
        "postalCode": "90504-1829"
      },
      {
        "line": [
          "2010 Fullbroke Dr"
        ],
        "city": "THOUSAND OAKS",
        "state": "CA",
        "postalCode": "91362-1839"
      },
      {
        "line": [
          "17732 Erwin St"
        ],
        "city": "ENCINO",
        "state": "CA",
        "postalCode": "91316-7215"
      },
      {
        "line": [
          "5430 Telegraph Rd"
        ],
        "city": "VENTURA",
        "state": "CA",
        "postalCode": "93003-4107"
      },
      {
        "line": [
          "917 THORNTON WAY"
        ],
        "city": "SAN JOSE",
        "state": "CA",
        "postalCode": "95128-3878"
      },
      {
        "line": [
          "4035 Grand View Blvd"
        ],
        "city": "LOS ANGELES",
        "state": "CA",
        "postalCode": "90066-5211"
      },
      {
        "line": [
          "1041 S. Main St."
        ],
        "city": "BURBANK",
        "state": "CA",
        "postalCode": "91506-3205"
      },
      {
        "line": [
          "5805 Hillview Park Ave"
        ],
        "city": "VAN NUYS",
        "state": "CA",
        "postalCode": "91401-4021"
      },
      {
        "line": [
          "13524 Sherman Way"
        ],
        "city": "VAN NUYS",
        "state": "CA",
        "postalCode": "91405-2830"
      },
      {
        "line": [
          "1959 Hendrix Ave"
        ],
        "city": "THOUSAND OAKS",
        "state": "CA",
        "postalCode": "91360-3318"
      },
      {
        "line": [
          "6000 Santa Rosa Rd"
        ],
        "city": "CAMARILLO",
        "state": "CA",
        "postalCode": "93012-7101"
      },
      {
        "line": [
          "23780 VIA IRANA"
        ],
        "city": "VALENCIA",
        "state": "CA",
        "postalCode": "91355-2515"
      },
      {
        "line": [
          "1100 San Pablo Ave"
        ],
        "city": "ALBANY",
        "state": "CA",
        "postalCode": "94706-2216"
      },
      {
        "line": [
          "2431 Mariner Square Drive"
        ],
        "city": "ALAMEDA",
        "state": "CA",
        "postalCode": "94501-1600"
      },
      {
        "line": [
          "2721 Willow St"
        ],
        "city": "BURBANK",
        "state": "CA",
        "postalCode": "91505-4544"
      },
      {
        "line": [
          "10475 WILSHIRE BLVD"
        ],
        "city": "LOS ANGELES",
        "state": "CA",
        "postalCode": "90024-4689"
      },
      {
        "line": [
          "20801 Devonshire St"
        ],
        "city": "CHATSWORTH",
        "state": "CA",
        "postalCode": "91311-3216"
      },
      {
        "line": [
          "14928 HIAWATHA ST"
        ],
        "city": "MISSION HILLS",
        "state": "CA",
        "postalCode": "91345-2150"
      },
      {
        "line": [
          "2587 E. Washington Boulevard."
        ],
        "city": "PASADENA",
        "state": "CA",
        "postalCode": "91107-6205"
      },
      {
        "line": [
          "23540 Burbank Blvd"
        ],
        "city": "WOODLAND HILLS",
        "state": "CA",
        "postalCode": "91367-3008"
      },
      {
        "line": [
          "5965 Calmfield Ave"
        ],
        "city": "AGOURA HILLS",
        "state": "CA",
        "postalCode": "91301-2101"
      },
      {
        "line": [
          "16123 Chatsworth St"
        ],
        "city": "GRANADA HILLS",
        "state": "CA",
        "postalCode": "91344-7045"
      },
      {
        "line": [
          "980 Warwick Ave"
        ],
        "city": "THOUSAND OAKS",
        "state": "CA",
        "postalCode": "91360-1807"
      },
      {
        "line": [
          "346 E Gainsborough RD"
        ],
        "city": "THOUSAND OAKS",
        "state": "CA",
        "postalCode": "91360-5333"
      },
      {
        "line": [
          "900 Calle de Los Amigos"
        ],
        "city": "SANTA BARBARA",
        "state": "CA",
        "postalCode": "93105-4435"
      },
      {
        "line": [
          "19030 Miranda St."
        ],
        "city": "TARZANA",
        "state": "CA",
        "postalCode": "91356-1231"
      },
      {
        "line": [
          "5445 Everglades St."
        ],
        "city": "VENTURA",
        "state": "CA",
        "postalCode": "93003-6523"
      },
      {
        "line": [
          "3050 M St, Merced"
        ],
        "city": "MERCED",
        "state": "CA",
        "postalCode": "95348-3200"
      },
      {
        "line": [
          "Orion Independent Living",
          "8007 Greenbush Ave."
        ],
        "city": "PANORAMA CITY",
        "state": "CA",
        "postalCode": "91402-5554"
      },
      {
        "line": [
          "7736 Sancola Ave, Sun Valley, CA 91352, United Sta",
          "7736 Sancola Ave"
        ],
        "city": "SUN VALLEY",
        "state": "CA",
        "postalCode": "91352-4358"
      },
      {
        "line": [
          "1623 Arizona Ave."
        ],
        "city": "SANTA MONICA",
        "state": "CA",
        "postalCode": "90404-1209"
      },
      {
        "line": [
          "16629 Sunset Blvd, Pacific Palisades, CA 90272, Un"
        ],
        "city": "PACIFIC PALISADES",
        "state": "CA",
        "postalCode": "90272-3202"
      },
      {
        "line": [
          "825 Ocean Ave"
        ],
        "city": "SANTA MONICA",
        "state": "CA",
        "postalCode": "90403-1003"
      },
      {
        "line": [
          "5436 Tyrone Ave"
        ],
        "city": "Sherman Oaks",
        "state": "CA",
        "postalCode": "91401-5122"
      },
      {
        "line": [
          "1227 Mika Way"
        ],
        "city": "OXNARD",
        "state": "CA",
        "postalCode": "93030-5484"
      },
      {
        "line": [
          "7702 Van Nuys Blvd"
        ],
        "city": "VAN NUYS",
        "state": "CA",
        "postalCode": "91405-9140"
      },
      {
        "line": [
          "21410 Madrona Avenue"
        ],
        "city": "TORRANCE",
        "state": "CA",
        "postalCode": "90503-5949"
      },
      {
        "line": [
          "1 Las Gallinas Ave"
        ],
        "city": "SAN RAFAEL",
        "state": "CA",
        "postalCode": "94903-0101"
      },
      {
        "line": [
          "1447 17th street"
        ],
        "city": "SANTA MONICA",
        "state": "CA",
        "postalCode": "90404-2835"
      },
      {
        "line": [
          "5797 Hillview Park Ave"
        ],
        "city": "VAN NUYS",
        "state": "CA",
        "postalCode": "91401-4021"
      },
      {
        "line": [
          "925 E Villa St"
        ],
        "city": "PASADENA",
        "state": "CA",
        "postalCode": "91106-1085"
      },
      {
        "line": [
          "2400 Pleasant Grove Blvd,"
        ],
        "city": "ROSEVILLE",
        "state": "CA",
        "postalCode": "95747-8921"
      },
      {
        "line": [
          "4717 Engle Road"
        ],
        "city": "CARMICHAEL",
        "state": "CA",
        "postalCode": "95608-2248"
      },
      {
        "line": [
          "5154 Sunset Blvd"
        ],
        "city": "LOS ANGELES",
        "state": "CA",
        "postalCode": "90027-5708"
      },
      {
        "line": [
          "23946 COLUMBIA CT."
        ],
        "city": "VALENCIA",
        "state": "CA",
        "postalCode": "91355-3304"
      },
      {
        "line": [
          "101 Avenida Calafia"
        ],
        "city": "SAN CLEMENTE",
        "state": "CA",
        "postalCode": "92672-4427"
      },
      {
        "line": [
          "1300 N C St."
        ],
        "city": "OXNARD",
        "state": "CA",
        "postalCode": "93030-4006"
      },
      {
        "line": [
          "7945 Topanga Canyon Blvd."
        ],
        "city": "CANOGA PARK",
        "state": "CA",
        "postalCode": "91304-4733"
      },
      {
        "line": [
          "11620 W Washington Blvd"
        ],
        "city": "LOS ANGELES",
        "state": "CA",
        "postalCode": "90066-5916"
      },
      {
        "line": [
          "10631 Vinedale St"
        ],
        "city": "SUN VALLEY",
        "state": "CA",
        "postalCode": "91352-2825"
      },
      {
        "line": [
          "904 N Ogden Dr",
          "904 N Ogden Dr"
        ],
        "city": "LOS ANGELES",
        "state": "CA",
        "postalCode": "90046-7310"
      },
      {
        "line": [
          "851 2nd St"
        ],
        "city": "SANTA MONICA",
        "state": "CA",
        "postalCode": "90403-1000"
      },
      {
        "line": [
          "7401 YORKTOWN AVE"
        ],
        "city": "HUNTINGTON BEACH",
        "state": "CA",
        "postalCode": "92648-2757"
      },
      {
        "line": [
          "Carlton Senior Living Orangevale",
          "8773 Oak Ave."
        ],
        "city": "ORANGEVALE",
        "state": "CA",
        "postalCode": "95662-2410"
      },
      {
        "line": [
          "22259 Kittridge street"
        ],
        "city": "CANOGA PARK",
        "state": "CA",
        "postalCode": "91303-2448"
      },
      {
        "line": [
          "9332 Odessa Avenue, North Hills, CA 91343"
        ],
        "city": "NORTH HILLS",
        "state": "CA",
        "postalCode": "91343-2819"
      },
      {
        "line": [
          "The Fountains at Carlotta",
          "41505 Carlotta Dr"
        ],
        "city": "PALM DESERT",
        "state": "CA",
        "postalCode": "92211-3269"
      },
      {
        "line": [
          "Cogir of Folsom Memory Care",
          "1801 E Natoma St"
        ],
        "city": "FOLSOM",
        "state": "CA",
        "postalCode": "95630-5321"
      },
      {
        "line": [
          "515 N. La Brea Avenue"
        ],
        "city": "LOS ANGELES",
        "state": "CA",
        "postalCode": "90036-2015"
      },
      {
        "line": [
          "1450 17TH ST, WELBROOK OF SANTA MONICA",
          "WELBROOK OF SANTA MONICA"
        ],
        "city": "SANTA MONICA",
        "state": "CA",
        "postalCode": "90404-2849"
      },
      {
        "line": [
          "5801 Crestridge Rd"
        ],
        "city": "RANCHO PALOS VERDES",
        "state": "CA",
        "postalCode": "90275-4961"
      },
      {
        "line": [
          "7940 Topanga Canyon Blvd"
        ],
        "city": "CANOGA PARK",
        "state": "CA",
        "postalCode": "91304-4732"
      },
      {
        "line": [
          "348 W Avenida De Los Arboles"
        ],
        "city": "THOUSAND OAKS",
        "state": "CA",
        "postalCode": "91360-1639"
      },
      {
        "line": [
          "Carmel Village at Clovis",
          "1650 Shaw Ave"
        ],
        "city": "CLOVIS",
        "state": "CA",
        "postalCode": "93611-4039"
      },
      {
        "line": [
          "1630 El Dorado Dr"
        ],
        "city": "THOUSAND OAKS",
        "state": "CA",
        "postalCode": "91362-2115"
      },
      {
        "line": [
          "4109 Emerald St"
        ],
        "city": "TORRANCE",
        "state": "CA",
        "postalCode": "90503-3105"
      },
      {
        "line": [
          "1325 Lantana St"
        ],
        "city": "CAMARILLO",
        "state": "CA",
        "postalCode": "93010-3028"
      },
      {
        "line": [
          "31943 Agoura Road"
        ],
        "city": "WESTLAKE VILLAGE",
        "state": "CA",
        "postalCode": "91361-4427"
      },
      {
        "line": [
          "7460 Mammoth Ave"
        ],
        "city": "VAN NUYS",
        "state": "CA",
        "postalCode": "91405-1505"
      },
      {
        "line": [
          "4855 San Felipe Rd"
        ],
        "city": "SAN JOSE",
        "state": "CA",
        "postalCode": "95135-1267"
      },
      {
        "line": [
          "7150 TAMPA AVE"
        ],
        "city": "RESEDA",
        "state": "CA",
        "postalCode": "91335-3700"
      },
      {
        "line": [
          "23954 Sarda Road"
        ],
        "city": "VALENCIA",
        "state": "CA",
        "postalCode": "91355-2908"
      },
      {
        "line": [
          "51 Doone St."
        ],
        "city": "THOUSAND OAKS",
        "state": "CA",
        "postalCode": "91360-3513"
      },
      {
        "line": [
          "803 N GENESEE AVE."
        ],
        "city": "LOS ANGELES",
        "state": "CA",
        "postalCode": "90046-7313"
      },
      {
        "line": [
          "7017 Deveron Ridge Road"
        ],
        "city": "WEST HILLS",
        "state": "CA",
        "postalCode": "91307-1808"
      },
      {
        "line": [
          "10862 Wellworth Ave"
        ],
        "city": "LOS ANGELES",
        "state": "CA",
        "postalCode": "90024-4917"
      },
      {
        "line": [
          "11429 Ventura Blvd"
        ],
        "city": "STUDIO CITY",
        "state": "CA",
        "postalCode": "91604-1031"
      },
      {
        "line": [
          "7046 Kester Ave"
        ],
        "city": "VAN NUYS",
        "state": "CA",
        "postalCode": "91405-3568"
      },
      {
        "line": [
          "6720 Saint Esteban St."
        ],
        "city": "TUJUNGA",
        "state": "CA",
        "postalCode": "91042-3335"
      },
      {
        "line": [
          "433 W Bastanchury Rd"
        ],
        "city": "FULLERTON",
        "state": "CA",
        "postalCode": "92835-3404"
      },
      {
        "line": [
          " 1929 W Pico Blvd"
        ],
        "city": "LOS ANGELES",
        "state": "CA",
        "postalCode": "90006-5008"
      },
      {
        "line": [
          "6728 Gaviota Ave"
        ],
        "city": "VAN NUYS",
        "state": "CA",
        "postalCode": "91406-5944"
      },
      {
        "line": [
          "1247 25th St"
        ],
        "city": "SANTA MONICA",
        "state": "CA",
        "postalCode": "90404-1401"
      },
      {
        "line": [
          "20849 Gretchen St"
        ],
        "city": "CANOGA PARK",
        "state": "CA",
        "postalCode": "91306-4016"
      },
      {
        "line": [
          "2770 N Highgate Pl, Simi Valley, CA 93065, United",
          "2770 N Highgate Pl"
        ],
        "city": "SIMI VALLEY",
        "state": "CA",
        "postalCode": "93065-1413"
      },
      {
        "line": [
          "20615 Mayall St."
        ],
        "city": "CHATSWORTH",
        "state": "CA",
        "postalCode": "91311-3110"
      },
      {
        "line": [],
        "city": "GARDENA",
        "state": "CA",
        "postalCode": "90247-1111"
      },
      {
        "line": [
          "43051 15th St"
        ],
        "city": "LANCASTER",
        "state": "CA",
        "postalCode": "93534-6903"
      },
      {
        "line": [
          "1900 Grismer Ave"
        ],
        "city": "BURBANK",
        "state": "CA",
        "postalCode": "91504-3623"
      },
      {
        "line": [
          "32200 Del Obispo St"
        ],
        "city": "SAN JUAN CAPISTRANO",
        "state": "CA",
        "postalCode": "92675-3450"
      },
      {
        "line": [
          "947 Tiverton Ave."
        ],
        "city": "LOS ANGELES",
        "state": "CA",
        "postalCode": "90024-3012"
      },
      {
        "line": [
          "24903 Moulton Pkwy"
        ],
        "city": "Aliso Viejo",
        "state": "CA",
        "postalCode": "92653-6406"
      },
      {
        "line": [
          "13333 Fenton Ave"
        ],
        "city": "SYLMAR",
        "state": "CA",
        "postalCode": "91342-3113"
      },
      {
        "line": [
          "23450 Madison street"
        ],
        "city": "TORRANCE",
        "state": "CA",
        "postalCode": "90505-4701"
      },
      {
        "line": [
          "5701 Crestridge Rd,"
        ],
        "city": "RANCHO PALOS VERDES",
        "state": "CA",
        "postalCode": "90275-4962"
      },
      {
        "line": [
          "17355 Burbank Blvd"
        ],
        "city": "ENCINO",
        "state": "CA",
        "postalCode": "91316-1733"
      },
      {
        "line": [
          "6245 Matilija Ave"
        ],
        "city": "Valley Glen",
        "state": "CA",
        "postalCode": "91401-2923"
      },
      {
        "line": [
          "8484 Madison Ave,"
        ],
        "city": "FAIR OAKS",
        "state": "CA",
        "postalCode": "95628-3830"
      },
      {
        "line": [
          "436 N. Reese Place"
        ],
        "city": "BURBANK",
        "state": "CA",
        "postalCode": "91506-1957"
      },
      {
        "line": [
          "7647 Paso Robles Ave"
        ],
        "city": "VAN NUYS",
        "state": "CA",
        "postalCode": "91406-2142"
      },
      {
        "line": [
          "2867 Tanisha Ct"
        ],
        "city": "SIMI VALLEY",
        "state": "CA",
        "postalCode": "93065-5060"
      },
      {
        "line": [
          "6700 Sepulveda Blvd"
        ],
        "city": "VAN NUYS",
        "state": "CA",
        "postalCode": "91411-1248"
      },
      {
        "line": [
          "1465 S Novato Blvd"
        ],
        "city": "NOVATO",
        "state": "CA",
        "postalCode": "94947-4509"
      },
      {
        "line": [
          "Gem Oaks Assisted Living",
          "1060 Calle Las Trancas"
        ],
        "city": "THOUSAND OAKS",
        "state": "CA",
        "postalCode": "91360-2335"
      },
      {
        "line": [
          "20648 Blackhawk St"
        ],
        "city": "CHATSWORTH",
        "state": "CA",
        "postalCode": "91311-2405"
      },
      {
        "line": [
          "15441 West Sunset Blvd."
        ],
        "city": "PACIFIC PALISADES",
        "state": "CA",
        "postalCode": "90272-3525"
      },
      {
        "line": [
          "5650 Reseda Blvd"
        ],
        "city": "TARZANA",
        "state": "CA",
        "postalCode": "91356-2230"
      },
      {
        "line": [
          "14857 Roscoe Blvd"
        ],
        "city": "PANORAMA CITY",
        "state": "CA",
        "postalCode": "91402-4617"
      },
      {
        "line": [
          "11201 Vantura Blvd"
        ],
        "city": "STUDIO CITY",
        "state": "CA",
        "postalCode": "91604-3136"
      },
      {
        "line": [
          "20332 JAY CARROLL DRIVE"
        ],
        "city": "SANTA CLARITA",
        "state": "CA",
        "postalCode": "91350-1958"
      },
      {
        "line": [
          "6100 Sierra College Blvd,"
        ],
        "city": "ROCKLIN",
        "state": "CA",
        "postalCode": "95677-3505"
      },
      {
        "line": [
          "6726 Gaviota Ave"
        ],
        "city": "VAN NUYS",
        "state": "CA",
        "postalCode": "91406-5944"
      },
      {
        "line": [
          "1250 Boynton St"
        ],
        "city": "GLENDALE",
        "state": "CA",
        "postalCode": "91205-3451"
      },
      {
        "line": [
          "801 S. Pacific Coast Hwy"
        ],
        "city": "REDONDO BEACH",
        "state": "CA",
        "postalCode": "90277-4764"
      },
      {
        "line": [
          "7501 Osage Ave"
        ],
        "city": "LOS ANGELES",
        "state": "CA",
        "postalCode": "90045-1744"
      },
      {
        "line": [
          "16710 Magnolia Boulevard"
        ],
        "city": "ENCINO",
        "state": "CA",
        "postalCode": "91436-1011"
      },
      {
        "line": [
          "350 W Bay St"
        ],
        "city": "COSTA MESA",
        "state": "CA",
        "postalCode": "92627-2020"
      },
      {
        "line": [
          "5794 Katherine Street"
        ],
        "city": "SIMI VALLEY",
        "state": "CA",
        "postalCode": "93063-4551"
      },
      {
        "line": [
          "6233 VARIEL AVENUE"
        ],
        "city": "WOODLAND HILLS",
        "state": "CA",
        "postalCode": "91367-2512"
      },
      {
        "line": [
          "9541 Van Nuys Boulevard"
        ],
        "city": "PANORAMA CITY",
        "state": "CA",
        "postalCode": "91402-1315"
      },
      {
        "line": [
          "6221 FALLBROOK AVE"
        ],
        "city": "WOODLAND HILLS",
        "state": "CA",
        "postalCode": "91367-1602"
      },
      {
        "line": [
          "729 N Muirfield Ave"
        ],
        "city": "SIMI VALLEY",
        "state": "CA",
        "postalCode": "93065-5636"
      },
      {
        "line": [
          "4301 Buena Vista Rd"
        ],
        "city": "BAKERSFIELD",
        "state": "CA",
        "postalCode": "93311-8701"
      },
      {
        "line": [
          "3340 Shelby Dr"
        ],
        "city": "LOS ANGELES",
        "state": "CA",
        "postalCode": "90034-2725"
      },
      {
        "line": [
          "947 3rd st"
        ],
        "city": "SANTA MONICA",
        "state": "CA",
        "postalCode": "90403-2508"
      },
      {
        "line": [
          "9233 Pico Blvd"
        ],
        "city": "LOS ANGELES",
        "state": "CA",
        "postalCode": "90035-1386"
      },
      {
        "line": [
          "2400 Mariner Square Dr"
        ],
        "city": "ALAMEDA",
        "state": "CA",
        "postalCode": "94501-1006"
      },
      {
        "line": [
          "245 S. El Molino avenue"
        ],
        "city": "PASADENA",
        "state": "CA",
        "postalCode": "91101-2905"
      },
      {
        "line": [
          "8647 Fenwick St",
          "#1957"
        ],
        "city": "SUNLAND",
        "state": "CA",
        "postalCode": "91040-1957"
      },
      {
        "line": [
          "2236 Merton Ave"
        ],
        "city": "LOS ANGELES",
        "state": "CA",
        "postalCode": "90041-1915"
      },
      {
        "line": [
          "5645 Lindley Avenue"
        ],
        "city": "TARZANA",
        "state": "CA",
        "postalCode": "91356-2557"
      },
      {
        "line": [
          "20820 Earl St, Torrance"
        ],
        "city": "TORRANCE",
        "state": "CA",
        "postalCode": "90503-4307"
      },
      {
        "line": [
          "20526 Wood Ave"
        ],
        "city": "TORRANCE",
        "state": "CA",
        "postalCode": "90503-2251"
      },
      {
        "line": [
          "1745 N GRAMERCY"
        ],
        "city": "LOS ANGELES",
        "state": "CA",
        "postalCode": "90028-5863"
      },
      {
        "line": [
          "22419 Kent Avenue"
        ],
        "city": "TORRANCE",
        "state": "CA",
        "postalCode": "90505-2303"
      },
      {
        "line": [
          "7057 Shoup Ave"
        ],
        "city": "WEST HILLS",
        "state": "CA",
        "postalCode": "91307-2335"
      },
      {
        "line": [
          "27783 Center Dr"
        ],
        "city": "MISSION VIEJO",
        "state": "CA",
        "postalCode": "92692-3603"
      },
      {
        "line": [
          "4100 Hayvenhurst Ave"
        ],
        "city": "ENCINO",
        "state": "CA",
        "postalCode": "91436-3852"
      },
      {
        "line": [
          "2522 Sunnyside Ridge Rd"
        ],
        "city": "RANCHO PALOS VERDES",
        "state": "CA",
        "postalCode": "90275-5217"
      },
      {
        "line": [
          "729 N. La Jolla Ave."
        ],
        "city": "LOS ANGELES",
        "state": "CA",
        "postalCode": "90046-6807"
      },
      {
        "line": [
          "1574 Creekside Drive,"
        ],
        "city": "FOLSOM",
        "state": "CA",
        "postalCode": "95630-3451"
      },
      {
        "line": [
          "6000 Santa Rosa Rd"
        ],
        "city": "CAMARILLO",
        "state": "CA",
        "postalCode": "93012-7100"
      },
      {
        "line": [
          "6600 Sepulveda Blvd"
        ],
        "city": "VAN NUYS",
        "state": "CA",
        "postalCode": "91411-1203"
      },
      {
        "line": [
          "1533 N Stanley Ave"
        ],
        "city": "LOS ANGELES",
        "state": "CA",
        "postalCode": "90046-2710"
      },
      {
        "line": [
          "18700 BURBANK BLVD."
        ],
        "city": "TARZANA",
        "state": "CA",
        "postalCode": "91356-3367"
      },
      {
        "line": [
          "10626 Balboa Blvd."
        ],
        "city": "GRANADA HILLS",
        "state": "CA",
        "postalCode": "91344-6329"
      },
      {
        "line": [
          "5481 Torrance Blvd"
        ],
        "city": "TORRANCE",
        "state": "CA",
        "postalCode": "90503-4005"
      },
      {
        "line": [
          "8332 Huntington Drive"
        ],
        "city": "SAN GABRIEL",
        "state": "CA",
        "postalCode": "91775-1038"
      },
      {
        "line": [
          "17201 Lahey St"
        ],
        "city": "GRANADA HILLS",
        "state": "CA",
        "postalCode": "91344-4142"
      },
      {
        "line": [
          " 2544 Floradale Way"
        ],
        "city": "LINCOLN",
        "state": "CA",
        "postalCode": "95648-2458"
      },
      {
        "line": [
          "7057 Shoup Ave,"
        ],
        "city": "WEST HILLS",
        "state": "CA",
        "postalCode": "91307-3574"
      },
      {
        "line": [
          "24141 Ventura Blvd"
        ],
        "city": "CALABASAS",
        "state": "CA",
        "postalCode": "91302-3774"
      },
      {
        "line": [
          "3316 Greenville Ave."
        ],
        "city": "SIMI VALLEY",
        "state": "CA",
        "postalCode": "93063-1249"
      },
      {
        "line": [
          "1024 NORTH SEPULVIDA BLVD"
        ],
        "city": "LOS ANGELES",
        "state": "CA",
        "postalCode": "90049-2105"
      },
      {
        "line": [
          "917 N Louise S"
        ],
        "city": "GLENDALE",
        "state": "CA",
        "postalCode": "91207-2084"
      },
      {
        "line": [
          "5925 Donna Ave"
        ],
        "city": "TARZANA",
        "state": "CA",
        "postalCode": "91356-1218"
      },
      {
        "line": [
          "2522 GRAYSTONE PLACE"
        ],
        "city": "SIMI VALLEY",
        "state": "CA",
        "postalCode": "93065-2146"
      },
      {
        "line": [
          "1330 17TH ST"
        ],
        "city": "SANTA MONICA",
        "state": "CA",
        "postalCode": "90404-1902"
      },
      {
        "line": [
          "13245 archwood st"
        ],
        "city": "VAN NUYS",
        "state": "CA",
        "postalCode": "91401-1221"
      },
      {
        "line": [
          "B&C",
          "1247 25th St"
        ],
        "city": "SANTA MONICA",
        "state": "CA",
        "postalCode": "90404-1401"
      },
      {
        "line": [
          "13400 Sherman Way"
        ],
        "city": "NORTH HOLLYWOOD",
        "state": "CA",
        "postalCode": "91605-4415"
      },
      {
        "line": [
          "8107 De Soto Ave"
        ],
        "city": "CANOGA PARK",
        "state": "CA",
        "postalCode": "91304-4301"
      },
      {
        "line": [
          "1330 17th St"
        ],
        "city": "SANTA MONICA",
        "state": "CA",
        "postalCode": "90404-1902"
      },
      {
        "line": [
          "6460 Varna Ave"
        ],
        "city": "Valley Glen",
        "state": "CA",
        "postalCode": "91401-1805"
      },
      {
        "line": [
          "5270 E Los Angeles Ave"
        ],
        "city": "SIMI VALLEY",
        "state": "CA",
        "postalCode": "93063-4137"
      },
      {
        "line": [
          "250 Fairview Rd"
        ],
        "city": "WESTLAKE VILLAGE",
        "state": "CA",
        "postalCode": "91361-2456"
      },
      {
        "line": [
          "21200 Ventura Blvd"
        ],
        "city": "WOODLAND HILLS",
        "state": "CA",
        "postalCode": "91364-2106"
      },
      {
        "line": [
          "6740 WILBUR AVE"
        ],
        "city": "RESEDA",
        "state": "CA",
        "postalCode": "91335-5179"
      },
      {
        "line": [
          "943 N Cascade Dr"
        ],
        "city": "WOODBURN",
        "state": "OR",
        "postalCode": "97071-3140"
      },
      {
        "line": [
          "2520 Wigwam Pkwy"
        ],
        "city": "HENDERSON",
        "state": "NV",
        "postalCode": "89074-6226"
      },
      {
        "line": [
          "853 TAMALPAIS AVE"
        ],
        "city": "NOVATO",
        "state": "CA",
        "postalCode": "94947-3019"
      },
      {
        "line": [
          "15029 Gilmore St"
        ],
        "city": "VAN NUYS",
        "state": "CA",
        "postalCode": "91411-1425"
      },
      {
        "line": [
          "2409 Tracy Ave"
        ],
        "city": "SIMI VALLEY",
        "state": "CA",
        "postalCode": "93063-2581"
      },
      {
        "line": [
          "2375 McDonald Ct."
        ],
        "city": "SIMI VALLEY",
        "state": "CA",
        "postalCode": "93065-2426"
      },
      {
        "line": [
          "1459 Western Ave."
        ],
        "city": "GLENDALE",
        "state": "CA",
        "postalCode": "91201-1214"
      },
      {
        "line": [
          "4630 Sawtelle Blvd"
        ],
        "city": "CULVER CITY",
        "state": "CA",
        "postalCode": "90230-4833"
      },
      {
        "line": [
          "Fil AM Home for Seniors",
          " 1920 N Indian Hill Blvd"
        ],
        "city": "CLAREMONT",
        "state": "CA",
        "postalCode": "91711-2721"
      },
      {
        "line": [
          "6000 Santa Rosa Road"
        ],
        "city": "CAMARILLO",
        "state": "CA",
        "postalCode": "93012-7101"
      },
      {
        "line": [
          "9233 W. Pico Blvd.",
          "Suite 230"
        ],
        "city": "LOS ANGELES",
        "state": "CA",
        "postalCode": "90035-1385"
      },
      {
        "line": [
          "5420 Tyrone Avenue"
        ],
        "city": "Sherman Oaks",
        "state": "CA",
        "postalCode": "91401-5122"
      },
      {
        "line": [
          "6331 Simpson Ave"
        ],
        "city": "NORTH HOLLYWOOD",
        "state": "CA",
        "postalCode": "91606-3417"
      },
      {
        "line": [
          "9014 Hargis St."
        ],
        "city": "LOS ANGELES",
        "state": "CA",
        "postalCode": "90034-1927"
      },
      {
        "line": [
          "360 ARCTURUS ST"
        ],
        "city": "THOUSAND OAKS",
        "state": "CA",
        "postalCode": "91360-3010"
      },
      {
        "line": [
          "4930 Noeline Avenue"
        ],
        "city": "ENCINO",
        "state": "CA",
        "postalCode": "91436-1215"
      },
      {
        "line": [
          "22537 Marlin Place"
        ],
        "city": "WEST HILLS",
        "state": "CA",
        "postalCode": "91307-2624"
      },
      {
        "line": [
          "24305 Lyons Ave"
        ],
        "city": "NEWHALL",
        "state": "CA",
        "postalCode": "91321-2344"
      },
      {
        "line": [
          "5811 Donna Ave."
        ],
        "city": "TARZANA",
        "state": "CA",
        "postalCode": "91356-1216"
      },
      {
        "line": [
          "624 N. HARPER AVE."
        ],
        "city": "LOS ANGELES",
        "state": "CA",
        "postalCode": "90048-2225"
      },
      {
        "line": [
          "211 WEST SANTA ANITA AVENUE"
        ],
        "city": "BURBANK",
        "state": "CA",
        "postalCode": "91502-2306"
      },
      {
        "line": [
          "2177 Thousand Oaks Blvd"
        ],
        "city": "THOUSAND OAKS",
        "state": "CA",
        "postalCode": "91362-2904"
      },
      {
        "line": [
          "17613 Roscoe Blvd"
        ],
        "city": "NORTHRIDGE",
        "state": "CA",
        "postalCode": "91325-3907"
      },
      {
        "line": [
          "27736 Sycamore Creek Drive"
        ],
        "city": "VALENCIA",
        "state": "CA",
        "postalCode": "91354-1330"
      },
      {
        "line": [
          "16729 Tulsa St"
        ],
        "city": "GRANADA HILLS",
        "state": "CA",
        "postalCode": "91344-5104"
      },
      {
        "line": [
          "5165 Summit Ridge Ct"
        ],
        "city": "RENO",
        "state": "NV",
        "postalCode": "89523-9084"
      },
      {
        "line": [
          "23311 Dalbey Drive"
        ],
        "city": "Santa Clarita",
        "state": "CA",
        "postalCode": "91355-3034"
      },
      {
        "line": [
          "5527 Laurel Canyon Boulevard"
        ],
        "city": "VALLEY VILLAGE",
        "state": "CA",
        "postalCode": "91607-2116"
      },
      {
        "line": [
          "1155 Via Verde"
        ],
        "city": "SAN DIMAS",
        "state": "CA",
        "postalCode": "91773-4428"
      },
      {
        "line": [
          "8167 W 3rd St"
        ],
        "city": "LOS ANGELES",
        "state": "CA",
        "postalCode": "90048-4323"
      },
      {
        "line": [
          "822 N. Laurel avenue"
        ],
        "city": "LOS ANGELES",
        "state": "CA",
        "postalCode": "90046-6923"
      },
      {
        "line": [
          "4964 Telegraph Rd Ventura CA 93003"
        ],
        "city": "VENTURA",
        "state": "CA",
        "postalCode": "93003-8181"
      },
      {
        "line": [
          "2108 Oak St."
        ],
        "city": "SANTA MONICA",
        "state": "CA",
        "postalCode": "90405-5010"
      },
      {
        "line": [
          "7418 Stock Ranch Rd"
        ],
        "city": "CITRUS HEIGHTS",
        "state": "CA",
        "postalCode": "95621-5600"
      },
      {
        "line": [
          "6835 Hazeltine Ave"
        ],
        "city": "VAN NUYS",
        "state": "CA",
        "postalCode": "91405-3218"
      },
      {
        "line": [
          "1320 Padre Drive"
        ],
        "city": "SALINAS",
        "state": "CA",
        "postalCode": "93901-2115"
      },
      {
        "line": [
          "11500 Dolan Ave"
        ],
        "city": "DOWNEY",
        "state": "CA",
        "postalCode": "90241-4961"
      },
      {
        "line": [
          "77 DUESENBERG DR"
        ],
        "city": "Westlake Village",
        "state": "CA",
        "postalCode": "91362-3449"
      },
      {
        "line": [
          "5335 Laurel Canyon Blvd"
        ],
        "city": "VALLEY VILLAGE",
        "state": "CA",
        "postalCode": "91607-2711"
      },
      {
        "line": [
          "14122 Hubbard St"
        ],
        "city": "SYLMAR",
        "state": "CA",
        "postalCode": "91342-4712"
      },
      {
        "line": [
          "93 W Avenida de Los Arboles"
        ],
        "city": "THOUSAND OAKS",
        "state": "CA",
        "postalCode": "91360-2939"
      },
      {
        "line": [
          "6840 NESTLE AVE"
        ],
        "city": "RESEDA",
        "state": "CA",
        "postalCode": "91335-4542"
      },
      {
        "line": [
          "3535 Overland Ave"
        ],
        "city": "LOS ANGELES",
        "state": "CA",
        "postalCode": "90034-5521"
      },
      {
        "line": [
          "6909 Fallbrook Ave"
        ],
        "city": "WEST HILLS",
        "state": "CA",
        "postalCode": "91307-2513"
      },
      {
        "line": [
          "5426 Tyrone Ave"
        ],
        "city": "Sherman Oaks",
        "state": "CA",
        "postalCode": "91401-5122"
      },
      {
        "line": [
          "10363 Calvin Ave"
        ],
        "city": "LOS ANGELES",
        "state": "CA",
        "postalCode": "90025-6022"
      },
      {
        "line": [
          "Blue Skies of Laguna Niguel",
          "25437 Via Estudio,"
        ],
        "city": "LAGUNA NIGUEL",
        "state": "CA",
        "postalCode": "92677-1541"
      },
      {
        "line": [
          "COVELLO HOUSE",
          "11354 COVELLO ST"
        ],
        "city": "SUN VALLEY",
        "state": "CA",
        "postalCode": "91352-4711"
      },
      {
        "line": [
          "250 Fairview Rd"
        ],
        "city": "Thousand Oaks",
        "state": "CA",
        "postalCode": "91361-2456"
      },
      {
        "line": [
          "18441 North 87th Ave"
        ],
        "city": "PEORIA",
        "state": "AZ",
        "postalCode": "85382-8532"
      },
      {
        "line": [
          "9221 ARLETA AVE"
        ],
        "city": "Arleta",
        "state": "CA",
        "postalCode": "91331-4760"
      },
      {
        "line": [
          "16025 VENTURA BLVD"
        ],
        "city": "ENCINO",
        "state": "CA",
        "postalCode": "91436-4451"
      },
      {
        "line": [
          "12490 Fielding Cir"
        ],
        "city": "PLAYA VISTA",
        "state": "CA",
        "postalCode": "90094-2091"
      },
      {
        "line": [
          "8107 DE SOTO AVE"
        ],
        "city": "CANOGA PARK",
        "state": "CA",
        "postalCode": "91304-4301"
      },
      {
        "line": [
          "16553 Rinaldi St"
        ],
        "city": "GRANADA HILLS",
        "state": "CA",
        "postalCode": "91344-3762"
      },
      {
        "line": [
          "19518 Horst Ave"
        ],
        "city": "CERRITOS",
        "state": "CA",
        "postalCode": "90703-6900"
      },
      {
        "line": [
          "1789 S. Garth Ave"
        ],
        "city": "LOS ANGELES",
        "state": "CA",
        "postalCode": "90035-4303"
      },
      {
        "line": [
          "1955 Lomita Blvd,"
        ],
        "city": "LOMITA",
        "state": "CA",
        "postalCode": "90717-1802"
      },
      {
        "line": [
          "2365 KentField St"
        ],
        "city": "SIMI VALLEY",
        "state": "CA",
        "postalCode": "93065-1424"
      },
      {
        "line": [
          "Sea Bluffs Ivy Signature Living",
          "25411 Sea Bluffs Dr."
        ],
        "city": "DANA POINT",
        "state": "CA",
        "postalCode": "92629-2190"
      },
      {
        "line": [
          "24070 Copper Hill Drive"
        ],
        "city": "VALENCIA",
        "state": "CA",
        "postalCode": "91354-4402"
      },
      {
        "line": [
          "8138 WOODLAKE AVE"
        ],
        "city": "CANOGA PARK",
        "state": "CA",
        "postalCode": "91304-3500"
      },
      {
        "line": [
          "6900 Royer ave"
        ],
        "city": "WEST HILLS",
        "state": "CA",
        "postalCode": "91307-2505"
      },
      {
        "line": [
          "5300 E. Los Angeles avenue"
        ],
        "city": "SIMI VALLEY",
        "state": "CA",
        "postalCode": "93063-4136"
      },
      {
        "line": [
          "240 E. 6th St Los Angeles"
        ],
        "city": "LOS ANGELES",
        "state": "CA",
        "postalCode": "90023-0025"
      },
      {
        "line": [
          "24431 Lyons ave"
        ],
        "city": "NEWHALL",
        "state": "CA",
        "postalCode": "91321-2345"
      },
      {
        "line": [
          "5240 Sepulveda Blvd"
        ],
        "city": "CULVER CITY",
        "state": "CA",
        "postalCode": "90230-5214"
      },
      {
        "line": [
          "4031 Apricot Rd"
        ],
        "city": "SIMI VALLEY",
        "state": "CA",
        "postalCode": "93063-2311"
      },
      {
        "line": [
          "3575 N. Moorpark Rd"
        ],
        "city": "THOUSAND OAKS",
        "state": "CA",
        "postalCode": "91360-2666"
      },
      {
        "line": [
          "413 Ocean Ave"
        ],
        "city": "SANTA MONICA",
        "state": "CA",
        "postalCode": "90402-1625"
      },
      {
        "line": [
          "1054 Park View Dr"
        ],
        "city": "COVINA",
        "state": "CA",
        "postalCode": "91724-3747"
      },
      {
        "line": [
          "3499 Grande Vista Dr"
        ],
        "city": "THOUSAND OAKS",
        "state": "CA",
        "postalCode": "91320-1131"
      },
      {
        "line": [
          "10541 Debra Ave"
        ],
        "city": "GRANADA HILLS",
        "state": "CA",
        "postalCode": "91344-6741"
      },
      {
        "line": [
          "27350 Tampa Ave"
        ],
        "city": "HAYWARD",
        "state": "CA",
        "postalCode": "94544-4429"
      },
      {
        "line": [
          "Villa Valencia Assisted Living",
          "25000 Calle De Los Caballeros"
        ],
        "city": "LAGUNA HILLS",
        "state": "CA",
        "postalCode": "92653-1000"
      },
      {
        "line": [
          "150 Bellefontaine St."
        ],
        "city": "PASADENA",
        "state": "CA",
        "postalCode": "91105-3198"
      },
      {
        "line": [
          "Silverado The Huntington Memory Care Community",
          "1118 N Stoneman Ave."
        ],
        "city": "ALHAMBRA",
        "state": "CA",
        "postalCode": "91801-1007"
      },
      {
        "line": [
          "125 Sierra Madre Ave"
        ],
        "city": "AZUSA",
        "state": "CA",
        "postalCode": "91702-2023"
      },
      {
        "line": [
          "2655 Barry Ave."
        ],
        "city": "LOS ANGELES",
        "state": "CA",
        "postalCode": "90064-2811"
      },
      {
        "line": [
          "7040 Van Nuys Blvd."
        ],
        "city": "VAN NUYS",
        "state": "CA",
        "postalCode": "91405-3004"
      },
      {
        "line": [
          "HILLTOP HAVEN B&C",
          "20550 AETNA ST."
        ],
        "city": "WOODLAND HILLS",
        "state": "CA",
        "postalCode": "91367-5411"
      },
      {
        "line": [
          "5701 Crestridge Road"
        ],
        "city": "RANCHO PALOS VERDES",
        "state": "CA",
        "postalCode": "90275-4962"
      },
      {
        "line": [
          "12932 Vanowen St"
        ],
        "city": "NORTH HOLLYWOOD",
        "state": "CA",
        "postalCode": "91605-4851"
      },
      {
        "line": [
          "5608 Rock Creek Rd"
        ],
        "city": "AGOURA HILLS",
        "state": "CA",
        "postalCode": "91301-1540"
      },
      {
        "line": [
          "45 Erbes Rd"
        ],
        "city": "THOUSAND OAKS",
        "state": "CA",
        "postalCode": "91362-5802"
      },
      {
        "line": [
          "12260 FOOTHILL BLVD"
        ],
        "city": "SYLMAR",
        "state": "CA",
        "postalCode": "91342-6001"
      },
      {
        "line": [
          "5450 Vesper avenue"
        ],
        "city": "VAN NUYS",
        "state": "CA",
        "postalCode": "91411-4221"
      },
      {
        "line": [
          "1260 N Sierra Bonita Ave"
        ],
        "city": "PASADENA",
        "state": "CA",
        "postalCode": "91104-3147"
      },
      {
        "line": [
          "2747 ATHERWOOD AVE"
        ],
        "city": "SIMI VALLEY",
        "state": "CA",
        "postalCode": "93065-1415"
      },
      {
        "line": [
          "521 N Rowell Avenue"
        ],
        "city": "MANHATTAN BEACH",
        "state": "CA",
        "postalCode": "90266-6047"
      },
      {
        "line": [
          "761 Via Carmelitos"
        ],
        "city": "LONG BEACH",
        "state": "CA",
        "postalCode": "90805-7538"
      },
      {
        "line": [
          "12260 Foothill Blvd."
        ],
        "city": "SYLMAR",
        "state": "CA",
        "postalCode": "91342-6001"
      },
      {
        "line": [
          "1116 Cerise Ave"
        ],
        "city": "TORRANCE",
        "state": "CA",
        "postalCode": "90503-5208"
      },
      {
        "line": [
          "750 Clyde River Pl"
        ],
        "city": "OXNARD",
        "state": "CA",
        "postalCode": "93036-5573"
      },
      {
        "line": [
          "22125 Roscoe Boulevard"
        ],
        "city": "CANOGA PARK",
        "state": "CA",
        "postalCode": "91304-3839"
      },
      {
        "line": [
          "3210 W. Sepulveda Blvd"
        ],
        "city": "TORRANCE",
        "state": "CA",
        "postalCode": "90505-2719"
      },
      {
        "line": [
          "10348 Laramie ave"
        ],
        "city": "CHATSWORTH",
        "state": "CA",
        "postalCode": "91311-2531"
      },
      {
        "line": [
          "5301 F Street"
        ],
        "city": "SACRAMENTO",
        "state": "CA",
        "postalCode": "95819-3200"
      },
      {
        "line": [
          "13300 Arminta St"
        ],
        "city": "NORTH HOLLYWOOD",
        "state": "CA",
        "postalCode": "91605-1729"
      },
      {
        "line": [
          "7501 Osage Ave"
        ],
        "city": "LOS ANGELES",
        "state": "CA",
        "postalCode": "90045-1742"
      },
      {
        "line": [
          "67 Doone St"
        ],
        "city": "THOUSAND OAKS",
        "state": "CA",
        "postalCode": "91360-3513"
      },
      {
        "line": [
          "12750 Riverside Dr",
          "Valley Village"
        ],
        "city": "VALLEY VILLAGE",
        "state": "CA",
        "postalCode": "91607-3319"
      },
      {
        "line": [
          "1340 15th Street"
        ],
        "city": "SANTA MONICA",
        "state": "CA",
        "postalCode": "90404-1802"
      },
      {
        "line": [
          "1575 E. Washington Boulevard"
        ],
        "city": "PASADENA",
        "state": "CA",
        "postalCode": "91104-2675"
      },
      {
        "line": [
          "Comfort Home For The Elderly",
          "2729 Westwood Blvd"
        ],
        "city": "LOS ANGELES",
        "state": "CA",
        "postalCode": "90064-4231"
      },
      {
        "line": [
          "15516 El Cajun Place"
        ],
        "city": "SYLMAR",
        "state": "CA",
        "postalCode": "91342-3621"
      },
      {
        "line": [
          "5523 Shoup ave"
        ],
        "city": "WOODLAND HILLS",
        "state": "CA",
        "postalCode": "91367-4465"
      },
      {
        "line": [
          "915 Crenshaw Blvd"
        ],
        "city": "LOS ANGELES",
        "state": "CA",
        "postalCode": "90019-1938"
      },
      {
        "line": [
          "9023 Gaviota Ave"
        ],
        "city": "NORTH HILLS",
        "state": "CA",
        "postalCode": "91343-3012"
      },
      {
        "line": [
          "3233 W Pico Blvd,",
          "3233 W Pico Blvd"
        ],
        "city": "LOS ANGELES",
        "state": "CA",
        "postalCode": "90019-3640"
      },
      {
        "line": [
          "5416 Tyrone Ave."
        ],
        "city": "VAN NUYS",
        "state": "CA",
        "postalCode": "91401-5122"
      },
      {
        "line": [
          "4848 134 Place"
        ],
        "city": "HAWTHORNE",
        "state": "CA",
        "postalCode": "90250-5616"
      },
      {
        "line": [
          "VH Board and Care",
          "13945 SYLVAN STREET"
        ],
        "city": "VAN NUYS",
        "state": "CA",
        "postalCode": "91401-2605"
      },
      {
        "line": [
          "3340 Shelby Drive"
        ],
        "city": "LOS ANGELES",
        "state": "CA",
        "postalCode": "90034-2725"
      },
      {
        "line": [
          "23520 Wiley Canyon Rd"
        ],
        "city": "VALENCIA",
        "state": "CA",
        "postalCode": "91355-2600"
      },
      {
        "line": [
          "4926 Shenandoah Ave."
        ],
        "city": "LOS ANGELES",
        "state": "CA",
        "postalCode": "90056-1058"
      },
      {
        "line": [
          "16438 Blackhawk Street"
        ],
        "city": "GRANADA HILLS",
        "state": "CA",
        "postalCode": "91344-6731"
      },
      {
        "line": [
          "14040 Astoria St"
        ],
        "city": "SYLMAR",
        "state": "CA",
        "postalCode": "91342-2949"
      },
      {
        "line": [
          "4900 Telegraph Road"
        ],
        "city": "BAKERSFIELD",
        "state": "CA",
        "postalCode": "93303-4131"
      },
      {
        "line": [
          "1101 Secret Ravine Pkwy"
        ],
        "city": "ROSEVILLE",
        "state": "CA",
        "postalCode": "95661-4097"
      },
      {
        "line": [
          "4225 Wayvern Dr"
        ],
        "city": "SANTA ROSA",
        "state": "CA",
        "postalCode": "95409-4193"
      },
      {
        "line": [
          "7040 Van Nuys"
        ],
        "city": "VAN NUYS",
        "state": "CA",
        "postalCode": "91405-3004"
      },
      {
        "line": [
          "23520 Wiley Canyon Rd"
        ],
        "city": "VALENCIA",
        "state": "CA",
        "postalCode": "91355-2667"
      },
      {
        "line": [
          "3503 Cedar Avenue"
        ],
        "city": "LONG BEACH",
        "state": "CA",
        "postalCode": "90807-3809"
      },
      {
        "line": [
          "22853 Enadia Way"
        ],
        "city": "WEST HILLS",
        "state": "CA",
        "postalCode": "91307-2205"
      },
      {
        "line": [
          "1330 17th Street"
        ],
        "city": "SANTA MONICA",
        "state": "CA",
        "postalCode": "90404-1902"
      },
      {
        "line": [
          "120 Bellefontaine St, Pasadena"
        ],
        "city": "PASADENA",
        "state": "CA",
        "postalCode": "91105-3102"
      },
      {
        "line": [
          "5945 Capistrano Avenue"
        ],
        "city": "WOODLAND HILLS",
        "state": "CA",
        "postalCode": "91367-3346"
      },
      {
        "line": [
          "18700 Burbank Boulevard"
        ],
        "city": "TARZANA",
        "state": "CA",
        "postalCode": "91356-3367"
      },
      {
        "line": [
          "1200/1220 Cypress Point Lane"
        ],
        "city": "VENTURA",
        "state": "CA",
        "postalCode": "93003-6037"
      },
      {
        "line": [
          "22740 HATTERAS ST."
        ],
        "city": "WOODLAND HILLS",
        "state": "CA",
        "postalCode": "91367-4448"
      },
      {
        "line": [
          "18847 Thorn Crest Ct"
        ],
        "city": "Santa Clarita",
        "state": "CA",
        "postalCode": "91351-5027"
      },
      {
        "line": [
          "13960 Peach Hill Rd"
        ],
        "city": "MOORPARK",
        "state": "CA",
        "postalCode": "93021-2363"
      },
      {
        "line": [
          "23801 Newhall Ave, Newhall, CA 91321, United State"
        ],
        "city": "NEWHALL",
        "state": "CA",
        "postalCode": "91321-3126"
      }
    ],
    "extension": [
      {
        "url": "https://fhir.athena.io/StructureDefinition/ah-practice",
        "valueReference": {
          "reference": "Organization/a-1.Practice-12859"
        }
      },
      {
        "url": "https://fhir.athena.io/StructureDefinition/ah-brand",
        "valueReference": {
          "reference": "Organization/a-12859.Brand-1"
        }
      }
    ]
  },
  "fullUrl": "urn:uuid:d4e62cb9-c7cb-572d-b986-5d30a39fe576"
}