{
  "resource": {
    "resourceType": "Organization",
    "id": "c45d2ae8-e743-5cae-819d-dc10eea76d4b",
    "name": "KERNERSVILLE EMERGENCY GROUP PLLC",
    "endpoint": [
      {
        "reference": "Endpoint/27a4e967-47aa-5a9c-a572-b8297ee268a2"
      },
      {
        "reference": "Endpoint/adf7a6c1-0c71-547f-af78-eb8fb187bc47"
      }
    ],
    "identifier": [
      {
        "system": "http://hl7.org/fhir/sid/us-npi",
        "value": "1750852034"
      }
    ],
    "address": [
      {
        "line": [
          "335 NOTTINGHAM DRIVE"
        ],
        "city": "CHARLOTTE",
        "state": "NC",
        "postalCode": "28211-4112"
      },
      {
        "line": [
          "8470 GROVE CREEK DR"
        ],
        "city": "LEWISVILLE",
        "state": "NC",
        "postalCode": "27023-3004"
      },
      {
        "line": [
          "3910 N MAIN STREET",
          "TRAILER 10"
        ],
        "city": "HIGH POINT",
        "state": "NC",
        "postalCode": "27265-1151"
      },
      {
        "line": [
          "3550 WHITE SPRUCE GLEN"
        ],
        "city": "SOUTHPORT",
        "state": "NC",
        "postalCode": "28461-0078"
      },
      {
        "line": [
          "659 DAHARAN DRIVE"
        ],
        "city": "FAYETTEVILLE",
        "state": "NC",
        "postalCode": "28314-6538"
      },
      {
        "line": [
          "1320 TEAGUES CROSSING"
        ],
        "city": "WINSTON SALEM",
        "state": "NC",
        "postalCode": "27103-4861"
      },
      {
        "line": [
          "8500 FOX TAIL LANE"
        ],
        "city": "HUNTERSVILLE",
        "state": "NC",
        "postalCode": "28078-4506"
      },
      {
        "line": [
          "2729 DANDELION DRIVE"
        ],
        "city": "HIGH POINT",
        "state": "NC",
        "postalCode": "27265-7964"
      },
      {
        "line": [
          "149 WEST KINDERTON WAY",
          "APARTMENT #204"
        ],
        "city": "BERMUDA RUN",
        "state": "NC",
        "postalCode": "27006-7379"
      },
      {
        "line": [
          "318 WINDEMERE ROAD"
        ],
        "city": "WILMINGTON",
        "state": "NC",
        "postalCode": "28405-4028"
      },
      {
        "line": [
          "1006 GREENHURST ROAD"
        ],
        "city": "WINSTON SALEM",
        "state": "NC",
        "postalCode": "27104-1272"
      },
      {
        "line": [
          "3960 PATTERSON ROAD"
        ],
        "city": "CHINA GROVE",
        "state": "NC",
        "postalCode": "28023-7740"
      },
      {
        "line": [
          "491 KELLWOOD DRIVE"
        ],
        "city": "BOONE",
        "state": "NC",
        "postalCode": "28607-1111"
      },
      {
        "line": [
          "121 WYNDHAM WAY"
        ],
        "city": "WILMINGTON",
        "state": "NC",
        "postalCode": "28411-6710"
      },
      {
        "line": [
          "2833 WESLEYAN LANE"
        ],
        "city": "WINSTON SALEM",
        "state": "NC",
        "postalCode": "27106-5847"
      },
      {
        "line": [
          "10112 RIVENDELL LANE"
        ],
        "city": "CHARLOTTE",
        "state": "NC",
        "postalCode": "28269-7015"
      },
      {
        "line": [
          "15 BRACKENWOOD COURT"
        ],
        "city": "GREENSBORO",
        "state": "NC",
        "postalCode": "27407-5081"
      },
      {
        "line": [
          "1120 AUGUSTINE HEIGHTS DRIVE"
        ],
        "city": "WINSTON SALEM",
        "state": "NC",
        "postalCode": "27103-5390"
      },
      {
        "line": [
          "5010 WARFIELD DRIVE"
        ],
        "city": "GREENSBORO",
        "state": "NC",
        "postalCode": "27406-8307"
      },
      {
        "line": [
          "6299 QUEENS GATE COURT"
        ],
        "city": "CLEMMONS",
        "state": "NC",
        "postalCode": "27012-9787"
      },
      {
        "line": [
          "28 STERLING RUN DRIVE"
        ],
        "city": "FLETCHER",
        "state": "NC",
        "postalCode": "28732-7800"
      },
      {
        "line": [
          "4913 LEGACY DRIVE"
        ],
        "city": "COLFAX",
        "state": "NC",
        "postalCode": "27235-9437"
      },
      {
        "line": [
          "5203 AUTUMN CROSSING LANE"
        ],
        "city": "WINSTON SALEM",
        "state": "NC",
        "postalCode": "27103-6452"
      },
      {
        "line": [
          "11620 FOUNDERS PARK LANE"
        ],
        "city": "PINEVILLE",
        "state": "NC",
        "postalCode": "28134-7464"
      },
      {
        "line": [
          "1315 CREEKSHIRE WAY",
          "APARTMENT 248"
        ],
        "city": "WINSTON SALEM",
        "state": "NC",
        "postalCode": "27103-4054"
      },
      {
        "line": [
          "3832 EDGEWATER STREET"
        ],
        "city": "HIGH POINT",
        "state": "NC",
        "postalCode": "27265-9328"
      }
    ],
    "extension": [
      {
        "url": "https://fhir.athena.io/StructureDefinition/ah-practice",
        "valueReference": {
          "reference": "Organization/a-1.Practice-14272"
        }
      },
      {
        "url": "https://fhir.athena.io/StructureDefinition/ah-brand",
        "valueReference": {
          "reference": "Organization/a-14272.Brand-164"
        }
      }
    ]
  },
  "fullUrl": "urn:uuid:c45d2ae8-e743-5cae-819d-dc10eea76d4b"
}