{
  "resource": {
    "resourceType": "Organization",
    "id": "830577b2-7f69-5c51-98ef-e1b72647afb2",
    "name": "Albert J. Conner",
    "endpoint": [
      {
        "reference": "Endpoint/27a4e967-47aa-5a9c-a572-b8297ee268a2"
      },
      {
        "reference": "Endpoint/132b2749-fd04-54db-8edd-12f34eac5e3a"
      }
    ],
    "identifier": [
      {
        "system": "http://hl7.org/fhir/sid/us-npi",
        "value": "1548346729"
      }
    ],
    "address": [
      {
        "line": [
          "821 Hewitt Road"
        ],
        "city": "SWOOPE",
        "state": "VA",
        "postalCode": "24479-0821"
      },
      {
        "line": [
          "195 Stage Coach Road"
        ],
        "city": "STAUNTON",
        "state": "VA",
        "postalCode": "24401-0195"
      },
      {
        "line": [
          "522 Betsy Bell Road"
        ],
        "city": "STAUNTON",
        "state": "VA",
        "postalCode": "24401-0522"
      },
      {
        "line": [
          "991 Misty Court"
        ],
        "city": "HARRISONBURG",
        "state": "VA",
        "postalCode": "22801-0991"
      },
      {
        "line": [
          "68 Chestnut Ridge Road"
        ],
        "city": "STAUNTON",
        "state": "VA",
        "postalCode": "24401-0068"
      },
      {
        "line": [
          "507 Marquis Street"
        ],
        "city": "STAUNTON",
        "state": "VA",
        "postalCode": "24401-4668"
      },
      {
        "line": [
          "702 Carann"
        ],
        "city": "STAUNTON",
        "state": "VA",
        "postalCode": "24401-0702"
      },
      {
        "line": [
          "29 Mnt Spring Circle"
        ],
        "city": "STAUNTON",
        "state": "VA",
        "postalCode": "24401-0029"
      },
      {
        "line": [
          "684 Wagon Shop Road"
        ],
        "city": "MIDDLEBROOK",
        "state": "VA",
        "postalCode": "24459-0684"
      },
      {
        "line": [
          "661 old white hill road"
        ],
        "city": "STUARTS DRAFT",
        "state": "VA",
        "postalCode": "24477-0661"
      },
      {
        "line": [
          "Gypsy Hill Place 300 Churchville Ave",
          "Apt. 34"
        ],
        "city": "STAUNTON",
        "state": "VA",
        "postalCode": "24401-3214"
      },
      {
        "line": [
          "2751 Lee Jackson Hwy"
        ],
        "city": "STAUNTON",
        "state": "VA",
        "postalCode": "24401-2751"
      },
      {
        "line": [
          "229 Guthrie Road"
        ],
        "city": "STUARTS DRAFT",
        "state": "VA",
        "postalCode": "24477-0229"
      },
      {
        "line": [
          "868 Broadhead School Rd"
        ],
        "city": "GREENVILLE",
        "state": "VA",
        "postalCode": "24440-0868"
      },
      {
        "line": [
          "66 windmill lane"
        ],
        "city": "STUARTS DRAFT",
        "state": "VA",
        "postalCode": "24477-0066"
      },
      {
        "line": [
          "817 Fisher Circle"
        ],
        "city": "STAUNTON",
        "state": "VA",
        "postalCode": "24401-0817"
      },
      {
        "line": [
          "34 Swisher Truck lane"
        ],
        "city": "STAUNTON",
        "state": "VA",
        "postalCode": "24401-0034"
      },
      {
        "line": [
          "2388 Lee Jackson Hwy"
        ],
        "city": "STAUNTON",
        "state": "VA",
        "postalCode": "24401-2388"
      },
      {
        "line": [
          "507 Marquis street"
        ],
        "city": "STAUNTON",
        "state": "VA",
        "postalCode": "24401-0507"
      },
      {
        "line": [
          "609 Stuarts Draft Hwy"
        ],
        "city": "STAUNTON",
        "state": "VA",
        "postalCode": "24401-6920"
      },
      {
        "line": [
          "71 Hudson Ave"
        ],
        "city": "STAUNTON",
        "state": "VA",
        "postalCode": "24401-0071"
      },
      {
        "line": [
          "56 Spring Crest Lane",
          "Apt 114"
        ],
        "city": "STAUNTON",
        "state": "VA",
        "postalCode": "24401-0056"
      },
      {
        "line": [
          "9 Wood Lotts Lane"
        ],
        "city": "STAUNTON",
        "state": "VA",
        "postalCode": "24401-0009"
      },
      {
        "line": [
          "508 Almo Chapel Road"
        ],
        "city": "STEELES TAVERN",
        "state": "VA",
        "postalCode": "24476-0508"
      },
      {
        "line": [
          "6160 Lee Jackson Hwy"
        ],
        "city": "RAPHINE",
        "state": "VA",
        "postalCode": "24472-6160"
      },
      {
        "line": [
          "367 White Oak Gap Road"
        ],
        "city": "STAUNTON",
        "state": "VA",
        "postalCode": "24401-0367"
      }
    ],
    "extension": [
      {
        "url": "https://fhir.athena.io/StructureDefinition/ah-practice",
        "valueReference": {
          "reference": "Organization/a-1.Practice-6857"
        }
      },
      {
        "url": "https://fhir.athena.io/StructureDefinition/ah-brand",
        "valueReference": {
          "reference": "Organization/a-6857.Brand-1"
        }
      }
    ]
  },
  "fullUrl": "urn:uuid:830577b2-7f69-5c51-98ef-e1b72647afb2"
}