{
  "resource": {
    "resourceType": "Organization",
    "id": "2eeb08f3-5cb5-51ff-94cf-1b0a44e4624d",
    "name": "NYP Medical Groups myHEALTH",
    "endpoint": [
      {
        "reference": "Endpoint/27a4e967-47aa-5a9c-a572-b8297ee268a2"
      },
      {
        "reference": "Endpoint/8d4398b3-4631-56f3-8b92-ee64e6d59c69"
      }
    ],
    "identifier": [
      {
        "system": "http://hl7.org/fhir/sid/us-npi",
        "value": "1225222953"
      },
      {
        "system": "http://hl7.org/fhir/sid/us-npi",
        "value": "1003114851"
      },
      {
        "system": "http://hl7.org/fhir/sid/us-npi",
        "value": "1023257441"
      },
      {
        "system": "http://hl7.org/fhir/sid/us-npi",
        "value": "1083045090"
      }
    ],
    "address": [
      {
        "line": [
          "1985 Crompond Road",
          "Building E"
        ],
        "city": "CORTLANDT MANOR",
        "state": "NY",
        "postalCode": "10567-4146"
      },
      {
        "line": [
          "525 East 68th Street"
        ],
        "city": "New York",
        "state": "NY",
        "postalCode": "10065-4870"
      },
      {
        "line": [
          "55 Palmer Avenue"
        ],
        "city": "Bronxville",
        "state": "NY",
        "postalCode": "10708-3403"
      },
      {
        "line": [
          "1981 Marcus Avenue"
        ],
        "city": "New Hyde Park",
        "state": "NY",
        "postalCode": "11042-2060"
      },
      {
        "line": [
          "1990 Central Park Avenue"
        ],
        "city": "YONKERS",
        "state": "NY",
        "postalCode": "10710-5108"
      },
      {
        "line": [
          "56-45 Main Street"
        ],
        "city": "Flushing",
        "state": "NY",
        "postalCode": "11355-5045"
      },
      {
        "line": [
          "1978 Crompond Road",
          "Suite G1"
        ],
        "city": "Cortlandt Manor",
        "state": "NY",
        "postalCode": "10567-4111"
      },
      {
        "line": [
          "7702 16th Avenue"
        ],
        "city": "Brooklyn",
        "state": "NY",
        "postalCode": "11214-1002"
      },
      {
        "line": [
          "53 Peekskill Hollow Rd"
        ],
        "city": "PUTNAM VALLEY",
        "state": "NY",
        "postalCode": "10579-3200"
      },
      {
        "line": [
          "139-34 Booth Memorial Avenue"
        ],
        "city": "FLUSHING",
        "state": "NY",
        "postalCode": "11355-5016"
      },
      {
        "line": [
          "170 William Street"
        ],
        "city": "New York",
        "state": "NY",
        "postalCode": "10038-2612"
      },
      {
        "line": [
          "55 Palmer Avenue"
        ],
        "city": "BRONXVILLE",
        "state": "NY",
        "postalCode": "10708-3403"
      },
      {
        "line": [
          "506 6th Street"
        ],
        "city": "Brooklyn",
        "state": "NY",
        "postalCode": "11215-3671"
      },
      {
        "line": [
          "420 East 76th Street"
        ],
        "city": "New York",
        "state": "NY",
        "postalCode": "10021-3396"
      },
      {
        "line": [
          "1985 Crompond Rd"
        ],
        "city": "CORTLANDT MANOR",
        "state": "NY",
        "postalCode": "10567-4146"
      },
      {
        "line": [
          "5901 Palisade Avenue"
        ],
        "city": "BRONX",
        "state": "NY",
        "postalCode": "10471-1205"
      },
      {
        "line": [
          "29 Westbrook Drive"
        ],
        "city": "CORTLANDT MANOR",
        "state": "NY",
        "postalCode": "10567-1004"
      },
      {
        "line": [
          "1320 York Avenue"
        ],
        "city": "Amawalk",
        "state": "NY",
        "postalCode": "10501-2222"
      },
      {
        "line": [
          "56-45 Main Street"
        ],
        "city": "FLUSHING",
        "state": "NY",
        "postalCode": "11355-5045"
      },
      {
        "line": [
          "435 9th Street"
        ],
        "city": "Brooklyn",
        "state": "NY",
        "postalCode": "11215-4520"
      },
      {
        "line": [
          "506 6th Street",
          "Buckley 4"
        ],
        "city": "Brooklyn",
        "state": "NY",
        "postalCode": "11215-3671"
      },
      {
        "line": [
          "255 Lafayette Avenue"
        ],
        "city": "SUFFERN",
        "state": "NY",
        "postalCode": "10901-7517"
      },
      {
        "line": [
          "622 West 168th Street"
        ],
        "city": "New York",
        "state": "NY",
        "postalCode": "10032-3720"
      },
      {
        "line": [
          "263 7th Avenue",
          "Suite 3A"
        ],
        "city": "Brooklyn",
        "state": "NY",
        "postalCode": "11215-3693"
      },
      {
        "line": [
          "2115 Pitman Avenue"
        ],
        "city": "Bronx",
        "state": "NY",
        "postalCode": "10466-1928"
      },
      {
        "line": [
          "670 Stoneleigh Avenue"
        ],
        "city": "Carmel",
        "state": "NY",
        "postalCode": "10512-3997"
      },
      {
        "line": [
          "50 Court Street",
          "12th Floor"
        ],
        "city": "Brooklyn",
        "state": "NY",
        "postalCode": "11201-4879"
      },
      {
        "line": [
          "55 Grasslands Road"
        ],
        "city": "Valhalla",
        "state": "NY",
        "postalCode": "10595-1655"
      },
      {
        "line": [
          "1980 Crompond Road"
        ],
        "city": "Cortlandt Manor",
        "state": "NY",
        "postalCode": "10567-4144"
      },
      {
        "line": [
          "160 N Midland Avenue"
        ],
        "city": "NYACK",
        "state": "NY",
        "postalCode": "10960-2492"
      },
      {
        "line": [
          "2050 East Main Street",
          "Suite 15"
        ],
        "city": "Cortlandt Manor",
        "state": "NY",
        "postalCode": "10567-2502"
      },
      {
        "line": [
          "1320 York Avenue"
        ],
        "city": "Yorktown Heights",
        "state": "NY",
        "postalCode": "10598-2939"
      },
      {
        "line": [
          "1981 Marcus Avenue",
          "Suite 208"
        ],
        "city": "NEW HYDE PARK",
        "state": "NY",
        "postalCode": "11042-2060"
      },
      {
        "line": [
          "769 54th Street"
        ],
        "city": "Brooklyn",
        "state": "NY",
        "postalCode": "11220-3282"
      }
    ],
    "extension": [
      {
        "url": "https://fhir.athena.io/StructureDefinition/ah-practice",
        "valueReference": {
          "reference": "Organization/a-1.Practice-11917"
        }
      },
      {
        "url": "https://fhir.athena.io/StructureDefinition/ah-brand",
        "valueReference": {
          "reference": "Organization/a-11917.Brand-1"
        }
      }
    ]
  },
  "fullUrl": "urn:uuid:2eeb08f3-5cb5-51ff-94cf-1b0a44e4624d"
}