{
  "resource": {
    "resourceType": "Organization",
    "id": "6a32f6e0-9e17-5231-86c0-ef7ac5523535",
    "name": "Mozaic Care",
    "endpoint": [
      {
        "reference": "Endpoint/27a4e967-47aa-5a9c-a572-b8297ee268a2"
      },
      {
        "reference": "Endpoint/6ecbcbad-cd22-5af1-b656-5a5b68bba6f8"
      }
    ],
    "identifier": [
      {
        "system": "http://hl7.org/fhir/sid/us-npi",
        "value": "1932622677"
      }
    ],
    "address": [
      {
        "line": [
          "45 CASTRO ST, SUITE 324"
        ],
        "city": "SAN FRANCISCO",
        "state": "CA",
        "postalCode": "94114-1029"
      },
      {
        "line": [
          "1101 VAN NESS AVE"
        ],
        "city": "SAN FRANCISCO",
        "state": "CA",
        "postalCode": "94109-6919"
      },
      {
        "line": [
          "CASTRO AND DUBOCE STREETS",
          "NORTH TOWER, LEVEL A"
        ],
        "city": "SAN FRANCISCO",
        "state": "CA",
        "postalCode": "94114-1019"
      },
      {
        "line": [
          "575 SIR FRANCIS DRAKE BLVD., SUITE 3"
        ],
        "city": "GREENBRAE",
        "state": "CA",
        "postalCode": "94904-2307"
      },
      {
        "line": [
          "3555 CESAR CHAVEZ"
        ],
        "city": "SAN FRANCISCO",
        "state": "CA",
        "postalCode": "94110-4403"
      },
      {
        "line": [
          "45 CASTRO ST., STE 324"
        ],
        "city": "SAN FRANCISCO",
        "state": "CA",
        "postalCode": "94114-1029"
      },
      {
        "line": [
          "CASTRO AND DUBOCE STREETS"
        ],
        "city": "SAN FRANCISCO",
        "state": "CA",
        "postalCode": "94114-1019"
      },
      {
        "line": [
          "900 HYDE STREET"
        ],
        "city": "SAN FRANCISCO",
        "state": "CA",
        "postalCode": "94109-4806"
      }
    ],
    "extension": [
      {
        "url": "https://fhir.athena.io/StructureDefinition/ah-practice",
        "valueReference": {
          "reference": "Organization/a-1.Practice-18503"
        }
      },
      {
        "url": "https://fhir.athena.io/StructureDefinition/ah-brand",
        "valueReference": {
          "reference": "Organization/a-18503.Brand-1"
        }
      }
    ]
  },
  "fullUrl": "urn:uuid:6a32f6e0-9e17-5231-86c0-ef7ac5523535"
}