{
  "resource": {
    "resourceType": "Organization",
    "id": "7ac63c2a-c96b-59cc-bf69-3007e95d060f",
    "name": "LONGHORN EYE CARE, PLLC",
    "endpoint": [
      {
        "reference": "Endpoint/27a4e967-47aa-5a9c-a572-b8297ee268a2"
      },
      {
        "reference": "Endpoint/877c76c7-336c-5807-838a-7e06a1cbe815"
      }
    ],
    "identifier": [
      {
        "system": "http://hl7.org/fhir/sid/us-npi",
        "value": "1427576685"
      }
    ],
    "address": [
      {
        "line": [
          "1500 Red River St"
        ],
        "city": "AUSTIN",
        "state": "TX",
        "postalCode": "78701-1918"
      },
      {
        "line": [
          "21315 N SH 130",
          "STE B"
        ],
        "city": "PFLUGERVILLE",
        "state": "TX",
        "postalCode": "78660-2678"
      },
      {
        "line": [
          "2400 ROUND ROCK AVENUE"
        ],
        "city": "ROUND ROCK",
        "state": "TX",
        "postalCode": "78681-4004"
      },
      {
        "line": [
          "747 HIGHWAY 71 WEST #550"
        ],
        "city": "BASTROP",
        "state": "TX",
        "postalCode": "78602-4152"
      },
      {
        "line": [
          "85 TX-150 LOOP"
        ],
        "city": "BASTROP",
        "state": "TX",
        "postalCode": "78602-3727"
      },
      {
        "line": [
          "1201 Hill Rd"
        ],
        "city": "SMITHVILLE",
        "state": "TX",
        "postalCode": "78957-9533"
      },
      {
        "line": [
          "1101 WOLF LAKE DR # 125C"
        ],
        "city": "GEORGETOWN",
        "state": "TX",
        "postalCode": "78628-3778"
      },
      {
        "line": [
          "501 East Palm Valley BLVD"
        ],
        "city": "ROUND ROCK",
        "state": "TX",
        "postalCode": "78664-3000"
      },
      {
        "line": [
          "4900 Mueller Blvd"
        ],
        "city": "AUSTIN",
        "state": "TX",
        "postalCode": "78723-3079"
      },
      {
        "line": [
          "1500 RED RIVER STREET"
        ],
        "city": "AUSTIN",
        "state": "TX",
        "postalCode": "78701-1918"
      }
    ],
    "extension": [
      {
        "url": "https://fhir.athena.io/StructureDefinition/ah-practice",
        "valueReference": {
          "reference": "Organization/a-1.Practice-16646"
        }
      },
      {
        "url": "https://fhir.athena.io/StructureDefinition/ah-brand",
        "valueReference": {
          "reference": "Organization/a-16646.Brand-1"
        }
      }
    ]
  },
  "fullUrl": "urn:uuid:7ac63c2a-c96b-59cc-bf69-3007e95d060f"
}