{
  "resource": {
    "resourceType": "Organization",
    "id": "7c1aa530-9810-5e59-8d5a-9b1c89d76769",
    "name": "Eastside Podiatry",
    "endpoint": [
      {
        "reference": "Endpoint/27a4e967-47aa-5a9c-a572-b8297ee268a2"
      },
      {
        "reference": "Endpoint/adf6ed24-3faa-5d93-837e-c39cae2ee3bc"
      }
    ],
    "identifier": [
      {
        "system": "http://hl7.org/fhir/sid/us-npi",
        "value": "1144377821"
      }
    ],
    "address": [
      {
        "line": [
          "4800 CADIEUX RD"
        ],
        "city": "DETROIT",
        "state": "MI",
        "postalCode": "48224-2271"
      },
      {
        "line": [
          "21260 MACK AVE"
        ],
        "city": "GROSSE POINTE",
        "state": "MI",
        "postalCode": "48236-1046"
      },
      {
        "line": [
          "468 CADIEUX ROAD"
        ],
        "city": "GROSSE POINTE",
        "state": "MI",
        "postalCode": "48230-1592"
      },
      {
        "line": [
          "22101 MOROSS RD",
          "6TH FLOOR"
        ],
        "city": "GROSSE POINTE",
        "state": "MI",
        "postalCode": "48236-2148"
      },
      {
        "line": [
          "22101 MOROSS RD"
        ],
        "city": "GROSSE POINTE",
        "state": "MI",
        "postalCode": "48236-2148"
      },
      {
        "line": [
          "27351 DEQUINDRE ROAD"
        ],
        "city": "MADISON HEIGHTS",
        "state": "MI",
        "postalCode": "48071-3487"
      },
      {
        "line": [
          "11900 TWELVE MILE RD",
          "STE 208"
        ],
        "city": "WARREN",
        "state": "MI",
        "postalCode": "48093-3472"
      },
      {
        "line": [
          "11800 TWELVE MILE RD"
        ],
        "city": "WARREN",
        "state": "MI",
        "postalCode": "48093-3472"
      },
      {
        "line": [
          "22151 MOROSS RD"
        ],
        "city": "GROSSE POINTE",
        "state": "MI",
        "postalCode": "48236-2144"
      },
      {
        "line": [
          "PATIENTS ADDRESS"
        ],
        "city": "SAINT CLAIR SHORES",
        "state": "MI",
        "postalCode": "48080-4311"
      },
      {
        "line": [
          "26001 JEFFERSON AVE"
        ],
        "city": "SAINT CLAIR SHORES",
        "state": "MI",
        "postalCode": "48081-2309"
      },
      {
        "line": [
          "26101 JEFFERSON AVE"
        ],
        "city": "SAINT CLAIR SHORES",
        "state": "MI",
        "postalCode": "48080-2348"
      },
      {
        "line": [
          "16815 E JEFFERSON AVE",
          "STE L20"
        ],
        "city": "GROSSE POINTE",
        "state": "MI",
        "postalCode": "48230-1923"
      },
      {
        "line": [
          "24025 GREATER MACK AVE",
          "STE 101"
        ],
        "city": "SAINT CLAIR SHORES",
        "state": "MI",
        "postalCode": "48080-4311"
      }
    ],
    "extension": [
      {
        "url": "https://fhir.athena.io/StructureDefinition/ah-practice",
        "valueReference": {
          "reference": "Organization/a-1.Practice-21474"
        }
      },
      {
        "url": "https://fhir.athena.io/StructureDefinition/ah-brand",
        "valueReference": {
          "reference": "Organization/a-21474.Brand-1"
        }
      }
    ]
  },
  "fullUrl": "urn:uuid:7c1aa530-9810-5e59-8d5a-9b1c89d76769"
}