{
  "resource": {
    "resourceType": "Organization",
    "id": "7ceefb79-ee94-55c8-800c-c7ad2abfc0c1",
    "name": "KINGHORN HEALTH AND WELLNESS",
    "endpoint": [
      {
        "reference": "Endpoint/27a4e967-47aa-5a9c-a572-b8297ee268a2"
      },
      {
        "reference": "Endpoint/1ebcd258-f191-5ca8-bc00-8fc52b0f6888"
      }
    ],
    "identifier": [
      {
        "system": "http://hl7.org/fhir/sid/us-npi",
        "value": "1639772049"
      }
    ],
    "address": [
      {
        "line": [
          "1950 1ST STREET"
        ],
        "city": "IDAHO FALLS",
        "state": "ID",
        "postalCode": "83401-4342"
      },
      {
        "line": [
          "3400 S 5TH W"
        ],
        "city": "IDAHO FALLS",
        "state": "ID",
        "postalCode": "83402-7309"
      },
      {
        "line": [
          "3767 PROFESSIONAL WAY, 1F"
        ],
        "city": "IDAHO FALLS",
        "state": "ID",
        "postalCode": "83402-4342"
      },
      {
        "line": [
          "530 RIVER POINTE LN"
        ],
        "city": "SHELLEY",
        "state": "ID",
        "postalCode": "83274-4916"
      },
      {
        "line": [
          "898 S MERIDIAN ST"
        ],
        "city": "BLACKFOOT",
        "state": "ID",
        "postalCode": "83221-2660"
      },
      {
        "line": [
          "840 1ST STREET"
        ],
        "city": "IDAHO FALLS",
        "state": "ID",
        "postalCode": "83401-4065"
      },
      {
        "line": [
          "1405 CURLEW DR"
        ],
        "city": "AMMON",
        "state": "ID",
        "postalCode": "83406-4764"
      },
      {
        "line": [
          "2001 S. WOODRUFF AVE STE 20"
        ],
        "city": "IDAHO FALLS",
        "state": "ID",
        "postalCode": "83404-6373"
      },
      {
        "line": [
          "2815 HUNTERS LOOP"
        ],
        "city": "BLACKFOOT",
        "state": "ID",
        "postalCode": "83221-6206"
      },
      {
        "line": [
          "3620 POTOMAC WAY, 1F"
        ],
        "city": "IDAHO FALLS",
        "state": "ID",
        "postalCode": "83404-8286"
      },
      {
        "line": [
          "4000 S 25TH E"
        ],
        "city": "IDAHO FALLS",
        "state": "ID",
        "postalCode": "83404-7524"
      },
      {
        "line": [
          "3310 VALENCIA DR 1F"
        ],
        "city": "IDAHO FALLS",
        "state": "ID",
        "postalCode": "83404-7502"
      },
      {
        "line": [
          "2820 HUNTERS LOOP"
        ],
        "city": "BLACKFOOT",
        "state": "ID",
        "postalCode": "83221-6206"
      },
      {
        "line": [
          "495 EMERALD AVE"
        ],
        "city": "BLACKFOOT",
        "state": "ID",
        "postalCode": "83221-3968"
      },
      {
        "line": [
          "850 LINCOLN DR"
        ],
        "city": "IDAHO FALLS",
        "state": "ID",
        "postalCode": "83401-4922"
      },
      {
        "line": [
          "175 CONSTELLATION DR, 1F"
        ],
        "city": "IDAHO FALLS",
        "state": "ID",
        "postalCode": "83402-4988"
      },
      {
        "line": [
          "1885 PARKWOOD ST"
        ],
        "city": "IDAHO FALLS",
        "state": "ID",
        "postalCode": "83401-6135"
      }
    ],
    "extension": [
      {
        "url": "https://fhir.athena.io/StructureDefinition/ah-practice",
        "valueReference": {
          "reference": "Organization/a-1.Practice-22933"
        }
      },
      {
        "url": "https://fhir.athena.io/StructureDefinition/ah-brand",
        "valueReference": {
          "reference": "Organization/a-22933.Brand-1"
        }
      }
    ]
  },
  "fullUrl": "urn:uuid:7ceefb79-ee94-55c8-800c-c7ad2abfc0c1"
}