{
  "resource": {
    "resourceType": "Organization",
    "id": "92166546-8664-51a3-b22e-9ada0fa73cc1",
    "name": "Village Podiatry",
    "endpoint": [
      {
        "reference": "Endpoint/27a4e967-47aa-5a9c-a572-b8297ee268a2"
      },
      {
        "reference": "Endpoint/54027628-aef5-52be-ab8a-d8c9523ac90f"
      }
    ],
    "identifier": [
      {
        "system": "http://hl7.org/fhir/sid/us-npi",
        "value": "1508846718"
      }
    ],
    "address": [
      {
        "line": [
          "1199 PRINCE AVE"
        ],
        "city": "ATHENS",
        "state": "GA",
        "postalCode": "30606-2797"
      },
      {
        "line": [
          "8954 HOSPITAL DR"
        ],
        "city": "DOUGLASVILLE",
        "state": "GA",
        "postalCode": "30134-2272"
      },
      {
        "line": [
          "705 Dixie Street"
        ],
        "city": "CARROLLTON",
        "state": "GA",
        "postalCode": "30117-3818"
      },
      {
        "line": [
          "5700 Hillandale Dr",
          "Suite 220"
        ],
        "city": "LITHONIA",
        "state": "GA",
        "postalCode": "30058-4103"
      },
      {
        "line": [
          "1000 PROFESSIONAL WAY"
        ],
        "city": "WOODSTOCK",
        "state": "GA",
        "postalCode": "30188-3873"
      },
      {
        "line": [
          "2020 Peachtree Rd NW"
        ],
        "city": "ATLANTA",
        "state": "GA",
        "postalCode": "30309-1426"
      },
      {
        "line": [
          "1700 MEDICAL WAY"
        ],
        "city": "SNELLVILLE",
        "state": "GA",
        "postalCode": "30078-2195"
      },
      {
        "line": [
          "925 Douthit Ferry Rd"
        ],
        "city": "CARTERSVILLE",
        "state": "GA",
        "postalCode": "30120-6600"
      },
      {
        "line": [
          "100 Frist Court"
        ],
        "city": "COLUMBUS",
        "state": "GA",
        "postalCode": "31909-3578"
      },
      {
        "line": [
          "100 GREYSTONE POWER BLVD"
        ],
        "city": "DALLAS",
        "state": "GA",
        "postalCode": "30157-0908"
      },
      {
        "line": [
          "5126 Hospital Dr NE"
        ],
        "city": "COVINGTON",
        "state": "GA",
        "postalCode": "30014-2566"
      },
      {
        "line": [
          "3620 Howell Ferry Rd"
        ],
        "city": "DULUTH",
        "state": "GA",
        "postalCode": "30096-3178"
      },
      {
        "line": [
          "745 Poplar Rd."
        ],
        "city": "NEWNAN",
        "state": "GA",
        "postalCode": "30265-1618"
      },
      {
        "line": [
          "743 Spring St NE"
        ],
        "city": "GAINESVILLE",
        "state": "GA",
        "postalCode": "30501-3715"
      },
      {
        "line": [
          "777 Hemlock St"
        ],
        "city": "MACON",
        "state": "GA",
        "postalCode": "31201-2102"
      },
      {
        "line": [
          "550 PEACHTREE ST NE"
        ],
        "city": "ATLANTA",
        "state": "GA",
        "postalCode": "30308-2247"
      },
      {
        "line": [
          "2518 Jimmy Lee Smith Pkwy"
        ],
        "city": "HIRAM",
        "state": "GA",
        "postalCode": "30141-2068"
      },
      {
        "line": [
          "1240 HIGHWAY 54 W STE 312 BLDG 300"
        ],
        "city": "FAYETTEVILLE",
        "state": "GA",
        "postalCode": "30214-4563"
      },
      {
        "line": [
          "1000 JOHNSON FERRY RD"
        ],
        "city": "ATLANTA",
        "state": "GA",
        "postalCode": "30342-1611"
      },
      {
        "line": [
          "705 Juniper St NE"
        ],
        "city": "ATLANTA",
        "state": "GA",
        "postalCode": "30308-1307"
      },
      {
        "line": [
          "3950 Austell Rd SW"
        ],
        "city": "AUSTELL",
        "state": "GA",
        "postalCode": "30106-1121"
      },
      {
        "line": [
          "1000 MEDICAL CENTER BLVD"
        ],
        "city": "LAWRENCEVILLE",
        "state": "GA",
        "postalCode": "30045-7694"
      },
      {
        "line": [
          "299 COUNTRY CLUB DR"
        ],
        "city": "STOCKBRIDGE",
        "state": "GA",
        "postalCode": "30281-7350"
      },
      {
        "line": [
          "3000 Hospital Blvd"
        ],
        "city": "ROSWELL",
        "state": "GA",
        "postalCode": "30076-4915"
      },
      {
        "line": [
          "960 JOE FRANK HARRIS PKWY SE"
        ],
        "city": "CARTERSVILLE",
        "state": "GA",
        "postalCode": "30120-2129"
      },
      {
        "line": [
          "5401 LAKE OCONEE PKWY"
        ],
        "city": "GREENSBORO",
        "state": "GA",
        "postalCode": "30642-4232"
      },
      {
        "line": [
          "1833 Clifton RD, NE"
        ],
        "city": "ATLANTA",
        "state": "GA",
        "postalCode": "30329-4021"
      },
      {
        "line": [
          "2518 Jimmy Lee Smith Parkway"
        ],
        "city": "HIRAM",
        "state": "GA",
        "postalCode": "30141-9999"
      },
      {
        "line": [
          "3655 HOWELL FERRY RD",
          "STE 100"
        ],
        "city": "DULUTH",
        "state": "GA",
        "postalCode": "30096-3186"
      },
      {
        "line": [
          "2327 N HIGHWAY 27"
        ],
        "city": "CARROLLTON",
        "state": "GA",
        "postalCode": "30117-6701"
      },
      {
        "line": [
          "3747 ROSWELL RD",
          "STE 302"
        ],
        "city": "MARIETTA",
        "state": "GA",
        "postalCode": "30062-6227"
      },
      {
        "line": [
          "1968 Peachtree Rd"
        ],
        "city": "ATLANTA",
        "state": "GA",
        "postalCode": "30309-1281"
      },
      {
        "line": [
          "677 Church Street NE"
        ],
        "city": "MARIETTA",
        "state": "GA",
        "postalCode": "30060-1101"
      },
      {
        "line": [
          "132 RIVERSTONE TERRACE",
          "SUITE 101"
        ],
        "city": "CANTON",
        "state": "GA",
        "postalCode": "30114-1703"
      },
      {
        "line": [
          "1224 SHERWOOD PARK DR"
        ],
        "city": "GAINESVILLE",
        "state": "GA",
        "postalCode": "30501-3445"
      },
      {
        "line": [
          "132 RIVERSTONE TERRACE",
          "STE 101"
        ],
        "city": "CANTON",
        "state": "GA",
        "postalCode": "30114-1703"
      },
      {
        "line": [
          "2801 DEKALB MEDICAL PKWY"
        ],
        "city": "LITHONIA",
        "state": "GA",
        "postalCode": "30058-4996"
      },
      {
        "line": [
          "120 Vann Street NE"
        ],
        "city": "MARIETTA",
        "state": "GA",
        "postalCode": "30060-7291"
      },
      {
        "line": [
          "6698 Washington Road"
        ],
        "city": "APPLING",
        "state": "GA",
        "postalCode": "30802-4120"
      },
      {
        "line": [
          "50 CAGLE MILL RD S"
        ],
        "city": "JASPER",
        "state": "GA",
        "postalCode": "30143-6254"
      },
      {
        "line": [
          "3950 TOWNE CLUB PKWY"
        ],
        "city": "CUMMING",
        "state": "GA",
        "postalCode": "30041-6030"
      },
      {
        "line": [
          "3200 HIGHLANDS PKWY SE STE 100"
        ],
        "city": "SMYRNA",
        "state": "GA",
        "postalCode": "30082-5192"
      },
      {
        "line": [
          "6325 HOSPITAL PARKWAY"
        ],
        "city": "Johns Creek",
        "state": "GA",
        "postalCode": "30097-5775"
      },
      {
        "line": [
          "1515 RIVER PL"
        ],
        "city": "BRASELTON",
        "state": "GA",
        "postalCode": "30517-5602"
      },
      {
        "line": [
          "2045 Peachtree Road NE",
          "Suite 810"
        ],
        "city": "ATLANTA",
        "state": "GA",
        "postalCode": "30309-1412"
      },
      {
        "line": [
          "2295 Parklake Drive",
          "Suite 150"
        ],
        "city": "ATLANTA",
        "state": "GA",
        "postalCode": "30345-2825"
      },
      {
        "line": [
          "450 NORTHSIDE CHEROKEE BLVD"
        ],
        "city": "CANTON",
        "state": "GA",
        "postalCode": "30115-8015"
      },
      {
        "line": [
          "100 Market Place Blvd",
          "Ste 302"
        ],
        "city": "CARTERSVILLE",
        "state": "GA",
        "postalCode": "30121-8717"
      },
      {
        "line": [
          "1500 S. Johnson Ferr`"
        ],
        "city": "ATLANTA",
        "state": "GA",
        "postalCode": "30319-1612"
      },
      {
        "line": [
          "1200 NORTHSIDE FORSYTH DR"
        ],
        "city": "CUMMING",
        "state": "GA",
        "postalCode": "30041-7659"
      },
      {
        "line": [
          "5665 Peachtree Dunwoody Rd"
        ],
        "city": "ATLANTA",
        "state": "GA",
        "postalCode": "30342-1701"
      },
      {
        "line": [
          "316 N BROAD ST"
        ],
        "city": "WINDER",
        "state": "GA",
        "postalCode": "30680-2150"
      },
      {
        "line": [
          "2701 N DECATUR RD"
        ],
        "city": "DECATUR",
        "state": "GA",
        "postalCode": "30033-5918"
      },
      {
        "line": [
          "422 North McGriff St"
        ],
        "city": "WHIGHAM",
        "state": "GA",
        "postalCode": "39897-2146"
      },
      {
        "line": [
          "1000 MEDICAL CENTER BLVD"
        ],
        "city": "LAWRENCEVILLE",
        "state": "GA",
        "postalCode": "30046-7694"
      },
      {
        "line": [
          "PO BOX 741891"
        ],
        "city": "ATLANTA",
        "state": "GA",
        "postalCode": "30374-1891"
      },
      {
        "line": [
          "1945 BEVERLY RD"
        ],
        "city": "GAINESVILLE",
        "state": "GA",
        "postalCode": "30501-2034"
      },
      {
        "line": [
          "1601 Watson Blvd"
        ],
        "city": "WARNER ROBINS",
        "state": "GA",
        "postalCode": "31093-3431"
      },
      {
        "line": [
          "300 Industrial Blvd"
        ],
        "city": "DUBLIN",
        "state": "GA",
        "postalCode": "31021-2800"
      },
      {
        "line": [
          "3625 BRASELTON HWY STE 206"
        ],
        "city": "DACULA",
        "state": "GA",
        "postalCode": "30019-4695"
      },
      {
        "line": [
          "1255 Highway 54 W"
        ],
        "city": "FAYETTEVILLE",
        "state": "GA",
        "postalCode": "30214-4526"
      },
      {
        "line": [
          "2708 Lee Street"
        ],
        "city": "BRUNSWICK",
        "state": "GA",
        "postalCode": "31520-4932"
      },
      {
        "line": [
          "2470 DUG GAP RD"
        ],
        "city": "DALTON",
        "state": "GA",
        "postalCode": "30720-9210"
      },
      {
        "line": [
          "1610 MULKEY RD"
        ],
        "city": "AUSTELL",
        "state": "GA",
        "postalCode": "30106-1182"
      },
      {
        "line": [
          "1000 Medical Center Blvd"
        ],
        "city": "LAWRENCEVILLE",
        "state": "GA",
        "postalCode": "30046-7694"
      },
      {
        "line": [
          "1610 Mulkey Rd"
        ],
        "city": "AUSTELL",
        "state": "GA",
        "postalCode": "30106-1182"
      },
      {
        "line": [
          "1133 Eagles Landing Pkwy"
        ],
        "city": "STOCKBRIDGE",
        "state": "GA",
        "postalCode": "30281-5085"
      },
      {
        "line": [
          "2540 Windy Hill Rd SE"
        ],
        "city": "MARIETTA",
        "state": "GA",
        "postalCode": "30067-8605"
      },
      {
        "line": [
          "4450 CALIBRE CROSSING NW",
          "STE 1130"
        ],
        "city": "ACWORTH",
        "state": "GA",
        "postalCode": "30101-4104"
      },
      {
        "line": [
          "4461 S MAIN ST"
        ],
        "city": "ACWORTH",
        "state": "GA",
        "postalCode": "30101-5555"
      },
      {
        "line": [
          "100 Market Place Blvd",
          "STE 302"
        ],
        "city": "CARTERSVILLE",
        "state": "GA",
        "postalCode": "30121-8717"
      },
      {
        "line": [
          "550 PEACHTREE ST"
        ],
        "city": "ATLANTA",
        "state": "GA",
        "postalCode": "30308-2225"
      },
      {
        "line": [
          "1200 Northside Forsyth Dr"
        ],
        "city": "CUMMING",
        "state": "GA",
        "postalCode": "30041-7659"
      },
      {
        "line": [
          "1100 Johnson Ferry Rd",
          "Ste 375"
        ],
        "city": "MARIETTA",
        "state": "GA",
        "postalCode": "30068-2765"
      },
      {
        "line": [
          "900 CIRCLE 75 PKWY SE",
          "Ste 900"
        ],
        "city": "ATLANTA",
        "state": "GA",
        "postalCode": "30339-3035"
      },
      {
        "line": [
          "756 NEESE RD"
        ],
        "city": "WOODSTOCK",
        "state": "GA",
        "postalCode": "30188-4297"
      },
      {
        "line": [
          "960 SANDERS RD",
          "STE 100"
        ],
        "city": "CUMMING",
        "state": "GA",
        "postalCode": "30041-5962"
      },
      {
        "line": [
          "4441 ATLANTA ROAD SE"
        ],
        "city": "SMYRNA",
        "state": "GA",
        "postalCode": "30080-6442"
      },
      {
        "line": [
          "809 S BROAD ST SW"
        ],
        "city": "ROME",
        "state": "GA",
        "postalCode": "30161-4654"
      },
      {
        "line": [
          "1357 HEMBREE RD",
          "SUITE 100"
        ],
        "city": "ROSWELL",
        "state": "GA",
        "postalCode": "30076-5722"
      },
      {
        "line": [
          "367 CLEAR CREEK PKWY"
        ],
        "city": "LAVONIA",
        "state": "GA",
        "postalCode": "30553-4173"
      },
      {
        "line": [
          "1266 515 South"
        ],
        "city": "JASPER",
        "state": "GA",
        "postalCode": "30143-7105"
      },
      {
        "line": [
          "1345 MILFORD CHURCH RD SW"
        ],
        "city": "MARIETTA",
        "state": "GA",
        "postalCode": "30008-8182"
      },
      {
        "line": [
          "466 Green Street"
        ],
        "city": "GAINESVILLE",
        "state": "GA",
        "postalCode": "30501-3312"
      },
      {
        "line": [
          "3415 Holcomb Bridge Road"
        ],
        "city": "PEACHTREE CORNERS",
        "state": "GA",
        "postalCode": "30092-3102"
      },
      {
        "line": [
          "1011 MERCHANTS DR"
        ],
        "city": "DALLAS",
        "state": "GA",
        "postalCode": "30132-7525"
      },
      {
        "line": [
          "2920 Pharr Ct S Northwest"
        ],
        "city": "ATLANTA",
        "state": "GA",
        "postalCode": "30305-2104"
      },
      {
        "line": [
          "1198 Buckhead Crossing",
          "Suite D"
        ],
        "city": "WOODSTOCK",
        "state": "GA",
        "postalCode": "30189-4293"
      },
      {
        "line": [
          "400 CHARTER BLVD"
        ],
        "city": "MACON",
        "state": "GA",
        "postalCode": "31210-4831"
      },
      {
        "line": [
          "3620 HOWELL FERRY RD"
        ],
        "city": "DULUTH",
        "state": "GA",
        "postalCode": "30096-3178"
      },
      {
        "line": [
          "2200 Medical Center Blvd.",
          "Ste 100"
        ],
        "city": "LAWRENCEVILLE",
        "state": "GA",
        "postalCode": "30046-7764"
      },
      {
        "line": [
          "225 S PHILPOT ST"
        ],
        "city": "CEDARTOWN",
        "state": "GA",
        "postalCode": "30125-3021"
      },
      {
        "line": [
          "900 CIRCLE 75 PKWY SE",
          "STE 900"
        ],
        "city": "ATLANTA",
        "state": "GA",
        "postalCode": "30339-3084"
      },
      {
        "line": [
          "120 SKYLINE DR"
        ],
        "city": "THOMASVILLE",
        "state": "GA",
        "postalCode": "31757-2507"
      },
      {
        "line": [
          "11980 HIGHWAY 142"
        ],
        "city": "OXFORD",
        "state": "GA",
        "postalCode": "30054-4412"
      },
      {
        "line": [
          "3931 Hwy 78",
          "Suite B100"
        ],
        "city": "SNELLVILLE",
        "state": "GA",
        "postalCode": "30039-3907"
      },
      {
        "line": [
          "3620 Howell Ferry Rd"
        ],
        "city": "Duluth",
        "state": "GA",
        "postalCode": "30096-3178"
      },
      {
        "line": [
          "1100 Lake Hearn Dr",
          "Ste 200"
        ],
        "city": "ATLANTA",
        "state": "GA",
        "postalCode": "30342-1573"
      },
      {
        "line": [
          "5445 MERIDIAN MARK RD STE 390"
        ],
        "city": "ATLANTA",
        "state": "GA",
        "postalCode": "30342-4755"
      },
      {
        "line": [
          "5041 Dallas Hwy",
          "Suite 101H"
        ],
        "city": "POWDER SPRINGS",
        "state": "GA",
        "postalCode": "30127-6458"
      },
      {
        "line": [
          "120 Vann Street NE",
          "Suite 100"
        ],
        "city": "MARIETTA",
        "state": "GA",
        "postalCode": "30060-7291"
      },
      {
        "line": [
          "4660 Riverside Park Blvd"
        ],
        "city": "MACON",
        "state": "GA",
        "postalCode": "31210-1395"
      },
      {
        "line": [
          "3415 Holcomb Bridge Road"
        ],
        "city": "Norcros",
        "state": "GA",
        "postalCode": "30092-3102"
      },
      {
        "line": [
          "5700 HILLANDALE DR",
          "STE 220"
        ],
        "city": "LITHONIA",
        "state": "GA",
        "postalCode": "30058-4103"
      },
      {
        "line": [
          "616 Mohawk Street"
        ],
        "city": "ROSSVILLE",
        "state": "GA",
        "postalCode": "30741-4306"
      },
      {
        "line": [
          "1711 MOUNT VERNON RD"
        ],
        "city": "DUNWOODY",
        "state": "GA",
        "postalCode": "30338-4242"
      },
      {
        "line": [
          "1500 S. Johnson Ferry Road NE"
        ],
        "city": "ATLANTA",
        "state": "GA",
        "postalCode": "30319-1612"
      },
      {
        "line": [
          "8855 HOSPITAL DR STE 150"
        ],
        "city": "DOUGLASVILLE",
        "state": "GA",
        "postalCode": "30134-2267"
      },
      {
        "line": [
          "6325 HOSPITAL PARKWAY"
        ],
        "city": "DULUTH",
        "state": "GA",
        "postalCode": "30097-5775"
      },
      {
        "line": [
          "550 PEACHTREE ST NE STE 1960"
        ],
        "city": "ATLANTA",
        "state": "GA",
        "postalCode": "30308-2225"
      },
      {
        "line": [
          "500 Medical Center Blvd",
          "Ste 100"
        ],
        "city": "LAWRENCEVILLE",
        "state": "GA",
        "postalCode": "30046-8708"
      },
      {
        "line": [
          "190 Sammy McGhee Blvd"
        ],
        "city": "JASPER",
        "state": "GA",
        "postalCode": "30143-4047"
      },
      {
        "line": [
          "1350 UPPER HEMBREE RD STE 100"
        ],
        "city": "ROSWELL",
        "state": "GA",
        "postalCode": "30076-0929"
      },
      {
        "line": [
          "5700 HILLANDALE DR",
          "STE 200"
        ],
        "city": "LITHONIA",
        "state": "GA",
        "postalCode": "30058-4103"
      },
      {
        "line": [
          "218 SANDY SPRINGS PL"
        ],
        "city": "ATLANTA",
        "state": "GA",
        "postalCode": "30328-3812"
      },
      {
        "line": [
          "2351 CEDARCREST RD"
        ],
        "city": "ACWORTH",
        "state": "GA",
        "postalCode": "30101-8597"
      },
      {
        "line": [
          "4749 Nelson Brogdon Blvd",
          "Bldg 300 Suite 101"
        ],
        "city": "BUFORD",
        "state": "GA",
        "postalCode": "30518-8803"
      },
      {
        "line": [
          "10451 Bells Ferry Rd"
        ],
        "city": "CANTON",
        "state": "GA",
        "postalCode": "30114-1293"
      },
      {
        "line": [
          "146 Smitherman Rd"
        ],
        "city": "RINGGOLD",
        "state": "GA",
        "postalCode": "30736-7372"
      },
      {
        "line": [
          "3950 AUSTELL RD SW"
        ],
        "city": "AUSTELL",
        "state": "GA",
        "postalCode": "30106-1121"
      },
      {
        "line": [
          "1200 RUSSELL PARKWAY"
        ],
        "city": "WARNER ROBINS",
        "state": "GA",
        "postalCode": "31088-5540"
      },
      {
        "line": [
          "3949 Holcomb Bridge Rd",
          "Suite 100"
        ],
        "city": "Norcros",
        "state": "GA",
        "postalCode": "30092-2208"
      },
      {
        "line": [
          "1375 WEBB GIN HOUSE RD"
        ],
        "city": "LAWRENCEVILLE",
        "state": "GA",
        "postalCode": "30045-5440"
      },
      {
        "line": [
          "110 OAK HILL BLVD",
          "STE 100"
        ],
        "city": "NEWNAN",
        "state": "GA",
        "postalCode": "30265-2313"
      },
      {
        "line": [
          "540 CHARTER BLVD STE 300"
        ],
        "city": "MACON",
        "state": "GA",
        "postalCode": "31210-4894"
      },
      {
        "line": [
          "5 FITE ST"
        ],
        "city": "CARTERSVILLE",
        "state": "GA",
        "postalCode": "30120-3408"
      },
      {
        "line": [
          "6325 HOSPITAL PARKWAY"
        ],
        "city": "JOHNS CREEK",
        "state": "GA",
        "postalCode": "30097-5775"
      },
      {
        "line": [
          "583 HIGHLAND XING STE 130"
        ],
        "city": "ELLIJAY",
        "state": "GA",
        "postalCode": "30540-6403"
      },
      {
        "line": [
          "819 East Oak Street"
        ],
        "city": "KISSIMMEE",
        "state": "FL",
        "postalCode": "34744-5842"
      },
      {
        "line": [
          "11459 Johns Creek Parkway"
        ],
        "city": "DULUTH",
        "state": "GA",
        "postalCode": "30097-3517"
      },
      {
        "line": [
          "7279 TURNER LAKE RD NW"
        ],
        "city": "COVINGTON",
        "state": "GA",
        "postalCode": "30014-2066"
      },
      {
        "line": [
          "135 HILLSIDE TRCE"
        ],
        "city": "DALLAS",
        "state": "GA",
        "postalCode": "30157-9486"
      },
      {
        "line": [
          "3506 OLD MILTON PKWY"
        ],
        "city": "ALPHARETTA",
        "state": "GA",
        "postalCode": "30005-4458"
      },
      {
        "line": [
          "4749 Nelson Brogdon Blvd",
          "Bldg 300 Suite 101"
        ],
        "city": "Sugar Hill",
        "state": "GA",
        "postalCode": "30518-8803"
      },
      {
        "line": [
          "428 WINN CT"
        ],
        "city": "DECATUR",
        "state": "GA",
        "postalCode": "30030-1726"
      },
      {
        "line": [
          "2540 WINDY HILL RD SE"
        ],
        "city": "MARIETTA",
        "state": "GA",
        "postalCode": "30067-8605"
      },
      {
        "line": [
          "265 LOVERS LANE RD SE"
        ],
        "city": "CALHOUN",
        "state": "GA",
        "postalCode": "30701-4871"
      },
      {
        "line": [
          "11459 Johns Creek Parkway",
          "Suite 260"
        ],
        "city": "Johns Creek",
        "state": "GA",
        "postalCode": "30097-3517"
      },
      {
        "line": [
          "4550 COBB PARKWAY NORTH NW"
        ],
        "city": "ACWORTH",
        "state": "GA",
        "postalCode": "30101-4180"
      },
      {
        "line": [
          "1600 Ballewtown Rd"
        ],
        "city": "BLUE RIDGE",
        "state": "GA",
        "postalCode": "30513-5337"
      },
      {
        "line": [
          "1357 HEMBREE RD STE 101"
        ],
        "city": "ROSWELL",
        "state": "GA",
        "postalCode": "30076-5722"
      },
      {
        "line": [
          "3039 SANDY PLAINS RD"
        ],
        "city": "MARIETTA",
        "state": "GA",
        "postalCode": "30066-4721"
      },
      {
        "line": [
          "141 TIMBER TRAIL RD"
        ],
        "city": "RICHMOND HILL",
        "state": "GA",
        "postalCode": "31324-9402"
      },
      {
        "line": [
          "60 MASSELL DR SE"
        ],
        "city": "CARTERSVILLE",
        "state": "GA",
        "postalCode": "30121-4215"
      },
      {
        "line": [
          "1711 MOUNT VERNON RD"
        ],
        "city": "ATLANTA",
        "state": "GA",
        "postalCode": "30338-4242"
      }
    ],
    "extension": [
      {
        "url": "https://fhir.athena.io/StructureDefinition/ah-practice",
        "valueReference": {
          "reference": "Organization/a-1.Practice-4399"
        }
      },
      {
        "url": "https://fhir.athena.io/StructureDefinition/ah-brand",
        "valueReference": {
          "reference": "Organization/a-4399.Brand-15"
        }
      }
    ]
  },
  "fullUrl": "urn:uuid:92166546-8664-51a3-b22e-9ada0fa73cc1"
}