{
  "resource": {
    "resourceType": "Organization",
    "id": "b205efe1-d3ac-5230-b23d-687e7b7a3f73",
    "name": "CARSON TAHOE HOSPITAL",
    "endpoint": [
      {
        "reference": "Endpoint/27a4e967-47aa-5a9c-a572-b8297ee268a2"
      },
      {
        "reference": "Endpoint/880e966c-c46e-5228-8e25-e7d8e6fa7048"
      }
    ],
    "identifier": [
      {
        "system": "http://hl7.org/fhir/sid/us-npi",
        "value": "1295914661"
      }
    ],
    "address": [
      {
        "line": [
          "247 BLUFFS AVE STE 102"
        ],
        "city": "ELKO",
        "state": "NV",
        "postalCode": "89801-2488"
      },
      {
        "line": [
          "775 FLEISCHMANN WAY"
        ],
        "city": "CARSON CITY",
        "state": "NV",
        "postalCode": "89702-2168"
      },
      {
        "line": [
          "200 SOUTH A STREET"
        ],
        "city": "HAWTHORNE",
        "state": "NV",
        "postalCode": "89415-1510"
      },
      {
        "line": [
          "570 South Maine Street"
        ],
        "city": "FALLON",
        "state": "NV",
        "postalCode": "89406-3343"
      },
      {
        "line": [
          "135 WEST SECOND STREET"
        ],
        "city": "WINNEMUCCA",
        "state": "NV",
        "postalCode": "89445-3406"
      },
      {
        "line": [
          "5590 Kietzke Ln"
        ],
        "city": "RENO",
        "state": "NV",
        "postalCode": "89511-3019"
      },
      {
        "line": [
          "5070 ION DR",
          "Suite 200"
        ],
        "city": "SPARKS",
        "state": "NV",
        "postalCode": "89436-1612"
      },
      {
        "line": [
          "1520 VIRGINIA RANCH ROAD",
          "2 ND FLOOR"
        ],
        "city": "GARDNERVILLE",
        "state": "NV",
        "postalCode": "89410-5731"
      },
      {
        "line": [
          "2874 N CARSON STREET STE 200"
        ],
        "city": "CARSON CITY",
        "state": "NV",
        "postalCode": "89706-1682"
      },
      {
        "line": [
          "2001 Errecart Blvd"
        ],
        "city": "ELKO",
        "state": "NV",
        "postalCode": "89801-8333"
      }
    ],
    "extension": [
      {
        "url": "https://fhir.athena.io/StructureDefinition/ah-practice",
        "valueReference": {
          "reference": "Organization/a-1.Practice-13729"
        }
      },
      {
        "url": "https://fhir.athena.io/StructureDefinition/ah-brand",
        "valueReference": {
          "reference": "Organization/a-13729.Brand-6"
        }
      }
    ]
  },
  "fullUrl": "urn:uuid:b205efe1-d3ac-5230-b23d-687e7b7a3f73"
}