{
  "resource": {
    "resourceType": "Organization",
    "id": "8e771457-cd50-58fa-9178-b74328532b3c",
    "name": "BURCHAM HILLS CTR FOR HLTH & REHAB",
    "endpoint": [
      {
        "reference": "Endpoint/27a4e967-47aa-5a9c-a572-b8297ee268a2"
      },
      {
        "reference": "Endpoint/3f3c7770-5280-599f-b6a1-96d8bf187250"
      }
    ],
    "identifier": [
      {
        "system": "http://hl7.org/fhir/sid/us-npi",
        "value": "1033741004"
      },
      {
        "system": "http://hl7.org/fhir/sid/us-npi",
        "value": "1477185429"
      },
      {
        "system": "http://hl7.org/fhir/sid/us-npi",
        "value": "1518599588"
      },
      {
        "system": "http://hl7.org/fhir/sid/us-npi",
        "value": "1053943928"
      },
      {
        "system": "http://hl7.org/fhir/sid/us-npi",
        "value": "1508498478"
      },
      {
        "system": "http://hl7.org/fhir/sid/us-npi",
        "value": "1194357152"
      },
      {
        "system": "http://hl7.org/fhir/sid/us-npi",
        "value": "1316572134"
      },
      {
        "system": "http://hl7.org/fhir/sid/us-npi",
        "value": "1588296552"
      },
      {
        "system": "http://hl7.org/fhir/sid/us-npi",
        "value": "1356973226"
      },
      {
        "system": "http://hl7.org/fhir/sid/us-npi",
        "value": "1245865328"
      },
      {
        "system": "http://hl7.org/fhir/sid/us-npi",
        "value": "1396377131"
      },
      {
        "system": "http://hl7.org/fhir/sid/us-npi",
        "value": "1760014633"
      },
      {
        "system": "http://hl7.org/fhir/sid/us-npi",
        "value": "1982236956"
      },
      {
        "system": "http://hl7.org/fhir/sid/us-npi",
        "value": "1730715566"
      },
      {
        "system": "http://hl7.org/fhir/sid/us-npi",
        "value": "1275165052"
      },
      {
        "system": "http://hl7.org/fhir/sid/us-npi",
        "value": "1821620808"
      },
      {
        "system": "http://hl7.org/fhir/sid/us-npi",
        "value": "1083246052"
      },
      {
        "system": "http://hl7.org/fhir/sid/us-npi",
        "value": "1003441171"
      },
      {
        "system": "http://hl7.org/fhir/sid/us-npi",
        "value": "1487286456"
      },
      {
        "system": "http://hl7.org/fhir/sid/us-npi",
        "value": "1689206419"
      }
    ],
    "address": [
      {
        "line": [
          "707 Armstrong Rd"
        ],
        "city": "LANSING",
        "state": "MI",
        "postalCode": "48911-3906"
      },
      {
        "line": [
          "1000 Harrington Blvd"
        ],
        "city": "MOUNT CLEMENS",
        "state": "MI",
        "postalCode": "48043-2920"
      },
      {
        "line": [
          "3565 S State Rd"
        ],
        "city": "IONIA",
        "state": "MI",
        "postalCode": "48846-9416"
      },
      {
        "line": [
          "909 Fee Rd"
        ],
        "city": "EAST LANSING",
        "state": "MI",
        "postalCode": "48824-6410"
      },
      {
        "line": [
          "3520 Forest Rd"
        ],
        "city": "LANSING",
        "state": "MI",
        "postalCode": "48910-3720"
      },
      {
        "line": [
          "1500 S Main St"
        ],
        "city": "EATON RAPIDS",
        "state": "MI",
        "postalCode": "48827-1952"
      },
      {
        "line": [
          "2900 Collins Rd"
        ],
        "city": "LANSING",
        "state": "MI",
        "postalCode": "48910-8394"
      },
      {
        "line": [
          "3220 Discovery Dr",
          "Ste 100"
        ],
        "city": "LANSING",
        "state": "MI",
        "postalCode": "48910-8556"
      },
      {
        "line": [
          "3520 FOREST RD",
          "FL 3"
        ],
        "city": "LANSING",
        "state": "MI",
        "postalCode": "48910-3720"
      },
      {
        "line": [
          "3210 EAGLE RUN DR NE"
        ],
        "city": "GRAND RAPIDS",
        "state": "MI",
        "postalCode": "49525-7051"
      },
      {
        "line": [
          "1221 Pine Grove Ave"
        ],
        "city": "PORT HURON",
        "state": "MI",
        "postalCode": "48060-3511"
      },
      {
        "line": [
          "1650 Laurelwood Dr"
        ],
        "city": "HOLT",
        "state": "MI",
        "postalCode": "48842-1924"
      },
      {
        "line": [
          "2700 Burcham Drive"
        ],
        "city": "EAST LANSING",
        "state": "MI",
        "postalCode": "48823-3898"
      },
      {
        "line": [
          "1000 W Saginaw St"
        ],
        "city": "LANSING",
        "state": "MI",
        "postalCode": "48915-1967"
      },
      {
        "line": [
          "3101 Discovery DrIve",
          "Ste 300"
        ],
        "city": "LANSING",
        "state": "MI",
        "postalCode": "48910-8546"
      },
      {
        "line": [
          "1140 E Michigan Ave"
        ],
        "city": "LANSING",
        "state": "MI",
        "postalCode": "48912-1810"
      },
      {
        "line": [
          "3181 Sandhill Rd"
        ],
        "city": "MASON",
        "state": "MI",
        "postalCode": "48854-9425"
      },
      {
        "line": [
          "3101 Discovery Dr Ste 600"
        ],
        "city": "LANSING",
        "state": "MI",
        "postalCode": "48910-8546"
      }
    ],
    "extension": [
      {
        "url": "https://fhir.athena.io/StructureDefinition/ah-practice",
        "valueReference": {
          "reference": "Organization/a-1.Practice-25394"
        }
      },
      {
        "url": "https://fhir.athena.io/StructureDefinition/ah-brand",
        "valueReference": {
          "reference": "Organization/a-25394.Brand-1"
        }
      }
    ]
  },
  "fullUrl": "urn:uuid:8e771457-cd50-58fa-9178-b74328532b3c"
}