{
  "resource": {
    "resourceType": "Organization",
    "id": "421f8692-3e0c-5902-96b2-c367034cff9c",
    "name": "FOLX HEALTH",
    "endpoint": [
      {
        "reference": "Endpoint/27a4e967-47aa-5a9c-a572-b8297ee268a2"
      },
      {
        "reference": "Endpoint/9b833086-5ced-519e-9110-2315dd193b12"
      }
    ],
    "identifier": [
      {
        "system": "http://hl7.org/fhir/sid/us-npi",
        "value": "1407453046"
      },
      {
        "system": "http://hl7.org/fhir/sid/us-npi",
        "value": "1083300768"
      },
      {
        "system": "http://hl7.org/fhir/sid/us-npi",
        "value": "1265128771"
      },
      {
        "system": "http://hl7.org/fhir/sid/us-npi",
        "value": "1811683311"
      },
      {
        "system": "http://hl7.org/fhir/sid/us-npi",
        "value": "1265128763"
      },
      {
        "system": "http://hl7.org/fhir/sid/us-npi",
        "value": "1174219679"
      }
    ],
    "address": [
      {
        "line": [
          "421 W MAIN ST"
        ],
        "city": "FRANKFORT",
        "state": "KY",
        "postalCode": "40601-1815"
      },
      {
        "line": [
          "1555 W SHORELINE DR",
          "Suite 100"
        ],
        "city": "BOISE",
        "state": "ID",
        "postalCode": "83702-9107"
      },
      {
        "line": [
          "2908 POSTON AVE"
        ],
        "city": "NASHVILLE",
        "state": "TN",
        "postalCode": "37203-1309"
      },
      {
        "line": [
          "316 BERRHILL DR"
        ],
        "city": "WILLIAMSTOWN",
        "state": "NJ",
        "postalCode": "08094-3669"
      },
      {
        "line": [
          "1 BOSTON PL STE 2600"
        ],
        "city": "BOSTON",
        "state": "MA",
        "postalCode": "02108-4420"
      },
      {
        "line": [
          "1912 CAPITOL AVE STE 500"
        ],
        "city": "CHEYENNE",
        "state": "WY",
        "postalCode": "82001-3661"
      },
      {
        "line": [
          "10 Ferry Street",
          "Suite 313"
        ],
        "city": "CONCORD",
        "state": "NH",
        "postalCode": "03301-3947"
      },
      {
        "line": [
          "900 OLD ROSWELL LAKES PKWY STE 310"
        ],
        "city": "ROSWELL",
        "state": "GA",
        "postalCode": "30076-8667"
      },
      {
        "line": [
          "525 PARK ST",
          "STE 247"
        ],
        "city": "SAINT PAUL",
        "state": "MN",
        "postalCode": "55103-2106"
      },
      {
        "line": [
          "100 SHOCKOE SLIP FL 2"
        ],
        "city": "RICHMOND",
        "state": "VA",
        "postalCode": "23219-4100"
      },
      {
        "line": [
          "29 W HIGH ST"
        ],
        "city": "EAST HAMPTON",
        "state": "CT",
        "postalCode": "06424-1024"
      },
      {
        "line": [
          "2005 E 2700 S STE 200"
        ],
        "city": "SALT LAKE CITY",
        "state": "UT",
        "postalCode": "84109-1766"
      },
      {
        "line": [
          "698 12TH ST SE STE 200"
        ],
        "city": "SALEM",
        "state": "OR",
        "postalCode": "97301-4010"
      },
      {
        "line": [
          "221 BOLIVAR ST"
        ],
        "city": "JEFFERSON CITY",
        "state": "MO",
        "postalCode": "65101-1572"
      },
      {
        "line": [
          "1188 BISHOP ST STE 2212"
        ],
        "city": "HONOLULU",
        "state": "HI",
        "postalCode": "96813-3309"
      },
      {
        "line": [
          "326 N MADISON AVE"
        ],
        "city": "PIERRE",
        "state": "SD",
        "postalCode": "57501-2629"
      },
      {
        "line": [
          "5601 S 59TH ST STE C"
        ],
        "city": "LINCOLN",
        "state": "NE",
        "postalCode": "68516-2340"
      },
      {
        "line": [
          "186 N. Main Street, 2nd Floor Suite 1"
        ],
        "city": "PLYMOUTH",
        "state": "MI",
        "postalCode": "48170-1111"
      },
      {
        "line": [
          "725 SW HIGGINS AVE STE C"
        ],
        "city": "MISSOULA",
        "state": "MT",
        "postalCode": "59803-1420"
      },
      {
        "line": [
          "2595 INTERSTATE DR STE 103"
        ],
        "city": "HARRISBURG",
        "state": "PA",
        "postalCode": "17110-9378"
      },
      {
        "line": [
          "1201 HAYS ST"
        ],
        "city": "TALLAHASSEE",
        "state": "FL",
        "postalCode": "32301-2699"
      },
      {
        "line": [
          "3085 MOUNTAINWOOD CIR"
        ],
        "city": "JUNEAU",
        "state": "AK",
        "postalCode": "99801-9624"
      },
      {
        "line": [
          "1012 MARQUEZ PL UNIT 106B"
        ],
        "city": "SANTA FE",
        "state": "NM",
        "postalCode": "87505-1833"
      },
      {
        "line": [
          "212 S TRYON ST STE 100"
        ],
        "city": "CHARLOTTE",
        "state": "NC",
        "postalCode": "28281-0033"
      },
      {
        "line": [
          "1215 TWIN LAKES300 Spring Building, Suite 900 DR"
        ],
        "city": "LITTLE ROCK",
        "state": "AR",
        "postalCode": "72201-1111"
      },
      {
        "line": [
          "1325 J ST STE 1550"
        ],
        "city": "SACRAMENTO",
        "state": "CA",
        "postalCode": "95814-2976"
      },
      {
        "line": [
          "1090 S GILBERT RD",
          "Suite 106-128"
        ],
        "city": "GILBERT",
        "state": "AZ",
        "postalCode": "85296-3438"
      },
      {
        "line": [
          "15205 TRADITIONS LAKE PKWY"
        ],
        "city": "EDMOND",
        "state": "OK",
        "postalCode": "73013-1198"
      },
      {
        "line": [
          "211 E 7TH ST STE 260"
        ],
        "city": "AUSTIN",
        "state": "TX",
        "postalCode": "78701-3334"
      },
      {
        "line": [
          "1154 Route 30"
        ],
        "city": "TOWNSHEND",
        "state": "VT",
        "postalCode": "05353-1111"
      },
      {
        "line": [
          "7 SAINT PAUL ST STE 820"
        ],
        "city": "BALTIMORE",
        "state": "MD",
        "postalCode": "21202-1681"
      },
      {
        "line": [
          "600 S 2ND ST STE 404"
        ],
        "city": "SPRINGFIELD",
        "state": "IL",
        "postalCode": "62704-2542"
      },
      {
        "line": [
          "251 LITTLE FALLS DR"
        ],
        "city": "WILMINGTON",
        "state": "DE",
        "postalCode": "19808-1674"
      },
      {
        "line": [
          "3958 BROWN PARK DR STE D"
        ],
        "city": "HILLIARD",
        "state": "OH",
        "postalCode": "43026-1160"
      },
      {
        "line": [
          "321 W WINNIE LN STE 104"
        ],
        "city": "CARSON CITY",
        "state": "NV",
        "postalCode": "89703-2154"
      },
      {
        "line": [
          "222 JEFFERSON BLVD"
        ],
        "city": "WARWICK",
        "state": "RI",
        "postalCode": "02888-3847"
      },
      {
        "line": [
          "9221 CRAWFORDSVILLE RD"
        ],
        "city": "INDIANAPOLIS",
        "state": "IN",
        "postalCode": "46234-1521"
      },
      {
        "line": [
          "109 EXECUTIVE DR",
          "STE 3"
        ],
        "city": "MADISON",
        "state": "MS",
        "postalCode": "39110-8497"
      },
      {
        "line": [
          "120 W SWEET AVE"
        ],
        "city": "BISMARCK",
        "state": "ND",
        "postalCode": "58504-5566"
      },
      {
        "line": [
          "2101 SW 21ST ST"
        ],
        "city": "TOPEKA",
        "state": "KS",
        "postalCode": "66604-3174"
      },
      {
        "line": [
          "4459B BLUEBONNET BLVD"
        ],
        "city": "BATON ROUGE",
        "state": "LA",
        "postalCode": "70809-9639"
      },
      {
        "line": [
          "128 CAPITOL ST"
        ],
        "city": "CHARLESTON",
        "state": "WV",
        "postalCode": "25301-2610"
      },
      {
        "line": [
          "1090 VERMONT AVE NW"
        ],
        "city": "WASHINGTON",
        "state": "DC",
        "postalCode": "20005-4905"
      },
      {
        "line": [
          "1900 W LITTLETON BLVD"
        ],
        "city": "LITTLETON",
        "state": "CO",
        "postalCode": "80120-2023"
      },
      {
        "line": [
          "901 South Whitney Way"
        ],
        "city": "MADISON",
        "state": "WI",
        "postalCode": "53711-2553"
      },
      {
        "line": [
          "505 5th Avenue",
          "Suite 729"
        ],
        "city": "DES MOINES",
        "state": "IA",
        "postalCode": "50309-2352"
      },
      {
        "line": [
          "300 DESCHUTES WAY SW STE 208"
        ],
        "city": "OLYMPIA",
        "state": "WA",
        "postalCode": "98501-7719"
      },
      {
        "line": [
          "75 YORK ST STE 2"
        ],
        "city": "PORTLAND",
        "state": "ME",
        "postalCode": "04101-4670"
      },
      {
        "line": [
          "122 E 42ND ST FL 18"
        ],
        "city": "NEW YORK",
        "state": "NY",
        "postalCode": "10168-1899"
      },
      {
        "line": [
          "2 OFFICE PARK CT STE 103"
        ],
        "city": "COLUMBIA",
        "state": "SC",
        "postalCode": "29223-5948"
      }
    ],
    "extension": [
      {
        "url": "https://fhir.athena.io/StructureDefinition/ah-practice",
        "valueReference": {
          "reference": "Organization/a-1.Practice-22378"
        }
      },
      {
        "url": "https://fhir.athena.io/StructureDefinition/ah-brand",
        "valueReference": {
          "reference": "Organization/a-22378.Brand-1"
        }
      }
    ]
  },
  "fullUrl": "urn:uuid:421f8692-3e0c-5902-96b2-c367034cff9c"
}