{
  "resource": {
    "resourceType": "Organization",
    "id": "eeb2f5b5-5fa1-5e01-9fa3-7ebddf2df09b",
    "name": "MSU Health Care",
    "endpoint": [
      {
        "reference": "Endpoint/27a4e967-47aa-5a9c-a572-b8297ee268a2"
      },
      {
        "reference": "Endpoint/0993ee8c-0ed3-5225-97ad-c8cd404b4907"
      }
    ],
    "identifier": [
      {
        "system": "http://hl7.org/fhir/sid/us-npi",
        "value": "1952337545"
      },
      {
        "system": "http://hl7.org/fhir/sid/us-npi",
        "value": "1760014633"
      },
      {
        "system": "http://hl7.org/fhir/sid/us-npi",
        "value": "1164973418"
      },
      {
        "system": "http://hl7.org/fhir/sid/us-npi",
        "value": "1861443269"
      },
      {
        "system": "http://hl7.org/fhir/sid/us-npi",
        "value": "1699725895"
      },
      {
        "system": "http://hl7.org/fhir/sid/us-npi",
        "value": "1891747614"
      },
      {
        "system": "http://hl7.org/fhir/sid/us-npi",
        "value": "1770646028"
      },
      {
        "system": "http://hl7.org/fhir/sid/us-npi",
        "value": "1326121179"
      },
      {
        "system": "http://hl7.org/fhir/sid/us-npi",
        "value": "1144309642"
      },
      {
        "system": "http://hl7.org/fhir/sid/us-npi",
        "value": "1699858431"
      },
      {
        "system": "http://hl7.org/fhir/sid/us-npi",
        "value": "1053943928"
      },
      {
        "system": "http://hl7.org/fhir/sid/us-npi",
        "value": "1851470744"
      },
      {
        "system": "http://hl7.org/fhir/sid/us-npi",
        "value": "1992712053"
      },
      {
        "system": "http://hl7.org/fhir/sid/us-npi",
        "value": "1184707937"
      },
      {
        "system": "http://hl7.org/fhir/sid/us-npi",
        "value": "1205880333"
      },
      {
        "system": "http://hl7.org/fhir/sid/us-npi",
        "value": "1275165052"
      },
      {
        "system": "http://hl7.org/fhir/sid/us-npi",
        "value": "1467535211"
      },
      {
        "system": "http://hl7.org/fhir/sid/us-npi",
        "value": "1356973226"
      },
      {
        "system": "http://hl7.org/fhir/sid/us-npi",
        "value": "1477185429"
      },
      {
        "system": "http://hl7.org/fhir/sid/us-npi",
        "value": "1639253784"
      },
      {
        "system": "http://hl7.org/fhir/sid/us-npi",
        "value": "1194357152"
      },
      {
        "system": "http://hl7.org/fhir/sid/us-npi",
        "value": "1689206419"
      },
      {
        "system": "http://hl7.org/fhir/sid/us-npi",
        "value": "1487286456"
      },
      {
        "system": "http://hl7.org/fhir/sid/us-npi",
        "value": "1396377131"
      },
      {
        "system": "http://hl7.org/fhir/sid/us-npi",
        "value": "1730715566"
      },
      {
        "system": "http://hl7.org/fhir/sid/us-npi",
        "value": "1316572134"
      },
      {
        "system": "http://hl7.org/fhir/sid/us-npi",
        "value": "1083246052"
      },
      {
        "system": "http://hl7.org/fhir/sid/us-npi",
        "value": "1518599588"
      },
      {
        "system": "http://hl7.org/fhir/sid/us-npi",
        "value": "1588296552"
      },
      {
        "system": "http://hl7.org/fhir/sid/us-npi",
        "value": "1104458181"
      },
      {
        "system": "http://hl7.org/fhir/sid/us-npi",
        "value": "1982236956"
      },
      {
        "system": "http://hl7.org/fhir/sid/us-npi",
        "value": "1821620808"
      },
      {
        "system": "http://hl7.org/fhir/sid/us-npi",
        "value": "1003441171"
      },
      {
        "system": "http://hl7.org/fhir/sid/us-npi",
        "value": "1356973119"
      },
      {
        "system": "http://hl7.org/fhir/sid/us-npi",
        "value": "1033741004"
      },
      {
        "system": "http://hl7.org/fhir/sid/us-npi",
        "value": "1396377115"
      },
      {
        "system": "http://hl7.org/fhir/sid/us-npi",
        "value": "1245865328"
      },
      {
        "system": "http://hl7.org/fhir/sid/us-npi",
        "value": "1508498478"
      }
    ],
    "address": [
      {
        "line": [
          "4000 N Michigan Rd"
        ],
        "city": "DIMONDALE",
        "state": "MI",
        "postalCode": "48821-9744"
      },
      {
        "line": [
          "100 Michigan St NE"
        ],
        "city": "GRAND RAPIDS",
        "state": "MI",
        "postalCode": "49503-2560"
      },
      {
        "line": [
          "744 S Webster Ave"
        ],
        "city": "GREEN BAY",
        "state": "WI",
        "postalCode": "54301-3505"
      },
      {
        "line": [
          "2012 E Preston Ave"
        ],
        "city": "MOUNT PLEASANT",
        "state": "MI",
        "postalCode": "48858-8990"
      },
      {
        "line": [
          "1140 E Michigan Ave"
        ],
        "city": "LANSING",
        "state": "MI",
        "postalCode": "48912-1810"
      },
      {
        "line": [
          "865 S Cedar St"
        ],
        "city": "MASON",
        "state": "MI",
        "postalCode": "48854-2064"
      },
      {
        "line": [
          "4660 S Hagadorn Rd",
          "Ste 210"
        ],
        "city": "EAST LANSING",
        "state": "MI",
        "postalCode": "48823-5353"
      },
      {
        "line": [
          "707 Armstrong Rd"
        ],
        "city": "LANSING",
        "state": "MI",
        "postalCode": "48911-3906"
      },
      {
        "line": [
          "3860 Dobie Rd"
        ],
        "city": "OKEMOS",
        "state": "MI",
        "postalCode": "48864-3799"
      },
      {
        "line": [
          "1215 E Michigan Ave"
        ],
        "city": "LANSING",
        "state": "MI",
        "postalCode": "48912-1811"
      },
      {
        "line": [
          "401 W Greenlawn Ave"
        ],
        "city": "LANSING",
        "state": "MI",
        "postalCode": "48910-0899"
      },
      {
        "line": [
          "5800 Foremost Drive SE"
        ],
        "city": "GRAND RAPIDS",
        "state": "MI",
        "postalCode": "49546-7062"
      },
      {
        "line": [
          "909 Fee Road"
        ],
        "city": "EAST LANSING",
        "state": "MI",
        "postalCode": "48824-6410"
      },
      {
        "line": [
          "1540 Lake Lansing Rd"
        ],
        "city": "LANSING",
        "state": "MI",
        "postalCode": "48912-3757"
      },
      {
        "line": [
          "1500 S Main St"
        ],
        "city": "EATON RAPIDS",
        "state": "MI",
        "postalCode": "48827-1952"
      },
      {
        "line": [
          "2727 S Pennsylvania Ave"
        ],
        "city": "LANSING",
        "state": "MI",
        "postalCode": "48910-0899"
      },
      {
        "line": [
          "550 E. Washington"
        ],
        "city": "IONIA",
        "state": "MI",
        "postalCode": "48846-2202"
      },
      {
        "line": [
          "743 E Beltline Ave NE"
        ],
        "city": "GRAND RAPIDS",
        "state": "MI",
        "postalCode": "49525-6045"
      },
      {
        "line": [
          "2900 Collins Rd"
        ],
        "city": "LANSING",
        "state": "MI",
        "postalCode": "48910-8394"
      },
      {
        "line": [
          "1000 W Saginaw St"
        ],
        "city": "LANSING",
        "state": "MI",
        "postalCode": "48915-1967"
      },
      {
        "line": [
          "406 E Elm St"
        ],
        "city": "CARSON CITY",
        "state": "MI",
        "postalCode": "48811-9693"
      },
      {
        "line": [
          "1000 Harrington Blvd"
        ],
        "city": "MOUNT CLEMENS",
        "state": "MI",
        "postalCode": "48043-2920"
      },
      {
        "line": [
          "5211 Marsh Road"
        ],
        "city": "OKEMOS",
        "state": "MI",
        "postalCode": "48864-1106"
      },
      {
        "line": [
          "3565 S State Rd"
        ],
        "city": "IONIA",
        "state": "MI",
        "postalCode": "48846-9416"
      },
      {
        "line": [
          "3101 Discovery Dr Ste 300"
        ],
        "city": "LANSING",
        "state": "MI",
        "postalCode": "48910-8546"
      },
      {
        "line": [
          "601 E Rollings St"
        ],
        "city": "ORLANDO",
        "state": "FL",
        "postalCode": "32803-1248"
      },
      {
        "line": [
          "707 Armstrong Rd"
        ],
        "city": "Lansing",
        "state": "MI",
        "postalCode": "48911-3906"
      },
      {
        "line": [
          "826 W King Street"
        ],
        "city": "OWOSSO",
        "state": "MI",
        "postalCode": "48867-2120"
      },
      {
        "line": [
          "901 S Oakland St",
          "Ste 201"
        ],
        "city": "SAINT JOHNS",
        "state": "MI",
        "postalCode": "48879-2200"
      },
      {
        "line": [
          "3520 Forest Rd"
        ],
        "city": "LANSING",
        "state": "MI",
        "postalCode": "48910-3720"
      },
      {
        "line": [
          "1900 S Main St"
        ],
        "city": "FINDLAY",
        "state": "OH",
        "postalCode": "45840-1214"
      },
      {
        "line": [
          "1215 East Michigan"
        ],
        "city": "LANSING",
        "state": "MI",
        "postalCode": "48912-1811"
      },
      {
        "line": [
          "4660 S Hagadorn Rd",
          "Ste 420"
        ],
        "city": "EAST LANSING",
        "state": "MI",
        "postalCode": "48823-5353"
      }
    ],
    "extension": [
      {
        "url": "https://fhir.athena.io/StructureDefinition/ah-practice",
        "valueReference": {
          "reference": "Organization/a-1.Practice-13693"
        }
      },
      {
        "url": "https://fhir.athena.io/StructureDefinition/ah-brand",
        "valueReference": {
          "reference": "Organization/a-13693.Brand-1"
        }
      }
    ]
  },
  "fullUrl": "urn:uuid:eeb2f5b5-5fa1-5e01-9fa3-7ebddf2df09b"
}