{
  "resource": {
    "resourceType": "Organization",
    "id": "3c45f477-182b-53dc-af10-791c42e58475",
    "name": "Dr Juno",
    "endpoint": [
      {
        "reference": "Endpoint/27a4e967-47aa-5a9c-a572-b8297ee268a2"
      },
      {
        "reference": "Endpoint/90bdd0d3-9a04-598e-b90c-d37fbd05ed07"
      }
    ],
    "identifier": [
      {
        "system": "http://hl7.org/fhir/sid/us-npi",
        "value": "1275714503"
      }
    ],
    "address": [
      {
        "line": [
          "901 BEN WHITE BLVD"
        ],
        "city": "AUSTIN",
        "state": "TX",
        "postalCode": "78704-6903"
      },
      {
        "line": [
          "44 N CUMMINGS"
        ],
        "city": "BELLVILLE",
        "state": "TX",
        "postalCode": "77418-1347"
      },
      {
        "line": [
          "ONE ST MARK'S PLACE"
        ],
        "city": "LA GRANGE",
        "state": "TX",
        "postalCode": "78945-1250"
      },
      {
        "line": [
          "1 SAINT MARKS PL"
        ],
        "city": "LA GRANGE",
        "state": "TX",
        "postalCode": "78945-1250"
      },
      {
        "line": [
          "1720 VON MINDEN RD"
        ],
        "city": "LA GRANGE",
        "state": "TX",
        "postalCode": "78945-2419"
      },
      {
        "line": [
          "1341 HWY 95"
        ],
        "city": "BASTROP",
        "state": "TX",
        "postalCode": "78602-2630"
      },
      {
        "line": [
          "700 MEDICAL PKWY"
        ],
        "city": "BRENHAM",
        "state": "TX",
        "postalCode": "77833-5413"
      },
      {
        "line": [
          "1201 HILL RD"
        ],
        "city": "SMITHVILLE",
        "state": "TX",
        "postalCode": "78957-9533"
      },
      {
        "line": [
          "12221 N MOPAC EXPY"
        ],
        "city": "AUSTIN",
        "state": "TX",
        "postalCode": "78758-2401"
      }
    ],
    "extension": [
      {
        "url": "https://fhir.athena.io/StructureDefinition/ah-practice",
        "valueReference": {
          "reference": "Organization/a-1.Practice-24780"
        }
      },
      {
        "url": "https://fhir.athena.io/StructureDefinition/ah-brand",
        "valueReference": {
          "reference": "Organization/a-24780.Brand-1"
        }
      }
    ]
  },
  "fullUrl": "urn:uuid:3c45f477-182b-53dc-af10-791c42e58475"
}