{
  "resource": {
    "resourceType": "Organization",
    "id": "e3dde577-da9d-5823-9e1b-7ec25bcee387",
    "name": "Eastern New Mexico Medical Group",
    "endpoint": [
      {
        "reference": "Endpoint/27a4e967-47aa-5a9c-a572-b8297ee268a2"
      },
      {
        "reference": "Endpoint/b775fdab-5f2b-5830-a00b-0f7ef931213c"
      }
    ],
    "identifier": [
      {
        "system": "http://hl7.org/fhir/sid/us-npi",
        "value": "1649267618"
      },
      {
        "system": "http://hl7.org/fhir/sid/us-npi",
        "value": "1871713909"
      },
      {
        "system": "http://hl7.org/fhir/sid/us-npi",
        "value": "1356553002"
      },
      {
        "system": "http://hl7.org/fhir/sid/us-npi",
        "value": "1396958633"
      }
    ],
    "address": [
      {
        "line": [],
        "city": "ROSWELL",
        "state": "NM",
        "postalCode": "88201-5804"
      },
      {
        "line": [
          "350 W COUNTRY CLUB RD STE 205"
        ],
        "city": "ROSWELL",
        "state": "NM",
        "postalCode": "88201-5205"
      },
      {
        "line": [
          "1011 Main Street"
        ],
        "city": "SPRING HILL",
        "state": "TN",
        "postalCode": "37174-4531"
      },
      {
        "line": [
          "405 W COUNTRY CLUB RD"
        ],
        "city": "ROSWELL",
        "state": "NM",
        "postalCode": "88201-5209"
      },
      {
        "line": [],
        "city": "RUIDOSO",
        "state": "NM",
        "postalCode": "88345-6002"
      },
      {
        "line": [],
        "city": "ROSWELL",
        "state": "NM",
        "postalCode": "88201-5209"
      },
      {
        "line": [
          "405 W Country Club Rd"
        ],
        "city": "ROSWELL",
        "state": "NM",
        "postalCode": "88201-5209"
      },
      {
        "line": [],
        "city": "CARLSBAD",
        "state": "NM",
        "postalCode": "88220-3553"
      },
      {
        "line": [],
        "city": "HOBBS",
        "state": "NM",
        "postalCode": "88240-9100"
      },
      {
        "line": [
          "601 W Country Club Rd Ste 201"
        ],
        "city": "ROSWELL",
        "state": "NM",
        "postalCode": "88201-5225"
      },
      {
        "line": [],
        "city": "ROSWELL",
        "state": "NM",
        "postalCode": "88201-8307"
      },
      {
        "line": [
          "603 W. Country Club"
        ],
        "city": "ROSWELL",
        "state": "NM",
        "postalCode": "88201-5111"
      },
      {
        "line": [],
        "city": "MESCALERO",
        "state": "NM",
        "postalCode": "88340-9998"
      },
      {
        "line": [],
        "city": "ROSWELL",
        "state": "NM",
        "postalCode": "88203-2628"
      },
      {
        "line": [
          "603 W Country Club Rd"
        ],
        "city": "ROSWELL",
        "state": "NM",
        "postalCode": "88201-5225"
      },
      {
        "line": [],
        "city": "ROSWELL",
        "state": "NM",
        "postalCode": "88203-5436"
      },
      {
        "line": [
          "300 W COUNTRY CLUB RD STE 230"
        ],
        "city": "ROSWELL",
        "state": "NM",
        "postalCode": "88201-5240"
      },
      {
        "line": [],
        "city": "BRENTWOOD",
        "state": "TN",
        "postalCode": "37027-0001"
      },
      {
        "line": [],
        "city": "ROSWELL",
        "state": "NM",
        "postalCode": "88201-5225"
      },
      {
        "line": [
          "601 W COUNTRY CLUB RD STE 201"
        ],
        "city": "ROSWELL",
        "state": "NM",
        "postalCode": "88201-5224"
      },
      {
        "line": [
          "509 W. Mahone Dr. Ste B"
        ],
        "city": "ARTESIA",
        "state": "NM",
        "postalCode": "88210-2074"
      },
      {
        "line": [
          "350 W COUNTRY CLUB RD STE 105"
        ],
        "city": "ROSWELL",
        "state": "NM",
        "postalCode": "88201-5222"
      }
    ],
    "extension": [
      {
        "url": "https://fhir.athena.io/StructureDefinition/ah-practice",
        "valueReference": {
          "reference": "Organization/a-1.Practice-1610"
        }
      },
      {
        "url": "https://fhir.athena.io/StructureDefinition/ah-brand",
        "valueReference": {
          "reference": "Organization/a-1610.Brand-1"
        }
      }
    ]
  },
  "fullUrl": "urn:uuid:e3dde577-da9d-5823-9e1b-7ec25bcee387"
}