{
  "resource": {
    "resourceType": "Organization",
    "id": "948339c2-02bc-50b4-a1c6-29fe81caaf3d",
    "name": "Mercy Health Physician Partners",
    "endpoint": [
      {
        "reference": "Endpoint/27a4e967-47aa-5a9c-a572-b8297ee268a2"
      },
      {
        "reference": "Endpoint/b646eae2-dcb5-5dab-aace-addd15b24463"
      }
    ],
    "identifier": [
      {
        "system": "http://hl7.org/fhir/sid/us-npi",
        "value": "1376862151"
      },
      {
        "system": "http://hl7.org/fhir/sid/us-npi",
        "value": "1457863565"
      },
      {
        "system": "http://hl7.org/fhir/sid/us-npi",
        "value": "1962933416"
      },
      {
        "system": "http://hl7.org/fhir/sid/us-npi",
        "value": "1538430533"
      },
      {
        "system": "http://hl7.org/fhir/sid/us-npi",
        "value": "1083014914"
      },
      {
        "system": "http://hl7.org/fhir/sid/us-npi",
        "value": "1447456173"
      },
      {
        "system": "http://hl7.org/fhir/sid/us-npi",
        "value": "1154584373"
      },
      {
        "system": "http://hl7.org/fhir/sid/us-npi",
        "value": "1952340911"
      },
      {
        "system": "http://hl7.org/fhir/sid/us-npi",
        "value": "1245769744"
      },
      {
        "system": "http://hl7.org/fhir/sid/us-npi",
        "value": "1902002272"
      },
      {
        "system": "http://hl7.org/fhir/sid/us-npi",
        "value": "1760599906"
      },
      {
        "system": "http://hl7.org/fhir/sid/us-npi",
        "value": "1861818379"
      },
      {
        "system": "http://hl7.org/fhir/sid/us-npi",
        "value": "1972734200"
      },
      {
        "system": "http://hl7.org/fhir/sid/us-npi",
        "value": "1861810186"
      },
      {
        "system": "http://hl7.org/fhir/sid/us-npi",
        "value": "1831132133"
      },
      {
        "system": "http://hl7.org/fhir/sid/us-npi",
        "value": "1598213241"
      },
      {
        "system": "http://hl7.org/fhir/sid/us-npi",
        "value": "1194767186"
      },
      {
        "system": "http://hl7.org/fhir/sid/us-npi",
        "value": "1730571100"
      },
      {
        "system": "http://hl7.org/fhir/sid/us-npi",
        "value": "1326463357"
      },
      {
        "system": "http://hl7.org/fhir/sid/us-npi",
        "value": "1639111057"
      },
      {
        "system": "http://hl7.org/fhir/sid/us-npi",
        "value": "1063917425"
      },
      {
        "system": "http://hl7.org/fhir/sid/us-npi",
        "value": "1528556750"
      },
      {
        "system": "http://hl7.org/fhir/sid/us-npi",
        "value": "1023056744"
      },
      {
        "system": "http://hl7.org/fhir/sid/us-npi",
        "value": "1124042700"
      }
    ],
    "address": [
      {
        "line": [
          "200 Jefferson Street SE"
        ],
        "city": "GRAND RAPIDS",
        "state": "MI",
        "postalCode": "49503-4502"
      },
      {
        "line": [
          "730 Forest Hills Avenue SE"
        ],
        "city": "GRAND RAPIDS",
        "state": "MI",
        "postalCode": "49546-0001"
      },
      {
        "line": [
          "111 Lakeside Drive NE"
        ],
        "city": "GRAND RAPIDS",
        "state": "MI",
        "postalCode": "49503-3711"
      },
      {
        "line": [
          "725 Baldwin Street"
        ],
        "city": "JENISON",
        "state": "MI",
        "postalCode": "49428-7945"
      },
      {
        "line": [
          "1778 Sanford St"
        ],
        "city": "MUSKEGON",
        "state": "MI",
        "postalCode": "49441-2537"
      },
      {
        "line": [
          "235 Wealthy St SE"
        ],
        "city": "GRAND RAPIDS",
        "state": "MI",
        "postalCode": "49503-5247"
      },
      {
        "line": [
          "801 BROADWAY AVE NW"
        ],
        "city": "GRAND RAPIDS",
        "state": "MI",
        "postalCode": "49504-4462"
      },
      {
        "line": [
          "100 Michigan NE"
        ],
        "city": "GRAND RAPIDS",
        "state": "MI",
        "postalCode": "49503-2560"
      },
      {
        "line": [
          "601 West Savidge St."
        ],
        "city": "SPRING LAKE",
        "state": "MI",
        "postalCode": "49456-1620"
      },
      {
        "line": [
          "3587 Henry St, Suite 200"
        ],
        "city": "MUSKEGON",
        "state": "MI",
        "postalCode": "49441-6732"
      },
      {
        "line": [
          "1309 Sheldon St"
        ],
        "city": "GRAND HAVEN",
        "state": "MI",
        "postalCode": "49417-2404"
      },
      {
        "line": [
          "2106 Leonard Street NE"
        ],
        "city": "GRAND RAPIDS",
        "state": "MI",
        "postalCode": "49505-5857"
      },
      {
        "line": [
          "3041 Charlevoix Drive SE"
        ],
        "city": "GRAND RAPIDS",
        "state": "MI",
        "postalCode": "49546-7035"
      },
      {
        "line": [
          "1050 4 Mile Rd NW"
        ],
        "city": "GRAND RAPIDS",
        "state": "MI",
        "postalCode": "49504-1505"
      },
      {
        "line": [
          "7955 Byron Center Avenue SW"
        ],
        "city": "BYRON CENTER",
        "state": "MI",
        "postalCode": "49315-8867"
      },
      {
        "line": [
          "6117 Charlevoix Woods"
        ],
        "city": "GRAND RAPIDS",
        "state": "MI",
        "postalCode": "49546-8505"
      },
      {
        "line": [
          "11276 1st Avenue NW"
        ],
        "city": "GRAND RAPIDS",
        "state": "MI",
        "postalCode": "49534-3382"
      },
      {
        "line": [
          "1700 CLINTON ST"
        ],
        "city": "MUSKEGON",
        "state": "MI",
        "postalCode": "49442-5502"
      },
      {
        "line": [
          "200 JEFFERSON AVE SE"
        ],
        "city": "GRAND RAPIDS",
        "state": "MI",
        "postalCode": "49503-4502"
      },
      {
        "line": [
          "14190 19 Mile Road"
        ],
        "city": "GOWEN",
        "state": "MI",
        "postalCode": "49326-9560"
      },
      {
        "line": [
          "1700 CLINTON STREET"
        ],
        "city": "MUSKEGON",
        "state": "MI",
        "postalCode": "49442-5502"
      },
      {
        "line": [
          "1900 44TH ST SE"
        ],
        "city": "GRAND RAPIDS",
        "state": "MI",
        "postalCode": "49508-5008"
      },
      {
        "line": [
          "235 Wealthy Street SE"
        ],
        "city": "GRAND RAPIDS",
        "state": "MI",
        "postalCode": "49503-5247"
      },
      {
        "line": [
          "1309 Sheldon Rd"
        ],
        "city": "GRAND HAVEN",
        "state": "MI",
        "postalCode": "49417-2404"
      },
      {
        "line": [
          "1840 Wealthy Street SE"
        ],
        "city": "GRAND RAPIDS",
        "state": "MI",
        "postalCode": "49506-2921"
      },
      {
        "line": [
          "1309 Sheldon Road"
        ],
        "city": "GRAND HAVEN",
        "state": "MI",
        "postalCode": "49417-2404"
      },
      {
        "line": [
          "200 Jefferson Ave SE"
        ],
        "city": "GRAND RAPIDS",
        "state": "MI",
        "postalCode": "49503-4502"
      },
      {
        "line": [
          "1675 Leahy St.",
          "Suite 201A"
        ],
        "city": "MUSKEGON",
        "state": "MI",
        "postalCode": "49442-5543"
      },
      {
        "line": [
          "211 S Quarterline Ste 100"
        ],
        "city": "MUSKEGON",
        "state": "MI",
        "postalCode": "49442-1432"
      },
      {
        "line": [
          "2990 138th Avenue"
        ],
        "city": "DORR",
        "state": "MI",
        "postalCode": "49323-9533"
      },
      {
        "line": [
          "1400 Mercy Drive"
        ],
        "city": "MUSKEGON",
        "state": "MI",
        "postalCode": "49444-1836"
      },
      {
        "line": [
          "1171 - 68th Street SE"
        ],
        "city": "GRAND RAPIDS",
        "state": "MI",
        "postalCode": "49508-1234"
      },
      {
        "line": [
          "2525 Roberts St"
        ],
        "city": "MUSKEGON",
        "state": "MI",
        "postalCode": "49444-1844"
      },
      {
        "line": [
          "801 W Broadway Street NW, Suite 105"
        ],
        "city": "GRAND RAPIDS",
        "state": "MI",
        "postalCode": "49504-4462"
      },
      {
        "line": [
          "3535 Park St"
        ],
        "city": "MUSKEGON",
        "state": "MI",
        "postalCode": "49444-3736"
      },
      {
        "line": [
          "1310 Wisconsin Ave Suite 200"
        ],
        "city": "GRAND HAVEN",
        "state": "MI",
        "postalCode": "49417-2472"
      },
      {
        "line": [
          "1820 44th Street SE"
        ],
        "city": "GRAND RAPIDS",
        "state": "MI",
        "postalCode": "49508-5008"
      },
      {
        "line": [
          "1055 Forest Hill Avenue SE"
        ],
        "city": "GRAND RAPIDS",
        "state": "MI",
        "postalCode": "49546-1234"
      },
      {
        "line": [
          "6207 Harvey Street",
          "Suite A"
        ],
        "city": "MUSKEGON",
        "state": "MI",
        "postalCode": "49444-7861"
      },
      {
        "line": [
          "3925 32nd Ave. Suite 500"
        ],
        "city": "HUDSONVILLE",
        "state": "MI",
        "postalCode": "49426-8460"
      },
      {
        "line": [
          "1277 MERCY DR"
        ],
        "city": "MUSKEGON",
        "state": "MI",
        "postalCode": "49444-4605"
      },
      {
        "line": [
          "1175 - 68th Street SE"
        ],
        "city": "GRAND RAPIDS",
        "state": "MI",
        "postalCode": "49508-7895"
      },
      {
        "line": [
          "6741 E. Fulton, Suite 201"
        ],
        "city": "ADA",
        "state": "MI",
        "postalCode": "49301-0001"
      },
      {
        "line": [
          "1560 E Sherman Blvd, STE 250"
        ],
        "city": "MUSKEGON",
        "state": "MI",
        "postalCode": "49444-1854"
      },
      {
        "line": [
          "3515 Leonard Street NW"
        ],
        "city": "GRAND RAPIDS",
        "state": "MI",
        "postalCode": "49534-3702"
      },
      {
        "line": [
          "2080 44th St SE"
        ],
        "city": "GRAND RAPIDS",
        "state": "MI",
        "postalCode": "49508-7974"
      },
      {
        "line": [
          "310 Lafayette Avenue SE, Suite 315"
        ],
        "city": "GRAND RAPIDS",
        "state": "MI",
        "postalCode": "49503-4600"
      },
      {
        "line": [
          "1500 E Sherman Blvd"
        ],
        "city": "MUSKEGON",
        "state": "MI",
        "postalCode": "49444-1849"
      },
      {
        "line": [
          "1700 Clinton Street"
        ],
        "city": "MUSKEGON",
        "state": "MI",
        "postalCode": "49442-5502"
      },
      {
        "line": [
          "1700 Clinton St"
        ],
        "city": "MUSKEGON",
        "state": "MI",
        "postalCode": "49442-5502"
      },
      {
        "line": [
          "4482 Port Sheldon Street"
        ],
        "city": "HUDSONVILLE",
        "state": "MI",
        "postalCode": "49426-9325"
      },
      {
        "line": [
          "1700 Clinton St."
        ],
        "city": "MUSKEGON",
        "state": "MI",
        "postalCode": "49442-5502"
      }
    ],
    "extension": [
      {
        "url": "https://fhir.athena.io/StructureDefinition/ah-practice",
        "valueReference": {
          "reference": "Organization/a-1.Practice-11692"
        }
      },
      {
        "url": "https://fhir.athena.io/StructureDefinition/ah-brand",
        "valueReference": {
          "reference": "Organization/a-11692.Brand-1"
        }
      }
    ]
  },
  "fullUrl": "urn:uuid:948339c2-02bc-50b4-a1c6-29fe81caaf3d"
}