{
  "resource": {
    "resourceType": "Organization",
    "id": "79be9d7d-d969-51e1-925a-11de67a576d1",
    "name": "BlueSky TelePsych",
    "endpoint": [
      {
        "reference": "Endpoint/27a4e967-47aa-5a9c-a572-b8297ee268a2"
      },
      {
        "reference": "Endpoint/bf075637-11b6-5278-b91e-ff018e70558d"
      }
    ],
    "identifier": [
      {
        "system": "http://hl7.org/fhir/sid/us-npi",
        "value": "1659996767"
      }
    ],
    "address": [
      {
        "line": [
          "205 E BENSON BLVD"
        ],
        "city": "ANCHORAGE",
        "state": "AK",
        "postalCode": "99503-4016"
      },
      {
        "line": [
          "2415 E CAMELBACK RD STE 700"
        ],
        "city": "PHOENIX",
        "state": "AZ",
        "postalCode": "85016-4245"
      },
      {
        "line": [
          "430 NEW PARK AVE STE 102"
        ],
        "city": "WEST HARTFORD",
        "state": "CT",
        "postalCode": "06110-1142"
      },
      {
        "line": [
          "12345 DUMMY STREET"
        ],
        "city": "GREENSBURG",
        "state": "PA",
        "postalCode": "15601-2310"
      },
      {
        "line": [
          "301 MCCULLOUGH DR"
        ],
        "city": "CHARLOTTE",
        "state": "NC",
        "postalCode": "28262-3310"
      },
      {
        "line": [
          "9550 S EASTERN AVE STE 253"
        ],
        "city": "LAS VEGAS",
        "state": "NV",
        "postalCode": "89123-8042"
      },
      {
        "line": [
          "43 IRONGATE PARK DR"
        ],
        "city": "DAYTON",
        "state": "OH",
        "postalCode": "45459-4616"
      },
      {
        "line": [
          "699 WALNUT ST STE 4 OFC 462"
        ],
        "city": "DES MOINES",
        "state": "IA",
        "postalCode": "50309-3949"
      },
      {
        "line": [
          "1431 OPUS PL STE 110"
        ],
        "city": "DOWNERS GROVE",
        "state": "IL",
        "postalCode": "60515-1164"
      },
      {
        "line": [
          "1250 CONNECTICUT AVE NW STE 700"
        ],
        "city": "WASHINGTON",
        "state": "DC",
        "postalCode": "20036-2657"
      },
      {
        "line": [
          "5850 SAN FELIPE ST STE 301"
        ],
        "city": "HOUSTON",
        "state": "TX",
        "postalCode": "77057-3070"
      },
      {
        "line": [
          "1433 N WATER ST STE 400"
        ],
        "city": "MILWAUKEE",
        "state": "WI",
        "postalCode": "53202-2603"
      },
      {
        "line": [
          "177 PARK AVE"
        ],
        "city": "SAN JOSE",
        "state": "CA",
        "postalCode": "95113-2259"
      },
      {
        "line": [
          "2239 FOSSIL CREEK PKWY"
        ],
        "city": "FORT COLLINS",
        "state": "CO",
        "postalCode": "80528-7108"
      },
      {
        "line": [
          "123 Test Street"
        ],
        "city": "NASHVILLE",
        "state": "TN",
        "postalCode": "37212-9998"
      },
      {
        "line": [
          "31 BALTIMORE ST STE 105"
        ],
        "city": "CUMBERLAND",
        "state": "MD",
        "postalCode": "21502-3091"
      },
      {
        "line": [
          "100 S 5TH ST STE 1900"
        ],
        "city": "MINNEAPOLIS",
        "state": "MN",
        "postalCode": "55402-1267"
      },
      {
        "line": [
          "123 Main St"
        ],
        "city": "NEW YORK",
        "state": "NY",
        "postalCode": "10017-1020"
      },
      {
        "line": [
          "615 SAINT GEORGE SQUARE CT"
        ],
        "city": "WINSTON SALEM",
        "state": "NC",
        "postalCode": "27103-1356"
      },
      {
        "line": [
          "101 FEDERAL ST STE 1900"
        ],
        "city": "BOSTON",
        "state": "MA",
        "postalCode": "02110-1861"
      },
      {
        "line": [
          "100\tSun\tAvenue NE"
        ],
        "city": "ALBUQUERQUE",
        "state": "NM",
        "postalCode": "87109-0110"
      },
      {
        "line": [
          "312 S 4TH ST STE 700"
        ],
        "city": "LOUISVILLE",
        "state": "KY",
        "postalCode": "40202-3046"
      },
      {
        "line": [
          "3335 SW FALCON ST"
        ],
        "city": "PORTLAND",
        "state": "OR",
        "postalCode": "97219-3728"
      },
      {
        "line": [
          "1455 NW LEARY WAY STE 400"
        ],
        "city": "SEATTLE",
        "state": "WA",
        "postalCode": "98107-5138"
      },
      {
        "line": [
          "200 N SAINT ANDREWS ST STE 2"
        ],
        "city": "DOTHAN",
        "state": "AL",
        "postalCode": "36303-4809"
      },
      {
        "line": [
          "317 E CAPITOL ST STE 200"
        ],
        "city": "JACKSON",
        "state": "MS",
        "postalCode": "39201-3405"
      }
    ],
    "extension": [
      {
        "url": "https://fhir.athena.io/StructureDefinition/ah-practice",
        "valueReference": {
          "reference": "Organization/a-1.Practice-22469"
        }
      },
      {
        "url": "https://fhir.athena.io/StructureDefinition/ah-brand",
        "valueReference": {
          "reference": "Organization/a-22469.Brand-1"
        }
      }
    ]
  },
  "fullUrl": "urn:uuid:79be9d7d-d969-51e1-925a-11de67a576d1"
}