{
  "resource": {
    "resourceType": "Organization",
    "id": "fc1ca4d0-9762-586e-a12a-960357c5ddad",
    "name": "ALEXANDRIA MANOR",
    "endpoint": [
      {
        "reference": "Endpoint/27a4e967-47aa-5a9c-a572-b8297ee268a2"
      },
      {
        "reference": "Endpoint/c078f7b7-4208-54a9-a1a9-039e4cd16184"
      }
    ],
    "identifier": [
      {
        "system": "http://hl7.org/fhir/sid/us-npi",
        "value": "1952415010"
      }
    ],
    "address": [
      {
        "line": [
          "1836 12th st"
        ],
        "city": "BETHLEHEM",
        "state": "PA",
        "postalCode": "18020-5826"
      },
      {
        "line": [],
        "city": "EASTON",
        "state": "PA",
        "postalCode": "18045-2618"
      },
      {
        "line": [
          "1840 Mansfield St"
        ],
        "city": "HELLERTOWN",
        "state": "PA",
        "postalCode": "18055-2830"
      },
      {
        "line": [],
        "city": "BETHLEHEM",
        "state": "PA",
        "postalCode": "18017-9436"
      },
      {
        "line": [
          "733 2nd ave"
        ],
        "city": "BETHLEHEM",
        "state": "PA",
        "postalCode": "18018-3626"
      },
      {
        "line": [
          "447 Heckeweldner Place"
        ],
        "city": "BETHLEHEM",
        "state": "PA",
        "postalCode": "18018-5806"
      },
      {
        "line": [
          "2239 Lafayette ave"
        ],
        "city": "BETHLEHEM",
        "state": "PA",
        "postalCode": "18017-5017"
      },
      {
        "line": [
          "5300 Northgate DR",
          "APt 203"
        ],
        "city": "BETHLEHEM",
        "state": "PA",
        "postalCode": "18017-9442"
      },
      {
        "line": [
          "737 Main St"
        ],
        "city": "BETHLEHEM",
        "state": "PA",
        "postalCode": "18018-3805"
      },
      {
        "line": [
          "3534 LINDEN STREET"
        ],
        "city": "BETHLEHEM",
        "state": "PA",
        "postalCode": "18017-1134"
      },
      {
        "line": [
          "1519 Cottage Ave"
        ],
        "city": "BETHLEHEM",
        "state": "PA",
        "postalCode": "18018-4809"
      },
      {
        "line": [
          "1958 Cancellor St"
        ],
        "city": "HELLERTOWN",
        "state": "PA",
        "postalCode": "18055-2802"
      },
      {
        "line": [
          "621 Hayes St"
        ],
        "city": "BETHLEHEM",
        "state": "PA",
        "postalCode": "18015-3532"
      },
      {
        "line": [
          "526 wood st",
          "Apt 322"
        ],
        "city": "BETHLEHEM",
        "state": "PA",
        "postalCode": "18018-4462"
      },
      {
        "line": [
          "526 wood St",
          "Apt 312"
        ],
        "city": "BETHLEHEM",
        "state": "PA",
        "postalCode": "18018-4456"
      }
    ],
    "extension": [
      {
        "url": "https://fhir.athena.io/StructureDefinition/ah-practice",
        "valueReference": {
          "reference": "Organization/a-1.Practice-2434"
        }
      },
      {
        "url": "https://fhir.athena.io/StructureDefinition/ah-brand",
        "valueReference": {
          "reference": "Organization/a-2434.Brand-1"
        }
      }
    ]
  },
  "fullUrl": "urn:uuid:fc1ca4d0-9762-586e-a12a-960357c5ddad"
}