{
  "resource": {
    "resourceType": "Organization",
    "id": "bdd873ec-1f04-5ea4-9d3e-e864c5df5158",
    "name": "Valley House Doctors PLLC",
    "endpoint": [
      {
        "reference": "Endpoint/27a4e967-47aa-5a9c-a572-b8297ee268a2"
      },
      {
        "reference": "Endpoint/1c1e08ab-7c67-5a6d-b813-563ff4d6f841"
      }
    ],
    "identifier": [
      {
        "system": "http://hl7.org/fhir/sid/us-npi",
        "value": "1972985315"
      }
    ],
    "address": [
      {
        "line": [
          "440 RUBEN TORRES SR BLVD"
        ],
        "city": "BROWNSVILLE",
        "state": "TX",
        "postalCode": "78520-9102"
      },
      {
        "line": [
          "800 W JEFFERSON ST STE 150"
        ],
        "city": "BROWNSVILLE",
        "state": "TX",
        "postalCode": "78520-6358"
      },
      {
        "line": [
          "510 PAREDES LINE RD"
        ],
        "city": "BROWNSVILLE",
        "state": "TX",
        "postalCode": "78521-2438"
      },
      {
        "line": [
          "320 LORENALY DR",
          "(Regency)"
        ],
        "city": "BROWNSVILLE",
        "state": "TX",
        "postalCode": "78526-4060"
      },
      {
        "line": [
          "310 AMERICA DR"
        ],
        "city": "BROWNSVILLE",
        "state": "TX",
        "postalCode": "78526-7437"
      },
      {
        "line": [
          "180 E PRICE RD"
        ],
        "city": "BROWNSVILLE",
        "state": "TX",
        "postalCode": "78521-3528"
      },
      {
        "line": [
          "901 WILDROSE LN"
        ],
        "city": "BROWNSVILLE",
        "state": "TX",
        "postalCode": "78520-8816"
      },
      {
        "line": [
          "1001 CENTRAL BLVD"
        ],
        "city": "BROWNSVILLE",
        "state": "TX",
        "postalCode": "78520-7533"
      },
      {
        "line": [
          "1040 W JEFFERSON ST"
        ],
        "city": "BROWNSVILLE",
        "state": "TX",
        "postalCode": "78520-6338"
      }
    ],
    "extension": [
      {
        "url": "https://fhir.athena.io/StructureDefinition/ah-practice",
        "valueReference": {
          "reference": "Organization/a-1.Practice-25612"
        }
      },
      {
        "url": "https://fhir.athena.io/StructureDefinition/ah-brand",
        "valueReference": {
          "reference": "Organization/a-25612.Brand-1"
        }
      }
    ]
  },
  "fullUrl": "urn:uuid:bdd873ec-1f04-5ea4-9d3e-e864c5df5158"
}