{
  "resource": {
    "resourceType": "Organization",
    "id": "671809db-f73a-546a-84d5-f7887c447857",
    "name": "Dr. James McGlowan",
    "endpoint": [
      {
        "reference": "Endpoint/27a4e967-47aa-5a9c-a572-b8297ee268a2"
      },
      {
        "reference": "Endpoint/3063adad-3cf1-5d51-b329-24b7e028c29f"
      }
    ],
    "identifier": [
      {
        "system": "http://hl7.org/fhir/sid/us-npi",
        "value": "1538630827"
      },
      {
        "system": "http://hl7.org/fhir/sid/us-npi",
        "value": "1508041427"
      }
    ],
    "address": [
      {
        "line": [
          "840 Winter Street"
        ],
        "city": "WALTHAM",
        "state": "MA",
        "postalCode": "02451-1433"
      },
      {
        "line": [
          "30 GLENNIE ST"
        ],
        "city": "WORCESTER",
        "state": "MA",
        "postalCode": "01605-3924"
      },
      {
        "line": [
          "148 chestnut street"
        ],
        "city": "NEEDHAM",
        "state": "MA",
        "postalCode": "02492-2505"
      },
      {
        "line": [
          "736 CAMBRIDGE ST"
        ],
        "city": "BOSTON",
        "state": "MA",
        "postalCode": "02135-2907"
      },
      {
        "line": [
          "49 Pearl Street"
        ],
        "city": "BROCKTON",
        "state": "MA",
        "postalCode": "02301-2817"
      },
      {
        "line": [
          "736 CAMBRIDGE ST"
        ],
        "city": "BRIGHTON",
        "state": "MA",
        "postalCode": "02135-2907"
      },
      {
        "line": [
          "49 PEARL ST."
        ],
        "city": "BROCKTON",
        "state": "MA",
        "postalCode": "02301-2878"
      },
      {
        "line": [
          "148 CHESTNUT ST"
        ],
        "city": "NEEDHAM",
        "state": "MA",
        "postalCode": "02492-2505"
      },
      {
        "line": [
          "71 BORDER RD",
          "STE 101"
        ],
        "city": "WALTHAM",
        "state": "MA",
        "postalCode": "02451-1044"
      },
      {
        "line": [
          "923 HYDE PARK AVE"
        ],
        "city": "HYDE PARK",
        "state": "MA",
        "postalCode": "02136-3371"
      }
    ],
    "extension": [
      {
        "url": "https://fhir.athena.io/StructureDefinition/ah-practice",
        "valueReference": {
          "reference": "Organization/a-1.Practice-17867"
        }
      },
      {
        "url": "https://fhir.athena.io/StructureDefinition/ah-brand",
        "valueReference": {
          "reference": "Organization/a-17867.Brand-1"
        }
      }
    ]
  },
  "fullUrl": "urn:uuid:671809db-f73a-546a-84d5-f7887c447857"
}