{
  "resource": {
    "resourceType": "Organization",
    "id": "a9f00f7c-e738-536d-b680-3e6d20827976",
    "name": "YMCA of Greater Richmond",
    "endpoint": [
      {
        "reference": "Endpoint/27a4e967-47aa-5a9c-a572-b8297ee268a2"
      },
      {
        "reference": "Endpoint/abb5f7d5-468e-5806-be46-fb2282afef02"
      }
    ],
    "identifier": [
      {
        "system": "http://hl7.org/fhir/sid/us-npi",
        "value": "1356898365"
      }
    ],
    "address": [
      {
        "line": [
          "7090 Covenant Woods Dr"
        ],
        "city": "MECHANICSVILLE",
        "state": "VA",
        "postalCode": "23111-7025"
      },
      {
        "line": [
          "9211 Patterson Ave"
        ],
        "city": "HENRICO",
        "state": "VA",
        "postalCode": "23229-6100"
      },
      {
        "line": [
          "2 W Franklin St"
        ],
        "city": "RICHMOND",
        "state": "VA",
        "postalCode": "23220-5006"
      },
      {
        "line": [
          "2223 S Crater Rd"
        ],
        "city": "PETERSBURG",
        "state": "VA",
        "postalCode": "23805-2103"
      },
      {
        "line": [
          "8017 Rutland Center Blvd"
        ],
        "city": "MECHANICSVILLE",
        "state": "VA",
        "postalCode": "23116-4059"
      },
      {
        "line": [
          "15800 Hampton Park Dr."
        ],
        "city": "CHESTERFIELD",
        "state": "VA",
        "postalCode": "23832-2091"
      },
      {
        "line": [
          "11255 Nuckols Rd"
        ],
        "city": "GLEN ALLEN",
        "state": "VA",
        "postalCode": "23059-5502"
      },
      {
        "line": [
          "7540 Hull St Rd"
        ],
        "city": "RICHMOND",
        "state": "VA",
        "postalCode": "23235-5810"
      },
      {
        "line": [
          "212 Weaver Ave"
        ],
        "city": "EMPORIA",
        "state": "VA",
        "postalCode": "23847-1236"
      },
      {
        "line": [
          "217 Ashcake Road"
        ],
        "city": "ASHLAND",
        "state": "VA",
        "postalCode": "23005-1621"
      },
      {
        "line": [
          "120 N Madison St"
        ],
        "city": "PETERSBURG",
        "state": "VA",
        "postalCode": "23803-3332"
      },
      {
        "line": [
          "2269 Mann Rd"
        ],
        "city": "POWHATAN",
        "state": "VA",
        "postalCode": "23139-5748"
      },
      {
        "line": [
          "737 Coalfield Rd"
        ],
        "city": "MIDLOTHIAN",
        "state": "VA",
        "postalCode": "23114-4445"
      },
      {
        "line": [
          "Three James Center",
          "1051 E Cary St, Ste 300"
        ],
        "city": "RICHMOND",
        "state": "VA",
        "postalCode": "23219-4050"
      },
      {
        "line": [
          "1800 Dickinson Rd"
        ],
        "city": "GOOCHLAND",
        "state": "VA",
        "postalCode": "23063-3237"
      },
      {
        "line": [
          "151 McIntire Park Drive"
        ],
        "city": "CHARLOTTESVILLE",
        "state": "VA",
        "postalCode": "22902-4503"
      },
      {
        "line": [
          "5401 Whiteside Rd"
        ],
        "city": "SANDSTON",
        "state": "VA",
        "postalCode": "23150-2317"
      },
      {
        "line": [
          "13141 N Enon Church Rd"
        ],
        "city": "CHESTER",
        "state": "VA",
        "postalCode": "23836-3120"
      },
      {
        "line": [
          "9300 Shawonodassee Rd"
        ],
        "city": "CHESTERFIELD",
        "state": "VA",
        "postalCode": "23832-6330"
      },
      {
        "line": [
          "3011 W Hundred Rd"
        ],
        "city": "CHESTER",
        "state": "VA",
        "postalCode": "23831-2110"
      },
      {
        "line": [
          "2244 John Rolfe Parkway"
        ],
        "city": "HENRICO",
        "state": "VA",
        "postalCode": "23233-6913"
      },
      {
        "line": [
          "4207 Old Brook Rd"
        ],
        "city": "RICHMOND",
        "state": "VA",
        "postalCode": "23227-3815"
      }
    ],
    "extension": [
      {
        "url": "https://fhir.athena.io/StructureDefinition/ah-practice",
        "valueReference": {
          "reference": "Organization/a-1.Practice-14268"
        }
      },
      {
        "url": "https://fhir.athena.io/StructureDefinition/ah-brand",
        "valueReference": {
          "reference": "Organization/a-14268.Brand-1"
        }
      }
    ]
  },
  "fullUrl": "urn:uuid:a9f00f7c-e738-536d-b680-3e6d20827976"
}