{
  "resource": {
    "resourceType": "Organization",
    "id": "93fb538f-9946-548e-ad61-285aadbe2b17",
    "name": "Atlas Infectious Disease",
    "endpoint": [
      {
        "reference": "Endpoint/27a4e967-47aa-5a9c-a572-b8297ee268a2"
      },
      {
        "reference": "Endpoint/118f0a26-2d74-56b2-b3b3-8964fcc1afb7"
      }
    ],
    "identifier": [
      {
        "system": "http://hl7.org/fhir/sid/us-npi",
        "value": "1326655846"
      }
    ],
    "address": [
      {
        "line": [
          "901 45TH ST"
        ],
        "city": "WEST PALM BEACH",
        "state": "FL",
        "postalCode": "33407-2413"
      },
      {
        "line": [
          "2201 45th Street"
        ],
        "city": "WEST PALM BEACH",
        "state": "FL",
        "postalCode": "33407-2047"
      },
      {
        "line": [
          "9655 BOYNTON BEACH BLVD"
        ],
        "city": "BOYNTON BEACH",
        "state": "FL",
        "postalCode": "33472-4421"
      },
      {
        "line": [
          "5401 S CONGRESS AVE",
          "STE 201"
        ],
        "city": "LAKE WORTH",
        "state": "FL",
        "postalCode": "33462-6637"
      },
      {
        "line": [
          "1309 N FLAGLER DR"
        ],
        "city": "WEST PALM BEACH",
        "state": "FL",
        "postalCode": "33401-3406"
      },
      {
        "line": [
          "5301 SOUTH CONGRESS AVENUE"
        ],
        "city": "LAKE WORTH",
        "state": "FL",
        "postalCode": "33462-1149"
      },
      {
        "line": [
          "2815 S SEACREST BLVD"
        ],
        "city": "BOYNTON BEACH",
        "state": "FL",
        "postalCode": "33435-7969"
      },
      {
        "line": [
          "2501 N AUSTRAILIAN AVE"
        ],
        "city": "WEST PALM BEACH",
        "state": "FL",
        "postalCode": "33407-5638"
      },
      {
        "line": [
          "1710 LAKE WORTH RD"
        ],
        "city": "LAKE WORTH",
        "state": "FL",
        "postalCode": "33460-3627"
      },
      {
        "line": [
          "10101 FOREST HILL BLVD"
        ],
        "city": "WELLINGTON",
        "state": "FL",
        "postalCode": "33414-6103"
      },
      {
        "line": [
          "4847 FRED GLADSTONE DRIVE"
        ],
        "city": "WEST PALM BEACH",
        "state": "FL",
        "postalCode": "33417-8023"
      },
      {
        "line": [
          "3060 MELALEUCA LN"
        ],
        "city": "LAKE WORTH",
        "state": "FL",
        "postalCode": "33461-5174"
      },
      {
        "line": [
          "1201 12TH AVE S"
        ],
        "city": "LAKE WORTH",
        "state": "FL",
        "postalCode": "33460-5409"
      },
      {
        "line": [
          "130 JFK DRIVE",
          "SUITE 134"
        ],
        "city": "LAKE WORTH",
        "state": "FL",
        "postalCode": "33462-1133"
      },
      {
        "line": [
          "2939 HAVERHILL ROAD"
        ],
        "city": "WEST PALM BEACH",
        "state": "FL",
        "postalCode": "33415-8118"
      }
    ],
    "extension": [
      {
        "url": "https://fhir.athena.io/StructureDefinition/ah-practice",
        "valueReference": {
          "reference": "Organization/a-1.Practice-22363"
        }
      },
      {
        "url": "https://fhir.athena.io/StructureDefinition/ah-brand",
        "valueReference": {
          "reference": "Organization/a-22363.Brand-1"
        }
      }
    ]
  },
  "fullUrl": "urn:uuid:93fb538f-9946-548e-ad61-285aadbe2b17"
}