{
  "resource": {
    "resourceType": "Organization",
    "id": "b740561a-51dc-5ffe-8cd8-152c3ab26d44",
    "name": "Integrative Foot And Ankle Centers of Washington",
    "endpoint": [
      {
        "reference": "Endpoint/27a4e967-47aa-5a9c-a572-b8297ee268a2"
      },
      {
        "reference": "Endpoint/95d329ec-b0d1-5f5d-bd81-91c25d2306a1"
      }
    ],
    "identifier": [
      {
        "system": "http://hl7.org/fhir/sid/us-npi",
        "value": "1154106516"
      }
    ],
    "address": [
      {
        "line": [
          "500 17th Avenue"
        ],
        "city": "SEATTLE",
        "state": "WA",
        "postalCode": "98122-5711"
      },
      {
        "line": [
          "23228 49th Avenue SE"
        ],
        "city": "BOTHELL",
        "state": "WA",
        "postalCode": "98021-8000"
      },
      {
        "line": [
          "4300 Talbot Road South Suite 315"
        ],
        "city": "RENTON",
        "state": "WA",
        "postalCode": "98055-6238"
      },
      {
        "line": [
          "600 Broadway Suite #220"
        ],
        "city": "SEATTLE",
        "state": "WA",
        "postalCode": "98122-5373"
      },
      {
        "line": [
          "12040 NE 128TH Street"
        ],
        "city": "KIRKLAND",
        "state": "WA",
        "postalCode": "98034-3013"
      },
      {
        "line": [
          "1301 4th Avenue NW Suite 201"
        ],
        "city": "ISSAQUAH",
        "state": "WA",
        "postalCode": "98027-9317"
      },
      {
        "line": [
          "3236 78th Avenue SE, Suite 201"
        ],
        "city": "MERCER ISLAND",
        "state": "WA",
        "postalCode": "98040-3500"
      },
      {
        "line": [
          "16251 Sylvester Road SW"
        ],
        "city": "SEATTLE",
        "state": "WA",
        "postalCode": "98166-3017"
      },
      {
        "line": [
          "1321 Colby Avenue"
        ],
        "city": "EVERETT",
        "state": "WA",
        "postalCode": "98201-1665"
      },
      {
        "line": [
          "21601 76th Ave West"
        ],
        "city": "EDMONDS",
        "state": "WA",
        "postalCode": "98026-7507"
      },
      {
        "line": [
          "19327 Kings Garden Drive North"
        ],
        "city": "SEATTLE",
        "state": "WA",
        "postalCode": "98133-3838"
      },
      {
        "line": [
          "4700 Phinney Ave North"
        ],
        "city": "SEATTLE",
        "state": "WA",
        "postalCode": "98103-7400"
      },
      {
        "line": [
          "16030 Bothell Everett Highway, Suite 160"
        ],
        "city": "Bothell",
        "state": "WA",
        "postalCode": "98012-1794"
      },
      {
        "line": [
          "747 Broadway"
        ],
        "city": "SEATTLE",
        "state": "WA",
        "postalCode": "98122-4379"
      },
      {
        "line": [
          "751 NE Blakely Drive"
        ],
        "city": "ISSAQUAH",
        "state": "WA",
        "postalCode": "98029-6201"
      }
    ],
    "extension": [
      {
        "url": "https://fhir.athena.io/StructureDefinition/ah-practice",
        "valueReference": {
          "reference": "Organization/a-1.Practice-28424"
        }
      },
      {
        "url": "https://fhir.athena.io/StructureDefinition/ah-brand",
        "valueReference": {
          "reference": "Organization/a-28424.Brand-1"
        }
      }
    ]
  },
  "fullUrl": "urn:uuid:b740561a-51dc-5ffe-8cd8-152c3ab26d44"
}