{
  "resource": {
    "resourceType": "Organization",
    "id": "260f1931-e7b7-55c0-b678-059db7a97cd3",
    "name": "REAP- Corsicana Medical Associates",
    "endpoint": [
      {
        "reference": "Endpoint/27a4e967-47aa-5a9c-a572-b8297ee268a2"
      },
      {
        "reference": "Endpoint/a196c308-faf6-5234-bb66-d7ac1fda0eaf"
      }
    ],
    "identifier": [
      {
        "system": "http://hl7.org/fhir/sid/us-npi",
        "value": "1881656247"
      },
      {
        "system": "http://hl7.org/fhir/sid/us-npi",
        "value": "1750302923"
      },
      {
        "system": "http://hl7.org/fhir/sid/us-npi",
        "value": "1669801585"
      },
      {
        "system": "http://hl7.org/fhir/sid/us-npi",
        "value": "1053373951"
      },
      {
        "system": "http://hl7.org/fhir/sid/us-npi",
        "value": "1215999511"
      },
      {
        "system": "http://hl7.org/fhir/sid/us-npi",
        "value": "1730484031"
      },
      {
        "system": "http://hl7.org/fhir/sid/us-npi",
        "value": "1649232984"
      },
      {
        "system": "http://hl7.org/fhir/sid/us-npi",
        "value": "1962602300"
      },
      {
        "system": "http://hl7.org/fhir/sid/us-npi",
        "value": "1215348487"
      },
      {
        "system": "http://hl7.org/fhir/sid/us-npi",
        "value": "1124080320"
      }
    ],
    "address": [
      {
        "line": [
          "400 Hospital Dr Ste 210"
        ],
        "city": "CORSICANA",
        "state": "TX",
        "postalCode": "75110-2489"
      },
      {
        "line": [
          "400 Hospital Dr Ste 116"
        ],
        "city": "CORSICANA",
        "state": "TX",
        "postalCode": "75110-2489"
      },
      {
        "line": [
          "400 HOSPITAL DR STE 201"
        ],
        "city": "CORSICANA",
        "state": "TX",
        "postalCode": "75110-2489"
      },
      {
        "line": [
          "400 Hospital Dr Ste 100"
        ],
        "city": "CORSICANA",
        "state": "TX",
        "postalCode": "75110-2489"
      },
      {
        "line": [
          "400 Hospital Drive Ste 104"
        ],
        "city": "CORSICANA",
        "state": "TX",
        "postalCode": "75110-2489"
      },
      {
        "line": [
          "400 HOSPITAL DR STE 210"
        ],
        "city": "CORSICANA",
        "state": "TX",
        "postalCode": "75110-2489"
      },
      {
        "line": [
          "505 N HIGHWAY 77 STE 200"
        ],
        "city": "Waxahachie",
        "state": "TX",
        "postalCode": "75165-1129"
      },
      {
        "line": [
          "400 Hospital Dr Ste 201"
        ],
        "city": "CORSICANA",
        "state": "TX",
        "postalCode": "75110-2489"
      },
      {
        "line": [
          "400 Hospital Dr Ste 207"
        ],
        "city": "CORSICANA",
        "state": "TX",
        "postalCode": "75110-2489"
      },
      {
        "line": [
          "501 E MILAM ST"
        ],
        "city": "MEXIA",
        "state": "TX",
        "postalCode": "76667-2331"
      },
      {
        "line": [
          "400 Hospital Dr Ste 101"
        ],
        "city": "CORSICANA",
        "state": "TX",
        "postalCode": "75110-2489"
      },
      {
        "line": [
          "400 Hospital Dr Ste 115"
        ],
        "city": "CORSICANA",
        "state": "TX",
        "postalCode": "75110-2489"
      },
      {
        "line": [
          "1305 W JEFFERSON ST STE 115"
        ],
        "city": "WAXAHACHIE",
        "state": "TX",
        "postalCode": "75165-2250"
      },
      {
        "line": [
          "400 HOSPITAL DR STE 200"
        ],
        "city": "Corsicana",
        "state": "TX",
        "postalCode": "75110-2489"
      },
      {
        "line": [
          "400 Hospital Drive Ste 200"
        ],
        "city": "CORSICANA",
        "state": "TX",
        "postalCode": "75110-2489"
      }
    ],
    "extension": [
      {
        "url": "https://fhir.athena.io/StructureDefinition/ah-practice",
        "valueReference": {
          "reference": "Organization/a-1.Practice-1902"
        }
      },
      {
        "url": "https://fhir.athena.io/StructureDefinition/ah-brand",
        "valueReference": {
          "reference": "Organization/a-1902.Brand-3"
        }
      }
    ]
  },
  "fullUrl": "urn:uuid:260f1931-e7b7-55c0-b678-059db7a97cd3"
}