{
  "resource": {
    "resourceType": "Organization",
    "id": "df791551-aaa8-5258-8e9b-ef2b0335c7fd",
    "name": "Admin Only",
    "endpoint": [
      {
        "reference": "Endpoint/27a4e967-47aa-5a9c-a572-b8297ee268a2"
      },
      {
        "reference": "Endpoint/2f19ccce-373c-562b-a319-f65a2e085ae0"
      }
    ],
    "identifier": [
      {
        "system": "http://hl7.org/fhir/sid/us-npi",
        "value": "1598225021"
      },
      {
        "system": "http://hl7.org/fhir/sid/us-npi",
        "value": "1073175956"
      },
      {
        "system": "http://hl7.org/fhir/sid/us-npi",
        "value": "1548739170"
      },
      {
        "system": "http://hl7.org/fhir/sid/us-npi",
        "value": "1316253875"
      },
      {
        "system": "http://hl7.org/fhir/sid/us-npi",
        "value": "1588226328"
      },
      {
        "system": "http://hl7.org/fhir/sid/us-npi",
        "value": "1396201000"
      }
    ],
    "address": [
      {
        "line": [
          "12 Dallaire Ave"
        ],
        "city": "CHICOPEE",
        "state": "MA",
        "postalCode": "01020-1237"
      },
      {
        "line": [
          "121 Lincoln Street"
        ],
        "city": "WORCESTER",
        "state": "MA",
        "postalCode": "01605-2429"
      },
      {
        "line": [
          "409 Alfred St",
          "Unit 4"
        ],
        "city": "BIDDEFORD",
        "state": "ME",
        "postalCode": "04005-3756"
      },
      {
        "line": [
          "4923 Ogletown Stanton Road",
          "Suite 110"
        ],
        "city": "NEWARK",
        "state": "DE",
        "postalCode": "19713-2012"
      },
      {
        "line": [
          "51 HIGH ST STE 1"
        ],
        "city": "DEXTER",
        "state": "ME",
        "postalCode": "04930-1326"
      },
      {
        "line": [
          "42 Summer Street"
        ],
        "city": "PITTSFIELD",
        "state": "MA",
        "postalCode": "01201-4697"
      },
      {
        "line": [
          "725 North St"
        ],
        "city": "PITTSFIELD",
        "state": "MA",
        "postalCode": "01201-4109"
      },
      {
        "line": [
          "41 Acme Road",
          "Suite 3"
        ],
        "city": "BREWER",
        "state": "ME",
        "postalCode": "04412-1543"
      },
      {
        "line": [
          "489 Bernardston Road",
          "Suite 108"
        ],
        "city": "GREENFIELD",
        "state": "MA",
        "postalCode": "01301-1238"
      },
      {
        "line": [
          "938 South Bradford Street"
        ],
        "city": "DOVER",
        "state": "DE",
        "postalCode": "19901-4139"
      },
      {
        "line": [
          "26B Enfield Rd",
          "STE 1 & 2"
        ],
        "city": "LINCOLN",
        "state": "ME",
        "postalCode": "04457-1190"
      },
      {
        "line": [
          "167 ACADEMY ST STE B"
        ],
        "city": "PRESQUE ISLE",
        "state": "ME",
        "postalCode": "04769-3167"
      },
      {
        "line": [
          "147 RIVERSIDE DR STE 1"
        ],
        "city": "AUGUSTA",
        "state": "ME",
        "postalCode": "04330-4100"
      },
      {
        "line": [
          "4421 Roosevelt Blvd",
          "Suite A"
        ],
        "city": "MIDDLETOWN",
        "state": "OH",
        "postalCode": "45044-9023"
      }
    ],
    "extension": [
      {
        "url": "https://fhir.athena.io/StructureDefinition/ah-practice",
        "valueReference": {
          "reference": "Organization/a-1.Practice-18057"
        }
      },
      {
        "url": "https://fhir.athena.io/StructureDefinition/ah-brand",
        "valueReference": {
          "reference": "Organization/a-18057.Brand-1"
        }
      }
    ]
  },
  "fullUrl": "urn:uuid:df791551-aaa8-5258-8e9b-ef2b0335c7fd"
}