{
  "resource": {
    "resourceType": "Organization",
    "id": "2a7ae874-bd1e-50a3-976c-cf1e4532a368",
    "name": "Aspen Grove Assisted Living",
    "endpoint": [
      {
        "reference": "Endpoint/27a4e967-47aa-5a9c-a572-b8297ee268a2"
      },
      {
        "reference": "Endpoint/88c2d054-98f3-54c5-9e9b-59291ba8b561"
      }
    ],
    "identifier": [
      {
        "system": "http://hl7.org/fhir/sid/us-npi",
        "value": "1548649841"
      },
      {
        "system": "http://hl7.org/fhir/sid/us-npi",
        "value": "1588185268"
      },
      {
        "system": "http://hl7.org/fhir/sid/us-npi",
        "value": "1881073005"
      },
      {
        "system": "http://hl7.org/fhir/sid/us-npi",
        "value": "1104205020"
      },
      {
        "system": "http://hl7.org/fhir/sid/us-npi",
        "value": "1902285828"
      },
      {
        "system": "http://hl7.org/fhir/sid/us-npi",
        "value": "1174569347"
      },
      {
        "system": "http://hl7.org/fhir/sid/us-npi",
        "value": "1124563655"
      },
      {
        "system": "http://hl7.org/fhir/sid/us-npi",
        "value": "1326477357"
      },
      {
        "system": "http://hl7.org/fhir/sid/us-npi",
        "value": "1770502460"
      },
      {
        "system": "http://hl7.org/fhir/sid/us-npi",
        "value": "1629457643"
      },
      {
        "system": "http://hl7.org/fhir/sid/us-npi",
        "value": "1427243963"
      },
      {
        "system": "http://hl7.org/fhir/sid/us-npi",
        "value": "1659750578"
      },
      {
        "system": "http://hl7.org/fhir/sid/us-npi",
        "value": "1619344405"
      },
      {
        "system": "http://hl7.org/fhir/sid/us-npi",
        "value": "1578942496"
      },
      {
        "system": "http://hl7.org/fhir/sid/us-npi",
        "value": "1073992004"
      },
      {
        "system": "http://hl7.org/fhir/sid/us-npi",
        "value": "1003295924"
      },
      {
        "system": "http://hl7.org/fhir/sid/us-npi",
        "value": "1558740472"
      },
      {
        "system": "http://hl7.org/fhir/sid/us-npi",
        "value": "1821477746"
      },
      {
        "system": "http://hl7.org/fhir/sid/us-npi",
        "value": "1265811285"
      },
      {
        "system": "http://hl7.org/fhir/sid/us-npi",
        "value": "1871972794"
      },
      {
        "system": "http://hl7.org/fhir/sid/us-npi",
        "value": "1639535875"
      },
      {
        "system": "http://hl7.org/fhir/sid/us-npi",
        "value": "1275553463"
      },
      {
        "system": "http://hl7.org/fhir/sid/us-npi",
        "value": "1811366438"
      },
      {
        "system": "http://hl7.org/fhir/sid/us-npi",
        "value": "1306225222"
      },
      {
        "system": "http://hl7.org/fhir/sid/us-npi",
        "value": "1124407044"
      },
      {
        "system": "http://hl7.org/fhir/sid/us-npi",
        "value": "1629294582"
      },
      {
        "system": "http://hl7.org/fhir/sid/us-npi",
        "value": "1114072543"
      },
      {
        "system": "http://hl7.org/fhir/sid/us-npi",
        "value": "1205029683"
      },
      {
        "system": "http://hl7.org/fhir/sid/us-npi",
        "value": "1629253588"
      },
      {
        "system": "http://hl7.org/fhir/sid/us-npi",
        "value": "1750528089"
      },
      {
        "system": "http://hl7.org/fhir/sid/us-npi",
        "value": "1508290248"
      },
      {
        "system": "http://hl7.org/fhir/sid/us-npi",
        "value": "1093929853"
      },
      {
        "system": "http://hl7.org/fhir/sid/us-npi",
        "value": "1659322857"
      },
      {
        "system": "http://hl7.org/fhir/sid/us-npi",
        "value": "1982855268"
      },
      {
        "system": "http://hl7.org/fhir/sid/us-npi",
        "value": "1326189754"
      },
      {
        "system": "http://hl7.org/fhir/sid/us-npi",
        "value": "1801212402"
      },
      {
        "system": "http://hl7.org/fhir/sid/us-npi",
        "value": "1336319763"
      },
      {
        "system": "http://hl7.org/fhir/sid/us-npi",
        "value": "1932533619"
      },
      {
        "system": "http://hl7.org/fhir/sid/us-npi",
        "value": "1235424201"
      },
      {
        "system": "http://hl7.org/fhir/sid/us-npi",
        "value": "1700090560"
      },
      {
        "system": "http://hl7.org/fhir/sid/us-npi",
        "value": "1720025190"
      },
      {
        "system": "http://hl7.org/fhir/sid/us-npi",
        "value": "1386858132"
      },
      {
        "system": "http://hl7.org/fhir/sid/us-npi",
        "value": "1528407616"
      },
      {
        "system": "http://hl7.org/fhir/sid/us-npi",
        "value": "1780812644"
      },
      {
        "system": "http://hl7.org/fhir/sid/us-npi",
        "value": "1225365554"
      }
    ],
    "address": [
      {
        "line": [
          "1121 Washington Blvd"
        ],
        "city": "NEWCASTLE",
        "state": "WY",
        "postalCode": "82701-2968"
      },
      {
        "line": [
          "717 Meade St, Ste 100"
        ],
        "city": "RAPID CITY",
        "state": "SD",
        "postalCode": "57701-5100"
      },
      {
        "line": [
          "550 East Colorado Blvd"
        ],
        "city": "SPEARFISH",
        "state": "SD",
        "postalCode": "57783-2776"
      },
      {
        "line": [
          "1420 N 10th Street"
        ],
        "city": "SPEARFISH",
        "state": "SD",
        "postalCode": "57783-1532"
      },
      {
        "line": [
          "1100 Highway 71 S, Ste 101"
        ],
        "city": "HOT SPRINGS",
        "state": "SD",
        "postalCode": "57747-1000"
      },
      {
        "line": [
          "409 E Fairlane Drive"
        ],
        "city": "RAPID CITY",
        "state": "SD",
        "postalCode": "57701-7207"
      },
      {
        "line": [
          "2805 5th Street, Ste 100"
        ],
        "city": "RAPID CITY",
        "state": "SD",
        "postalCode": "57701-6003"
      },
      {
        "line": [],
        "city": "DEADWOOD",
        "state": "SD",
        "postalCode": "57732-1303"
      },
      {
        "line": [
          "890 Lazelle Street"
        ],
        "city": "STURGIS",
        "state": "SD",
        "postalCode": "57785-1611"
      },
      {
        "line": [
          "501 E Saint Joseph St"
        ],
        "city": "RAPID CITY",
        "state": "SD",
        "postalCode": "57701-3901"
      },
      {
        "line": [],
        "city": "RAPID CITY",
        "state": "SD",
        "postalCode": "57701-1400"
      },
      {
        "line": [],
        "city": "RAPID CITY",
        "state": "SD",
        "postalCode": "57701-4679"
      },
      {
        "line": [
          "353 Fairmont Blvd"
        ],
        "city": "RAPID CITY",
        "state": "SD",
        "postalCode": "57701-7375"
      },
      {
        "line": [
          "510 N Green Dr."
        ],
        "city": "VALENTINE",
        "state": "NE",
        "postalCode": "69201-1932"
      },
      {
        "line": [
          "302 St Cloud St"
        ],
        "city": "RAPID CITY",
        "state": "SD",
        "postalCode": "57701-3767"
      },
      {
        "line": [
          "713 Oak Street",
          "PO Box 517"
        ],
        "city": "SUNDANCE",
        "state": "WY",
        "postalCode": "82729-0001"
      },
      {
        "line": [
          "1011 11th St."
        ],
        "city": "RAPID CITY",
        "state": "SD",
        "postalCode": "57701-4600"
      },
      {
        "line": [
          "61 Charles Street"
        ],
        "city": "DEADWOOD",
        "state": "SD",
        "postalCode": "57732-1303"
      },
      {
        "line": [
          "949 Harmon Street"
        ],
        "city": "STURGIS",
        "state": "SD",
        "postalCode": "57785-2452"
      },
      {
        "line": [
          "255 Texas Street"
        ],
        "city": "RAPID CITY",
        "state": "SD",
        "postalCode": "57701-7356"
      },
      {
        "line": [
          "1760 Tablerock Rd"
        ],
        "city": "RAPID CITY",
        "state": "SD",
        "postalCode": "57701-5496"
      },
      {
        "line": [
          "2065 Moose Drive"
        ],
        "city": "STURGIS",
        "state": "SD",
        "postalCode": "57785-4003"
      },
      {
        "line": [
          "1440 N Main Street"
        ],
        "city": "SPEARFISH",
        "state": "SD",
        "postalCode": "57783-1505"
      },
      {
        "line": [],
        "city": "BUFFALO",
        "state": "SD",
        "postalCode": "57720-0045"
      },
      {
        "line": [
          "1124 Washington blvd"
        ],
        "city": "NEWCASTLE",
        "state": "WY",
        "postalCode": "82701-2972"
      },
      {
        "line": [
          "106 E Main Street"
        ],
        "city": "NEWCASTLE",
        "state": "WY",
        "postalCode": "82701-2104"
      },
      {
        "line": [
          "1200 University Blvd"
        ],
        "city": "SPEARFISH",
        "state": "SD",
        "postalCode": "57799-8840"
      },
      {
        "line": [
          "1420 N 10th Street"
        ],
        "city": "SPEARFISH",
        "state": "SD",
        "postalCode": "57783-8595"
      },
      {
        "line": [
          "2116 Jackson Blvd"
        ],
        "city": "RAPID CITY",
        "state": "SD",
        "postalCode": "57702-3495"
      },
      {
        "line": [
          "10905 sourdough road"
        ],
        "city": "BELLE FOURCHE",
        "state": "SD",
        "postalCode": "57717-6117"
      },
      {
        "line": [
          "640 Flormann"
        ],
        "city": "RAPID CITY",
        "state": "SD",
        "postalCode": "57701-4679"
      },
      {
        "line": [
          "1200 Univeristy Blvd"
        ],
        "city": "SPEARFISH",
        "state": "SD",
        "postalCode": "57799-8840"
      },
      {
        "line": [],
        "city": "SPEARFISH",
        "state": "SD",
        "postalCode": "57783-1552"
      },
      {
        "line": [
          "1124 Washington Blvd"
        ],
        "city": "NEWCASTLE",
        "state": "WY",
        "postalCode": "82701-2972"
      },
      {
        "line": [],
        "city": "WALL",
        "state": "SD",
        "postalCode": "57790-0550"
      },
      {
        "line": [
          "713 Oak St",
          "PO Box 517"
        ],
        "city": "SUNDANCE",
        "state": "WY",
        "postalCode": "82729-0001"
      },
      {
        "line": [
          "106 E main street"
        ],
        "city": "NEWCASTLE",
        "state": "WY",
        "postalCode": "82701-2104"
      },
      {
        "line": [
          "71 Charles Street"
        ],
        "city": "DEADWOOD",
        "state": "SD",
        "postalCode": "57732-1303"
      },
      {
        "line": [
          "209 Evans Lane"
        ],
        "city": "SPEARFISH",
        "state": "SD",
        "postalCode": "57783-1130"
      },
      {
        "line": [
          "PO Box 400",
          "BIA RT 1 SOLDIER CREEK RD"
        ],
        "city": "ROSEBUD",
        "state": "SD",
        "postalCode": "57570-0400"
      },
      {
        "line": [
          "61 Charles St"
        ],
        "city": "DEADWOOD",
        "state": "SD",
        "postalCode": "57732-1303"
      },
      {
        "line": [
          "1445 North Ave"
        ],
        "city": "SPEARFISH",
        "state": "SD",
        "postalCode": "57783-1552"
      },
      {
        "line": [
          "423 N 10th St"
        ],
        "city": "CUSTER",
        "state": "SD",
        "postalCode": "57730-1300"
      },
      {
        "line": [
          "2908 5th Street"
        ],
        "city": "RAPID CITY",
        "state": "SD",
        "postalCode": "57701-7317"
      },
      {
        "line": [
          "1041 Montgomery St"
        ],
        "city": "CUSTER",
        "state": "SD",
        "postalCode": "57730-1304"
      }
    ],
    "extension": [
      {
        "url": "https://fhir.athena.io/StructureDefinition/ah-practice",
        "valueReference": {
          "reference": "Organization/a-1.Practice-2296"
        }
      },
      {
        "url": "https://fhir.athena.io/StructureDefinition/ah-brand",
        "valueReference": {
          "reference": "Organization/a-2296.Brand-1"
        }
      }
    ]
  },
  "fullUrl": "urn:uuid:2a7ae874-bd1e-50a3-976c-cf1e4532a368"
}