{
  "resource": {
    "resourceType": "Organization",
    "id": "f148f11f-7be0-5652-9c04-689a9d564a42",
    "name": "YMCA of Delaware",
    "endpoint": [
      {
        "reference": "Endpoint/27a4e967-47aa-5a9c-a572-b8297ee268a2"
      },
      {
        "reference": "Endpoint/abb5f7d5-468e-5806-be46-fb2282afef02"
      }
    ],
    "identifier": [
      {
        "system": "http://hl7.org/fhir/sid/us-npi",
        "value": "1205381332"
      }
    ],
    "address": [
      {
        "line": [
          "351 George Williams Way"
        ],
        "city": "NEWARK",
        "state": "DE",
        "postalCode": "19702-3518"
      },
      {
        "line": [
          "1st Regiment Rd"
        ],
        "city": "WILMINGTON",
        "state": "DE",
        "postalCode": "19808-2191"
      },
      {
        "line": [
          "1000 N Walnut St"
        ],
        "city": "WILMINGTON",
        "state": "DE",
        "postalCode": "19801-3339"
      },
      {
        "line": [
          "20080 Church St"
        ],
        "city": "REHOBOTH BEACH",
        "state": "DE",
        "postalCode": "19971-1111"
      },
      {
        "line": [
          "26 Karlyn Drive"
        ],
        "city": "NEW CASTLE",
        "state": "DE",
        "postalCode": "19720-1235"
      },
      {
        "line": [
          "2220 Shipley Rd"
        ],
        "city": "WILMINGTON",
        "state": "DE",
        "postalCode": "19803-2306"
      },
      {
        "line": [
          "109 Lavendar Lane"
        ],
        "city": "MAGNOLIA",
        "state": "DE",
        "postalCode": "19962-2513"
      },
      {
        "line": [
          "101 State Road",
          "Post 7447"
        ],
        "city": "REHOBOTH BEACH",
        "state": "DE",
        "postalCode": "19971-1882"
      },
      {
        "line": [
          "24855 Broadkill Road",
          "Route 16"
        ],
        "city": "MILTON",
        "state": "DE",
        "postalCode": "19968-2940"
      },
      {
        "line": [
          "111 Adams Avenue"
        ],
        "city": "LEWES",
        "state": "DE",
        "postalCode": "19958-1401"
      },
      {
        "line": [
          "417 Federal St"
        ],
        "city": "DOVER",
        "state": "DE",
        "postalCode": "19901-3635"
      },
      {
        "line": [
          "501 S Walnut St"
        ],
        "city": "WILMINGTON",
        "state": "DE",
        "postalCode": "19801-5286"
      },
      {
        "line": [
          "2600 Kirkwood Hwy"
        ],
        "city": "NEWARK",
        "state": "DE",
        "postalCode": "19711-7251"
      },
      {
        "line": [
          "18947 John J. Williams Highway",
          "Suite 101"
        ],
        "city": "REHOBOTH BEACH",
        "state": "DE",
        "postalCode": "19971-4480"
      },
      {
        "line": [
          "540 S. College Avenue"
        ],
        "city": "NEWARK",
        "state": "DE",
        "postalCode": "19713-1302"
      },
      {
        "line": [
          "105 Northeast Front St."
        ],
        "city": "MILFORD",
        "state": "DE",
        "postalCode": "19963-1429"
      },
      {
        "line": [
          "960 Forest Street"
        ],
        "city": "DOVER",
        "state": "DE",
        "postalCode": "19904-3470"
      },
      {
        "line": [
          "114 Sandhill Drive",
          "Suite 101"
        ],
        "city": "MIDDLETOWN",
        "state": "DE",
        "postalCode": "19709-5805"
      },
      {
        "line": [
          "2303 Glasgow Ave"
        ],
        "city": "NEWARK",
        "state": "DE",
        "postalCode": "19702-1234"
      },
      {
        "line": [
          "1201 N. Harrison Street"
        ],
        "city": "WILMINGTON",
        "state": "DE",
        "postalCode": "19806-3534"
      },
      {
        "line": [
          "2400 N. Broom Street"
        ],
        "city": "WILMINGTON",
        "state": "DE",
        "postalCode": "19802-3359"
      },
      {
        "line": [
          "32083 Janice Road"
        ],
        "city": "LEWES",
        "state": "DE",
        "postalCode": "19958-2004"
      },
      {
        "line": [
          "3301 Green Street"
        ],
        "city": "CLAYMONT",
        "state": "DE",
        "postalCode": "19703-2052"
      },
      {
        "line": [
          "32051 Long Neck Rd."
        ],
        "city": "MILLSBORO",
        "state": "DE",
        "postalCode": "19966-6257"
      },
      {
        "line": [
          "26089 Long Neck Rd"
        ],
        "city": "MILLSBORO",
        "state": "DE",
        "postalCode": "19966-6789"
      },
      {
        "line": [
          "504 S. Clayton St."
        ],
        "city": "WILMINGTON",
        "state": "DE",
        "postalCode": "19805-4211"
      },
      {
        "line": [
          "111 Park Ave"
        ],
        "city": "MILFORD",
        "state": "DE",
        "postalCode": "19963-1443"
      },
      {
        "line": [
          "801 Middleford Road"
        ],
        "city": "SEAFORD",
        "state": "DE",
        "postalCode": "19973-3636"
      },
      {
        "line": [
          "7259  Lancaster Pike"
        ],
        "city": "HOCKESSIN",
        "state": "DE",
        "postalCode": "19707-9271"
      },
      {
        "line": [
          "1141 E Lebanon Rd"
        ],
        "city": "DOVER",
        "state": "DE",
        "postalCode": "19901-5820"
      },
      {
        "line": [
          "11 Christian Street"
        ],
        "city": "REHOBOTH BEACH",
        "state": "DE",
        "postalCode": "19971-3001"
      },
      {
        "line": [
          "700 Plaza Drive"
        ],
        "city": "NEWARK",
        "state": "DE",
        "postalCode": "19702-6370"
      },
      {
        "line": [
          "100 W 10th St Ste 1100"
        ],
        "city": "WILMINGTON",
        "state": "DE",
        "postalCode": "19801-6605"
      },
      {
        "line": [
          "3105 Limestone Road",
          "1st Floor Conference Room"
        ],
        "city": "WILMINGTON",
        "state": "DE",
        "postalCode": "19808-2147"
      },
      {
        "line": [
          "400 South Street"
        ],
        "city": "NEW CASTLE",
        "state": "DE",
        "postalCode": "19720-5057"
      },
      {
        "line": [
          "69 East Main St."
        ],
        "city": "NEWARK",
        "state": "DE",
        "postalCode": "19711-4645"
      },
      {
        "line": [
          "2600 Glasgow Ave",
          "Suite 100"
        ],
        "city": "NEWARK",
        "state": "DE",
        "postalCode": "19702-5703"
      },
      {
        "line": [
          "1901 N. Market Street"
        ],
        "city": "WILMINGTON",
        "state": "DE",
        "postalCode": "19802-4812"
      },
      {
        "line": [
          "2020 W. 9th Street"
        ],
        "city": "WILMINGTON",
        "state": "DE",
        "postalCode": "19805-2739"
      },
      {
        "line": [
          "310 Mullet Run St"
        ],
        "city": "MILFORD",
        "state": "DE",
        "postalCode": "19963-5371"
      },
      {
        "line": [
          "36027 Airport Road"
        ],
        "city": "REHOBOTH BEACH",
        "state": "DE",
        "postalCode": "19971-1234"
      },
      {
        "line": [
          "1121 Forest Ave"
        ],
        "city": "DOVER",
        "state": "DE",
        "postalCode": "19904-3308"
      },
      {
        "line": [
          "69 Transportation Circle"
        ],
        "city": "DOVER",
        "state": "DE",
        "postalCode": "19901-4669"
      },
      {
        "line": [
          "860 Silver Lake Blvd",
          "Suite #1"
        ],
        "city": "DOVER",
        "state": "DE",
        "postalCode": "19904-2402"
      },
      {
        "line": [
          "20 N. Church St."
        ],
        "city": "MILFORD",
        "state": "DE",
        "postalCode": "19963-1021"
      },
      {
        "line": [
          "3 Mount Lebanon Rd"
        ],
        "city": "WILMINGTON",
        "state": "DE",
        "postalCode": "19803-1713"
      },
      {
        "line": [
          "316 Red Mill Road"
        ],
        "city": "NEWARK",
        "state": "DE",
        "postalCode": "19713-1920"
      },
      {
        "line": [
          "1203 Walker Road"
        ],
        "city": "DOVER",
        "state": "DE",
        "postalCode": "19904-6541"
      },
      {
        "line": [
          "226 Rehoboth Ave"
        ],
        "city": "REHOBOTH BEACH",
        "state": "DE",
        "postalCode": "19971-2134"
      },
      {
        "line": [
          "525 Polly Drummond Hill Rd."
        ],
        "city": "NEWARK",
        "state": "DE",
        "postalCode": "19711-4342"
      },
      {
        "line": [
          "133 Kings Highway"
        ],
        "city": "LEWES",
        "state": "DE",
        "postalCode": "19958-1459"
      },
      {
        "line": [
          "123 W. Pine Street"
        ],
        "city": "GEORGETOWN",
        "state": "DE",
        "postalCode": "19947-1880"
      },
      {
        "line": [
          "7250 Lancaster Pike"
        ],
        "city": "HOCKESSIN",
        "state": "DE",
        "postalCode": "19707-9263"
      },
      {
        "line": [
          "300 S Scott Street"
        ],
        "city": "MIDDLETOWN",
        "state": "DE",
        "postalCode": "19709-1355"
      },
      {
        "line": [
          "640 S. State Street"
        ],
        "city": "DOVER",
        "state": "DE",
        "postalCode": "19901-3530"
      },
      {
        "line": [
          "1000 Brandywine Parkway"
        ],
        "city": "WILMINGTON",
        "state": "DE",
        "postalCode": "19803-1492"
      },
      {
        "line": [
          "1212 Foulk Road"
        ],
        "city": "WILMINGTON",
        "state": "DE",
        "postalCode": "19803-2741"
      },
      {
        "line": [
          "11 South E. Front St."
        ],
        "city": "MILFORD",
        "state": "DE",
        "postalCode": "19963-1941"
      },
      {
        "line": [
          "1137 S State St"
        ],
        "city": "DOVER",
        "state": "DE",
        "postalCode": "19901-4112"
      },
      {
        "line": [
          "2313 Concord Pike"
        ],
        "city": "WILMINGTON",
        "state": "DE",
        "postalCode": "19803-2911"
      },
      {
        "line": [
          "30637 Cedar Neck Rd"
        ],
        "city": "OCEAN VIEW",
        "state": "DE",
        "postalCode": "19970-1234"
      },
      {
        "line": [
          "2700 Silverside Road",
          "Lower Level"
        ],
        "city": "WILMINGTON",
        "state": "DE",
        "postalCode": "19810-3719"
      },
      {
        "line": [
          "213 Greenhill Ave"
        ],
        "city": "WILMINGTON",
        "state": "DE",
        "postalCode": "19805-1844"
      },
      {
        "line": [
          "33106 Rd 289"
        ],
        "city": "LEWES",
        "state": "DE",
        "postalCode": "19958-1234"
      },
      {
        "line": [
          "501 W 11th St"
        ],
        "city": "WILMINGTON",
        "state": "DE",
        "postalCode": "19801-1425"
      },
      {
        "line": [
          "1005 N. Franklin St."
        ],
        "city": "WILMINGTON",
        "state": "DE",
        "postalCode": "19806-4553"
      },
      {
        "line": [
          "601 New Castle Ave"
        ],
        "city": "WILMINGTON",
        "state": "DE",
        "postalCode": "19801-5821"
      },
      {
        "line": [
          "100 Hygeia Drive"
        ],
        "city": "NEWARK",
        "state": "DE",
        "postalCode": "19713-2047"
      },
      {
        "line": [
          "7259 Lancaster Pike"
        ],
        "city": "HOCKESSIN",
        "state": "DE",
        "postalCode": "19707-9271"
      },
      {
        "line": [
          "200 White Chapel Drive"
        ],
        "city": "NEWARK",
        "state": "DE",
        "postalCode": "19713-3811"
      }
    ],
    "extension": [
      {
        "url": "https://fhir.athena.io/StructureDefinition/ah-practice",
        "valueReference": {
          "reference": "Organization/a-1.Practice-14268"
        }
      },
      {
        "url": "https://fhir.athena.io/StructureDefinition/ah-brand",
        "valueReference": {
          "reference": "Organization/a-14268.Brand-1"
        }
      }
    ]
  },
  "fullUrl": "urn:uuid:f148f11f-7be0-5652-9c04-689a9d564a42"
}