{
  "resource": {
    "resourceType": "Organization",
    "id": "7d7adf6f-6555-5388-996f-1749b537675e",
    "name": "Good Samaritan Health Services",
    "endpoint": [
      {
        "reference": "Endpoint/27a4e967-47aa-5a9c-a572-b8297ee268a2"
      },
      {
        "reference": "Endpoint/8778c35a-dc5f-57ac-b338-be4ecb61c9ca"
      }
    ],
    "identifier": [
      {
        "system": "http://hl7.org/fhir/sid/us-npi",
        "value": "1234567890"
      }
    ],
    "address": [
      {
        "line": [
          "6910 South 101st Avenue"
        ],
        "city": "TULSA",
        "state": "OK",
        "postalCode": "74133-3204"
      },
      {
        "line": [
          "2401 CHARLES PAGE BLVD"
        ],
        "city": "TULSA",
        "state": "OK",
        "postalCode": "74127-8435"
      },
      {
        "line": [
          "14248 HECTORVILLE ROAD"
        ],
        "city": "MOUNDS",
        "state": "OK",
        "postalCode": "74047-4962"
      },
      {
        "line": [
          "6910 S 101ST EAST AVE",
          "SUITE 120"
        ],
        "city": "TULSA",
        "state": "OK",
        "postalCode": "74133-3204"
      },
      {
        "line": [
          "4122 W 55TH PL"
        ],
        "city": "TULSA",
        "state": "OK",
        "postalCode": "74107-9108"
      },
      {
        "line": [
          "1334 E. 55th St"
        ],
        "city": "TULSA",
        "state": "OK",
        "postalCode": "74105-6819"
      },
      {
        "line": [
          "6910 S. 101st E Avenue"
        ],
        "city": "TULSA",
        "state": "OK",
        "postalCode": "74133-3204"
      },
      {
        "line": [
          "200 SOUTH ELM ST"
        ],
        "city": "SAPULPA",
        "state": "OK",
        "postalCode": "74066-4212"
      },
      {
        "line": [
          "2448 E 81ST ST STE 400"
        ],
        "city": "TULSA",
        "state": "OK",
        "postalCode": "74137-4250"
      },
      {
        "line": [
          "6910 S 101st E Avenue"
        ],
        "city": "TULSA",
        "state": "OK",
        "postalCode": "74133-3204"
      },
      {
        "line": [
          "3 W 41ST STREET"
        ],
        "city": "SAND SPRINGS",
        "state": "OK",
        "postalCode": "74063-2733"
      },
      {
        "line": [
          "6910 S 101ST EAST AVE STE 120"
        ],
        "city": "TULSA",
        "state": "OK",
        "postalCode": "74133-3204"
      },
      {
        "line": [
          "6910 South 101st E Avenue"
        ],
        "city": "TULSA",
        "state": "OK",
        "postalCode": "74133-3204"
      },
      {
        "line": [
          "620 S GARNETT ROAD"
        ],
        "city": "TULSA",
        "state": "OK",
        "postalCode": "74128-1833"
      },
      {
        "line": [
          "200 West 46th ST N"
        ],
        "city": "TULSA",
        "state": "OK",
        "postalCode": "74126-6675"
      },
      {
        "line": [
          "2800 S. YALE AVENUE"
        ],
        "city": "TULSA",
        "state": "OK",
        "postalCode": "74114-6254"
      },
      {
        "line": [
          "75 East Main Street"
        ],
        "city": "GLENPOOL",
        "state": "OK",
        "postalCode": "74033-3436"
      }
    ],
    "extension": [
      {
        "url": "https://fhir.athena.io/StructureDefinition/ah-practice",
        "valueReference": {
          "reference": "Organization/a-1.Practice-20767"
        }
      },
      {
        "url": "https://fhir.athena.io/StructureDefinition/ah-brand",
        "valueReference": {
          "reference": "Organization/a-20767.Brand-1"
        }
      }
    ]
  },
  "fullUrl": "urn:uuid:7d7adf6f-6555-5388-996f-1749b537675e"
}