{
  "resource": {
    "resourceType": "Organization",
    "id": "06e66160-ff04-5b09-9c20-0d2781438f12",
    "name": "Avanti Senior Living",
    "endpoint": [
      {
        "reference": "Endpoint/27a4e967-47aa-5a9c-a572-b8297ee268a2"
      },
      {
        "reference": "Endpoint/a0f803d1-f49e-57d5-8ee3-fb3b0248e5e8"
      }
    ],
    "identifier": [
      {
        "system": "http://hl7.org/fhir/sid/us-npi",
        "value": "1720530017"
      }
    ],
    "address": [
      {
        "line": [
          "4304 Williamson Ln"
        ],
        "city": "CARROLLTON",
        "state": "TX",
        "postalCode": "75010-3236"
      },
      {
        "line": [
          "400 W. Lyndon B. Johnson Fwy"
        ],
        "city": "IRVING",
        "state": "TX",
        "postalCode": "75063-3718"
      },
      {
        "line": [
          "1428 W Hebron Pkwy",
          "#130"
        ],
        "city": "CARROLLTON",
        "state": "TX",
        "postalCode": "75010-6341"
      },
      {
        "line": [
          "731 Plaza Blvd"
        ],
        "city": "COPPELL",
        "state": "TX",
        "postalCode": "75019-6685"
      },
      {
        "line": [
          "500 W Main Street"
        ],
        "city": "LEWISVILLE",
        "state": "TX",
        "postalCode": "75057-3629"
      },
      {
        "line": [
          "4343 N Josey Ln"
        ],
        "city": "CARROLLTON",
        "state": "TX",
        "postalCode": "75010-4603"
      },
      {
        "line": [
          "500 W Main St"
        ],
        "city": "LEWISVILLE",
        "state": "TX",
        "postalCode": "75057-3629"
      },
      {
        "line": [
          "169 LAKE PARK RD"
        ],
        "city": "LEWISVILLE",
        "state": "TX",
        "postalCode": "75057-2303"
      },
      {
        "line": [
          "3509 Brookshire"
        ],
        "city": "PLANO",
        "state": "TX",
        "postalCode": "75075-4710"
      },
      {
        "line": [
          "429 Frankie Lane"
        ],
        "city": "Carrollton",
        "state": "TX",
        "postalCode": "75057-2112"
      },
      {
        "line": [
          "4343 N. Josey Ln"
        ],
        "city": "CARROLLTON",
        "state": "TX",
        "postalCode": "75010-4603"
      }
    ],
    "extension": [
      {
        "url": "https://fhir.athena.io/StructureDefinition/ah-practice",
        "valueReference": {
          "reference": "Organization/a-1.Practice-15587"
        }
      },
      {
        "url": "https://fhir.athena.io/StructureDefinition/ah-brand",
        "valueReference": {
          "reference": "Organization/a-15587.Brand-1"
        }
      }
    ]
  },
  "fullUrl": "urn:uuid:06e66160-ff04-5b09-9c20-0d2781438f12"
}