{
  "resource": {
    "resourceType": "Organization",
    "id": "9c87f8ab-f007-5749-9c76-b89f741d744e",
    "name": "ADVENTHEALTH CASTLE ROCK",
    "endpoint": [
      {
        "reference": "Endpoint/27a4e967-47aa-5a9c-a572-b8297ee268a2"
      },
      {
        "reference": "Endpoint/27c851ed-9b17-5329-b6d9-9da9ebde599e"
      }
    ],
    "identifier": [
      {
        "system": "http://hl7.org/fhir/sid/us-npi",
        "value": "1255933461"
      },
      {
        "system": "http://hl7.org/fhir/sid/us-npi",
        "value": "1942802160"
      },
      {
        "system": "http://hl7.org/fhir/sid/us-npi",
        "value": "1821181876"
      },
      {
        "system": "http://hl7.org/fhir/sid/us-npi",
        "value": "1205438421"
      },
      {
        "system": "http://hl7.org/fhir/sid/us-npi",
        "value": "1356825848"
      }
    ],
    "address": [
      {
        "line": [
          "9399 Crown Crest Blvd",
          "Ste 220"
        ],
        "city": "PARKER",
        "state": "CO",
        "postalCode": "80138-8508"
      },
      {
        "line": [
          "8300 W 38TH AVE"
        ],
        "city": "WHEAT RIDGE",
        "state": "CO",
        "postalCode": "80033-6005"
      },
      {
        "line": [
          "125 INVERNESS DR E #150"
        ],
        "city": "ENGLEWOOD",
        "state": "CO",
        "postalCode": "80112-5138"
      },
      {
        "line": [
          "340 PEAK ONE DR"
        ],
        "city": "FRISCO",
        "state": "CO",
        "postalCode": "80443-5441"
      },
      {
        "line": [
          "9399 CROWN CREST BLVD STE 220"
        ],
        "city": "PARKER",
        "state": "CO",
        "postalCode": "80138-8508"
      },
      {
        "line": [
          "1501 S POTOMAC ST"
        ],
        "city": "AURORA",
        "state": "CO",
        "postalCode": "80012-5411"
      },
      {
        "line": [
          "9777 S YOSEMITE ST"
        ],
        "city": "LONE TREE",
        "state": "CO",
        "postalCode": "80124-3191"
      },
      {
        "line": [
          "14200 E ARAPAHOE RD"
        ],
        "city": "CENTENNIAL",
        "state": "CO",
        "postalCode": "80112-4065"
      },
      {
        "line": [
          "501 E HAMPDEN AVE"
        ],
        "city": "ENGLEWOOD",
        "state": "CO",
        "postalCode": "80113-2702"
      },
      {
        "line": [
          "1500 PARK CENTRAL DR"
        ],
        "city": "HIGHLANDS RANCH",
        "state": "CO",
        "postalCode": "80129-6688"
      },
      {
        "line": [
          "2350 MEADOWS BLVD"
        ],
        "city": "CASTLE ROCK",
        "state": "CO",
        "postalCode": "80109-8405"
      },
      {
        "line": [
          "10101 RIDGEGATE PKWY"
        ],
        "city": "LONE TREE",
        "state": "CO",
        "postalCode": "80124-5522"
      },
      {
        "line": [
          "9399 CROWN CREST BLVD",
          "STE 430"
        ],
        "city": "PARKER",
        "state": "CO",
        "postalCode": "80138-8527"
      },
      {
        "line": [
          "1421 S POTOMAC ST",
          "STE 220"
        ],
        "city": "AURORA",
        "state": "CO",
        "postalCode": "80012-4512"
      },
      {
        "line": [
          "350 PEAK ONE DR"
        ],
        "city": "FRISCO",
        "state": "CO",
        "postalCode": "80443-3900"
      },
      {
        "line": [
          "2352 MEADOWS BLVD",
          "STE 250"
        ],
        "city": "CASTLE ROCK",
        "state": "CO",
        "postalCode": "80109-8417"
      },
      {
        "line": [
          "9399 CROWN CREST BLVD STE 325"
        ],
        "city": "PARKER",
        "state": "CO",
        "postalCode": "80138-8572"
      },
      {
        "line": [
          "10099 RIDGEGATE PKWY #100"
        ],
        "city": "LONE TREE",
        "state": "CO",
        "postalCode": "80124-5532"
      },
      {
        "line": [
          "9395 CROWN CREST BLVD"
        ],
        "city": "PARKER",
        "state": "CO",
        "postalCode": "80138-8573"
      },
      {
        "line": [
          "9397 CROWN CREST BLVD",
          "STE 110"
        ],
        "city": "PARKER",
        "state": "CO",
        "postalCode": "80138-8508"
      },
      {
        "line": [
          "2360 MEADOWS BLVD STE 101"
        ],
        "city": "CASTLE ROCK",
        "state": "CO",
        "postalCode": "80109-0001"
      }
    ],
    "extension": [
      {
        "url": "https://fhir.athena.io/StructureDefinition/ah-practice",
        "valueReference": {
          "reference": "Organization/a-1.Practice-15573"
        }
      },
      {
        "url": "https://fhir.athena.io/StructureDefinition/ah-brand",
        "valueReference": {
          "reference": "Organization/a-15573.Brand-1"
        }
      }
    ]
  },
  "fullUrl": "urn:uuid:9c87f8ab-f007-5749-9c76-b89f741d744e"
}