{
  "resource": {
    "resourceType": "Organization",
    "id": "a0a62948-23be-5c5b-81a2-f8894025db9b",
    "name": "Kathy Finley, FNP",
    "endpoint": [
      {
        "reference": "Endpoint/27a4e967-47aa-5a9c-a572-b8297ee268a2"
      },
      {
        "reference": "Endpoint/05846a15-b1d0-5d1a-bc6c-4a1d7fda5916"
      }
    ],
    "identifier": [
      {
        "system": "http://hl7.org/fhir/sid/us-npi",
        "value": "1427032770"
      }
    ],
    "address": [
      {
        "line": [
          "1751 BOUNDARY LN"
        ],
        "city": "GRANTS PASS",
        "state": "OR",
        "postalCode": "97527-9249"
      },
      {
        "line": [
          "800 N HASKELL ST"
        ],
        "city": "CENTRAL POINT",
        "state": "OR",
        "postalCode": "97502-2564"
      },
      {
        "line": [
          "1031 LATHROP DR"
        ],
        "city": "CENTRAL POINT",
        "state": "OR",
        "postalCode": "97502-1892"
      },
      {
        "line": [
          "358 MEADOWBROOK DR"
        ],
        "city": "CENTRAL POINT",
        "state": "OR",
        "postalCode": "97502-3198"
      },
      {
        "line": [
          "900 SKYLARK PL"
        ],
        "city": "ASHLAND",
        "state": "OR",
        "postalCode": "97520-9640"
      },
      {
        "line": [
          "1018 ROYAL COURT"
        ],
        "city": "MEDFORD",
        "state": "OR",
        "postalCode": "97504-6175"
      },
      {
        "line": [
          "1357 REDWOOD CIR"
        ],
        "city": "GRANTS PASS",
        "state": "OR",
        "postalCode": "97527-5557"
      },
      {
        "line": [
          "835 CRATER LAKE AVENUE"
        ],
        "city": "MEDFORD",
        "state": "OR",
        "postalCode": "97504-6505"
      },
      {
        "line": [
          "1530 POPLAR DRIVE"
        ],
        "city": "MEDFORD",
        "state": "OR",
        "postalCode": "97504-4612"
      },
      {
        "line": [
          "525 ANIQUE LANE"
        ],
        "city": "GRANTS PASS",
        "state": "OR",
        "postalCode": "97526-5416"
      },
      {
        "line": [
          "2146 BROOKHURST STREET"
        ],
        "city": "MEDFORD",
        "state": "OR",
        "postalCode": "97504-5480"
      },
      {
        "line": [
          "3033 E BARNETT RD"
        ],
        "city": "MEDFORD",
        "state": "OR",
        "postalCode": "97504-4324"
      },
      {
        "line": [
          "261 LOTO STREET"
        ],
        "city": "EAGLE POINT",
        "state": "OR",
        "postalCode": "97524-9518"
      },
      {
        "line": [
          "2979 E BARNETT ROAD"
        ],
        "city": "MEDFORD",
        "state": "OR",
        "postalCode": "97504-8397"
      },
      {
        "line": [
          "2144 NW HEIDI LANE"
        ],
        "city": "GRANTS PASS",
        "state": "OR",
        "postalCode": "97526-6323"
      },
      {
        "line": [
          "2564 LAUSANNE CIR"
        ],
        "city": "MEDFORD",
        "state": "OR",
        "postalCode": "97504-1741"
      },
      {
        "line": [
          "131 ALDER STREET"
        ],
        "city": "CENTRAL POINT",
        "state": "OR",
        "postalCode": "97502-2200"
      },
      {
        "line": [
          "2180 POPLAR DRIVE"
        ],
        "city": "MEDFORD",
        "state": "OR",
        "postalCode": "97504-4600"
      },
      {
        "line": [
          "836 CRATER LAKE AVE"
        ],
        "city": "MEDFORD",
        "state": "OR",
        "postalCode": "97504-6506"
      },
      {
        "line": [
          "727 SW ROGUE RIVER AVE"
        ],
        "city": "GRANTS PASS",
        "state": "OR",
        "postalCode": "97526-2777"
      },
      {
        "line": [
          "3853 ARROWHEAD DRIVE"
        ],
        "city": "MEDFORD",
        "state": "OR",
        "postalCode": "97504-7209"
      },
      {
        "line": [
          "77 OAK GROVE ROAD"
        ],
        "city": "MEDFORD",
        "state": "OR",
        "postalCode": "97501-2143"
      },
      {
        "line": [
          "2636 TABLE ROCK ROAD"
        ],
        "city": "MEDFORD",
        "state": "OR",
        "postalCode": "97501-1525"
      }
    ],
    "extension": [
      {
        "url": "https://fhir.athena.io/StructureDefinition/ah-practice",
        "valueReference": {
          "reference": "Organization/a-1.Practice-22738"
        }
      },
      {
        "url": "https://fhir.athena.io/StructureDefinition/ah-brand",
        "valueReference": {
          "reference": "Organization/a-22738.Brand-1"
        }
      }
    ]
  },
  "fullUrl": "urn:uuid:a0a62948-23be-5c5b-81a2-f8894025db9b"
}