{
  "resource": {
    "resourceType": "Organization",
    "id": "55097926-08c8-566f-b95a-13b4376ca60b",
    "name": "University Hospitals Medical Group Inc",
    "endpoint": [
      {
        "reference": "Endpoint/27a4e967-47aa-5a9c-a572-b8297ee268a2"
      },
      {
        "reference": "Endpoint/3a6581a4-8ee6-54ef-b51a-46d679d7f6c3"
      }
    ],
    "identifier": [
      {
        "system": "http://hl7.org/fhir/sid/us-npi",
        "value": "1669499414"
      }
    ],
    "address": [
      {
        "line": [
          "1611 S Green Rd",
          "Ste 204"
        ],
        "city": "South Euclid",
        "state": "OH",
        "postalCode": "44121-4129"
      },
      {
        "line": [
          "11100 Euclid Ave",
          "Mather Sleep Clinic 1400"
        ],
        "city": "CLEVELAND",
        "state": "OH",
        "postalCode": "44106-1716"
      },
      {
        "line": [
          "11100 Euclid Ave",
          "RBC Rm 124B"
        ],
        "city": "CLEVELAND",
        "state": "OH",
        "postalCode": "44106-1716"
      },
      {
        "line": [
          "11100 Euclid Ave",
          "Mather Ste 1600 Traveler Clinic"
        ],
        "city": "CLEVELAND",
        "state": "OH",
        "postalCode": "44106-1716"
      },
      {
        "line": [
          "14567 Madison Rd"
        ],
        "city": "Middlefield",
        "state": "OH",
        "postalCode": "44062-9499"
      },
      {
        "line": [
          "29101 Health Campus Drive",
          "Ste 455"
        ],
        "city": "WESTLAKE",
        "state": "OH",
        "postalCode": "44145-5263"
      },
      {
        "line": [
          "27155 Chardon Rd",
          "Ste 205 Erin Bldg"
        ],
        "city": "Richmond Hts",
        "state": "OH",
        "postalCode": "44143-1166"
      },
      {
        "line": [
          "960 Clague Rd",
          "Ste 2420"
        ],
        "city": "WESTLAKE",
        "state": "OH",
        "postalCode": "44145-1582"
      },
      {
        "line": [
          "950 Clague Rd",
          "Ste 101 Bldg B"
        ],
        "city": "Westlake",
        "state": "OH",
        "postalCode": "44145-1533"
      },
      {
        "line": [
          "11100 Euclid Ave"
        ],
        "city": "Cleveland",
        "state": "OH",
        "postalCode": "44106-1716"
      },
      {
        "line": [
          "11100 Euclid Ave",
          "Ste 1200"
        ],
        "city": "Cleveland",
        "state": "OH",
        "postalCode": "44106-1716"
      },
      {
        "line": [
          "2131 Lake Ave",
          "Ste 2"
        ],
        "city": "ASHTABULA",
        "state": "OH",
        "postalCode": "44004-3466"
      },
      {
        "line": [
          "27100 Cedar Rd"
        ],
        "city": "BEACHWOOD",
        "state": "OH",
        "postalCode": "44122-1109"
      },
      {
        "line": [
          "11100 Euclid Ave",
          "Bolwell 1200"
        ],
        "city": "Cleveland",
        "state": "OH",
        "postalCode": "44106-1716"
      },
      {
        "line": [
          "88 Center Rd",
          "Ste 300"
        ],
        "city": "BEDFORD",
        "state": "OH",
        "postalCode": "44146-2708"
      },
      {
        "line": [
          "11100 Euclid Ave",
          "Lakeside 1500"
        ],
        "city": "CLEVELAND",
        "state": "OH",
        "postalCode": "44106-1716"
      },
      {
        "line": [
          "960 Clague Rd",
          "Ste 2200"
        ],
        "city": "WESTLAKE",
        "state": "OH",
        "postalCode": "44145-1582"
      },
      {
        "line": [
          "2131 Lake Ave"
        ],
        "city": "ASHTABULA",
        "state": "OH",
        "postalCode": "44004-3466"
      },
      {
        "line": [
          "11100 Euclid Ave",
          "Bolwell 2500"
        ],
        "city": "CLEVELAND",
        "state": "OH",
        "postalCode": "44106-1716"
      },
      {
        "line": [
          "960 Clague Rd",
          "Ste 2470"
        ],
        "city": "Westlake",
        "state": "OH",
        "postalCode": "44145-1582"
      },
      {
        "line": [
          "3909 Orange Place",
          "Ste 2300"
        ],
        "city": "Orange Village",
        "state": "OH",
        "postalCode": "44122-4478"
      },
      {
        "line": [
          "3800 Embassy Pkwy",
          "Ste 250"
        ],
        "city": "Fairlawn",
        "state": "OH",
        "postalCode": "44333-8387"
      },
      {
        "line": [
          "29099 Health Campus Dr",
          "Ste 225"
        ],
        "city": "Westlake",
        "state": "OH",
        "postalCode": "44145-5269"
      },
      {
        "line": [
          "6115 Powers Blvd",
          "MAC4 Ste 306"
        ],
        "city": "Parma",
        "state": "OH",
        "postalCode": "44129-5469"
      },
      {
        "line": [
          "11100 Euclid Ave",
          "1300 Mather Pavilion"
        ],
        "city": "CLEVELAND",
        "state": "OH",
        "postalCode": "44106-1716"
      },
      {
        "line": [],
        "city": "Cleveland",
        "state": "OH",
        "postalCode": "44106-1716"
      },
      {
        "line": [
          "6900 Pearl Rd",
          "Ste 100"
        ],
        "city": "Middleburg Hts",
        "state": "OH",
        "postalCode": "44130-3639"
      },
      {
        "line": [
          "11100 Euclid Ave",
          "Mather Sleep Clinic 1500"
        ],
        "city": "CLEVELAND",
        "state": "OH",
        "postalCode": "44106-1716"
      },
      {
        "line": [
          "11100 Euclid Ave",
          "Bolwell 3200"
        ],
        "city": "CLEVELAND",
        "state": "OH",
        "postalCode": "44106-1716"
      },
      {
        "line": [
          "27100 Cedar Rd"
        ],
        "city": "Beachwood",
        "state": "OH",
        "postalCode": "44122-1109"
      },
      {
        "line": [
          "34055 Solon Rd",
          "Ste 204"
        ],
        "city": "Solon",
        "state": "OH",
        "postalCode": "44139-2663"
      },
      {
        "line": [
          "13207 Ravenna Rd",
          "1st Flr, Seidman Cancer Center"
        ],
        "city": "Chardon",
        "state": "OH",
        "postalCode": "44024-7032"
      },
      {
        "line": [
          "3619 Park East Dr",
          "Ste 211"
        ],
        "city": "Beachwood",
        "state": "OH",
        "postalCode": "44122-4330"
      },
      {
        "line": [
          "10524 Euclid Ave",
          "3rd Flr Ste 3148"
        ],
        "city": "Cleveland",
        "state": "OH",
        "postalCode": "44106-2205"
      },
      {
        "line": [
          "11100 Euclid Ave",
          "Bolwell 3300A"
        ],
        "city": "Cleveland",
        "state": "OH",
        "postalCode": "44106-1716"
      },
      {
        "line": [
          "11100 Euclid Ave",
          "Lakeside 1500"
        ],
        "city": "Cleveland",
        "state": "OH",
        "postalCode": "44106-1716"
      },
      {
        "line": [
          "1997 Healthway Dr",
          "Suite 203"
        ],
        "city": "AVON",
        "state": "OH",
        "postalCode": "44011-2834"
      }
    ],
    "extension": [
      {
        "url": "https://fhir.athena.io/StructureDefinition/ah-practice",
        "valueReference": {
          "reference": "Organization/a-1.Practice-1926"
        }
      },
      {
        "url": "https://fhir.athena.io/StructureDefinition/ah-brand",
        "valueReference": {
          "reference": "Organization/a-1926.Brand-1"
        }
      }
    ]
  },
  "fullUrl": "urn:uuid:55097926-08c8-566f-b95a-13b4376ca60b"
}