{
  "resource": {
    "resourceType": "Organization",
    "id": "22850711-c131-50cc-ae4e-4309ca2cc328",
    "name": "HYPERTENSION AND NEPHROLOGY INC",
    "endpoint": [
      {
        "reference": "Endpoint/27a4e967-47aa-5a9c-a572-b8297ee268a2"
      },
      {
        "reference": "Endpoint/7e142fd8-2101-5e1e-ab40-12e9f83145f6"
      }
    ],
    "identifier": [
      {
        "system": "http://hl7.org/fhir/sid/us-npi",
        "value": "1639277072"
      }
    ],
    "address": [
      {
        "line": [
          "125 CORLISS ST"
        ],
        "city": "PROVIDENCE",
        "state": "RI",
        "postalCode": "02904-2611"
      },
      {
        "line": [
          "164 SUMMIT AVENUE"
        ],
        "city": "PROVIDENCE",
        "state": "RI",
        "postalCode": "02906-2853"
      },
      {
        "line": [
          "9 PLENTY STREET"
        ],
        "city": "PROVIDENCE",
        "state": "RI",
        "postalCode": "02907-1418"
      },
      {
        "line": [
          "1076 N MAIN ST"
        ],
        "city": "PROVIDENCE",
        "state": "RI",
        "postalCode": "02904-5760"
      },
      {
        "line": [
          "2814 POST ROAD"
        ],
        "city": "WARWICK",
        "state": "RI",
        "postalCode": "02886-3006"
      },
      {
        "line": [
          "593 EDDY ST"
        ],
        "city": "PROVIDENCE",
        "state": "RI",
        "postalCode": "02903-4923"
      },
      {
        "line": [
          "400 BALD HILL RD STE 523"
        ],
        "city": "WARWICK",
        "state": "RI",
        "postalCode": "02886-1692"
      },
      {
        "line": [
          "79 DIVISION ST"
        ],
        "city": "PAWTUCKET",
        "state": "RI",
        "postalCode": "02860-5327"
      },
      {
        "line": [
          "111 PLEASANT ST"
        ],
        "city": "ATTLEBORO",
        "state": "MA",
        "postalCode": "02703-2360"
      },
      {
        "line": [
          "1526 ATWOOD AVENUE"
        ],
        "city": "JOHNSTON",
        "state": "RI",
        "postalCode": "02919-3289"
      },
      {
        "line": [
          "622 GEORGE WASHINGTON HWY STE 66"
        ],
        "city": "LINCOLN",
        "state": "RI",
        "postalCode": "02865-4273"
      },
      {
        "line": [
          "1 COMMERCE ST"
        ],
        "city": "LINCOLN",
        "state": "RI",
        "postalCode": "02865-1186"
      },
      {
        "line": [
          "318 WATERMAN AVENUE"
        ],
        "city": "EAST PROVIDENCE",
        "state": "RI",
        "postalCode": "02914-3525"
      },
      {
        "line": [
          "825 CHALKSTONE AVENUE"
        ],
        "city": "PROVIDENCE",
        "state": "RI",
        "postalCode": "02908-4728"
      },
      {
        "line": [
          "200 HIGH SERVICE AVENUE"
        ],
        "city": "PROVIDENCE",
        "state": "RI",
        "postalCode": "02904-5113"
      },
      {
        "line": [
          "115 CASS AVENUE"
        ],
        "city": "WOONSOCKET",
        "state": "RI",
        "postalCode": "02895-4705"
      }
    ],
    "extension": [
      {
        "url": "https://fhir.athena.io/StructureDefinition/ah-practice",
        "valueReference": {
          "reference": "Organization/a-1.Practice-25334"
        }
      },
      {
        "url": "https://fhir.athena.io/StructureDefinition/ah-brand",
        "valueReference": {
          "reference": "Organization/a-25334.Brand-2"
        }
      }
    ]
  },
  "fullUrl": "urn:uuid:22850711-c131-50cc-ae4e-4309ca2cc328"
}