{
  "resource": {
    "resourceType": "Organization",
    "id": "232d8b6f-7538-576b-89b1-d20a0fba7473",
    "name": "Brain and Spine Neurosurgical Institute",
    "endpoint": [
      {
        "reference": "Endpoint/27a4e967-47aa-5a9c-a572-b8297ee268a2"
      },
      {
        "reference": "Endpoint/a6739a78-0e3a-5547-b131-ab9f539148c4"
      }
    ],
    "identifier": [
      {
        "system": "http://hl7.org/fhir/sid/us-npi",
        "value": "1558304212"
      }
    ],
    "address": [
      {
        "line": [
          "11 FRIENDSHIP ST"
        ],
        "city": "NEWPORT",
        "state": "RI",
        "postalCode": "02840-2209"
      },
      {
        "line": [
          "1526 ATWOOD AVE",
          "SUITE 200"
        ],
        "city": "JOHNSTON",
        "state": "RI",
        "postalCode": "02919-3228"
      },
      {
        "line": [
          "200 HIGH SERVICE AVENUE"
        ],
        "city": "PROVIDENCE",
        "state": "RI",
        "postalCode": "02904-5113"
      },
      {
        "line": [
          "1526 ATWOOD AVENUE",
          "SUITE 200"
        ],
        "city": "JOHNSTON",
        "state": "RI",
        "postalCode": "02919-3289"
      },
      {
        "line": [
          "1077 AQUIDNECK AVE UNIT A"
        ],
        "city": "MIDDLETOWN",
        "state": "RI",
        "postalCode": "02842-7284"
      },
      {
        "line": [
          "70 KENYON AVE",
          "SUITE 214"
        ],
        "city": "WAKEFIELD",
        "state": "RI",
        "postalCode": "02879-4239"
      },
      {
        "line": [
          "420 Scrabbletown Rd, Building H"
        ],
        "city": "NORTH KINGSTOWN",
        "state": "RI",
        "postalCode": "02852-3665"
      },
      {
        "line": [
          "2138 MENDON RD",
          "SUITE 302"
        ],
        "city": "CUMBERLAND",
        "state": "RI",
        "postalCode": "02864-3834"
      },
      {
        "line": [
          "850 AQUIDNECK AVE",
          "SUITE B2"
        ],
        "city": "MIDDLETOWN",
        "state": "RI",
        "postalCode": "02842-7201"
      },
      {
        "line": [
          "450 VETERANS MEMORIAL PKWY",
          "BUILDING 8D"
        ],
        "city": "EAST PROVIDENCE",
        "state": "RI",
        "postalCode": "02914-5300"
      }
    ],
    "extension": [
      {
        "url": "https://fhir.athena.io/StructureDefinition/ah-practice",
        "valueReference": {
          "reference": "Organization/a-1.Practice-10187"
        }
      },
      {
        "url": "https://fhir.athena.io/StructureDefinition/ah-brand",
        "valueReference": {
          "reference": "Organization/a-10187.Brand-1"
        }
      }
    ]
  },
  "fullUrl": "urn:uuid:232d8b6f-7538-576b-89b1-d20a0fba7473"
}