{
  "resource": {
    "resourceType": "Organization",
    "id": "3f17f0b9-b1fc-51e0-b5a5-da627671da8f",
    "name": "Massachusetts",
    "endpoint": [
      {
        "reference": "Endpoint/27a4e967-47aa-5a9c-a572-b8297ee268a2"
      },
      {
        "reference": "Endpoint/8190af12-bbc9-5c9b-bcfa-dffd115a7e1d"
      }
    ],
    "identifier": [
      {
        "system": "http://hl7.org/fhir/sid/us-npi",
        "value": "1902449176"
      },
      {
        "system": "http://hl7.org/fhir/sid/us-npi",
        "value": "1518211267"
      }
    ],
    "address": [
      {
        "line": [
          "127 SUNSET DR"
        ],
        "city": "FITZGERALD",
        "state": "GA",
        "postalCode": "31750-8437"
      },
      {
        "line": [
          "820 Bear Tavern Road"
        ],
        "city": "TRENTON",
        "state": "NJ",
        "postalCode": "08628-1021"
      },
      {
        "line": [
          "200 HIGHLAND AVE STE 202"
        ],
        "city": "NEEDHAM HEIGHTS",
        "state": "MA",
        "postalCode": "02494-3035"
      },
      {
        "line": [
          "7700 E Arapahoe Road, Suite 220"
        ],
        "city": "CENTENNIAL",
        "state": "CO",
        "postalCode": "80112-1268"
      },
      {
        "line": [
          "701 S. Carson Street, Suite 200"
        ],
        "city": "CARSON CITY",
        "state": "NV",
        "postalCode": "89701-5239"
      },
      {
        "line": [
          "8414 S US HIGHWAY 1"
        ],
        "city": "PORT SAINT LUCIE",
        "state": "FL",
        "postalCode": "34952-3306"
      },
      {
        "line": [
          "2405 York Road, Suite 201"
        ],
        "city": "LUTHERVILLE TIMONIUM",
        "state": "MD",
        "postalCode": "21093-2264"
      },
      {
        "line": [
          "645 LAKELAND EAST DR STE 101"
        ],
        "city": "FLOWOOD",
        "state": "MO",
        "postalCode": "39232-9099"
      },
      {
        "line": [
          "25 ROBERT PITT DRIVE",
          "SUITE 204"
        ],
        "city": "MONSEY",
        "state": "NY",
        "postalCode": "10952-3366"
      },
      {
        "line": [
          "\"40600 Ann Arbor East, Suite 201"
        ],
        "city": "PLYMOUTH",
        "state": "MI",
        "postalCode": "48170-4675"
      },
      {
        "line": [
          "522 N HOWARD AVE"
        ],
        "city": "TAMPA",
        "state": "FL",
        "postalCode": "33606-1245"
      },
      {
        "line": [
          "711 Capitol Way S. , Suite 204"
        ],
        "city": "OLYMPIA",
        "state": "WA",
        "postalCode": "98501-0361"
      },
      {
        "line": [
          "818 W 7TH ST, STE 930"
        ],
        "city": "LOS ANGELES",
        "state": "CA",
        "postalCode": "90017-3476"
      },
      {
        "line": [
          "\"199 Bryan Street, Suite 900"
        ],
        "city": "DALLAS",
        "state": "TX",
        "postalCode": "75201-3136"
      },
      {
        "line": [
          "300 Montvue Road"
        ],
        "city": "KNOXVILLE",
        "state": "TN",
        "postalCode": "37919-5510"
      },
      {
        "line": [
          "6145 N NORTHWEST HWY"
        ],
        "city": "CHICAGO",
        "state": "IL",
        "postalCode": "60631-2127"
      },
      {
        "line": [
          "2005 East 2700 South, Suite 200"
        ],
        "city": "SALT LAKE CITY",
        "state": "UT",
        "postalCode": "84109-1700"
      },
      {
        "line": [
          "1015 15th Street N.W, Suite 1000"
        ],
        "city": "WASHINGTON",
        "state": "DC",
        "postalCode": "20005-2610"
      }
    ],
    "extension": [
      {
        "url": "https://fhir.athena.io/StructureDefinition/ah-practice",
        "valueReference": {
          "reference": "Organization/a-1.Practice-23957"
        }
      },
      {
        "url": "https://fhir.athena.io/StructureDefinition/ah-brand",
        "valueReference": {
          "reference": "Organization/a-23957.Brand-1"
        }
      }
    ]
  },
  "fullUrl": "urn:uuid:3f17f0b9-b1fc-51e0-b5a5-da627671da8f"
}