{
  "resource": {
    "resourceType": "Organization",
    "id": "355b19ad-1245-5fe5-946d-d6f4e4fe58b5",
    "name": "Advanced Foot and Ankle Center",
    "endpoint": [
      {
        "reference": "Endpoint/27a4e967-47aa-5a9c-a572-b8297ee268a2"
      },
      {
        "reference": "Endpoint/248e548a-31e8-5c35-bd6d-64b526058741"
      }
    ],
    "identifier": [
      {
        "system": "http://hl7.org/fhir/sid/us-npi",
        "value": "1235728510"
      }
    ],
    "address": [
      {
        "line": [
          "405 SE 13th Ave."
        ],
        "city": "ALEDO",
        "state": "IL",
        "postalCode": "61231-2000"
      },
      {
        "line": [
          "2545 24th St."
        ],
        "city": "ROCK ISLAND",
        "state": "IL",
        "postalCode": "61201-5305"
      },
      {
        "line": [
          "833 16th Ave"
        ],
        "city": "MOLINE",
        "state": "IL",
        "postalCode": "61265-3808"
      },
      {
        "line": [
          "2701  17th St."
        ],
        "city": "ROCK ISLAND",
        "state": "IL",
        "postalCode": "61201-5351"
      },
      {
        "line": [
          "1401 W CENTRAL PARK AVE"
        ],
        "city": "DAVENPORT",
        "state": "IA",
        "postalCode": "52804-1707"
      },
      {
        "line": [
          "600 N COLLEGE AVE"
        ],
        "city": "GENESEO",
        "state": "IL",
        "postalCode": "61254-1091"
      },
      {
        "line": [
          "1228 EAST RUSHOLME ST.",
          "MOB 1 SUITE 3020"
        ],
        "city": "DAVENPORT",
        "state": "IA",
        "postalCode": "52803-2467"
      },
      {
        "line": [
          "2546 TECH DR"
        ],
        "city": "BETTENDORF",
        "state": "IA",
        "postalCode": "52722-3345"
      },
      {
        "line": [
          "851 35th Ave."
        ],
        "city": "MOLINE",
        "state": "IL",
        "postalCode": "61265-8026"
      },
      {
        "line": [
          "801 ILLINI DRIVE"
        ],
        "city": "SILVIS",
        "state": "IL",
        "postalCode": "61282-1804"
      },
      {
        "line": [
          "201 E FRANKLIN ST"
        ],
        "city": "ELDRIDGE",
        "state": "IA",
        "postalCode": "52748-1311"
      },
      {
        "line": [
          "1118 11TH ST."
        ],
        "city": "DE WITT",
        "state": "IA",
        "postalCode": "52742-1296"
      },
      {
        "line": [
          "2701 17TH ST."
        ],
        "city": "ROCK ISLAND",
        "state": "IL",
        "postalCode": "61201-5351"
      },
      {
        "line": [
          "4500 Utica Ridge Rd"
        ],
        "city": "BETTENDORF",
        "state": "IA",
        "postalCode": "52722-1626"
      },
      {
        "line": [
          "767 30TH ST"
        ],
        "city": "ROCK ISLAND",
        "state": "IL",
        "postalCode": "61201-1945"
      },
      {
        "line": [
          "801 Illini Dr."
        ],
        "city": "SILVIS",
        "state": "IL",
        "postalCode": "61282-1804"
      },
      {
        "line": [
          "2101 47th St."
        ],
        "city": "MOLINE",
        "state": "IL",
        "postalCode": "61265-3663"
      },
      {
        "line": [
          "600 JOHN DEERE ROAD"
        ],
        "city": "MOLINE",
        "state": "IL",
        "postalCode": "61265-6869"
      },
      {
        "line": [
          "1227 E RUSHOLME ST"
        ],
        "city": "DAVENPORT",
        "state": "IA",
        "postalCode": "52803-2459"
      },
      {
        "line": [
          "1209 21ST AVE"
        ],
        "city": "ROCK ISLAND",
        "state": "IL",
        "postalCode": "61201-7900"
      }
    ],
    "extension": [
      {
        "url": "https://fhir.athena.io/StructureDefinition/ah-practice",
        "valueReference": {
          "reference": "Organization/a-1.Practice-23068"
        }
      },
      {
        "url": "https://fhir.athena.io/StructureDefinition/ah-brand",
        "valueReference": {
          "reference": "Organization/a-23068.Brand-1"
        }
      }
    ]
  },
  "fullUrl": "urn:uuid:355b19ad-1245-5fe5-946d-d6f4e4fe58b5"
}