{
  "resource": {
    "resourceType": "Organization",
    "id": "666b95b7-fec0-5321-88ad-58577cd037ac",
    "name": "OMNIPOINT SURGICAL ASSOCIATE",
    "endpoint": [
      {
        "reference": "Endpoint/27a4e967-47aa-5a9c-a572-b8297ee268a2"
      },
      {
        "reference": "Endpoint/39c5b210-299c-540b-bb5c-bfddbd57a989"
      }
    ],
    "identifier": [
      {
        "system": "http://hl7.org/fhir/sid/us-npi",
        "value": "1306245162"
      }
    ],
    "address": [
      {
        "line": [
          "1705 Tarboro St"
        ],
        "city": "WILSON",
        "state": "NC",
        "postalCode": "27893-3428"
      },
      {
        "line": [
          "566 RUIN CREEK ROAD"
        ],
        "city": "HENDERSON",
        "state": "NC",
        "postalCode": "27536-9999"
      },
      {
        "line": [
          "901 LAKESHORE DR"
        ],
        "city": "ISHPEMING",
        "state": "MI",
        "postalCode": "49849-9999"
      },
      {
        "line": [
          "320 HOSPITAL DRIVE"
        ],
        "city": "MARTINSVILLE",
        "state": "VA",
        "postalCode": "24112-9999"
      },
      {
        "line": [
          "600 WEST RIDE ROAD"
        ],
        "city": "WYTHEVILLE",
        "state": "VA",
        "postalCode": "24382-9999"
      },
      {
        "line": [
          "262 LEROY GEORGE DRIVE"
        ],
        "city": "CLYDE",
        "state": "NC",
        "postalCode": "28721-7430"
      },
      {
        "line": [
          "2750 Laurel street suite 200"
        ],
        "city": "COLUMBIA",
        "state": "SC",
        "postalCode": "29204-2038"
      },
      {
        "line": [
          "68 HOSPITAL ROAD"
        ],
        "city": "SYLVA",
        "state": "NC",
        "postalCode": "28779-9999"
      }
    ],
    "extension": [
      {
        "url": "https://fhir.athena.io/StructureDefinition/ah-practice",
        "valueReference": {
          "reference": "Organization/a-1.Practice-9600"
        }
      },
      {
        "url": "https://fhir.athena.io/StructureDefinition/ah-brand",
        "valueReference": {
          "reference": "Organization/a-9600.Brand-2"
        }
      }
    ]
  },
  "fullUrl": "urn:uuid:666b95b7-fec0-5321-88ad-58577cd037ac"
}