{
  "resource": {
    "resourceType": "Organization",
    "id": "e2d1c34b-bac1-5e36-9770-9241c385a156",
    "name": "UT Physicians Neurosciences",
    "endpoint": [
      {
        "reference": "Endpoint/27a4e967-47aa-5a9c-a572-b8297ee268a2"
      },
      {
        "reference": "Endpoint/e00aefa9-b564-5249-a8e2-e97b1cad1b88"
      }
    ],
    "identifier": [
      {
        "system": "http://hl7.org/fhir/sid/us-npi",
        "value": "1265096317"
      }
    ],
    "address": [
      {
        "line": [
          "18951 Memorial North"
        ],
        "city": "HUMBLE",
        "state": "TX",
        "postalCode": "77338-4217"
      },
      {
        "line": [
          "3726 Dacoma St Suite 270"
        ],
        "city": "HOUSTON",
        "state": "TX",
        "postalCode": "77092-8906"
      },
      {
        "line": [
          "5656 Kelley St"
        ],
        "city": "HOUSTON",
        "state": "TX",
        "postalCode": "77026-1967"
      },
      {
        "line": [
          "1401 ST JOSEPH PKWY"
        ],
        "city": "HOUSTON",
        "state": "TX",
        "postalCode": "77002-8301"
      },
      {
        "line": [
          "27800 Northwest Freeway"
        ],
        "city": "CYPRESS",
        "state": "TX",
        "postalCode": "77433-5302"
      },
      {
        "line": [
          "3550 Swingle Rd"
        ],
        "city": "HOUSTON",
        "state": "TX",
        "postalCode": "77047-3763"
      },
      {
        "line": [
          "7600 Beechnut"
        ],
        "city": "HOUSTON",
        "state": "TX",
        "postalCode": "77074-4302"
      },
      {
        "line": [
          "9200 PINECROFT",
          "Suite 130"
        ],
        "city": "SPRING",
        "state": "TX",
        "postalCode": "77380-3284"
      },
      {
        "line": [
          "6400 Fannin",
          "19th Floor"
        ],
        "city": "HOUSTON",
        "state": "TX",
        "postalCode": "77030-1501"
      },
      {
        "line": [
          "110 Memorial Hospital Dr."
        ],
        "city": "HUNTSVILLE",
        "state": "TX",
        "postalCode": "77340-0005"
      },
      {
        "line": [
          "6400 Fannin St Suite 2800"
        ],
        "city": "HOUSTON",
        "state": "TX",
        "postalCode": "77030-1534"
      },
      {
        "line": [
          "921 Gessner Rd"
        ],
        "city": "HOUSTON",
        "state": "TX",
        "postalCode": "77024-2501"
      },
      {
        "line": [
          "6411 Fanning"
        ],
        "city": "HOUSTON",
        "state": "TX",
        "postalCode": "77030-1501"
      },
      {
        "line": [
          "6400 Fannin St"
        ],
        "city": "HOUSTON",
        "state": "TX",
        "postalCode": "77030-3000"
      },
      {
        "line": [
          "9105 N Wayside Dr"
        ],
        "city": "HOUSTON",
        "state": "TX",
        "postalCode": "77026-1038"
      },
      {
        "line": [
          "23900 Katy Frwy"
        ],
        "city": "KATY",
        "state": "TX",
        "postalCode": "77494-1346"
      },
      {
        "line": [
          "23923 Cinco Ranch Blvd"
        ],
        "city": "KATY",
        "state": "TX",
        "postalCode": "77494-3399"
      },
      {
        "line": [
          "4000 SPENCER HWY"
        ],
        "city": "PASADENA",
        "state": "TX",
        "postalCode": "77504-1202"
      },
      {
        "line": [
          "6411 Fannin St"
        ],
        "city": "HOUSTON",
        "state": "TX",
        "postalCode": "77030-1501"
      },
      {
        "line": [
          "11800 Astoria Blvd"
        ],
        "city": "HOUSTON",
        "state": "TX",
        "postalCode": "77089-6041"
      },
      {
        "line": [
          "3726 Dacoma St Suite 135"
        ],
        "city": "HOUSTON",
        "state": "TX",
        "postalCode": "77092-8906"
      },
      {
        "line": [
          "4600 EAST SAM HOUSTON PRWY"
        ],
        "city": "PASADENA",
        "state": "TX",
        "postalCode": "77505-3948"
      },
      {
        "line": [
          "1712 1st St E",
          "Suite M20"
        ],
        "city": "HUMBLE",
        "state": "TX",
        "postalCode": "77338-5233"
      },
      {
        "line": [
          "6400 Fannin St Suite 2150"
        ],
        "city": "HOUSTON",
        "state": "TX",
        "postalCode": "77030-1521"
      },
      {
        "line": [
          "9200 PINECROFT",
          "Suite 130"
        ],
        "city": "The Woodlands",
        "state": "TX",
        "postalCode": "77380-3284"
      },
      {
        "line": [
          "16100 South Freeway"
        ],
        "city": "PEARLAND",
        "state": "TX",
        "postalCode": "77584-1895"
      },
      {
        "line": [
          "6400 Fannin St Suite 2010"
        ],
        "city": "HOUSTON",
        "state": "TX",
        "postalCode": "77030-1521"
      },
      {
        "line": [
          "9180 Pinecroft",
          "Suit 500"
        ],
        "city": "SPRING",
        "state": "TX",
        "postalCode": "77380-3883"
      },
      {
        "line": [
          "16655 Southwest Freeway"
        ],
        "city": "SUGAR LAND",
        "state": "TX",
        "postalCode": "77479-2329"
      },
      {
        "line": [
          "27700 Northwest freeway suite 200"
        ],
        "city": "CYPRESS",
        "state": "TX",
        "postalCode": "77433-6767"
      },
      {
        "line": [
          "4600 East Sam Houston Pkwy S"
        ],
        "city": "PASADENA",
        "state": "TX",
        "postalCode": "77505-3948"
      },
      {
        "line": [
          "500 MEDICAL CENTER BLVD"
        ],
        "city": "WEBSTER",
        "state": "TX",
        "postalCode": "77598-4220"
      },
      {
        "line": [
          "5146 Preston Rd"
        ],
        "city": "PASADENA",
        "state": "TX",
        "postalCode": "77504-2735"
      },
      {
        "line": [
          "929 Gessner Rd, Ste 2410"
        ],
        "city": "HOUSTON",
        "state": "TX",
        "postalCode": "77024-2584"
      },
      {
        "line": [
          "23900 Katy Freeway"
        ],
        "city": "KATY",
        "state": "TX",
        "postalCode": "77494-1323"
      },
      {
        "line": [
          "17500 West Grand Parkway South"
        ],
        "city": "SUGAR LAND",
        "state": "TX",
        "postalCode": "77479-2562"
      },
      {
        "line": [
          "6411 Fannin"
        ],
        "city": "HOUSTON",
        "state": "TX",
        "postalCode": "77030-1501"
      },
      {
        "line": [
          "3080 COLLEGE ST"
        ],
        "city": "BEAUMONT",
        "state": "TX",
        "postalCode": "77701-4606"
      },
      {
        "line": [
          "6411 FANNIN STREET"
        ],
        "city": "HOUSTON",
        "state": "TX",
        "postalCode": "77030-1501"
      },
      {
        "line": [
          "1515 Holcombe Blvd"
        ],
        "city": "HOUSTON",
        "state": "TX",
        "postalCode": "77030-4000"
      },
      {
        "line": [
          "920 MEDICAL PLAZA DR",
          "Suite 140"
        ],
        "city": "THE WOODLANDS",
        "state": "TX",
        "postalCode": "77380-3259"
      },
      {
        "line": [
          "9250 Pinecroft Drive"
        ],
        "city": "SPRING",
        "state": "TX",
        "postalCode": "77380-3218"
      },
      {
        "line": [
          "1333 Moursund"
        ],
        "city": "HOUSTON",
        "state": "TX",
        "postalCode": "77030-3405"
      },
      {
        "line": [
          "6400 Fannin St Suite 1500"
        ],
        "city": "HOUSTON",
        "state": "TX",
        "postalCode": "77030-1526"
      },
      {
        "line": [
          "1200 BINZ"
        ],
        "city": "HOUSTON",
        "state": "TX",
        "postalCode": "77004-6900"
      },
      {
        "line": [
          "18955 Memorial North Suite 340"
        ],
        "city": "HUMBLE",
        "state": "TX",
        "postalCode": "77338-4263"
      },
      {
        "line": [
          "12141 RICHMOND AVE"
        ],
        "city": "HOUSTON",
        "state": "TX",
        "postalCode": "77082-2408"
      },
      {
        "line": [
          "23960 Katy Freeway Suite 450"
        ],
        "city": "KATY",
        "state": "TX",
        "postalCode": "77494-1341"
      },
      {
        "line": [
          "1941 East Road",
          "Suite 4358"
        ],
        "city": "HOUSTON",
        "state": "TX",
        "postalCode": "77054-6101"
      },
      {
        "line": [
          "8901 Boone Rd"
        ],
        "city": "HOUSTON",
        "state": "TX",
        "postalCode": "77099-1659"
      },
      {
        "line": [
          "21720 Kingsland Blvd",
          "#102"
        ],
        "city": "KATY",
        "state": "TX",
        "postalCode": "77450-2551"
      },
      {
        "line": [
          "5656 KELLEY ST"
        ],
        "city": "HOUSTON",
        "state": "TX",
        "postalCode": "77026-1967"
      },
      {
        "line": [
          "4000 Spencer Hwy"
        ],
        "city": "PASADENA",
        "state": "TX",
        "postalCode": "77504-1202"
      },
      {
        "line": [
          "1602 Garth Road"
        ],
        "city": "BAYTOWN",
        "state": "TX",
        "postalCode": "77520-2410"
      },
      {
        "line": [
          "1635 North Loop West"
        ],
        "city": "HOUSTON",
        "state": "TX",
        "postalCode": "77008-1532"
      },
      {
        "line": [
          "915 Gessner Rd.",
          "BLDG 3, Suite 300"
        ],
        "city": "HOUSTON",
        "state": "TX",
        "postalCode": "77024-2500"
      },
      {
        "line": [
          "10905 Memorial Hermann Dr. Suite 211"
        ],
        "city": "PEARLAND",
        "state": "TX",
        "postalCode": "77584-3490"
      },
      {
        "line": [
          "1120 Business Center Drive Suite 110"
        ],
        "city": "HOUSTON",
        "state": "TX",
        "postalCode": "77043-2735"
      },
      {
        "line": [
          "3728 Dacoma Street",
          "Suit 115"
        ],
        "city": "HOUSTON",
        "state": "TX",
        "postalCode": "77092-8906"
      },
      {
        "line": [
          "7600 Beechnut St"
        ],
        "city": "HOUSTON",
        "state": "TX",
        "postalCode": "77074-4302"
      },
      {
        "line": [
          "21720 Kingsland Blvd",
          "#302"
        ],
        "city": "KATY",
        "state": "TX",
        "postalCode": "77450-2551"
      },
      {
        "line": [
          "2701 HOSPITAL DR"
        ],
        "city": "VICTORIA",
        "state": "TX",
        "postalCode": "77901-5748"
      },
      {
        "line": [
          "300 Kingwood Drive"
        ],
        "city": "KINGWOOD",
        "state": "TX",
        "postalCode": "77339-6400"
      },
      {
        "line": [
          "8810 Hwy 6",
          "Suite 100"
        ],
        "city": "MISSOURI CITY",
        "state": "TX",
        "postalCode": "77459-7104"
      },
      {
        "line": [
          "11920 Astoria Blvd Suite 292"
        ],
        "city": "HOUSTON",
        "state": "TX",
        "postalCode": "77089-6041"
      },
      {
        "line": [
          "6400 Fannin",
          "Suite 1500"
        ],
        "city": "HOUSTON",
        "state": "TX",
        "postalCode": "77030-1501"
      },
      {
        "line": [
          "6977 Main St"
        ],
        "city": "HOUSTON",
        "state": "TX",
        "postalCode": "77030-3701"
      },
      {
        "line": [
          "2525 Holly Hall St"
        ],
        "city": "HOUSTON",
        "state": "TX",
        "postalCode": "77054-4142"
      },
      {
        "line": [
          "6431 FANNIN,",
          "MSE 401A 406E"
        ],
        "city": "HOUSTON",
        "state": "TX",
        "postalCode": "77030-1501"
      },
      {
        "line": [
          "6400 Fannin Ste 1800"
        ],
        "city": "HOUSTON",
        "state": "TX",
        "postalCode": "77030-1501"
      },
      {
        "line": [
          "6410 Fannin Ste 370"
        ],
        "city": "HOUSTON",
        "state": "TX",
        "postalCode": "77030-3004"
      },
      {
        "line": [
          "6700 West Loop South",
          "Suite 130"
        ],
        "city": "BELLAIRE",
        "state": "TX",
        "postalCode": "77401-4104"
      },
      {
        "line": [
          "818 Ringgold"
        ],
        "city": "HOUSTON",
        "state": "TX",
        "postalCode": "77088-6368"
      },
      {
        "line": [
          "7777 SW Freeway Ste 840"
        ],
        "city": "HOUSTON",
        "state": "TX",
        "postalCode": "77074-1811"
      },
      {
        "line": [
          "104 7th Street"
        ],
        "city": "BAY CITY",
        "state": "TX",
        "postalCode": "77414-4853"
      },
      {
        "line": [
          "1941 East Rd",
          "Suite 4358"
        ],
        "city": "HOUSTON",
        "state": "TX",
        "postalCode": "77054-6010"
      },
      {
        "line": [
          "17520 West Grand Parkway South Suite 450"
        ],
        "city": "SUGAR LAND",
        "state": "TX",
        "postalCode": "77479-1501"
      },
      {
        "line": [
          "5410 W LOOP SOUTH"
        ],
        "city": "BELLAIRE",
        "state": "TX",
        "postalCode": "77401-2107"
      },
      {
        "line": [
          "6400 FANNIN ST STE 1500"
        ],
        "city": "HOUSTON",
        "state": "TX",
        "postalCode": "77030-1534"
      },
      {
        "line": [
          "17510 West Grand Parkway S",
          "Medical Plaza #1, Suite 200,"
        ],
        "city": "ANGLETON",
        "state": "TX",
        "postalCode": "77515-2645"
      },
      {
        "line": [
          "6410 Fannin Street",
          "Suite 1014"
        ],
        "city": "HOUSTON",
        "state": "TX",
        "postalCode": "77030-5301"
      },
      {
        "line": [
          "16906 Southwest Freeway"
        ],
        "city": "SUGAR LAND",
        "state": "TX",
        "postalCode": "77479-2329"
      },
      {
        "line": [
          "1333 Moursund St",
          "2nd FL"
        ],
        "city": "HOUSTON",
        "state": "TX",
        "postalCode": "77030-3405"
      },
      {
        "line": [
          "9250 Pinecroft Dr"
        ],
        "city": "SPRING",
        "state": "TX",
        "postalCode": "77380-3218"
      },
      {
        "line": [
          "1631 North Loop West Suite 245"
        ],
        "city": "HOUSTON",
        "state": "TX",
        "postalCode": "77008-1437"
      }
    ],
    "extension": [
      {
        "url": "https://fhir.athena.io/StructureDefinition/ah-practice",
        "valueReference": {
          "reference": "Organization/a-1.Practice-19823"
        }
      },
      {
        "url": "https://fhir.athena.io/StructureDefinition/ah-brand",
        "valueReference": {
          "reference": "Organization/a-19823.Brand-1"
        }
      }
    ]
  },
  "fullUrl": "urn:uuid:e2d1c34b-bac1-5e36-9770-9241c385a156"
}