{
  "resource": {
    "resourceType": "Organization",
    "id": "5a1b2ca6-3345-54cf-8d8a-1fe667b9c3c0",
    "name": "MinuteClinic",
    "endpoint": [
      {
        "reference": "Endpoint/27a4e967-47aa-5a9c-a572-b8297ee268a2"
      },
      {
        "reference": "Endpoint/0e12cabd-cdce-5dca-bee8-368f47a64aa9"
      }
    ],
    "identifier": [
      {
        "system": "http://hl7.org/fhir/sid/us-npi",
        "value": "1629245311"
      },
      {
        "system": "http://hl7.org/fhir/sid/us-npi",
        "value": "1134191836"
      }
    ],
    "address": [
      {
        "line": [
          "5050 W Baseline Rd"
        ],
        "city": "LAVEEN",
        "state": "AZ",
        "postalCode": "85339-7324"
      },
      {
        "line": [
          "7111 E. BELL ROAD"
        ],
        "city": "SCOTTSDALE",
        "state": "AZ",
        "postalCode": "85254-5638"
      },
      {
        "line": [
          "6310 E Broadway Blvd"
        ],
        "city": "TUCSON",
        "state": "AZ",
        "postalCode": "85710-3538"
      },
      {
        "line": [
          "9501 E Shea Blvd"
        ],
        "city": "SCOTTSDALE",
        "state": "AZ",
        "postalCode": "85260-6719"
      },
      {
        "line": [
          "2385 N. Silverbell Rd."
        ],
        "city": "TUCSON",
        "state": "AZ",
        "postalCode": "85745-1121"
      },
      {
        "line": [
          "4121 E Cotton Center Blvd"
        ],
        "city": "PHOENIX",
        "state": "AZ",
        "postalCode": "85040-8849"
      },
      {
        "line": [
          "21201 E Ocotillo Rd"
        ],
        "city": "QUEEN CREEK",
        "state": "AZ",
        "postalCode": "85142-9339"
      },
      {
        "line": [
          "28635 N North Valley Parkway"
        ],
        "city": "PHOENIX",
        "state": "AZ",
        "postalCode": "85085-5434"
      },
      {
        "line": [
          "5450 West Happy Valley Road"
        ],
        "city": "GLENDALE",
        "state": "AZ",
        "postalCode": "85310-2949"
      },
      {
        "line": [
          "2005 N Dobson Rd"
        ],
        "city": "CHANDLER",
        "state": "AZ",
        "postalCode": "85224-2294"
      },
      {
        "line": [
          "10650 N Oracle Rd"
        ],
        "city": "Oro Valley",
        "state": "AZ",
        "postalCode": "85737-9301"
      },
      {
        "line": [
          "1610 E Camelback Rd"
        ],
        "city": "PHOENIX",
        "state": "AZ",
        "postalCode": "85016-3902"
      },
      {
        "line": [
          "10707 W Camelback Rd"
        ],
        "city": "PHOENIX",
        "state": "AZ",
        "postalCode": "85037-5073"
      }
    ],
    "extension": [
      {
        "url": "https://fhir.athena.io/StructureDefinition/ah-practice",
        "valueReference": {
          "reference": "Organization/a-1.Practice-1654"
        }
      },
      {
        "url": "https://fhir.athena.io/StructureDefinition/ah-brand",
        "valueReference": {
          "reference": "Organization/a-1654.Brand-1"
        }
      }
    ]
  },
  "fullUrl": "urn:uuid:5a1b2ca6-3345-54cf-8d8a-1fe667b9c3c0"
}