{
  "resource": {
    "resourceType": "Organization",
    "id": "b9fe516c-746a-56a5-a5bc-5ec19790c872",
    "name": "FAMILY ALLERGY & ASTHMA CARE",
    "endpoint": [
      {
        "reference": "Endpoint/27a4e967-47aa-5a9c-a572-b8297ee268a2"
      },
      {
        "reference": "Endpoint/e216f150-6ebb-56c7-b151-2e4da9de7048"
      }
    ],
    "identifier": [
      {
        "system": "http://hl7.org/fhir/sid/us-npi",
        "value": "1659396703"
      }
    ],
    "address": [
      {
        "line": [
          "9901 Medical Center Drive"
        ],
        "city": "ROCKVILLE",
        "state": "MD",
        "postalCode": "20850-3357"
      },
      {
        "line": [
          "1500 Forest Glen Road"
        ],
        "city": "SILVER SPRING",
        "state": "MD",
        "postalCode": "20910-1460"
      },
      {
        "line": [
          "6245 EXECUTIVE BLVD"
        ],
        "city": "ROCKVILLE",
        "state": "MD",
        "postalCode": "20852-3906"
      },
      {
        "line": [
          "8710 Cameron Street",
          "#100"
        ],
        "city": "SILVER SPRING",
        "state": "MD",
        "postalCode": "20910-3772"
      },
      {
        "line": [
          "8600 Old Georgetown Road"
        ],
        "city": "BETHESDA",
        "state": "MD",
        "postalCode": "20814-1422"
      },
      {
        "line": [
          "19801 Observation Drive"
        ],
        "city": "GERMANTOWN",
        "state": "MD",
        "postalCode": "20876-4070"
      },
      {
        "line": [
          "806 West Diamond Avenue",
          "Suite 360"
        ],
        "city": "GAITHERSBURG",
        "state": "MD",
        "postalCode": "20878-1425"
      },
      {
        "line": [
          "806 West Diamond Ave.",
          "Suite 360"
        ],
        "city": "GAITHERSBURG",
        "state": "MD",
        "postalCode": "20878-1425"
      },
      {
        "line": [
          "7600 Carroll Avenue"
        ],
        "city": "TAKOMA PARK",
        "state": "MD",
        "postalCode": "20912-6367"
      },
      {
        "line": [
          "806 WEST DIAMOND AVENUE",
          "SUITE 360"
        ],
        "city": "GAITHERSBURG",
        "state": "MD",
        "postalCode": "20878-1415"
      }
    ],
    "extension": [
      {
        "url": "https://fhir.athena.io/StructureDefinition/ah-practice",
        "valueReference": {
          "reference": "Organization/a-1.Practice-3222"
        }
      },
      {
        "url": "https://fhir.athena.io/StructureDefinition/ah-brand",
        "valueReference": {
          "reference": "Organization/a-3222.Brand-1"
        }
      }
    ]
  },
  "fullUrl": "urn:uuid:b9fe516c-746a-56a5-a5bc-5ec19790c872"
}