{
  "resource": {
    "resourceType": "Organization",
    "id": "0488495c-5713-50db-8076-80bc5cc33023",
    "name": "Alabama Women's Specialists",
    "endpoint": [
      {
        "reference": "Endpoint/27a4e967-47aa-5a9c-a572-b8297ee268a2"
      },
      {
        "reference": "Endpoint/45188e99-4929-5c09-b070-2aac6d560b0b"
      }
    ],
    "identifier": [
      {
        "system": "http://hl7.org/fhir/sid/us-npi",
        "value": "1295258002"
      }
    ],
    "address": [
      {
        "line": [
          "2996 Kate Bond Rd",
          "Suite 105"
        ],
        "city": "MEMPHIS",
        "state": "TN",
        "postalCode": "38133-4062"
      },
      {
        "line": [
          "1601 New Castle Dr"
        ],
        "city": "FORREST CITY",
        "state": "AR",
        "postalCode": "72335-2218"
      },
      {
        "line": [
          "5659 Park Ave"
        ],
        "city": "MEMPHIS",
        "state": "TN",
        "postalCode": "38119-5200"
      },
      {
        "line": [
          "6027 Walnut Grove Rd",
          "Suite 409"
        ],
        "city": "MEMPHIS",
        "state": "TN",
        "postalCode": "38120-2129"
      },
      {
        "line": [
          "610 S Avalon St"
        ],
        "city": "WEST MEMPHIS",
        "state": "AR",
        "postalCode": "72301-4109"
      },
      {
        "line": [
          "4501 Meuller Brass Rd"
        ],
        "city": "COVINGTON",
        "state": "TN",
        "postalCode": "38019-3749"
      },
      {
        "line": [
          "491A Craft Street"
        ],
        "city": "HOLLY SPRINGS",
        "state": "MS",
        "postalCode": "38635-3251"
      },
      {
        "line": [
          "6325 Humphreys Blvd"
        ],
        "city": "MEMPHIS",
        "state": "TN",
        "postalCode": "38120-2300"
      },
      {
        "line": [
          "800 W Broadway St"
        ],
        "city": "WEST MEMPHIS",
        "state": "AR",
        "postalCode": "72301-2912"
      },
      {
        "line": [
          "6019 Walnut Grove Rd"
        ],
        "city": "MEMPHIS",
        "state": "TN",
        "postalCode": "38120-2113"
      },
      {
        "line": [
          "5959 Park Ave"
        ],
        "city": "MEMPHIS",
        "state": "TN",
        "postalCode": "38119-5200"
      },
      {
        "line": [
          "3960 New Covington Pike"
        ],
        "city": "MEMPHIS",
        "state": "TN",
        "postalCode": "38128-2504"
      },
      {
        "line": [
          "1265 Union Ave"
        ],
        "city": "MEMPHIS",
        "state": "TN",
        "postalCode": "38104-3415"
      },
      {
        "line": [
          "1265 Union Ave",
          "2nd and 4th floors"
        ],
        "city": "MEMPHIS",
        "state": "TN",
        "postalCode": "38104-3415"
      },
      {
        "line": [
          "1363 S Germantown Rd"
        ],
        "city": "GERMANTOWN",
        "state": "TN",
        "postalCode": "38138-2225"
      },
      {
        "line": [
          "14825 NORTH OUTER 40 RD",
          "STE 200"
        ],
        "city": "CHESTERFIELD",
        "state": "MO",
        "postalCode": "63017-2152"
      },
      {
        "line": [
          "1500 W Poplar Ave"
        ],
        "city": "COLLIERVILLE",
        "state": "TN",
        "postalCode": "38017-0601"
      },
      {
        "line": [
          "1417 Monroe Avenue"
        ],
        "city": "MEMPHIS",
        "state": "TN",
        "postalCode": "38104-3634"
      },
      {
        "line": [
          "5959 Park Ave FL 12"
        ],
        "city": "MEMPHIS",
        "state": "TN",
        "postalCode": "38119-5200"
      },
      {
        "line": [
          "1240 S Germantown Rd"
        ],
        "city": "GERMANTOWN",
        "state": "TN",
        "postalCode": "38138-3966"
      },
      {
        "line": [
          "5959 Park Avenue",
          "Suite 1B"
        ],
        "city": "MEMPHIS",
        "state": "TN",
        "postalCode": "38119-5200"
      },
      {
        "line": [
          "7691 Poplar Ave"
        ],
        "city": "GERMANTOWN",
        "state": "TN",
        "postalCode": "38138-3904"
      },
      {
        "line": [
          "6225 Humphreys Blvd"
        ],
        "city": "MEMPHIS",
        "state": "TN",
        "postalCode": "38120-2373"
      },
      {
        "line": [
          "2986 Kate Bond Rd"
        ],
        "city": "MEMPHIS",
        "state": "TN",
        "postalCode": "38133-4003"
      },
      {
        "line": [
          "5959 Park Ave",
          "12th Floor"
        ],
        "city": "MEMPHIS",
        "state": "TN",
        "postalCode": "38119-5200"
      },
      {
        "line": [
          "1044 Cresthaven Rd"
        ],
        "city": "MEMPHIS",
        "state": "TN",
        "postalCode": "38119-3832"
      }
    ],
    "extension": [
      {
        "url": "https://fhir.athena.io/StructureDefinition/ah-practice",
        "valueReference": {
          "reference": "Organization/a-1.Practice-16700"
        }
      },
      {
        "url": "https://fhir.athena.io/StructureDefinition/ah-brand",
        "valueReference": {
          "reference": "Organization/a-16700.Brand-2"
        }
      }
    ]
  },
  "fullUrl": "urn:uuid:0488495c-5713-50db-8076-80bc5cc33023"
}