{
  "resource": {
    "resourceType": "Organization",
    "id": "5a2a87ba-66bd-5626-84ef-e736acfc00e1",
    "name": "Aegis Anesthesia ParkHill Affiliate",
    "endpoint": [
      {
        "reference": "Endpoint/27a4e967-47aa-5a9c-a572-b8297ee268a2"
      },
      {
        "reference": "Endpoint/25cca0e8-b73c-5852-8b94-3de948bfa71e"
      }
    ],
    "identifier": [
      {
        "system": "http://hl7.org/fhir/sid/us-npi",
        "value": "1689715252"
      }
    ],
    "address": [
      {
        "line": [
          "7000 West Plano Parkway, Suite 100"
        ],
        "city": "PLANO",
        "state": "TX",
        "postalCode": "75093-8465"
      },
      {
        "line": [
          "2813 S. Mayhill Rd."
        ],
        "city": "DENTON",
        "state": "TX",
        "postalCode": "76208-5910"
      },
      {
        "line": [
          "7150 greenville Ave"
        ],
        "city": "DALLAS",
        "state": "TX",
        "postalCode": "75231-7900"
      },
      {
        "line": [
          "500 N Highland Ave"
        ],
        "city": "SHERMAN",
        "state": "TX",
        "postalCode": "75092-7354"
      },
      {
        "line": [
          "7000 W Plano Parkway",
          "Suite 100"
        ],
        "city": "PLANO",
        "state": "TX",
        "postalCode": "75093-8466"
      },
      {
        "line": [
          "975 Haskell Street"
        ],
        "city": "FORT WORTH",
        "state": "TX",
        "postalCode": "76107-2653"
      },
      {
        "line": [
          "530 Clara Barton Blvd.",
          "Suite 100"
        ],
        "city": "GARLAND",
        "state": "TX",
        "postalCode": "75042-5759"
      },
      {
        "line": [
          "6110 Sherry Lane"
        ],
        "city": "DALLAS",
        "state": "TX",
        "postalCode": "75225-6301"
      },
      {
        "line": [
          "17051 Dallas Parkway",
          "Suite 200"
        ],
        "city": "ADDISON",
        "state": "TX",
        "postalCode": "75001-7119"
      },
      {
        "line": [
          "5656 Edwards Ranch Road",
          "Suite 100"
        ],
        "city": "FORT WORTH",
        "state": "TX",
        "postalCode": "76109-4136"
      },
      {
        "line": [
          "6449 CENTRAL PARK BLVD"
        ],
        "city": "ABILENE",
        "state": "TX",
        "postalCode": "79606-6636"
      },
      {
        "line": [
          "7150 Greenville Ave",
          "Suite 300"
        ],
        "city": "DALLAS",
        "state": "TX",
        "postalCode": "75231-7900"
      },
      {
        "line": [
          "3920 Worth st."
        ],
        "city": "DALLAS",
        "state": "TX",
        "postalCode": "75246-1605"
      },
      {
        "line": [
          "3107 OAK CREEK DR",
          "STE 100"
        ],
        "city": "AUSTIN",
        "state": "TX",
        "postalCode": "78727-3025"
      }
    ],
    "extension": [
      {
        "url": "https://fhir.athena.io/StructureDefinition/ah-practice",
        "valueReference": {
          "reference": "Organization/a-1.Practice-9229"
        }
      },
      {
        "url": "https://fhir.athena.io/StructureDefinition/ah-brand",
        "valueReference": {
          "reference": "Organization/a-9229.Brand-6"
        }
      }
    ]
  },
  "fullUrl": "urn:uuid:5a2a87ba-66bd-5626-84ef-e736acfc00e1"
}