{
  "resource": {
    "resourceType": "Organization",
    "id": "8a72b2ee-124b-5ed4-852d-adc9ebed0a05",
    "name": "NHRN Rehab Physician Services",
    "endpoint": [
      {
        "reference": "Endpoint/27a4e967-47aa-5a9c-a572-b8297ee268a2"
      },
      {
        "reference": "Endpoint/ff4c793b-3c2f-527b-a439-66bc0c31f14a"
      }
    ],
    "identifier": [
      {
        "system": "http://hl7.org/fhir/sid/us-npi",
        "value": "1831436633"
      }
    ],
    "address": [
      {
        "line": [
          "105 Corporate Drive"
        ],
        "city": "PORTSMOUTH",
        "state": "NH",
        "postalCode": "03801-6825"
      },
      {
        "line": [
          "29 Northwest Blvd",
          "SNHMC West Campus"
        ],
        "city": "NASHUA",
        "state": "NH",
        "postalCode": "03063-4068"
      },
      {
        "line": [
          "70 Butler street"
        ],
        "city": "SALEM",
        "state": "NH",
        "postalCode": "03079-3925"
      },
      {
        "line": [
          "70 Butler Street"
        ],
        "city": "SALEM",
        "state": "NH",
        "postalCode": "03079-3925"
      },
      {
        "line": [
          "29 NORTHEAST BLVD"
        ],
        "city": "NASHUA",
        "state": "NH",
        "postalCode": "03063-4068"
      },
      {
        "line": [
          "70 BUTLER ST"
        ],
        "city": "SALEM",
        "state": "NH",
        "postalCode": "03079-3925"
      },
      {
        "line": [
          "1 Elliot Way",
          "7th Floor"
        ],
        "city": "MANCHESTER",
        "state": "NH",
        "postalCode": "03103-3502"
      },
      {
        "line": [
          "70 BUTLER STREET"
        ],
        "city": "SALEM",
        "state": "NH",
        "postalCode": "03079-3925"
      },
      {
        "line": [
          "1 GENERAL STREET"
        ],
        "city": "LAWRENCE",
        "state": "MA",
        "postalCode": "01841-2961"
      },
      {
        "line": [
          "1 ELLIOT WAY"
        ],
        "city": "MANCHESTER",
        "state": "NH",
        "postalCode": "03103-3502"
      },
      {
        "line": [
          "105 CORPORATE DR"
        ],
        "city": "PORTSMOUTH",
        "state": "NH",
        "postalCode": "03801-6825"
      }
    ],
    "extension": [
      {
        "url": "https://fhir.athena.io/StructureDefinition/ah-practice",
        "valueReference": {
          "reference": "Organization/a-1.Practice-6076"
        }
      },
      {
        "url": "https://fhir.athena.io/StructureDefinition/ah-brand",
        "valueReference": {
          "reference": "Organization/a-6076.Brand-1"
        }
      }
    ]
  },
  "fullUrl": "urn:uuid:8a72b2ee-124b-5ed4-852d-adc9ebed0a05"
}