{
  "resource": {
    "resourceType": "Organization",
    "id": "f692a875-ec05-5d68-96e1-05b32c3e3b67",
    "name": "A Gentle Care Homecare",
    "endpoint": [
      {
        "reference": "Endpoint/27a4e967-47aa-5a9c-a572-b8297ee268a2"
      },
      {
        "reference": "Endpoint/d5f96d45-aea8-5fd4-982b-b2e27bedc900"
      }
    ],
    "identifier": [
      {
        "system": "http://hl7.org/fhir/sid/us-npi",
        "value": "1497938203"
      }
    ],
    "address": [
      {
        "line": [
          "8655 S. Eastern Ave"
        ],
        "city": "LAS VEGAS",
        "state": "NV",
        "postalCode": "89123-2839"
      },
      {
        "line": [
          "5300 W. Sahara Ave",
          "suite 103"
        ],
        "city": "LAS VEGAS",
        "state": "NV",
        "postalCode": "89146-0319"
      },
      {
        "line": [
          "4535 W. Sahara Ave",
          "Suite 100A"
        ],
        "city": "LAS VEGAS",
        "state": "NV",
        "postalCode": "89102-3625"
      },
      {
        "line": [
          "8645 S. Eastern Ave",
          "Bldg 110 Suite B"
        ],
        "city": "LAS VEGAS",
        "state": "NV",
        "postalCode": "89123-2829"
      },
      {
        "line": [
          "4535 W. Sahara Ave",
          "Ste 204"
        ],
        "city": "LAS VEGAS",
        "state": "NV",
        "postalCode": "89102-3734"
      },
      {
        "line": [
          "3160 S Valley View Blvd",
          "Suite 202"
        ],
        "city": "LAS VEGAS",
        "state": "NV",
        "postalCode": "89102-8316"
      },
      {
        "line": [
          "7241 W. Sahara Ave",
          "Ste 110"
        ],
        "city": "LAS VEGAS",
        "state": "NV",
        "postalCode": "89117-2859"
      },
      {
        "line": [
          "1706 Bearden Drive"
        ],
        "city": "LAS VEGAS",
        "state": "NV",
        "postalCode": "89106-4107"
      },
      {
        "line": [
          "8285 W Arby Ave",
          "#145"
        ],
        "city": "LAS VEGAS",
        "state": "NV",
        "postalCode": "89113-2236"
      },
      {
        "line": [
          "2578 Belcastro St",
          "Suite 102"
        ],
        "city": "LAS VEGAS",
        "state": "NV",
        "postalCode": "89117-3067"
      },
      {
        "line": [
          "3930 e watkins",
          "suite 300"
        ],
        "city": "PHOENIX",
        "state": "AZ",
        "postalCode": "85034-7275"
      },
      {
        "line": [
          "3100 W. Sahara Ave",
          "Ste 215"
        ],
        "city": "LAS VEGAS",
        "state": "NV",
        "postalCode": "89102-6008"
      },
      {
        "line": [
          "6225 Dean Martin Dr"
        ],
        "city": "LAS VEGAS",
        "state": "NV",
        "postalCode": "89118-9998"
      },
      {
        "line": [
          "2001 S Jones Blvd",
          "#K"
        ],
        "city": "LAS VEGAS",
        "state": "NV",
        "postalCode": "89146-3137"
      },
      {
        "line": [
          "5165 S. Durango Dr",
          "Suite 101"
        ],
        "city": "LAS VEGAS",
        "state": "NV",
        "postalCode": "89113-0176"
      },
      {
        "line": [
          "4025 s Pearl st"
        ],
        "city": "LAS VEGAS",
        "state": "NV",
        "postalCode": "89121-7238"
      }
    ],
    "extension": [
      {
        "url": "https://fhir.athena.io/StructureDefinition/ah-practice",
        "valueReference": {
          "reference": "Organization/a-1.Practice-1846"
        }
      },
      {
        "url": "https://fhir.athena.io/StructureDefinition/ah-brand",
        "valueReference": {
          "reference": "Organization/a-1846.Brand-1"
        }
      }
    ]
  },
  "fullUrl": "urn:uuid:f692a875-ec05-5d68-96e1-05b32c3e3b67"
}