{
  "resource": {
    "resourceType": "Organization",
    "id": "efaae0fd-1126-5736-838a-778fa9d54ac2",
    "name": "MEDEXPRESS URGENT CARE - NORTHERN NEW JERSEY, P.C.",
    "endpoint": [
      {
        "reference": "Endpoint/27a4e967-47aa-5a9c-a572-b8297ee268a2"
      },
      {
        "reference": "Endpoint/50dd2fb2-f119-570d-bfb6-2704badcb7af"
      }
    ],
    "identifier": [
      {
        "system": "http://hl7.org/fhir/sid/us-npi",
        "value": "1487185369"
      }
    ],
    "address": [
      {
        "line": [
          "415 W Saint Georges Ave"
        ],
        "city": "LINDEN",
        "state": "NJ",
        "postalCode": "07036-5641"
      },
      {
        "line": [
          "228 Mountain Avenue"
        ],
        "city": "HACKETTSTOWN",
        "state": "NJ",
        "postalCode": "07840-2409"
      },
      {
        "line": [
          "124 Washington Ave"
        ],
        "city": "NUTLEY",
        "state": "NJ",
        "postalCode": "07110-3502"
      },
      {
        "line": [
          "184 Essex Street",
          "F1"
        ],
        "city": "LODI",
        "state": "NJ",
        "postalCode": "07644-2707"
      },
      {
        "line": [
          "200 US Highway 22"
        ],
        "city": "SPRINGFIELD",
        "state": "NJ",
        "postalCode": "07081-3123"
      },
      {
        "line": [
          "346 US Highway 46"
        ],
        "city": "ROCKAWAY",
        "state": "NJ",
        "postalCode": "07866-9998"
      },
      {
        "line": [
          "118 E Hanover Ave"
        ],
        "city": "CEDAR KNOLLS",
        "state": "NJ",
        "postalCode": "07927-2007"
      },
      {
        "line": [
          "135 Bloomfield Ave"
        ],
        "city": "BLOOMFIELD",
        "state": "NJ",
        "postalCode": "07003-5902"
      },
      {
        "line": [
          "1569 US Highway 22"
        ],
        "city": "WATCHUNG",
        "state": "NJ",
        "postalCode": "07069-6507"
      },
      {
        "line": [
          "501 State Route 10"
        ],
        "city": "LEDGEWOOD",
        "state": "NJ",
        "postalCode": "07852-9667"
      }
    ],
    "extension": [
      {
        "url": "https://fhir.athena.io/StructureDefinition/ah-practice",
        "valueReference": {
          "reference": "Organization/a-1.Practice-3908"
        }
      },
      {
        "url": "https://fhir.athena.io/StructureDefinition/ah-brand",
        "valueReference": {
          "reference": "Organization/a-3908.Brand-1"
        }
      }
    ]
  },
  "fullUrl": "urn:uuid:efaae0fd-1126-5736-838a-778fa9d54ac2"
}