{
  "resource": {
    "resourceType": "Organization",
    "id": "5fe5eb4e-6c77-5623-b788-a3af67742691",
    "name": "WILL BYNUM, MD PA",
    "endpoint": [
      {
        "reference": "Endpoint/27a4e967-47aa-5a9c-a572-b8297ee268a2"
      },
      {
        "reference": "Endpoint/6774105e-60a0-5121-9292-8bb412fc6694"
      }
    ],
    "identifier": [
      {
        "system": "http://hl7.org/fhir/sid/us-npi",
        "value": "1396966412"
      }
    ],
    "address": [
      {
        "line": [
          "120 Hospital Dr."
        ],
        "city": "TARBORO",
        "state": "NC",
        "postalCode": "27886-1234"
      },
      {
        "line": [
          "122 Hospital Drive"
        ],
        "city": "TARBORO",
        "state": "NC",
        "postalCode": "27886-1234"
      },
      {
        "line": [
          "230 S. Fairview Road"
        ],
        "city": "ROCKY MOUNT",
        "state": "NC",
        "postalCode": "27801-1234"
      },
      {
        "line": [
          "1676 S. Wesleyan Blvd."
        ],
        "city": "ROCKY MOUNT",
        "state": "NC",
        "postalCode": "27803-1234"
      },
      {
        "line": [
          "750 English Road"
        ],
        "city": "ROCKY MOUNT",
        "state": "NC",
        "postalCode": "27804-1234"
      },
      {
        "line": [
          "191 Se Railroad St."
        ],
        "city": "SHARPSBURG",
        "state": "NC",
        "postalCode": "27878-9500"
      },
      {
        "line": [
          "4302 S. Main Street"
        ],
        "city": "FARMVILLE",
        "state": "NC",
        "postalCode": "27828-1234"
      },
      {
        "line": [
          "2400 Medpark Drive"
        ],
        "city": "ROCKY MOUNT",
        "state": "NC",
        "postalCode": "27804-1234"
      },
      {
        "line": [
          "1051 Noell Lane"
        ],
        "city": "ROCKY MOUNT",
        "state": "NC",
        "postalCode": "27804-1234"
      },
      {
        "line": [
          "2501 Downing St. SW"
        ],
        "city": "WILSON",
        "state": "NC",
        "postalCode": "27893-1234"
      },
      {
        "line": [
          "102 Dodd Street",
          "Food Lion Shopping Center"
        ],
        "city": "SPRING HOPE",
        "state": "NC",
        "postalCode": "27882-1234"
      },
      {
        "line": [
          "2833 Wooten Blvd. SW"
        ],
        "city": "WILSON",
        "state": "NC",
        "postalCode": "27893-8625"
      },
      {
        "line": [
          "1705 Tarboro Street W"
        ],
        "city": "WILSON",
        "state": "NC",
        "postalCode": "27893-1234"
      }
    ],
    "extension": [
      {
        "url": "https://fhir.athena.io/StructureDefinition/ah-practice",
        "valueReference": {
          "reference": "Organization/a-1.Practice-18576"
        }
      },
      {
        "url": "https://fhir.athena.io/StructureDefinition/ah-brand",
        "valueReference": {
          "reference": "Organization/a-18576.Brand-1"
        }
      }
    ]
  },
  "fullUrl": "urn:uuid:5fe5eb4e-6c77-5623-b788-a3af67742691"
}