{
  "resource": {
    "resourceType": "Organization",
    "id": "a2d1d035-2b3f-5ed4-9f87-707b7e7e3ca5",
    "name": "First Coast Nephrology",
    "endpoint": [
      {
        "reference": "Endpoint/27a4e967-47aa-5a9c-a572-b8297ee268a2"
      },
      {
        "reference": "Endpoint/10f4a390-5401-5d2f-a086-1c601e90bf13"
      }
    ],
    "identifier": [
      {
        "system": "http://hl7.org/fhir/sid/us-npi",
        "value": "1780684795"
      }
    ],
    "address": [
      {
        "line": [
          "11513 N MAIN ST"
        ],
        "city": "JACKSONVILLE",
        "state": "FL",
        "postalCode": "32218-4002"
      },
      {
        "line": [
          "1215 Dunn Ave",
          "ste 8"
        ],
        "city": "JACKSONVILLE",
        "state": "FL",
        "postalCode": "32218-4897"
      },
      {
        "line": [
          "1107 MYRA ST STE 101"
        ],
        "city": "JACKSONVILLE",
        "state": "FL",
        "postalCode": "32204-3321"
      },
      {
        "line": [
          "3038 SAINT JOHNS BLUFF RD S"
        ],
        "city": "JACKSONVILLE",
        "state": "FL",
        "postalCode": "32246-3710"
      },
      {
        "line": [
          "159 N 3RD ST"
        ],
        "city": "MACCLENNY",
        "state": "FL",
        "postalCode": "32063-2103"
      },
      {
        "line": [
          "5730 BOWDEN RD STE 110"
        ],
        "city": "JACKSONVILLE",
        "state": "FL",
        "postalCode": "32216-6174"
      },
      {
        "line": [
          "5607 NORMANDY BLVD"
        ],
        "city": "JACKSONVILLE",
        "state": "FL",
        "postalCode": "32205-6248"
      },
      {
        "line": [
          "10614 LEM TURNER RD"
        ],
        "city": "JACKSONVILLE",
        "state": "FL",
        "postalCode": "32218-4562"
      },
      {
        "line": [
          "244 N 3RD ST"
        ],
        "city": "MACCLENNY",
        "state": "FL",
        "postalCode": "32063-2106"
      },
      {
        "line": [
          "5276 BLANDING BLVD STE 26"
        ],
        "city": "JACKSONVILLE",
        "state": "FL",
        "postalCode": "32210-8176"
      },
      {
        "line": [
          "4123 UNIVERSITY BLVD S STE E"
        ],
        "city": "JACKSONVILLE",
        "state": "FL",
        "postalCode": "32216-4320"
      },
      {
        "line": [
          "1944 ATLANTIC BLVD"
        ],
        "city": "JACKSONVILLE",
        "state": "FL",
        "postalCode": "32207-3406"
      },
      {
        "line": [
          "8021 PHILIPS HWY STE 15"
        ],
        "city": "JACKSONVILLE",
        "state": "FL",
        "postalCode": "32256-7460"
      },
      {
        "line": [
          "3107 EDGEWOOD AVE W"
        ],
        "city": "JACKSONVILLE",
        "state": "FL",
        "postalCode": "32209-2209"
      },
      {
        "line": [
          "3901 University Blvd S",
          "ste 111"
        ],
        "city": "JACKSONVILLE",
        "state": "FL",
        "postalCode": "32216-4374"
      }
    ],
    "extension": [
      {
        "url": "https://fhir.athena.io/StructureDefinition/ah-practice",
        "valueReference": {
          "reference": "Organization/a-1.Practice-16880"
        }
      },
      {
        "url": "https://fhir.athena.io/StructureDefinition/ah-brand",
        "valueReference": {
          "reference": "Organization/a-16880.Brand-4"
        }
      }
    ]
  },
  "fullUrl": "urn:uuid:a2d1d035-2b3f-5ed4-9f87-707b7e7e3ca5"
}