{
  "resource": {
    "resourceType": "Organization",
    "id": "b41914b1-d25d-5d10-a307-961ce4a3a637",
    "name": "BEARTOOTH ORTHOPAEDIC & SPINE, PC",
    "endpoint": [
      {
        "reference": "Endpoint/27a4e967-47aa-5a9c-a572-b8297ee268a2"
      },
      {
        "reference": "Endpoint/181f2cd4-6ba3-5efd-b727-2527d5547f09"
      }
    ],
    "identifier": [
      {
        "system": "http://hl7.org/fhir/sid/us-npi",
        "value": "1558351536"
      }
    ],
    "address": [
      {
        "line": [
          "732 LINDSAY LANE"
        ],
        "city": "CODY",
        "state": "WY",
        "postalCode": "82414-4103"
      },
      {
        "line": [
          "401 S 15TH ST"
        ],
        "city": "WORLAND",
        "state": "WY",
        "postalCode": "82401-2803"
      },
      {
        "line": [
          "1115 Lane 12"
        ],
        "city": "LOVELL",
        "state": "WY",
        "postalCode": "82431-9537"
      },
      {
        "line": [
          "150 E Arapahoe St"
        ],
        "city": "THERMOPOLIS",
        "state": "WY",
        "postalCode": "82443-2402"
      },
      {
        "line": [
          "440 S 15TH ST"
        ],
        "city": "WORLAND",
        "state": "WY",
        "postalCode": "82401-3531"
      },
      {
        "line": [
          "707 SHERIDAN AVE"
        ],
        "city": "CODY",
        "state": "WY",
        "postalCode": "82414-3409"
      },
      {
        "line": [
          "707 Sheridan Ave"
        ],
        "city": "CODY",
        "state": "WY",
        "postalCode": "82414-3409"
      },
      {
        "line": [
          "1115 lane 12"
        ],
        "city": "LOVELL",
        "state": "WY",
        "postalCode": "82431-9537"
      },
      {
        "line": [
          "777 Avenue H"
        ],
        "city": "POWELL",
        "state": "WY",
        "postalCode": "82435-2260"
      },
      {
        "line": [
          "148 E Arapahoe St"
        ],
        "city": "THERMOPOLIS",
        "state": "WY",
        "postalCode": "82443-2402"
      },
      {
        "line": [
          "707 SHERIDAN AVENUE"
        ],
        "city": "CODY",
        "state": "WY",
        "postalCode": "82414-3409"
      },
      {
        "line": [
          "639 W Coulter Avenue"
        ],
        "city": "POWELL",
        "state": "WY",
        "postalCode": "82435-2527"
      }
    ],
    "extension": [
      {
        "url": "https://fhir.athena.io/StructureDefinition/ah-practice",
        "valueReference": {
          "reference": "Organization/a-1.Practice-16076"
        }
      },
      {
        "url": "https://fhir.athena.io/StructureDefinition/ah-brand",
        "valueReference": {
          "reference": "Organization/a-16076.Brand-4"
        }
      }
    ]
  },
  "fullUrl": "urn:uuid:b41914b1-d25d-5d10-a307-961ce4a3a637"
}