{
  "resource": {
    "resourceType": "Organization",
    "id": "50e35255-081a-5fb3-a71b-6d3df529c329",
    "name": "Your Provider",
    "endpoint": [
      {
        "reference": "Endpoint/27a4e967-47aa-5a9c-a572-b8297ee268a2"
      },
      {
        "reference": "Endpoint/21f40fc9-ce0a-5e6b-adec-0793b1033451"
      }
    ],
    "identifier": [
      {
        "system": "http://hl7.org/fhir/sid/us-npi",
        "value": "1528480811"
      }
    ],
    "address": [
      {
        "line": [
          "1616 E McElroy Rd"
        ],
        "city": "STILLWATER",
        "state": "OK",
        "postalCode": "74075-7300"
      },
      {
        "line": [
          "7700 W Hefner Rd"
        ],
        "city": "OKLAHOMA CITY",
        "state": "OK",
        "postalCode": "73162-4392"
      },
      {
        "line": [
          "400 SW 79th St"
        ],
        "city": "OKLAHOMA CITY",
        "state": "OK",
        "postalCode": "73139-8120"
      },
      {
        "line": [
          "2215 4th Ave NW"
        ],
        "city": "ARDMORE",
        "state": "OK",
        "postalCode": "73401-2561"
      },
      {
        "line": [
          "3947 N Kickapoo"
        ],
        "city": "SHAWNEE",
        "state": "OK",
        "postalCode": "74801-1708"
      },
      {
        "line": [
          "101 W Hefner"
        ],
        "city": "OKLAHOMA CITY",
        "state": "OK",
        "postalCode": "73114-6631"
      },
      {
        "line": [
          "10001 S May Ave"
        ],
        "city": "OKLAHOMA CITY",
        "state": "OK",
        "postalCode": "73159-6600"
      },
      {
        "line": [
          "12525 N Pennsylvania Ave"
        ],
        "city": "OKLAHOMA CITY",
        "state": "OK",
        "postalCode": "73120-9443"
      },
      {
        "line": [
          "13200 S May Ave"
        ],
        "city": "OKLAHOMA CITY",
        "state": "OK",
        "postalCode": "73170-4541"
      },
      {
        "line": [
          "801 W Country Club Rd"
        ],
        "city": "CHICKASHA",
        "state": "OK",
        "postalCode": "73018-7287"
      },
      {
        "line": [
          "11012 Coachmans Rd"
        ],
        "city": "YUKON",
        "state": "OK",
        "postalCode": "73099-8022"
      },
      {
        "line": [
          "1404 NW 122nd St"
        ],
        "city": "OKLAHOMA CITY",
        "state": "OK",
        "postalCode": "73114-8000"
      },
      {
        "line": [
          "10401 Vineyard Blvd"
        ],
        "city": "OKLAHOMA CITY",
        "state": "OK",
        "postalCode": "73120-3781"
      },
      {
        "line": [
          "7802 NW Quanah Parker Trl"
        ],
        "city": "LAWTON",
        "state": "OK",
        "postalCode": "73505-1177"
      },
      {
        "line": [
          "10000 Miller Circle"
        ],
        "city": "OKLAHOMA CITY",
        "state": "OK",
        "postalCode": "73162-5515"
      },
      {
        "line": [
          "405 S 29th St"
        ],
        "city": "CHICKASHA",
        "state": "OK",
        "postalCode": "73018-2501"
      },
      {
        "line": [
          "1229 Lakeshore Dr"
        ],
        "city": "EDMOND",
        "state": "OK",
        "postalCode": "73013-6242"
      },
      {
        "line": [
          "1001 S Bryant Ave"
        ],
        "city": "EDMOND",
        "state": "OK",
        "postalCode": "73034-5745"
      },
      {
        "line": [
          "6110 N Pennsylvania Ave"
        ],
        "city": "OKLAHOMA CITY",
        "state": "OK",
        "postalCode": "73112-7361"
      },
      {
        "line": [
          "2232 SW 104th St"
        ],
        "city": "OKLAHOMA CITY",
        "state": "OK",
        "postalCode": "73159-7500"
      }
    ],
    "extension": [
      {
        "url": "https://fhir.athena.io/StructureDefinition/ah-practice",
        "valueReference": {
          "reference": "Organization/a-1.Practice-19281"
        }
      },
      {
        "url": "https://fhir.athena.io/StructureDefinition/ah-brand",
        "valueReference": {
          "reference": "Organization/a-19281.Brand-2"
        }
      }
    ]
  },
  "fullUrl": "urn:uuid:50e35255-081a-5fb3-a71b-6d3df529c329"
}