{
  "resource": {
    "resourceType": "Organization",
    "id": "41a94729-b828-51c8-b9b9-a5b6e8004b54",
    "name": "ABET LIFE, INC",
    "endpoint": [
      {
        "reference": "Endpoint/27a4e967-47aa-5a9c-a572-b8297ee268a2"
      },
      {
        "reference": "Endpoint/a8c1dbfc-aaf4-561f-8758-30ec76835869"
      }
    ],
    "identifier": [
      {
        "system": "http://hl7.org/fhir/sid/us-npi",
        "value": "1235312901"
      },
      {
        "system": "urn:oid:2.16.840.1.113883.4.7",
        "value": "45D1011657"
      }
    ],
    "address": [
      {
        "line": [
          "16959 SOUTHWEST FWY",
          "SUITE 200"
        ],
        "city": "SUGAR LAND",
        "state": "TX",
        "postalCode": "77479-3481"
      },
      {
        "line": [
          "6300 HILCROFT STREET"
        ],
        "city": "HOUSTON",
        "state": "TX",
        "postalCode": "77081-3006"
      },
      {
        "line": [
          "3718 SANDY OAKS LANE"
        ],
        "city": "MISSOURI CITY",
        "state": "TX",
        "postalCode": "77459-6723"
      },
      {
        "line": [
          "7622 Branford Place"
        ],
        "city": "SUGAR LAND",
        "state": "TX",
        "postalCode": "77479-3759"
      },
      {
        "line": [
          "16900 Lexington Blvd"
        ],
        "city": "SUGAR LAND",
        "state": "TX",
        "postalCode": "77479-3481"
      },
      {
        "line": [
          "7622 BRANFORD PL"
        ],
        "city": "SUGAR LAND",
        "state": "TX",
        "postalCode": "77479-3759"
      },
      {
        "line": [
          "7500 Beechnut",
          "Ste 310"
        ],
        "city": "HOUSTON",
        "state": "TX",
        "postalCode": "77074-4337"
      },
      {
        "line": [
          "16959 SOUTHWEST FRWY",
          "SUITE 200"
        ],
        "city": "SUGAR LAND",
        "state": "TX",
        "postalCode": "77479-3481"
      }
    ],
    "extension": [
      {
        "url": "https://fhir.athena.io/StructureDefinition/ah-practice",
        "valueReference": {
          "reference": "Organization/a-1.Practice-4667"
        }
      },
      {
        "url": "https://fhir.athena.io/StructureDefinition/ah-brand",
        "valueReference": {
          "reference": "Organization/a-4667.Brand-1"
        }
      }
    ]
  },
  "fullUrl": "urn:uuid:41a94729-b828-51c8-b9b9-a5b6e8004b54"
}