{
  "resource": {
    "resourceType": "Organization",
    "id": "c3919739-7e7a-5e91-8689-638ead6c50a9",
    "name": "Bryn Mawr Rehab",
    "endpoint": [
      {
        "reference": "Endpoint/27a4e967-47aa-5a9c-a572-b8297ee268a2"
      },
      {
        "reference": "Endpoint/d035d143-6aa0-5e23-a4e8-3d40f2e7c78f"
      }
    ],
    "identifier": [
      {
        "system": "http://hl7.org/fhir/sid/us-npi",
        "value": "1689620254"
      }
    ],
    "address": [
      {
        "line": [
          "105 Westtown Rd"
        ],
        "city": "WEST CHESTER",
        "state": "PA",
        "postalCode": "19382-8902"
      },
      {
        "line": [
          "3310 MEMPHIS ST"
        ],
        "city": "PHILADELPHIA",
        "state": "PA",
        "postalCode": "19134-4510"
      },
      {
        "line": [
          "1300 W LEHIGH AVE STE 106"
        ],
        "city": "PHILADELPHIA",
        "state": "PA",
        "postalCode": "19132-2764"
      },
      {
        "line": [
          "255 West Lancaster Avenue",
          "suite 200"
        ],
        "city": "PAOLI",
        "state": "PA",
        "postalCode": "19301-1763"
      },
      {
        "line": [
          "501 S. 54TH ST"
        ],
        "city": "PHILADELPHIA",
        "state": "PA",
        "postalCode": "19143-1900"
      },
      {
        "line": [
          "6212 WALNUT ST"
        ],
        "city": "PHILADELPHIA",
        "state": "PA",
        "postalCode": "19139-3706"
      },
      {
        "line": [
          "250 W Lancaster Avenue",
          "Suite 225"
        ],
        "city": "PAOLI",
        "state": "PA",
        "postalCode": "19301-1762"
      },
      {
        "line": [
          "800 W MINER ST"
        ],
        "city": "WEST CHESTER",
        "state": "PA",
        "postalCode": "19382-2149"
      },
      {
        "line": [
          "600 W VALLEY FORGE RD"
        ],
        "city": "KING OF PRUSSIA",
        "state": "PA",
        "postalCode": "19406-1571"
      },
      {
        "line": [
          "1015 W BALTIMORE PIKE STE 112"
        ],
        "city": "WEST GROVE",
        "state": "PA",
        "postalCode": "19390-9459"
      },
      {
        "line": [
          "30 Medical Center Blvd",
          "Suite 303"
        ],
        "city": "CHESTER",
        "state": "PA",
        "postalCode": "19013-3958"
      },
      {
        "line": [
          "1701-03 S BROAD ST"
        ],
        "city": "PHILADELPHIA",
        "state": "PA",
        "postalCode": "19148-1505"
      },
      {
        "line": [
          "2301 S BROAD ST"
        ],
        "city": "PHILADELPHIA",
        "state": "PA",
        "postalCode": "19148-3542"
      },
      {
        "line": [
          "380 Oxford Valley Rd"
        ],
        "city": "LANGHORNE",
        "state": "PA",
        "postalCode": "19047-8304"
      },
      {
        "line": [
          "940 Haverford Rd"
        ],
        "city": "BRYN MAWR",
        "state": "PA",
        "postalCode": "19010-3845"
      },
      {
        "line": [
          "4800 BROWN ST STE 201"
        ],
        "city": "PHILADELPHIA",
        "state": "PA",
        "postalCode": "19139-2105"
      },
      {
        "line": [
          "720 JOHNSVILLE BLVD STE 800"
        ],
        "city": "WARMINSTER",
        "state": "PA",
        "postalCode": "18974-3546"
      },
      {
        "line": [
          "235 N BROAD ST STE 200"
        ],
        "city": "PHILADELPHIA",
        "state": "PA",
        "postalCode": "19107-1531"
      },
      {
        "line": [
          "3401 N BROAD ST"
        ],
        "city": "PHILADELPHIA",
        "state": "PA",
        "postalCode": "19140-5103"
      },
      {
        "line": [
          "1336 Bristol Pike # 130",
          "Units  12-13"
        ],
        "city": "BENSALEM",
        "state": "PA",
        "postalCode": "19020-5669"
      },
      {
        "line": [
          "495 Thomas Jones Way"
        ],
        "city": "EXTON",
        "state": "PA",
        "postalCode": "19341-2553"
      },
      {
        "line": [
          "1 Medical Center Blvd"
        ],
        "city": "Upland",
        "state": "PA",
        "postalCode": "19013-3902"
      },
      {
        "line": [
          "501 NORTH LANSDOWNE AVENUE"
        ],
        "city": "DREXEL HILL",
        "state": "PA",
        "postalCode": "19026-1114"
      },
      {
        "line": [
          "1417 BRACE RD"
        ],
        "city": "CHERRY HILL",
        "state": "NJ",
        "postalCode": "08034-3524"
      },
      {
        "line": [
          "1130 West Chester Pike"
        ],
        "city": "WEST CHESTER",
        "state": "PA",
        "postalCode": "19382-5005"
      },
      {
        "line": [
          "1129 W Lincoln Hwy"
        ],
        "city": "COATESVILLE",
        "state": "PA",
        "postalCode": "19320-1836"
      },
      {
        "line": [
          "40 E OREGON AVE"
        ],
        "city": "PHILADELPHIA",
        "state": "PA",
        "postalCode": "19148-4110"
      },
      {
        "line": [
          "880 Town Center Dr."
        ],
        "city": "LANGHORNE",
        "state": "PA",
        "postalCode": "19047-1748"
      },
      {
        "line": [
          "230 N BROAD ST, FL 12"
        ],
        "city": "PHILADELPHIA",
        "state": "PA",
        "postalCode": "19102-1121"
      },
      {
        "line": [
          "501 Bath Rd."
        ],
        "city": "BRISTOL",
        "state": "PA",
        "postalCode": "19007-3101"
      },
      {
        "line": [
          "8200 FLOURTOWN AVE",
          "STE 3"
        ],
        "city": "Wyndmoor",
        "state": "PA",
        "postalCode": "19038-7969"
      },
      {
        "line": [
          "4400 W GIRARD AVE"
        ],
        "city": "PHILADELPHIA",
        "state": "PA",
        "postalCode": "19104-1002"
      },
      {
        "line": [
          "9475 Roosevelt Blvd"
        ],
        "city": "PHILADELPHIA",
        "state": "PA",
        "postalCode": "19114-2212"
      },
      {
        "line": [
          "500 EVERGREEN DR STE 23"
        ],
        "city": "GLEN MILLS",
        "state": "PA",
        "postalCode": "19342-1032"
      },
      {
        "line": [
          "1336 Bristol Pk., Ste B"
        ],
        "city": "BENSALEM",
        "state": "PA",
        "postalCode": "19020-5671"
      },
      {
        "line": [
          "1088 BALTIMORE PIKE",
          "SUITE 2201"
        ],
        "city": "MEDIA",
        "state": "PA",
        "postalCode": "19063-5136"
      },
      {
        "line": [
          "783 STERLING ROAD"
        ],
        "city": "WOODBURY",
        "state": "NJ",
        "postalCode": "08096-4014"
      },
      {
        "line": [
          "724 N CHARLOTTE ST"
        ],
        "city": "POTTSTOWN",
        "state": "PA",
        "postalCode": "19464-4607"
      },
      {
        "line": [
          "9815 ROOSEVELT BLVD. , SUITE 1A"
        ],
        "city": "PHILADELPHIA",
        "state": "PA",
        "postalCode": "19114-1035"
      },
      {
        "line": [
          "1500 LANSDOWNE AVENUE"
        ],
        "city": "DARBY",
        "state": "PA",
        "postalCode": "19023-1200"
      },
      {
        "line": [
          "301 CALLOWHILL ST"
        ],
        "city": "PHILADELPHIA",
        "state": "PA",
        "postalCode": "19123-4103"
      },
      {
        "line": [
          "111 S 11TH ST"
        ],
        "city": "PHILADELPHIA",
        "state": "PA",
        "postalCode": "19107-4824"
      },
      {
        "line": [
          "1501 Lansdowne Ave",
          "Ste 201"
        ],
        "city": "DARBY",
        "state": "PA",
        "postalCode": "19023-1333"
      },
      {
        "line": [
          "1900 Frost Rd. Ste.100"
        ],
        "city": "BRISTOL",
        "state": "PA",
        "postalCode": "19007-1519"
      },
      {
        "line": [
          "265 Wilmington Pike"
        ],
        "city": "CHADDS FORD",
        "state": "PA",
        "postalCode": "19317-6789"
      },
      {
        "line": [
          "9501 ROOSEVELT BOULEVARD SUITE 204"
        ],
        "city": "PHILADELPHIA",
        "state": "PA",
        "postalCode": "19114-1027"
      },
      {
        "line": [
          "2800 Kelly, Rd. Ste. 110"
        ],
        "city": "WARRINGTON",
        "state": "PA",
        "postalCode": "18976-3626"
      },
      {
        "line": [
          "930 Town Center Dr., Ste. G-100"
        ],
        "city": "LANGHORNE",
        "state": "PA",
        "postalCode": "19047-3503"
      },
      {
        "line": [
          "30 MEDICAL CENTER BLVD"
        ],
        "city": "UPLAND",
        "state": "PA",
        "postalCode": "19013-3955"
      },
      {
        "line": [
          "518 KNORR ST"
        ],
        "city": "PHILADELPHIA",
        "state": "PA",
        "postalCode": "19111-4604"
      },
      {
        "line": [
          "701 East Marshall Street"
        ],
        "city": "WEST CHESTER",
        "state": "PA",
        "postalCode": "19380-4412"
      },
      {
        "line": [
          "252 Belmont Ave."
        ],
        "city": "DOYLESTOWN",
        "state": "PA",
        "postalCode": "18901-4459"
      },
      {
        "line": [
          "10800 Knights Rd"
        ],
        "city": "PHILADELPHIA",
        "state": "PA",
        "postalCode": "19114-4200"
      },
      {
        "line": [
          "4190 CITY AVE STE 124"
        ],
        "city": "PHILADELPHIA",
        "state": "PA",
        "postalCode": "19131-1627"
      },
      {
        "line": [
          "30 Medical Center Boulevard Suite 303"
        ],
        "city": "UPLAND",
        "state": "PA",
        "postalCode": "19013-3958"
      },
      {
        "line": [
          "1201 Langhorne-Newtown Rd."
        ],
        "city": "LANGHORNE",
        "state": "PA",
        "postalCode": "19047-1201"
      },
      {
        "line": [
          "1930 S BROAD ST Suite 39"
        ],
        "city": "PHILADELPHIA",
        "state": "PA",
        "postalCode": "19145-2328"
      },
      {
        "line": [
          "5901 MARKET STREET"
        ],
        "city": "PHILADELPHIA",
        "state": "PA",
        "postalCode": "19139-3117"
      },
      {
        "line": [
          "105 WESTTOWN RD"
        ],
        "city": "WEST CHESTER",
        "state": "PA",
        "postalCode": "19382-8902"
      },
      {
        "line": [
          "4 Industrial Boulevard"
        ],
        "city": "PAOLI",
        "state": "PA",
        "postalCode": "19301-1605"
      },
      {
        "line": [
          "1098 W Baltimore Pike #3101"
        ],
        "city": "MEDIA",
        "state": "PA",
        "postalCode": "19063-5139"
      },
      {
        "line": [
          "60 Blacksmith Rd."
        ],
        "city": "NEWTOWN",
        "state": "PA",
        "postalCode": "18940-1847"
      },
      {
        "line": [
          "300 Evergreen Drive"
        ],
        "city": "GLEN MILLS",
        "state": "PA",
        "postalCode": "19342-1059"
      },
      {
        "line": [
          "860 SPRINGDALE DR",
          "STE 100"
        ],
        "city": "EXTON",
        "state": "PA",
        "postalCode": "19341-2834"
      },
      {
        "line": [
          "100 E LEHIGH AVE, GROUND FLOOR"
        ],
        "city": "PHILADELPHIA",
        "state": "PA",
        "postalCode": "19125-1012"
      },
      {
        "line": [
          "1208 Langhorne-Newtown Rd."
        ],
        "city": "LANGHORNE",
        "state": "PA",
        "postalCode": "19047-1201"
      },
      {
        "line": [
          "1412 LANSDOWNE AVE"
        ],
        "city": "DARBY",
        "state": "PA",
        "postalCode": "19023-1218"
      },
      {
        "line": [
          "1500 Lansdowne Avneune"
        ],
        "city": "DARBY",
        "state": "PA",
        "postalCode": "19023-1200"
      },
      {
        "line": [
          "1930 S BROAD ST STE 7"
        ],
        "city": "PHILADELPHIA",
        "state": "PA",
        "postalCode": "19145-2328"
      },
      {
        "line": [
          "414 Paoli Pike"
        ],
        "city": "MALVERN",
        "state": "PA",
        "postalCode": "19355-3311"
      },
      {
        "line": [
          "One Medical Center Boulevard",
          "Suite 303"
        ],
        "city": "CHESTER",
        "state": "PA",
        "postalCode": "19013-3902"
      }
    ],
    "extension": [
      {
        "url": "https://fhir.athena.io/StructureDefinition/ah-practice",
        "valueReference": {
          "reference": "Organization/a-1.Practice-3389"
        }
      },
      {
        "url": "https://fhir.athena.io/StructureDefinition/ah-brand",
        "valueReference": {
          "reference": "Organization/a-3389.Brand-1"
        }
      }
    ]
  },
  "fullUrl": "urn:uuid:c3919739-7e7a-5e91-8689-638ead6c50a9"
}