{
  "resource": {
    "resourceType": "Organization",
    "id": "a1ed2029-45d9-5575-8a11-94576f3c6c51",
    "name": "Prestige Orthoapaedics and Sports Medicine, Inc.",
    "endpoint": [
      {
        "reference": "Endpoint/27a4e967-47aa-5a9c-a572-b8297ee268a2"
      },
      {
        "reference": "Endpoint/db1b8504-2d86-5e32-8b8f-ae330969a7ab"
      }
    ],
    "identifier": [
      {
        "system": "http://hl7.org/fhir/sid/us-npi",
        "value": "1134713704"
      }
    ],
    "address": [
      {
        "line": [
          "3444 KEARNY VILLA RD"
        ],
        "city": "SAN DIEGO",
        "state": "CA",
        "postalCode": "92123-1959"
      },
      {
        "line": [
          "7901 FROST ST"
        ],
        "city": "SAN DIEGO",
        "state": "CA",
        "postalCode": "92123-2701"
      },
      {
        "line": [
          "9850 GENESEE AVE",
          "STE 100"
        ],
        "city": "LA JOLLA",
        "state": "CA",
        "postalCode": "92037-1206"
      },
      {
        "line": [
          "11939 RANCHO BERNARDO RD",
          "STE 115"
        ],
        "city": "SAN DIEGO",
        "state": "CA",
        "postalCode": "92128-2073"
      },
      {
        "line": [
          "9888 GENESEE AVE"
        ],
        "city": "LA JOLLA",
        "state": "CA",
        "postalCode": "92037-1205"
      },
      {
        "line": [
          "3075 HEALTH CENTER DR"
        ],
        "city": "SAN DIEGO",
        "state": "CA",
        "postalCode": "92123-2773"
      },
      {
        "line": [
          "15615 POMERADO RD"
        ],
        "city": "POWAY",
        "state": "CA",
        "postalCode": "92064-2405"
      },
      {
        "line": [
          "2185 CITRACADO PKWY"
        ],
        "city": "ESCONDIDO",
        "state": "CA",
        "postalCode": "92029-4159"
      },
      {
        "line": [
          "3939 RUFFIN RD"
        ],
        "city": "SAN DIEGO",
        "state": "CA",
        "postalCode": "92123-1802"
      }
    ],
    "extension": [
      {
        "url": "https://fhir.athena.io/StructureDefinition/ah-practice",
        "valueReference": {
          "reference": "Organization/a-1.Practice-32958"
        }
      },
      {
        "url": "https://fhir.athena.io/StructureDefinition/ah-brand",
        "valueReference": {
          "reference": "Organization/a-32958.Brand-1"
        }
      }
    ]
  },
  "fullUrl": "urn:uuid:a1ed2029-45d9-5575-8a11-94576f3c6c51"
}