{
  "resource": {
    "resourceType": "Organization",
    "id": "1df9b857-7b04-5f4d-90ca-fe7ea6fe6ac8",
    "name": "Kay County Hospital Radiology",
    "endpoint": [
      {
        "reference": "Endpoint/27a4e967-47aa-5a9c-a572-b8297ee268a2"
      },
      {
        "reference": "Endpoint/7ea0c496-a1c1-57fd-a2dd-cbf7d5eff3bc"
      }
    ],
    "identifier": [
      {
        "system": "http://hl7.org/fhir/sid/us-npi",
        "value": "1821526468"
      }
    ],
    "address": [
      {
        "line": [
          "4770 VINE ST"
        ],
        "city": "DENVER",
        "state": "CO",
        "postalCode": "80216-2227"
      },
      {
        "line": [
          "1122 N HUDSON ST APT 1115"
        ],
        "city": "ARLINGTON",
        "state": "VA",
        "postalCode": "22201-6851"
      },
      {
        "line": [
          "28 SOMMERSET DR"
        ],
        "city": "POUGHKEEPSIE",
        "state": "NY",
        "postalCode": "12603-6713"
      },
      {
        "line": [
          "62 BORGLUM RD"
        ],
        "city": "MANHASSET",
        "state": "NY",
        "postalCode": "11030-2123"
      },
      {
        "line": [
          "5135 37TH RD N"
        ],
        "city": "ARLINGTON",
        "state": "VA",
        "postalCode": "22207-1874"
      },
      {
        "line": [
          "7613 SUGAR MAPLE CT"
        ],
        "city": "TYLER",
        "state": "TX",
        "postalCode": "75703-0981"
      },
      {
        "line": [
          "6729 MONTE RD"
        ],
        "city": "SAN LUIS OBISPO",
        "state": "CA",
        "postalCode": "93401-8050"
      },
      {
        "line": [
          "14050 COLLINS RANCH PL"
        ],
        "city": "SAN DIEGO",
        "state": "CA",
        "postalCode": "92130-5572"
      },
      {
        "line": [
          "2316 ELLA LEE LN"
        ],
        "city": "HOUSTON",
        "state": "TX",
        "postalCode": "77019-6309"
      },
      {
        "line": [
          "103 AVE DE DIEGO"
        ],
        "city": "SAN JUAN",
        "state": "PR",
        "postalCode": "00911-3501"
      },
      {
        "line": [
          "6125 RANIER LN N"
        ],
        "city": "Plymouth",
        "state": "MN",
        "postalCode": "55446-2072"
      },
      {
        "line": [
          "2 JAKE DR"
        ],
        "city": "TINTON FALLS",
        "state": "NJ",
        "postalCode": "07712-7534"
      },
      {
        "line": [
          "3209 GALLERIA UNIT 805"
        ],
        "city": "EDINA",
        "state": "MN",
        "postalCode": "55435-2547"
      },
      {
        "line": [
          "7816 MEADOWVALE TER"
        ],
        "city": "GAITHERSBURG",
        "state": "MD",
        "postalCode": "20882-1122"
      },
      {
        "line": [
          "1503 PIEDMONT"
        ],
        "city": "IRVINE",
        "state": "CA",
        "postalCode": "92620-2845"
      },
      {
        "line": [
          "46-393 HOLOLIO ST"
        ],
        "city": "KANEOHE",
        "state": "HI",
        "postalCode": "96744-4223"
      },
      {
        "line": [
          "39236 MCINTOSH PL"
        ],
        "city": "AVON",
        "state": "OH",
        "postalCode": "44011-5749"
      },
      {
        "line": [
          "3209 Galleria, Unit 805"
        ],
        "city": "EDINA",
        "state": "MN",
        "postalCode": "55435-2547"
      },
      {
        "line": [
          "18033 BIRWOOD ST"
        ],
        "city": "DETROIT",
        "state": "MI",
        "postalCode": "48221-2320"
      },
      {
        "line": [
          "1807 S ASHTON AVE"
        ],
        "city": "STILLWATER",
        "state": "OK",
        "postalCode": "74074-1974"
      },
      {
        "line": [
          "7309 WAVERLY AVE"
        ],
        "city": "Nichols Hills",
        "state": "OK",
        "postalCode": "73120-1420"
      },
      {
        "line": [
          "7903 TERRAPIN CT"
        ],
        "city": "PIKESVILLE",
        "state": "MD",
        "postalCode": "21208-3126"
      },
      {
        "line": [
          "5824 N BARNES CIR"
        ],
        "city": "OKLAHOMA CITY",
        "state": "OK",
        "postalCode": "73112-7330"
      },
      {
        "line": [
          "5901 CROWNOVER CT"
        ],
        "city": "PLANO",
        "state": "TX",
        "postalCode": "75093-4341"
      },
      {
        "line": [
          "1809 INTEGRITY WAY UNIT 209"
        ],
        "city": "LOUISVILLE",
        "state": "KY",
        "postalCode": "40220-3868"
      },
      {
        "line": [
          "7204 BLAIRVIEW DR"
        ],
        "city": "DALLAS",
        "state": "TX",
        "postalCode": "75230-5415"
      },
      {
        "line": [
          "1202 CHELSHURST WAY"
        ],
        "city": "SPRING",
        "state": "TX",
        "postalCode": "77379-3247"
      },
      {
        "line": [
          "16262 38TH AVE NE"
        ],
        "city": "Lake Forest Park",
        "state": "WA",
        "postalCode": "98155-5417"
      },
      {
        "line": [
          "37896 LEGARD FARM RD"
        ],
        "city": "Hillsboro",
        "state": "VA",
        "postalCode": "20132-3610"
      },
      {
        "line": [
          "1505 NEWTON ST UNIT A"
        ],
        "city": "AUSTIN",
        "state": "TX",
        "postalCode": "78704-3030"
      },
      {
        "line": [
          "2247 S DELAWARE PL"
        ],
        "city": "TULSA",
        "state": "OK",
        "postalCode": "74114-3110"
      },
      {
        "line": [
          "4314 IRVIN SIMMONS DR"
        ],
        "city": "DALLAS",
        "state": "TX",
        "postalCode": "75229-4145"
      },
      {
        "line": [
          "6678 MONTERRA TRL"
        ],
        "city": "SAN DIEGO",
        "state": "CA",
        "postalCode": "92130-1356"
      },
      {
        "line": [
          "2 JAKE DR"
        ],
        "city": "Tinton Falls",
        "state": "NJ",
        "postalCode": "07712-7534"
      },
      {
        "line": [
          "609 MILOKAI ST"
        ],
        "city": "KAILUA",
        "state": "HI",
        "postalCode": "96734-1624"
      },
      {
        "line": [
          "2 JAKE DR"
        ],
        "city": " Tinton Falls",
        "state": "NJ",
        "postalCode": "07712-7534"
      }
    ],
    "extension": [
      {
        "url": "https://fhir.athena.io/StructureDefinition/ah-practice",
        "valueReference": {
          "reference": "Organization/a-1.Practice-4696"
        }
      },
      {
        "url": "https://fhir.athena.io/StructureDefinition/ah-brand",
        "valueReference": {
          "reference": "Organization/a-4696.Brand-25"
        }
      }
    ]
  },
  "fullUrl": "urn:uuid:1df9b857-7b04-5f4d-90ca-fe7ea6fe6ac8"
}