{
  "resource": {
    "resourceType": "Organization",
    "id": "315d3c81-3400-55e3-a6d5-c369f280142b",
    "name": "BETH ISRAEL",
    "endpoint": [
      {
        "reference": "Endpoint/27a4e967-47aa-5a9c-a572-b8297ee268a2"
      },
      {
        "reference": "Endpoint/a9a4f11c-51bc-5996-9429-94a8f302b040"
      }
    ],
    "identifier": [
      {
        "system": "http://hl7.org/fhir/sid/us-npi",
        "value": "1942543053"
      }
    ],
    "address": [
      {
        "line": [
          "506 Fort Washington Avenue",
          "Apt 1F"
        ],
        "city": "NEW YORK",
        "state": "NY",
        "postalCode": "10033-2049"
      },
      {
        "line": [
          "501 Route 208"
        ],
        "city": "MONROE",
        "state": "NY",
        "postalCode": "10950-1650"
      },
      {
        "line": [
          "232 Sherman Avenue"
        ],
        "city": "NEW YORK",
        "state": "NY",
        "postalCode": "10034-2503"
      },
      {
        "line": [
          "103 Doctors Park"
        ],
        "city": "GALAX",
        "state": "VA",
        "postalCode": "24333-2277"
      },
      {
        "line": [
          "8718 Bay Parkway",
          "Floors 1 &2"
        ],
        "city": "BROOKLYN",
        "state": "NY",
        "postalCode": "11214-5119"
      },
      {
        "line": [
          "29 E 29TH ST"
        ],
        "city": "BAYONNE",
        "state": "NJ",
        "postalCode": "07002-4654"
      },
      {
        "line": [
          "150 55th Street"
        ],
        "city": "BROOKLYN",
        "state": "NY",
        "postalCode": "11220-2508"
      },
      {
        "line": [
          "55 PALMER AVE"
        ],
        "city": "BRONXVILLE",
        "state": "NY",
        "postalCode": "10708-3403"
      },
      {
        "line": [
          "707 East Main Street"
        ],
        "city": "MIDDLETOWN",
        "state": "NY",
        "postalCode": "10940-2650"
      },
      {
        "line": [
          "176 PALISADE AVE"
        ],
        "city": "JERSEY CITY",
        "state": "NJ",
        "postalCode": "07306-1121"
      },
      {
        "line": [
          "120 Wall Street",
          "Suite 0175"
        ],
        "city": "NEW YORK",
        "state": "NY",
        "postalCode": "10005-3904"
      },
      {
        "line": [
          "577 W 161ST ST"
        ],
        "city": "NEW YORK",
        "state": "NY",
        "postalCode": "10032-6146"
      },
      {
        "line": [
          "55 MEADOWLANDS PKWY"
        ],
        "city": "SECAUCUS",
        "state": "NJ",
        "postalCode": "07094-2977"
      },
      {
        "line": [
          "177 North Dean St",
          "Suite 203"
        ],
        "city": "ENGLEWOOD",
        "state": "NJ",
        "postalCode": "07631-2533"
      },
      {
        "line": [
          "8718 BAY PKWY",
          "fl 1-2"
        ],
        "city": "BROOKLYN",
        "state": "NY",
        "postalCode": "11214-5272"
      }
    ],
    "extension": [
      {
        "url": "https://fhir.athena.io/StructureDefinition/ah-practice",
        "valueReference": {
          "reference": "Organization/a-1.Practice-8181"
        }
      },
      {
        "url": "https://fhir.athena.io/StructureDefinition/ah-brand",
        "valueReference": {
          "reference": "Organization/a-8181.Brand-1"
        }
      }
    ]
  },
  "fullUrl": "urn:uuid:315d3c81-3400-55e3-a6d5-c369f280142b"
}