{
  "resource": {
    "resourceType": "Organization",
    "id": "418b995d-3422-5613-a8ff-9a38b9ee74b2",
    "name": "The Foot and Ankle Clinic of Albuquerque, P.C",
    "endpoint": [
      {
        "reference": "Endpoint/27a4e967-47aa-5a9c-a572-b8297ee268a2"
      },
      {
        "reference": "Endpoint/89f30b16-34a7-5dbd-acd5-9b22cba81292"
      }
    ],
    "identifier": [
      {
        "system": "http://hl7.org/fhir/sid/us-npi",
        "value": "1821613399"
      }
    ],
    "address": [
      {
        "line": [
          "601 DR MARTIN LUTHER KIN JR AVE NE"
        ],
        "city": "ALBUQUERQUE",
        "state": "NM",
        "postalCode": "87102-3619"
      },
      {
        "line": [
          "4705 MONTGOMERY BLVD NE"
        ],
        "city": "ALBUQUERQUE",
        "state": "NM",
        "postalCode": "87109-1226"
      },
      {
        "line": [
          "505 ELM ST NE"
        ],
        "city": "ALBUQUERQUE",
        "state": "NM",
        "postalCode": "87102-2500"
      },
      {
        "line": [
          "717 Enchino Pl NE Ste 3"
        ],
        "city": "ALBUQUERQUE",
        "state": "NM",
        "postalCode": "87102-2623"
      },
      {
        "line": [
          "717 ENCINO PL NE STE 3"
        ],
        "city": "ALBUQUERQUE",
        "state": "NM",
        "postalCode": "87102-2623"
      },
      {
        "line": [
          "2400 UNSER BLVD SE"
        ],
        "city": "RIO RANCHO",
        "state": "NM",
        "postalCode": "87124-4740"
      },
      {
        "line": [
          "504 ELM ST NE"
        ],
        "city": "ALBUQUERQUE",
        "state": "NM",
        "postalCode": "87102-2512"
      },
      {
        "line": [
          "5400 GIBSON BLVD SE STE 3"
        ],
        "city": "ALBUQUERQUE",
        "state": "NM",
        "postalCode": "87108-5181"
      },
      {
        "line": [
          "1100 CENTRAL AVE SE"
        ],
        "city": "ALBUQUERQUE",
        "state": "NM",
        "postalCode": "87106-4934"
      },
      {
        "line": [
          "10501 GOLF COURSE RD NW"
        ],
        "city": "ALBUQUERQUE",
        "state": "NM",
        "postalCode": "87114-5000"
      }
    ],
    "extension": [
      {
        "url": "https://fhir.athena.io/StructureDefinition/ah-practice",
        "valueReference": {
          "reference": "Organization/a-1.Practice-21999"
        }
      },
      {
        "url": "https://fhir.athena.io/StructureDefinition/ah-brand",
        "valueReference": {
          "reference": "Organization/a-21999.Brand-1"
        }
      }
    ]
  },
  "fullUrl": "urn:uuid:418b995d-3422-5613-a8ff-9a38b9ee74b2"
}