{
  "resource": {
    "resourceType": "Organization",
    "id": "423d0544-e103-5112-97c7-4d6e2de9d39b",
    "name": "MEDEXPRESS, INC - DELAWARE",
    "endpoint": [
      {
        "reference": "Endpoint/27a4e967-47aa-5a9c-a572-b8297ee268a2"
      },
      {
        "reference": "Endpoint/871970f4-d623-50ad-a19e-099719b90ca8"
      }
    ],
    "identifier": [
      {
        "system": "http://hl7.org/fhir/sid/us-npi",
        "value": "1255692182"
      }
    ],
    "address": [
      {
        "line": [
          "2722 Concord Pike"
        ],
        "city": "WILMINGTON",
        "state": "DE",
        "postalCode": "19803-5007"
      },
      {
        "line": [
          "15 South DuPont Highway"
        ],
        "city": "DOVER",
        "state": "DE",
        "postalCode": "19901-7430"
      },
      {
        "line": [
          "129 N Dupont Highway"
        ],
        "city": "NEW CASTLE",
        "state": "DE",
        "postalCode": "19720-3135"
      },
      {
        "line": [
          "3926 Kirkwood Highway"
        ],
        "city": "WILMINGTON",
        "state": "DE",
        "postalCode": "19808-5110"
      },
      {
        "line": [
          "500 Stanton Christiana Rd 1/CN"
        ],
        "city": "NEWARK",
        "state": "DE",
        "postalCode": "19713-2105"
      },
      {
        "line": [
          "1C Chestnut Hill Plaza"
        ],
        "city": "NEWARK",
        "state": "DE",
        "postalCode": "19713-2701"
      },
      {
        "line": [
          "880 Powder Mill Rd., Floor 1"
        ],
        "city": "WILMINGTON",
        "state": "DE",
        "postalCode": "19803-2966"
      },
      {
        "line": [
          "301 N. Walnut St., 1st Floor"
        ],
        "city": "WILMINGTON",
        "state": "DE",
        "postalCode": "19801-3971"
      }
    ],
    "extension": [
      {
        "url": "https://fhir.athena.io/StructureDefinition/ah-practice",
        "valueReference": {
          "reference": "Organization/a-1.Practice-3908"
        }
      },
      {
        "url": "https://fhir.athena.io/StructureDefinition/ah-brand",
        "valueReference": {
          "reference": "Organization/a-3908.Brand-1"
        }
      }
    ]
  },
  "fullUrl": "urn:uuid:423d0544-e103-5112-97c7-4d6e2de9d39b"
}