{
  "resource": {
    "resourceType": "Organization",
    "id": "77ca3134-dc27-5b29-af77-ed543f147c8b",
    "name": "CHARLOTTESVILLE SURGERY CENTER",
    "endpoint": [
      {
        "reference": "Endpoint/27a4e967-47aa-5a9c-a572-b8297ee268a2"
      },
      {
        "reference": "Endpoint/736a4ca6-1e3e-5db4-806a-d8ac214ea629"
      }
    ],
    "identifier": [
      {
        "system": "http://hl7.org/fhir/sid/us-npi",
        "value": "1780313783"
      },
      {
        "system": "http://hl7.org/fhir/sid/us-npi",
        "value": "1407433550"
      },
      {
        "system": "http://hl7.org/fhir/sid/us-npi",
        "value": "1881287845"
      },
      {
        "system": "http://hl7.org/fhir/sid/us-npi",
        "value": "1689241036"
      },
      {
        "system": "http://hl7.org/fhir/sid/us-npi",
        "value": "1326692005"
      },
      {
        "system": "http://hl7.org/fhir/sid/us-npi",
        "value": "1346845120"
      },
      {
        "system": "http://hl7.org/fhir/sid/us-npi",
        "value": "1750986535"
      },
      {
        "system": "http://hl7.org/fhir/sid/us-npi",
        "value": "1477158251"
      }
    ],
    "address": [
      {
        "line": [
          "3705 NW 63RD ST STE 201"
        ],
        "city": "OKLAHOMA CITY",
        "state": "OK",
        "postalCode": "73116-1937"
      },
      {
        "line": [
          "1833 S MORGAN RD"
        ],
        "city": "OKLAHOMA CITY",
        "state": "OK",
        "postalCode": "73128-7004"
      },
      {
        "line": [
          "100 SE 59th st"
        ],
        "city": "OKLAHOMA CITY",
        "state": "OK",
        "postalCode": "73129-3616"
      },
      {
        "line": [
          "3901 W 15TH ST"
        ],
        "city": "PLANO",
        "state": "TX",
        "postalCode": "75075-7738"
      },
      {
        "line": [
          "3130 SW 89TH STREET",
          "Suite 200"
        ],
        "city": "OKLAHOMA CITY",
        "state": "OK",
        "postalCode": "73159-7900"
      },
      {
        "line": [
          "610 N COIT RD"
        ],
        "city": "RICHARDSON",
        "state": "TX",
        "postalCode": "75080-5474"
      },
      {
        "line": [
          "4860 E BASELINE RD",
          "SUITE 101"
        ],
        "city": "MESA",
        "state": "AZ",
        "postalCode": "85206-4669"
      },
      {
        "line": [
          "13100 N WESTERN AVE STE 303"
        ],
        "city": "OKLAHOMA CITY",
        "state": "OK",
        "postalCode": "73114-1432"
      },
      {
        "line": [
          "3130 SW 89TH STREET",
          "SUITE 200"
        ],
        "city": "OKLAHOMA CITY",
        "state": "OK",
        "postalCode": "73159-7900"
      },
      {
        "line": [
          "610 N COIT RD STE 2100"
        ],
        "city": "RICHARDSON",
        "state": "TX",
        "postalCode": "75080-5462"
      },
      {
        "line": [
          "5601 WARREN PKWY"
        ],
        "city": "FRISCO",
        "state": "TX",
        "postalCode": "75034-4069"
      },
      {
        "line": [
          "3525 N CENTRAL AVE"
        ],
        "city": "PHOENIX",
        "state": "AZ",
        "postalCode": "85012-2101"
      },
      {
        "line": [
          "4860 E BASELINE RD",
          "SUITE 101"
        ],
        "city": "MESA",
        "state": "AZ",
        "postalCode": "85206-4699"
      },
      {
        "line": [
          "SONOSPINE OKLAHOMA LLC",
          "100 SE 59th St"
        ],
        "city": "OKLAHOMA CITY",
        "state": "OK",
        "postalCode": "73129-3616"
      },
      {
        "line": [
          "4409 N KICKAPOO AVE STE 129"
        ],
        "city": "SHAWNEE",
        "state": "OK",
        "postalCode": "74804-1225"
      },
      {
        "line": [
          "11990 N CENTRAL EXPY"
        ],
        "city": "DALLAS",
        "state": "TX",
        "postalCode": "75243-3714"
      },
      {
        "line": [
          "3329 E BELL RD"
        ],
        "city": "PHOENIX",
        "state": "AZ",
        "postalCode": "85032-2756"
      },
      {
        "line": [
          "4409 N KICKAPOO AVE"
        ],
        "city": "SHAWNEE",
        "state": "OK",
        "postalCode": "74804-1206"
      },
      {
        "line": [
          "3900 E Camelback Rd",
          "Suite 195"
        ],
        "city": "PHOENIX",
        "state": "AZ",
        "postalCode": "85018-2657"
      },
      {
        "line": [
          "2301 MARSH LN"
        ],
        "city": "PLANO",
        "state": "TX",
        "postalCode": "75093-8497"
      },
      {
        "line": [
          "1750 TYSONS BLVD"
        ],
        "city": "MC LEAN",
        "state": "VA",
        "postalCode": "22102-4227"
      },
      {
        "line": [
          "100 SE 59TH ST",
          "SUITE 1050"
        ],
        "city": "OKLAHOMA CITY",
        "state": "OK",
        "postalCode": "73129-3616"
      },
      {
        "line": [
          "1917 ASHLAND ST"
        ],
        "city": "HOUSTON",
        "state": "TX",
        "postalCode": "77008-3907"
      },
      {
        "line": [
          "100 NE 85TH ST"
        ],
        "city": "OKLAHOMA CITY",
        "state": "OK",
        "postalCode": "73114-3916"
      },
      {
        "line": [
          "17051 Dallas Parkway",
          "Suite 400"
        ],
        "city": "ADDISON",
        "state": "TX",
        "postalCode": "75001-7101"
      },
      {
        "line": [
          "3130 SW 89TH ST",
          "Suite 200"
        ],
        "city": "OKLAHOMA CITY",
        "state": "OK",
        "postalCode": "73159-7908"
      },
      {
        "line": [
          "4860 E BASELINE RD STE 101"
        ],
        "city": "MESA",
        "state": "AZ",
        "postalCode": "85206-4670"
      },
      {
        "line": [
          "3130 SW 89TH ST STE 200"
        ],
        "city": "OKLAHOMA CITY",
        "state": "OK",
        "postalCode": "73159-7909"
      },
      {
        "line": [
          "8731 KATY FWY STE 400"
        ],
        "city": "HOUSTON",
        "state": "TX",
        "postalCode": "77024-1735"
      },
      {
        "line": [
          "100 SE 59TH ST STE 195"
        ],
        "city": "OKLAHOMA CITY",
        "state": "OK",
        "postalCode": "73129-3616"
      },
      {
        "line": [
          "1351 N President George Bush Hwy"
        ],
        "city": "RICHARDSON",
        "state": "TX",
        "postalCode": "75080-1133"
      },
      {
        "line": [
          "8100 S WALKER AVE"
        ],
        "city": "OKLAHOMA CITY",
        "state": "OK",
        "postalCode": "73139-9404"
      },
      {
        "line": [
          "1351 N President George Bush Hwy",
          "Suite 400"
        ],
        "city": "RICHARDSON",
        "state": "TX",
        "postalCode": "75001-7101"
      },
      {
        "line": [
          "3130 SW 89th Street",
          "Suite 200"
        ],
        "city": "OKLAHOMA CITY",
        "state": "OK",
        "postalCode": "73159-7900"
      },
      {
        "line": [
          "17101 DALLAS PKWY"
        ],
        "city": "ADDISON",
        "state": "TX",
        "postalCode": "75001-7103"
      },
      {
        "line": [
          "1400 S DOBSON RD"
        ],
        "city": "MESA",
        "state": "AZ",
        "postalCode": "85202-4707"
      },
      {
        "line": [
          "3329 E BELL RD",
          "A2 A5"
        ],
        "city": "PHOENIX",
        "state": "AZ",
        "postalCode": "85032-2756"
      },
      {
        "line": [
          "1000 N LEE AVE"
        ],
        "city": "OKLAHOMA CITY",
        "state": "OK",
        "postalCode": "73102-1036"
      },
      {
        "line": [
          "4860 BASELINE ROAD",
          "SUITE 101"
        ],
        "city": "MESA",
        "state": "AZ",
        "postalCode": "85206-4670"
      },
      {
        "line": [
          "1750 TYSONS BLVD",
          "SUITE 110"
        ],
        "city": "MC LEAN",
        "state": "VA",
        "postalCode": "22102-4208"
      }
    ],
    "extension": [
      {
        "url": "https://fhir.athena.io/StructureDefinition/ah-practice",
        "valueReference": {
          "reference": "Organization/a-1.Practice-14205"
        }
      },
      {
        "url": "https://fhir.athena.io/StructureDefinition/ah-brand",
        "valueReference": {
          "reference": "Organization/a-14205.Brand-1"
        }
      }
    ]
  },
  "fullUrl": "urn:uuid:77ca3134-dc27-5b29-af77-ed543f147c8b"
}