{
  "resource": {
    "resourceType": "Organization",
    "id": "78b05c4d-0b2a-5a47-bce1-1ee1cc6f1c33",
    "name": "Dr. Paband's Office",
    "endpoint": [
      {
        "reference": "Endpoint/27a4e967-47aa-5a9c-a572-b8297ee268a2"
      },
      {
        "reference": "Endpoint/7945af19-3977-5a3e-aad0-f4e4e8b2b9ad"
      }
    ],
    "identifier": [
      {
        "system": "http://hl7.org/fhir/sid/us-npi",
        "value": "1801287008"
      }
    ],
    "address": [
      {
        "line": [
          "3780 MASSACHUSETTS AVE"
        ],
        "city": "LA MESA",
        "state": "CA",
        "postalCode": "91941-7638"
      },
      {
        "line": [
          "5555 GROSSMONT CENTER DR"
        ],
        "city": "LA MESA",
        "state": "CA",
        "postalCode": "91942-3077"
      },
      {
        "line": [
          "5555 GROSSMONT CENTER DR"
        ],
        "city": "LA MESA",
        "state": "CA",
        "postalCode": "91942-3019"
      },
      {
        "line": [
          "5111 Garfield street, Suite B"
        ],
        "city": "LA MESA",
        "state": "CA",
        "postalCode": "91941-5148"
      },
      {
        "line": [
          "622 S ANZA ST"
        ],
        "city": "EL CAJON",
        "state": "CA",
        "postalCode": "92020-6602"
      },
      {
        "line": [
          "151 CLAYDELLE AVE"
        ],
        "city": "EL CAJON",
        "state": "CA",
        "postalCode": "92020-4505"
      },
      {
        "line": [
          "4075 54TH ST"
        ],
        "city": "SAN DIEGO",
        "state": "CA",
        "postalCode": "92105-2301"
      },
      {
        "line": [
          "1391 E MADISON AVE"
        ],
        "city": "EL CAJON",
        "state": "CA",
        "postalCode": "92021-8568"
      },
      {
        "line": [
          "624 E ELDER ST"
        ],
        "city": "FALLBROOK",
        "state": "CA",
        "postalCode": "92028-3004"
      },
      {
        "line": [
          "700 E NAPLES CT"
        ],
        "city": "CHULA VISTA",
        "state": "CA",
        "postalCode": "91911-6821"
      },
      {
        "line": [
          "635 S MAGNOLIA AVE"
        ],
        "city": "EL CAJON",
        "state": "CA",
        "postalCode": "92020-6012"
      },
      {
        "line": [
          "9009 CAMPO ROAD"
        ],
        "city": "SPRING VALLEY",
        "state": "CA",
        "postalCode": "91977-1112"
      },
      {
        "line": [
          "325 KEMPTON ST"
        ],
        "city": "SPRING VALLEY",
        "state": "CA",
        "postalCode": "91977-5810"
      },
      {
        "line": [
          "8625 LAMAR STREET"
        ],
        "city": "SPRING VALLEY",
        "state": "CA",
        "postalCode": "91977-2518"
      },
      {
        "line": [
          " 325 KEMPTON ST"
        ],
        "city": "SPRING VALLEY",
        "state": "CA",
        "postalCode": "91977-5810"
      },
      {
        "line": [
          "8851 CENTER DR STE 400"
        ],
        "city": "LA MESA",
        "state": "CA",
        "postalCode": "91942-3051"
      },
      {
        "line": [
          "654 S ANZA STREET"
        ],
        "city": "EL CAJON",
        "state": "CA",
        "postalCode": "92020-6602"
      },
      {
        "line": [
          "1580 BROADWAY"
        ],
        "city": "EL CAJON",
        "state": "CA",
        "postalCode": "92021-5124"
      },
      {
        "line": [
          "5480 MARENGO AVE"
        ],
        "city": "LA MESA",
        "state": "CA",
        "postalCode": "91942-2408"
      },
      {
        "line": [
          "7800 PARKWAY DRIVE"
        ],
        "city": "LA MESA",
        "state": "CA",
        "postalCode": "91942-2001"
      },
      {
        "line": [
          "8778 CUYAMACA ST"
        ],
        "city": "SANTEE",
        "state": "CA",
        "postalCode": "92071-4255"
      },
      {
        "line": [
          "5696 LAKE MURRAY BOULEVARD"
        ],
        "city": "LA MESA",
        "state": "CA",
        "postalCode": "91942-1929"
      },
      {
        "line": [
          "1201 S ORANGE AVE"
        ],
        "city": "EL CAJON",
        "state": "CA",
        "postalCode": "92020-7521"
      },
      {
        "line": [
          "510 E WASHINGTON AVE"
        ],
        "city": "EL CAJON",
        "state": "CA",
        "postalCode": "92020-5324"
      },
      {
        "line": [
          "1340 E MADISON AVE, EL CAJON, CA 92021"
        ],
        "city": "EL CAJON",
        "state": "CA",
        "postalCode": "92021-8501"
      },
      {
        "line": [
          "6655 ALVARADO RD"
        ],
        "city": "SAN DIEGO",
        "state": "CA",
        "postalCode": "92120-5208"
      },
      {
        "line": [
          "8665 LA MESA BLVD"
        ],
        "city": "LA MESA",
        "state": "CA",
        "postalCode": "91942-9503"
      },
      {
        "line": [
          "8787 CENTER DRIVE"
        ],
        "city": "LA MESA",
        "state": "CA",
        "postalCode": "91942-3034"
      },
      {
        "line": [
          "902 EUCLID AVE"
        ],
        "city": "NATIONAL CITY",
        "state": "CA",
        "postalCode": "91950-3808"
      }
    ],
    "extension": [
      {
        "url": "https://fhir.athena.io/StructureDefinition/ah-practice",
        "valueReference": {
          "reference": "Organization/a-1.Practice-19206"
        }
      },
      {
        "url": "https://fhir.athena.io/StructureDefinition/ah-brand",
        "valueReference": {
          "reference": "Organization/a-19206.Brand-1"
        }
      }
    ]
  },
  "fullUrl": "urn:uuid:78b05c4d-0b2a-5a47-bce1-1ee1cc6f1c33"
}