{
  "resource": {
    "resourceType": "Organization",
    "id": "38aba671-e7db-5dc2-b2ff-d12a48e7ba27",
    "name": "Central Billing Office",
    "endpoint": [
      {
        "reference": "Endpoint/27a4e967-47aa-5a9c-a572-b8297ee268a2"
      },
      {
        "reference": "Endpoint/c3437346-121f-586e-8f33-c2a8ade80b5f"
      }
    ],
    "identifier": [
      {
        "system": "http://hl7.org/fhir/sid/us-npi",
        "value": "1336167196"
      },
      {
        "system": "http://hl7.org/fhir/sid/us-npi",
        "value": "1942235825"
      },
      {
        "system": "http://hl7.org/fhir/sid/us-npi",
        "value": "1447285390"
      },
      {
        "system": "http://hl7.org/fhir/sid/us-npi",
        "value": "1457365132"
      },
      {
        "system": "http://hl7.org/fhir/sid/us-npi",
        "value": "1992454243"
      },
      {
        "system": "http://hl7.org/fhir/sid/us-npi",
        "value": "1568065233"
      }
    ],
    "address": [
      {
        "line": [
          "1400 6th Ave S"
        ],
        "city": "BIRMINGHAM",
        "state": "AL",
        "postalCode": "35233-1502"
      },
      {
        "line": [
          "601 West Blvd"
        ],
        "city": "BIRMINGHAM",
        "state": "AL",
        "postalCode": "35206-1300"
      },
      {
        "line": [
          "1400 Sixth Ave S"
        ],
        "city": "BIRMINGHAM",
        "state": "AL",
        "postalCode": "35233-1502"
      },
      {
        "line": [
          "631 Bessemer Superhwy"
        ],
        "city": "BIRMINGHAM",
        "state": "AL",
        "postalCode": "35228-3108"
      },
      {
        "line": [
          "1400 6th Avenue S"
        ],
        "city": "BIRMINGHAM",
        "state": "AL",
        "postalCode": "35233-1502"
      },
      {
        "line": [
          "590 Morris Majestic Road"
        ],
        "city": "MORRIS",
        "state": "AL",
        "postalCode": "35116-1245"
      },
      {
        "line": [
          "1400 Sixth Ave South"
        ],
        "city": "BIRMINGHAM",
        "state": "AL",
        "postalCode": "35233-1502"
      },
      {
        "line": [
          "1400 6th Avenue South"
        ],
        "city": "BIRMINGHAM",
        "state": "AL",
        "postalCode": "35233-1502"
      },
      {
        "line": [
          "1400 6TH AVE S",
          "Mobile Unit"
        ],
        "city": "BIRMINGHAM",
        "state": "AL",
        "postalCode": "35233-1502"
      },
      {
        "line": [
          "1400 6TH AVE S"
        ],
        "city": "BIRMINGHAM",
        "state": "AL",
        "postalCode": "35233-1502"
      },
      {
        "line": [
          "631 BESSEMER SUPER HWY"
        ],
        "city": "BIRMINGHAM",
        "state": "AL",
        "postalCode": "35228-3013"
      }
    ],
    "extension": [
      {
        "url": "https://fhir.athena.io/StructureDefinition/ah-practice",
        "valueReference": {
          "reference": "Organization/a-1.Practice-17358"
        }
      },
      {
        "url": "https://fhir.athena.io/StructureDefinition/ah-brand",
        "valueReference": {
          "reference": "Organization/a-17358.Brand-1"
        }
      }
    ]
  },
  "fullUrl": "urn:uuid:38aba671-e7db-5dc2-b2ff-d12a48e7ba27"
}