{
  "resource": {
    "resourceType": "Organization",
    "id": "b2b6835a-633e-5c78-a70d-24869d0d66e2",
    "name": "Alpha Neurology",
    "endpoint": [
      {
        "reference": "Endpoint/27a4e967-47aa-5a9c-a572-b8297ee268a2"
      },
      {
        "reference": "Endpoint/19ae3b40-00cd-562b-b622-189e35d9ee91"
      }
    ],
    "identifier": [
      {
        "system": "http://hl7.org/fhir/sid/us-npi",
        "value": "1881644250"
      }
    ],
    "address": [
      {
        "line": [
          "91 TOMPKINS AVE"
        ],
        "city": "STATEN ISLAND",
        "state": "NY",
        "postalCode": "10304-2601"
      },
      {
        "line": [
          "475 SEAVIEW AVE"
        ],
        "city": "STATEN ISLAND",
        "state": "NY",
        "postalCode": "10305-3436"
      },
      {
        "line": [
          "25 FANNING ST"
        ],
        "city": "STATEN ISLAND",
        "state": "NY",
        "postalCode": "10314-5307"
      },
      {
        "line": [
          "27 NEW DORP LN"
        ],
        "city": "STATEN ISLAND",
        "state": "NY",
        "postalCode": "10306-2349"
      },
      {
        "line": [
          "135 VANDERBILT AVE"
        ],
        "city": "STATEN ISLAND",
        "state": "NY",
        "postalCode": "10304-2604"
      },
      {
        "line": [
          "275 CASTLETON AVE"
        ],
        "city": "STATEN ISLAND",
        "state": "NY",
        "postalCode": "10301-2709"
      },
      {
        "line": [
          "31 NEW DORP LN"
        ],
        "city": "STATEN ISLAND",
        "state": "NY",
        "postalCode": "10306-2349"
      },
      {
        "line": [
          "100 CASTLETON AVE"
        ],
        "city": "STATEN ISLAND",
        "state": "NY",
        "postalCode": "10301-3004"
      },
      {
        "line": [
          "88 OLD TOWN RD"
        ],
        "city": "STATEN ISLAND",
        "state": "NY",
        "postalCode": "10304-4212"
      },
      {
        "line": [
          "191 BRADLEY AVE"
        ],
        "city": "STATEN ISLAND",
        "state": "NY",
        "postalCode": "10314-5166"
      },
      {
        "line": [
          "355 BARD AVE"
        ],
        "city": "STATEN ISLAND",
        "state": "NY",
        "postalCode": "10310-1664"
      },
      {
        "line": [
          "375 SEGUINE AVE"
        ],
        "city": "STATEN ISLAND",
        "state": "NY",
        "postalCode": "10309-3932"
      },
      {
        "line": [
          "140 MEISNER AVE"
        ],
        "city": "STATEN ISLAND",
        "state": "NY",
        "postalCode": "10306-1236"
      }
    ],
    "extension": [
      {
        "url": "https://fhir.athena.io/StructureDefinition/ah-practice",
        "valueReference": {
          "reference": "Organization/a-1.Practice-30615"
        }
      },
      {
        "url": "https://fhir.athena.io/StructureDefinition/ah-brand",
        "valueReference": {
          "reference": "Organization/a-30615.Brand-1"
        }
      }
    ]
  },
  "fullUrl": "urn:uuid:b2b6835a-633e-5c78-a70d-24869d0d66e2"
}