{
  "resource": {
    "resourceType": "Organization",
    "id": "cdae8bb9-0f97-5cd7-a52b-f5ac8adc2d25",
    "name": "Diana Health",
    "endpoint": [
      {
        "reference": "Endpoint/27a4e967-47aa-5a9c-a572-b8297ee268a2"
      },
      {
        "reference": "Endpoint/b91fb99e-7fad-5229-af01-1cb0a4c5c6e6"
      }
    ],
    "identifier": [
      {
        "system": "http://hl7.org/fhir/sid/us-npi",
        "value": "1457020844"
      }
    ],
    "address": [
      {
        "line": [
          "1101 SPRING CREEK RD"
        ],
        "city": "CHATTANOOGA",
        "state": "TN",
        "postalCode": "37412-3913"
      },
      {
        "line": [
          "300 STONECREST BLVD"
        ],
        "city": "SMYRNA",
        "state": "TN",
        "postalCode": "37167-5688"
      },
      {
        "line": [
          "300 STONECREST BLVD STE 310"
        ],
        "city": "SMYRNA",
        "state": "TN",
        "postalCode": "37167-6801"
      },
      {
        "line": [
          "410 42nd Avenue N, Suite 300"
        ],
        "city": "Nashville",
        "state": "TN",
        "postalCode": "37209-3656"
      },
      {
        "line": [
          "545 STONECREST PKWY"
        ],
        "city": "SMYRNA",
        "state": "TN",
        "postalCode": "37167-6804"
      },
      {
        "line": [
          "1511 GUNBARREL RD",
          "STE 115"
        ],
        "city": "CHATTANOOGA",
        "state": "TN",
        "postalCode": "37421-3897"
      },
      {
        "line": [
          "941 SPRING CREEK RD"
        ],
        "city": "CHATTANOOGA",
        "state": "TN",
        "postalCode": "37412-3909"
      },
      {
        "line": [
          "200 STONECREST BLVD"
        ],
        "city": "SMYRNA",
        "state": "TN",
        "postalCode": "37167-6810"
      },
      {
        "line": [
          "300 Stonecrest Blvd, Suite 360"
        ],
        "city": "SMYRNA",
        "state": "TN",
        "postalCode": "37167-6801"
      }
    ],
    "extension": [
      {
        "url": "https://fhir.athena.io/StructureDefinition/ah-practice",
        "valueReference": {
          "reference": "Organization/a-1.Practice-23211"
        }
      },
      {
        "url": "https://fhir.athena.io/StructureDefinition/ah-brand",
        "valueReference": {
          "reference": "Organization/a-23211.Brand-2"
        }
      }
    ]
  },
  "fullUrl": "urn:uuid:cdae8bb9-0f97-5cd7-a52b-f5ac8adc2d25"
}