{
  "resource": {
    "resourceType": "Organization",
    "id": "f7e90d95-ad5e-5e1c-92b2-e2e8f2be2a73",
    "name": "Ashland City - DME - HCO",
    "endpoint": [
      {
        "reference": "Endpoint/27a4e967-47aa-5a9c-a572-b8297ee268a2"
      },
      {
        "reference": "Endpoint/c38f0217-b185-5e2f-8222-a513d13f400e"
      }
    ],
    "identifier": [
      {
        "system": "http://hl7.org/fhir/sid/us-npi",
        "value": "1568914026"
      },
      {
        "system": "http://hl7.org/fhir/sid/us-npi",
        "value": "1225401946"
      },
      {
        "system": "http://hl7.org/fhir/sid/us-npi",
        "value": "1164461190"
      }
    ],
    "address": [
      {
        "line": [
          "700 West Oak St."
        ],
        "city": "KISSIMMEE",
        "state": "FL",
        "postalCode": "34741-4996"
      },
      {
        "line": [
          "1700 Medical Center Parkway"
        ],
        "city": "MURFREESBORO",
        "state": "TN",
        "postalCode": "37129-2245"
      },
      {
        "line": [
          "6262 Veterans Pkwy"
        ],
        "city": "COLUMBUS",
        "state": "GA",
        "postalCode": "31909-3540"
      },
      {
        "line": [
          "2200 W EAU GALLIE BLVD STE 100"
        ],
        "city": "MELBOURNE",
        "state": "FL",
        "postalCode": "32935-3166"
      },
      {
        "line": [
          "1000 Parc Hill Boulevard"
        ],
        "city": "ORANGE CITY",
        "state": "FL",
        "postalCode": "32763-8028"
      },
      {
        "line": [
          "4358 KINGS WAY"
        ],
        "city": "VALDOSTA",
        "state": "GA",
        "postalCode": "31602-6921"
      },
      {
        "line": [
          "6699 Gate Parkway"
        ],
        "city": "JACKSONVILLE",
        "state": "FL",
        "postalCode": "32256-8078"
      },
      {
        "line": [
          "350 HOSPITAL DR"
        ],
        "city": "MACON",
        "state": "GA",
        "postalCode": "31217-3838"
      },
      {
        "line": [
          "325 Cypress Parkway"
        ],
        "city": "KISSIMMEE",
        "state": "FL",
        "postalCode": "34759-3326"
      },
      {
        "line": [
          "1055 SAXON BLVD # 1"
        ],
        "city": "ORANGE CITY",
        "state": "FL",
        "postalCode": "32763-8468"
      },
      {
        "line": [
          "1055 SAXON BLVD #1"
        ],
        "city": "ORANGE CITY",
        "state": "FL",
        "postalCode": "32763-8468"
      },
      {
        "line": [
          "911 PLAZA AVE"
        ],
        "city": "EASTMAN",
        "state": "GA",
        "postalCode": "31023-6785"
      },
      {
        "line": [
          "2001 Kingsley Avenue"
        ],
        "city": "ORANGE PARK",
        "state": "FL",
        "postalCode": "32073-5148"
      },
      {
        "line": [
          "3901 S. 7th Street"
        ],
        "city": "TERRE HAUTE",
        "state": "IN",
        "postalCode": "47802-5709"
      },
      {
        "line": [
          "110 LONGWOOD AVE"
        ],
        "city": "ROCKLEDGE",
        "state": "FL",
        "postalCode": "32955-2828"
      },
      {
        "line": [
          "7955 SPYGLASS HILL RD"
        ],
        "city": "MELBOURNE",
        "state": "FL",
        "postalCode": "32940-8669"
      },
      {
        "line": [
          "8745 N. Wickham Road"
        ],
        "city": "MELBOURNE",
        "state": "FL",
        "postalCode": "32940-5997"
      },
      {
        "line": [
          "522 North Center St"
        ],
        "city": "THOMASTON",
        "state": "GA",
        "postalCode": "30286-3695"
      },
      {
        "line": [
          "4689 Hwy 17 Suite 11"
        ],
        "city": "FLEMING ISLAND",
        "state": "FL",
        "postalCode": "32003-4831"
      },
      {
        "line": [
          "710 CENTER STREET"
        ],
        "city": "COLUMBUS",
        "state": "GA",
        "postalCode": "31901-3706"
      },
      {
        "line": [
          "4660 RIVERSIDE PARK BLVD"
        ],
        "city": "MACON",
        "state": "GA",
        "postalCode": "31210-1395"
      },
      {
        "line": [
          "6535 NEMOURS PKWY"
        ],
        "city": "ORLANDO",
        "state": "FL",
        "postalCode": "32827-7884"
      },
      {
        "line": [
          "901 GRIFFIN AVE"
        ],
        "city": "EASTMAN",
        "state": "GA",
        "postalCode": "31023-6720"
      },
      {
        "line": [
          "124 S MEMORIAL DR"
        ],
        "city": "PRATTVILLE",
        "state": "AL",
        "postalCode": "36067-3619"
      },
      {
        "line": [
          "777 HEMLOCK ST"
        ],
        "city": "MACON",
        "state": "GA",
        "postalCode": "31201-2102"
      },
      {
        "line": [
          "1825 HIGHWAY 34 E STE 2100"
        ],
        "city": "NEWNAN",
        "state": "GA",
        "postalCode": "30265-6429"
      },
      {
        "line": [
          "2000 10th Avenue"
        ],
        "city": "COLUMBUS",
        "state": "GA",
        "postalCode": "31901-3700"
      },
      {
        "line": [
          "8300 Red Bug Lake Road"
        ],
        "city": "OVIEDO",
        "state": "FL",
        "postalCode": "32765-6801"
      },
      {
        "line": [
          "8240 DEVEREUX DR STE 100"
        ],
        "city": "MELBOURNE",
        "state": "FL",
        "postalCode": "32940-8200"
      },
      {
        "line": [
          "250 N WICKHAM RD"
        ],
        "city": "MELBOURNE",
        "state": "FL",
        "postalCode": "32935-8625"
      },
      {
        "line": [
          "301 MEMORIAL MEDICAL PKWY"
        ],
        "city": "DAYTONA BEACH",
        "state": "FL",
        "postalCode": "32117-5167"
      },
      {
        "line": [
          "4201 Belfort Rd"
        ],
        "city": "JACKSONVILLE",
        "state": "FL",
        "postalCode": "32216-1431"
      },
      {
        "line": [
          "1 Shircliff Way"
        ],
        "city": "JACKSONVILLE",
        "state": "FL",
        "postalCode": "32204-4748"
      },
      {
        "line": [
          "6775 Chopra Terrace"
        ],
        "city": "ORLANDO",
        "state": "FL",
        "postalCode": "32827-6700"
      },
      {
        "line": [
          "4901 VINELAND RD STE 150"
        ],
        "city": "ORLANDO",
        "state": "FL",
        "postalCode": "32811-7190"
      },
      {
        "line": [
          "4294 LOMAC ST"
        ],
        "city": "MONTGOMERY",
        "state": "AL",
        "postalCode": "36106-3604"
      },
      {
        "line": [
          "6775 Chopra Terrace",
          "STE 300"
        ],
        "city": "ORLANDO",
        "state": "FL",
        "postalCode": "32827-6700"
      },
      {
        "line": [
          "1670 St. Vincent's Way"
        ],
        "city": "MIDDLEBURG",
        "state": "FL",
        "postalCode": "32068-8447"
      },
      {
        "line": [
          "6775 CHOPRA TERRACE"
        ],
        "city": "ORLANDO",
        "state": "FL",
        "postalCode": "32827-5811"
      },
      {
        "line": [
          "1893 KINGSLEY AVE",
          "Suite C"
        ],
        "city": "ORANGE PARK",
        "state": "FL",
        "postalCode": "32073-4421"
      },
      {
        "line": [
          "277 HUNTRESS ST STE 202"
        ],
        "city": "WETUMPKA",
        "state": "AL",
        "postalCode": "36092-3342"
      },
      {
        "line": [
          "2050 Professional Center Drive"
        ],
        "city": "ORANGE PARK",
        "state": "FL",
        "postalCode": "32073-4461"
      },
      {
        "line": [
          "3627 University Blvd",
          "Suite 435"
        ],
        "city": "JACKSONVILLE",
        "state": "FL",
        "postalCode": "32216-4358"
      },
      {
        "line": [
          "3267 University Blvd Suite 500"
        ],
        "city": "JACKSONVILLE",
        "state": "FL",
        "postalCode": "32216-7401"
      },
      {
        "line": [
          "2000 10th Avenue"
        ],
        "city": "COLUMBUS",
        "state": "GA",
        "postalCode": "31901-3706"
      },
      {
        "line": [],
        "city": "COLUMBUS",
        "state": "GA",
        "postalCode": "31909-3540"
      },
      {
        "line": [
          "8045 SPYGLASS HILL RD",
          "STE 104"
        ],
        "city": "MELBOURNE",
        "state": "FL",
        "postalCode": "32940-8567"
      },
      {
        "line": [
          "2450 MAITLAND CENTER PKWY STE 100"
        ],
        "city": "MAITLAND",
        "state": "FL",
        "postalCode": "32751-4140"
      },
      {
        "line": [
          "2105 E SOUTH BLVD"
        ],
        "city": "MONTGOMERY",
        "state": "AL",
        "postalCode": "36116-2409"
      },
      {
        "line": [
          "2906 17TH ST"
        ],
        "city": "SAINT CLOUD",
        "state": "FL",
        "postalCode": "34769-6006"
      },
      {
        "line": [
          "1401 W SEMINOLE BLVD"
        ],
        "city": "SANFORD",
        "state": "FL",
        "postalCode": "32771-6743"
      },
      {
        "line": [
          "2450 N ORANGE BLOSSOM TRL"
        ],
        "city": "KISSIMMEE",
        "state": "FL",
        "postalCode": "34744-2316"
      },
      {
        "line": [
          "710 Center Street"
        ],
        "city": "COLUMBUS",
        "state": "GA",
        "postalCode": "31901-3706"
      },
      {
        "line": [
          "4630 WOODMERE BLVD"
        ],
        "city": "MONTGOMERY",
        "state": "AL",
        "postalCode": "36106-2906"
      },
      {
        "line": [
          "1430 US HWY 82 W"
        ],
        "city": "TIFTON",
        "state": "GA",
        "postalCode": "31793-8010"
      },
      {
        "line": [
          "601 E ROLLINS ST STE 400"
        ],
        "city": "ORLANDO",
        "state": "FL",
        "postalCode": "32803-1248"
      },
      {
        "line": [
          "610 SPARTA RD"
        ],
        "city": "SANDERSVILLE",
        "state": "GA",
        "postalCode": "31082-1860"
      },
      {
        "line": [
          "3627 University Blvd. Suite 550"
        ],
        "city": "JACKSONVILLE",
        "state": "FL",
        "postalCode": "32216-7401"
      },
      {
        "line": [
          "2257 TAYLOR RD"
        ],
        "city": "MONTGOMERY",
        "state": "AL",
        "postalCode": "36117-3758"
      },
      {
        "line": [
          "309 North Mangoustine Ave",
          "Suite G"
        ],
        "city": "SANFORD",
        "state": "FL",
        "postalCode": "32771-1098"
      },
      {
        "line": [
          "341 Racetrack Road NW Suite B"
        ],
        "city": "FORT WALTON BEACH",
        "state": "FL",
        "postalCode": "32547-8290"
      },
      {
        "line": [
          "107 Calumet Center Road"
        ],
        "city": "LAGRANGE",
        "state": "GA",
        "postalCode": "30241-6705"
      },
      {
        "line": [
          "801 N ORANGE AVE STE 630"
        ],
        "city": "ORLANDO",
        "state": "FL",
        "postalCode": "32801-5202"
      },
      {
        "line": [
          "460 SAINT CHARLES CT"
        ],
        "city": "LAKE MARY",
        "state": "FL",
        "postalCode": "32746-2103"
      },
      {
        "line": [
          "3495 Hoffman Street"
        ],
        "city": "PENNEY FARMS",
        "state": "FL",
        "postalCode": "32079-0555"
      },
      {
        "line": [
          "25 Doctors Drive",
          "Medical Plaza 2"
        ],
        "city": "PANAMA CITY",
        "state": "FL",
        "postalCode": "32405-4520"
      },
      {
        "line": [
          "4689 Hwy 17"
        ],
        "city": "FLEMING ISLAND",
        "state": "FL",
        "postalCode": "32003-4831"
      },
      {
        "line": [
          "341 Racetrack Road NW",
          "Suite B"
        ],
        "city": "FORT WALTON BEACH",
        "state": "FL",
        "postalCode": "32547-6708"
      },
      {
        "line": [
          "927-A N SPRING GARDEN AVE STE 927-A"
        ],
        "city": "DELAND",
        "state": "FL",
        "postalCode": "32720-0900"
      },
      {
        "line": [
          "3625 University Blvd S"
        ],
        "city": "JACKSONVILLE",
        "state": "FL",
        "postalCode": "32216-4207"
      },
      {
        "line": [
          "6262 VETERANS PKWY"
        ],
        "city": "COLUMBUS",
        "state": "GA",
        "postalCode": "31909-3540"
      },
      {
        "line": [
          "621-B East First Street"
        ],
        "city": "VIDALIA",
        "state": "GA",
        "postalCode": "30474-7241"
      },
      {
        "line": [
          "400 CELEBRATION PL"
        ],
        "city": "KISSIMMEE",
        "state": "FL",
        "postalCode": "34747-4970"
      },
      {
        "line": [
          "341 RACETRACK RD NW",
          "STE B"
        ],
        "city": "FORT WALTON BEACH",
        "state": "FL",
        "postalCode": "32547-1788"
      },
      {
        "line": [
          "4689 Highway 17",
          "Suite 11"
        ],
        "city": "FLEMING ISLAND",
        "state": "FL",
        "postalCode": "32003-4831"
      },
      {
        "line": [
          "3627 University Blvd",
          "Suite 435"
        ],
        "city": "JACKSONVILLE",
        "state": "FL",
        "postalCode": "32216-4238"
      },
      {
        "line": [
          "929 N SPRING GARDEN AVE STE 927-A"
        ],
        "city": "DELAND",
        "state": "FL",
        "postalCode": "32720-0900"
      },
      {
        "line": [
          "2257 Taylor Rd"
        ],
        "city": "MONTGOMERY",
        "state": "AL",
        "postalCode": "36117-3758"
      },
      {
        "line": [
          "2202 State Ave.",
          "Suite 303"
        ],
        "city": "PANAMA CITY",
        "state": "FL",
        "postalCode": "32405-4590"
      },
      {
        "line": [
          "4340 Kings Way"
        ],
        "city": "VALDOSTA",
        "state": "GA",
        "postalCode": "31602-6921"
      },
      {
        "line": [
          "4650 WOODMERE BLVD"
        ],
        "city": "MONTGOMERY",
        "state": "AL",
        "postalCode": "36106-2906"
      },
      {
        "line": [
          "6900 TURKEY LAKE RD STE 2-5"
        ],
        "city": "ORLANDO",
        "state": "FL",
        "postalCode": "32819-4707"
      },
      {
        "line": [
          "309 North Mangoustine Avenue",
          "Suite G"
        ],
        "city": "SANFORD",
        "state": "FL",
        "postalCode": "32771-1098"
      },
      {
        "line": [
          "7251 UNIVERSITY BLVD",
          "STE 100"
        ],
        "city": "WINTER PARK",
        "state": "FL",
        "postalCode": "32792-8659"
      },
      {
        "line": [
          "111 Hwy 70 East",
          "Suite 103"
        ],
        "city": "DICKSON",
        "state": "TN",
        "postalCode": "37055-2080"
      },
      {
        "line": [
          "790 Concourse Pkwy S.",
          "Ste. 100"
        ],
        "city": "MAITLAND",
        "state": "FL",
        "postalCode": "32751-6114"
      },
      {
        "line": [
          "1350 HICKORY ST"
        ],
        "city": "MELBOURNE",
        "state": "FL",
        "postalCode": "32901-3224"
      },
      {
        "line": [
          "123 SESAME STREET"
        ],
        "city": "COLUMBUS",
        "state": "GA",
        "postalCode": "31909-5192"
      }
    ],
    "extension": [
      {
        "url": "https://fhir.athena.io/StructureDefinition/ah-practice",
        "valueReference": {
          "reference": "Organization/a-1.Practice-321"
        }
      },
      {
        "url": "https://fhir.athena.io/StructureDefinition/ah-brand",
        "valueReference": {
          "reference": "Organization/a-321.Brand-1"
        }
      }
    ]
  },
  "fullUrl": "urn:uuid:f7e90d95-ad5e-5e1c-92b2-e2e8f2be2a73"
}