{
  "resource": {
    "resourceType": "Organization",
    "id": "b96070da-7d36-5250-8ed4-a42b7644c65a",
    "name": "NEUROSPINE PLUS",
    "endpoint": [
      {
        "reference": "Endpoint/27a4e967-47aa-5a9c-a572-b8297ee268a2"
      },
      {
        "reference": "Endpoint/436f0f64-8357-590c-843d-ffce02b756d1"
      }
    ],
    "identifier": [
      {
        "system": "http://hl7.org/fhir/sid/us-npi",
        "value": "1295449775"
      }
    ],
    "address": [
      {
        "line": [
          "7408 LAKE WORTH RD STE 600"
        ],
        "city": "LAKE WORTH",
        "state": "FL",
        "postalCode": "33467-2502"
      },
      {
        "line": [
          "401 SW 42ND AVE"
        ],
        "city": "MIAMI",
        "state": "FL",
        "postalCode": "33134-1938"
      },
      {
        "line": [
          "800 E CYPRESS CREEK RD STE 203"
        ],
        "city": "FORT LAUDERDALE",
        "state": "FL",
        "postalCode": "33334-3522"
      },
      {
        "line": [
          "2720 10TH AVE N"
        ],
        "city": "LAKE WORTH",
        "state": "FL",
        "postalCode": "33461-3100"
      },
      {
        "line": [
          "3475 SHERIDAN ST STE 104"
        ],
        "city": "HOLLYWOOD",
        "state": "FL",
        "postalCode": "33021-3640"
      },
      {
        "line": [
          "2601 S DOUGLAS RD STE 506"
        ],
        "city": "MIAMI",
        "state": "FL",
        "postalCode": "33133-2750"
      },
      {
        "line": [
          "11801 SW 90TH ST STE 202"
        ],
        "city": "MIAMI",
        "state": "FL",
        "postalCode": "33186-2182"
      },
      {
        "line": [
          "11030 RCA CENTER DR STE 3001"
        ],
        "city": "PALM BEACH GARDENS",
        "state": "FL",
        "postalCode": "33410-4276"
      }
    ],
    "extension": [
      {
        "url": "https://fhir.athena.io/StructureDefinition/ah-practice",
        "valueReference": {
          "reference": "Organization/a-1.Practice-28125"
        }
      },
      {
        "url": "https://fhir.athena.io/StructureDefinition/ah-brand",
        "valueReference": {
          "reference": "Organization/a-28125.Brand-1"
        }
      }
    ]
  },
  "fullUrl": "urn:uuid:b96070da-7d36-5250-8ed4-a42b7644c65a"
}