{
  "resource": {
    "resourceType": "Organization",
    "id": "a302dbfc-a9f7-5b8e-baab-d237b6575c72",
    "name": "ShorePoint Health Gulf Coast",
    "endpoint": [
      {
        "reference": "Endpoint/27a4e967-47aa-5a9c-a572-b8297ee268a2"
      },
      {
        "reference": "Endpoint/b7a63de0-7951-5371-a159-4e7168bddb31"
      }
    ],
    "identifier": [
      {
        "system": "http://hl7.org/fhir/sid/us-npi",
        "value": "1407806094"
      }
    ],
    "address": [
      {
        "line": [
          "8383 S TAMIAMI TRL STE 115"
        ],
        "city": "SARASOTA",
        "state": "FL",
        "postalCode": "34238-3046"
      },
      {
        "line": [
          "1720 E. Venice Ave, 1st Floor"
        ],
        "city": "VENICE",
        "state": "FL",
        "postalCode": "34292-3190"
      },
      {
        "line": [
          "900 Pine St, STE 222"
        ],
        "city": "ENGLEWOOD",
        "state": "FL",
        "postalCode": "34223-4458"
      },
      {
        "line": [
          "333 TAMIAMI TRL  STE 169,171"
        ],
        "city": "VENICE",
        "state": "FL",
        "postalCode": "34285-2426"
      },
      {
        "line": [
          "1720 E VENICE AVE"
        ],
        "city": "VENICE",
        "state": "FL",
        "postalCode": "34292-3190"
      },
      {
        "line": [
          "18659 Tamiami Trail Ste A"
        ],
        "city": "NORTH PORT",
        "state": "FL",
        "postalCode": "34287-7388"
      },
      {
        "line": [
          "8383 S TAMIAMI TRL STE 115"
        ],
        "city": "SARASOTA",
        "state": "FL",
        "postalCode": "34238-2901"
      },
      {
        "line": [
          "5511 SWIFT RD"
        ],
        "city": "SARASOTA",
        "state": "FL",
        "postalCode": "34231-6209"
      },
      {
        "line": [
          "18659 TAMIAMI TRL STE A"
        ],
        "city": "NORTH PORT",
        "state": "FL",
        "postalCode": "34287-2729"
      },
      {
        "line": [
          "1700 E VENICE AVE"
        ],
        "city": "VENICE",
        "state": "FL",
        "postalCode": "34285-3190"
      },
      {
        "line": [
          "901 VENETIA BAY BLVD STE 300"
        ],
        "city": "VENICE",
        "state": "FL",
        "postalCode": "34285-8039"
      },
      {
        "line": [
          "2600 Laurel Rd East"
        ],
        "city": "NORTH VENICE",
        "state": "FL",
        "postalCode": "34275-3226"
      },
      {
        "line": [
          "8340 Lakewood Ranch Blvd, STE 101"
        ],
        "city": "BRADENTON",
        "state": "FL",
        "postalCode": "34202-5183"
      },
      {
        "line": [
          "900 PINE ST STE 222"
        ],
        "city": "ENGLEWOOD",
        "state": "FL",
        "postalCode": "34223-4458"
      },
      {
        "line": [
          "8431 POINTE LOOP DR"
        ],
        "city": "VENICE",
        "state": "FL",
        "postalCode": "34293-2232"
      },
      {
        "line": [
          "6150 EDGELAKE DR"
        ],
        "city": "SARASOTA",
        "state": "FL",
        "postalCode": "34240-8803"
      },
      {
        "line": [
          "600 NOKOMIS AVE S STE 203"
        ],
        "city": "VENICE",
        "state": "FL",
        "postalCode": "34285-3209"
      },
      {
        "line": [
          "2821 Proctor Rd"
        ],
        "city": "SARASOTA",
        "state": "FL",
        "postalCode": "34231-6443"
      },
      {
        "line": [
          "3600 William Penn Way"
        ],
        "city": "VENICE",
        "state": "FL",
        "postalCode": "34293-5236"
      },
      {
        "line": [
          "333 TAMIAMI TRL STE 110"
        ],
        "city": "VENICE",
        "state": "FL",
        "postalCode": "34285-2425"
      },
      {
        "line": [
          "18659 Tamiami Trail, Ste A"
        ],
        "city": "NORTH PORT",
        "state": "FL",
        "postalCode": "34287-7388"
      },
      {
        "line": [],
        "city": "VENICE",
        "state": "FL",
        "postalCode": "34285-3206"
      },
      {
        "line": [
          "333 TAMIAMI TRL STE 101"
        ],
        "city": "VENICE",
        "state": "FL",
        "postalCode": "34285-2426"
      },
      {
        "line": [
          "8431 POINTE LOOP DR FL 2"
        ],
        "city": "VENICE",
        "state": "FL",
        "postalCode": "34293-2232"
      },
      {
        "line": [
          "5731 BEE RIDGE RD"
        ],
        "city": "SARASOTA",
        "state": "FL",
        "postalCode": "34233-5056"
      },
      {
        "line": [
          "4001 Cane Ridge Parkway"
        ],
        "city": "ANTIOCH",
        "state": "TN",
        "postalCode": "37013-2971"
      },
      {
        "line": [
          "8383 S. Tamiami Trail, Suite 116-117"
        ],
        "city": "SARASOTA",
        "state": "FL",
        "postalCode": "34238-3046"
      },
      {
        "line": [
          "8383 S. Tamiami Trail, Suite 115"
        ],
        "city": "SARASOTA",
        "state": "FL",
        "postalCode": "34238-2901"
      },
      {
        "line": [
          "900 Pine Street, Suite 222"
        ],
        "city": "ENGLEWOOD",
        "state": "FL",
        "postalCode": "34223-4458"
      },
      {
        "line": [
          "842 SUNSET LAKE BLVD, STE 301"
        ],
        "city": "VENICE",
        "state": "FL",
        "postalCode": "34292-7552"
      },
      {
        "line": [
          "333 TAMIAMI TRL STE 180"
        ],
        "city": "VENICE",
        "state": "FL",
        "postalCode": "34285-2426"
      },
      {
        "line": [
          "1211 JACARANDA BLVD"
        ],
        "city": "VENICE",
        "state": "FL",
        "postalCode": "34285-4520"
      },
      {
        "line": [
          "333 Tamiami Trail, Suite 110"
        ],
        "city": "VENICE",
        "state": "FL",
        "postalCode": "34285-2425"
      },
      {
        "line": [
          "209 Palmero Place"
        ],
        "city": "VENICE",
        "state": "FL",
        "postalCode": "34285-2821"
      },
      {
        "line": [
          "1450 E Venice Avenue"
        ],
        "city": "VENICE",
        "state": "FL",
        "postalCode": "34292-3063"
      },
      {
        "line": [
          "8383 Tamiami Trail, Ste 115"
        ],
        "city": "SARASOTA",
        "state": "FL",
        "postalCode": "34238-2901"
      }
    ],
    "extension": [
      {
        "url": "https://fhir.athena.io/StructureDefinition/ah-practice",
        "valueReference": {
          "reference": "Organization/a-1.Practice-4692"
        }
      },
      {
        "url": "https://fhir.athena.io/StructureDefinition/ah-brand",
        "valueReference": {
          "reference": "Organization/a-4692.Brand-25"
        }
      }
    ]
  },
  "fullUrl": "urn:uuid:a302dbfc-a9f7-5b8e-baab-d237b6575c72"
}