{
  "resource": {
    "resourceType": "Organization",
    "id": "166bdc0f-5014-51df-8955-4d4b7f9bd52e",
    "name": "Ascension Saint Agnes",
    "endpoint": [
      {
        "reference": "Endpoint/27a4e967-47aa-5a9c-a572-b8297ee268a2"
      },
      {
        "reference": "Endpoint/0aef9a87-788a-50fc-8d18-dd4b99364c84"
      }
    ],
    "identifier": [
      {
        "system": "http://hl7.org/fhir/sid/us-npi",
        "value": "1144250176"
      },
      {
        "system": "http://hl7.org/fhir/sid/us-npi",
        "value": "1003079799"
      },
      {
        "system": "http://hl7.org/fhir/sid/us-npi",
        "value": "1780225326"
      },
      {
        "system": "http://hl7.org/fhir/sid/us-npi",
        "value": "1144409194"
      }
    ],
    "address": [
      {
        "line": [
          "5401 Old Court Road"
        ],
        "city": "RANDALLSTOWN",
        "state": "MD",
        "postalCode": "21133-5103"
      },
      {
        "line": [
          "4207 Frederick Road"
        ],
        "city": "Baltimore",
        "state": "MD",
        "postalCode": "21229-4101"
      },
      {
        "line": [
          "5755 Cedar Lane"
        ],
        "city": "COLUMBIA",
        "state": "MD",
        "postalCode": "21044-2912"
      },
      {
        "line": [
          "3449 Wilkens Ave"
        ],
        "city": "BALTIMORE",
        "state": "MD",
        "postalCode": "21229-5216"
      },
      {
        "line": [
          "900 Caton Ave"
        ],
        "city": "BALTIMORE",
        "state": "MD",
        "postalCode": "21229-5201"
      },
      {
        "line": [
          "1100 Covington Street"
        ],
        "city": "Baltimore",
        "state": "MD",
        "postalCode": "21230-4124"
      },
      {
        "line": [
          "2400 Denison Street"
        ],
        "city": "BALTIMORE",
        "state": "MD",
        "postalCode": "21216-2303"
      },
      {
        "line": [
          "825 Yale Ave"
        ],
        "city": "Baltimore",
        "state": "MD",
        "postalCode": "21229-4547"
      },
      {
        "line": [
          "715 Maiden Choice Lane"
        ],
        "city": "CATONSVILLE",
        "state": "MD",
        "postalCode": "21228-5999"
      },
      {
        "line": [
          "900 S Caton Ave"
        ],
        "city": "BALTIMORE",
        "state": "MD",
        "postalCode": "21229-5210"
      },
      {
        "line": [
          "1500 Washington Blvd"
        ],
        "city": "BALTIMORE",
        "state": "MD",
        "postalCode": "21230-1727"
      },
      {
        "line": [
          "776 Washington Blvd"
        ],
        "city": "BALTIMORE",
        "state": "MD",
        "postalCode": "21230-2352"
      },
      {
        "line": [
          "2446 Washington Blvd"
        ],
        "city": "Baltimore",
        "state": "MD",
        "postalCode": "21230-1535"
      },
      {
        "line": [
          "1803 Pennsylvania Ave"
        ],
        "city": "Baltimore",
        "state": "MD",
        "postalCode": "21217-3235"
      },
      {
        "line": [
          "3320 Benson Ave"
        ],
        "city": "HALETHORPE",
        "state": "MD",
        "postalCode": "21227-1035"
      },
      {
        "line": [
          "7601 Osler Drive"
        ],
        "city": "TOWSON",
        "state": "MD",
        "postalCode": "21204-7700"
      },
      {
        "line": [
          "1201 Cambria Street"
        ],
        "city": "Brooklyn",
        "state": "MD",
        "postalCode": "21225-2223"
      },
      {
        "line": [
          "3801 Old Frederick Road"
        ],
        "city": "Baltimore",
        "state": "MD",
        "postalCode": "21229-4149"
      },
      {
        "line": [
          "516 NORTH ROLLING RD, STE 204"
        ],
        "city": "BALTIMORE",
        "state": "MD",
        "postalCode": "21228-4187"
      },
      {
        "line": [
          "181 North Bend Road"
        ],
        "city": "Baltimore",
        "state": "MD",
        "postalCode": "21229-3203"
      },
      {
        "line": [
          "6501 D Baltimore National Pike"
        ],
        "city": "CATONSVILLE",
        "state": "MD",
        "postalCode": "21228-3923"
      },
      {
        "line": [
          "1531 W North AVe"
        ],
        "city": "BALTIMORE",
        "state": "MD",
        "postalCode": "21217-1735"
      },
      {
        "line": [
          "1400 W Mosher Street"
        ],
        "city": "BALTIMORE",
        "state": "MD",
        "postalCode": "21217-2136"
      },
      {
        "line": [
          "22 S Athol Ave"
        ],
        "city": "BALTIMORE",
        "state": "MD",
        "postalCode": "21229-3405"
      },
      {
        "line": [
          "3308 Benson Ave"
        ],
        "city": "HALETHORPE",
        "state": "MD",
        "postalCode": "21227-1035"
      },
      {
        "line": [
          "1525 Rolling Road"
        ],
        "city": "CATONSVILLE",
        "state": "MD",
        "postalCode": "21228-1100"
      },
      {
        "line": [
          "10 North Rock Glen Road"
        ],
        "city": "Baltimore",
        "state": "MD",
        "postalCode": "21229-3250"
      },
      {
        "line": [
          "4301 West Bay Ave"
        ],
        "city": "Baltimore",
        "state": "MD",
        "postalCode": "21225-2518"
      },
      {
        "line": [
          "1406 N Ellamont Street"
        ],
        "city": "BALTIMORE",
        "state": "MD",
        "postalCode": "21216-3815"
      },
      {
        "line": [
          "2463 Frederick Ave"
        ],
        "city": "BALTIMORE",
        "state": "MD",
        "postalCode": "21223-2856"
      },
      {
        "line": [
          "601 Maiden Choice Lane"
        ],
        "city": "BALTIMORE",
        "state": "MD",
        "postalCode": "21228-3630"
      },
      {
        "line": [
          "7000 Reisterstown Road"
        ],
        "city": "BALTIMORE",
        "state": "MD",
        "postalCode": "21208-1423"
      }
    ],
    "extension": [
      {
        "url": "https://fhir.athena.io/StructureDefinition/ah-practice",
        "valueReference": {
          "reference": "Organization/a-1.Practice-10777"
        }
      },
      {
        "url": "https://fhir.athena.io/StructureDefinition/ah-brand",
        "valueReference": {
          "reference": "Organization/a-10777.Brand-1"
        }
      }
    ]
  },
  "fullUrl": "urn:uuid:166bdc0f-5014-51df-8955-4d4b7f9bd52e"
}