{
  "resource": {
    "resourceType": "Organization",
    "id": "b728e47f-024d-5402-8486-553e493db6e6",
    "name": "Achilles Health Care Services",
    "endpoint": [
      {
        "reference": "Endpoint/27a4e967-47aa-5a9c-a572-b8297ee268a2"
      },
      {
        "reference": "Endpoint/ffc7cbcb-cb18-5635-81bf-8f86caddee1f"
      }
    ],
    "identifier": [
      {
        "system": "http://hl7.org/fhir/sid/us-npi",
        "value": "1275906018"
      }
    ],
    "address": [
      {
        "line": [
          "6410 Erskine St."
        ],
        "city": "LUBBOCK",
        "state": "TX",
        "postalCode": "79416-3362"
      },
      {
        "line": [
          "11105 Landmark Ct."
        ],
        "city": "DENTON",
        "state": "TX",
        "postalCode": "76207-6740"
      },
      {
        "line": [
          "4425 W airport Freeway #450"
        ],
        "city": "IRVING",
        "state": "TX",
        "postalCode": "75062-5832"
      },
      {
        "line": [
          "3291 E. Broadway St."
        ],
        "city": "GAINESVILLE",
        "state": "TX",
        "postalCode": "76240-7502"
      },
      {
        "line": [
          "1101 E. Lake st"
        ],
        "city": "BROWNFIELD",
        "state": "TX",
        "postalCode": "79316-3811"
      },
      {
        "line": [
          "1124 Corvadura St."
        ],
        "city": "GRAHAM",
        "state": "TX",
        "postalCode": "76450-0001"
      },
      {
        "line": [
          "5217 Village Creek Drive"
        ],
        "city": "PLANO",
        "state": "TX",
        "postalCode": "75093-4422"
      },
      {
        "line": [
          "5001 Office Park Dr."
        ],
        "city": "ODESSA",
        "state": "TX",
        "postalCode": "79762-4843"
      },
      {
        "line": [
          "732 S. I-35 East. #128"
        ],
        "city": "DENTON",
        "state": "TX",
        "postalCode": "76205-4102"
      },
      {
        "line": [
          "6317 112th St."
        ],
        "city": "LUBBOCK",
        "state": "TX",
        "postalCode": "79424-7825"
      },
      {
        "line": [
          "6301 Overton Ridge Blvd.  #4003"
        ],
        "city": "FORT WORTH",
        "state": "TX",
        "postalCode": "76132-3283"
      },
      {
        "line": [
          "5417 altamesa blvd."
        ],
        "city": "FORT WORTH",
        "state": "TX",
        "postalCode": "76123-2804"
      },
      {
        "line": [
          "102 decker court #220"
        ],
        "city": "IRVING",
        "state": "TX",
        "postalCode": "75062-2740"
      },
      {
        "line": [
          "100 WATERMARK BLVD"
        ],
        "city": "GRANBURY",
        "state": "TX",
        "postalCode": "76048-0001"
      },
      {
        "line": [
          "8824 FM 1585"
        ],
        "city": "WOLFFORTH",
        "state": "TX",
        "postalCode": "79382-7066"
      },
      {
        "line": [
          "11902 Frankford Ave."
        ],
        "city": "LUBBOCK",
        "state": "TX",
        "postalCode": "79424-5804"
      },
      {
        "line": [
          "301 40th St."
        ],
        "city": "LUBBOCK",
        "state": "TX",
        "postalCode": "79401-4204"
      },
      {
        "line": [
          "3719 Ira E Woods Ave."
        ],
        "city": "GRAPEVINE",
        "state": "TX",
        "postalCode": "76051-0900"
      },
      {
        "line": [
          "511 S. Bailey St."
        ],
        "city": "ELECTRA",
        "state": "TX",
        "postalCode": "76360-7301"
      },
      {
        "line": [
          "2277 N. Masch Branch Rd."
        ],
        "city": "DENTON",
        "state": "TX",
        "postalCode": "76207-3312"
      },
      {
        "line": [
          "1200 7th ST. NW"
        ],
        "city": "CHILDRESS",
        "state": "TX",
        "postalCode": "79201-2627"
      },
      {
        "line": [
          "770 South Highway 377 #208"
        ],
        "city": "PILOT POINT",
        "state": "TX",
        "postalCode": "76258-4471"
      },
      {
        "line": [
          "5340 TOWNE SQUARE DR."
        ],
        "city": "PLANO",
        "state": "TX",
        "postalCode": "75024-2253"
      },
      {
        "line": [
          "5417 Altamesa BLVD"
        ],
        "city": "FORT WORTH",
        "state": "TX",
        "postalCode": "76123-2804"
      },
      {
        "line": [
          "111 parks village dr."
        ],
        "city": "ODESSA",
        "state": "TX",
        "postalCode": "79762-4843"
      }
    ],
    "extension": [
      {
        "url": "https://fhir.athena.io/StructureDefinition/ah-practice",
        "valueReference": {
          "reference": "Organization/a-1.Practice-12642"
        }
      },
      {
        "url": "https://fhir.athena.io/StructureDefinition/ah-brand",
        "valueReference": {
          "reference": "Organization/a-12642.Brand-1"
        }
      }
    ]
  },
  "fullUrl": "urn:uuid:b728e47f-024d-5402-8486-553e493db6e6"
}