{
  "resource": {
    "resourceType": "Organization",
    "id": "36337d5e-1d92-5677-8de5-cd6cb503a230",
    "name": "AZ Ortho",
    "endpoint": [
      {
        "reference": "Endpoint/27a4e967-47aa-5a9c-a572-b8297ee268a2"
      },
      {
        "reference": "Endpoint/d2ed0a97-6791-5da2-a4ec-e3f73f5d7076"
      }
    ],
    "identifier": [
      {
        "system": "http://hl7.org/fhir/sid/us-npi",
        "value": "1093437246"
      }
    ],
    "address": [
      {
        "line": [
          "9377 E BELL RD SUITE 201"
        ],
        "city": "SCOTTSDALE",
        "state": "AZ",
        "postalCode": "85260-1503"
      },
      {
        "line": [
          "3929 E BELL RD"
        ],
        "city": "PHOENIX",
        "state": "AZ",
        "postalCode": "85032-2112"
      },
      {
        "line": [
          "2000 W BETHANY HOME RD"
        ],
        "city": "PHOENIX",
        "state": "AZ",
        "postalCode": "85015-2443"
      },
      {
        "line": [
          "7400 E THOMPSON PEAK PKWY"
        ],
        "city": "SCOTTSDALE",
        "state": "AZ",
        "postalCode": "85255-4109"
      },
      {
        "line": [
          "10200 N 92ND ST STE 225"
        ],
        "city": "SCOTTSDALE",
        "state": "AZ",
        "postalCode": "85258-4536"
      },
      {
        "line": [
          "9003 E SHEA BLVD"
        ],
        "city": "SCOTTSDALE",
        "state": "AZ",
        "postalCode": "85260-6709"
      },
      {
        "line": [
          "5227 E CAREFREE HWY"
        ],
        "city": "CAVE CREEK",
        "state": "AZ",
        "postalCode": "85331-9173"
      },
      {
        "line": [
          "1301 S CRISMON RD"
        ],
        "city": "MESA",
        "state": "AZ",
        "postalCode": "85209-3767"
      },
      {
        "line": [
          "7231 E PRINCESS BLVD"
        ],
        "city": "SCOTTSDALE",
        "state": "AZ",
        "postalCode": "85255-9671"
      },
      {
        "line": [
          "14502 W MEEKER BLVD"
        ],
        "city": "SUN CITY WEST",
        "state": "AZ",
        "postalCode": "85375-5282"
      },
      {
        "line": [
          "1405 S ALMA SCHOOL RD"
        ],
        "city": "CHANDLER",
        "state": "AZ",
        "postalCode": "85286-7144"
      },
      {
        "line": [
          "1500 S MILL AVE"
        ],
        "city": "TEMPE",
        "state": "AZ",
        "postalCode": "85281-6699"
      },
      {
        "line": [
          "7330 N 99TH AVE STE 100"
        ],
        "city": "GLENDALE",
        "state": "AZ",
        "postalCode": "85307-3016"
      },
      {
        "line": [
          "2222 E HIGHLAND AVE # SITE100"
        ],
        "city": "PHOENIX",
        "state": "AZ",
        "postalCode": "85016-4872"
      },
      {
        "line": [
          "250 E DUNLAP AVE"
        ],
        "city": "PHOENIX",
        "state": "AZ",
        "postalCode": "85020-2825"
      },
      {
        "line": [
          "13660 N 94TH DR STE C4"
        ],
        "city": "PEORIA",
        "state": "AZ",
        "postalCode": "85381-4841"
      },
      {
        "line": [
          "8962 E DESERT COVE AVE"
        ],
        "city": "SCOTTSDALE",
        "state": "AZ",
        "postalCode": "85260-6984"
      }
    ],
    "extension": [
      {
        "url": "https://fhir.athena.io/StructureDefinition/ah-practice",
        "valueReference": {
          "reference": "Organization/a-1.Practice-27410"
        }
      },
      {
        "url": "https://fhir.athena.io/StructureDefinition/ah-brand",
        "valueReference": {
          "reference": "Organization/a-27410.Brand-1"
        }
      }
    ]
  },
  "fullUrl": "urn:uuid:36337d5e-1d92-5677-8de5-cd6cb503a230"
}