{
  "resource": {
    "resourceType": "Organization",
    "id": "002b7389-04bc-5ebf-81b6-c1ae701a3738",
    "name": "Quad Cities Foot and Ankle, PC",
    "endpoint": [
      {
        "reference": "Endpoint/27a4e967-47aa-5a9c-a572-b8297ee268a2"
      },
      {
        "reference": "Endpoint/13366c62-c24a-5235-bdad-52a6cc0ad6b7"
      }
    ],
    "identifier": [
      {
        "system": "http://hl7.org/fhir/sid/us-npi",
        "value": "1639517501"
      }
    ],
    "address": [
      {
        "line": [
          "5605 JERSEY RIDGE ROAD"
        ],
        "city": "DAVENPORT",
        "state": "IA",
        "postalCode": "52807-3132"
      },
      {
        "line": [
          "2701 17TH STREET"
        ],
        "city": "ROCK ISLAND",
        "state": "IL",
        "postalCode": "61201-5351"
      },
      {
        "line": [
          "1401 CENTRAL PARK AVENUE"
        ],
        "city": "DAVENPORT",
        "state": "IA",
        "postalCode": "52804-1707"
      },
      {
        "line": [
          "700 WAVERLY ROAD"
        ],
        "city": "DAVENPORT",
        "state": "IA",
        "postalCode": "52804-4317"
      },
      {
        "line": [
          "500 JOHN DEERE ROAD"
        ],
        "city": "MOLINE",
        "state": "IL",
        "postalCode": "61265-6892"
      },
      {
        "line": [
          "3400 DEXTER COURT"
        ],
        "city": "DAVENPORT",
        "state": "IA",
        "postalCode": "52807-3461"
      },
      {
        "line": [
          "4480 UTICA RIDGE ROAD"
        ],
        "city": "BETTENDORF",
        "state": "IA",
        "postalCode": "52722-1656"
      },
      {
        "line": [
          "1111 WEST KIMBERLY ROAD"
        ],
        "city": "DAVENPORT",
        "state": "IA",
        "postalCode": "52806-5711"
      },
      {
        "line": [
          "700 Waverly Road"
        ],
        "city": "DAVENPORT",
        "state": "IA",
        "postalCode": "52804-4317"
      },
      {
        "line": [
          "1227 EAST RUSHOLME STREET"
        ],
        "city": "DAVENPORT",
        "state": "IA",
        "postalCode": "52803-2459"
      }
    ],
    "extension": [
      {
        "url": "https://fhir.athena.io/StructureDefinition/ah-practice",
        "valueReference": {
          "reference": "Organization/a-1.Practice-11329"
        }
      },
      {
        "url": "https://fhir.athena.io/StructureDefinition/ah-brand",
        "valueReference": {
          "reference": "Organization/a-11329.Brand-1"
        }
      }
    ]
  },
  "fullUrl": "urn:uuid:002b7389-04bc-5ebf-81b6-c1ae701a3738"
}