{
  "resource": {
    "resourceType": "Organization",
    "id": "4edd4e51-4855-574f-9c95-a57594ac8c6f",
    "name": "Heartbeat - Columbus Circle / Midtown",
    "endpoint": [
      {
        "reference": "Endpoint/27a4e967-47aa-5a9c-a572-b8297ee268a2"
      },
      {
        "reference": "Endpoint/e596d7c4-5b99-5c8d-b690-dc1ad58a4262"
      }
    ],
    "identifier": [
      {
        "system": "http://hl7.org/fhir/sid/us-npi",
        "value": "1902318603"
      }
    ],
    "address": [
      {
        "line": [
          "156 W 56TH ST STE 1000D"
        ],
        "city": "NEW YORK",
        "state": "NY",
        "postalCode": "10019-3936"
      },
      {
        "line": [
          "2678 KINGSBRIDGE TER"
        ],
        "city": "BRONX",
        "state": "NY",
        "postalCode": "10463-7471"
      },
      {
        "line": [
          "156 W 56th Street",
          "Suite 1000"
        ],
        "city": "NEW YORK",
        "state": "NY",
        "postalCode": "10019-0003"
      },
      {
        "line": [
          "156 W 56th Street",
          "Suite 1000"
        ],
        "city": "NEW YORK",
        "state": "NY",
        "postalCode": "10019-0056"
      },
      {
        "line": [
          "6413 WARM SUNSHINE PATH"
        ],
        "city": "CLARKSVILLE",
        "state": "MD",
        "postalCode": "21029-1246"
      },
      {
        "line": [
          "156 W 56th Street"
        ],
        "city": "NEW YORK",
        "state": "NY",
        "postalCode": "10019-3800"
      },
      {
        "line": [
          "727 CLASSON AVE"
        ],
        "city": "BROOKLYN",
        "state": "NY",
        "postalCode": "11238-3704"
      },
      {
        "line": [
          "156 W 56th Street, Suite 1000D"
        ],
        "city": "NEW YORK",
        "state": "NY",
        "postalCode": "10019-0056"
      },
      {
        "line": [
          "375 E BAY DR"
        ],
        "city": "LONG BEACH",
        "state": "NY",
        "postalCode": "11561-2350"
      },
      {
        "line": [
          "156 W 56th Street",
          "Suite 1000"
        ],
        "city": "NEW YORK",
        "state": "NY",
        "postalCode": "10019-3879"
      },
      {
        "line": [
          "211 E 79th Street"
        ],
        "city": "NEW YORK",
        "state": "NY",
        "postalCode": "10075-0819"
      },
      {
        "line": [
          "134 GREAT EAST NECK RD"
        ],
        "city": "WEST BABYLON",
        "state": "NY",
        "postalCode": "11704-8027"
      },
      {
        "line": [
          "1841 Broadway",
          "Room 903"
        ],
        "city": "NEW YORK",
        "state": "NY",
        "postalCode": "10023-7653"
      },
      {
        "line": [
          "1000 PELHAM PKWY S"
        ],
        "city": "BRONX",
        "state": "NY",
        "postalCode": "10461-1003"
      },
      {
        "line": [
          "3035 West 24th Street"
        ],
        "city": "BROOKLYN",
        "state": "NY",
        "postalCode": "11224-0001"
      },
      {
        "line": [
          "3155 ELY AVE"
        ],
        "city": "BRONX",
        "state": "NY",
        "postalCode": "10469-3134"
      },
      {
        "line": [
          "500 S RANCHO DR STE 12"
        ],
        "city": "LAS VEGAS",
        "state": "NV",
        "postalCode": "89106-4852"
      },
      {
        "line": [
          "16411 CHAPIN PKWY # 1"
        ],
        "city": "JAMAICA",
        "state": "NY",
        "postalCode": "11432-1816"
      },
      {
        "line": [
          "5015 BEACH CHANNEL DR"
        ],
        "city": "FAR ROCKAWAY",
        "state": "NY",
        "postalCode": "11691-1110"
      }
    ],
    "extension": [
      {
        "url": "https://fhir.athena.io/StructureDefinition/ah-practice",
        "valueReference": {
          "reference": "Organization/a-1.Practice-17911"
        }
      },
      {
        "url": "https://fhir.athena.io/StructureDefinition/ah-brand",
        "valueReference": {
          "reference": "Organization/a-17911.Brand-1"
        }
      }
    ]
  },
  "fullUrl": "urn:uuid:4edd4e51-4855-574f-9c95-a57594ac8c6f"
}