{
  "resource": {
    "resourceType": "Organization",
    "id": "fecf99ed-6de5-5a25-908f-3721d071dd32",
    "name": "Capital Health Medical Group",
    "endpoint": [
      {
        "reference": "Endpoint/27a4e967-47aa-5a9c-a572-b8297ee268a2"
      },
      {
        "reference": "Endpoint/13e9f6c9-1d0c-58ec-ab89-e4f586c50b1f"
      }
    ],
    "identifier": [
      {
        "system": "http://hl7.org/fhir/sid/us-npi",
        "value": "1083072342"
      },
      {
        "system": "http://hl7.org/fhir/sid/us-npi",
        "value": "1437516887"
      }
    ],
    "address": [
      {
        "line": [
          "1201 Parkway Ave"
        ],
        "city": "TRENTON",
        "state": "NJ",
        "postalCode": "08628-3018"
      },
      {
        "line": [
          "1314 Brunswick Ave"
        ],
        "city": "TRENTON",
        "state": "NJ",
        "postalCode": "08638-3316"
      },
      {
        "line": [
          "1230 Parkway Ave",
          "Suite 203"
        ],
        "city": "TRENTON",
        "state": "NJ",
        "postalCode": "08628-3018"
      },
      {
        "line": [
          "112 Franklin Corner Rd",
          "Suite 203"
        ],
        "city": "LAWRENCE TOWNSHIP",
        "state": "NJ",
        "postalCode": "08648-2104"
      },
      {
        "line": [
          "2381 Lawrenceville Rd"
        ],
        "city": "LAWRENCE TOWNSHIP",
        "state": "NJ",
        "postalCode": "08648-2025"
      },
      {
        "line": [
          "1 Bishops' Drive"
        ],
        "city": "LAWRENCE TOWNSHIP",
        "state": "NJ",
        "postalCode": "08648-2050"
      },
      {
        "line": [
          "850 BEAR TAVERN RD STE 309"
        ],
        "city": "EWING",
        "state": "NJ",
        "postalCode": "08628-1018"
      },
      {
        "line": [
          "143 West Franklin Avenue"
        ],
        "city": "PENNINGTON",
        "state": "NJ",
        "postalCode": "08534-1438"
      },
      {
        "line": [
          "512 Union street"
        ],
        "city": "TRENTON",
        "state": "NJ",
        "postalCode": "08611-2800"
      },
      {
        "line": [
          "50 Walter St"
        ],
        "city": "TRENTON",
        "state": "NJ",
        "postalCode": "08628-3002"
      },
      {
        "line": [
          "1660 Whitehorse-Hamilton Square Rd"
        ],
        "city": "TRENTON",
        "state": "NJ",
        "postalCode": "08690-3506"
      }
    ],
    "extension": [
      {
        "url": "https://fhir.athena.io/StructureDefinition/ah-practice",
        "valueReference": {
          "reference": "Organization/a-1.Practice-12833"
        }
      },
      {
        "url": "https://fhir.athena.io/StructureDefinition/ah-brand",
        "valueReference": {
          "reference": "Organization/a-12833.Brand-1"
        }
      }
    ]
  },
  "fullUrl": "urn:uuid:fecf99ed-6de5-5a25-908f-3721d071dd32"
}