{
  "resource": {
    "resourceType": "Organization",
    "id": "90a62578-cc39-51b8-ba8a-681e7a7cdf43",
    "name": "Cutting Edge Foot And Ankle Clinic",
    "endpoint": [
      {
        "reference": "Endpoint/27a4e967-47aa-5a9c-a572-b8297ee268a2"
      },
      {
        "reference": "Endpoint/1f3d6cfa-fd5e-5cb7-9bb0-0a70f20ab77c"
      }
    ],
    "identifier": [
      {
        "system": "http://hl7.org/fhir/sid/us-npi",
        "value": "1154889533"
      }
    ],
    "address": [
      {
        "line": [
          "100 nortcrest dr"
        ],
        "city": "NASHVILLE",
        "state": "TN",
        "postalCode": "37230-5172"
      },
      {
        "line": [
          "3441 Dickerson Pike"
        ],
        "city": "NASHVILLE",
        "state": "TN",
        "postalCode": "37207-2539"
      },
      {
        "line": [
          "341 Dickerson Pike"
        ],
        "city": "NASHVILLE",
        "state": "TN",
        "postalCode": "37207-2539"
      },
      {
        "line": [
          "2201 MURPHY AVE STE 215 # 310"
        ],
        "city": "NASHVILLE",
        "state": "TN",
        "postalCode": "37203-1803"
      },
      {
        "line": [
          "2300 Patterson st,"
        ],
        "city": "NASHVILLE",
        "state": "TN",
        "postalCode": "37203-0015"
      },
      {
        "line": [
          "2536 Highway 49",
          "Suite 120"
        ],
        "city": "PLEASANT VIEW",
        "state": "TN",
        "postalCode": "37146-7119"
      },
      {
        "line": [
          "3443 DICKERSON PIKE,"
        ],
        "city": "OSGOOD",
        "state": "IN",
        "postalCode": "37207-2523"
      },
      {
        "line": [
          "3443 Dickerson Pike",
          "Unit 310"
        ],
        "city": "NASHVILLE",
        "state": "TN",
        "postalCode": "37207-2523"
      },
      {
        "line": [
          "home",
          "107 georgetown dr"
        ],
        "city": "HENDERSONVILLE",
        "state": "TN",
        "postalCode": "37075-3074"
      },
      {
        "line": [
          "3443 Dickerson pike"
        ],
        "city": "NASHVILLE",
        "state": "TN",
        "postalCode": "37207-2539"
      },
      {
        "line": [
          "2300 Patterson STreet"
        ],
        "city": "NASHVILLE",
        "state": "TN",
        "postalCode": "37203-0015"
      },
      {
        "line": [
          "3443 DICKERSON PIKE SUITE 310"
        ],
        "city": "NASHVILLE",
        "state": "TN",
        "postalCode": "37207-2539"
      },
      {
        "line": [
          "700 N Dupont Ave"
        ],
        "city": "MADISON",
        "state": "TN",
        "postalCode": "37115-3048"
      },
      {
        "line": [
          "491 N SAGE RD  SUITE 800"
        ],
        "city": "WHITE HOUSE",
        "state": "TN",
        "postalCode": "37188-9360"
      },
      {
        "line": [
          "647 Myatt Dr"
        ],
        "city": "MADISON",
        "state": "TN",
        "postalCode": "37115-0002"
      }
    ],
    "extension": [
      {
        "url": "https://fhir.athena.io/StructureDefinition/ah-practice",
        "valueReference": {
          "reference": "Organization/a-1.Practice-19521"
        }
      },
      {
        "url": "https://fhir.athena.io/StructureDefinition/ah-brand",
        "valueReference": {
          "reference": "Organization/a-19521.Brand-1"
        }
      }
    ]
  },
  "fullUrl": "urn:uuid:90a62578-cc39-51b8-ba8a-681e7a7cdf43"
}