{
  "resource": {
    "resourceType": "Organization",
    "id": "03c9ff05-ea9e-5cb0-a58b-58b3ab9cd23d",
    "name": "ALABAMA HEART & VASCULAR CENTER",
    "endpoint": [
      {
        "reference": "Endpoint/27a4e967-47aa-5a9c-a572-b8297ee268a2"
      },
      {
        "reference": "Endpoint/36c11a0a-74e1-5680-b58d-88ed83ed9544"
      }
    ],
    "identifier": [
      {
        "system": "http://hl7.org/fhir/sid/us-npi",
        "value": "1477874337"
      },
      {
        "system": "http://hl7.org/fhir/sid/us-npi",
        "value": "1811516925"
      },
      {
        "system": "http://hl7.org/fhir/sid/us-npi",
        "value": "1174522007"
      },
      {
        "system": "http://hl7.org/fhir/sid/us-npi",
        "value": "1346588852"
      },
      {
        "system": "http://hl7.org/fhir/sid/us-npi",
        "value": "1063872596"
      }
    ],
    "address": [
      {
        "line": [
          "1751 VETERANS DR SUITE 205"
        ],
        "city": "FLORENCE",
        "state": "AL",
        "postalCode": "35630-4930"
      },
      {
        "line": [
          "426 E DR HICKS BLVD"
        ],
        "city": "FLORENCE",
        "state": "AL",
        "postalCode": "35630-5763"
      },
      {
        "line": [
          "1751 VETERANS DR",
          "Suite 200"
        ],
        "city": "FLORENCE",
        "state": "AL",
        "postalCode": "35630-4928"
      },
      {
        "line": [
          "201 AVALON AVENUE"
        ],
        "city": "MUSCLE SHOALS",
        "state": "AL",
        "postalCode": "35661-2805"
      },
      {
        "line": [
          "1751 VETERANS DR"
        ],
        "city": "FLORENCE",
        "state": "AL",
        "postalCode": "35630-4930"
      },
      {
        "line": [
          "42030 HIGHWAY 195 STE C"
        ],
        "city": "HALEYVILLE",
        "state": "AL",
        "postalCode": "35565-7054"
      },
      {
        "line": [
          "1751 Veterans Dr"
        ],
        "city": "FLORENCE",
        "state": "AL",
        "postalCode": "35630-4930"
      },
      {
        "line": [
          "1607 S LOCUST AVE"
        ],
        "city": "LAWRENCEBURG",
        "state": "TN",
        "postalCode": "38464-4011"
      },
      {
        "line": [
          "805 FLAGG CIRCLE"
        ],
        "city": "FLORENCE",
        "state": "AL",
        "postalCode": "35630-3362"
      },
      {
        "line": [
          "201 AVALON AVE"
        ],
        "city": "MUSCLE SHOALS",
        "state": "AL",
        "postalCode": "35661-2805"
      }
    ],
    "extension": [
      {
        "url": "https://fhir.athena.io/StructureDefinition/ah-practice",
        "valueReference": {
          "reference": "Organization/a-1.Practice-6269"
        }
      },
      {
        "url": "https://fhir.athena.io/StructureDefinition/ah-brand",
        "valueReference": {
          "reference": "Organization/a-6269.Brand-1"
        }
      }
    ]
  },
  "fullUrl": "urn:uuid:03c9ff05-ea9e-5cb0-a58b-58b3ab9cd23d"
}