{
  "resource": {
    "resourceType": "Organization",
    "id": "b75e6b96-eba5-5fbb-8e27-e77cfcc29d2b",
    "name": "ACC Apopka North",
    "endpoint": [
      {
        "reference": "Endpoint/27a4e967-47aa-5a9c-a572-b8297ee268a2"
      },
      {
        "reference": "Endpoint/8051b660-00d1-5feb-98eb-23be38311a56"
      }
    ],
    "identifier": [
      {
        "system": "http://hl7.org/fhir/sid/us-npi",
        "value": "1548700115"
      }
    ],
    "address": [
      {
        "line": [
          "4501 Waterman Way"
        ],
        "city": "TAVARES",
        "state": "FL",
        "postalCode": "32778-5312"
      },
      {
        "line": [
          "2100 Ocoee Apopka Rd"
        ],
        "city": "APOPKA",
        "state": "FL",
        "postalCode": "32703-9210"
      },
      {
        "line": [
          "305 East Oak Street"
        ],
        "city": "APOPKA",
        "state": "FL",
        "postalCode": "32703-4352"
      },
      {
        "line": [
          "2100 ocoee apopka rd"
        ],
        "city": "APOPKA",
        "state": "FL",
        "postalCode": "32703-9210"
      },
      {
        "line": [
          "420 Roper Rd"
        ],
        "city": "WINTER GARDEN",
        "state": "FL",
        "postalCode": "34787-4954"
      },
      {
        "line": [
          "201 N Park Ave"
        ],
        "city": "APOPKA",
        "state": "FL",
        "postalCode": "32703-4147"
      },
      {
        "line": [
          "201 N Park Ave",
          "STE 201"
        ],
        "city": "APOPKA",
        "state": "FL",
        "postalCode": "32703-4174"
      },
      {
        "line": [
          "201 N Park Ave, STE 201"
        ],
        "city": "APOPKA",
        "state": "FL",
        "postalCode": "32703-4147"
      },
      {
        "line": [
          "201 N Park Ave",
          "Suite 201"
        ],
        "city": "APOPKA",
        "state": "FL",
        "postalCode": "32703-4147"
      },
      {
        "line": [
          "201 North Park Ave",
          "Suite 201"
        ],
        "city": "APOPKA",
        "state": "FL",
        "postalCode": "32703-8510"
      },
      {
        "line": [
          "1178 Bella Vista Circle"
        ],
        "city": "LONGWOOD",
        "state": "FL",
        "postalCode": "32779-5864"
      },
      {
        "line": [
          "201 N Park Ave",
          "STE 201"
        ],
        "city": "APOPKA",
        "state": "FL",
        "postalCode": "32703-4147"
      },
      {
        "line": [
          "433 ORANGE DRive"
        ],
        "city": "ALTAMONTE SPRINGS",
        "state": "FL",
        "postalCode": "32701-5377"
      },
      {
        "line": [
          "305 EAST OAK STREET"
        ],
        "city": "APOPKA",
        "state": "FL",
        "postalCode": "32703-4352"
      },
      {
        "line": [
          "1370 Celebration Blvd"
        ],
        "city": "Celebration",
        "state": "FL",
        "postalCode": "34747-5546"
      },
      {
        "line": [
          "33555 E Semoran Blvd"
        ],
        "city": "APOPKA",
        "state": "FL",
        "postalCode": "32703-6062"
      },
      {
        "line": [
          "3355 E Semoran Blvd"
        ],
        "city": "APOPKA",
        "state": "FL",
        "postalCode": "32703-6062"
      },
      {
        "line": [
          "80 North Clarke Rd"
        ],
        "city": "OCOEE",
        "state": "FL",
        "postalCode": "34761-9163"
      },
      {
        "line": [
          "8001 Pin Oak Dr"
        ],
        "city": "ORLANDO",
        "state": "FL",
        "postalCode": "32819-7108"
      },
      {
        "line": [
          "402 LAKEVIEW RD"
        ],
        "city": "WINTER GARDEN",
        "state": "FL",
        "postalCode": "34787-3019"
      },
      {
        "line": [
          "730 Courtland Street"
        ],
        "city": "ORLANDO",
        "state": "FL",
        "postalCode": "32804-1316"
      },
      {
        "line": [
          "920 Versailles Cir"
        ],
        "city": "MAITLAND",
        "state": "FL",
        "postalCode": "32751-4567"
      },
      {
        "line": [
          "80 N Clark Rd"
        ],
        "city": "OCOEE",
        "state": "FL",
        "postalCode": "34761-9163"
      },
      {
        "line": [
          "217 Boston Ave"
        ],
        "city": "ALTAMONTE SPRINGS",
        "state": "FL",
        "postalCode": "32701-4700"
      },
      {
        "line": [
          "700 E Welch Rd"
        ],
        "city": "APOPKA",
        "state": "FL",
        "postalCode": "32712-2921"
      },
      {
        "line": [
          "360 Montgomery Rd"
        ],
        "city": "ALTAMONTE SPRINGS",
        "state": "FL",
        "postalCode": "32714-6830"
      },
      {
        "line": [
          "1061 Tomy Blvd"
        ],
        "city": "OCOEE",
        "state": "FL",
        "postalCode": "34761-4939"
      },
      {
        "line": [
          "203 South Wekiwa Springs"
        ],
        "city": "APOPKA",
        "state": "FL",
        "postalCode": "32703-4778"
      },
      {
        "line": [
          "720 Roper Rd"
        ],
        "city": "WINTER GARDEN",
        "state": "FL",
        "postalCode": "34787-5017"
      }
    ],
    "extension": [
      {
        "url": "https://fhir.athena.io/StructureDefinition/ah-practice",
        "valueReference": {
          "reference": "Organization/a-1.Practice-14311"
        }
      },
      {
        "url": "https://fhir.athena.io/StructureDefinition/ah-brand",
        "valueReference": {
          "reference": "Organization/a-14311.Brand-1"
        }
      }
    ]
  },
  "fullUrl": "urn:uuid:b75e6b96-eba5-5fbb-8e27-e77cfcc29d2b"
}