{
  "resource": {
    "resourceType": "Organization",
    "id": "9d8366ae-bf06-597f-89c2-bd491765fbe9",
    "name": "Patient Care Therapy Group",
    "endpoint": [
      {
        "reference": "Endpoint/27a4e967-47aa-5a9c-a572-b8297ee268a2"
      },
      {
        "reference": "Endpoint/4dc408bf-681e-5d1c-8aa8-f04c173dcf77"
      }
    ],
    "identifier": [
      {
        "system": "http://hl7.org/fhir/sid/us-npi",
        "value": "1154109692"
      },
      {
        "system": "http://hl7.org/fhir/sid/us-npi",
        "value": "1821876376"
      },
      {
        "system": "http://hl7.org/fhir/sid/us-npi",
        "value": "1477213106"
      },
      {
        "system": "http://hl7.org/fhir/sid/us-npi",
        "value": "1477331924"
      },
      {
        "system": "http://hl7.org/fhir/sid/us-npi",
        "value": "1568240018"
      },
      {
        "system": "http://hl7.org/fhir/sid/us-npi",
        "value": "1770361313"
      },
      {
        "system": "http://hl7.org/fhir/sid/us-npi",
        "value": "1932987484"
      },
      {
        "system": "http://hl7.org/fhir/sid/us-npi",
        "value": "1194503649"
      }
    ],
    "address": [
      {
        "line": [
          "5851 N HONORE AVE"
        ],
        "city": "SARASOTA",
        "state": "FL",
        "postalCode": "34243-2637"
      },
      {
        "line": [
          "140 E WOODBURY DR"
        ],
        "city": "DAYTON",
        "state": "OH",
        "postalCode": "45415-2841"
      },
      {
        "line": [
          "111 SUNSET RD"
        ],
        "city": "BURLINGTON",
        "state": "NJ",
        "postalCode": "08016-4159"
      },
      {
        "line": [
          "595 ROUND ROCK WEST DR STE 102"
        ],
        "city": "ROUND ROCK",
        "state": "TX",
        "postalCode": "78681-5028"
      },
      {
        "line": [
          "3709 SHANNONS GREEN WAY"
        ],
        "city": "ALEXANDRIA",
        "state": "VA",
        "postalCode": "22309-3659"
      },
      {
        "line": [
          "17 SPRING PL"
        ],
        "city": "MORRISTOWN",
        "state": "NJ",
        "postalCode": "07960-3947"
      },
      {
        "line": [
          "1450 MARLTON PIKE E"
        ],
        "city": "CHERRY HILL",
        "state": "NJ",
        "postalCode": "08034-2244"
      },
      {
        "line": [
          "1700 W HORIZON RIDGE PKWY STE 204"
        ],
        "city": "HENDERSON",
        "state": "NV",
        "postalCode": "89012-4840"
      },
      {
        "line": [
          "3800 W TOWN CENTER BLVD",
          "200"
        ],
        "city": "ORLANDO",
        "state": "FL",
        "postalCode": "32837-6196"
      },
      {
        "line": [
          "26 MAIN ST"
        ],
        "city": "EDISON",
        "state": "NJ",
        "postalCode": "08837-3418"
      },
      {
        "line": [
          "3655 W LAKE MARY BLVD"
        ],
        "city": "LAKE MARY",
        "state": "FL",
        "postalCode": "32746-3497"
      },
      {
        "line": [
          "1154 48th Street"
        ],
        "city": "BROOKLYN",
        "state": "NY",
        "postalCode": "11219-1111"
      },
      {
        "line": [
          "2150 ROUTE 38"
        ],
        "city": "CHERRY HILL",
        "state": "NJ",
        "postalCode": "08002-4302"
      },
      {
        "line": [
          "7031 GRAND NATIONAL DR STE 104"
        ],
        "city": "ORLANDO",
        "state": "FL",
        "postalCode": "32819-8905"
      },
      {
        "line": [
          "100 SEASIDE BLVD"
        ],
        "city": "REHOBOTH BEACH",
        "state": "DE",
        "postalCode": "19971-1189"
      },
      {
        "line": [
          "348 E Cedar St"
        ],
        "city": "LIVINGSTON",
        "state": "NJ",
        "postalCode": "07039-4221"
      },
      {
        "line": [
          "1054 48th Street"
        ],
        "city": "BROOKLYN",
        "state": "NY",
        "postalCode": "11219-1111"
      },
      {
        "line": [
          "7056 CORPORATE WAY STE 201"
        ],
        "city": "DAYTON",
        "state": "OH",
        "postalCode": "45459-4274"
      },
      {
        "line": [
          "1503 MEDICAL PKWY"
        ],
        "city": "CEDAR PARK",
        "state": "TX",
        "postalCode": "78613-7633"
      },
      {
        "line": [
          "4050 SUNRISE RD"
        ],
        "city": "ROUND ROCK",
        "state": "TX",
        "postalCode": "78665-1144"
      },
      {
        "line": [
          "473 DEMOTT LN"
        ],
        "city": "SOMERSET",
        "state": "NJ",
        "postalCode": "08873-7700"
      },
      {
        "line": [
          "6031 W CHEYENNE AVE"
        ],
        "city": "LAS VEGAS",
        "state": "NV",
        "postalCode": "89108-4200"
      },
      {
        "line": [
          "26 Main St"
        ],
        "city": "EDISON",
        "state": "NJ",
        "postalCode": "08837-3418"
      },
      {
        "line": [
          "3020 GORDON W SHELTON BLVD"
        ],
        "city": "FREDERICKSBURG",
        "state": "VA",
        "postalCode": "22401-5010"
      },
      {
        "line": [
          "3851 TOWNE BLVD"
        ],
        "city": "FRANKLIN",
        "state": "OH",
        "postalCode": "45005-5595"
      },
      {
        "line": [
          "1750 W HORIZON RIDGE PKWY"
        ],
        "city": "HENDERSON",
        "state": "NV",
        "postalCode": "89012-4833"
      },
      {
        "line": [
          "3800 W TOWN CENTER BLVD"
        ],
        "city": "ORLANDO",
        "state": "FL",
        "postalCode": "32837-6196"
      }
    ],
    "extension": [
      {
        "url": "https://fhir.athena.io/StructureDefinition/ah-practice",
        "valueReference": {
          "reference": "Organization/a-1.Practice-29107"
        }
      },
      {
        "url": "https://fhir.athena.io/StructureDefinition/ah-brand",
        "valueReference": {
          "reference": "Organization/a-29107.Brand-2"
        }
      }
    ]
  },
  "fullUrl": "urn:uuid:9d8366ae-bf06-597f-89c2-bd491765fbe9"
}