{
  "resource": {
    "resourceType": "Organization",
    "id": "406716e4-b1cb-5b64-94e4-717cb0afccd2",
    "name": "ALLIANCE HEALTHCARE SYSTEM",
    "endpoint": [
      {
        "reference": "Endpoint/27a4e967-47aa-5a9c-a572-b8297ee268a2"
      },
      {
        "reference": "Endpoint/8f8d3ef0-377c-5e31-bae4-566e596ac629"
      }
    ],
    "identifier": [
      {
        "system": "http://hl7.org/fhir/sid/us-npi",
        "value": "1730621624"
      },
      {
        "system": "http://hl7.org/fhir/sid/us-npi",
        "value": "1053346064"
      },
      {
        "system": "http://hl7.org/fhir/sid/us-npi",
        "value": "1093973836"
      },
      {
        "system": "http://hl7.org/fhir/sid/us-npi",
        "value": "1154589901"
      }
    ],
    "address": [
      {
        "line": [
          "1727 KIRBY PKWY #150"
        ],
        "city": "MEMPHIS",
        "state": "TN",
        "postalCode": "38120-8328"
      },
      {
        "line": [
          "3980 NEW COVINGTON PIKE"
        ],
        "city": "MEMPHIS",
        "state": "TN",
        "postalCode": "38128-2500"
      },
      {
        "line": [],
        "city": "HAYTI",
        "state": "MO",
        "postalCode": "63851-1242"
      },
      {
        "line": [
          "310 JUDGE SMITH DRIVE"
        ],
        "city": "MARION",
        "state": "AR",
        "postalCode": "72364-2220"
      },
      {
        "line": [
          "1430 HIGHWAY 4 EAST",
          "P O BOX 6000"
        ],
        "city": "HOLLY SPRINGS",
        "state": "MS",
        "postalCode": "38635-2140"
      },
      {
        "line": [
          "944 STATE HIGHWAY 77"
        ],
        "city": "MARION",
        "state": "AR",
        "postalCode": "72364-9004"
      },
      {
        "line": [
          "2100 N 7th street"
        ],
        "city": "WEST MEMPHIS",
        "state": "AR",
        "postalCode": "72301-1844"
      },
      {
        "line": [
          "6029 Walnut Grove Ste 300"
        ],
        "city": "MEMPHIS",
        "state": "TN",
        "postalCode": "38120-2112"
      },
      {
        "line": [
          "401 SOUTHCREST CIRCLE STE 103"
        ],
        "city": "SOUTHAVEN",
        "state": "MS",
        "postalCode": "38671-6726"
      },
      {
        "line": [
          "6029 WALNUT GROVE RD, STE 300"
        ],
        "city": "MEMPHIS",
        "state": "TN",
        "postalCode": "38120-2170"
      }
    ],
    "extension": [
      {
        "url": "https://fhir.athena.io/StructureDefinition/ah-practice",
        "valueReference": {
          "reference": "Organization/a-1.Practice-1407"
        }
      },
      {
        "url": "https://fhir.athena.io/StructureDefinition/ah-brand",
        "valueReference": {
          "reference": "Organization/a-1407.Brand-1"
        }
      }
    ]
  },
  "fullUrl": "urn:uuid:406716e4-b1cb-5b64-94e4-717cb0afccd2"
}