{
  "resource": {
    "resourceType": "Organization",
    "id": "4b320244-ccd2-565c-b940-63a781763b17",
    "name": "YMCA of Metropolitan Atlanta",
    "endpoint": [
      {
        "reference": "Endpoint/27a4e967-47aa-5a9c-a572-b8297ee268a2"
      },
      {
        "reference": "Endpoint/abb5f7d5-468e-5806-be46-fb2282afef02"
      }
    ],
    "identifier": [
      {
        "system": "http://hl7.org/fhir/sid/us-npi",
        "value": "1407306277"
      }
    ],
    "address": [
      {
        "line": [
          "5163 Thompson Bridge Rd."
        ],
        "city": "MURRAYVILLE",
        "state": "GA",
        "postalCode": "30564-1930"
      },
      {
        "line": [
          "1540 Monroe Drive"
        ],
        "city": "GAINESVILLE",
        "state": "GA",
        "postalCode": "30507-7317"
      },
      {
        "line": [
          "1055 E Piedmont Rd"
        ],
        "city": "MARIETTA",
        "state": "GA",
        "postalCode": "30062-4993"
      },
      {
        "line": [
          "1030 Delta Boulevard"
        ],
        "city": "ATLANTA",
        "state": "GA",
        "postalCode": "30354-1989"
      },
      {
        "line": [
          "3692 Ashford Dunwoody Rd NE"
        ],
        "city": "ATLANTA",
        "state": "GA",
        "postalCode": "30319-2077"
      },
      {
        "line": [
          "5600 W Jones Bridge Rd"
        ],
        "city": "PEACHTREE CORNERS",
        "state": "GA",
        "postalCode": "30092-2036"
      },
      {
        "line": [
          "100 Edgewood Ave NE Ste 1100"
        ],
        "city": "ATLANTA",
        "state": "GA",
        "postalCode": "30303-3026"
      },
      {
        "line": [
          "2985 Sugarloaf Pkwy"
        ],
        "city": "LAWRENCEVILLE",
        "state": "GA",
        "postalCode": "30045-8319"
      },
      {
        "line": [
          "3719 BC Grant Road"
        ],
        "city": "BALDWIN",
        "state": "GA",
        "postalCode": "30511-1234"
      },
      {
        "line": [
          "1100 Clairmont Ave"
        ],
        "city": "DECATUR",
        "state": "GA",
        "postalCode": "30030-1206"
      },
      {
        "line": [
          "124 Wayside Street"
        ],
        "city": "CORNELIA",
        "state": "GA",
        "postalCode": "30531-3554"
      },
      {
        "line": [
          "2565 Snapfinger Rd"
        ],
        "city": "DECATUR",
        "state": "GA",
        "postalCode": "30034-2320"
      },
      {
        "line": [
          "2220 Campbellton Rd SW"
        ],
        "city": "ATLANTA",
        "state": "GA",
        "postalCode": "30311-4608"
      },
      {
        "line": [
          "5605 Rockbridge Road"
        ],
        "city": "STONE MOUNTAIN",
        "state": "GA",
        "postalCode": "30088-1234"
      },
      {
        "line": [
          "151 Waleska St"
        ],
        "city": "CANTON",
        "state": "GA",
        "postalCode": "30114-2782"
      },
      {
        "line": [
          "1160 Moores Mill Rd NW"
        ],
        "city": "ATLANTA",
        "state": "GA",
        "postalCode": "30327-1646"
      },
      {
        "line": [
          "240 Constitution Blvd"
        ],
        "city": "DALLAS",
        "state": "GA",
        "postalCode": "30132-4614"
      },
      {
        "line": [
          "1765 E Highway 34"
        ],
        "city": "NEWNAN",
        "state": "GA",
        "postalCode": "30265-6411"
      },
      {
        "line": [
          "1700 Dennis Kemp Ln"
        ],
        "city": "KENNESAW",
        "state": "GA",
        "postalCode": "30152-3938"
      },
      {
        "line": [
          "275 East Lake Blvd SE"
        ],
        "city": "ATLANTA",
        "state": "GA",
        "postalCode": "30317-3109"
      },
      {
        "line": [
          "3010 Johnson Ferry Road"
        ],
        "city": "MARIETTA",
        "state": "GA",
        "postalCode": "30062-5654"
      },
      {
        "line": [
          "3655 Preston Ridge Rd"
        ],
        "city": "ALPHARETTA",
        "state": "GA",
        "postalCode": "30005-3824"
      },
      {
        "line": [
          "30000 Mill Creek Avenue",
          "Suite 250"
        ],
        "city": "ALPHARETTA",
        "state": "GA",
        "postalCode": "30022-1116"
      },
      {
        "line": [
          "1600 Pryor Road, SW"
        ],
        "city": "ATLANTA",
        "state": "GA",
        "postalCode": "30315-3702"
      }
    ],
    "extension": [
      {
        "url": "https://fhir.athena.io/StructureDefinition/ah-practice",
        "valueReference": {
          "reference": "Organization/a-1.Practice-14268"
        }
      },
      {
        "url": "https://fhir.athena.io/StructureDefinition/ah-brand",
        "valueReference": {
          "reference": "Organization/a-14268.Brand-1"
        }
      }
    ]
  },
  "fullUrl": "urn:uuid:4b320244-ccd2-565c-b940-63a781763b17"
}