{
  "resource": {
    "resourceType": "Organization",
    "id": "96e6e070-4770-509f-9b07-65abac63bff7",
    "name": "St. Peter's Health Partners",
    "endpoint": [
      {
        "reference": "Endpoint/27a4e967-47aa-5a9c-a572-b8297ee268a2"
      },
      {
        "reference": "Endpoint/e390e632-aa3f-567b-a157-2f27e7c66d9b"
      }
    ],
    "identifier": [
      {
        "system": "http://hl7.org/fhir/sid/us-npi",
        "value": "1750626834"
      },
      {
        "system": "http://hl7.org/fhir/sid/us-npi",
        "value": "1578664470"
      },
      {
        "system": "http://hl7.org/fhir/sid/us-npi",
        "value": "1346771193"
      },
      {
        "system": "http://hl7.org/fhir/sid/us-npi",
        "value": "1184161739"
      },
      {
        "system": "http://hl7.org/fhir/sid/us-npi",
        "value": "1801837539"
      },
      {
        "system": "http://hl7.org/fhir/sid/us-npi",
        "value": "1538606181"
      },
      {
        "system": "http://hl7.org/fhir/sid/us-npi",
        "value": "1497701106"
      },
      {
        "system": "http://hl7.org/fhir/sid/us-npi",
        "value": "1982141537"
      }
    ],
    "address": [
      {
        "line": [
          "319 S Manning Blvd Suite 304"
        ],
        "city": "ALBANY",
        "state": "NY",
        "postalCode": "12208-1744"
      },
      {
        "line": [
          "1270 Belmont Avenue"
        ],
        "city": "SCHENECTADY",
        "state": "NY",
        "postalCode": "12308-2104"
      },
      {
        "line": [
          "600 Northern Blvd"
        ],
        "city": "ALBANY",
        "state": "NY",
        "postalCode": "12204-1004"
      },
      {
        "line": [
          "600 Northern Blvd"
        ],
        "city": "ALBANY",
        "state": "NY",
        "postalCode": "12204-2715"
      },
      {
        "line": [
          "425 New Scotland Ave"
        ],
        "city": "ALBANY",
        "state": "NY",
        "postalCode": "12208-2726"
      },
      {
        "line": [
          "315 South Manning Blvd"
        ],
        "city": "ALBANY",
        "state": "NY",
        "postalCode": "12208-1707"
      },
      {
        "line": [
          "2215 Burdett Avenue"
        ],
        "city": "TROY",
        "state": "NY",
        "postalCode": "12180-2446"
      },
      {
        "line": [
          "2215 Burdett Avenue Suite 200"
        ],
        "city": "TROY",
        "state": "NY",
        "postalCode": "12180-2466"
      },
      {
        "line": [
          "1375 Washington Ave"
        ],
        "city": "ALBANY",
        "state": "NY",
        "postalCode": "12208-1744"
      },
      {
        "line": [
          "855 Rt 146"
        ],
        "city": "CLIFTON PARK",
        "state": "NY",
        "postalCode": "12065-2807"
      }
    ],
    "extension": [
      {
        "url": "https://fhir.athena.io/StructureDefinition/ah-practice",
        "valueReference": {
          "reference": "Organization/a-1.Practice-15557"
        }
      },
      {
        "url": "https://fhir.athena.io/StructureDefinition/ah-brand",
        "valueReference": {
          "reference": "Organization/a-15557.Brand-8"
        }
      }
    ]
  },
  "fullUrl": "urn:uuid:96e6e070-4770-509f-9b07-65abac63bff7"
}