{
  "resource": {
    "resourceType": "Organization",
    "id": "53f63c00-479b-5280-a9a8-d939c59b9451",
    "name": "AllStar Ortho",
    "endpoint": [
      {
        "reference": "Endpoint/27a4e967-47aa-5a9c-a572-b8297ee268a2"
      },
      {
        "reference": "Endpoint/14ce4b00-9567-5c5c-a03d-b279194efd12"
      }
    ],
    "identifier": [
      {
        "system": "http://hl7.org/fhir/sid/us-npi",
        "value": "1336134469"
      }
    ],
    "address": [
      {
        "line": [
          "1650 W College St"
        ],
        "city": "GRAPEVINE",
        "state": "TX",
        "postalCode": "76051-3565"
      },
      {
        "line": [
          "3101 N TARRANT PKWY"
        ],
        "city": "FORT WORTH",
        "state": "TX",
        "postalCode": "76177-8656"
      },
      {
        "line": [
          "4400 Long Prairie Rd"
        ],
        "city": "FLOWER MOUND",
        "state": "TX",
        "postalCode": "75028-1892"
      },
      {
        "line": [
          "2301 Marsh Ln"
        ],
        "city": "PLANO",
        "state": "TX",
        "postalCode": "75093-8497"
      },
      {
        "line": [
          "421 E State Hwy 114"
        ],
        "city": "SOUTHLAKE",
        "state": "TX",
        "postalCode": "76092-3635"
      },
      {
        "line": [
          "8111 MEADOW RD"
        ],
        "city": "DALLAS",
        "state": "TX",
        "postalCode": "75231-3514"
      },
      {
        "line": [
          "8194 Walnut Hill Ln"
        ],
        "city": "DALLAS",
        "state": "TX",
        "postalCode": "75231-4316"
      },
      {
        "line": [
          "10864 Texas Health Trl"
        ],
        "city": "KELLER",
        "state": "TX",
        "postalCode": "76244-4897"
      },
      {
        "line": [
          "1545 E Southlake Blvd"
        ],
        "city": "SOUTHLAKE",
        "state": "TX",
        "postalCode": "76092-6422"
      },
      {
        "line": [
          "6800 N MacArthur Blvd",
          "HWY 161"
        ],
        "city": "IRVING",
        "state": "TX",
        "postalCode": "75039-2422"
      },
      {
        "line": [
          "12228 N Central Expy",
          "Suite 100"
        ],
        "city": "DALLAS",
        "state": "TX",
        "postalCode": "75243-3728"
      },
      {
        "line": [
          "10840 Texas Health Trl"
        ],
        "city": "KELLER",
        "state": "TX",
        "postalCode": "76244-4897"
      },
      {
        "line": [
          "8900 Medical City Way"
        ],
        "city": "FORT WORTH",
        "state": "TX",
        "postalCode": "76177-2474"
      }
    ],
    "extension": [
      {
        "url": "https://fhir.athena.io/StructureDefinition/ah-practice",
        "valueReference": {
          "reference": "Organization/a-1.Practice-15749"
        }
      },
      {
        "url": "https://fhir.athena.io/StructureDefinition/ah-brand",
        "valueReference": {
          "reference": "Organization/a-15749.Brand-6"
        }
      }
    ]
  },
  "fullUrl": "urn:uuid:53f63c00-479b-5280-a9a8-d939c59b9451"
}