{
  "resource": {
    "resourceType": "Organization",
    "id": "03181fdc-d4b2-5dc8-aa80-0561ae6b4d6b",
    "name": "Gateway Region YMCA",
    "endpoint": [
      {
        "reference": "Endpoint/27a4e967-47aa-5a9c-a572-b8297ee268a2"
      },
      {
        "reference": "Endpoint/abb5f7d5-468e-5806-be46-fb2282afef02"
      }
    ],
    "identifier": [
      {
        "system": "http://hl7.org/fhir/sid/us-npi",
        "value": "1780131557"
      }
    ],
    "address": [
      {
        "line": [
          "7910 Manchester Rd"
        ],
        "city": "SAINT LOUIS",
        "state": "MO",
        "postalCode": "63143-2712"
      },
      {
        "line": [
          "700 Grace Parkway"
        ],
        "city": "FENTON",
        "state": "MO",
        "postalCode": "63026-5390"
      },
      {
        "line": [
          "600 Loughborough Ave"
        ],
        "city": "SAINT LOUIS",
        "state": "MO",
        "postalCode": "63111-2796"
      },
      {
        "line": [
          "326 South 21st Street"
        ],
        "city": "SAINT LOUIS",
        "state": "MO",
        "postalCode": "63103-2267"
      },
      {
        "line": [
          "500 Fountain Lakes Blvd"
        ],
        "city": "SAINT CHARLES",
        "state": "MO",
        "postalCode": "63301-4341"
      },
      {
        "line": [
          "3451 Pheasant Meadows Drive"
        ],
        "city": "O'FALLON",
        "state": "MO",
        "postalCode": "63368-7324"
      },
      {
        "line": [
          "326 s. 21st Street",
          "4th Floor"
        ],
        "city": "SAINT LOUIS",
        "state": "MO",
        "postalCode": "63103-2267"
      },
      {
        "line": [
          "1200 Clark Ave"
        ],
        "city": "SAINT LOUIS",
        "state": "MO",
        "postalCode": "63103-2801"
      },
      {
        "line": [
          "2627 Carlyle Ave"
        ],
        "city": "BELLEVILLE",
        "state": "IL",
        "postalCode": "62221-5882"
      },
      {
        "line": [
          "4300 Gravois Rd"
        ],
        "city": "HOUSE SPRINGS",
        "state": "MO",
        "postalCode": "63051-2304"
      },
      {
        "line": [
          "200 West Main Street"
        ],
        "city": "WASHINGTON",
        "state": "MO",
        "postalCode": "63090-2123"
      },
      {
        "line": [
          "14160 Jamestown Rd"
        ],
        "city": "BREESE",
        "state": "IL",
        "postalCode": "62230-3694"
      },
      {
        "line": [
          "1615 Vine School Rd"
        ],
        "city": "HERCULANEUM",
        "state": "MO",
        "postalCode": "63048-1590"
      },
      {
        "line": [
          "8000 Forsyth Blvd"
        ],
        "city": "SAINT LOUIS",
        "state": "MO",
        "postalCode": "63105-1707"
      },
      {
        "line": [
          "3451 Pheasant Meadows Dr"
        ],
        "city": "O'FALLON",
        "state": "MO",
        "postalCode": "63368-7324"
      },
      {
        "line": [
          "Campus Box 1076"
        ],
        "city": "SAINT LOUIS",
        "state": "MO",
        "postalCode": "63130-4862"
      },
      {
        "line": [
          "400 Grand Ave."
        ],
        "city": "WASHINGTON",
        "state": "MO",
        "postalCode": "63090-2531"
      },
      {
        "line": [
          "3150 Sublette Ave."
        ],
        "city": "SAINT LOUIS",
        "state": "MO",
        "postalCode": "63139-1467"
      },
      {
        "line": [
          "1303 YMCA Dr"
        ],
        "city": "FESTUS",
        "state": "MO",
        "postalCode": "63028-2617"
      },
      {
        "line": [
          "9514 Caring Way"
        ],
        "city": "COLUMBIA",
        "state": "IL",
        "postalCode": "62236-3470"
      },
      {
        "line": [
          "1801 Park 270 Drive",
          "suite 400"
        ],
        "city": "SAINT LOUIS",
        "state": "MO",
        "postalCode": "63146-4020"
      },
      {
        "line": [
          "900 N Tucker Blvd"
        ],
        "city": "SAINT LOUIS",
        "state": "MO",
        "postalCode": "63101-1069"
      },
      {
        "line": [
          "777 Casino Center Dr"
        ],
        "city": "MARYLAND HEIGHTS",
        "state": "MO",
        "postalCode": "63043-4821"
      },
      {
        "line": [
          "304 N Broadway"
        ],
        "city": "SAINT LOUIS",
        "state": "MO",
        "postalCode": "63102-2002"
      },
      {
        "line": [
          "16464 Burkhardt Place"
        ],
        "city": "CHESTERFIELD",
        "state": "MO",
        "postalCode": "63017-4660"
      },
      {
        "line": [
          "1528 Locust Street"
        ],
        "city": "SAINT LOUIS",
        "state": "MO",
        "postalCode": "63103-1816"
      },
      {
        "line": [
          "3390 Pershall Road"
        ],
        "city": "SAINT LOUIS",
        "state": "MO",
        "postalCode": "63135-1407"
      },
      {
        "line": [
          "5555 Page Blvd"
        ],
        "city": "SAINT LOUIS",
        "state": "MO",
        "postalCode": "63112-4111"
      },
      {
        "line": [
          "20 Archbishop May Dr"
        ],
        "city": "SAINT LOUIS",
        "state": "MO",
        "postalCode": "63119-5738"
      },
      {
        "line": [
          "2641 Highway 109"
        ],
        "city": "GROVER",
        "state": "MO",
        "postalCode": "63040-1106"
      },
      {
        "line": [
          "12999 St. Charles Rock Rd"
        ],
        "city": "BRIDGETON",
        "state": "MO",
        "postalCode": "63044-2419"
      },
      {
        "line": [
          "325 North Taylor Avenue"
        ],
        "city": "SAINT LOUIS",
        "state": "MO",
        "postalCode": "63122-4411"
      },
      {
        "line": [
          "451 Niedringhaus Ave."
        ],
        "city": "GRANITE CITY",
        "state": "IL",
        "postalCode": "62040-4514"
      },
      {
        "line": [
          "175 Edgar Rd",
          "university center"
        ],
        "city": "SAINT LOUIS",
        "state": "MO",
        "postalCode": "63119-3227"
      },
      {
        "line": [
          "424 Lebanon Avenue"
        ],
        "city": "BELLEVILLE",
        "state": "IL",
        "postalCode": "62220-4127"
      },
      {
        "line": [
          "945 Hornet Drive"
        ],
        "city": "HAZELWOOD",
        "state": "MO",
        "postalCode": "63042-2309"
      },
      {
        "line": [
          "930 Holly Hills"
        ],
        "city": "SAINT LOUIS",
        "state": "MO",
        "postalCode": "63111-2601"
      },
      {
        "line": [
          "1 Town Center Dr"
        ],
        "city": "MARYVILLE",
        "state": "IL",
        "postalCode": "62062-5402"
      },
      {
        "line": [
          "3900 Shady Springs Lane"
        ],
        "city": "SAINT PETERS",
        "state": "MO",
        "postalCode": "63376-6467"
      },
      {
        "line": [
          "1901 Chouteau Ave"
        ],
        "city": "SAINT LOUIS",
        "state": "MO",
        "postalCode": "63103-3003"
      },
      {
        "line": [
          "10 S Broadway",
          "Suite 2000"
        ],
        "city": "SAINT LOUIS",
        "state": "MO",
        "postalCode": "63102-1747"
      },
      {
        "line": [
          "13528 State Hwy AA"
        ],
        "city": "POTOSI",
        "state": "MO",
        "postalCode": "63664-9802"
      },
      {
        "line": [
          "4343 W Florissant Ave."
        ],
        "city": "SAINT LOUIS",
        "state": "MO",
        "postalCode": "63115-3151"
      },
      {
        "line": [
          "1 Town Center Drive"
        ],
        "city": "MARYVILLE",
        "state": "IL",
        "postalCode": "62062-5402"
      },
      {
        "line": [
          "1900 Urban Dr"
        ],
        "city": "SAINT LOUIS",
        "state": "MO",
        "postalCode": "63144-1824"
      },
      {
        "line": [
          "3000 Little Hills Expressway",
          "suite 102"
        ],
        "city": "SAINT CHARLES",
        "state": "MO",
        "postalCode": "63301-3724"
      },
      {
        "line": [
          "200 South Illinois Street"
        ],
        "city": "BELLEVILLE",
        "state": "IL",
        "postalCode": "62220-2132"
      },
      {
        "line": [
          "226 E Lockwood Ave"
        ],
        "city": "SAINT LOUIS",
        "state": "MO",
        "postalCode": "63119-3005"
      },
      {
        "line": [
          "12521 Marine Ave."
        ],
        "city": "SAINT LOUIS",
        "state": "MO",
        "postalCode": "63146-2411"
      },
      {
        "line": [
          "1321 South 11th Street"
        ],
        "city": "SAINT LOUIS",
        "state": "MO",
        "postalCode": "63104-3530"
      },
      {
        "line": [
          "284 North Seven Hills Rd"
        ],
        "city": "O'FALLON",
        "state": "IL",
        "postalCode": "62269-4125"
      },
      {
        "line": [
          "3050 Spruce St"
        ],
        "city": "SAINT LOUIS",
        "state": "MO",
        "postalCode": "63103-2530"
      },
      {
        "line": [
          "130 South Oak Street"
        ],
        "city": "RED BUD",
        "state": "IL",
        "postalCode": "62278-1112"
      },
      {
        "line": [
          "3500 DeKalb Street"
        ],
        "city": "SAINT LOUIS",
        "state": "MO",
        "postalCode": "63118-4103"
      },
      {
        "line": [
          "800 N Lindbergh Rd"
        ],
        "city": "SAINT LOUIS",
        "state": "MO",
        "postalCode": "63141-7843"
      },
      {
        "line": [
          "575 Maryville Centre Drive"
        ],
        "city": "SAINT LOUIS",
        "state": "MO",
        "postalCode": "63141-5813"
      },
      {
        "line": [
          "12736 Southfork Road"
        ],
        "city": "SAINT LOUIS",
        "state": "MO",
        "postalCode": "63128-3262"
      }
    ],
    "extension": [
      {
        "url": "https://fhir.athena.io/StructureDefinition/ah-practice",
        "valueReference": {
          "reference": "Organization/a-1.Practice-14268"
        }
      },
      {
        "url": "https://fhir.athena.io/StructureDefinition/ah-brand",
        "valueReference": {
          "reference": "Organization/a-14268.Brand-1"
        }
      }
    ]
  },
  "fullUrl": "urn:uuid:03181fdc-d4b2-5dc8-aa80-0561ae6b4d6b"
}