{
  "resource": {
    "resourceType": "Organization",
    "id": "f89ab06a-7d93-5b27-84bd-5e2ba1911668",
    "name": "Avamere Court at Keizer",
    "endpoint": [
      {
        "reference": "Endpoint/27a4e967-47aa-5a9c-a572-b8297ee268a2"
      },
      {
        "reference": "Endpoint/b8a78e63-8764-54d3-a296-3bc676b80990"
      }
    ],
    "identifier": [
      {
        "system": "http://hl7.org/fhir/sid/us-npi",
        "value": "1790740520"
      },
      {
        "system": "http://hl7.org/fhir/sid/us-npi",
        "value": "1679537252"
      }
    ],
    "address": [
      {
        "line": [
          "1309 NE 27th St."
        ],
        "city": "MCMINNVILLE",
        "state": "OR",
        "postalCode": "97128-2305"
      },
      {
        "line": [
          "2855 NE Cumulus Ave"
        ],
        "city": "MCMINNVILLE",
        "state": "OR",
        "postalCode": "97128-8864"
      },
      {
        "line": [
          "15600 Rock of Ages Rd"
        ],
        "city": "MCMINNVILLE",
        "state": "OR",
        "postalCode": "97128-8531"
      },
      {
        "line": [
          "5210 RIVER RD N"
        ],
        "city": "SALEM",
        "state": "OR",
        "postalCode": "97303-4568"
      },
      {
        "line": [
          "2145 NW West Wind Dr"
        ],
        "city": "MCMINNVILLE",
        "state": "OR",
        "postalCode": "97128-7039"
      },
      {
        "line": [
          "775 NE 27th Street"
        ],
        "city": "MCMINNVILLE",
        "state": "OR",
        "postalCode": "97128-2157"
      },
      {
        "line": [
          "345 SW Hill Road"
        ],
        "city": "MCMINNVILLE",
        "state": "OR",
        "postalCode": "97128-9855"
      },
      {
        "line": [
          "721 NE 27th St."
        ],
        "city": "MCMINNVILLE",
        "state": "OR",
        "postalCode": "97128-2157"
      },
      {
        "line": [
          "2700 SE Stratus Ave"
        ],
        "city": "MCMINNVILLE",
        "state": "OR",
        "postalCode": "97128-6239"
      }
    ],
    "extension": [
      {
        "url": "https://fhir.athena.io/StructureDefinition/ah-practice",
        "valueReference": {
          "reference": "Organization/a-1.Practice-1814"
        }
      },
      {
        "url": "https://fhir.athena.io/StructureDefinition/ah-brand",
        "valueReference": {
          "reference": "Organization/a-1814.Brand-5"
        }
      }
    ]
  },
  "fullUrl": "urn:uuid:f89ab06a-7d93-5b27-84bd-5e2ba1911668"
}