{
  "resource": {
    "resourceType": "Organization",
    "id": "2c87c998-8da2-5a6b-a40c-1a2e6f454cab",
    "name": "Associates in Nephrology",
    "endpoint": [
      {
        "reference": "Endpoint/27a4e967-47aa-5a9c-a572-b8297ee268a2"
      },
      {
        "reference": "Endpoint/8d6c5a7c-1b8b-54ac-a0d3-7da3eaeed789"
      }
    ],
    "identifier": [
      {
        "system": "http://hl7.org/fhir/sid/us-npi",
        "value": "1003290453"
      }
    ],
    "address": [
      {
        "line": [
          "1908 S BERETANIA ST"
        ],
        "city": "HONOLULU",
        "state": "HI",
        "postalCode": "96826-1308"
      },
      {
        "line": [
          "1401 E BROADWAY ST"
        ],
        "city": "ALTUS",
        "state": "OK",
        "postalCode": "73521-5705"
      },
      {
        "line": [
          "8556 N WAYNE DR"
        ],
        "city": "HAYDEN",
        "state": "ID",
        "postalCode": "83835-5068"
      },
      {
        "line": [
          "4343 PAN AMERICAN FWY NE STE 236"
        ],
        "city": "ALBUQUERQUE",
        "state": "NM",
        "postalCode": "87107-6834"
      },
      {
        "line": [
          "555 FARRINGTON HWY"
        ],
        "city": "KAPOLEI",
        "state": "HI",
        "postalCode": "96707-2001"
      },
      {
        "line": [
          "7964 TRANSIT RD STE 8-A"
        ],
        "city": "BUFFALO",
        "state": "NY",
        "postalCode": "14221-4117"
      },
      {
        "line": [
          "6800 SHOPPES AT PLANTATION DR STE 100"
        ],
        "city": "FORT MYERS",
        "state": "FL",
        "postalCode": "33912-4550"
      },
      {
        "line": [
          "8911 LAKEWOOD DRIVE",
          "Suite 16"
        ],
        "city": "WINDSOR",
        "state": "CA",
        "postalCode": "95492-7857"
      },
      {
        "line": [
          "1921 WALDEMERE ST STE 107"
        ],
        "city": "SARASOTA",
        "state": "FL",
        "postalCode": "34239-2941"
      },
      {
        "line": [
          "3251 S WHITE RD STE 10"
        ],
        "city": "SAN JOSE",
        "state": "CA",
        "postalCode": "95148-4056"
      },
      {
        "line": [
          "3400 NW CENTRE DR"
        ],
        "city": "FORT WORTH",
        "state": "TX",
        "postalCode": "76135-3629"
      },
      {
        "line": [
          "2000 S EL CAMINO REAL FL 2"
        ],
        "city": "SAN MATEO",
        "state": "CA",
        "postalCode": "94403-1805"
      },
      {
        "line": [
          "608 E ORANGEBURG AVE"
        ],
        "city": "MODESTO",
        "state": "CA",
        "postalCode": "95350-5513"
      },
      {
        "line": [
          "2700 IMMOKALEE RD STE 22"
        ],
        "city": "NAPLES",
        "state": "FL",
        "postalCode": "34110-1436"
      },
      {
        "line": [
          "1760 PRAIRIE AVE"
        ],
        "city": "CHEYENNE",
        "state": "WY",
        "postalCode": "82009-4832"
      },
      {
        "line": [
          "2200 PLAZA PKWY # SUITES"
        ],
        "city": "MODESTO",
        "state": "CA",
        "postalCode": "95350-6222"
      },
      {
        "line": [
          "5000 BAPTIST HEALTH DR STE 124B"
        ],
        "city": "SCHERTZ",
        "state": "TX",
        "postalCode": "78154-1193"
      },
      {
        "line": [
          "4207 BANGS AVE",
          "Suite 100"
        ],
        "city": "MODESTO",
        "state": "CA",
        "postalCode": "95356-8714"
      },
      {
        "line": [
          "203 W RANDOL MILL RD"
        ],
        "city": "ARLINGTON",
        "state": "TX",
        "postalCode": "76011-5857"
      },
      {
        "line": [
          "2001 JUNIPERO SERRA BLVD",
          "Suite 100"
        ],
        "city": "DALY CITY",
        "state": "CA",
        "postalCode": "94014-3891"
      },
      {
        "line": [
          "601 S MAIN ST STE 120"
        ],
        "city": "KELLER",
        "state": "TX",
        "postalCode": "76248-7029"
      },
      {
        "line": [
          "725 HOSPITAL DR"
        ],
        "city": "GALLUP",
        "state": "NM",
        "postalCode": "87301-5611"
      },
      {
        "line": [
          "3300 PROVIDENCE DR STE 201"
        ],
        "city": "ANCHORAGE",
        "state": "AK",
        "postalCode": "99508-4620"
      },
      {
        "line": [
          "1595 S MAIN ST STE 107"
        ],
        "city": "BOERNE",
        "state": "TX",
        "postalCode": "78006-3329"
      },
      {
        "line": [
          "1301 E RIDGE RD"
        ],
        "city": "MCALLEN",
        "state": "TX",
        "postalCode": "78503-1617"
      },
      {
        "line": [
          "1100 E PARK ST"
        ],
        "city": "HOLLISTER",
        "state": "CA",
        "postalCode": "95023-5198"
      },
      {
        "line": [
          "8119 S FLORES ST"
        ],
        "city": "SAN ANTONIO",
        "state": "TX",
        "postalCode": "78221-3019"
      },
      {
        "line": [
          "4602 BENCHA DR"
        ],
        "city": "LAREDO",
        "state": "TX",
        "postalCode": "78043-9701"
      },
      {
        "line": [
          "9725 HOMESTEAD RD"
        ],
        "city": "HOUSTON",
        "state": "TX",
        "postalCode": "77016-4403"
      },
      {
        "line": [
          "11343 N CENTRAL EXPY"
        ],
        "city": "DALLAS",
        "state": "TX",
        "postalCode": "75243-6703"
      },
      {
        "line": [
          "215 N SAN SABA STE 101"
        ],
        "city": "SAN ANTONIO",
        "state": "TX",
        "postalCode": "78207-3121"
      },
      {
        "line": [
          "946 BLUEBONNET DR"
        ],
        "city": "STEPHENVILLE",
        "state": "TX",
        "postalCode": "76401-1764"
      },
      {
        "line": [
          "504 SANTA FE DR"
        ],
        "city": "WEATHERFORD",
        "state": "TX",
        "postalCode": "76086-6503"
      },
      {
        "line": [
          "250 E AMADOR AVE"
        ],
        "city": "LAS CRUCES",
        "state": "NM",
        "postalCode": "88001-3660"
      },
      {
        "line": [
          "94-1042 KA UKA BLVD"
        ],
        "city": "WAIPAHU",
        "state": "HI",
        "postalCode": "96797-6209"
      },
      {
        "line": [
          "2401 E ORANGEBURG AVE STE 340"
        ],
        "city": "MODESTO",
        "state": "CA",
        "postalCode": "95355-3396"
      },
      {
        "line": [
          "409 LINDBERG AVE"
        ],
        "city": "MCALLEN",
        "state": "TX",
        "postalCode": "78501-2921"
      },
      {
        "line": [
          "1040 HAMILTON CT"
        ],
        "city": "MENLO PARK",
        "state": "CA",
        "postalCode": "94025-1423"
      },
      {
        "line": [
          "6120 SCOTT ST STE F"
        ],
        "city": "HOUSTON",
        "state": "TX",
        "postalCode": "77021-2698"
      },
      {
        "line": [
          "91 PERIMETER RD STE 140"
        ],
        "city": "ROME",
        "state": "NY",
        "postalCode": "13441-4018"
      },
      {
        "line": [
          "850 EAGLERIDGE BLVD"
        ],
        "city": "PUEBLO",
        "state": "CO",
        "postalCode": "81008-2148"
      },
      {
        "line": [
          "2055 N KING ST"
        ],
        "city": "HONOLULU",
        "state": "HI",
        "postalCode": "96819-3479"
      },
      {
        "line": [
          "4015 LAKE OTIS PKWY STE 101"
        ],
        "city": "ANCHORAGE",
        "state": "AK",
        "postalCode": "99508-5235"
      },
      {
        "line": [
          "205 KENWOOD WAY"
        ],
        "city": "SOUTH SAN FRANCISCO",
        "state": "CA",
        "postalCode": "94080-5737"
      },
      {
        "line": [
          "1675 BENNETT ST"
        ],
        "city": "UTICA",
        "state": "NY",
        "postalCode": "13502-5390"
      },
      {
        "line": [
          "3250 W PLEASANT RUN RD STE 280"
        ],
        "city": "LANCASTER",
        "state": "TX",
        "postalCode": "75146-1067"
      },
      {
        "line": [
          "201 E STATE ST"
        ],
        "city": "HERKIMER",
        "state": "NY",
        "postalCode": "13350-2389"
      },
      {
        "line": [
          "2001 JUNIPERO SERRA BLVD STE 535"
        ],
        "city": "DALY CITY",
        "state": "CA",
        "postalCode": "94014-3889"
      },
      {
        "line": [
          "501 COLLEGE AVE STE 100"
        ],
        "city": "FORT WORTH",
        "state": "TX",
        "postalCode": "76104-2271"
      },
      {
        "line": [
          "1405 W F ST",
          "Suite B"
        ],
        "city": "OAKDALE",
        "state": "CA",
        "postalCode": "95361-3573"
      },
      {
        "line": [
          "2425 HIGHWAY 121 STE 201"
        ],
        "city": "BEDFORD",
        "state": "TX",
        "postalCode": "76021-5083"
      },
      {
        "line": [
          "4420 HERITAGE TRACE PKWY STE 312"
        ],
        "city": "KELLER",
        "state": "TX",
        "postalCode": "76244-8904"
      },
      {
        "line": [
          "100 W HUNTINGTON ST"
        ],
        "city": "BEEVILLE",
        "state": "TX",
        "postalCode": "78102-3324"
      },
      {
        "line": [
          "4302 E SESAME DR"
        ],
        "city": "HARLINGEN",
        "state": "TX",
        "postalCode": "78550-7981"
      },
      {
        "line": [
          "1125 INDUSTRIAL ROAD",
          "Suite G"
        ],
        "city": "SAN CARLOS",
        "state": "CA",
        "postalCode": "94070-4159"
      },
      {
        "line": [
          "7831 WESTCHASE"
        ],
        "city": "SAN ANTONIO",
        "state": "TX",
        "postalCode": "78240-2976"
      },
      {
        "line": [
          "1900 S JACKSON RD STE 12"
        ],
        "city": "MCALLEN",
        "state": "TX",
        "postalCode": "78503-1589"
      },
      {
        "line": [
          "305 E GRANGER AVE",
          "Suite 102"
        ],
        "city": "MODESTO",
        "state": "CA",
        "postalCode": "95350-4345"
      },
      {
        "line": [
          "7981 GLADIOLUS DR"
        ],
        "city": "FORT MYERS",
        "state": "FL",
        "postalCode": "33908-4154"
      },
      {
        "line": [
          "4201 E BERRY ST STE 8"
        ],
        "city": "FORT WORTH",
        "state": "TX",
        "postalCode": "76105-5052"
      },
      {
        "line": [
          "10 EATON ST"
        ],
        "city": "HAMILTON",
        "state": "NY",
        "postalCode": "13346-1124"
      },
      {
        "line": [
          "301 S LAKE ST STE B"
        ],
        "city": "FARMINGTON",
        "state": "NM",
        "postalCode": "87401-5603"
      },
      {
        "line": [
          "94-862 KAHUAILANI ST"
        ],
        "city": "WAIPAHU",
        "state": "HI",
        "postalCode": "96797-3341"
      },
      {
        "line": [
          "821 STATE ROAD 44"
        ],
        "city": "NEW SMYRNA BEACH",
        "state": "FL",
        "postalCode": "32168-7271"
      },
      {
        "line": [
          "3330 N GALLOWAY AVE STE 160"
        ],
        "city": "MESQUITE",
        "state": "TX",
        "postalCode": "75150-4701"
      },
      {
        "line": [
          "1700 KEYSTONE PACIFIC PKWY UNIT A1"
        ],
        "city": "PATTERSON",
        "state": "CA",
        "postalCode": "95363-8874"
      },
      {
        "line": [
          "11255 GARLAND RD STE 1160"
        ],
        "city": "DALLAS",
        "state": "TX",
        "postalCode": "75218-2573"
      },
      {
        "line": [
          "1300 S BRYAN RD STE 107"
        ],
        "city": "MISSION",
        "state": "TX",
        "postalCode": "78572-6688"
      },
      {
        "line": [
          "6450 BRENTWOOD STAIR RD"
        ],
        "city": "FORT WORTH",
        "state": "TX",
        "postalCode": "76112-3239"
      },
      {
        "line": [
          "1315 10TH ST STE 100"
        ],
        "city": "MODESTO",
        "state": "CA",
        "postalCode": "95354-0721"
      },
      {
        "line": [
          "347 N KUAKINI ST"
        ],
        "city": "HONOLULU",
        "state": "HI",
        "postalCode": "96817-2306"
      },
      {
        "line": [
          "8095 CAMINO ARROYO STE 100"
        ],
        "city": "GILROY",
        "state": "CA",
        "postalCode": "95020-7304"
      },
      {
        "line": [
          "2861 HARLEM RD"
        ],
        "city": "BUFFALO",
        "state": "NY",
        "postalCode": "14225-3038"
      },
      {
        "line": [
          "1620 E CAPITOL EXPY"
        ],
        "city": "SAN JOSE",
        "state": "CA",
        "postalCode": "95121-1860"
      },
      {
        "line": [
          "1315 10TH ST",
          "Suite 300"
        ],
        "city": "MODESTO",
        "state": "CA",
        "postalCode": "95354-0714"
      },
      {
        "line": [
          "2721 DOBIE DR"
        ],
        "city": "PLANO",
        "state": "TX",
        "postalCode": "75074-5325"
      },
      {
        "line": [
          "1166 POST ST STE 201"
        ],
        "city": "SAN FRANCISCO",
        "state": "CA",
        "postalCode": "94109-5505"
      },
      {
        "line": [
          "480 N 100 E STE 100"
        ],
        "city": "LOGAN",
        "state": "UT",
        "postalCode": "84321-6674"
      },
      {
        "line": [
          "100 E HOUSE ST"
        ],
        "city": "ALVIN",
        "state": "TX",
        "postalCode": "77511-3542"
      },
      {
        "line": [
          "1914 CAROLINE ST"
        ],
        "city": "HOUSTON",
        "state": "TX",
        "postalCode": "77002-8210"
      },
      {
        "line": [
          "4411 W GORE BLVD STE B3"
        ],
        "city": "LAWTON",
        "state": "OK",
        "postalCode": "73505-5977"
      },
      {
        "line": [
          "360 BONIFACE PKWY UNIT A11"
        ],
        "city": "ANCHORAGE",
        "state": "AK",
        "postalCode": "99504-4904"
      },
      {
        "line": [
          "6265 COMMERCE BLVD",
          "Suite 156"
        ],
        "city": "ROHNERT PARK",
        "state": "CA",
        "postalCode": "94928-6300"
      },
      {
        "line": [
          "155 N WOLFE RD"
        ],
        "city": "SUNNYVALE",
        "state": "CA",
        "postalCode": "94086-5212"
      },
      {
        "line": [
          "205 22ND ST"
        ],
        "city": "HONDO",
        "state": "TX",
        "postalCode": "78861-2520"
      },
      {
        "line": [
          "1450 KOOSER RD"
        ],
        "city": "SAN JOSE",
        "state": "CA",
        "postalCode": "95118-3428"
      },
      {
        "line": [
          "924 SW 38TH ST"
        ],
        "city": "LAWTON",
        "state": "OK",
        "postalCode": "73505-7021"
      },
      {
        "line": [
          "1700 CALIFORNIA STREET",
          "Suite 260"
        ],
        "city": "SAN FRANCISCO",
        "state": "CA",
        "postalCode": "94109-4588"
      },
      {
        "line": [
          "2336 SURFSIDE BLVD STE 117"
        ],
        "city": "CAPE CORAL",
        "state": "FL",
        "postalCode": "33991-3176"
      },
      {
        "line": [
          "8740 MEDICAL CITY WAY"
        ],
        "city": "FORT WORTH",
        "state": "TX",
        "postalCode": "76177-2414"
      },
      {
        "line": [
          "4108 W 15TH ST STE 100"
        ],
        "city": "PLANO",
        "state": "TX",
        "postalCode": "75093-5849"
      },
      {
        "line": [
          "1320 SE 8TH ST"
        ],
        "city": "CAPE CORAL",
        "state": "FL",
        "postalCode": "33990-2952"
      },
      {
        "line": [
          "200 S RIVERSHIRE DR STE 100"
        ],
        "city": "CONROE",
        "state": "TX",
        "postalCode": "77304-3485"
      },
      {
        "line": [
          "756 N MAIN ST"
        ],
        "city": "LAYTON",
        "state": "UT",
        "postalCode": "84041-2233"
      },
      {
        "line": [
          "5127 GRANBURY RD"
        ],
        "city": "FORT WORTH",
        "state": "TX",
        "postalCode": "76133-2017"
      },
      {
        "line": [
          "1621 N CENTRAL EXPY STE 200"
        ],
        "city": "RICHARDSON",
        "state": "TX",
        "postalCode": "75080-3504"
      },
      {
        "line": [
          "1450 S WHITE RD",
          "Suite 30"
        ],
        "city": "SAN JOSE",
        "state": "CA",
        "postalCode": "95127-4798"
      },
      {
        "line": [
          "400 E EDINBURG AVE"
        ],
        "city": "ELSA",
        "state": "TX",
        "postalCode": "78543-3007"
      },
      {
        "line": [
          "200 JOSE FIGUERES AVE STE 255"
        ],
        "city": "SAN JOSE",
        "state": "CA",
        "postalCode": "95116-1589"
      },
      {
        "line": [
          "226 N KUAKINI ST"
        ],
        "city": "HONOLULU",
        "state": "HI",
        "postalCode": "96817-2421"
      },
      {
        "line": [
          "200 W MILE 2 RD"
        ],
        "city": "MISSION",
        "state": "TX",
        "postalCode": "78574-2160"
      },
      {
        "line": [
          "1520 LILIHA ST"
        ],
        "city": "HONOLULU",
        "state": "HI",
        "postalCode": "96817-3562"
      },
      {
        "line": [
          "2787 PHARMACY RD"
        ],
        "city": "RIO GRANDE CITY",
        "state": "TX",
        "postalCode": "78582-6201"
      },
      {
        "line": [
          "1038 E HIGHWAY 67"
        ],
        "city": "DUNCANVILLE",
        "state": "TX",
        "postalCode": "75137-2704"
      },
      {
        "line": [
          "1750 EL CAMINO REAL STE 15"
        ],
        "city": "BURLINGAME",
        "state": "CA",
        "postalCode": "94010-3208"
      },
      {
        "line": [
          "501 COLLEGE AVE STE 200"
        ],
        "city": "FORT WORTH",
        "state": "TX",
        "postalCode": "76104-2272"
      },
      {
        "line": [
          "2381 E SUNNYSIDE RD"
        ],
        "city": "IDAHO FALLS",
        "state": "ID",
        "postalCode": "83404-7521"
      },
      {
        "line": [
          "9219 STELLA LINK RD"
        ],
        "city": "HOUSTON",
        "state": "TX",
        "postalCode": "77025-3902"
      },
      {
        "line": [
          "650 CARONDELET DR STE A"
        ],
        "city": "KANSAS CITY",
        "state": "MO",
        "postalCode": "64114-4672"
      },
      {
        "line": [
          "2916 WOODRIDGE DR"
        ],
        "city": "HOUSTON",
        "state": "TX",
        "postalCode": "77087-2514"
      },
      {
        "line": [
          "98-1005 MOANALUA RD"
        ],
        "city": "AIEA",
        "state": "HI",
        "postalCode": "96701-4777"
      },
      {
        "line": [
          "305 E GRANGER AVE STE 202"
        ],
        "city": "MODESTO",
        "state": "CA",
        "postalCode": "95350-4344"
      },
      {
        "line": [
          "1662 N 2ND ST"
        ],
        "city": "CLINTON",
        "state": "MO",
        "postalCode": "64735-1141"
      },
      {
        "line": [
          "230 KNOLLWOOD DR"
        ],
        "city": "SAN ANTONIO",
        "state": "TX",
        "postalCode": "78227-4427"
      },
      {
        "line": [
          "PO BOX 467",
          "20 D AVENUE"
        ],
        "city": "ZUNI",
        "state": "NM",
        "postalCode": "87327-0467"
      },
      {
        "line": [
          "2675 WINKLER AVE STE 130"
        ],
        "city": "FORT MYERS",
        "state": "FL",
        "postalCode": "33901-9362"
      },
      {
        "line": [
          "801 E BORDER ST STE 201"
        ],
        "city": "ARLINGTON",
        "state": "TX",
        "postalCode": "76010-7494"
      },
      {
        "line": [
          "8181 N STADIUM DR STE 200"
        ],
        "city": "HOUSTON",
        "state": "TX",
        "postalCode": "77054-1848"
      },
      {
        "line": [
          "2585 SOUTH RD STE 15"
        ],
        "city": "POUGHKEEPSIE",
        "state": "NY",
        "postalCode": "12601-7001"
      },
      {
        "line": [
          "600 N KOBAYASHI STE 312"
        ],
        "city": "WEBSTER",
        "state": "TX",
        "postalCode": "77598-4841"
      },
      {
        "line": [
          "3980 SHERIDAN DR"
        ],
        "city": "BUFFALO",
        "state": "NY",
        "postalCode": "14226-1727"
      },
      {
        "line": [
          "2011 E HOUSTON ST STE 102D"
        ],
        "city": "SAN ANTONIO",
        "state": "TX",
        "postalCode": "78202-2916"
      },
      {
        "line": [
          "1320 W OAKLAWN RD STE G&H"
        ],
        "city": "PLEASANTON",
        "state": "TX",
        "postalCode": "78064-4316"
      },
      {
        "line": [
          "609 E YOUNG AVE"
        ],
        "city": "WARRENSBURG",
        "state": "MO",
        "postalCode": "64093-9609"
      },
      {
        "line": [
          "3950 LAUREL ST"
        ],
        "city": "ANCHORAGE",
        "state": "AK",
        "postalCode": "99508-5366"
      },
      {
        "line": [
          "215 N SAN SABA STE 314"
        ],
        "city": "SAN ANTONIO",
        "state": "TX",
        "postalCode": "78207-3164"
      },
      {
        "line": [
          "3161 EGGERT RD"
        ],
        "city": "TONAWANDA",
        "state": "NY",
        "postalCode": "14150-7156"
      },
      {
        "line": [
          "393 BLOSSOM HILL RD",
          "Suite 110"
        ],
        "city": "SAN JOSE",
        "state": "CA",
        "postalCode": "95123-1652"
      },
      {
        "line": [
          "4345 HARRISON BLVD STE 100"
        ],
        "city": "OGDEN",
        "state": "UT",
        "postalCode": "84403-3103"
      },
      {
        "line": [
          "5729 BRYANT IRVIN RD"
        ],
        "city": "FORT WORTH",
        "state": "TX",
        "postalCode": "76132-4024"
      },
      {
        "line": [
          "9109 MENDENHALL MALL RD STE 6"
        ],
        "city": "JUNEAU",
        "state": "AK",
        "postalCode": "99801-7136"
      },
      {
        "line": [
          "47-388 HUI IWA ST"
        ],
        "city": "KANEOHE",
        "state": "HI",
        "postalCode": "96744-4428"
      },
      {
        "line": [
          "24006 HIGHWAY 59 N"
        ],
        "city": "KINGWOOD",
        "state": "TX",
        "postalCode": "77339-1536"
      },
      {
        "line": [
          "11161 SHADOW CREEK PKWY STE 101"
        ],
        "city": "PEARLAND",
        "state": "TX",
        "postalCode": "77584-7226"
      },
      {
        "line": [
          "9397 CROWN CREST BLVD STE 401"
        ],
        "city": "PARKER",
        "state": "CO",
        "postalCode": "80138-8789"
      },
      {
        "line": [
          "3321 E RENNER RD STE 100"
        ],
        "city": "RICHARDSON",
        "state": "TX",
        "postalCode": "75082-1805"
      },
      {
        "line": [
          "6801 MCPHERSON RD STE 223"
        ],
        "city": "LAREDO",
        "state": "TX",
        "postalCode": "78041-6403"
      },
      {
        "line": [
          "3417 GASTON AVE STE 180"
        ],
        "city": "DALLAS",
        "state": "TX",
        "postalCode": "75246-2024"
      },
      {
        "line": [
          "400 E STATE HIGHWAY 243"
        ],
        "city": "CANTON",
        "state": "TX",
        "postalCode": "75103-2443"
      },
      {
        "line": [
          "1863 AIRPORT WAY"
        ],
        "city": "FAIRBANKS",
        "state": "AK",
        "postalCode": "99701-4007"
      },
      {
        "line": [
          "11212 STATE HIGHWAY 151 STE 100"
        ],
        "city": "SAN ANTONIO",
        "state": "TX",
        "postalCode": "78251-4500"
      },
      {
        "line": [
          "1006 N CARRIER PKWY"
        ],
        "city": "GRAND PRAIRIE",
        "state": "TX",
        "postalCode": "75050-3301"
      },
      {
        "line": [
          "1525 MERIDIAN AVE",
          "suite 101"
        ],
        "city": "SAN JOSE",
        "state": "CA",
        "postalCode": "95125-5354"
      },
      {
        "line": [
          "9777 S YOSEMITE ST STE 130A"
        ],
        "city": "LONE TREE",
        "state": "CO",
        "postalCode": "80124-3115"
      },
      {
        "line": [
          "2000 S EL CAMINO REAL",
          "1st Flr"
        ],
        "city": "SAN MATEO",
        "state": "CA",
        "postalCode": "94403-1805"
      },
      {
        "line": [
          "458 N HIGHWAY 67 STE 400"
        ],
        "city": "CEDAR HILL",
        "state": "TX",
        "postalCode": "75104-0004"
      },
      {
        "line": [
          "1580 HIGHWAY 264 STE A"
        ],
        "city": "GALLUP",
        "state": "NM",
        "postalCode": "87301-3302"
      },
      {
        "line": [
          "3745 BROADWAY STE 100"
        ],
        "city": "FORT MYERS",
        "state": "FL",
        "postalCode": "33901-8144"
      },
      {
        "line": [
          "12011 STATE HIGHWAY 151"
        ],
        "city": "SAN ANTONIO",
        "state": "TX",
        "postalCode": "78251-1232"
      },
      {
        "line": [
          "247 W EL CAMINO REAL STE 200"
        ],
        "city": "MOUNTAIN VIEW",
        "state": "CA",
        "postalCode": "94040-2605"
      },
      {
        "line": [
          "9085 BLACKBERRY ST"
        ],
        "city": "ANCHORAGE",
        "state": "AK",
        "postalCode": "99502-5348"
      },
      {
        "line": [
          "1005 S AIRPORT DR"
        ],
        "city": "WESLACO",
        "state": "TX",
        "postalCode": "78596-6607"
      },
      {
        "line": [
          "2301 CIRCADIAN WAY",
          "Suite B"
        ],
        "city": "SANTA ROSA",
        "state": "CA",
        "postalCode": "95407-5416"
      },
      {
        "line": [
          "131 MAIN ST"
        ],
        "city": "ONEIDA",
        "state": "NY",
        "postalCode": "13421-1645"
      },
      {
        "line": [
          "302 S HILLSIDE DR"
        ],
        "city": "BEEVILLE",
        "state": "TX",
        "postalCode": "78102-5333"
      },
      {
        "line": [
          "219 W KINGSLEY RD STE 316"
        ],
        "city": "GARLAND",
        "state": "TX",
        "postalCode": "75041-3434"
      },
      {
        "line": [
          "2735 E TUDOR RD"
        ],
        "city": "ANCHORAGE",
        "state": "AK",
        "postalCode": "99507-1135"
      },
      {
        "line": [
          "1206 W HENDERSON ST STE C"
        ],
        "city": "CLEBURNE",
        "state": "TX",
        "postalCode": "76033-8772"
      },
      {
        "line": [
          "725 N INDUSTRIAL BLVD STE 100"
        ],
        "city": "BEDFORD",
        "state": "TX",
        "postalCode": "76021-6134"
      },
      {
        "line": [
          "1850 MILMONT DR"
        ],
        "city": "MILPITAS",
        "state": "CA",
        "postalCode": "95035-2512"
      },
      {
        "line": [
          "5981 JEFFERSON ST NE STE A"
        ],
        "city": "ALBUQUERQUE",
        "state": "NM",
        "postalCode": "87109-3457"
      },
      {
        "line": [
          "2150 BLEECKER ST"
        ],
        "city": "UTICA",
        "state": "NY",
        "postalCode": "13501-1738"
      },
      {
        "line": [
          "4333 PAN AMERICAN FWY NE STE C"
        ],
        "city": "ALBUQUERQUE",
        "state": "NM",
        "postalCode": "87107-6833"
      },
      {
        "line": [
          "7600 LAKEVIEW PKWY STE 200"
        ],
        "city": "ROWLETT",
        "state": "TX",
        "postalCode": "75088-4385"
      },
      {
        "line": [
          "4743 LEXINGTON BLVD"
        ],
        "city": "MISSOURI CITY",
        "state": "TX",
        "postalCode": "77459-2825"
      },
      {
        "line": [
          "1704 S CHERRY LN STE 200"
        ],
        "city": "FORT WORTH",
        "state": "TX",
        "postalCode": "76108-3629"
      },
      {
        "line": [
          "3571 DEL PRADO BLVD N STE 11"
        ],
        "city": "CAPE CORAL",
        "state": "FL",
        "postalCode": "33909-5287"
      },
      {
        "line": [
          "2850 RIDGE RD STE 112"
        ],
        "city": "ROCKWALL",
        "state": "TX",
        "postalCode": "75032-5506"
      },
      {
        "line": [
          "3555 DEER PARK DR",
          "Suite 140"
        ],
        "city": "STOCKTON",
        "state": "CA",
        "postalCode": "95219-2306"
      },
      {
        "line": [
          "111 E PUAINAKO ST"
        ],
        "city": "HILO",
        "state": "HI",
        "postalCode": "96720-5288"
      },
      {
        "line": [
          "10502 SANDIA DR"
        ],
        "city": "LAREDO",
        "state": "TX",
        "postalCode": "78045-6631"
      },
      {
        "line": [
          "2121 ALEXIAN DR",
          "Suite 100"
        ],
        "city": "SAN JOSE",
        "state": "CA",
        "postalCode": "95116-1905"
      },
      {
        "line": [
          "2350 MARYANN DR"
        ],
        "city": "TURLOCK",
        "state": "CA",
        "postalCode": "95380-6565"
      },
      {
        "line": [
          "1612 N TEXAS AVE"
        ],
        "city": "BRYAN",
        "state": "TX",
        "postalCode": "77803-1827"
      },
      {
        "line": [
          "1551 S SECOND ST"
        ],
        "city": "GALLUP",
        "state": "NM",
        "postalCode": "87301-5881"
      },
      {
        "line": [
          "888 S BASCOM AVE"
        ],
        "city": "SAN JOSE",
        "state": "CA",
        "postalCode": "95128-2605"
      },
      {
        "line": [
          "5700 HONORE AVE"
        ],
        "city": "SARASOTA",
        "state": "FL",
        "postalCode": "34233-3249"
      },
      {
        "line": [
          "2300 W FM 544 STE 140"
        ],
        "city": "WYLIE",
        "state": "TX",
        "postalCode": "75098-4939"
      },
      {
        "line": [
          "1729 N OLIVE AVE",
          "Suite 9"
        ],
        "city": "TURLOCK",
        "state": "CA",
        "postalCode": "95382-2501"
      },
      {
        "line": [
          "2301 CIRCADIAN WAY",
          "Suite C"
        ],
        "city": "SANTA ROSA",
        "state": "CA",
        "postalCode": "95407-5444"
      },
      {
        "line": [
          "3860 MCKINLEY PKWY STE 120"
        ],
        "city": "BUFFALO",
        "state": "NY",
        "postalCode": "14219-2983"
      },
      {
        "line": [
          "901 E DIMOND BLVD STE G"
        ],
        "city": "ANCHORAGE",
        "state": "AK",
        "postalCode": "99515-2028"
      },
      {
        "line": [
          "4045 S GREAT SOUTHWEST PKWY STE 100"
        ],
        "city": "GRAND PRAIRIE",
        "state": "TX",
        "postalCode": "75052-3837"
      },
      {
        "line": [
          "1011 N HIGHWAY 77 STE 102"
        ],
        "city": "WAXAHACHIE",
        "state": "TX",
        "postalCode": "75165-1798"
      },
      {
        "line": [
          "265 SE JOHN JONES DR STE 100"
        ],
        "city": "BURLESON",
        "state": "TX",
        "postalCode": "76028-8356"
      },
      {
        "line": [
          "39 N PLANK RD STE 5"
        ],
        "city": "NEWBURGH",
        "state": "NY",
        "postalCode": "12550-2124"
      },
      {
        "line": [
          "137 PALO ALTO RD"
        ],
        "city": "SAN ANTONIO",
        "state": "TX",
        "postalCode": "78211-3736"
      },
      {
        "line": [
          "605 NORTHWEST PKWY STE 1"
        ],
        "city": "AZLE",
        "state": "TX",
        "postalCode": "76020-2942"
      },
      {
        "line": [
          "1800 HIGHWAY 157 N STE 101"
        ],
        "city": "MANSFIELD",
        "state": "TX",
        "postalCode": "76063-3930"
      },
      {
        "line": [
          "4708 DEXTER DR"
        ],
        "city": "PLANO",
        "state": "TX",
        "postalCode": "75093-5288"
      },
      {
        "line": [
          "2000 S EL CAMINO REAL FL 1"
        ],
        "city": "SAN MATEO",
        "state": "CA",
        "postalCode": "94403-1805"
      },
      {
        "line": [
          "2880 SHERIDAN DR"
        ],
        "city": "TONAWANDA",
        "state": "NY",
        "postalCode": "14150-9419"
      },
      {
        "line": [
          "1978 EPHRIHAM AVE"
        ],
        "city": "FORT WORTH",
        "state": "TX",
        "postalCode": "76164-6670"
      },
      {
        "line": [
          "1520 LILIHA ST STE 601"
        ],
        "city": "HONOLULU",
        "state": "HI",
        "postalCode": "96817-3564"
      },
      {
        "line": [
          "333 KNUDSEN BLVD"
        ],
        "city": "POCATELLO",
        "state": "ID",
        "postalCode": "83202-4718"
      },
      {
        "line": [
          "220 S COLLINS RD"
        ],
        "city": "SUNNYVALE",
        "state": "TX",
        "postalCode": "75182-4625"
      },
      {
        "line": [
          "1801 E MARCH LN",
          "Suite A100"
        ],
        "city": "STOCKTON",
        "state": "CA",
        "postalCode": "95210-6629"
      },
      {
        "line": [
          "2875 UNION RD STE 13C"
        ],
        "city": "BUFFALO",
        "state": "NY",
        "postalCode": "14227-1470"
      },
      {
        "line": [
          "3324 E FM 528 RD"
        ],
        "city": "FRIENDSWOOD",
        "state": "TX",
        "postalCode": "77546-5012"
      },
      {
        "line": [
          "3787 E MERIDIAN LOOP"
        ],
        "city": "WASILLA",
        "state": "AK",
        "postalCode": "99654-7270"
      },
      {
        "line": [
          "289 N FIREWEED ST STE A"
        ],
        "city": "SOLDOTNA",
        "state": "AK",
        "postalCode": "99669-7570"
      },
      {
        "line": [
          "12250 TAMIAMI TRL E STE 103"
        ],
        "city": "NAPLES",
        "state": "FL",
        "postalCode": "34113-8108"
      },
      {
        "line": [
          "3400 LEE BLVD STE 108"
        ],
        "city": "LEHIGH ACRES",
        "state": "FL",
        "postalCode": "33971-1309"
      },
      {
        "line": [
          "2635 SE MILITARY DR"
        ],
        "city": "SAN ANTONIO",
        "state": "TX",
        "postalCode": "78223-4312"
      },
      {
        "line": [
          "1434 N CENTRAL EXPY STE 116"
        ],
        "city": "MCKINNEY",
        "state": "TX",
        "postalCode": "75070-3108"
      },
      {
        "line": [
          "220 RED TAIL RD"
        ],
        "city": "ORCHARD PARK",
        "state": "NY",
        "postalCode": "14127-1599"
      },
      {
        "line": [
          "91-919 FORT WEAVER RD"
        ],
        "city": "EWA BEACH",
        "state": "HI",
        "postalCode": "96706-2259"
      },
      {
        "line": [
          "1860 MILMONT DR"
        ],
        "city": "MILPITAS",
        "state": "CA",
        "postalCode": "95035-2512"
      },
      {
        "line": [
          "3001 N 23RD ST STE 6"
        ],
        "city": "MCALLEN",
        "state": "TX",
        "postalCode": "78501-6179"
      },
      {
        "line": [
          "750 PALANI AVE"
        ],
        "city": "HONOLULU",
        "state": "HI",
        "postalCode": "96816-1109"
      },
      {
        "line": [
          "4511 NW LOOP 410"
        ],
        "city": "SAN ANTONIO",
        "state": "TX",
        "postalCode": "78229-5124"
      },
      {
        "line": [
          "913 N 13TH ST STE 29"
        ],
        "city": "HARLINGEN",
        "state": "TX",
        "postalCode": "78550-5034"
      },
      {
        "line": [
          "7329 W SAM HOUSTON PKWY S STE 101A"
        ],
        "city": "HOUSTON",
        "state": "TX",
        "postalCode": "77072-5251"
      },
      {
        "line": [
          "8181 N STADIUM DR"
        ],
        "city": "HOUSTON",
        "state": "TX",
        "postalCode": "77054-1846"
      },
      {
        "line": [
          "3307 BOB ROGERS DR"
        ],
        "city": "EAGLE PASS",
        "state": "TX",
        "postalCode": "78852-6978"
      },
      {
        "line": [
          "12100 E ILIFF AVE STE 102"
        ],
        "city": "AURORA",
        "state": "CO",
        "postalCode": "80014-1277"
      },
      {
        "line": [
          "3260 PROVIDENCE DR STE 528"
        ],
        "city": "ANCHORAGE",
        "state": "AK",
        "postalCode": "99508-4608"
      },
      {
        "line": [
          "2651 E BROAD ST STE 109"
        ],
        "city": "MANSFIELD",
        "state": "TX",
        "postalCode": "76063-3899"
      },
      {
        "line": [
          "6530 TROOST AVE STE A"
        ],
        "city": "KANSAS CITY",
        "state": "MO",
        "postalCode": "64131-1301"
      },
      {
        "line": [
          "247 W EL CAMINO REAL STE 100"
        ],
        "city": "MOUNTAIN VIEW",
        "state": "CA",
        "postalCode": "94040-2605"
      },
      {
        "line": [
          "2001 NW SHAMROCK AVE"
        ],
        "city": "LEES SUMMIT",
        "state": "MO",
        "postalCode": "64081-1634"
      },
      {
        "line": [
          "4907 S COLLINS ST STE 101"
        ],
        "city": "ARLINGTON",
        "state": "TX",
        "postalCode": "76018-1157"
      },
      {
        "line": [
          "45-480 KANEOHE BAY DR"
        ],
        "city": "KANEOHE",
        "state": "HI",
        "postalCode": "96744-2039"
      },
      {
        "line": [
          "12970 TOEPPERWEIN RD STE 100"
        ],
        "city": "SAN ANTONIO",
        "state": "TX",
        "postalCode": "78233-4768"
      },
      {
        "line": [
          "4360 STEVENS CREEK BLVD STE A"
        ],
        "city": "SAN JOSE",
        "state": "CA",
        "postalCode": "95129-1103"
      },
      {
        "line": [
          "19910 INTERSTATE 35 S STE 101"
        ],
        "city": "LYTLE",
        "state": "TX",
        "postalCode": "78052-3547"
      },
      {
        "line": [
          "3402 BURKE RD STE 100"
        ],
        "city": "PASADENA",
        "state": "TX",
        "postalCode": "77504-1805"
      },
      {
        "line": [
          "3500 COFFEE RD"
        ],
        "city": "MODESTO",
        "state": "CA",
        "postalCode": "95355-1315"
      },
      {
        "line": [
          "4546 EL CAMINO REAL"
        ],
        "city": "LOS ALTOS",
        "state": "CA",
        "postalCode": "94022-1099"
      },
      {
        "line": [
          "1300 VENTURE WAY"
        ],
        "city": "CASPER",
        "state": "WY",
        "postalCode": "82609-4353"
      },
      {
        "line": [
          "4024 N PRINCE ST STE H"
        ],
        "city": "CLOVIS",
        "state": "NM",
        "postalCode": "88101-9739"
      },
      {
        "line": [
          "3571 W WHEATLAND RD STE 103"
        ],
        "city": "DALLAS",
        "state": "TX",
        "postalCode": "75237-3461"
      },
      {
        "line": [
          "8515 FANNIN ST STE 190"
        ],
        "city": "HOUSTON",
        "state": "TX",
        "postalCode": "77054-4813"
      },
      {
        "line": [
          "6455 HILLTOP DR STE 112"
        ],
        "city": "NORTH RICHLAND HILLS",
        "state": "TX",
        "postalCode": "76180-6039"
      },
      {
        "line": [
          "900 MIRON LN"
        ],
        "city": "KINGSTON",
        "state": "NY",
        "postalCode": "12401-1567"
      },
      {
        "line": [
          "2000 S CYNTHIA ST"
        ],
        "city": "MCALLEN",
        "state": "TX",
        "postalCode": "78503-1208"
      },
      {
        "line": [
          "10740 N CENTRAL EXPY STE 150"
        ],
        "city": "DALLAS",
        "state": "TX",
        "postalCode": "75231-2166"
      },
      {
        "line": [
          "200 JOSE FIGUERES AVE STE 225"
        ],
        "city": "SAN JOSE",
        "state": "CA",
        "postalCode": "95116-1588"
      },
      {
        "line": [
          "300 SANTANA ROW STE 300"
        ],
        "city": "SAN JOSE",
        "state": "CA",
        "postalCode": "95128-2424"
      },
      {
        "line": [
          "257 CLARKSON RD"
        ],
        "city": "ELLISVILLE",
        "state": "MO",
        "postalCode": "63011-2219"
      },
      {
        "line": [
          "12670 NEW BRITTANY BLVD STE 102"
        ],
        "city": "FORT MYERS",
        "state": "FL",
        "postalCode": "33907-3650"
      },
      {
        "line": [
          "7217 TELECOM PKWY STE 245"
        ],
        "city": "GARLAND",
        "state": "TX",
        "postalCode": "75044-2203"
      },
      {
        "line": [
          "6801 MCPHERSON RD STE 107"
        ],
        "city": "LAREDO",
        "state": "TX",
        "postalCode": "78041-6403"
      },
      {
        "line": [
          "12011 STATE HIGHWAY 151 STE 222"
        ],
        "city": "SAN ANTONIO",
        "state": "TX",
        "postalCode": "78251-1233"
      },
      {
        "line": [
          "1372 MITCHELL ROAD"
        ],
        "city": "MODESTO",
        "state": "CA",
        "postalCode": "95351-4920"
      },
      {
        "line": [
          "889 KAMOKILA BLVD"
        ],
        "city": "KAPOLEI",
        "state": "HI",
        "postalCode": "96707-2061"
      },
      {
        "line": [
          "206 CONQUEST"
        ],
        "city": "EDINBURG",
        "state": "TX",
        "postalCode": "78539-3041"
      },
      {
        "line": [
          "7019 REALM DR"
        ],
        "city": "SAN JOSE",
        "state": "CA",
        "postalCode": "95119-1321"
      },
      {
        "line": [
          "8115 DATAPOINT DR STE 100"
        ],
        "city": "SAN ANTONIO",
        "state": "TX",
        "postalCode": "78229-3745"
      },
      {
        "line": [
          "850 KILANI AVE"
        ],
        "city": "WAHIAWA",
        "state": "HI",
        "postalCode": "96786-2004"
      },
      {
        "line": [
          "86-120 FARRINGTON HWY"
        ],
        "city": "WAIANAE",
        "state": "HI",
        "postalCode": "96792-3000"
      },
      {
        "line": [
          "2301 CIRCADIAN WAY",
          "suite A"
        ],
        "city": "SANTA ROSA",
        "state": "CA",
        "postalCode": "95407-5444"
      }
    ],
    "extension": [
      {
        "url": "https://fhir.athena.io/StructureDefinition/ah-practice",
        "valueReference": {
          "reference": "Organization/a-1.Practice-26729"
        }
      },
      {
        "url": "https://fhir.athena.io/StructureDefinition/ah-brand",
        "valueReference": {
          "reference": "Organization/a-26729.Brand-1"
        }
      }
    ]
  },
  "fullUrl": "urn:uuid:2c87c998-8da2-5a6b-a40c-1a2e6f454cab"
}