{
  "resource": {
    "resourceType": "Organization",
    "id": "53820cab-5024-5572-aee8-3b82d8987733",
    "name": "Dr. Breiner and associates",
    "endpoint": [
      {
        "reference": "Endpoint/27a4e967-47aa-5a9c-a572-b8297ee268a2"
      },
      {
        "reference": "Endpoint/724ab045-6204-5c83-a7d9-3f33390685f0"
      }
    ],
    "identifier": [
      {
        "system": "http://hl7.org/fhir/sid/us-npi",
        "value": "1245259530"
      }
    ],
    "address": [
      {
        "line": [
          "8714 PARLIAMENT DR"
        ],
        "city": "SPRINGFIELD",
        "state": "VA",
        "postalCode": "22151-1225"
      },
      {
        "line": [
          "3236 LOCKER ST"
        ],
        "city": "FALLS CHURCH",
        "state": "VA",
        "postalCode": "22042-3830"
      },
      {
        "line": [
          "3940 PRINCE WILLIAM PARKWAY"
        ],
        "city": "WOODBRIDGE",
        "state": "VA",
        "postalCode": "22192-4513"
      },
      {
        "line": [
          "1040 HASTINGS DR"
        ],
        "city": "MANASSAS",
        "state": "VA",
        "postalCode": "20110-6679"
      },
      {
        "line": [
          "9401 ATHENS RD"
        ],
        "city": "FAIRFAX",
        "state": "VA",
        "postalCode": "22032-1215"
      },
      {
        "line": [
          "4435 N. PERSHING DR"
        ],
        "city": "ARLINGTON",
        "state": "VA",
        "postalCode": "22203-2748"
      },
      {
        "line": [
          "3408 BEVERLY DR"
        ],
        "city": "ANNANDALE",
        "state": "VA",
        "postalCode": "22003-1162"
      },
      {
        "line": [
          "8605 CENTREVILLE RD"
        ],
        "city": "MANASSAS",
        "state": "VA",
        "postalCode": "20110-5265"
      },
      {
        "line": [
          "5027 DEQUINCY DR"
        ],
        "city": "FAIRFAX",
        "state": "VA",
        "postalCode": "22032-2432"
      },
      {
        "line": [
          "8620 RICHMOND AVE"
        ],
        "city": "MANASSAS",
        "state": "VA",
        "postalCode": "20110-5868"
      },
      {
        "line": [
          "6213 OSCAR CT"
        ],
        "city": "WOODBRIDGE",
        "state": "VA",
        "postalCode": "22193-7024"
      },
      {
        "line": [
          "5300 SHAWNEE RD",
          "SUITE 101"
        ],
        "city": "ALEXANDRIA",
        "state": "VA",
        "postalCode": "22312-2311"
      },
      {
        "line": [
          "4933 18TH ST N."
        ],
        "city": "ARLINGTON",
        "state": "VA",
        "postalCode": "22207-2010"
      },
      {
        "line": [
          "246 WEST MARKET ST"
        ],
        "city": "LEESBURG",
        "state": "VA",
        "postalCode": "20176-2710"
      },
      {
        "line": [
          "3802 RUSSELL RD"
        ],
        "city": "WOODBRIDGE",
        "state": "VA",
        "postalCode": "22192-4906"
      },
      {
        "line": [
          "201 RUSSELL AVE"
        ],
        "city": "GAITHERSBURG",
        "state": "MD",
        "postalCode": "20877-2835"
      },
      {
        "line": [
          "5800 CHASE COMMONS CT",
          "#207"
        ],
        "city": "BURKE",
        "state": "VA",
        "postalCode": "22015-4600"
      },
      {
        "line": [
          "4125 NUTWOOD WAY"
        ],
        "city": "FAIRFAX",
        "state": "VA",
        "postalCode": "22032-1231"
      },
      {
        "line": [
          "33 WOODLANDS WAY"
        ],
        "city": "WARRENTON",
        "state": "VA",
        "postalCode": "20186-2209"
      },
      {
        "line": [
          "301 N. RIPLEY ST"
        ],
        "city": "ALEXANDRIA",
        "state": "VA",
        "postalCode": "22304-7530"
      },
      {
        "line": [
          "20535 EARHART PL"
        ],
        "city": "STERLING",
        "state": "VA",
        "postalCode": "20165-3581"
      },
      {
        "line": [
          "44675 CAPE CT",
          "Building #130"
        ],
        "city": "ASHBURN",
        "state": "VA",
        "postalCode": "20147-6230"
      },
      {
        "line": [
          "2248 CENTRAL AVE"
        ],
        "city": "VIENNA",
        "state": "VA",
        "postalCode": "22182-5193"
      },
      {
        "line": [
          "12143 STIRRUP RD"
        ],
        "city": "RESTON",
        "state": "VA",
        "postalCode": "20191-2103"
      },
      {
        "line": [
          "7123 WESTMORELAND RD"
        ],
        "city": "FALLS CHURCH",
        "state": "VA",
        "postalCode": "22042-2566"
      },
      {
        "line": [
          "7803 FRANCES DR"
        ],
        "city": "ALEXANDRIA",
        "state": "VA",
        "postalCode": "22306-2821"
      },
      {
        "line": [
          "7112 BRADDOCK RD"
        ],
        "city": "ANNANDALE",
        "state": "VA",
        "postalCode": "22003-6007"
      },
      {
        "line": [
          "10803 PINEY POND DR"
        ],
        "city": "GREAT FALLS",
        "state": "VA",
        "postalCode": "22066-1623"
      },
      {
        "line": [
          "1914 HORSESHOE DR"
        ],
        "city": "VIENNA",
        "state": "VA",
        "postalCode": "22182-3755"
      },
      {
        "line": [
          "9852 FAIRMONT AVE"
        ],
        "city": "MANASSAS",
        "state": "VA",
        "postalCode": "20109-3176"
      },
      {
        "line": [
          "2511 FREETOWN RD"
        ],
        "city": "RESTON",
        "state": "VA",
        "postalCode": "20191-2513"
      },
      {
        "line": [
          "14080 CENTRAL LOOP"
        ],
        "city": "WOODBRIDGE",
        "state": "VA",
        "postalCode": "22193-1438"
      },
      {
        "line": [
          "4027 OLLEY LN"
        ],
        "city": "FAIRFAX",
        "state": "VA",
        "postalCode": "22032-1323"
      },
      {
        "line": [
          "2001 SOUTH HAMPTON"
        ],
        "city": "WOODBRIDGE",
        "state": "VA",
        "postalCode": "22191-2660"
      },
      {
        "line": [
          "6541 FRANCONIA RD"
        ],
        "city": "SPRINGFIELD",
        "state": "VA",
        "postalCode": "22150-1409"
      },
      {
        "line": [
          "8406 GEORGIAN WAY"
        ],
        "city": "ANNANDALE",
        "state": "VA",
        "postalCode": "22003-4407"
      },
      {
        "line": [
          "8341 BARRETT DR"
        ],
        "city": "MANASSAS",
        "state": "VA",
        "postalCode": "20109-3594"
      },
      {
        "line": [
          "6925 COLUMBIA PIKE"
        ],
        "city": "ANNANDALE",
        "state": "VA",
        "postalCode": "22003-3452"
      },
      {
        "line": [
          "13391 COPPERMINE RD"
        ],
        "city": "HERNDON",
        "state": "VA",
        "postalCode": "20170-5507"
      },
      {
        "line": [
          "4336 MAJESTIC LN"
        ],
        "city": "FAIRFAX",
        "state": "VA",
        "postalCode": "22033-3503"
      },
      {
        "line": [
          "5840 RIDGE FORD DR"
        ],
        "city": "BURKE",
        "state": "VA",
        "postalCode": "22015-3643"
      },
      {
        "line": [
          "7811 OAK ST"
        ],
        "city": "MANASSAS",
        "state": "VA",
        "postalCode": "20111-2210"
      },
      {
        "line": [
          "2216 CAROLINE ST"
        ],
        "city": "FREDERICKSBURG",
        "state": "VA",
        "postalCode": "22401-3235"
      },
      {
        "line": [
          "3450 GALLOWS RD"
        ],
        "city": "ANNANDALE",
        "state": "VA",
        "postalCode": "22003-1418"
      },
      {
        "line": [
          "700 W. BROAD ST"
        ],
        "city": "FALLS CHURCH",
        "state": "VA",
        "postalCode": "22046-3219"
      },
      {
        "line": [
          "1612 BROOKSIDE RD"
        ],
        "city": "MC LEANMCLEAN",
        "state": "VA",
        "postalCode": "22101-3305"
      },
      {
        "line": [
          "5550 CARDINAL PLACE"
        ],
        "city": "ALEXANDRIA",
        "state": "VA",
        "postalCode": "22304-8716"
      },
      {
        "line": [
          "300 WYTHE ST"
        ],
        "city": "ALEXANDRIA",
        "state": "VA",
        "postalCode": "22314-2044"
      },
      {
        "line": [
          "4511 BRAEBURN DR"
        ],
        "city": "FAIRFAX",
        "state": "VA",
        "postalCode": "22032-1827"
      },
      {
        "line": [
          "14542 PITTMAN CT"
        ],
        "city": "CENTREVILLE",
        "state": "VA",
        "postalCode": "20121-5743"
      },
      {
        "line": [
          "46565 HARRY BYRD HWY"
        ],
        "city": "STERLING",
        "state": "VA",
        "postalCode": "20164-3564"
      },
      {
        "line": [
          "9332 BURKE RD"
        ],
        "city": "BURKE",
        "state": "VA",
        "postalCode": "22015-3373"
      },
      {
        "line": [
          "7321 Calvert St"
        ],
        "city": "ANNANDALE",
        "state": "VA",
        "postalCode": "22003-5843"
      },
      {
        "line": [
          "5563 16TH ST N."
        ],
        "city": "ARLINGTON",
        "state": "VA",
        "postalCode": "22205-2749"
      },
      {
        "line": [
          "6218 APACHE ST"
        ],
        "city": "SPRINGFIELD",
        "state": "VA",
        "postalCode": "22150-1520"
      },
      {
        "line": [
          "309 OLD CENTREVILLE RD"
        ],
        "city": "MANASSAS",
        "state": "VA",
        "postalCode": "20111-1859"
      },
      {
        "line": [
          "4410 SHIRLEY GATE RD"
        ],
        "city": "FAIRFAX",
        "state": "VA",
        "postalCode": "22030-1728"
      },
      {
        "line": [
          "116 N. GRAYSON ST"
        ],
        "city": "ALEXANDRIA",
        "state": "VA",
        "postalCode": "22304-2414"
      },
      {
        "line": [
          "3500 MEEKINS DR"
        ],
        "city": "FREDERICKSBURG",
        "state": "VA",
        "postalCode": "22407-4894"
      },
      {
        "line": [
          "7012 COVENTRY RD"
        ],
        "city": "ALEXANDRIA",
        "state": "VA",
        "postalCode": "22306-1807"
      },
      {
        "line": [
          "140 BRIMLEY DR"
        ],
        "city": "FREDERICKSBURG",
        "state": "VA",
        "postalCode": "22406-5103"
      },
      {
        "line": [
          "10700 CRESTWOOD DR"
        ],
        "city": "MANASSAS",
        "state": "VA",
        "postalCode": "20109-3413"
      },
      {
        "line": [
          "330 N. WASHINGTON ST"
        ],
        "city": "FALLS CHURCH",
        "state": "VA",
        "postalCode": "22046-3431"
      },
      {
        "line": [
          "6612 WESTBURY OAKS CT"
        ],
        "city": "SPRINGFIELD",
        "state": "VA",
        "postalCode": "22152-2516"
      },
      {
        "line": [
          "6625 HULVEY TERRACE"
        ],
        "city": "ALEXANDRIA",
        "state": "VA",
        "postalCode": "22306-6603"
      },
      {
        "line": [
          "7501 HERITAGE VILLAGE PLAZA"
        ],
        "city": "GAINESVILLE",
        "state": "VA",
        "postalCode": "20155-3078"
      },
      {
        "line": [
          "9011 GOLDEN LEAF CT"
        ],
        "city": "SPRINGFIELD",
        "state": "VA",
        "postalCode": "22153-1143"
      },
      {
        "line": [
          "603 MONTROSE DR"
        ],
        "city": "FREDERICKSBURG",
        "state": "VA",
        "postalCode": "22407-8634"
      },
      {
        "line": [
          "360 HOSPITAL DR"
        ],
        "city": "WARRENTON",
        "state": "VA",
        "postalCode": "20186-3006"
      },
      {
        "line": [
          "1612 N. MCKINLEY RD"
        ],
        "city": "ARLINGTON",
        "state": "VA",
        "postalCode": "22205-2237"
      },
      {
        "line": [
          "2885 NICELY CT"
        ],
        "city": "DUMFRIES",
        "state": "VA",
        "postalCode": "22026-3360"
      },
      {
        "line": [
          "1001 NORTHSIDE DR"
        ],
        "city": "FREDERICKSBURG",
        "state": "VA",
        "postalCode": "22405-2615"
      },
      {
        "line": [
          "3504 BEVERLY DR"
        ],
        "city": "ANNANDALE",
        "state": "VA",
        "postalCode": "22003-1113"
      },
      {
        "line": [
          "5500 FERNDALE ST"
        ],
        "city": "SPRINGFIELD",
        "state": "VA",
        "postalCode": "22151-3213"
      },
      {
        "line": [
          "2151 CHAIN BRIDGE RD"
        ],
        "city": "VIENNA",
        "state": "VA",
        "postalCode": "22182-3734"
      },
      {
        "line": [
          "4415 SAN MARCOS CT"
        ],
        "city": "FAIRFAX",
        "state": "VA",
        "postalCode": "22030-5352"
      },
      {
        "line": [
          "2231 COLTS NECK RD"
        ],
        "city": "RESTON",
        "state": "VA",
        "postalCode": "20191-2812"
      },
      {
        "line": [
          "5600 BROOKLAND RD"
        ],
        "city": "ALEXANDRIA",
        "state": "VA",
        "postalCode": "22310-1809"
      },
      {
        "line": [
          "8595 CENTREVILLE RD"
        ],
        "city": "MANASSAS",
        "state": "VA",
        "postalCode": "20110-8457"
      },
      {
        "line": [
          "349 Legion Drive"
        ],
        "city": "WARRENTON",
        "state": "VA",
        "postalCode": "20186-3537"
      },
      {
        "line": [
          "10144 LAKE JACKSON DR"
        ],
        "city": "MANASSAS",
        "state": "VA",
        "postalCode": "20111-2832"
      },
      {
        "line": [
          "3020 GORDON W SHELTON BLVD"
        ],
        "city": "FREDERICKSBURG",
        "state": "VA",
        "postalCode": "22401-5010"
      },
      {
        "line": [
          "16001 LOVES MILL LANE"
        ],
        "city": "GAINESVILLE",
        "state": "VA",
        "postalCode": "20155-1582"
      },
      {
        "line": [
          "6710 SPRING RD"
        ],
        "city": "SPRINGFIELD",
        "state": "VA",
        "postalCode": "22150-3531"
      },
      {
        "line": [
          "6505 HILLVIEW AVE"
        ],
        "city": "ALEXANDRIA",
        "state": "VA",
        "postalCode": "22310-3025"
      },
      {
        "line": [
          "10716 COLTON ST"
        ],
        "city": "FAIRFAX",
        "state": "VA",
        "postalCode": "22032-2903"
      },
      {
        "line": [
          "5105 Backlick Rd"
        ],
        "city": "ANNANDALE",
        "state": "VA",
        "postalCode": "22003-6075"
      },
      {
        "line": [
          "1520 CONSTELLATION PL",
          "#202"
        ],
        "city": "WOODBRIDGE",
        "state": "VA",
        "postalCode": "22191-5220"
      },
      {
        "line": [
          "5028 PRESTWICK DR"
        ],
        "city": "FAIRFAX",
        "state": "VA",
        "postalCode": "22030-4523"
      },
      {
        "line": [
          "7104 BRADDOCK RD"
        ],
        "city": "ANNANDALE",
        "state": "VA",
        "postalCode": "22003-6007"
      },
      {
        "line": [
          "3821 WILSON BLVD"
        ],
        "city": "ARLINGTON",
        "state": "VA",
        "postalCode": "22203-1981"
      },
      {
        "line": [
          "10520 JUDICIAL DR"
        ],
        "city": "FAIRFAX",
        "state": "VA",
        "postalCode": "22030-5115"
      },
      {
        "line": [
          "450 Mosby Blvd"
        ],
        "city": "BERRYVILLE",
        "state": "VA",
        "postalCode": "22611-1411"
      },
      {
        "line": [
          "4813 VIRGINIA ST"
        ],
        "city": "ALEXANDRIA",
        "state": "VA",
        "postalCode": "22312-1864"
      },
      {
        "line": [
          "12469 LEE JACKSON MEM HWY"
        ],
        "city": "FAIRFAX",
        "state": "VA",
        "postalCode": "22033-2803"
      },
      {
        "line": [
          "5436 HELM CT"
        ],
        "city": "FAIRFAX",
        "state": "VA",
        "postalCode": "22032-3309"
      },
      {
        "line": [
          "12751 SUDLEY MANOR DR"
        ],
        "city": "BRISTOW",
        "state": "VA",
        "postalCode": "20136-2726"
      },
      {
        "line": [
          "20 HEARTFIELDS LN"
        ],
        "city": "FREDERICKSBURG",
        "state": "VA",
        "postalCode": "22405-2368"
      },
      {
        "line": [
          "10137 PALMER DR"
        ],
        "city": "OAKTON",
        "state": "VA",
        "postalCode": "22124-2622"
      },
      {
        "line": [
          "8500 TYSPRING ST"
        ],
        "city": "VIENNA",
        "state": "VA",
        "postalCode": "22182-2362"
      },
      {
        "line": [
          "2030 WESTMORELAND ST"
        ],
        "city": "FALLS CHURCH",
        "state": "VA",
        "postalCode": "22043-1768"
      },
      {
        "line": [
          "1100 Dranesville Rd"
        ],
        "city": "HERNDON",
        "state": "VA",
        "postalCode": "20170-2092"
      },
      {
        "line": [
          "10800 POTOMAC TENNIS LN"
        ],
        "city": "POTOMAC",
        "state": "MD",
        "postalCode": "20854-4403"
      },
      {
        "line": [
          "6509 WALTERS WOODS"
        ],
        "city": "FALLS CHURCH",
        "state": "VA",
        "postalCode": "22044-1426"
      },
      {
        "line": [
          "4233 HOLBORN AVE"
        ],
        "city": "ANNANDALE",
        "state": "VA",
        "postalCode": "22003-3734"
      },
      {
        "line": [
          "9160 BELVOIR WOODS PKWY"
        ],
        "city": "FORT BELVOIR",
        "state": "VA",
        "postalCode": "22060-2703"
      },
      {
        "line": [
          "2000 5TH S."
        ],
        "city": "ARLINGTON",
        "state": "VA",
        "postalCode": "22204-1902"
      },
      {
        "line": [
          "9814 SPILLWAY CT"
        ],
        "city": "BURKE",
        "state": "VA",
        "postalCode": "22015-1835"
      },
      {
        "line": [
          "3828 MARQUIS PLACE"
        ],
        "city": "WOODBRIDGE",
        "state": "VA",
        "postalCode": "22193-6227"
      },
      {
        "line": [
          "2505 PORT POTOMAC AVE"
        ],
        "city": "WOODBRIDGE",
        "state": "VA",
        "postalCode": "22191-3068"
      },
      {
        "line": [
          "413 McClellan St"
        ],
        "city": "BERRYVILLE",
        "state": "VA",
        "postalCode": "22611-1420"
      },
      {
        "line": [
          "9140 BELVOIR WOODS PKWY"
        ],
        "city": "FORT BELVOIR",
        "state": "VA",
        "postalCode": "22060-2703"
      },
      {
        "line": [
          "5105 BACKLICK RD",
          "SUITE S"
        ],
        "city": "ANNANDALE",
        "state": "VA",
        "postalCode": "22003-6075"
      },
      {
        "line": [
          "46531 HARRY BYRD HWY"
        ],
        "city": "STERLING",
        "state": "VA",
        "postalCode": "20164-3555"
      },
      {
        "line": [
          "18038 CRYSTAL DOWNS TERR."
        ],
        "city": "DUMFRIES",
        "state": "VA",
        "postalCode": "22026-4584"
      },
      {
        "line": [
          "9817 LIMOGES DR"
        ],
        "city": "FAIRFAX",
        "state": "VA",
        "postalCode": "22032-1107"
      },
      {
        "line": [
          "7750 Garner Dr"
        ],
        "city": "MANASSAS",
        "state": "VA",
        "postalCode": "20109-8111"
      },
      {
        "line": [
          "7609 GRESHAM ST"
        ],
        "city": "SPRINGFIELD",
        "state": "VA",
        "postalCode": "22151-2934"
      },
      {
        "line": [
          "3607 N. KENSINGTON"
        ],
        "city": "ARLINGTON",
        "state": "VA",
        "postalCode": "22207-1329"
      },
      {
        "line": [
          "12052 NORTH SHORE DR"
        ],
        "city": "RESTON",
        "state": "VA",
        "postalCode": "20190-4900"
      },
      {
        "line": [
          "3442 CHARLES ST"
        ],
        "city": "FALLS CHURCH",
        "state": "VA",
        "postalCode": "22041-1902"
      },
      {
        "line": [
          "10240 HENDLEY RD"
        ],
        "city": "MANASSAS",
        "state": "VA",
        "postalCode": "20110-3400"
      },
      {
        "line": [
          "5209 RAVENSWORTH RD"
        ],
        "city": "SPRINGFIELD",
        "state": "VA",
        "postalCode": "22151-2510"
      },
      {
        "line": [
          "8524 MIDAS CT"
        ],
        "city": "ANNANDALE",
        "state": "VA",
        "postalCode": "22003-4215"
      },
      {
        "line": [
          "6608 STAGECOACH ST"
        ],
        "city": "SPRINGFIELD",
        "state": "VA",
        "postalCode": "22150-1547"
      },
      {
        "line": [
          "3925 DOWNS DR"
        ],
        "city": "CHANTILLY",
        "state": "VA",
        "postalCode": "20151-3308"
      },
      {
        "line": [
          "15951 LOVES MILL LN"
        ],
        "city": "GAINESVILLE",
        "state": "VA",
        "postalCode": "20155-1587"
      },
      {
        "line": [
          "1453 LABURNUM STREET"
        ],
        "city": "MC LEAN",
        "state": "VA",
        "postalCode": "22101-2524"
      },
      {
        "line": [
          "6712 BOSTWICK DR"
        ],
        "city": "SPRINGFIELD",
        "state": "VA",
        "postalCode": "22151-3712"
      },
      {
        "line": [
          "3709 S. GEORGE MASON DR",
          "#1102E"
        ],
        "city": "FALLS CHURCH",
        "state": "VA",
        "postalCode": "22041-4759"
      },
      {
        "line": [
          "3207 ARROWHEAD CIRCLE",
          "#K"
        ],
        "city": "FAIRFAX",
        "state": "VA",
        "postalCode": "22030-7319"
      },
      {
        "line": [
          "8420 WESLEYAN ST"
        ],
        "city": "VIENNA",
        "state": "VA",
        "postalCode": "22180-7126"
      },
      {
        "line": [
          "15341 LORD CULPEPER CT"
        ],
        "city": "WOODBRIDGE",
        "state": "VA",
        "postalCode": "22191-4937"
      },
      {
        "line": [
          "25 MONROE ST SE"
        ],
        "city": "LEESBURG",
        "state": "VA",
        "postalCode": "20175-3615"
      },
      {
        "line": [
          "4439 N. PERSHING DR"
        ],
        "city": "ARLINGTON",
        "state": "VA",
        "postalCode": "22203-2780"
      },
      {
        "line": [
          "3450 BERKELEY ST"
        ],
        "city": "ALEXANDRIA",
        "state": "VA",
        "postalCode": "22302-1249"
      },
      {
        "line": [
          "7816 TRAMMELL RD"
        ],
        "city": "ANNANDALE",
        "state": "VA",
        "postalCode": "22003-1540"
      },
      {
        "line": [
          "1901 N. BEAUREGARD ST"
        ],
        "city": "ALEXANDRIA",
        "state": "VA",
        "postalCode": "22311-1738"
      },
      {
        "line": [
          "1459 RANGER LOOP",
          "K"
        ],
        "city": "WOODBRIDGE",
        "state": "VA",
        "postalCode": "22191-5246"
      },
      {
        "line": [
          "3446 CHELSEA DR"
        ],
        "city": "WOODBRIDGE",
        "state": "VA",
        "postalCode": "22191-4358"
      },
      {
        "line": [
          "6533 ASHLAWN CT"
        ],
        "city": "SPRINGFIELD",
        "state": "VA",
        "postalCode": "22150-1321"
      },
      {
        "line": [
          "1515 GREAT FALLS ST"
        ],
        "city": "MC LEAN",
        "state": "VA",
        "postalCode": "22101-5639"
      },
      {
        "line": [
          "45800 JONA DR"
        ],
        "city": "STERLING",
        "state": "VA",
        "postalCode": "20165-5685"
      },
      {
        "line": [
          "55 BRIMLEY DR"
        ],
        "city": "FREDERICKSBURG",
        "state": "VA",
        "postalCode": "22406-5147"
      },
      {
        "line": [
          "5308 RIVER RD"
        ],
        "city": "FREDERICKSBURG",
        "state": "VA",
        "postalCode": "22407-2231"
      },
      {
        "line": [
          "10913 MARILTA CT"
        ],
        "city": "FAIRFAX",
        "state": "VA",
        "postalCode": "22032-2919"
      },
      {
        "line": [
          "3709 SHANNONS GREEN WAY"
        ],
        "city": "ALEXANDRIA",
        "state": "VA",
        "postalCode": "22309-3659"
      },
      {
        "line": [
          "5100 FILLMORE AVE"
        ],
        "city": "ALEXANDRIA",
        "state": "VA",
        "postalCode": "22311-5069"
      },
      {
        "line": [
          "4113 STEVENSON ST"
        ],
        "city": "FAIRFAX",
        "state": "VA",
        "postalCode": "22030-5617"
      },
      {
        "line": [
          "7116 FORT HUNT RD"
        ],
        "city": "ALEXANDRIA",
        "state": "VA",
        "postalCode": "22307-1900"
      },
      {
        "line": [
          "3401 COMMISSION CT",
          "SUITE 101"
        ],
        "city": "WOODBRIDGE",
        "state": "VA",
        "postalCode": "22192-1771"
      },
      {
        "line": [
          "25 MONROE ST SE"
        ],
        "city": "LEESBURG",
        "state": "VA",
        "postalCode": "20175-3695"
      },
      {
        "line": [
          "15120 Enterprise Ct"
        ],
        "city": "CHANTILLY",
        "state": "VA",
        "postalCode": "20151-1275"
      },
      {
        "line": [
          "2346 GREENBRIER WAY"
        ],
        "city": "VIENNA",
        "state": "VA",
        "postalCode": "22182-5207"
      },
      {
        "line": [
          "400 N WASHINGTON ST"
        ],
        "city": "ALEXANDRIA",
        "state": "VA",
        "postalCode": "22314-2366"
      },
      {
        "line": [
          "11450 NORTH SHORE DR"
        ],
        "city": "RESTON",
        "state": "VA",
        "postalCode": "20190-3206"
      },
      {
        "line": [
          "3701 PRADO PL"
        ],
        "city": "FAIRFAX",
        "state": "VA",
        "postalCode": "22031-3819"
      },
      {
        "line": [
          "918 S LINCOLN ST"
        ],
        "city": "ARLINGTON",
        "state": "VA",
        "postalCode": "22204-4388"
      },
      {
        "line": [
          "2978 CENTREVILLE RD"
        ],
        "city": "HERNDON",
        "state": "VA",
        "postalCode": "20171-6253"
      },
      {
        "line": [
          "3504 WILSON ST"
        ],
        "city": "FAIRFAX",
        "state": "VA",
        "postalCode": "22030-2936"
      },
      {
        "line": [
          "4600 19TH RD N."
        ],
        "city": "ARLINGTON",
        "state": "VA",
        "postalCode": "22207-2323"
      },
      {
        "line": [
          "5501 BROOKLAND RD"
        ],
        "city": "ALEXANDRIA",
        "state": "VA",
        "postalCode": "22310-1806"
      },
      {
        "line": [
          "3901 LAKE BLVD"
        ],
        "city": "ANNANDALE",
        "state": "VA",
        "postalCode": "22003-2320"
      },
      {
        "line": [
          "9619 BURKE LAKE RD"
        ],
        "city": "BURKE",
        "state": "VA",
        "postalCode": "22015-3004"
      },
      {
        "line": [
          "7840 DOANE CT"
        ],
        "city": "SPRINGFIELD",
        "state": "VA",
        "postalCode": "22152-3013"
      },
      {
        "line": [
          "3903 ESTEL RD"
        ],
        "city": "FAIRFAX",
        "state": "VA",
        "postalCode": "22031-3508"
      },
      {
        "line": [
          "9818 SPILLWAY CT"
        ],
        "city": "BURKE",
        "state": "VA",
        "postalCode": "22015-1835"
      },
      {
        "line": [
          "6929 MATTHEW PLACE"
        ],
        "city": "SPRINGFIELD",
        "state": "VA",
        "postalCode": "22151-3607"
      },
      {
        "line": [
          "4200 LAMARRE DR"
        ],
        "city": "FAIRFAX",
        "state": "VA",
        "postalCode": "22030-5134"
      },
      {
        "line": [
          "8575 RIXLEW LN"
        ],
        "city": "MANASSAS",
        "state": "VA",
        "postalCode": "20109-3701"
      },
      {
        "line": [
          "13105 MEMORY LN"
        ],
        "city": "FAIRFAX",
        "state": "VA",
        "postalCode": "22033-3531"
      },
      {
        "line": [
          "12606 MEADOWOOD DR"
        ],
        "city": "SILVER SPRING",
        "state": "MD",
        "postalCode": "20904-2923"
      },
      {
        "line": [
          "13930 RYCROFT CT"
        ],
        "city": "WOODBRIDGE",
        "state": "VA",
        "postalCode": "22193-3732"
      },
      {
        "line": [
          "9103 SUDLEY RD"
        ],
        "city": "MANASSAS",
        "state": "VA",
        "postalCode": "20110-5053"
      },
      {
        "line": [
          "5706 10TH RD N."
        ],
        "city": "ARLINGTON",
        "state": "VA",
        "postalCode": "22205-2330"
      },
      {
        "line": [
          "20900 RUNNYMEADE TERR"
        ],
        "city": "ASHBURN",
        "state": "VA",
        "postalCode": "20147-2872"
      },
      {
        "line": [
          "4123 CONRAD RD"
        ],
        "city": "ALEXANDRIA",
        "state": "VA",
        "postalCode": "22310-1155"
      },
      {
        "line": [
          "8750 QUARRY RD"
        ],
        "city": "MANASSAS",
        "state": "VA",
        "postalCode": "20110-5381"
      },
      {
        "line": [
          "807 N. JACKSON ST"
        ],
        "city": "ARLINGTON",
        "state": "VA",
        "postalCode": "22201-2233"
      },
      {
        "line": [
          "1416 CARRINGTON LN"
        ],
        "city": "VIENNA",
        "state": "VA",
        "postalCode": "22182-1422"
      },
      {
        "line": [
          "8302 W. BOULEVARD DR"
        ],
        "city": "ALEXANDRIA",
        "state": "VA",
        "postalCode": "22308-1910"
      },
      {
        "line": [
          "374 MAPLE AVE W"
        ],
        "city": "VIENNA",
        "state": "VA",
        "postalCode": "22180-5617"
      },
      {
        "line": [
          "1804 BRAGG RD"
        ],
        "city": "FREDERICKSBURG",
        "state": "VA",
        "postalCode": "22407-4926"
      },
      {
        "line": [
          "1649A N. VAN DORN ST"
        ],
        "city": "ALEXANDRIA",
        "state": "VA",
        "postalCode": "22304-1924"
      },
      {
        "line": [
          "8518 QUEEN ELIZABETH BLVD"
        ],
        "city": "ANNANDALE",
        "state": "VA",
        "postalCode": "22003-4308"
      },
      {
        "line": [
          "4300 N. CARLIN SPRINGS RD"
        ],
        "city": "ARLINGTON",
        "state": "VA",
        "postalCode": "22203-2054"
      },
      {
        "line": [
          "16477 STEERAGE CIR"
        ],
        "city": "WOODBRIDGE",
        "state": "VA",
        "postalCode": "22191-6028"
      },
      {
        "line": [
          "12729 KNIGHTSBRIDGE DR"
        ],
        "city": "WOODBRIDGE",
        "state": "VA",
        "postalCode": "22192-5159"
      },
      {
        "line": [
          "7306 ORIOLE AVE"
        ],
        "city": "SPRINGFIELD",
        "state": "VA",
        "postalCode": "22150-4301"
      },
      {
        "line": [
          "8943 VICKSBURG LN"
        ],
        "city": "MANASSAS",
        "state": "VA",
        "postalCode": "20110-4879"
      },
      {
        "line": [
          "8514 ELECTRIC AVE"
        ],
        "city": "VIENNA",
        "state": "VA",
        "postalCode": "22182-5009"
      },
      {
        "line": [
          "5530 YORKTOWN BLVD"
        ],
        "city": "ARLINGTON",
        "state": "VA",
        "postalCode": "22207-1553"
      },
      {
        "line": [
          "3 W. LINDEN ST"
        ],
        "city": "ALEXANDRIA",
        "state": "VA",
        "postalCode": "22301-2621"
      },
      {
        "line": [
          "6916 VANCOUVER RD"
        ],
        "city": "SPRINGFIELD",
        "state": "VA",
        "postalCode": "22152-3348"
      },
      {
        "line": [
          "4500 PARK RD"
        ],
        "city": "ALEXANDRIA",
        "state": "VA",
        "postalCode": "22312-1431"
      },
      {
        "line": [
          "803 N. LINCOLN ST"
        ],
        "city": "ARLINGTON",
        "state": "VA",
        "postalCode": "22201-2312"
      },
      {
        "line": [
          "8905 YORKSHIRE LN"
        ],
        "city": "MANASSAS PARK",
        "state": "VA",
        "postalCode": "20111-1859"
      },
      {
        "line": [
          "1500 S. FERN ST"
        ],
        "city": "ARLINGTON",
        "state": "VA",
        "postalCode": "22202-4714"
      },
      {
        "line": [
          "13114 CANOVA DR"
        ],
        "city": "MANASSAS",
        "state": "VA",
        "postalCode": "20112-7840"
      },
      {
        "line": [
          "13119 QUEENSDALE DR"
        ],
        "city": "WOODBRIDGE",
        "state": "VA",
        "postalCode": "22193-4563"
      },
      {
        "line": [
          "417 E. BELLEFONTE AVE"
        ],
        "city": "ALEXANDRIA",
        "state": "VA",
        "postalCode": "22301-1245"
      },
      {
        "line": [
          "399 PENDLETON ST"
        ],
        "city": "ALEXANDRIA",
        "state": "VA",
        "postalCode": "22314-2049"
      },
      {
        "line": [
          "12052 N. Shore Dr"
        ],
        "city": "RESTON",
        "state": "VA",
        "postalCode": "20190-4900"
      },
      {
        "line": [
          "239 Alexandria Pike"
        ],
        "city": "WARRENTON",
        "state": "VA",
        "postalCode": "20186-2947"
      },
      {
        "line": [
          "13119 PEBBLE LN"
        ],
        "city": "FAIRFAX",
        "state": "VA",
        "postalCode": "22033-3420"
      },
      {
        "line": [
          "6223 GREELY BLVD"
        ],
        "city": "SPRINGFIELD",
        "state": "VA",
        "postalCode": "22152-1941"
      },
      {
        "line": [
          "8207 WOLFTRAP RD"
        ],
        "city": "VIENNA",
        "state": "VA",
        "postalCode": "22182-5125"
      },
      {
        "line": [
          "9659 MANASSAS DR"
        ],
        "city": "MANASSAS",
        "state": "VA",
        "postalCode": "20111-2554"
      },
      {
        "line": [
          "6124 UNION VILLAGE DR"
        ],
        "city": "CLIFTON",
        "state": "VA",
        "postalCode": "20124-2320"
      },
      {
        "line": [
          "6200 ERMAN CT"
        ],
        "city": "BURKE",
        "state": "VA",
        "postalCode": "22015-3517"
      },
      {
        "line": [
          "60 BRIMLEY DR."
        ],
        "city": "FREDERICKSBURG",
        "state": "VA",
        "postalCode": "22406-5103"
      },
      {
        "line": [
          "2244 N Glebe Road"
        ],
        "city": "ARLINGTON",
        "state": "VA",
        "postalCode": "22207-3405"
      }
    ],
    "extension": [
      {
        "url": "https://fhir.athena.io/StructureDefinition/ah-practice",
        "valueReference": {
          "reference": "Organization/a-1.Practice-21432"
        }
      },
      {
        "url": "https://fhir.athena.io/StructureDefinition/ah-brand",
        "valueReference": {
          "reference": "Organization/a-21432.Brand-1"
        }
      }
    ]
  },
  "fullUrl": "urn:uuid:53820cab-5024-5572-aee8-3b82d8987733"
}