{
  "resource": {
    "resourceType": "Organization",
    "id": "6c8ca78e-e58d-58ef-b5dd-ef317349b3fd",
    "name": "CASTLE MEDICAL CENTER",
    "endpoint": [
      {
        "reference": "Endpoint/27a4e967-47aa-5a9c-a572-b8297ee268a2"
      },
      {
        "reference": "Endpoint/aee5f80d-5fb7-50ae-b49f-9b7bbff1dad4"
      }
    ],
    "identifier": [
      {
        "system": "http://hl7.org/fhir/sid/us-npi",
        "value": "1174046346"
      }
    ],
    "address": [
      {
        "line": [
          "91-2139 Fort Weaver Road Ste 203"
        ],
        "city": "EWA BEACH",
        "state": "HI",
        "postalCode": "96706-3608"
      },
      {
        "line": [
          "40 Aulike St #317"
        ],
        "city": "KAILUA",
        "state": "HI",
        "postalCode": "96734-2758"
      },
      {
        "line": [
          "500 ala moana blvd",
          "suite 1"
        ],
        "city": "HONOLULU",
        "state": "HI",
        "postalCode": "96813-4900"
      },
      {
        "line": [
          "2226 Liliha street"
        ],
        "city": "HONOLULU",
        "state": "HI",
        "postalCode": "96817-1600"
      },
      {
        "line": [
          "640 ULUKAHIKI ST"
        ],
        "city": "KAILUA",
        "state": "HI",
        "postalCode": "96734-2757"
      },
      {
        "line": [
          "3176 POIPU RD"
        ],
        "city": "KOLOA",
        "state": "HI",
        "postalCode": "96756-9521"
      },
      {
        "line": [
          "642 Ulakahiki St Ste 200"
        ],
        "city": "KAILUA",
        "state": "HI",
        "postalCode": "96734-4418"
      },
      {
        "line": [
          "40 Aulike St 317"
        ],
        "city": "KAILUA",
        "state": "HI",
        "postalCode": "96734-0138"
      },
      {
        "line": [
          "670 PONAHAWAI ST STE 223"
        ],
        "city": "HILO",
        "state": "HI",
        "postalCode": "96720-7829"
      },
      {
        "line": [
          "347 North Kuakini St"
        ],
        "city": "HONOLULU",
        "state": "HI",
        "postalCode": "96817-9980"
      },
      {
        "line": [
          "30 AULIKE ST",
          "STE 601"
        ],
        "city": "KAILUA",
        "state": "HI",
        "postalCode": "96734-2752"
      },
      {
        "line": [
          "75-184 HUALALAI RD",
          "SUITE 301"
        ],
        "city": "KAILUA KONA",
        "state": "HI",
        "postalCode": "96740-1719"
      }
    ],
    "extension": [
      {
        "url": "https://fhir.athena.io/StructureDefinition/ah-practice",
        "valueReference": {
          "reference": "Organization/a-1.Practice-16353"
        }
      },
      {
        "url": "https://fhir.athena.io/StructureDefinition/ah-brand",
        "valueReference": {
          "reference": "Organization/a-16353.Brand-1"
        }
      }
    ]
  },
  "fullUrl": "urn:uuid:6c8ca78e-e58d-58ef-b5dd-ef317349b3fd"
}