{
  "resource": {
    "resourceType": "Organization",
    "id": "4e74a154-ef37-5531-8e22-93f00191d2fb",
    "name": "Allam Medical Group",
    "endpoint": [
      {
        "reference": "Endpoint/27a4e967-47aa-5a9c-a572-b8297ee268a2"
      },
      {
        "reference": "Endpoint/24f4849b-3590-51a2-aea7-20fb8604f58a"
      }
    ],
    "identifier": [
      {
        "system": "http://hl7.org/fhir/sid/us-npi",
        "value": "1972994077"
      }
    ],
    "address": [
      {
        "line": [
          "1 BAY AVENUE"
        ],
        "city": "MONTCLAIR",
        "state": "NJ",
        "postalCode": "07042-4837"
      },
      {
        "line": [
          "89 CHRISTOPHER STREET"
        ],
        "city": "MONTCLAIR",
        "state": "NJ",
        "postalCode": "07042-0091"
      },
      {
        "line": [
          "111 GATES AVENUE"
        ],
        "city": "MONTCLAIR",
        "state": "NJ",
        "postalCode": "07042-2598"
      },
      {
        "line": [
          "165 FAIRVIEW AVENUE"
        ],
        "city": "WEST CALDWELL",
        "state": "NJ",
        "postalCode": "07006-4084"
      },
      {
        "line": [
          "520 PROSPECT AVENUE"
        ],
        "city": "WEST ORANGE",
        "state": "NJ",
        "postalCode": "07052-0001"
      },
      {
        "line": [
          "25 EAST LINDSEY ROAD"
        ],
        "city": "CEDAR GROVE",
        "state": "NJ",
        "postalCode": "07009-1436"
      },
      {
        "line": [
          "520 PROSPECT AVENYUE"
        ],
        "city": "WEST ORANGE",
        "state": "NJ",
        "postalCode": "07052-0001"
      },
      {
        "line": [
          "JOB HAINES"
        ],
        "city": "BLOOMFIELD",
        "state": "NJ",
        "postalCode": "07003-5689"
      },
      {
        "line": [
          "CRANES MILL"
        ],
        "city": "CALDWELL",
        "state": "NJ",
        "postalCode": "07006-0001"
      },
      {
        "line": [
          "42 NO MOUNTAIN AVENUE"
        ],
        "city": "MONTCLAIR",
        "state": "NJ",
        "postalCode": "07042-4837"
      },
      {
        "line": [
          "39 S WILLOW STREET"
        ],
        "city": "MONTCLAIR",
        "state": "NJ",
        "postalCode": "07042-0091"
      },
      {
        "line": [
          "47 GREENBROOK ROAD"
        ],
        "city": "FARIFEILD",
        "state": "NJ",
        "postalCode": "07006-4330"
      },
      {
        "line": [
          "73 PARK STREET  3RD FLOOR"
        ],
        "city": "MONTCLAIR",
        "state": "NJ",
        "postalCode": "07042-2903"
      },
      {
        "line": [
          "220 PLEASANT VALLEY WAY"
        ],
        "city": "WEST ORANGE",
        "state": "NJ",
        "postalCode": "07052-2997"
      },
      {
        "line": [
          "707 EAGLE ROCK AVENUE"
        ],
        "city": "WEST ORANGE",
        "state": "NJ",
        "postalCode": "07052-2180"
      },
      {
        "line": [
          "110 GROVE AVENUE"
        ],
        "city": "CEDAR GROVE",
        "state": "NJ",
        "postalCode": "07009-1436"
      },
      {
        "line": [
          "73 PARK STREET, 3RD FLOOR",
          "3RD FLOOR"
        ],
        "city": "MONTCLAIR",
        "state": "NJ",
        "postalCode": "07042-2903"
      },
      {
        "line": [
          "398 POMPTON AVENUE"
        ],
        "city": "CEDAR GROVE",
        "state": "NJ",
        "postalCode": "07009-1436"
      },
      {
        "line": [
          "536 RIDGE ROAD"
        ],
        "city": "CEDAR GROVE",
        "state": "NJ",
        "postalCode": "07009-1436"
      },
      {
        "line": [
          "290 S ORANGE AVE"
        ],
        "city": "LIVINGSTON",
        "state": "NJ",
        "postalCode": "07039-5902"
      },
      {
        "line": [
          "73 PARK STREET"
        ],
        "city": "MONTCLAIR",
        "state": "NJ",
        "postalCode": "07042-2903"
      },
      {
        "line": [
          "31 SO LIVINGSTON AVENUE"
        ],
        "city": "LIVINGSTON",
        "state": "NJ",
        "postalCode": "07039-0001"
      },
      {
        "line": [
          "707 EAGLE ROCK AVE"
        ],
        "city": "WEST ORANGE",
        "state": "NJ",
        "postalCode": "07052-2180"
      },
      {
        "line": [
          "68 PASSAIC AVENUE"
        ],
        "city": "LIVINGSTON",
        "state": "NJ",
        "postalCode": "07039-0045"
      },
      {
        "line": [
          "250 BLOOMFIELD AVE"
        ],
        "city": "BLOOMFIELD",
        "state": "NJ",
        "postalCode": "07003-5689"
      }
    ],
    "extension": [
      {
        "url": "https://fhir.athena.io/StructureDefinition/ah-practice",
        "valueReference": {
          "reference": "Organization/a-1.Practice-16546"
        }
      },
      {
        "url": "https://fhir.athena.io/StructureDefinition/ah-brand",
        "valueReference": {
          "reference": "Organization/a-16546.Brand-1"
        }
      }
    ]
  },
  "fullUrl": "urn:uuid:4e74a154-ef37-5531-8e22-93f00191d2fb"
}