{
  "resource": {
    "resourceType": "Organization",
    "id": "0c81cb05-3c60-5841-9d3f-dfbb928e0e2a",
    "name": "Nephrology and Hypertension of Virginia, Dr. Tandra's Lansdowne Office",
    "endpoint": [
      {
        "reference": "Endpoint/27a4e967-47aa-5a9c-a572-b8297ee268a2"
      },
      {
        "reference": "Endpoint/a324f479-5cd5-557f-9960-c7912d142874"
      }
    ],
    "identifier": [
      {
        "system": "http://hl7.org/fhir/sid/us-npi",
        "value": "1780161687"
      }
    ],
    "address": [
      {
        "line": [
          "224d Cornwall St NW",
          "Ste 100"
        ],
        "city": "LEESBURG",
        "state": "VA",
        "postalCode": "20176-2700"
      },
      {
        "line": [
          "10565 Fairfax Blvd",
          "Suite 205"
        ],
        "city": "FAIRFAX",
        "state": "VA",
        "postalCode": "22030-3104"
      },
      {
        "line": [
          "8501 Arlington Blvd #100"
        ],
        "city": "FAIRFAX",
        "state": "VA",
        "postalCode": "22031-4625"
      },
      {
        "line": [
          "3300 GALLOWS ROAD"
        ],
        "city": "FALLS CHURCH",
        "state": "VA",
        "postalCode": "22042-3307"
      },
      {
        "line": [
          "530 HUNTMAR PARK DR"
        ],
        "city": "HERNDON",
        "state": "VA",
        "postalCode": "20170-5100"
      },
      {
        "line": [
          "44045 RIVERSIDE PKWY"
        ],
        "city": "LEESBURG",
        "state": "VA",
        "postalCode": "20176-5101"
      },
      {
        "line": [
          "12330 Pinecrest Rd #200"
        ],
        "city": "RESTON",
        "state": "VA",
        "postalCode": "20191-1652"
      },
      {
        "line": [
          "19415 DEERFIELD AVENUE",
          "SUITE 103"
        ],
        "city": "LEESBURG",
        "state": "VA",
        "postalCode": "20176-8470"
      },
      {
        "line": [
          "1897 PRESTON WHITE DR STE 105"
        ],
        "city": "RESTON",
        "state": "VA",
        "postalCode": "20191-5475"
      },
      {
        "line": [
          "8501 ARLINGTON BLVD"
        ],
        "city": "FAIRFAX",
        "state": "VA",
        "postalCode": "22031-4625"
      },
      {
        "line": [
          "1850 TOWN CENTER PKWY"
        ],
        "city": "RESTON",
        "state": "VA",
        "postalCode": "20190-5899"
      },
      {
        "line": [
          "24440 STONE SPRINGS BLVD"
        ],
        "city": "ALDIE",
        "state": "VA",
        "postalCode": "20166-2247"
      },
      {
        "line": [
          "12330 Pinecrest Rd",
          "Suite 200"
        ],
        "city": "RESTON",
        "state": "VA",
        "postalCode": "20191-1652"
      },
      {
        "line": [
          "24640 Southpoint Dr",
          "Ste 160"
        ],
        "city": "CHANTILLY",
        "state": "VA",
        "postalCode": "20152-4140"
      },
      {
        "line": [
          "19490 Sandridge Way Suite 140"
        ],
        "city": "LEESBURG",
        "state": "VA",
        "postalCode": "20176-3467"
      },
      {
        "line": [
          "44084 Riverside Pkwy",
          "Suite 250"
        ],
        "city": "LEESBURG",
        "state": "VA",
        "postalCode": "20176-5159"
      },
      {
        "line": [
          "8391 OLD COURT HOUSE",
          "UNIT 160"
        ],
        "city": "VIENNA",
        "state": "VA",
        "postalCode": "22182-3819"
      },
      {
        "line": [
          "3600 JOSEPH SEIWICK DR"
        ],
        "city": "FAIRFAX",
        "state": "VA",
        "postalCode": "22033-1709"
      },
      {
        "line": [
          "46396 BENEDICT DRIVE"
        ],
        "city": "STERLING",
        "state": "VA",
        "postalCode": "20164-6626"
      },
      {
        "line": [
          "1897 Preston White Dr Suite 105"
        ],
        "city": "RESTON",
        "state": "VA",
        "postalCode": "20191-5475"
      }
    ],
    "extension": [
      {
        "url": "https://fhir.athena.io/StructureDefinition/ah-practice",
        "valueReference": {
          "reference": "Organization/a-1.Practice-18295"
        }
      },
      {
        "url": "https://fhir.athena.io/StructureDefinition/ah-brand",
        "valueReference": {
          "reference": "Organization/a-18295.Brand-1"
        }
      }
    ]
  },
  "fullUrl": "urn:uuid:0c81cb05-3c60-5841-9d3f-dfbb928e0e2a"
}