{
  "resource": {
    "resourceType": "Organization",
    "id": "d720fef0-9f3c-5712-b7a9-d91881f55e22",
    "name": "YMCA of Metropolitan Fort Worth",
    "endpoint": [
      {
        "reference": "Endpoint/27a4e967-47aa-5a9c-a572-b8297ee268a2"
      },
      {
        "reference": "Endpoint/abb5f7d5-468e-5806-be46-fb2282afef02"
      }
    ],
    "identifier": [
      {
        "system": "http://hl7.org/fhir/sid/us-npi",
        "value": "1598207821"
      }
    ],
    "address": [
      {
        "line": [
          "2600 West Fwy"
        ],
        "city": "FORT WORTH",
        "state": "TX",
        "postalCode": "76102-7109"
      },
      {
        "line": [
          "7650 Will Rogers Blvd"
        ],
        "city": "FORT WORTH",
        "state": "TX",
        "postalCode": "76140-6022"
      },
      {
        "line": [
          "9100 North Beach Street"
        ],
        "city": "KELLER",
        "state": "TX",
        "postalCode": "76244-9034"
      },
      {
        "line": [
          "2801 Miller Ave"
        ],
        "city": "FORT WORTH",
        "state": "TX",
        "postalCode": "76105-4134"
      },
      {
        "line": [
          "8201 Calmont Ave"
        ],
        "city": "FORT WORTH",
        "state": "TX",
        "postalCode": "76116-3504"
      },
      {
        "line": [
          "1899 Winscott Rd"
        ],
        "city": "FORT WORTH",
        "state": "TX",
        "postalCode": "76126-4337"
      },
      {
        "line": [
          "5315 Boat Club Rd"
        ],
        "city": "FORT WORTH",
        "state": "TX",
        "postalCode": "76135-1740"
      },
      {
        "line": [
          "7151 Jack Newell Blvd. S"
        ],
        "city": "FORT WORTH",
        "state": "TX",
        "postalCode": "76118-7037"
      },
      {
        "line": [
          "3524 Central Dr"
        ],
        "city": "BEDFORD",
        "state": "TX",
        "postalCode": "76021-2649"
      },
      {
        "line": [
          "4900 Horne Street"
        ],
        "city": "FORT WORTH",
        "state": "TX",
        "postalCode": "76107-7603"
      },
      {
        "line": [
          "4055 International Plaza,",
          "Suite 200"
        ],
        "city": "FORT WORTH",
        "state": "TX",
        "postalCode": "76109-4814"
      },
      {
        "line": [
          "1500 Sandy Ln"
        ],
        "city": "FORT WORTH",
        "state": "TX",
        "postalCode": "76112-3529"
      },
      {
        "line": [
          "8211 White Settlement Rd."
        ],
        "city": "FORT WORTH",
        "state": "TX",
        "postalCode": "76108-1604"
      },
      {
        "line": [
          "1009 Joshua Station Blvd"
        ],
        "city": "JOSHUA",
        "state": "TX",
        "postalCode": "76058-3382"
      },
      {
        "line": [
          "3209 Galvez Ave"
        ],
        "city": "FORT WORTH",
        "state": "TX",
        "postalCode": "76111-4509"
      },
      {
        "line": [
          "6321 Blvd 26"
        ],
        "city": "NORTH RICHLAND HILLS",
        "state": "TX",
        "postalCode": "76180-1593"
      },
      {
        "line": [
          "6200 Sand Springs Rd"
        ],
        "city": "FORT WORTH",
        "state": "TX",
        "postalCode": "76114-2446"
      },
      {
        "line": [
          "512 Lamar St, Suite 400"
        ],
        "city": "FORT WORTH",
        "state": "TX",
        "postalCode": "76102-3717"
      },
      {
        "line": [
          "1600 East Lancaster Ave."
        ],
        "city": "FORT WORTH",
        "state": "TX",
        "postalCode": "76102-6720"
      },
      {
        "line": [
          "4750 Barwick Dr"
        ],
        "city": "FORT WORTH",
        "state": "TX",
        "postalCode": "76132-1590"
      },
      {
        "line": [
          "204 South Buffalo"
        ],
        "city": "CLEBURNE",
        "state": "TX",
        "postalCode": "76033-5404"
      },
      {
        "line": [
          "512 Lamar St"
        ],
        "city": "FORT WORTH",
        "state": "TX",
        "postalCode": "76102-3717"
      },
      {
        "line": [
          "2205 Hwy 121"
        ],
        "city": "BEDFORD",
        "state": "TX",
        "postalCode": "76021-5950"
      },
      {
        "line": [
          "8250 McCart Ave"
        ],
        "city": "FORT WORTH",
        "state": "TX",
        "postalCode": "76123-2300"
      },
      {
        "line": [
          "1 Destiny Way"
        ],
        "city": "ROANOKE",
        "state": "TX",
        "postalCode": "76262-8103"
      },
      {
        "line": [
          "2151 Green Oaks Road"
        ],
        "city": "FORT WORTH",
        "state": "TX",
        "postalCode": "76116-1721"
      },
      {
        "line": [
          "4150 International Plaza",
          "400"
        ],
        "city": "FORT WORTH",
        "state": "TX",
        "postalCode": "76109-4819"
      },
      {
        "line": [
          "6101 Old Denton Road"
        ],
        "city": "FORT WORTH",
        "state": "TX",
        "postalCode": "76131-4316"
      },
      {
        "line": [
          "1475 James Rd"
        ],
        "city": "GRANBURY",
        "state": "TX",
        "postalCode": "76049-8261"
      }
    ],
    "extension": [
      {
        "url": "https://fhir.athena.io/StructureDefinition/ah-practice",
        "valueReference": {
          "reference": "Organization/a-1.Practice-14268"
        }
      },
      {
        "url": "https://fhir.athena.io/StructureDefinition/ah-brand",
        "valueReference": {
          "reference": "Organization/a-14268.Brand-1"
        }
      }
    ]
  },
  "fullUrl": "urn:uuid:d720fef0-9f3c-5712-b7a9-d91881f55e22"
}