{
  "resource": {
    "resourceType": "Organization",
    "id": "d798bcab-fb32-5686-a80b-f2925f90c2e9",
    "name": "Adult Medicine - Countryside",
    "endpoint": [
      {
        "reference": "Endpoint/27a4e967-47aa-5a9c-a572-b8297ee268a2"
      },
      {
        "reference": "Endpoint/23e096f6-2c50-58d2-9182-2d74b3249941"
      }
    ],
    "identifier": [
      {
        "system": "http://hl7.org/fhir/sid/us-npi",
        "value": "1740765700"
      }
    ],
    "address": [
      {
        "line": [
          "120 N OAK ST"
        ],
        "city": "HINSDALE",
        "state": "IL",
        "postalCode": "60521-3829"
      },
      {
        "line": [
          "512 E OGDEN AVE"
        ],
        "city": "WESTMONT",
        "state": "IL",
        "postalCode": "60559-1228"
      },
      {
        "line": [
          "5801 S CASS AVE"
        ],
        "city": "WESTMONT",
        "state": "IL",
        "postalCode": "60559-2300"
      },
      {
        "line": [
          "600 W OGDEN AVE"
        ],
        "city": "HINSDALE",
        "state": "IL",
        "postalCode": "60521-3158"
      },
      {
        "line": [
          "4735 WILLOW SPRINGS RD"
        ],
        "city": "LA GRANGE",
        "state": "IL",
        "postalCode": "60525-6130"
      },
      {
        "line": [
          "5101 WILLOW SPRINGS RD"
        ],
        "city": "LA GRANGE",
        "state": "IL",
        "postalCode": "60525-2600"
      },
      {
        "line": [
          "315 N LA GRANGE RD"
        ],
        "city": "LA GRANGE PARK",
        "state": "IL",
        "postalCode": "60526-1903"
      },
      {
        "line": [
          "250 VILLAGE DR"
        ],
        "city": "DOWNERS GROVE",
        "state": "IL",
        "postalCode": "60516-3048"
      },
      {
        "line": [
          "3249 OAK PARK AVE"
        ],
        "city": "BERWYN",
        "state": "IL",
        "postalCode": "60402-3429"
      },
      {
        "line": [
          "6438 JOLIET RD"
        ],
        "city": "LA GRANGE",
        "state": "IL",
        "postalCode": "60525-4642"
      },
      {
        "line": [
          "339 9TH AVE"
        ],
        "city": "LA GRANGE",
        "state": "IL",
        "postalCode": "60525-6429"
      },
      {
        "line": [
          "3815 HIGHLAND AVE"
        ],
        "city": "DOWNERS GROVE",
        "state": "IL",
        "postalCode": "60515-1500"
      }
    ],
    "extension": [
      {
        "url": "https://fhir.athena.io/StructureDefinition/ah-practice",
        "valueReference": {
          "reference": "Organization/a-1.Practice-18778"
        }
      },
      {
        "url": "https://fhir.athena.io/StructureDefinition/ah-brand",
        "valueReference": {
          "reference": "Organization/a-18778.Brand-1"
        }
      }
    ]
  },
  "fullUrl": "urn:uuid:d798bcab-fb32-5686-a80b-f2925f90c2e9"
}