{
  "resource": {
    "resourceType": "Organization",
    "id": "d01e03f3-5bc7-56b9-9fa9-e73151287376",
    "name": "Alliance Nursing & Rehab",
    "endpoint": [
      {
        "reference": "Endpoint/27a4e967-47aa-5a9c-a572-b8297ee268a2"
      },
      {
        "reference": "Endpoint/f4b40e1c-0660-513f-8df6-c67c52a7eaba"
      }
    ],
    "identifier": [
      {
        "system": "http://hl7.org/fhir/sid/us-npi",
        "value": "1770965758"
      }
    ],
    "address": [
      {
        "line": [
          "1711 W. Temple St."
        ],
        "city": "LOS ANGELES",
        "state": "CA",
        "postalCode": "90026-5421"
      },
      {
        "line": [
          "1711 W TEMPLE ST 5TH FLOOR"
        ],
        "city": "LOS ANGELES",
        "state": "CA",
        "postalCode": "90026-5421"
      },
      {
        "line": [
          "1450 N. Fair Oaks Avenue"
        ],
        "city": "PASADENA",
        "state": "CA",
        "postalCode": "91103-1801"
      },
      {
        "line": [
          "3233 Pico Blvd."
        ],
        "city": "LOS ANGELES",
        "state": "CA",
        "postalCode": "90019-3640"
      },
      {
        "line": [
          "3825 Durfee Ave"
        ],
        "city": "EL MONTE",
        "state": "CA",
        "postalCode": "91732-2505"
      },
      {
        "line": [
          "6025 Pine Avenue"
        ],
        "city": "MAYWOOD",
        "state": "CA",
        "postalCode": "90270-3108"
      },
      {
        "line": [
          "230 E. Adams Blvd."
        ],
        "city": "LOS ANGELES",
        "state": "CA",
        "postalCode": "90011-1426"
      },
      {
        "line": [
          "150 Bellefontaine St."
        ],
        "city": "PASADENA",
        "state": "CA",
        "postalCode": "91105-3102"
      },
      {
        "line": [
          "1711 W TEMPLE ST"
        ],
        "city": "LOS ANGELES",
        "state": "CA",
        "postalCode": "90026-5421"
      },
      {
        "line": [
          "4333 Torrance Blvd."
        ],
        "city": "TORRANCE",
        "state": "CA",
        "postalCode": "90503-4401"
      },
      {
        "line": [
          "676 South Bonnie Brae St."
        ],
        "city": "LOS ANGELES",
        "state": "CA",
        "postalCode": "90057-3710"
      },
      {
        "line": [
          "201 Allen Ave."
        ],
        "city": "GLENDALE",
        "state": "CA",
        "postalCode": "91201-2803"
      }
    ],
    "extension": [
      {
        "url": "https://fhir.athena.io/StructureDefinition/ah-practice",
        "valueReference": {
          "reference": "Organization/a-1.Practice-11689"
        }
      },
      {
        "url": "https://fhir.athena.io/StructureDefinition/ah-brand",
        "valueReference": {
          "reference": "Organization/a-11689.Brand-1"
        }
      }
    ]
  },
  "fullUrl": "urn:uuid:d01e03f3-5bc7-56b9-9fa9-e73151287376"
}