{
  "resource": {
    "resourceType": "Organization",
    "id": "6c70c2ea-35c8-5ccf-bb3f-32c2cbb4042b",
    "name": "McAllen Specialty Mental Health",
    "endpoint": [
      {
        "reference": "Endpoint/27a4e967-47aa-5a9c-a572-b8297ee268a2"
      },
      {
        "reference": "Endpoint/48bc2704-4aa0-556a-9720-bfa343fb5320"
      }
    ],
    "identifier": [
      {
        "system": "http://hl7.org/fhir/sid/us-npi",
        "value": "1477960730"
      }
    ],
    "address": [
      {
        "line": [
          "1330 E. 6th street"
        ],
        "city": "WESLACO",
        "state": "TX",
        "postalCode": "78596-4204"
      },
      {
        "line": [
          "2810 W. Expressway 83"
        ],
        "city": "MERCEDES",
        "state": "TX",
        "postalCode": "78570-9704"
      },
      {
        "line": [
          "5500 n expressway 77/83"
        ],
        "city": "BROWNSVILLE",
        "state": "TX",
        "postalCode": "78526-4561"
      },
      {
        "line": [
          "2070 W. University Drive"
        ],
        "city": "BROWNSVILLE",
        "state": "TX",
        "postalCode": "78520-4976"
      },
      {
        "line": [
          "512 VICTORIA LN STE 13"
        ],
        "city": "HARLINGEN",
        "state": "TX",
        "postalCode": "78550-3228"
      },
      {
        "line": [
          "3115 Center Pointe Dr"
        ],
        "city": "EDINBURG",
        "state": "TX",
        "postalCode": "78539-8433"
      },
      {
        "line": [
          "613 North Sugar Road"
        ],
        "city": "EDINBURG",
        "state": "TX",
        "postalCode": "78539-0007"
      },
      {
        "line": [
          "230 N 86th St"
        ],
        "city": "EDINBURG",
        "state": "TX",
        "postalCode": "78542-0012"
      },
      {
        "line": [
          "2102 Treasure Hills Blvd"
        ],
        "city": "HARLINGEN",
        "state": "TX",
        "postalCode": "78550-8736"
      },
      {
        "line": [
          "9901 California Rd"
        ],
        "city": "BROWNSVILLE",
        "state": "TX",
        "postalCode": "78521-6135"
      },
      {
        "line": [
          "4301 s expressway 83"
        ],
        "city": "HARLINGEN",
        "state": "TX",
        "postalCode": "78550-7949"
      },
      {
        "line": [
          "1 rocket road"
        ],
        "city": "HAWTHORNE",
        "state": "CA",
        "postalCode": "90250-6844"
      },
      {
        "line": [
          "1040 W Jefferson"
        ],
        "city": "BROWNSVILLE",
        "state": "TX",
        "postalCode": "78520-6338"
      },
      {
        "line": [
          "2102 treasure hills blvd"
        ],
        "city": "HARLINGEN",
        "state": "TX",
        "postalCode": "78550-8736"
      },
      {
        "line": [
          "205 E Toronto Ave"
        ],
        "city": "MCALLEN",
        "state": "TX",
        "postalCode": "78503-1209"
      },
      {
        "line": [
          "723 Santa Isabel Blvd"
        ],
        "city": "PORT ISABEL",
        "state": "TX",
        "postalCode": "78578-2647"
      },
      {
        "line": [
          "100 A E Alton Gloor Blvd"
        ],
        "city": "BROWNSVILLE",
        "state": "TX",
        "postalCode": "78526-3346"
      },
      {
        "line": [
          "1214 W SCHUNIOR STREET"
        ],
        "city": "EDINBURG",
        "state": "TX",
        "postalCode": "78541-2337"
      },
      {
        "line": [
          "2101 pease street"
        ],
        "city": "HARLINGEN",
        "state": "TX",
        "postalCode": "78550-8307"
      },
      {
        "line": [
          "721 S Airport Drive"
        ],
        "city": "WESLACO",
        "state": "TX",
        "postalCode": "78596-6617"
      },
      {
        "line": [
          "3804 S. Jackson Road"
        ],
        "city": "EDINBURG",
        "state": "TX",
        "postalCode": "78539-6682"
      },
      {
        "line": [
          "3115 CENTER POINTE DR"
        ],
        "city": "EDINBURG",
        "state": "TX",
        "postalCode": "78539-8433"
      },
      {
        "line": [
          "901 Wildrose Ln"
        ],
        "city": "BROWNSVILLE",
        "state": "TX",
        "postalCode": "78520-8816"
      },
      {
        "line": [
          "1 W University Blvd",
          "Cortez Hall, Suite 237"
        ],
        "city": "BROWNSVILLE",
        "state": "TX",
        "postalCode": "78520-4933"
      },
      {
        "line": [
          "2810 W Expressway 83"
        ],
        "city": "MERCEDES",
        "state": "TX",
        "postalCode": "78570-9704"
      },
      {
        "line": [
          "615 Camelot Drive"
        ],
        "city": "HARLINGEN",
        "state": "TX",
        "postalCode": "78550-8472"
      },
      {
        "line": [
          "One West University Blvd",
          "Cortez Hall 237"
        ],
        "city": "BROWNSVILLE",
        "state": "TX",
        "postalCode": "78520-4933"
      },
      {
        "line": [
          "230 N 86th Street"
        ],
        "city": "EDINBURG",
        "state": "TX",
        "postalCode": "78542-0012"
      },
      {
        "line": [
          "1033 La Posada Dr",
          "Suite 150"
        ],
        "city": "AUSTIN",
        "state": "TX",
        "postalCode": "78752-3829"
      },
      {
        "line": [
          "2902 Haine Drive"
        ],
        "city": "HARLINGEN",
        "state": "TX",
        "postalCode": "78550-3228"
      },
      {
        "line": [
          "N/A"
        ],
        "city": "EDINBURG",
        "state": "TX",
        "postalCode": "78541-5641"
      },
      {
        "line": [
          "1210 E. 8th street",
          "suite 3"
        ],
        "city": "WESLACO",
        "state": "TX",
        "postalCode": "78596-7120"
      },
      {
        "line": [
          "2530 Central Palm Drive"
        ],
        "city": "RIO GRANDE CITY",
        "state": "TX",
        "postalCode": "78582-6648"
      },
      {
        "line": [
          "2502 W. Trenton Rd, Ste 2552"
        ],
        "city": "EDINBURG",
        "state": "TX",
        "postalCode": "78539-3228"
      },
      {
        "line": [
          "5501 S Expressway 77"
        ],
        "city": "HARLINGEN",
        "state": "TX",
        "postalCode": "78550-3213"
      },
      {
        "line": [
          "2902 Haine Drive"
        ],
        "city": "HARLINGEN",
        "state": "TX",
        "postalCode": "78550-1234"
      },
      {
        "line": [
          "6316 n 10th street C1"
        ],
        "city": "MCALLEN",
        "state": "TX",
        "postalCode": "78504-3890"
      },
      {
        "line": [
          "400 pete diaz jr"
        ],
        "city": "RIO GRANDE CITY",
        "state": "TX",
        "postalCode": "78582-4817"
      },
      {
        "line": [
          "1304 south 25th ave"
        ],
        "city": "EDINBURG",
        "state": "TX",
        "postalCode": "78539-7205"
      },
      {
        "line": [
          "1214 W Schunior street"
        ],
        "city": "EDINBURG",
        "state": "TX",
        "postalCode": "78541-2337"
      },
      {
        "line": [
          "2409 E. Expressway 83"
        ],
        "city": "MISSION",
        "state": "TX",
        "postalCode": "78572-1007"
      },
      {
        "line": [
          "508 VICTORIA LN"
        ],
        "city": "HARLINGEN",
        "state": "TX",
        "postalCode": "78550-3225"
      },
      {
        "line": [
          "3341 E. Richardson Rd"
        ],
        "city": "EDINBURG",
        "state": "TX",
        "postalCode": "78542-0353"
      },
      {
        "line": [
          "1401 E Eighth St"
        ],
        "city": "WESLACO",
        "state": "TX",
        "postalCode": "78596-6640"
      },
      {
        "line": [
          "3341 E. Richardson Rd"
        ],
        "city": "EDINBURG",
        "state": "TX",
        "postalCode": "78539-0353"
      },
      {
        "line": [
          "2106 Treasure Hills Blvd., #1.326"
        ],
        "city": "HARLINGEN",
        "state": "TX",
        "postalCode": "78550-8736"
      },
      {
        "line": [
          "614 Maco Dr"
        ],
        "city": "HARLINGEN",
        "state": "TX",
        "postalCode": "78550-8450"
      },
      {
        "line": [
          "1400 W trenton rd."
        ],
        "city": "EDINBURG",
        "state": "TX",
        "postalCode": "78539-3413"
      },
      {
        "line": [
          "310 America Drive"
        ],
        "city": "BROWNSVILLE",
        "state": "TX",
        "postalCode": "78526-7437"
      },
      {
        "line": [
          "1330 E. 6th St"
        ],
        "city": "WESLACO",
        "state": "TX",
        "postalCode": "78596-4204"
      },
      {
        "line": [
          "2106 Treasure Hill Blvd"
        ],
        "city": "HARLINGEN",
        "state": "TX",
        "postalCode": "78550-8736"
      },
      {
        "line": [
          "2155 Paredes Line Rd."
        ],
        "city": "BROWNSVILLE",
        "state": "TX",
        "postalCode": "78521-1609"
      },
      {
        "line": [
          "9901 california Rd"
        ],
        "city": "BROWNSVILLE",
        "state": "TX",
        "postalCode": "78521-6135"
      },
      {
        "line": [
          "230 N. 86th Street"
        ],
        "city": "EDINBURG",
        "state": "TX",
        "postalCode": "78542-0012"
      },
      {
        "line": [
          "532 Gabriela Street"
        ],
        "city": "RIO GRANDE CITY",
        "state": "TX",
        "postalCode": "78582-6189"
      },
      {
        "line": [
          "2070 West University Drive"
        ],
        "city": "BROWNSVILLE",
        "state": "TX",
        "postalCode": "78520-4976"
      },
      {
        "line": [
          "4150 CROSSPOINT BLVD"
        ],
        "city": "EDINBURG",
        "state": "TX",
        "postalCode": "78539-1803"
      },
      {
        "line": [
          "52253 STATE HIGHWAY 4"
        ],
        "city": "BROWNSVILLE",
        "state": "TX",
        "postalCode": "78521-8927"
      },
      {
        "line": [
          "111 South 15th Street"
        ],
        "city": "MCALLEN",
        "state": "TX",
        "postalCode": "78501-5367"
      },
      {
        "line": [
          "2102 TREASURE HILLS BLVD"
        ],
        "city": "HARLINGEN",
        "state": "TX",
        "postalCode": "78550-8736"
      },
      {
        "line": [
          "4150 Crosspoint Blvd"
        ],
        "city": "EDINBURG",
        "state": "TX",
        "postalCode": "78539-1803"
      },
      {
        "line": [
          "3804 S Jackson Rd",
          "Ste # 2"
        ],
        "city": "EDINBURG",
        "state": "TX",
        "postalCode": "78539-6682"
      },
      {
        "line": [
          "1100 East Monroe"
        ],
        "city": "BROWNSVILLE",
        "state": "TX",
        "postalCode": "78520-5883"
      },
      {
        "line": [
          "1705 vermont ave",
          "po box 533668"
        ],
        "city": "HARLINGEN",
        "state": "TX",
        "postalCode": "78553-8914"
      },
      {
        "line": [
          "422 E 18TH ST"
        ],
        "city": "WESLACO",
        "state": "TX",
        "postalCode": "78596-8032"
      },
      {
        "line": [
          "3804 S JACKSON RD"
        ],
        "city": "EDINBURG",
        "state": "TX",
        "postalCode": "78539-6682"
      }
    ],
    "extension": [
      {
        "url": "https://fhir.athena.io/StructureDefinition/ah-practice",
        "valueReference": {
          "reference": "Organization/a-1.Practice-17813"
        }
      },
      {
        "url": "https://fhir.athena.io/StructureDefinition/ah-brand",
        "valueReference": {
          "reference": "Organization/a-17813.Brand-1"
        }
      }
    ]
  },
  "fullUrl": "urn:uuid:6c70c2ea-35c8-5ccf-bb3f-32c2cbb4042b"
}