{
  "resource": {
    "resourceType": "Organization",
    "id": "bf5cb24c-b5f5-5554-9b8f-205d76353a11",
    "name": "Houston Scoliosis and Spine Institute",
    "endpoint": [
      {
        "reference": "Endpoint/27a4e967-47aa-5a9c-a572-b8297ee268a2"
      },
      {
        "reference": "Endpoint/882fc6fb-f248-591d-9cec-ca60212d85f0"
      }
    ],
    "identifier": [
      {
        "system": "http://hl7.org/fhir/sid/us-npi",
        "value": "1215405402"
      }
    ],
    "address": [
      {
        "line": [
          "6411 Fannin St"
        ],
        "city": "HOUSTON",
        "state": "TX",
        "postalCode": "77030-1501"
      },
      {
        "line": [
          "1626 W. Baker Rd."
        ],
        "city": "BAYTOWN",
        "state": "TX",
        "postalCode": "77521-1646"
      },
      {
        "line": [
          "1475 Farm to Market 1960 Bypass Rd E"
        ],
        "city": "HUMBLE",
        "state": "TX",
        "postalCode": "77338-3909"
      },
      {
        "line": [
          "1795 E Del Mar Blvd",
          "A19"
        ],
        "city": "LAREDO",
        "state": "TX",
        "postalCode": "78041-6534"
      },
      {
        "line": [
          "7700 MAIN ST STE 400"
        ],
        "city": "HOUSTON",
        "state": "TX",
        "postalCode": "77030-4456"
      },
      {
        "line": [
          "4200 Twelve Oaks Pl"
        ],
        "city": "HOUSTON",
        "state": "TX",
        "postalCode": "77027-6812"
      },
      {
        "line": [
          "6565 FANNIN ST"
        ],
        "city": "HOUSTON",
        "state": "TX",
        "postalCode": "77030-2703"
      },
      {
        "line": [
          "1485 FM 1960 Bypass Rd.E",
          "Suite  260"
        ],
        "city": "HUMBLE",
        "state": "TX",
        "postalCode": "77338-4456"
      },
      {
        "line": [
          "6400 Fannin St"
        ],
        "city": "HOUSTON",
        "state": "TX",
        "postalCode": "77030-1521"
      },
      {
        "line": [
          "3534 VISTA RD",
          "SUITE 1000"
        ],
        "city": "PASADENA",
        "state": "TX",
        "postalCode": "77504-1799"
      },
      {
        "line": [
          "3534 Vista Rd."
        ],
        "city": "PASADENA",
        "state": "TX",
        "postalCode": "77504-1728"
      },
      {
        "line": [
          "7700 MAIN ST",
          "SUITE 400"
        ],
        "city": "HOUSTON",
        "state": "TX",
        "postalCode": "77030-4456"
      },
      {
        "line": [
          "6011 W Sam Houston Pkwy S"
        ],
        "city": "HOUSTON",
        "state": "TX",
        "postalCode": "77072-1646"
      },
      {
        "line": [
          "1420 GERONIMO DR",
          "Building C"
        ],
        "city": "EL PASO",
        "state": "TX",
        "postalCode": "79925-1855"
      },
      {
        "line": [
          "1642 W. Baker Rd",
          "Building C"
        ],
        "city": "BAYTOWN",
        "state": "TX",
        "postalCode": "77521-2284"
      },
      {
        "line": [
          "15149 WALLISVILLE RD"
        ],
        "city": "HOUSTON",
        "state": "TX",
        "postalCode": "77049-4619"
      },
      {
        "line": [
          "3534 Vista Drive",
          "STE 2000"
        ],
        "city": "PASADENA",
        "state": "TX",
        "postalCode": "77504-1799"
      },
      {
        "line": [
          "7700  Main",
          "Suite 400"
        ],
        "city": "HOUSTON",
        "state": "TX",
        "postalCode": "77030-4456"
      },
      {
        "line": [
          "1416 George Dieter Dr."
        ],
        "city": "EL PASO",
        "state": "TX",
        "postalCode": "79936-7410"
      },
      {
        "line": [
          "820 E REDD RD BLDG C"
        ],
        "city": "EL PASO",
        "state": "TX",
        "postalCode": "79912-7275"
      },
      {
        "line": [
          "24429 TOMBALL PKWY"
        ],
        "city": "TOMBALL",
        "state": "TX",
        "postalCode": "77375-8214"
      },
      {
        "line": [
          "7700 MAIN STREET, STE 400,"
        ],
        "city": "HOUSTON",
        "state": "TX",
        "postalCode": "77030-4456"
      },
      {
        "line": [
          "4801 Bissonnet St"
        ],
        "city": "BELLAIRE",
        "state": "TX",
        "postalCode": "77401-4028"
      },
      {
        "line": [
          "1211 HIGHWAY 6"
        ],
        "city": "SUGAR LAND",
        "state": "TX",
        "postalCode": "77478-4941"
      },
      {
        "line": [
          "1475 FM 1960 BYPASS RD E"
        ],
        "city": "HUMBLE",
        "state": "TX",
        "postalCode": "77338-3909"
      },
      {
        "line": [
          "22999 US 59N"
        ],
        "city": "KINGWOOD",
        "state": "TX",
        "postalCode": "77339-1020"
      },
      {
        "line": [
          "12950 East Fwy"
        ],
        "city": "HOUSTON",
        "state": "TX",
        "postalCode": "77015-5710"
      },
      {
        "line": [
          "4000 Spencer Hwy"
        ],
        "city": "PASADENA",
        "state": "TX",
        "postalCode": "77504-1202"
      },
      {
        "line": [
          "500 W MEDICAL CENTER BLVD"
        ],
        "city": "WEBSTER",
        "state": "TX",
        "postalCode": "77598-4220"
      },
      {
        "line": [
          "11800 ASTORIA BLVD"
        ],
        "city": "HOUSTON",
        "state": "TX",
        "postalCode": "77089-6041"
      },
      {
        "line": [
          "4401 Garth Rd"
        ],
        "city": "BAYTOWN",
        "state": "TX",
        "postalCode": "77521-2122"
      },
      {
        "line": [
          "12950 Easy Fwy",
          "Suite A"
        ],
        "city": "HOUSTON",
        "state": "TX",
        "postalCode": "77015-5710"
      },
      {
        "line": [
          "7700 MAIN STREET",
          "STE 400,"
        ],
        "city": "HOUSTON",
        "state": "TX",
        "postalCode": "77030-4456"
      },
      {
        "line": [
          "1313 Hermann Drive"
        ],
        "city": "HOUSTON",
        "state": "TX",
        "postalCode": "77004-7005"
      }
    ],
    "extension": [
      {
        "url": "https://fhir.athena.io/StructureDefinition/ah-practice",
        "valueReference": {
          "reference": "Organization/a-1.Practice-19705"
        }
      },
      {
        "url": "https://fhir.athena.io/StructureDefinition/ah-brand",
        "valueReference": {
          "reference": "Organization/a-19705.Brand-1"
        }
      }
    ]
  },
  "fullUrl": "urn:uuid:bf5cb24c-b5f5-5554-9b8f-205d76353a11"
}