{
  "resource": {
    "resourceType": "Organization",
    "id": "1bca40fb-e9fd-5a7b-aa77-41121008800c",
    "name": "Desert Care Network Primary and Specialty Care",
    "endpoint": [
      {
        "reference": "Endpoint/27a4e967-47aa-5a9c-a572-b8297ee268a2"
      },
      {
        "reference": "Endpoint/eb6c2eef-6893-5a58-ad90-0db13eda8adb"
      }
    ],
    "identifier": [
      {
        "system": "http://hl7.org/fhir/sid/us-npi",
        "value": "1538420104"
      },
      {
        "system": "http://hl7.org/fhir/sid/us-npi",
        "value": "1558797118"
      },
      {
        "system": "http://hl7.org/fhir/sid/us-npi",
        "value": "1912264862"
      },
      {
        "system": "http://hl7.org/fhir/sid/us-npi",
        "value": "1417297847"
      }
    ],
    "address": [
      {
        "line": [
          "1150 North Indian Canyon Dr"
        ],
        "city": "PALM SPRINGS",
        "state": "CA",
        "postalCode": "92262-4872"
      },
      {
        "line": [
          "1150 N Indian Canyon Dr"
        ],
        "city": "PALM SPRINGS",
        "state": "CA",
        "postalCode": "92262-4872"
      },
      {
        "line": [
          "8700 Beverly Blvd"
        ],
        "city": "LOS ANGELES",
        "state": "CA",
        "postalCode": "90048-1804"
      },
      {
        "line": [
          "1100 Las Tablas Rd"
        ],
        "city": "TEMPLETON",
        "state": "CA",
        "postalCode": "93465-9704"
      },
      {
        "line": [
          "47111 Monroe St"
        ],
        "city": "INDIO",
        "state": "CA",
        "postalCode": "92201-6739"
      },
      {
        "line": [
          "1010 Murray Ave"
        ],
        "city": "SAN LUIS OBISPO",
        "state": "CA",
        "postalCode": "93405-1806"
      },
      {
        "line": [
          "1180 North Indian Canyon Drive",
          "Ste E419"
        ],
        "city": "PALM SPRINGS",
        "state": "CA",
        "postalCode": "92262-4873"
      },
      {
        "line": [
          "11234 Anderson St"
        ],
        "city": "LOMA LINDA",
        "state": "CA",
        "postalCode": "92354-2804"
      },
      {
        "line": [
          "39000 Bob Hope Dr"
        ],
        "city": "RANCHO MIRAGE",
        "state": "CA",
        "postalCode": "92270-3221"
      },
      {
        "line": [
          "1180 N Indian Canyon Drive",
          "Suite 200"
        ],
        "city": "PALM SPRINGS",
        "state": "CA",
        "postalCode": "92262-4876"
      },
      {
        "line": [
          "47647 Caleo Bay Dr",
          "Ste 260"
        ],
        "city": "LA QUINTA",
        "state": "CA",
        "postalCode": "92253-8859"
      },
      {
        "line": [
          "82262 Valencia Avenue"
        ],
        "city": "INDIO",
        "state": "CA",
        "postalCode": "92201-3120"
      },
      {
        "line": [
          "47763 Monroe St"
        ],
        "city": "INDIO",
        "state": "CA",
        "postalCode": "92201-6711"
      },
      {
        "line": [
          "1180 N. Indian Canyon Dr.",
          "Ste E218"
        ],
        "city": "PALM SPRINGS",
        "state": "CA",
        "postalCode": "92262-4885"
      },
      {
        "line": [
          "6722 White Feather Rd"
        ],
        "city": "JOSHUA TREE",
        "state": "CA",
        "postalCode": "92252-6605"
      },
      {
        "line": [
          "47647 Caleo Bay Dr",
          "Ste 101"
        ],
        "city": "LA QUINTA",
        "state": "CA",
        "postalCode": "92253-8857"
      },
      {
        "line": [
          "35800 Bob Hope Drive",
          "Suite 100"
        ],
        "city": "RANCHO MIRAGE",
        "state": "CA",
        "postalCode": "92270-1739"
      }
    ],
    "extension": [
      {
        "url": "https://fhir.athena.io/StructureDefinition/ah-practice",
        "valueReference": {
          "reference": "Organization/a-1.Practice-14035"
        }
      },
      {
        "url": "https://fhir.athena.io/StructureDefinition/ah-brand",
        "valueReference": {
          "reference": "Organization/a-14035.Brand-4"
        }
      }
    ]
  },
  "fullUrl": "urn:uuid:1bca40fb-e9fd-5a7b-aa77-41121008800c"
}