{
  "resource": {
    "resourceType": "Organization",
    "id": "87df69af-c835-5208-bc71-1e81222627d0",
    "name": "Dr. Carl Jones",
    "endpoint": [
      {
        "reference": "Endpoint/27a4e967-47aa-5a9c-a572-b8297ee268a2"
      },
      {
        "reference": "Endpoint/6391fd70-893e-5b79-9c8b-ad2e5ffb1169"
      }
    ],
    "identifier": [
      {
        "system": "http://hl7.org/fhir/sid/us-npi",
        "value": "1841881794"
      },
      {
        "system": "http://hl7.org/fhir/sid/us-npi",
        "value": "1609147263"
      }
    ],
    "address": [
      {
        "line": [
          "4820 NE Stallings Drive"
        ],
        "city": "NACOGDOCHES",
        "state": "TX",
        "postalCode": "75965-1244"
      },
      {
        "line": [
          "4948 NE STALLINGS DR"
        ],
        "city": "NACOGDOCHES",
        "state": "TX",
        "postalCode": "75965-1265"
      },
      {
        "line": [
          "522 Russell Blvd"
        ],
        "city": "NACOGDOCHES",
        "state": "TX",
        "postalCode": "75965-1244"
      },
      {
        "line": [
          "522 RUSSELL BLVD"
        ],
        "city": "NACOGDOCHES",
        "state": "TX",
        "postalCode": "75965-1244"
      },
      {
        "line": [
          "4920 NE STALLINGS DR"
        ],
        "city": "NACOGDOCHES",
        "state": "TX",
        "postalCode": "75965-1254"
      },
      {
        "line": [
          "1204 Mound Street"
        ],
        "city": "NACOGDOCHES",
        "state": "TX",
        "postalCode": "75961-4027"
      },
      {
        "line": [
          "3610 NORTH UNIVERSITY DRIVE"
        ],
        "city": "NACOGDOCHES",
        "state": "TX",
        "postalCode": "75965-3610"
      },
      {
        "line": [
          "4920 NE STALLING DRIVE"
        ],
        "city": "NACOGDOCHES",
        "state": "TX",
        "postalCode": "75961-1254"
      }
    ],
    "extension": [
      {
        "url": "https://fhir.athena.io/StructureDefinition/ah-practice",
        "valueReference": {
          "reference": "Organization/a-1.Practice-17663"
        }
      },
      {
        "url": "https://fhir.athena.io/StructureDefinition/ah-brand",
        "valueReference": {
          "reference": "Organization/a-17663.Brand-1"
        }
      }
    ]
  },
  "fullUrl": "urn:uuid:87df69af-c835-5208-bc71-1e81222627d0"
}