{
  "resource": {
    "resourceType": "Organization",
    "id": "b30e0570-3a29-5fd3-801b-0e4281225edf",
    "name": "Meliora Healthcare",
    "endpoint": [
      {
        "reference": "Endpoint/27a4e967-47aa-5a9c-a572-b8297ee268a2"
      },
      {
        "reference": "Endpoint/750d24c8-dad8-5fb8-a886-b851812d2fde"
      }
    ],
    "identifier": [
      {
        "system": "http://hl7.org/fhir/sid/us-npi",
        "value": "1821793597"
      }
    ],
    "address": [
      {
        "line": [
          "708 GOODLETTE-FRANK RD N FL 2 FL MELIORA"
        ],
        "city": "NAPLES",
        "state": "FL",
        "postalCode": "34102-5644"
      },
      {
        "line": [
          "708 GOODLETTEFRANK RD N FL 2, NAPLES, FL 34102-564"
        ],
        "city": "NAPLES",
        "state": "FL",
        "postalCode": "34102-5644"
      },
      {
        "line": [
          "350 7TH ST N"
        ],
        "city": "NAPLES",
        "state": "FL",
        "postalCode": "34102-5754"
      },
      {
        "line": [
          "708 GOODLETTE-FRANK RD N # 2 FL"
        ],
        "city": "NAPLES",
        "state": "FL",
        "postalCode": "34102-5644"
      },
      {
        "line": [
          "8300 COLLIER BLVD"
        ],
        "city": "NAPLES",
        "state": "FL",
        "postalCode": "34114-3549"
      },
      {
        "line": [
          "708 GOODLETTE-FRANK RD N # 2 FL MELIORA"
        ],
        "city": "NAPLES",
        "state": "FL",
        "postalCode": "34102-5644"
      },
      {
        "line": [
          "6101 PINE RIDGE RD"
        ],
        "city": "NAPLES",
        "state": "FL",
        "postalCode": "34119-3900"
      },
      {
        "line": [
          "708 GOODLETTE FRANK ROAD N, 2ND FLOOR"
        ],
        "city": "NAPLES",
        "state": "FL",
        "postalCode": "34102-5644"
      }
    ],
    "extension": [
      {
        "url": "https://fhir.athena.io/StructureDefinition/ah-practice",
        "valueReference": {
          "reference": "Organization/a-1.Practice-29169"
        }
      },
      {
        "url": "https://fhir.athena.io/StructureDefinition/ah-brand",
        "valueReference": {
          "reference": "Organization/a-29169.Brand-1"
        }
      }
    ]
  },
  "fullUrl": "urn:uuid:b30e0570-3a29-5fd3-801b-0e4281225edf"
}