{
  "resource": {
    "resourceType": "Organization",
    "id": "0e77f595-446e-593a-8ff5-c368a4a6b38e",
    "name": "ALDEN DEBES REHAB HEALTHCARE CENTER",
    "endpoint": [
      {
        "reference": "Endpoint/27a4e967-47aa-5a9c-a572-b8297ee268a2"
      },
      {
        "reference": "Endpoint/8169e709-f04e-5a14-9827-f4bc2257a8fc"
      }
    ],
    "identifier": [
      {
        "system": "http://hl7.org/fhir/sid/us-npi",
        "value": "1467470906"
      },
      {
        "system": "http://hl7.org/fhir/sid/us-npi",
        "value": "1629003470"
      },
      {
        "system": "http://hl7.org/fhir/sid/us-npi",
        "value": "1366469132"
      },
      {
        "system": "http://hl7.org/fhir/sid/us-npi",
        "value": "1578580346"
      },
      {
        "system": "http://hl7.org/fhir/sid/us-npi",
        "value": "1215650528"
      },
      {
        "system": "http://hl7.org/fhir/sid/us-npi",
        "value": "1790889194"
      }
    ],
    "address": [
      {
        "line": [
          "200 FAIRMAN"
        ],
        "city": "WATSEKA",
        "state": "IL",
        "postalCode": "60970-1644"
      },
      {
        "line": [
          "200 Laird Lane"
        ],
        "city": "WATSEKA",
        "state": "IL",
        "postalCode": "60970-1644"
      },
      {
        "line": [
          "701 E ORANGE"
        ],
        "city": "HOOPESTON",
        "state": "IL",
        "postalCode": "60942-1820"
      },
      {
        "line": [
          "200 E FAIRMAN AVE"
        ],
        "city": "WATSEKA",
        "state": "IL",
        "postalCode": "60970-1644"
      },
      {
        "line": [
          "200 FAIRMAN AVE"
        ],
        "city": "WATSEKA",
        "state": "IL",
        "postalCode": "60970-1670"
      },
      {
        "line": [
          "200 E Fairman Ave"
        ],
        "city": "WATSEKA",
        "state": "IL",
        "postalCode": "60970-1644"
      },
      {
        "line": [
          "200 Fairman"
        ],
        "city": "WATSEKA",
        "state": "IL",
        "postalCode": "60970-1644"
      },
      {
        "line": [
          "200 FAIRMAN AVE"
        ],
        "city": "WATSEKA",
        "state": "IL",
        "postalCode": "60970-1644"
      },
      {
        "line": [
          "701 E ORANGE ST"
        ],
        "city": "HOOPESTON",
        "state": "IL",
        "postalCode": "60942-1801"
      },
      {
        "line": [
          "200 Fairman Ave."
        ],
        "city": "WATSEKA",
        "state": "IL",
        "postalCode": "60970-1644"
      },
      {
        "line": [
          "200 LAIRD LANE"
        ],
        "city": "WATSEKA",
        "state": "IL",
        "postalCode": "60970-7568"
      },
      {
        "line": [
          "200 LAIRD LANE"
        ],
        "city": "WATSEKA",
        "state": "IL",
        "postalCode": "60970-1644"
      }
    ],
    "extension": [
      {
        "url": "https://fhir.athena.io/StructureDefinition/ah-practice",
        "valueReference": {
          "reference": "Organization/a-1.Practice-15486"
        }
      },
      {
        "url": "https://fhir.athena.io/StructureDefinition/ah-brand",
        "valueReference": {
          "reference": "Organization/a-15486.Brand-2"
        }
      }
    ]
  },
  "fullUrl": "urn:uuid:0e77f595-446e-593a-8ff5-c368a4a6b38e"
}