{
  "resource": {
    "resourceType": "Organization",
    "id": "637638af-72e1-58d7-8a41-4583a9475698",
    "name": "Batesville Family Care Clinic",
    "endpoint": [
      {
        "reference": "Endpoint/27a4e967-47aa-5a9c-a572-b8297ee268a2"
      },
      {
        "reference": "Endpoint/fdfeadad-9bf0-5033-9444-11df05292b2d"
      }
    ],
    "identifier": [
      {
        "system": "http://hl7.org/fhir/sid/us-npi",
        "value": "1366905028"
      },
      {
        "system": "http://hl7.org/fhir/sid/us-npi",
        "value": "1700349222"
      },
      {
        "system": "http://hl7.org/fhir/sid/us-npi",
        "value": "1528528874"
      }
    ],
    "address": [
      {
        "line": [
          "2300 SEVEN SPRINGS RD"
        ],
        "city": "RAYMOND",
        "state": "MS",
        "postalCode": "39154-7628"
      },
      {
        "line": [
          "303 Medical Center Drive"
        ],
        "city": "BATESVILLE",
        "state": "MS",
        "postalCode": "38606-8608"
      },
      {
        "line": [
          "525 BROOKMAN DR"
        ],
        "city": "BROOKHAVEN",
        "state": "MS",
        "postalCode": "39601-2326"
      },
      {
        "line": [
          "355 CROSSGATES BLVD"
        ],
        "city": "BRANDON",
        "state": "MS",
        "postalCode": "39042-2602"
      },
      {
        "line": [
          "538 BONITA LAKES DR"
        ],
        "city": "MERIDIAN",
        "state": "MS",
        "postalCode": "39301-6992"
      },
      {
        "line": [
          "100 LAUREN DR"
        ],
        "city": "BOONEVILLE",
        "state": "MS",
        "postalCode": "38829-2507"
      },
      {
        "line": [
          "2782 STAR LANDING RD E"
        ],
        "city": "SOUTHAVEN",
        "state": "MS",
        "postalCode": "38672-8908"
      },
      {
        "line": [
          "1116 FOREST AVE"
        ],
        "city": "JACKSON",
        "state": "MS",
        "postalCode": "39206-3216"
      },
      {
        "line": [
          "2411 COOPER RD"
        ],
        "city": "FLOWOOD",
        "state": "MS",
        "postalCode": "39232-6304"
      },
      {
        "line": [
          "191 HIGHWAY 511"
        ],
        "city": "QUITMAN",
        "state": "MS",
        "postalCode": "39355-8320"
      },
      {
        "line": [
          "200 LONG ST"
        ],
        "city": "BOONEVILLE",
        "state": "MS",
        "postalCode": "38829-0326"
      },
      {
        "line": [
          "541 DORSETT DR"
        ],
        "city": "INDIANOLA",
        "state": "MS",
        "postalCode": "38751-2386"
      },
      {
        "line": [
          "154 WOODLAND RD"
        ],
        "city": "BATESVILLE",
        "state": "MS",
        "postalCode": "38606-7300"
      },
      {
        "line": [
          "4360 MS-39"
        ],
        "city": "MERIDIAN",
        "state": "MS",
        "postalCode": "39301-1119"
      },
      {
        "line": [
          "519 BROOKMAN DR"
        ],
        "city": "BROOKHAVEN",
        "state": "MS",
        "postalCode": "39601-2326"
      },
      {
        "line": [
          "5750 DALE DR"
        ],
        "city": "MARION",
        "state": "MS",
        "postalCode": "39342-9700"
      },
      {
        "line": [
          "410 ORCHARD PARK"
        ],
        "city": "RIDGELAND",
        "state": "MS",
        "postalCode": "39157-5135"
      },
      {
        "line": [
          "617 HIGHWAY 82 W"
        ],
        "city": "INDIANOLA",
        "state": "MS",
        "postalCode": "38751-2056"
      },
      {
        "line": [
          "303 Medical Center Dr"
        ],
        "city": "BATESVILLE",
        "state": "MS",
        "postalCode": "38606-8608"
      },
      {
        "line": [
          "701 W CHURCH ST"
        ],
        "city": "BOONEVILLE",
        "state": "MS",
        "postalCode": "38829-2636"
      },
      {
        "line": [
          "613 E LEE ST"
        ],
        "city": "Sardis",
        "state": "MS",
        "postalCode": "38666-1200"
      },
      {
        "line": [
          "3701 JOANNE DR"
        ],
        "city": "CORINTH",
        "state": "MS",
        "postalCode": "38834-1373"
      },
      {
        "line": [
          "907 EAST WALKER ST"
        ],
        "city": "FULTON",
        "state": "MS",
        "postalCode": "38843-8954"
      },
      {
        "line": [
          "500 SILVER CROSS DR"
        ],
        "city": "BROOKHAVEN",
        "state": "MS",
        "postalCode": "39601-2358"
      },
      {
        "line": [
          "255 Medical Center Dr"
        ],
        "city": "BATESVILLE",
        "state": "MS",
        "postalCode": "38606-8629"
      },
      {
        "line": [
          "124 MORGANS LN"
        ],
        "city": "BRANDON",
        "state": "MS",
        "postalCode": "39042-8684"
      },
      {
        "line": [
          "1765 MAIN ST"
        ],
        "city": "PONTOTOC",
        "state": "MS",
        "postalCode": "38863-3311"
      },
      {
        "line": [
          "1645 HIGHWAY 178 W"
        ],
        "city": "MYRTLE",
        "state": "MS",
        "postalCode": "38650-9690"
      },
      {
        "line": [
          "1410 W QUITMAN ST"
        ],
        "city": "IUKA",
        "state": "MS",
        "postalCode": "38852-7460"
      },
      {
        "line": [
          "601 S MAIN ST"
        ],
        "city": "NEWTON",
        "state": "MS",
        "postalCode": "39345-2845"
      },
      {
        "line": [
          "303 MEDICAL CENTER DR"
        ],
        "city": "BATESVILLE",
        "state": "MS",
        "postalCode": "38606-8608"
      },
      {
        "line": [
          "303 Medical Center"
        ],
        "city": "BATESVILLE",
        "state": "MS",
        "postalCode": "38606-8608"
      },
      {
        "line": [
          "7521 OLD CANTON RD"
        ],
        "city": "MADISON",
        "state": "MS",
        "postalCode": "39110-8669"
      },
      {
        "line": [
          "4728 Hwy 39 N"
        ],
        "city": "MERIDIAN",
        "state": "MS",
        "postalCode": "39301-1015"
      },
      {
        "line": [
          "1301 BELK BLVD"
        ],
        "city": "OXFORD",
        "state": "MS",
        "postalCode": "38655-5301"
      },
      {
        "line": [
          "608 STEED RD"
        ],
        "city": "RIDGELAND",
        "state": "MS",
        "postalCode": "39157-9430"
      },
      {
        "line": [
          "7100 Trail Lake Drive"
        ],
        "city": "FORT WORTH",
        "state": "TX",
        "postalCode": "76123-1969"
      },
      {
        "line": [
          "1600 W CLAIBORNE AVE"
        ],
        "city": "GREENWOOD",
        "state": "MS",
        "postalCode": "38930-2753"
      },
      {
        "line": [
          "1215 Earl Frye Blvd."
        ],
        "city": "AMORY",
        "state": "MS",
        "postalCode": "38821-5509"
      },
      {
        "line": [
          "410 TOWNSEND RD"
        ],
        "city": "FOREST",
        "state": "MS",
        "postalCode": "39074-3205"
      },
      {
        "line": [
          "1730 Dorchester Dr"
        ],
        "city": "SOUTHAVEN",
        "state": "MS",
        "postalCode": "38671-5723"
      },
      {
        "line": [
          "800 3RD ST"
        ],
        "city": "CLEVELAND",
        "state": "MS",
        "postalCode": "38732-2305"
      },
      {
        "line": [
          "108 CLARINGTON DR"
        ],
        "city": "SOUTHAVEN",
        "state": "MS",
        "postalCode": "38671-5640"
      },
      {
        "line": [
          "350 TOWN CENTER WAY"
        ],
        "city": "FLOWOOD",
        "state": "MS",
        "postalCode": "39232-6017"
      },
      {
        "line": [
          "505 JACKSON ST"
        ],
        "city": "ABERDEEN",
        "state": "MS",
        "postalCode": "39730-3349"
      },
      {
        "line": [
          "60 SHADY LAWN PL"
        ],
        "city": "VICKSBURG",
        "state": "MS",
        "postalCode": "39180-4588"
      },
      {
        "line": [
          "1122 NORTH ESHMAN AVE"
        ],
        "city": "WEST POINT",
        "state": "MS",
        "postalCode": "39773-5436"
      },
      {
        "line": [
          "4901 HIGHWAY 589"
        ],
        "city": "SUMRALL",
        "state": "MS",
        "postalCode": "39482-9643"
      },
      {
        "line": [
          "5420 HIGHWAY 80 E"
        ],
        "city": "PEARL",
        "state": "MS",
        "postalCode": "39208-8924"
      },
      {
        "line": [
          "110 ED PERRY BLVD"
        ],
        "city": "OXFORD",
        "state": "MS",
        "postalCode": "38655-3452"
      },
      {
        "line": [
          "1221 E UNION ST"
        ],
        "city": "GREENVILLE",
        "state": "MS",
        "postalCode": "38703-3243"
      },
      {
        "line": [
          "156 E Walnut Ave"
        ],
        "city": "EUPORA",
        "state": "MS",
        "postalCode": "39744-2027"
      },
      {
        "line": [
          "640 KEATING RD"
        ],
        "city": "BATESVILLE",
        "state": "MS",
        "postalCode": "38606-8301"
      },
      {
        "line": [
          "541A E Main St"
        ],
        "city": "LOUISVILLE",
        "state": "MS",
        "postalCode": "39339-2709"
      },
      {
        "line": [
          "100 COVINGTON RIDGE PL"
        ],
        "city": "COLLINS",
        "state": "MS",
        "postalCode": "39428-3888"
      },
      {
        "line": [
          "4360 HIGHWAY 39 N"
        ],
        "city": "MERIDIAN",
        "state": "MS",
        "postalCode": "39301-1082"
      },
      {
        "line": [
          "200 Medical Circle"
        ],
        "city": "TYLERTOWN",
        "state": "MS",
        "postalCode": "39667-2069"
      },
      {
        "line": [
          "6600 POPLAR SPRINGS DR"
        ],
        "city": "MERIDIAN",
        "state": "MS",
        "postalCode": "39305-1119"
      },
      {
        "line": [
          "1708 CHERRY ST"
        ],
        "city": "VICKSBURG",
        "state": "MS",
        "postalCode": "39180-3564"
      },
      {
        "line": [
          "650 HIGHLAND COLONY PKWY"
        ],
        "city": "RIDGELAND",
        "state": "MS",
        "postalCode": "39157-8724"
      },
      {
        "line": [
          "5035 FISHER RD"
        ],
        "city": "MERIDIAN",
        "state": "MS",
        "postalCode": "39301-9124"
      },
      {
        "line": [
          "200 N MARTIN LUTHER KING DR"
        ],
        "city": "CLEVELAND",
        "state": "MS",
        "postalCode": "38732-2821"
      },
      {
        "line": [
          "303 Medical Center Drive"
        ],
        "city": "BATESVILLE",
        "state": "MS",
        "postalCode": "38606-3002"
      },
      {
        "line": [
          "1111 BRATTON RD"
        ],
        "city": "NEW ALBANY",
        "state": "MS",
        "postalCode": "38652-9416"
      },
      {
        "line": [
          "1126 EARL FRYE BLVD"
        ],
        "city": "AMORY",
        "state": "MS",
        "postalCode": "38821-5515"
      },
      {
        "line": [
          "745 S PEAR ORCHARD RD"
        ],
        "city": "RIDGELAND",
        "state": "MS",
        "postalCode": "39157-5128"
      },
      {
        "line": [
          "1901 BRIAR RIDGE RD"
        ],
        "city": "TUPELO",
        "state": "MS",
        "postalCode": "38804-5903"
      },
      {
        "line": [
          "401 HIGHWAY 82 W"
        ],
        "city": "INDIANOLA",
        "state": "MS",
        "postalCode": "38751-2030"
      },
      {
        "line": [
          "7805 SOUTHCREST PKWY"
        ],
        "city": "SOUTHAVEN",
        "state": "MS",
        "postalCode": "38671-4741"
      },
      {
        "line": [
          "1855 F S HILL DR"
        ],
        "city": "GRENADA",
        "state": "MS",
        "postalCode": "38901-5003"
      },
      {
        "line": [
          "74 CLAIBORNE WAY"
        ],
        "city": "STARKVILLE",
        "state": "MS",
        "postalCode": "39759-8544"
      },
      {
        "line": [
          "101 MILLS ST"
        ],
        "city": "BROOKHAVEN",
        "state": "MS",
        "postalCode": "39601-2521"
      },
      {
        "line": [
          "1002 E MADISON ST"
        ],
        "city": "HOUSTON",
        "state": "MS",
        "postalCode": "38851-2428"
      },
      {
        "line": [
          "402 GETWELL DR"
        ],
        "city": "SENATOBIA",
        "state": "MS",
        "postalCode": "38668-2212"
      },
      {
        "line": [
          "622 COUGAR TRL NW"
        ],
        "city": "BROOKHAVEN",
        "state": "MS",
        "postalCode": "39601-6033"
      },
      {
        "line": [
          "133 PINE ST"
        ],
        "city": "HAZLEHURST",
        "state": "MS",
        "postalCode": "39083-2309"
      },
      {
        "line": [
          "700 JEFFERSON ST S"
        ],
        "city": "MONTICELLO",
        "state": "MS",
        "postalCode": "39654-9580"
      },
      {
        "line": [
          "101 CUNNINGHAM DR"
        ],
        "city": "RIPLEY",
        "state": "MS",
        "postalCode": "38663-1302"
      },
      {
        "line": [
          "328 GOODMAN ST"
        ],
        "city": "KOSCIUSKO",
        "state": "MS",
        "postalCode": "39090-3924"
      },
      {
        "line": [
          "303 Medical Center Dr"
        ],
        "city": "BATESVILLE",
        "state": "MS",
        "postalCode": "38606-3002"
      },
      {
        "line": [
          "2722 Old Anson Rd"
        ],
        "city": "ABILENE",
        "state": "TX",
        "postalCode": "79603-1834"
      },
      {
        "line": [
          "708 COLUMBUS AVE"
        ],
        "city": "PHILADELPHIA",
        "state": "MS",
        "postalCode": "39350-5989"
      },
      {
        "line": [
          "5411 I 55 N"
        ],
        "city": "JACKSON",
        "state": "MS",
        "postalCode": "39206-3616"
      },
      {
        "line": [
          "501 AVALON WAY STE C"
        ],
        "city": "BRANDON",
        "state": "MS",
        "postalCode": "39047-7500"
      },
      {
        "line": [
          "2156 OLD WEST POINT RD"
        ],
        "city": "STARKVILLE",
        "state": "MS",
        "postalCode": "39759-6683"
      },
      {
        "line": [
          "1880 FAIRGROUNDS RD"
        ],
        "city": "GREENVILLE",
        "state": "MS",
        "postalCode": "38703-7804"
      },
      {
        "line": [
          "1458 MONCURE MARBLE RD"
        ],
        "city": "TERRY",
        "state": "MS",
        "postalCode": "39170-9605"
      },
      {
        "line": [
          "700 Moore's Crossing Road"
        ],
        "city": "SENATOBIA",
        "state": "MS",
        "postalCode": "38668-8004"
      },
      {
        "line": [
          "1905 S Adams St"
        ],
        "city": "FULTON",
        "state": "MS",
        "postalCode": "38843-8738"
      },
      {
        "line": [
          "501 East Northside Drive"
        ],
        "city": "CLINTON",
        "state": "MS",
        "postalCode": "39056-3604"
      },
      {
        "line": [
          "739 S FOURTH ST"
        ],
        "city": "BALDWYN",
        "state": "MS",
        "postalCode": "38824-2612"
      },
      {
        "line": [
          "100 BURNHAM RD"
        ],
        "city": "BRANDON",
        "state": "MS",
        "postalCode": "39042-2534"
      },
      {
        "line": [
          "218 RONALDMAN RD"
        ],
        "city": "CLEVELAND",
        "state": "MS",
        "postalCode": "38732-8755"
      },
      {
        "line": [
          "1488 BELK BLVD"
        ],
        "city": "OXFORD",
        "state": "MS",
        "postalCode": "38655-5356"
      },
      {
        "line": [
          "140 CASTLEWOODS BLVD"
        ],
        "city": "BRANDON",
        "state": "MS",
        "postalCode": "39047-7683"
      },
      {
        "line": [
          "501 E NORTHSIDE DR"
        ],
        "city": "CLINTON",
        "state": "MS",
        "postalCode": "39056-3604"
      },
      {
        "line": [
          "503 SILVER CROSS DR"
        ],
        "city": "BROOKHAVEN",
        "state": "MS",
        "postalCode": "39601-2388"
      },
      {
        "line": [
          "885 HIGHWAY 178 E"
        ],
        "city": "HOLLY SPRINGS",
        "state": "MS",
        "postalCode": "38635-2641"
      },
      {
        "line": [
          "4348 OLD HIGHWAY 12"
        ],
        "city": "STARKVILLE",
        "state": "MS",
        "postalCode": "39759-5922"
      }
    ],
    "extension": [
      {
        "url": "https://fhir.athena.io/StructureDefinition/ah-practice",
        "valueReference": {
          "reference": "Organization/a-1.Practice-19675"
        }
      },
      {
        "url": "https://fhir.athena.io/StructureDefinition/ah-brand",
        "valueReference": {
          "reference": "Organization/a-19675.Brand-1"
        }
      }
    ]
  },
  "fullUrl": "urn:uuid:637638af-72e1-58d7-8a41-4583a9475698"
}