{
  "resource": {
    "resourceType": "Organization",
    "id": "3e247c3f-5d8f-5ee5-a2a9-f442f576110e",
    "name": "OMNIPOINT SURGICAL ASSOICATE",
    "endpoint": [
      {
        "reference": "Endpoint/27a4e967-47aa-5a9c-a572-b8297ee268a2"
      },
      {
        "reference": "Endpoint/39c5b210-299c-540b-bb5c-bfddbd57a989"
      }
    ],
    "identifier": [
      {
        "system": "http://hl7.org/fhir/sid/us-npi",
        "value": "1306245162"
      }
    ],
    "address": [
      {
        "line": [
          "1086 FRANKLIN STREET"
        ],
        "city": "JOHNSTOWN",
        "state": "PA",
        "postalCode": "15905-9999"
      },
      {
        "line": [
          "420 W MAGNETIC AVE"
        ],
        "city": "MARQUETTE",
        "state": "MI",
        "postalCode": "49855-9999"
      },
      {
        "line": [
          "6719 GOVERNOR GC PEERY HWY"
        ],
        "city": "RICHLANDS",
        "state": "VA",
        "postalCode": "24641-9999"
      },
      {
        "line": [
          "288 SOUTH RIDGECREST AVE"
        ],
        "city": "RUTHERFORDTON",
        "state": "NC",
        "postalCode": "28139-9999"
      },
      {
        "line": [
          "1100 E. Church Street"
        ],
        "city": "MARTINSVILLE",
        "state": "VA",
        "postalCode": "24112-3225"
      },
      {
        "line": [
          "125 HOSPITAL DRIVE"
        ],
        "city": "WATERTOWN",
        "state": "WI",
        "postalCode": "53098-9999"
      },
      {
        "line": [
          "159 EXECUTIVE DRIVE",
          "SUITE B"
        ],
        "city": "DANVILLE",
        "state": "VA",
        "postalCode": "24541-2922"
      },
      {
        "line": [
          "500 HOSPITAL DRIVE"
        ],
        "city": "DANVILLE",
        "state": "VA",
        "postalCode": "24541-2922"
      },
      {
        "line": [
          "225 HOSPITAL DRIVE"
        ],
        "city": "GALAX",
        "state": "VA",
        "postalCode": "24333-9999"
      }
    ],
    "extension": [
      {
        "url": "https://fhir.athena.io/StructureDefinition/ah-practice",
        "valueReference": {
          "reference": "Organization/a-1.Practice-9600"
        }
      },
      {
        "url": "https://fhir.athena.io/StructureDefinition/ah-brand",
        "valueReference": {
          "reference": "Organization/a-9600.Brand-2"
        }
      }
    ]
  },
  "fullUrl": "urn:uuid:3e247c3f-5d8f-5ee5-a2a9-f442f576110e"
}