{
  "resource": {
    "resourceType": "Organization",
    "id": "169e75ed-75c6-512e-a28b-4822c490ab5e",
    "name": "Cardiology Physicians of Fairfield County",
    "endpoint": [
      {
        "reference": "Endpoint/27a4e967-47aa-5a9c-a572-b8297ee268a2"
      },
      {
        "reference": "Endpoint/99e41ac2-2389-59e7-8e95-fc6b5ab2c6f3"
      }
    ],
    "identifier": [
      {
        "system": "http://hl7.org/fhir/sid/us-npi",
        "value": "1962763722"
      }
    ],
    "address": [
      {
        "line": [
          "761 Main Ave",
          "Suite 202"
        ],
        "city": "Norwalk",
        "state": "CT",
        "postalCode": "06851-1080"
      },
      {
        "line": [
          "40 Cross St",
          "Suite 200"
        ],
        "city": "Norwalk",
        "state": "CT",
        "postalCode": "06851-4638"
      },
      {
        "line": [
          "3272 Main St"
        ],
        "city": "Stratford",
        "state": "CT",
        "postalCode": "06614-4819"
      },
      {
        "line": [
          "115 Technology Dr",
          "Suite C300"
        ],
        "city": "Trumbull",
        "state": "CT",
        "postalCode": "06611-6347"
      },
      {
        "line": [
          "24 Hospital Ave"
        ],
        "city": "DANBURY",
        "state": "CT",
        "postalCode": "06810-6099"
      },
      {
        "line": [
          "2979 Main St"
        ],
        "city": "Bridgeport",
        "state": "CT",
        "postalCode": "06606-4282"
      },
      {
        "line": [
          "3272 Main St"
        ],
        "city": "Stratford",
        "state": "CT",
        "postalCode": "06614-4840"
      },
      {
        "line": [
          "1177 Summer St",
          "Fifth Floor"
        ],
        "city": "Stamford",
        "state": "CT",
        "postalCode": "06905-5522"
      },
      {
        "line": [
          "425 Post Road"
        ],
        "city": "FAIRFIELD",
        "state": "CT",
        "postalCode": "06824-6232"
      },
      {
        "line": [
          "32 Strawberry Hill Ct"
        ],
        "city": "STAMFORD",
        "state": "CT",
        "postalCode": "06902-2594"
      }
    ],
    "extension": [
      {
        "url": "https://fhir.athena.io/StructureDefinition/ah-practice",
        "valueReference": {
          "reference": "Organization/a-1.Practice-10861"
        }
      },
      {
        "url": "https://fhir.athena.io/StructureDefinition/ah-brand",
        "valueReference": {
          "reference": "Organization/a-10861.Brand-2"
        }
      }
    ]
  },
  "fullUrl": "urn:uuid:169e75ed-75c6-512e-a28b-4822c490ab5e"
}