{
  "resource": {
    "resourceType": "Organization",
    "id": "56e939b9-5413-5569-b2fb-a903de8e2f8b",
    "name": "Dr. Kevin O'Koon",
    "endpoint": [
      {
        "reference": "Endpoint/27a4e967-47aa-5a9c-a572-b8297ee268a2"
      },
      {
        "reference": "Endpoint/b22c776b-33ad-5ecc-ae4e-3f16764c5503"
      }
    ],
    "identifier": [
      {
        "system": "http://hl7.org/fhir/sid/us-npi",
        "value": "1033140579"
      }
    ],
    "address": [
      {
        "line": [
          "4000 KRESGE WAY"
        ],
        "city": "LOUISVILLE",
        "state": "KY",
        "postalCode": "40207-4605"
      },
      {
        "line": [
          "3920 DUTCHMANS LN"
        ],
        "city": "LOUISVILLE",
        "state": "KY",
        "postalCode": "40207-4702"
      },
      {
        "line": [
          "3626 GRANT LINE RD STE 205"
        ],
        "city": "NEW ALBANY",
        "state": "IN",
        "postalCode": "47150-2584"
      },
      {
        "line": [
          "444 S 1st ST, #201"
        ],
        "city": "LOUISVILLE",
        "state": "KY",
        "postalCode": "40202-1474"
      },
      {
        "line": [
          "3900 KRESGE WAY STE 20"
        ],
        "city": "LOUISVILLE",
        "state": "KY",
        "postalCode": "40207-4660"
      },
      {
        "line": [
          "200 ABRAHAM FLEXNER WAY"
        ],
        "city": "LOUISVILLE",
        "state": "KY",
        "postalCode": "40202-2877"
      },
      {
        "line": [
          "200 Abraham Flexner Way"
        ],
        "city": "LOUISVILLE",
        "state": "KY",
        "postalCode": "40202-2877"
      },
      {
        "line": [
          "3900 KRESGE WAY STE 44"
        ],
        "city": "LOUISVILLE",
        "state": "KY",
        "postalCode": "40207-4681"
      }
    ],
    "extension": [
      {
        "url": "https://fhir.athena.io/StructureDefinition/ah-practice",
        "valueReference": {
          "reference": "Organization/a-1.Practice-17996"
        }
      },
      {
        "url": "https://fhir.athena.io/StructureDefinition/ah-brand",
        "valueReference": {
          "reference": "Organization/a-17996.Brand-1"
        }
      }
    ]
  },
  "fullUrl": "urn:uuid:56e939b9-5413-5569-b2fb-a903de8e2f8b"
}