{
  "resource": {
    "resourceType": "Organization",
    "id": "c98f2758-2bf2-5014-8e28-9b09f7762282",
    "name": "Advanced Surgery Center of Northern Louisiana LLC",
    "endpoint": [
      {
        "reference": "Endpoint/27a4e967-47aa-5a9c-a572-b8297ee268a2"
      },
      {
        "reference": "Endpoint/ce885cf1-be39-5d31-95b0-3b5fd9b1b6e2"
      }
    ],
    "identifier": [
      {
        "system": "http://hl7.org/fhir/sid/us-npi",
        "value": "1013328996"
      }
    ],
    "address": [
      {
        "line": [
          "405 STUBBS AVE"
        ],
        "city": "MONROE",
        "state": "LA",
        "postalCode": "71201-5505"
      },
      {
        "line": [
          "3100 S Grand St"
        ],
        "city": "MONROE",
        "state": "LA",
        "postalCode": "71202-4152"
      },
      {
        "line": [
          "3702 CYPRESS STREET"
        ],
        "city": "WEST MONROE",
        "state": "LA",
        "postalCode": "71291-7435"
      },
      {
        "line": [
          "1155 STERLINGTON HWY"
        ],
        "city": "FARMERVILLE",
        "state": "LA",
        "postalCode": "71241-3811"
      },
      {
        "line": [
          "308 NORRIS LN"
        ],
        "city": "WEST MONROE",
        "state": "LA",
        "postalCode": "71291-7520"
      },
      {
        "line": [
          "813 N MAIN ST"
        ],
        "city": "FARMERVILLE",
        "state": "LA",
        "postalCode": "71241-2217"
      },
      {
        "line": [
          "4380 OLD STERLINGTON RD"
        ],
        "city": "MONROE",
        "state": "LA",
        "postalCode": "71203-2359"
      },
      {
        "line": [
          "243 SISTRUNK RD"
        ],
        "city": "FARMERVILLE",
        "state": "LA",
        "postalCode": "71241-5077"
      },
      {
        "line": [
          "1601 LOUISVILLE AVE"
        ],
        "city": "MONROE",
        "state": "LA",
        "postalCode": "71201-6027"
      },
      {
        "line": [
          "2301 Sterlington Rd, Monroe"
        ],
        "city": "MONROE",
        "state": "LA",
        "postalCode": "71203-3045"
      },
      {
        "line": [
          "340 LONEWA LN"
        ],
        "city": "MONROE",
        "state": "LA",
        "postalCode": "71203-6521"
      },
      {
        "line": [
          "3300 WHITE ST"
        ],
        "city": "MONROE",
        "state": "LA",
        "postalCode": "71203-5153"
      },
      {
        "line": [
          "2269 Arkansas Rd"
        ],
        "city": "WEST MONROE",
        "state": "LA",
        "postalCode": "71291-7818"
      },
      {
        "line": [
          "109 McClendon Church Rd"
        ],
        "city": "WEST MONROE",
        "state": "LA",
        "postalCode": "71292-8052"
      },
      {
        "line": [
          "4385 Old Sterlington Rd"
        ],
        "city": "MONROE",
        "state": "LA",
        "postalCode": "71203-2360"
      }
    ],
    "extension": [
      {
        "url": "https://fhir.athena.io/StructureDefinition/ah-practice",
        "valueReference": {
          "reference": "Organization/a-1.Practice-8881"
        }
      },
      {
        "url": "https://fhir.athena.io/StructureDefinition/ah-brand",
        "valueReference": {
          "reference": "Organization/a-8881.Brand-1"
        }
      }
    ]
  },
  "fullUrl": "urn:uuid:c98f2758-2bf2-5014-8e28-9b09f7762282"
}