{
  "resource": {
    "resourceType": "Organization",
    "id": "e6c88553-2d9a-5f72-b7d7-7d0f0c1681fa",
    "name": "YMCA of Greater Seattle",
    "endpoint": [
      {
        "reference": "Endpoint/27a4e967-47aa-5a9c-a572-b8297ee268a2"
      },
      {
        "reference": "Endpoint/abb5f7d5-468e-5806-be46-fb2282afef02"
      }
    ],
    "identifier": [
      {
        "system": "http://hl7.org/fhir/sid/us-npi",
        "value": "1962526046"
      }
    ],
    "address": [
      {
        "line": [
          "1011 Plum St."
        ],
        "city": "OLYMPIA",
        "state": "WA",
        "postalCode": "98504-1530"
      },
      {
        "line": [
          "310 Maple Park Avenue",
          "SA17 Conference Room"
        ],
        "city": "OLYMPIA",
        "state": "WA",
        "postalCode": "98501-2348"
      },
      {
        "line": [
          "1125 Washington St. SE",
          "606"
        ],
        "city": "OLYMPIA",
        "state": "WA",
        "postalCode": "98501-2283"
      },
      {
        "line": [
          "1620 Perimeter Road SW"
        ],
        "city": "AUBURN",
        "state": "WA",
        "postalCode": "98001-6572"
      },
      {
        "line": [
          "909 4th Ave"
        ],
        "city": "SEATTLE",
        "state": "WA",
        "postalCode": "98104-1108"
      },
      {
        "line": [
          "9th Ave & Jefferson St"
        ],
        "city": "SEATTLE",
        "state": "WA",
        "postalCode": "98104-2482"
      },
      {
        "line": [
          "212 Maple Park Ave.",
          "Maple Park Training Room #1"
        ],
        "city": "OLYMPIA",
        "state": "WA",
        "postalCode": "98501-1234"
      },
      {
        "line": [
          "800 Fifth Ave."
        ],
        "city": "SEATTLE",
        "state": "WA",
        "postalCode": "98104-3176"
      },
      {
        "line": [
          "526 Pattison St SE"
        ],
        "city": "OLYMPIA",
        "state": "WA",
        "postalCode": "98501-2076"
      },
      {
        "line": [
          "302 Sid Snyder Ave. SW",
          "room 440"
        ],
        "city": "OLYMPIA",
        "state": "WA",
        "postalCode": "98501-1342"
      },
      {
        "line": [
          "7141 Cleanwater Ln. SW",
          "N126"
        ],
        "city": "OLYMPIA",
        "state": "WA",
        "postalCode": "98501-6503"
      },
      {
        "line": [
          "302 Sid Synder Ave. SW"
        ],
        "city": "OLYMPIA",
        "state": "WA",
        "postalCode": "98501-1342"
      },
      {
        "line": [
          "3595 S 188th St"
        ],
        "city": "SEATTLE",
        "state": "WA",
        "postalCode": "98188-5224"
      },
      {
        "line": [
          "12401 SE 320TH Street"
        ],
        "city": "AUBURN",
        "state": "WA",
        "postalCode": "98092-3622"
      },
      {
        "line": [
          "14230 Bel Red Rd"
        ],
        "city": "BELLEVUE",
        "state": "WA",
        "postalCode": "98007-3911"
      },
      {
        "line": [
          "3000 Pacific Plaza"
        ],
        "city": "OLYMPIA",
        "state": "WA",
        "postalCode": "98501-8809"
      },
      {
        "line": [
          "1530 Yelm Hwy SE"
        ],
        "city": "OLYMPIA",
        "state": "WA",
        "postalCode": "98501-4680"
      },
      {
        "line": [
          "4333 Brooklyn Ave. NE"
        ],
        "city": "SEATTLE",
        "state": "WA",
        "postalCode": "98195-1016"
      },
      {
        "line": [
          "5003 12th Ave NE"
        ],
        "city": "SEATTLE",
        "state": "WA",
        "postalCode": "98105-4306"
      },
      {
        "line": [
          "3000 Pacific Ave."
        ],
        "city": "OLYMPIA",
        "state": "WA",
        "postalCode": "98504-8809"
      },
      {
        "line": [
          "19290 Aurora Ave North"
        ],
        "city": "SEATTLE",
        "state": "WA",
        "postalCode": "98133-3931"
      },
      {
        "line": [
          "7273 Linderson Way SW",
          "S129, S126, S130, or S216"
        ],
        "city": "OLYMPIA",
        "state": "WA",
        "postalCode": "98501-5414"
      },
      {
        "line": [
          "2700 Evergreen Parkway NW",
          "Library Building, Room 1005"
        ],
        "city": "OLYMPIA",
        "state": "WA",
        "postalCode": "98505-0001"
      },
      {
        "line": [
          "7030 196th St. SW"
        ],
        "city": "EDMONDS",
        "state": "WA",
        "postalCode": "98026-1234"
      },
      {
        "line": [
          "310 Israel Rd. SE",
          "room 251"
        ],
        "city": "OLYMPIA",
        "state": "WA",
        "postalCode": "98501-5567"
      },
      {
        "line": [
          "1700 23rd Ave"
        ],
        "city": "SEATTLE",
        "state": "WA",
        "postalCode": "98122-2922"
      },
      {
        "line": [
          "1102 15th St. SW",
          "#102"
        ],
        "city": "AUBURN",
        "state": "WA",
        "postalCode": "98001-6524"
      },
      {
        "line": [
          "10501 Meridian Avenue North",
          "Suite A"
        ],
        "city": "SEATTLE",
        "state": "WA",
        "postalCode": "98133-9509"
      },
      {
        "line": [
          "814 4th Avenue E",
          "Drawing Studio"
        ],
        "city": "OLYMPIA",
        "state": "WA",
        "postalCode": "98506-3922"
      },
      {
        "line": [
          "1111 Washington Street",
          "Second Floor, Room 259"
        ],
        "city": "OLYMPIA",
        "state": "WA",
        "postalCode": "98501-2283"
      },
      {
        "line": [
          "15700 Dayton Ave."
        ],
        "city": "SEATTLE",
        "state": "WA",
        "postalCode": "98133-5910"
      },
      {
        "line": [
          "150 Israel Rd. SW",
          "room 319"
        ],
        "city": "OLYMPIA",
        "state": "WA",
        "postalCode": "98501-6456"
      },
      {
        "line": [
          "310 Israel Rd. SE",
          "Room 202"
        ],
        "city": "OLYMPIA",
        "state": "WA",
        "postalCode": "98501-5567"
      },
      {
        "line": [
          "210 11th Ave. SW",
          "Room G-3"
        ],
        "city": "OLYMPIA",
        "state": "WA",
        "postalCode": "98501-2240"
      },
      {
        "line": [
          "2415 S 320th St"
        ],
        "city": "FEDERAL WAY",
        "state": "WA",
        "postalCode": "98003-5442"
      },
      {
        "line": [
          "5000 Capital Blvd."
        ],
        "city": "OLYMPIA",
        "state": "WA",
        "postalCode": "98501-4426"
      },
      {
        "line": [
          "4515 36th Ave SW"
        ],
        "city": "SEATTLE",
        "state": "WA",
        "postalCode": "98126-2711"
      },
      {
        "line": [
          "1718 Broadway"
        ],
        "city": "SEATTLE",
        "state": "WA",
        "postalCode": "98122-2414"
      },
      {
        "line": [
          "13750 Newcastle Golf Club Rd"
        ],
        "city": "RENTON",
        "state": "WA",
        "postalCode": "98059-3284"
      },
      {
        "line": [
          "101 Israel Road SE",
          "Room 264"
        ],
        "city": "OLYMPIA",
        "state": "WA",
        "postalCode": "98501-5570"
      },
      {
        "line": [
          "2700 Evergreen Parkway NW",
          "Library Building, Room 2207"
        ],
        "city": "OLYMPIA",
        "state": "WA",
        "postalCode": "98505-0001"
      },
      {
        "line": [
          "32049 109th PL SE"
        ],
        "city": "AUBURN",
        "state": "WA",
        "postalCode": "98092-2567"
      },
      {
        "line": [
          "1715 SE Maple Valley Highway"
        ],
        "city": "RENTON",
        "state": "WA",
        "postalCode": "98057-3900"
      },
      {
        "line": [
          "626 8th Ave. SE",
          "Osprey Room"
        ],
        "city": "OLYMPIA",
        "state": "WA",
        "postalCode": "98501-1234"
      },
      {
        "line": [
          "35018 SE Ridge St"
        ],
        "city": "SNOQUALMIE",
        "state": "WA",
        "postalCode": "98065-9082"
      },
      {
        "line": [
          "11811 NE 195th St"
        ],
        "city": "BOTHELL",
        "state": "WA",
        "postalCode": "98011-3146"
      },
      {
        "line": [
          "4333 Brooklyn Ave. NE",
          "22nd Floor"
        ],
        "city": "SEATTLE",
        "state": "WA",
        "postalCode": "98195-1016"
      },
      {
        "line": [
          "1550 N 115th St"
        ],
        "city": "SEATTLE",
        "state": "WA",
        "postalCode": "98133-8401"
      },
      {
        "line": [
          "4221 228th Ave"
        ],
        "city": "ISSAQUAH",
        "state": "WA",
        "postalCode": "98029-9207"
      },
      {
        "line": [
          "616 S 348th St"
        ],
        "city": "FEDERAL WAY",
        "state": "WA",
        "postalCode": "98003-7023"
      },
      {
        "line": [
          "12401 SE 320th Street"
        ],
        "city": "AUBURN",
        "state": "WA",
        "postalCode": "98092-3622"
      },
      {
        "line": [
          "1969 NE Pacific ST"
        ],
        "city": "SEATTLE",
        "state": "WA",
        "postalCode": "98195-0001"
      },
      {
        "line": [
          "6835 Capitol Blvd.",
          "Room 115"
        ],
        "city": "OLYMPIA",
        "state": "WA",
        "postalCode": "98501-5512"
      },
      {
        "line": [
          "1500 Jefferson St. SE"
        ],
        "city": "OLYMPIA",
        "state": "WA",
        "postalCode": "98501-2355"
      },
      {
        "line": [
          "421 Black Lake Blvd",
          "training room"
        ],
        "city": "OLYMPIA",
        "state": "WA",
        "postalCode": "98502-5046"
      },
      {
        "line": [
          "715 30th St NE"
        ],
        "city": "AUBURN",
        "state": "WA",
        "postalCode": "98002-2479"
      }
    ],
    "extension": [
      {
        "url": "https://fhir.athena.io/StructureDefinition/ah-practice",
        "valueReference": {
          "reference": "Organization/a-1.Practice-14268"
        }
      },
      {
        "url": "https://fhir.athena.io/StructureDefinition/ah-brand",
        "valueReference": {
          "reference": "Organization/a-14268.Brand-1"
        }
      }
    ]
  },
  "fullUrl": "urn:uuid:e6c88553-2d9a-5f72-b7d7-7d0f0c1681fa"
}