{
  "resource": {
    "resourceType": "Organization",
    "id": "b2e1f469-d9eb-5c6d-ade8-3fd1f24e2249",
    "name": "Kay R Lewis MD",
    "endpoint": [
      {
        "reference": "Endpoint/27a4e967-47aa-5a9c-a572-b8297ee268a2"
      },
      {
        "reference": "Endpoint/ace4789b-6141-523b-b3c1-8d9316a76416"
      }
    ],
    "identifier": [
      {
        "system": "http://hl7.org/fhir/sid/us-npi",
        "value": "1447278668"
      }
    ],
    "address": [
      {
        "line": [
          "15 Greenway Plaza",
          "20-J"
        ],
        "city": "HOUSTON",
        "state": "TX",
        "postalCode": "77046-1506"
      },
      {
        "line": [
          "3737 O'Meara Drive"
        ],
        "city": "HOUSTON",
        "state": "TX",
        "postalCode": "77025-5560"
      },
      {
        "line": [
          "3309 Industrial Rd."
        ],
        "city": "Pearland",
        "state": "TX",
        "postalCode": "77681-5907"
      },
      {
        "line": [
          "108 Commercial Circle"
        ],
        "city": "CONROE",
        "state": "TX",
        "postalCode": "77304-2204"
      },
      {
        "line": [
          "3550 West Dallas"
        ],
        "city": "HOUSTON",
        "state": "TX",
        "postalCode": "77019-1702"
      },
      {
        "line": [
          "PO Box 1249",
          "7674 Pechacek Rd."
        ],
        "city": "NEW ULM",
        "state": "TX",
        "postalCode": "78950-1249"
      },
      {
        "line": [
          "3255 Executive Blvd."
        ],
        "city": "BEAUMONT",
        "state": "TX",
        "postalCode": "77705-1051"
      },
      {
        "line": [
          "4650 Dixie Farm Road"
        ],
        "city": "PEARLAND",
        "state": "TX",
        "postalCode": "77581-6500"
      },
      {
        "line": [
          "Bldg. C, Suite 10",
          "9777 W Gulfbank"
        ],
        "city": "HOUSTON",
        "state": "TX",
        "postalCode": "77040-3137"
      }
    ],
    "extension": [
      {
        "url": "https://fhir.athena.io/StructureDefinition/ah-practice",
        "valueReference": {
          "reference": "Organization/a-1.Practice-13066"
        }
      },
      {
        "url": "https://fhir.athena.io/StructureDefinition/ah-brand",
        "valueReference": {
          "reference": "Organization/a-13066.Brand-1"
        }
      }
    ]
  },
  "fullUrl": "urn:uuid:b2e1f469-d9eb-5c6d-ade8-3fd1f24e2249"
}