{
  "resource": {
    "resourceType": "Organization",
    "id": "4e0884a2-e62c-539a-82e2-785e15d0ddcd",
    "name": "Seton Heart Institute",
    "endpoint": [
      {
        "reference": "Endpoint/27a4e967-47aa-5a9c-a572-b8297ee268a2"
      },
      {
        "reference": "Endpoint/9cc18d86-9cfd-51f4-8362-613d94d57769"
      }
    ],
    "identifier": [
      {
        "system": "http://hl7.org/fhir/sid/us-npi",
        "value": "1730412388"
      },
      {
        "system": "http://hl7.org/fhir/sid/us-npi",
        "value": "1962025148"
      },
      {
        "system": "http://hl7.org/fhir/sid/us-npi",
        "value": "1629538491"
      },
      {
        "system": "http://hl7.org/fhir/sid/us-npi",
        "value": "1588997233"
      },
      {
        "system": "http://hl7.org/fhir/sid/us-npi",
        "value": "1508489782"
      },
      {
        "system": "http://hl7.org/fhir/sid/us-npi",
        "value": "1275290694"
      }
    ],
    "address": [
      {
        "line": [
          "200 Springtown Way Ste 451"
        ],
        "city": "SAN MARCOS",
        "state": "TX",
        "postalCode": "78666-7143"
      },
      {
        "line": [
          "3828 S First St"
        ],
        "city": "Austin",
        "state": "TX",
        "postalCode": "78704-7048"
      },
      {
        "line": [
          "7900 FM 1826 Ste 170"
        ],
        "city": "AUSTIN",
        "state": "TX",
        "postalCode": "78737-1409"
      },
      {
        "line": [
          "201 University Oaks Ste 1260"
        ],
        "city": "Round Rock",
        "state": "TX",
        "postalCode": "78665-2437"
      },
      {
        "line": [
          "1400 N Interstate 35 Ste 320"
        ],
        "city": "Austin",
        "state": "TX",
        "postalCode": "78701-1926"
      },
      {
        "line": [
          "6406 N IH-35 Ste 2600"
        ],
        "city": "Austin",
        "state": "TX",
        "postalCode": "78752-4337"
      },
      {
        "line": [
          "1400 N IH-35",
          "Ste CL400"
        ],
        "city": "Austin",
        "state": "TX",
        "postalCode": "78701-1926"
      },
      {
        "line": [
          "940 Hesters Crossing Rd"
        ],
        "city": "Round Rock",
        "state": "TX",
        "postalCode": "78681-8018"
      },
      {
        "line": [
          "601 E 15th St"
        ],
        "city": "Austin",
        "state": "TX",
        "postalCode": "78701-1930"
      },
      {
        "line": [
          "1807 Slaughter Ln Ste 490"
        ],
        "city": "AUSTIN",
        "state": "TX",
        "postalCode": "78748-6208"
      },
      {
        "line": [
          "525 RR 2900"
        ],
        "city": "Kingsland",
        "state": "TX",
        "postalCode": "78639-6000"
      },
      {
        "line": [
          "401 RR 620 South Ste 200"
        ],
        "city": "Lakeway",
        "state": "TX",
        "postalCode": "78734-5304"
      }
    ],
    "extension": [
      {
        "url": "https://fhir.athena.io/StructureDefinition/ah-practice",
        "valueReference": {
          "reference": "Organization/a-1.Practice-8363"
        }
      },
      {
        "url": "https://fhir.athena.io/StructureDefinition/ah-brand",
        "valueReference": {
          "reference": "Organization/a-8363.Brand-1"
        }
      }
    ]
  },
  "fullUrl": "urn:uuid:4e0884a2-e62c-539a-82e2-785e15d0ddcd"
}