{
  "resource": {
    "resourceType": "Organization",
    "id": "b4dcc37c-9b40-5295-aa79-e483716d4f85",
    "name": "Central Massachusetts Podiatry, P.C",
    "endpoint": [
      {
        "reference": "Endpoint/27a4e967-47aa-5a9c-a572-b8297ee268a2"
      },
      {
        "reference": "Endpoint/f016f79b-5d87-5794-9643-e9d64c4f7926"
      }
    ],
    "identifier": [
      {
        "system": "http://hl7.org/fhir/sid/us-npi",
        "value": "1114984606"
      }
    ],
    "address": [
      {
        "line": [
          "299 Lincoln St. Suite 202"
        ],
        "city": "WORCESTER",
        "state": "MA",
        "postalCode": "01605-3646"
      },
      {
        "line": [
          "14 PROSPECT ST"
        ],
        "city": "MILFORD",
        "state": "MA",
        "postalCode": "01757-3003"
      },
      {
        "line": [
          "157 Union Street"
        ],
        "city": "MARLBOROUGH",
        "state": "MA",
        "postalCode": "01752-1228"
      },
      {
        "line": [
          "119 Belmont St."
        ],
        "city": "WORCESTER",
        "state": "MA",
        "postalCode": "01605-2903"
      },
      {
        "line": [
          "55 Lake Ave."
        ],
        "city": "WORCESTER",
        "state": "MA",
        "postalCode": "01655-0002"
      },
      {
        "line": [
          "123 Summer Street"
        ],
        "city": "WORCESTER",
        "state": "MA",
        "postalCode": "01608-1216"
      },
      {
        "line": [
          "151 Main Street"
        ],
        "city": "SHREWSBURY",
        "state": "MA",
        "postalCode": "01545-2101"
      },
      {
        "line": [
          "14 Prospect St"
        ],
        "city": "MILFORD",
        "state": "MA",
        "postalCode": "01757-3003"
      }
    ],
    "extension": [
      {
        "url": "https://fhir.athena.io/StructureDefinition/ah-practice",
        "valueReference": {
          "reference": "Organization/a-1.Practice-10827"
        }
      },
      {
        "url": "https://fhir.athena.io/StructureDefinition/ah-brand",
        "valueReference": {
          "reference": "Organization/a-10827.Brand-1"
        }
      }
    ]
  },
  "fullUrl": "urn:uuid:b4dcc37c-9b40-5295-aa79-e483716d4f85"
}