{
  "resource": {
    "resourceType": "Organization",
    "id": "e937579a-0efb-536a-9b4c-b2a701ad7f02",
    "name": "Utah Kidney Clinic",
    "endpoint": [
      {
        "reference": "Endpoint/27a4e967-47aa-5a9c-a572-b8297ee268a2"
      },
      {
        "reference": "Endpoint/761b04a9-63d2-51a9-ba68-084be26c3c38"
      }
    ],
    "identifier": [
      {
        "system": "http://hl7.org/fhir/sid/us-npi",
        "value": "1013520154"
      }
    ],
    "address": [
      {
        "line": [
          "550 East 1400 N",
          "Suite K"
        ],
        "city": "Logan",
        "state": "UT",
        "postalCode": "84314-2406"
      },
      {
        "line": [
          "756 N MAIN ST"
        ],
        "city": "LAYTON",
        "state": "UT",
        "postalCode": "84041-2233"
      },
      {
        "line": [
          "4780 Old Post Rd"
        ],
        "city": "OGDEN",
        "state": "UT",
        "postalCode": "84403-4454"
      },
      {
        "line": [
          "1735 W 2700 N"
        ],
        "city": "OGDEN",
        "state": "UT",
        "postalCode": "84404-1208"
      },
      {
        "line": [
          "2132 N 1700 W"
        ],
        "city": "LAYTON",
        "state": "UT",
        "postalCode": "84041-7057"
      },
      {
        "line": [
          "4345 Harrison Blvd",
          "Ste 100"
        ],
        "city": "OGDEN",
        "state": "UT",
        "postalCode": "84403-3103"
      },
      {
        "line": [
          "480 North 100 East",
          "Ste 110"
        ],
        "city": "LOGAN",
        "state": "UT",
        "postalCode": "84321-6674"
      },
      {
        "line": [
          "480 North 100 East"
        ],
        "city": "LOGAN",
        "state": "UT",
        "postalCode": "84321-6674"
      },
      {
        "line": [
          "3584 W 9000 S STE 305"
        ],
        "city": "WEST JORDAN",
        "state": "UT",
        "postalCode": "84088-4775"
      },
      {
        "line": [
          "4345 HARRISON BLVD"
        ],
        "city": "OGDEN",
        "state": "UT",
        "postalCode": "84403-3103"
      },
      {
        "line": [
          "990 Medical Drive"
        ],
        "city": "BRIGHAM CITY",
        "state": "UT",
        "postalCode": "84302-3077"
      },
      {
        "line": [
          "4780 Old Post Rd"
        ],
        "city": "OGDEN",
        "state": "UT",
        "postalCode": "84403-1852"
      },
      {
        "line": [
          "550 East 1400 N",
          "Suite K"
        ],
        "city": "LOGAN",
        "state": "UT",
        "postalCode": "84341-2406"
      },
      {
        "line": [
          "4345 Harrison Blvd",
          "Suite 101"
        ],
        "city": "OGDEN",
        "state": "UT",
        "postalCode": "84403-3103"
      },
      {
        "line": [
          "1151 East County Hills Dr."
        ],
        "city": "OGDEN",
        "state": "UT",
        "postalCode": "84403-2440"
      }
    ],
    "extension": [
      {
        "url": "https://fhir.athena.io/StructureDefinition/ah-practice",
        "valueReference": {
          "reference": "Organization/a-1.Practice-19427"
        }
      },
      {
        "url": "https://fhir.athena.io/StructureDefinition/ah-brand",
        "valueReference": {
          "reference": "Organization/a-19427.Brand-2"
        }
      }
    ]
  },
  "fullUrl": "urn:uuid:e937579a-0efb-536a-9b4c-b2a701ad7f02"
}