{
  "resource": {
    "resourceType": "Organization",
    "id": "22ee91a5-052a-5797-960c-c14a5591e04f",
    "name": "National Harbor Family Medicine",
    "endpoint": [
      {
        "reference": "Endpoint/27a4e967-47aa-5a9c-a572-b8297ee268a2"
      },
      {
        "reference": "Endpoint/f5b76b0c-93d4-5e64-8212-02049c7662e2"
      }
    ],
    "identifier": [
      {
        "system": "http://hl7.org/fhir/sid/us-npi",
        "value": "1346354834"
      },
      {
        "system": "http://hl7.org/fhir/sid/us-npi",
        "value": "1407486293"
      },
      {
        "system": "http://hl7.org/fhir/sid/us-npi",
        "value": "1386706562"
      },
      {
        "system": "http://hl7.org/fhir/sid/us-npi",
        "value": "1538220512"
      },
      {
        "system": "http://hl7.org/fhir/sid/us-npi",
        "value": "1487714168"
      },
      {
        "system": "http://hl7.org/fhir/sid/us-npi",
        "value": "1407916646"
      }
    ],
    "address": [
      {
        "line": [
          "3001 HOSPITAL DRIVE"
        ],
        "city": "HYATTSVILLE",
        "state": "MD",
        "postalCode": "20785-1189"
      },
      {
        "line": [
          "7350 Van Dusen Road",
          "Suite 350"
        ],
        "city": "LAUREL",
        "state": "MD",
        "postalCode": "20707-5242"
      },
      {
        "line": [
          "7300 Van Dusen Road"
        ],
        "city": "LAUREL",
        "state": "MD",
        "postalCode": "20707-9463"
      },
      {
        "line": [
          "3001 Hospital Drive"
        ],
        "city": "HYATTSVILLE",
        "state": "MD",
        "postalCode": "20785-1189"
      },
      {
        "line": [
          "8118 Good Luck Rd"
        ],
        "city": "BOWIE",
        "state": "MD",
        "postalCode": "20716-1568"
      },
      {
        "line": [
          "7300 Van Dusen Rd"
        ],
        "city": "LAUREL",
        "state": "MD",
        "postalCode": "20707-5263"
      },
      {
        "line": [
          "3001 HOSPTIAL DRIVE"
        ],
        "city": "HYATTSVILLE",
        "state": "MD",
        "postalCode": "20785-1189"
      },
      {
        "line": [
          "301 Hospital Drive"
        ],
        "city": "GLEN BURNIE",
        "state": "MD",
        "postalCode": "21061-0301"
      },
      {
        "line": [
          "2900 Mercy Lane"
        ],
        "city": "HYATTSVILLE",
        "state": "MD",
        "postalCode": "20785-1157"
      },
      {
        "line": [
          "14200 Laurel Park Drive"
        ],
        "city": "LAUREL",
        "state": "MD",
        "postalCode": "20707-5201"
      },
      {
        "line": [
          "251 National Harbor Blvd",
          "5th Floor"
        ],
        "city": "OXON HILL",
        "state": "MD",
        "postalCode": "20745-1052"
      },
      {
        "line": [
          "6420 Rockledge Drive",
          "STE 2100"
        ],
        "city": "BETHESDA",
        "state": "MD",
        "postalCode": "20817-7837"
      },
      {
        "line": [
          "8118 Good Luck Rd"
        ],
        "city": "LANHAM",
        "state": "MD",
        "postalCode": "20706-3574"
      },
      {
        "line": [
          "3001 Hospital Drive"
        ],
        "city": "Cheverly",
        "state": "MD",
        "postalCode": "20785-1189"
      },
      {
        "line": [
          "4725 Marlboro Pike"
        ],
        "city": "CAPITOL HEIGHTS",
        "state": "MD",
        "postalCode": "20743-5213"
      },
      {
        "line": [
          "500 Harry S. Truman Dr. North"
        ],
        "city": "UPPER MARLBORO",
        "state": "MD",
        "postalCode": "20774-4736"
      },
      {
        "line": [
          "1500 FOREST GLEN RD"
        ],
        "city": "SILVER SPRING",
        "state": "MD",
        "postalCode": "20910-1460"
      },
      {
        "line": [
          "15001 Health Center Drive"
        ],
        "city": "BOWIE",
        "state": "MD",
        "postalCode": "20716-1017"
      },
      {
        "line": [
          "3001 Hospital Dr."
        ],
        "city": "HYATTSVILLE",
        "state": "MD",
        "postalCode": "20785-1189"
      },
      {
        "line": [
          "3420 Rickey Avenue"
        ],
        "city": "TEMPLE HILLS",
        "state": "MD",
        "postalCode": "20748-4685"
      },
      {
        "line": [
          "3001 Hospital Drive"
        ],
        "city": "Hyattsville",
        "state": "MD",
        "postalCode": "20785-1189"
      },
      {
        "line": [
          "7300 Van Dusen Rd"
        ],
        "city": "LAUREL",
        "state": "MD",
        "postalCode": "20707-9463"
      },
      {
        "line": [
          "2001 Medical Pkwy"
        ],
        "city": "ANNAPOLIS",
        "state": "MD",
        "postalCode": "21401-3280"
      },
      {
        "line": [
          "14999 Health Center Dr",
          "Suite 108"
        ],
        "city": "BOWIE",
        "state": "MD",
        "postalCode": "20716-1073"
      },
      {
        "line": [
          "8600 Old Georgetown Rd"
        ],
        "city": "BETHESDA",
        "state": "MD",
        "postalCode": "20814-1422"
      },
      {
        "line": [
          "3001 hospital drive"
        ],
        "city": "cheverly",
        "state": "MD",
        "postalCode": "20785-1189"
      }
    ],
    "extension": [
      {
        "url": "https://fhir.athena.io/StructureDefinition/ah-practice",
        "valueReference": {
          "reference": "Organization/a-1.Practice-841"
        }
      },
      {
        "url": "https://fhir.athena.io/StructureDefinition/ah-brand",
        "valueReference": {
          "reference": "Organization/a-841.Brand-1"
        }
      }
    ]
  },
  "fullUrl": "urn:uuid:22ee91a5-052a-5797-960c-c14a5591e04f"
}