{
  "resource": {
    "resourceType": "Organization",
    "id": "142ce2f6-0474-5690-8107-5ad8a1f88177",
    "name": "Seton Diabetes Medical Nutrition",
    "endpoint": [
      {
        "reference": "Endpoint/27a4e967-47aa-5a9c-a572-b8297ee268a2"
      },
      {
        "reference": "Endpoint/9cc18d86-9cfd-51f4-8362-613d94d57769"
      }
    ],
    "identifier": [
      {
        "system": "http://hl7.org/fhir/sid/us-npi",
        "value": "1508489782"
      },
      {
        "system": "http://hl7.org/fhir/sid/us-npi",
        "value": "1275290694"
      },
      {
        "system": "http://hl7.org/fhir/sid/us-npi",
        "value": "1962025148"
      },
      {
        "system": "http://hl7.org/fhir/sid/us-npi",
        "value": "1588997233"
      },
      {
        "system": "http://hl7.org/fhir/sid/us-npi",
        "value": "1730412388"
      },
      {
        "system": "http://hl7.org/fhir/sid/us-npi",
        "value": "1629538491"
      }
    ],
    "address": [
      {
        "line": [
          "11113 Research Blvd"
        ],
        "city": "Austin",
        "state": "TX",
        "postalCode": "78759-5236"
      },
      {
        "line": [
          "4301 W William Cannon DR, Bldg. E, Suite 320"
        ],
        "city": "AUSTIN",
        "state": "TX",
        "postalCode": "78749-1474"
      },
      {
        "line": [
          "7900 FM 1826"
        ],
        "city": "Austin",
        "state": "TX",
        "postalCode": "78737-1407"
      },
      {
        "line": [
          "505 Barton Springs Rd, Ste 400"
        ],
        "city": "Austin",
        "state": "TX",
        "postalCode": "78704-1216"
      },
      {
        "line": [
          "2716 Spirit of Texas Dr, Ste 160"
        ],
        "city": "Austin",
        "state": "TX",
        "postalCode": "78719-2353"
      },
      {
        "line": [
          "201 Seton Parkway"
        ],
        "city": "Round Rock",
        "state": "TX",
        "postalCode": "78665-8000"
      },
      {
        "line": [
          "625 E 10TH ST"
        ],
        "city": "Austin",
        "state": "TX",
        "postalCode": "78701-2612"
      },
      {
        "line": [
          "313 E 12th ST  SUITE 101"
        ],
        "city": "AUSTIN",
        "state": "TX",
        "postalCode": "78701-1955"
      },
      {
        "line": [
          "6001 Kyle Pkwy"
        ],
        "city": "Kyle",
        "state": "TX",
        "postalCode": "78640-6178"
      },
      {
        "line": [
          "1512 Town Center Dr Suite 100"
        ],
        "city": "PFLUGERVILLE",
        "state": "TX",
        "postalCode": "78660-7679"
      },
      {
        "line": [
          "1520 Rutherford Ln"
        ],
        "city": "Austin",
        "state": "TX",
        "postalCode": "78754-3827"
      },
      {
        "line": [
          "4616 W Howard Lane Suite 850"
        ],
        "city": "AUSTIN",
        "state": "TX",
        "postalCode": "78728-6300"
      }
    ],
    "extension": [
      {
        "url": "https://fhir.athena.io/StructureDefinition/ah-practice",
        "valueReference": {
          "reference": "Organization/a-1.Practice-8363"
        }
      },
      {
        "url": "https://fhir.athena.io/StructureDefinition/ah-brand",
        "valueReference": {
          "reference": "Organization/a-8363.Brand-1"
        }
      }
    ]
  },
  "fullUrl": "urn:uuid:142ce2f6-0474-5690-8107-5ad8a1f88177"
}