{
  "resource": {
    "resourceType": "Organization",
    "id": "1b2b206c-5b9b-56c8-a0af-bec24e58ebe8",
    "name": "Aurora Denver Cardiology Associates, P. C",
    "endpoint": [
      {
        "reference": "Endpoint/27a4e967-47aa-5a9c-a572-b8297ee268a2"
      },
      {
        "reference": "Endpoint/4e96f417-6d8a-59c9-81d3-544a04475eb0"
      }
    ],
    "identifier": [
      {
        "system": "http://hl7.org/fhir/sid/us-npi",
        "value": "1114918018"
      }
    ],
    "address": [
      {
        "line": [
          "560 West 6th N"
        ],
        "city": "CHEYENNE WELLS",
        "state": "CO",
        "postalCode": "80810-9998"
      },
      {
        "line": [
          "825 W. 6th Street"
        ],
        "city": "LEADVILLE",
        "state": "CO",
        "postalCode": "80461-2205"
      },
      {
        "line": [
          "2601 N. Spruce Street"
        ],
        "city": "OGALLALA",
        "state": "NE",
        "postalCode": "69153-2465"
      },
      {
        "line": [
          "645 Osage Street"
        ],
        "city": "SIDNEY",
        "state": "NE",
        "postalCode": "69162-1714"
      },
      {
        "line": [
          "108 S Frontage Road W"
        ],
        "city": "VAIL",
        "state": "CO",
        "postalCode": "81657-5053"
      },
      {
        "line": [
          "9397 Crown Crest Blvd, Ste 400"
        ],
        "city": "PARKER",
        "state": "CO",
        "postalCode": "80138-8789"
      },
      {
        "line": [
          "730 N Summit Blvd"
        ],
        "city": "FRISCO",
        "state": "CO",
        "postalCode": "80443-0010"
      },
      {
        "line": [
          "1601 E 19th Ave Ste.5000"
        ],
        "city": "DENVER",
        "state": "CO",
        "postalCode": "80218-1254"
      },
      {
        "line": [
          "1444 S. Potomac, Ste. 300"
        ],
        "city": "AURORA",
        "state": "CO",
        "postalCode": "80012-4510"
      },
      {
        "line": [
          "70 S. 20th Avenue"
        ],
        "city": "BRIGHTON",
        "state": "CO",
        "postalCode": "80601-3703"
      },
      {
        "line": [
          "373 E. 10th Avenue"
        ],
        "city": "SPRINGFIELD",
        "state": "CO",
        "postalCode": "81073-1622"
      },
      {
        "line": [
          "10103 Ridgegate Pkwy, Ste 103"
        ],
        "city": "LONETREE",
        "state": "CO",
        "postalCode": "80124-5524"
      },
      {
        "line": [
          "707 Grant Street"
        ],
        "city": "ATWOOD",
        "state": "KS",
        "postalCode": "67730-1526"
      },
      {
        "line": [
          "310 County Road 14"
        ],
        "city": "DEL NORTE",
        "state": "CO",
        "postalCode": "81132-8758"
      },
      {
        "line": [
          "14100 E. Arapahoe Rd, Ste.210"
        ],
        "city": "ENGLEWOOD",
        "state": "CO",
        "postalCode": "80112-4028"
      },
      {
        "line": [
          "1801 E. 16th Street"
        ],
        "city": "GREELEY",
        "state": "CO",
        "postalCode": "80631-6231"
      },
      {
        "line": [
          "111 6th Street"
        ],
        "city": "HUGO",
        "state": "CO",
        "postalCode": "80821-0248"
      },
      {
        "line": [
          "100 E. College Drive"
        ],
        "city": "COLBY",
        "state": "KS",
        "postalCode": "67701-3702"
      },
      {
        "line": [
          "286 16th Street"
        ],
        "city": "BURLINGTON",
        "state": "CO",
        "postalCode": "80807-1651"
      },
      {
        "line": [
          "509 Main Street"
        ],
        "city": "LA JARA",
        "state": "CO",
        "postalCode": "81140-0178"
      }
    ],
    "extension": [
      {
        "url": "https://fhir.athena.io/StructureDefinition/ah-practice",
        "valueReference": {
          "reference": "Organization/a-1.Practice-980"
        }
      },
      {
        "url": "https://fhir.athena.io/StructureDefinition/ah-brand",
        "valueReference": {
          "reference": "Organization/a-980.Brand-2"
        }
      }
    ]
  },
  "fullUrl": "urn:uuid:1b2b206c-5b9b-56c8-a0af-bec24e58ebe8"
}