{
  "resource": {
    "resourceType": "Organization",
    "id": "6ee29b14-b168-50f3-a7f3-2b570fe7894e",
    "name": "ALAMEDA SURGERY CENTER",
    "endpoint": [
      {
        "reference": "Endpoint/27a4e967-47aa-5a9c-a572-b8297ee268a2"
      },
      {
        "reference": "Endpoint/a89029ad-1061-5500-a1d1-2ca6cdc816bf"
      }
    ],
    "identifier": [
      {
        "system": "http://hl7.org/fhir/sid/us-npi",
        "value": "1386911006"
      },
      {
        "system": "http://hl7.org/fhir/sid/us-npi",
        "value": "1548567498"
      }
    ],
    "address": [
      {
        "line": [
          "5858 Horton St.",
          "Suite 100"
        ],
        "city": "EMERYVILLE",
        "state": "CA",
        "postalCode": "94608-2007"
      },
      {
        "line": [
          "7240 Medical Center Dr."
        ],
        "city": "WEST HILLS",
        "state": "CA",
        "postalCode": "91307-1906"
      },
      {
        "line": [
          "1849 Old Bayshore Hwy",
          "3rd Floor"
        ],
        "city": "BURLINGAME",
        "state": "CA",
        "postalCode": "94010-1214"
      },
      {
        "line": [
          "225 W. Broadway Suite 350",
          "380"
        ],
        "city": "GLENDALE",
        "state": "CA",
        "postalCode": "91204-1303"
      },
      {
        "line": [
          "2601 W.Alameda Avenue #312"
        ],
        "city": "BURBANK",
        "state": "CA",
        "postalCode": "91505-4406"
      },
      {
        "line": [
          "3510 N MOORPARK RD STE 101"
        ],
        "city": "THOUSAND OAKS",
        "state": "CA",
        "postalCode": "91360-2688"
      },
      {
        "line": [
          "55 VALLEY ST."
        ],
        "city": "PASADENA",
        "state": "CA",
        "postalCode": "91105-2015"
      },
      {
        "line": [
          "700 GARDEN VIEW CT STE 102"
        ],
        "city": "ENCINITAS",
        "state": "CA",
        "postalCode": "92024-2478"
      },
      {
        "line": [
          "4005 MISSION OAKS BLVD"
        ],
        "city": "CAMARILLO",
        "state": "CA",
        "postalCode": "93012-5156"
      },
      {
        "line": [
          "302 W LA VETA AVE STE 100"
        ],
        "city": "ORANGE",
        "state": "CA",
        "postalCode": "92866-2607"
      },
      {
        "line": [
          "42135 10TH ST W"
        ],
        "city": "LANCASTER",
        "state": "CA",
        "postalCode": "93534-7095"
      }
    ],
    "extension": [
      {
        "url": "https://fhir.athena.io/StructureDefinition/ah-practice",
        "valueReference": {
          "reference": "Organization/a-1.Practice-3663"
        }
      },
      {
        "url": "https://fhir.athena.io/StructureDefinition/ah-brand",
        "valueReference": {
          "reference": "Organization/a-3663.Brand-23"
        }
      }
    ]
  },
  "fullUrl": "urn:uuid:6ee29b14-b168-50f3-a7f3-2b570fe7894e"
}