{
  "resource": {
    "resourceType": "Organization",
    "id": "45500169-ad3c-5f8a-98d8-cabb5080f7c6",
    "name": "Viera Family Medicine and Wellness",
    "endpoint": [
      {
        "reference": "Endpoint/27a4e967-47aa-5a9c-a572-b8297ee268a2"
      },
      {
        "reference": "Endpoint/f819f926-b51b-50c8-82b9-b578445d5c0c"
      }
    ],
    "identifier": [
      {
        "system": "http://hl7.org/fhir/sid/us-npi",
        "value": "1255780615"
      }
    ],
    "address": [
      {
        "line": [
          "6845 MURRELL ROAD"
        ],
        "city": "MELBOURNE",
        "state": "FL",
        "postalCode": "32940-6872"
      },
      {
        "line": [
          "7199 GREENBORO DR"
        ],
        "city": "MELBOURNE",
        "state": "FL",
        "postalCode": "32904-1432"
      },
      {
        "line": [
          "606 E SHERIDAN RD"
        ],
        "city": "MELBOURNE",
        "state": "FL",
        "postalCode": "32901-3227"
      },
      {
        "line": [
          "1341 Bedford DrEDFORD DRIVE"
        ],
        "city": "MELBOURNE",
        "state": "FL",
        "postalCode": "32940-1986"
      },
      {
        "line": [
          "815 BRIAR CREEK BLVD NE"
        ],
        "city": "PALM BAY",
        "state": "FL",
        "postalCode": "32905-5423"
      },
      {
        "line": [
          "2800 FORDHAM ROAD NE"
        ],
        "city": "PALM BAY",
        "state": "FL",
        "postalCode": "32905-4312"
      },
      {
        "line": [
          "7300 Watersong Lane"
        ],
        "city": "MELBOURNE",
        "state": "FL",
        "postalCode": "32940-2625"
      },
      {
        "line": [
          "1765 W HIBISCUS BLVD"
        ],
        "city": "MELBOURNE",
        "state": "FL",
        "postalCode": "32901-2616"
      },
      {
        "line": [
          "2129 WEST NEW HAVEN AVE"
        ],
        "city": "MELBOURNE",
        "state": "FL",
        "postalCode": "32904-3875"
      },
      {
        "line": [
          "175 Villa Nueva"
        ],
        "city": "PALM BAY",
        "state": "FL",
        "postalCode": "32907-2595"
      },
      {
        "line": [
          "2680 CROTON RD"
        ],
        "city": "MELBOURNE",
        "state": "FL",
        "postalCode": "32935-3576"
      },
      {
        "line": [
          "4001 Stack Blvd"
        ],
        "city": "MELBOURNE",
        "state": "FL",
        "postalCode": "32901-8500"
      },
      {
        "line": [
          "500 Crockett Blvd"
        ],
        "city": "MERRITT ISLAND",
        "state": "FL",
        "postalCode": "32954-5034"
      },
      {
        "line": [
          "1198 Auburn Lakes Dr"
        ],
        "city": "ROCKLEDGE",
        "state": "FL",
        "postalCode": "32955-6780"
      },
      {
        "line": [
          "960 Maemir Way"
        ],
        "city": "ROCKLEDGE",
        "state": "FL",
        "postalCode": "32955-4601"
      },
      {
        "line": [
          "964 S HARBOR CITY BLVD"
        ],
        "city": "MELBOURNE",
        "state": "FL",
        "postalCode": "32901-1909"
      },
      {
        "line": [
          "3821 SUNNYSIDE CT"
        ],
        "city": "ROCKLEDGE",
        "state": "FL",
        "postalCode": "32955-5100"
      },
      {
        "line": [
          "3490 Gran Ave NE"
        ],
        "city": "PALM BAY",
        "state": "FL",
        "postalCode": "32905-6044"
      },
      {
        "line": [
          "1700 WUESTHOFF DR"
        ],
        "city": "MELBOURNE",
        "state": "FL",
        "postalCode": "32940-6842"
      },
      {
        "line": [
          "587 BARTON BLVD"
        ],
        "city": "ROCKLEDGE",
        "state": "FL",
        "postalCode": "32955-3145"
      },
      {
        "line": [
          "1064 BRIARWOOD BLVD NE"
        ],
        "city": "PALM BAY",
        "state": "FL",
        "postalCode": "32905-4577"
      },
      {
        "line": [
          "251 E FLORIDA AVE"
        ],
        "city": "MELBOURNE",
        "state": "FL",
        "postalCode": "32901-8303"
      },
      {
        "line": [
          "3260 N HARBOR CITY BLVD"
        ],
        "city": "MELBOURNE",
        "state": "FL",
        "postalCode": "32935-6203"
      },
      {
        "line": [
          "3325 BRESLAY DR"
        ],
        "city": "MELBOURNE",
        "state": "FL",
        "postalCode": "32940-8402"
      },
      {
        "line": [
          "1881 PALM BAY RD NE"
        ],
        "city": "PALM BAY",
        "state": "FL",
        "postalCode": "32905-2978"
      },
      {
        "line": [
          "2355 VIDINA DRIVE"
        ],
        "city": "MELBOURNE",
        "state": "FL",
        "postalCode": "32940-7698"
      },
      {
        "line": [
          "1800 HARRISON ST"
        ],
        "city": "TITUSVILLE",
        "state": "FL",
        "postalCode": "32780-4695"
      },
      {
        "line": [
          "1212 CORAL REEF AVE NW"
        ],
        "city": "PALM BAY",
        "state": "FL",
        "postalCode": "32907-8049"
      },
      {
        "line": [
          "535 CROCKETT BLVD"
        ],
        "city": "MERRITT ISLAND",
        "state": "FL",
        "postalCode": "32953-5018"
      },
      {
        "line": [
          "4251 STACK BLVD"
        ],
        "city": "MELBOURNE",
        "state": "FL",
        "postalCode": "32901-8526"
      },
      {
        "line": [
          "1341 BEDFORD DRIVE"
        ],
        "city": "MELBOURNE",
        "state": "FL",
        "postalCode": "32940-1986"
      },
      {
        "line": [
          "8050 Spyglass Hill Rd"
        ],
        "city": "MELBOURNE",
        "state": "FL",
        "postalCode": "32940-7983"
      },
      {
        "line": [
          "1341 Bedford Dr"
        ],
        "city": "MELBOURNE",
        "state": "FL",
        "postalCode": "32940-1986"
      },
      {
        "line": [
          "2129 W NEW HAVEN"
        ],
        "city": "MELBOURNE",
        "state": "FL",
        "postalCode": "32904-3873"
      },
      {
        "line": [
          "2440 EMERSON DRIVE SE"
        ],
        "city": "PALM BAY",
        "state": "FL",
        "postalCode": "32909-4972"
      },
      {
        "line": [
          "7999 SPYGLASS HILL RD"
        ],
        "city": "MELBOURNE",
        "state": "FL",
        "postalCode": "32940-7993"
      },
      {
        "line": [
          "1420 Oak St"
        ],
        "city": "MELBOURNE",
        "state": "FL",
        "postalCode": "32901-3113"
      },
      {
        "line": [
          "2225 KNOX MCRAE DR"
        ],
        "city": "TITUSVILLE",
        "state": "FL",
        "postalCode": "32780-5236"
      },
      {
        "line": [
          "1341 BEDFORD DR UNIT B"
        ],
        "city": "MELBOURNE",
        "state": "FL",
        "postalCode": "32940-1986"
      },
      {
        "line": [
          "85 BULLDOG BLVD"
        ],
        "city": "MELBOURNE",
        "state": "FL",
        "postalCode": "32901-3319"
      }
    ],
    "extension": [
      {
        "url": "https://fhir.athena.io/StructureDefinition/ah-practice",
        "valueReference": {
          "reference": "Organization/a-1.Practice-19018"
        }
      },
      {
        "url": "https://fhir.athena.io/StructureDefinition/ah-brand",
        "valueReference": {
          "reference": "Organization/a-19018.Brand-1"
        }
      }
    ]
  },
  "fullUrl": "urn:uuid:45500169-ad3c-5f8a-98d8-cabb5080f7c6"
}