{
  "resource": {
    "resourceType": "Organization",
    "id": "a6a540b2-1f4d-52f5-9574-1410b39fe209",
    "name": "Brandywine Tele- Radiology",
    "endpoint": [
      {
        "reference": "Endpoint/27a4e967-47aa-5a9c-a572-b8297ee268a2"
      },
      {
        "reference": "Endpoint/c93627ee-9a48-5530-82cf-496f911b50f9"
      }
    ],
    "identifier": [
      {
        "system": "http://hl7.org/fhir/sid/us-npi",
        "value": "1649341934"
      }
    ],
    "address": [
      {
        "line": [
          "2349 Yanoo Trace"
        ],
        "city": "JASPER",
        "state": "GA",
        "postalCode": "30143-8999"
      },
      {
        "line": [
          "130 CHERRY LN"
        ],
        "city": "WYNNEWOOD",
        "state": "PA",
        "postalCode": "19096-1220"
      },
      {
        "line": [
          "7711 Silver Lake Dr."
        ],
        "city": "SALT LAKE CITY",
        "state": "UT",
        "postalCode": "84121-5342"
      },
      {
        "line": [
          "1901 BLACK WATER CT"
        ],
        "city": "LAS VEGAS",
        "state": "NV",
        "postalCode": "89117-1949"
      },
      {
        "line": [
          "309 S. Crescent Dr"
        ],
        "city": "BEVERLY HILLS",
        "state": "CA",
        "postalCode": "90212-4502"
      },
      {
        "line": [
          "7516 Rigby Ct"
        ],
        "city": "BRADENTON",
        "state": "FL",
        "postalCode": "34202-2453"
      },
      {
        "line": [
          "1120 8th Ave"
        ],
        "city": "SEATTLE",
        "state": "WA",
        "postalCode": "98101-2538"
      },
      {
        "line": [
          "115 Middle Park Court"
        ],
        "city": "SILVERTHORNE",
        "state": "CO",
        "postalCode": "80498-9998"
      },
      {
        "line": [
          "1777 ALA MOANA BLVD APT 922"
        ],
        "city": "HONOLULU",
        "state": "HI",
        "postalCode": "96815-1603"
      },
      {
        "line": [
          "25 SILVER CRESENT"
        ],
        "city": "IRVINE",
        "state": "CA",
        "postalCode": "92603-3605"
      },
      {
        "line": [
          "91-1111 Hoomahana Street"
        ],
        "city": "EWA BEACH",
        "state": "HI",
        "postalCode": "96706-4630"
      },
      {
        "line": [
          "355 BRYANT ST UNIT 409"
        ],
        "city": "SAN FRANCISCO",
        "state": "CA",
        "postalCode": "94107-4164"
      },
      {
        "line": [
          "1278 BRIDGEPOINTE DR"
        ],
        "city": "COLLIERVILLE",
        "state": "TN",
        "postalCode": "38017-4513"
      },
      {
        "line": [
          "11402 NEWPORT BAY DRIVE"
        ],
        "city": "BERLIN",
        "state": "MD",
        "postalCode": "21811-9642"
      },
      {
        "line": [
          "1080 Peachtree St NE"
        ],
        "city": "ATLANTA",
        "state": "GA",
        "postalCode": "30309-6800"
      },
      {
        "line": [
          "510 14TH ST"
        ],
        "city": "SAINT AUGUSTINE",
        "state": "FL",
        "postalCode": "32084-1507"
      },
      {
        "line": [
          "1401 39th Ave E"
        ],
        "city": "SEATTLE",
        "state": "WA",
        "postalCode": "98112-3801"
      },
      {
        "line": [
          "8506 Kentucky Derby Drive"
        ],
        "city": "ODESSA",
        "state": "FL",
        "postalCode": "33556-2445"
      },
      {
        "line": [
          "240 Stacey Rd"
        ],
        "city": "NARBERTH",
        "state": "PA",
        "postalCode": "19072-1321"
      },
      {
        "line": [
          "19819 Zephyr Cv"
        ],
        "city": "SAN ANTONIO",
        "state": "TX",
        "postalCode": "78266-2162"
      },
      {
        "line": [
          "9290 E Thompson Peak Pkwy Unit 240"
        ],
        "city": "SCOTTSDALE",
        "state": "AZ",
        "postalCode": "85255-4512"
      },
      {
        "line": [
          "1810 30TH AVE W"
        ],
        "city": "SEATTLE",
        "state": "WA",
        "postalCode": "98199-4267"
      },
      {
        "line": [
          "864 STONERIDGE ROAD"
        ],
        "city": "CARLSBAD",
        "state": "CA",
        "postalCode": "92010-7073"
      },
      {
        "line": [
          "4142 Randall Court NW"
        ],
        "city": "ATLANTA",
        "state": "GA",
        "postalCode": "30327-3711"
      },
      {
        "line": [
          "6 OLD MANOR CT"
        ],
        "city": "REISTERSTOWN",
        "state": "MD",
        "postalCode": "21136-5664"
      },
      {
        "line": [
          "6129 Tuswell Drive"
        ],
        "city": "DUBLIN",
        "state": "OH",
        "postalCode": "43016-9186"
      },
      {
        "line": [
          "411 Gully Ranch Ct"
        ],
        "city": "DICKINSON",
        "state": "TX",
        "postalCode": "77539-7279"
      },
      {
        "line": [
          "239 GREENE ST"
        ],
        "city": "MILL VALLEY",
        "state": "CA",
        "postalCode": "94941-3516"
      },
      {
        "line": [
          "2995 American River Ln"
        ],
        "city": "LAS VEGAS",
        "state": "NV",
        "postalCode": "89135-1713"
      },
      {
        "line": [
          "2517 Swallows Rd"
        ],
        "city": "PUEBLO",
        "state": "CO",
        "postalCode": "81007-6224"
      },
      {
        "line": [
          "4696 BROADWAY ST",
          "UNIT 2-A"
        ],
        "city": "BOULDER",
        "state": "CO",
        "postalCode": "80304-0510"
      },
      {
        "line": [
          "845 COACHWAY"
        ],
        "city": "ANNAPOLIS",
        "state": "MD",
        "postalCode": "21401-6477"
      },
      {
        "line": [
          "15 DARTMOUTH CIRCLE"
        ],
        "city": "SWARTHMORE",
        "state": "PA",
        "postalCode": "19081-1623"
      },
      {
        "line": [
          "802 RIDGESTONE CT"
        ],
        "city": "PEACHTREE CITY",
        "state": "GA",
        "postalCode": "30269-6629"
      },
      {
        "line": [
          "1123 Rolling Springs Dr."
        ],
        "city": "HUNTSVILLE",
        "state": "TX",
        "postalCode": "77340-5861"
      },
      {
        "line": [
          "201 REECEVILLE RD"
        ],
        "city": "COATESVILLE",
        "state": "PA",
        "postalCode": "19320-1542"
      },
      {
        "line": [
          "4479 Zarahemla Drive"
        ],
        "city": "SALT LAKE CITY",
        "state": "UT",
        "postalCode": "84124-4039"
      },
      {
        "line": [
          "4323 POND APPLE DR S"
        ],
        "city": "NAPLES",
        "state": "FL",
        "postalCode": "34119-8535"
      },
      {
        "line": [
          "4610 E CERRO DE AGUILA"
        ],
        "city": "TUCSON",
        "state": "AZ",
        "postalCode": "85718-6931"
      },
      {
        "line": [
          "12 HARVEST"
        ],
        "city": "HOCKESSIN",
        "state": "DE",
        "postalCode": "19707-2080"
      },
      {
        "line": [
          "3471 Cheechako Dr"
        ],
        "city": "RENO",
        "state": "NV",
        "postalCode": "89519-8018"
      },
      {
        "line": [
          "2400 SPRUCE CT"
        ],
        "city": "ROANOKE",
        "state": "TX",
        "postalCode": "76262-8832"
      },
      {
        "line": [
          "17040 10TH AVE NW"
        ],
        "city": "SEATTLE",
        "state": "WA",
        "postalCode": "98177-3709"
      },
      {
        "line": [
          "20 Radcliff Rd"
        ],
        "city": "BALA CYNWYD",
        "state": "PA",
        "postalCode": "19004-2631"
      },
      {
        "line": [
          "28 COVINGTON DRIVE"
        ],
        "city": "ENGLEWOOD",
        "state": "CO",
        "postalCode": "80113-4145"
      },
      {
        "line": [
          "322 KAREN AVE",
          "TURNBERRY TOWER, #4405"
        ],
        "city": "LAS VEGAS",
        "state": "NV",
        "postalCode": "89109-0412"
      },
      {
        "line": [
          "12067 Watch Tower Dr"
        ],
        "city": "JACKSONVILLE",
        "state": "FL",
        "postalCode": "32258-1199"
      },
      {
        "line": [
          "5456 Wolverine Ter"
        ],
        "city": "CARLSBAD",
        "state": "CA",
        "postalCode": "92010-7159"
      },
      {
        "line": [
          "2 Pompeii"
        ],
        "city": "IRVINE",
        "state": "CA",
        "postalCode": "92606-0602"
      },
      {
        "line": [
          "38 BENNINGTON CT"
        ],
        "city": "RENO",
        "state": "NV",
        "postalCode": "89511-2742"
      },
      {
        "line": [
          "3736 RIVIERA RD"
        ],
        "city": "SARTELL",
        "state": "MN",
        "postalCode": "56377-9763"
      },
      {
        "line": [
          "30 ASPEN DR"
        ],
        "city": "LIVINGSTON",
        "state": "NJ",
        "postalCode": "07039-1433"
      },
      {
        "line": [
          "207 Lincoln Ave"
        ],
        "city": "HUNTINGTON BEACH",
        "state": "CA",
        "postalCode": "92648-3505"
      },
      {
        "line": [
          "6000 RED TAIL LN"
        ],
        "city": "GIBSONIA",
        "state": "PA",
        "postalCode": "15044-6046"
      },
      {
        "line": [
          "3471 CHEECHAKO DR"
        ],
        "city": "RENO",
        "state": "NV",
        "postalCode": "89519-8018"
      },
      {
        "line": [
          "513 Acacia Court"
        ],
        "city": "REDLANDS",
        "state": "CA",
        "postalCode": "92373-5665"
      },
      {
        "line": [
          "76 Donahey Road"
        ],
        "city": "COUPEVILLE",
        "state": "WA",
        "postalCode": "98239-9633"
      },
      {
        "line": [
          "457 E 900 S"
        ],
        "city": "MAPLETON",
        "state": "UT",
        "postalCode": "84664-5019"
      },
      {
        "line": [
          "3657 SPRING HOLLOW RD"
        ],
        "city": "INDIANAPOLIS",
        "state": "IN",
        "postalCode": "46208-4167"
      },
      {
        "line": [
          "107 KEMPTON DR"
        ],
        "city": "LAFAYETTE",
        "state": "LA",
        "postalCode": "70508-6547"
      },
      {
        "line": [
          "110 N. 2nd Street"
        ],
        "city": "PULASKI",
        "state": "TN",
        "postalCode": "38478-3217"
      },
      {
        "line": [
          "17 Tonnelier Way"
        ],
        "city": "DENVILLE",
        "state": "NJ",
        "postalCode": "07834-9615"
      },
      {
        "line": [
          "201 REECEVILLE ROAD"
        ],
        "city": "COATESVILLE",
        "state": "PA",
        "postalCode": "19320-1542"
      },
      {
        "line": [
          "3308 Clouds Creek Ct"
        ],
        "city": "MCKINNEY",
        "state": "TX",
        "postalCode": "75070-4825"
      },
      {
        "line": [
          "5605 Saddlewood Lane"
        ],
        "city": "BRENTWOOD",
        "state": "TN",
        "postalCode": "37027-4837"
      },
      {
        "line": [
          "513 ACACIA COURT"
        ],
        "city": "REDLANDS",
        "state": "CA",
        "postalCode": "92373-5665"
      },
      {
        "line": [
          "510 14th St"
        ],
        "city": "SAINT AUGUSTINE",
        "state": "FL",
        "postalCode": "32084-1507"
      },
      {
        "line": [
          "4047 ENSENADA AVE"
        ],
        "city": "MIAMI",
        "state": "FL",
        "postalCode": "33133-6313"
      },
      {
        "line": [
          "10013 Bentcross Dr"
        ],
        "city": "POTOMAC",
        "state": "MD",
        "postalCode": "20854-4739"
      },
      {
        "line": [
          "3864 STONERIDGE ROAD"
        ],
        "city": "CARLSBAD",
        "state": "CA",
        "postalCode": "92010-7073"
      }
    ],
    "extension": [
      {
        "url": "https://fhir.athena.io/StructureDefinition/ah-practice",
        "valueReference": {
          "reference": "Organization/a-1.Practice-1916"
        }
      },
      {
        "url": "https://fhir.athena.io/StructureDefinition/ah-brand",
        "valueReference": {
          "reference": "Organization/a-1916.Brand-4"
        }
      }
    ]
  },
  "fullUrl": "urn:uuid:a6a540b2-1f4d-52f5-9574-1410b39fe209"
}