{
  "resource": {
    "resourceType": "Organization",
    "id": "05e13825-04e5-5233-9e9b-a669b2ca0806",
    "name": "Avoyelles Hospital",
    "endpoint": [
      {
        "reference": "Endpoint/27a4e967-47aa-5a9c-a572-b8297ee268a2"
      },
      {
        "reference": "Endpoint/e9040a92-477a-50d5-9c43-5786aa828679"
      }
    ],
    "identifier": [
      {
        "system": "http://hl7.org/fhir/sid/us-npi",
        "value": "1679134407"
      },
      {
        "system": "http://hl7.org/fhir/sid/us-npi",
        "value": "1669150876"
      },
      {
        "system": "http://hl7.org/fhir/sid/us-npi",
        "value": "1447841945"
      },
      {
        "system": "http://hl7.org/fhir/sid/us-npi",
        "value": "1912598418"
      },
      {
        "system": "http://hl7.org/fhir/sid/us-npi",
        "value": "1538750039"
      },
      {
        "system": "http://hl7.org/fhir/sid/us-npi",
        "value": "1962924928"
      }
    ],
    "address": [
      {
        "line": [
          "16232 HWY 1"
        ],
        "city": "SIMMESPORT",
        "state": "LA",
        "postalCode": "71369-2156"
      },
      {
        "line": [
          "2200 MEMORIAL DR"
        ],
        "city": "ALEXANDRIA",
        "state": "LA",
        "postalCode": "71301-3611"
      },
      {
        "line": [
          "3707 Hwy 114"
        ],
        "city": "HESSMER",
        "state": "LA",
        "postalCode": "71341-4143"
      },
      {
        "line": [
          "351 WINDERMERE BLVD"
        ],
        "city": "ALEXANDRIA",
        "state": "LA",
        "postalCode": "71303-2600"
      },
      {
        "line": [
          "5877 AIMWELL RD"
        ],
        "city": "JENA",
        "state": "LA",
        "postalCode": "71342-6001"
      },
      {
        "line": [
          "1630 PRISON RD"
        ],
        "city": "COTTONPORT",
        "state": "LA",
        "postalCode": "71327-4055"
      },
      {
        "line": [
          "5682 HWY 107"
        ],
        "city": "DUPONT",
        "state": "LA",
        "postalCode": "71329-0300"
      },
      {
        "line": [
          "1515 HWY 107"
        ],
        "city": "CENTER POINT",
        "state": "LA",
        "postalCode": "71323-0123"
      },
      {
        "line": [
          "204 COCOVILLE RD"
        ],
        "city": "MANSURA",
        "state": "LA",
        "postalCode": "71350-4266"
      },
      {
        "line": [
          "5201 SHREVEPORT HWY"
        ],
        "city": "PINEVILLE",
        "state": "LA",
        "postalCode": "71360-3527"
      },
      {
        "line": [
          "5201 Shreveport Hwy"
        ],
        "city": "PINEVILLE",
        "state": "LA",
        "postalCode": "71360-3527"
      },
      {
        "line": [
          "2200 Memorial Dr."
        ],
        "city": "ALEXANDRIA",
        "state": "LA",
        "postalCode": "71301-3611"
      },
      {
        "line": [
          "7119 Hwy 1 South"
        ],
        "city": "MARKSVILLE",
        "state": "LA",
        "postalCode": "71351-0629"
      },
      {
        "line": [
          "16 Heyman Lane"
        ],
        "city": "ALEXANDRIA",
        "state": "LA",
        "postalCode": "71303-3523"
      },
      {
        "line": [
          "PO Box 112"
        ],
        "city": "PALMETTO",
        "state": "LA",
        "postalCode": "71358-0112"
      },
      {
        "line": [
          "597 TUNICA DRIVE W"
        ],
        "city": "MARKSVILLE",
        "state": "LA",
        "postalCode": "71351-2628"
      },
      {
        "line": [
          "323 Evergreen Hwy"
        ],
        "city": "BUNKIE",
        "state": "LA",
        "postalCode": "71322-2305"
      },
      {
        "line": [
          "1515 Hwy 107"
        ],
        "city": "CENTER POINT",
        "state": "LA",
        "postalCode": "71323-0128"
      },
      {
        "line": [
          "5723 JACKSON ST EXTENTION"
        ],
        "city": "ALEXANDRIA",
        "state": "LA",
        "postalCode": "71303-2079"
      },
      {
        "line": [
          "1515 Hwy 107"
        ],
        "city": "CENTER POINT",
        "state": "LA",
        "postalCode": "71323-0123"
      },
      {
        "line": [
          "16 HEYMAN LN"
        ],
        "city": "ALEXANDRIA",
        "state": "LA",
        "postalCode": "71303-3523"
      },
      {
        "line": [
          "7408 Hwy 1"
        ],
        "city": "MANSURA",
        "state": "LA",
        "postalCode": "71350-4204"
      },
      {
        "line": [
          "5100 Jackson Street"
        ],
        "city": "ALEXANDRIA",
        "state": "LA",
        "postalCode": "71303-2317"
      },
      {
        "line": [
          "3707 HWY 114"
        ],
        "city": "HESSMER",
        "state": "LA",
        "postalCode": "71341-4143"
      },
      {
        "line": [
          "5877 Aimwell Rd"
        ],
        "city": "JENA",
        "state": "LA",
        "postalCode": "71342-6001"
      },
      {
        "line": [
          "426 N Washington St."
        ],
        "city": "MARKSVILLE",
        "state": "LA",
        "postalCode": "71351-2426"
      },
      {
        "line": [
          "PO BOX 112"
        ],
        "city": "PALMETTO",
        "state": "LA",
        "postalCode": "71358-0112"
      },
      {
        "line": [
          "5100 JACKSON ST."
        ],
        "city": "ALEXANDRIA",
        "state": "LA",
        "postalCode": "71303-2317"
      }
    ],
    "extension": [
      {
        "url": "https://fhir.athena.io/StructureDefinition/ah-practice",
        "valueReference": {
          "reference": "Organization/a-1.Practice-30808"
        }
      },
      {
        "url": "https://fhir.athena.io/StructureDefinition/ah-brand",
        "valueReference": {
          "reference": "Organization/a-30808.Brand-1"
        }
      }
    ]
  },
  "fullUrl": "urn:uuid:05e13825-04e5-5233-9e9b-a669b2ca0806"
}