{
  "resource": {
    "resourceType": "Organization",
    "id": "10346fcb-be3e-5130-bc6e-868806afebc1",
    "name": "Arise Austin Medical Center",
    "endpoint": [
      {
        "reference": "Endpoint/27a4e967-47aa-5a9c-a572-b8297ee268a2"
      },
      {
        "reference": "Endpoint/97829e1f-51c8-551a-8b6f-0fee761ed045"
      }
    ],
    "identifier": [
      {
        "system": "http://hl7.org/fhir/sid/us-npi",
        "value": "1326061714"
      }
    ],
    "address": [
      {
        "line": [
          "3003 Bee Cave Rd"
        ],
        "city": "AUSTIN",
        "state": "TX",
        "postalCode": "78746-5542"
      },
      {
        "line": [
          "100 Medical Parkway"
        ],
        "city": "AUSTIN",
        "state": "TX",
        "postalCode": "78738-5621"
      },
      {
        "line": [
          "1500 Red River"
        ],
        "city": "AUSTIN",
        "state": "TX",
        "postalCode": "78701-1918"
      },
      {
        "line": [
          "930 Kohlers Crossing Ste 650"
        ],
        "city": "KYLE",
        "state": "TX",
        "postalCode": "78640-6182"
      },
      {
        "line": [
          "3201 S. Austin Ave Suite 235"
        ],
        "city": "GEORGETOWN",
        "state": "TX",
        "postalCode": "78626-7642"
      },
      {
        "line": [
          "134 elmhurst dr #100"
        ],
        "city": "KYLE",
        "state": "TX",
        "postalCode": "78640-6060"
      },
      {
        "line": [
          "4316 James Casey, Ste 202"
        ],
        "city": "AUSTIN",
        "state": "TX",
        "postalCode": "78745-1161"
      },
      {
        "line": [
          "2000 Scenic Drive"
        ],
        "city": "GEORGETOWN",
        "state": "TX",
        "postalCode": "78626-7726"
      },
      {
        "line": [
          "1010 W 40th St"
        ],
        "city": "Austin",
        "state": "TX",
        "postalCode": "78756-4010"
      },
      {
        "line": [
          "1301 W 38th St  Suite 109"
        ],
        "city": "AUSTIN",
        "state": "TX",
        "postalCode": "78705-0000"
      },
      {
        "line": [
          "1201 W> Louis Henna Blvd."
        ],
        "city": "ROUND ROCK",
        "state": "TX",
        "postalCode": "78681-2301"
      },
      {
        "line": [
          "300 University Blvd"
        ],
        "city": "ROUND ROCK",
        "state": "TX",
        "postalCode": "78665-1032"
      },
      {
        "line": [
          "1500 Red River St"
        ],
        "city": "AUSTIN",
        "state": "TX",
        "postalCode": "78701-1918"
      },
      {
        "line": [
          "5656 Bee Caves Rd"
        ],
        "city": "AUSTIN",
        "state": "TX",
        "postalCode": "78746-5280"
      },
      {
        "line": [
          "300 Univeristy Blvd"
        ],
        "city": "ROUND ROCK",
        "state": "TX",
        "postalCode": "78665-1032"
      },
      {
        "line": [
          "1102 BATES AVE"
        ],
        "city": "AUSTIN",
        "state": "TX",
        "postalCode": "78717-6210"
      },
      {
        "line": [
          "301 SETON PKWY STE 200"
        ],
        "city": "ROUND ROCK",
        "state": "TX",
        "postalCode": "78665-8032"
      },
      {
        "line": [
          "301 Seton Parkway Suite 104"
        ],
        "city": "ROUND ROCK",
        "state": "TX",
        "postalCode": "78665-8003"
      },
      {
        "line": [
          "3201 S Austin Ave, Ste 255"
        ],
        "city": "GEORGETOWN",
        "state": "TX",
        "postalCode": "78626-7642"
      },
      {
        "line": [
          "1010 West 40th St"
        ],
        "city": "AUSTIN",
        "state": "TX",
        "postalCode": "78756-4010"
      },
      {
        "line": [
          "1201 W. Louis Henna Blvd."
        ],
        "city": "ROUND ROCK",
        "state": "TX",
        "postalCode": "78681-2301"
      },
      {
        "line": [
          "1010 West 40th St"
        ],
        "city": "AUSTIN",
        "state": "TX",
        "postalCode": "78756-1010"
      },
      {
        "line": [
          "1180 Seton Parkway Sute 250"
        ],
        "city": "KYLE",
        "state": "TX",
        "postalCode": "78640-6182"
      }
    ],
    "extension": [
      {
        "url": "https://fhir.athena.io/StructureDefinition/ah-practice",
        "valueReference": {
          "reference": "Organization/a-1.Practice-856"
        }
      },
      {
        "url": "https://fhir.athena.io/StructureDefinition/ah-brand",
        "valueReference": {
          "reference": "Organization/a-856.Brand-1"
        }
      }
    ]
  },
  "fullUrl": "urn:uuid:10346fcb-be3e-5130-bc6e-868806afebc1"
}