{
  "resource": {
    "resourceType": "Organization",
    "id": "9e148fd4-f47d-5c53-8f8e-7ccc0c72a9c2",
    "name": "Arkansas Urology - Bentonville",
    "endpoint": [
      {
        "reference": "Endpoint/27a4e967-47aa-5a9c-a572-b8297ee268a2"
      },
      {
        "reference": "Endpoint/87185676-3968-588a-bd64-fa1c992914df"
      }
    ],
    "identifier": [
      {
        "system": "http://hl7.org/fhir/sid/us-npi",
        "value": "1093720443"
      }
    ],
    "address": [
      {
        "line": [
          "4321 Marsha Sharp Freeway Door 2"
        ],
        "city": "LUBBOCK",
        "state": "TX",
        "postalCode": "79407-0000"
      },
      {
        "line": [
          "620 N MAIN STREET"
        ],
        "city": "HARRISON",
        "state": "AR",
        "postalCode": "72601-2911"
      },
      {
        "line": [
          "4200 Stockton Drive"
        ],
        "city": "NORTH LITTLE ROCK",
        "state": "AR",
        "postalCode": "72117-2915"
      },
      {
        "line": [
          "1300 Centerview Dr"
        ],
        "city": "LITTLE ROCK",
        "state": "AR",
        "postalCode": "72211-4349"
      },
      {
        "line": [
          "1701 S SHACKLEFORD RD"
        ],
        "city": "LITTLE ROCK",
        "state": "AR",
        "postalCode": "72211-4335"
      },
      {
        "line": [
          "1300 CENTERVIEW DRIAVE"
        ],
        "city": "LITTLE ROCK",
        "state": "AR",
        "postalCode": "72211-4349"
      },
      {
        "line": [
          "620 N MAIN ST"
        ],
        "city": "HARRISON",
        "state": "AR",
        "postalCode": "72601-2911"
      },
      {
        "line": [
          "700 W Grove ST"
        ],
        "city": "EL DORADO",
        "state": "AR",
        "postalCode": "71730-4416"
      },
      {
        "line": [
          "4 Hospital Drive"
        ],
        "city": "MORRILTON",
        "state": "AR",
        "postalCode": "72110-4510"
      },
      {
        "line": [
          "1300 Centerview Drive"
        ],
        "city": "LITTLE ROCK",
        "state": "AR",
        "postalCode": "72211-4349"
      },
      {
        "line": [
          "3333 Springhill"
        ],
        "city": "NORTH LITTLE ROCK",
        "state": "AR",
        "postalCode": "72117-2922"
      },
      {
        "line": [
          "3000 Medical Center Pkwy"
        ],
        "city": "BENTONVILLE",
        "state": "AR",
        "postalCode": "72712-3217"
      },
      {
        "line": [
          "1609 W 40th Ave"
        ],
        "city": "PINE BLUFF",
        "state": "AR",
        "postalCode": "71603-6319"
      },
      {
        "line": [
          "2710 S Rife Medical Lane"
        ],
        "city": "ROGERS",
        "state": "AR",
        "postalCode": "72758-1452"
      },
      {
        "line": [
          "609 W Maple Avenue"
        ],
        "city": "SPRINGDALE",
        "state": "AR",
        "postalCode": "72764-5335"
      },
      {
        "line": [
          "1703 Buerkle"
        ],
        "city": "STUTTGART",
        "state": "AR",
        "postalCode": "72160-3153"
      },
      {
        "line": [
          "1901 ENCORE WAY"
        ],
        "city": "BENTON",
        "state": "AR",
        "postalCode": "72019-8896"
      },
      {
        "line": [
          "2302 College Ave"
        ],
        "city": "CONWAY",
        "state": "AR",
        "postalCode": "72034-6297"
      },
      {
        "line": [
          "1300 centerview drive"
        ],
        "city": "LITTLE ROCK",
        "state": "AR",
        "postalCode": "72211-4349"
      },
      {
        "line": [
          "1555 Exchange Ave"
        ],
        "city": "CONWAY",
        "state": "AR",
        "postalCode": "72032-7824"
      },
      {
        "line": [
          "1600 W 40th Ave"
        ],
        "city": "PINE BLUFF",
        "state": "AR",
        "postalCode": "71603-6319"
      },
      {
        "line": [
          "6020 Warden Road",
          "Suite 260"
        ],
        "city": "SHERWOOD",
        "state": "AR",
        "postalCode": "72120-6068"
      },
      {
        "line": [
          "1375 SUPERIOR DRIVE"
        ],
        "city": "CONWAY",
        "state": "AR",
        "postalCode": "72032-7018"
      },
      {
        "line": [
          "1300 CENTERVIEW DR"
        ],
        "city": "LITTLE ROCK",
        "state": "AR",
        "postalCode": "72211-4349"
      },
      {
        "line": [
          "1300 Centerview"
        ],
        "city": "LITTLE ROCK",
        "state": "AR",
        "postalCode": "72211-4349"
      },
      {
        "line": [
          "8000 Virginia Manor Road STE 170"
        ],
        "city": "BELTSVILLE",
        "state": "MD",
        "postalCode": "20705-4211"
      },
      {
        "line": [
          "2504 West Main Ste A"
        ],
        "city": "RUSSELLVILLE",
        "state": "AR",
        "postalCode": "72801-2536"
      },
      {
        "line": [
          "4 Hospital drive"
        ],
        "city": "MORRILTON",
        "state": "AR",
        "postalCode": "72110-4510"
      },
      {
        "line": [
          "7211 DOLLARWAY RD"
        ],
        "city": "WHITE HALL",
        "state": "AR",
        "postalCode": "71602-3020"
      },
      {
        "line": [
          "3400 SE MACY RD STE 22"
        ],
        "city": "BENTONVILLE",
        "state": "AR",
        "postalCode": "72712-7844"
      }
    ],
    "extension": [
      {
        "url": "https://fhir.athena.io/StructureDefinition/ah-practice",
        "valueReference": {
          "reference": "Organization/a-1.Practice-10448"
        }
      },
      {
        "url": "https://fhir.athena.io/StructureDefinition/ah-brand",
        "valueReference": {
          "reference": "Organization/a-10448.Brand-1"
        }
      }
    ]
  },
  "fullUrl": "urn:uuid:9e148fd4-f47d-5c53-8f8e-7ccc0c72a9c2"
}