{
  "resource": {
    "resourceType": "Organization",
    "id": "3a2f1966-fadf-5748-b9cf-ec6eb720382e",
    "name": "Institute for Cardiovascular Health",
    "endpoint": [
      {
        "reference": "Endpoint/27a4e967-47aa-5a9c-a572-b8297ee268a2"
      },
      {
        "reference": "Endpoint/9cc18d86-9cfd-51f4-8362-613d94d57769"
      }
    ],
    "identifier": [
      {
        "system": "http://hl7.org/fhir/sid/us-npi",
        "value": "1508489782"
      },
      {
        "system": "http://hl7.org/fhir/sid/us-npi",
        "value": "1962025148"
      },
      {
        "system": "http://hl7.org/fhir/sid/us-npi",
        "value": "1629538491"
      },
      {
        "system": "http://hl7.org/fhir/sid/us-npi",
        "value": "1730412388"
      },
      {
        "system": "http://hl7.org/fhir/sid/us-npi",
        "value": "1588997233"
      },
      {
        "system": "http://hl7.org/fhir/sid/us-npi",
        "value": "1275290694"
      }
    ],
    "address": [
      {
        "line": [
          "11113 Research Blvd"
        ],
        "city": "AUSTIN",
        "state": "TX",
        "postalCode": "78759-5236"
      },
      {
        "line": [
          "6001 Kyle Parkway"
        ],
        "city": "KYLE",
        "state": "TX",
        "postalCode": "78640-6112"
      },
      {
        "line": [
          "7900 FM 1826"
        ],
        "city": "AUSTIN",
        "state": "TX",
        "postalCode": "78737-1407"
      },
      {
        "line": [
          "3201 S Water St"
        ],
        "city": "BURNET",
        "state": "TX",
        "postalCode": "78611-4510"
      },
      {
        "line": [
          "5103 KYLE CENTER DR STE 103"
        ],
        "city": "KYLE",
        "state": "TX",
        "postalCode": "78640-6164"
      },
      {
        "line": [
          "11111 Research Blvd, Ste 400"
        ],
        "city": "AUSTIN",
        "state": "TX",
        "postalCode": "78759-5249"
      },
      {
        "line": [
          "1201 W 38th St"
        ],
        "city": "AUSTIN",
        "state": "TX",
        "postalCode": "78705-1006"
      },
      {
        "line": [
          "130 Hays St"
        ],
        "city": "LULING",
        "state": "TX",
        "postalCode": "78648-3207"
      },
      {
        "line": [
          "4900 Mueller Blvd"
        ],
        "city": "AUSTIN",
        "state": "TX",
        "postalCode": "78723-3051"
      },
      {
        "line": [
          "2108 Hunter Rd  Ste 116"
        ],
        "city": "SAN MARCOS",
        "state": "TX",
        "postalCode": "78666-5156"
      },
      {
        "line": [
          "1500 Red River St"
        ],
        "city": "AUSTIN",
        "state": "TX",
        "postalCode": "78701-1918"
      },
      {
        "line": [
          "1180 Seton Parkway, Suite 450",
          "STE 450"
        ],
        "city": "KYLE",
        "state": "TX",
        "postalCode": "78640-6178"
      },
      {
        "line": [
          "301 Seton Parkway"
        ],
        "city": "ROUND ROCK",
        "state": "TX",
        "postalCode": "78665-8002"
      },
      {
        "line": [
          "630 Hwy 71 W Suite D"
        ],
        "city": "BASTROP",
        "state": "TX",
        "postalCode": "78602-4283"
      },
      {
        "line": [
          "301 Seton Pkwy",
          "STE 302"
        ],
        "city": "Round Rock",
        "state": "TX",
        "postalCode": "78665-8003"
      },
      {
        "line": [
          "1004 W. 32nd St. Suite 300"
        ],
        "city": "AUSTIN",
        "state": "TX",
        "postalCode": "78705-1917"
      },
      {
        "line": [
          "1301 W 38th St",
          "STE 307"
        ],
        "city": "AUSTIN",
        "state": "TX",
        "postalCode": "78705-1012"
      },
      {
        "line": [
          "200 John W. Hoover Pkwy., Bldg. 4, Ste A"
        ],
        "city": "BURNET",
        "state": "TX",
        "postalCode": "78611-4560"
      }
    ],
    "extension": [
      {
        "url": "https://fhir.athena.io/StructureDefinition/ah-practice",
        "valueReference": {
          "reference": "Organization/a-1.Practice-8363"
        }
      },
      {
        "url": "https://fhir.athena.io/StructureDefinition/ah-brand",
        "valueReference": {
          "reference": "Organization/a-8363.Brand-1"
        }
      }
    ]
  },
  "fullUrl": "urn:uuid:3a2f1966-fadf-5748-b9cf-ec6eb720382e"
}