{
  "resource": {
    "resourceType": "Organization",
    "id": "89be4b6f-990f-5237-8370-8cce80f861fd",
    "name": "Tennova Medical Group Cleveland",
    "endpoint": [
      {
        "reference": "Endpoint/27a4e967-47aa-5a9c-a572-b8297ee268a2"
      },
      {
        "reference": "Endpoint/8f7232ba-07c5-5600-a7c8-a7febf26f0d7"
      }
    ],
    "identifier": [
      {
        "system": "http://hl7.org/fhir/sid/us-npi",
        "value": "1457350951"
      },
      {
        "system": "http://hl7.org/fhir/sid/us-npi",
        "value": "1720149222"
      }
    ],
    "address": [
      {
        "line": [
          "2305 CHAMBLISS AVE NW"
        ],
        "city": "CLEVELAND",
        "state": "TN",
        "postalCode": "37311-3847"
      },
      {
        "line": [
          "2910 Peerless Road NW"
        ],
        "city": "CLEVELAND",
        "state": "TN",
        "postalCode": "37312-3742"
      },
      {
        "line": [
          "2750 EXECUTIVE PARK NW"
        ],
        "city": "CLEVELAND",
        "state": "TN",
        "postalCode": "37312-2722"
      },
      {
        "line": [
          "3530 KEITH ST NW"
        ],
        "city": "CLEVELAND",
        "state": "TN",
        "postalCode": "37312-4309"
      },
      {
        "line": [
          "10820 Parkside Dr"
        ],
        "city": "KNOXVILLE",
        "state": "TN",
        "postalCode": "37934-1956"
      },
      {
        "line": [
          "975 E 3RD ST"
        ],
        "city": "CHATTANOOGA",
        "state": "TN",
        "postalCode": "37403-2147"
      },
      {
        "line": [
          "555 Industrial Dr SW"
        ],
        "city": "CLEVELAND",
        "state": "TN",
        "postalCode": "37311-8263"
      },
      {
        "line": [
          "4325 Old Tasso Rd NE"
        ],
        "city": "CLEVELAND",
        "state": "TN",
        "postalCode": "37312-5836"
      },
      {
        "line": [
          "4000 MERIDIAN"
        ],
        "city": "FRANKLIN",
        "state": "TN",
        "postalCode": "37067-6325"
      },
      {
        "line": [
          "137 25 th Street"
        ],
        "city": "CLEVELAND",
        "state": "TN",
        "postalCode": "37311-8999"
      },
      {
        "line": [
          "2800 Westside Drive NW"
        ],
        "city": "CLEVELAND",
        "state": "TN",
        "postalCode": "37312-3501"
      },
      {
        "line": [
          "7565 Dannaher Dr"
        ],
        "city": "POWELL",
        "state": "TN",
        "postalCode": "37849-4029"
      },
      {
        "line": [
          "10820 Parkside Drive"
        ],
        "city": "KNOXVILLE",
        "state": "TN",
        "postalCode": "37934-1956"
      }
    ],
    "extension": [
      {
        "url": "https://fhir.athena.io/StructureDefinition/ah-practice",
        "valueReference": {
          "reference": "Organization/a-1.Practice-1525"
        }
      },
      {
        "url": "https://fhir.athena.io/StructureDefinition/ah-brand",
        "valueReference": {
          "reference": "Organization/a-1525.Brand-2"
        }
      }
    ]
  },
  "fullUrl": "urn:uuid:89be4b6f-990f-5237-8370-8cce80f861fd"
}