{
  "resource": {
    "resourceType": "Organization",
    "id": "2528c9aa-54fb-5815-9c3d-848fd3b1ae36",
    "name": "Maryland Vascular Specialists",
    "endpoint": [
      {
        "reference": "Endpoint/27a4e967-47aa-5a9c-a572-b8297ee268a2"
      },
      {
        "reference": "Endpoint/85e43e32-d277-573d-a399-eefdfadbe7a6"
      }
    ],
    "identifier": [
      {
        "system": "http://hl7.org/fhir/sid/us-npi",
        "value": "1710164504"
      }
    ],
    "address": [
      {
        "line": [
          "11110 MEDICAL CAMPUS RD SUITE 125"
        ],
        "city": "HAGERSTOWN",
        "state": "MD",
        "postalCode": "21742-6799"
      },
      {
        "line": [
          "106 BOW ST"
        ],
        "city": "ELKTON",
        "state": "MD",
        "postalCode": "21921-5544"
      },
      {
        "line": [
          "5755 cedar lane"
        ],
        "city": "COLUMBIA",
        "state": "MD",
        "postalCode": "21044-2912"
      },
      {
        "line": [
          "1609 E JOPPA RD"
        ],
        "city": "TOWSON",
        "state": "MD",
        "postalCode": "21286-2122"
      },
      {
        "line": [
          "200 Memorial ave"
        ],
        "city": "WESTMINSTER",
        "state": "MD",
        "postalCode": "21157-5726"
      },
      {
        "line": [
          "1861 POWDER MILL RD"
        ],
        "city": "YORK",
        "state": "PA",
        "postalCode": "17402-4723"
      },
      {
        "line": [
          "121 CHAMBERS HILL DR STE 121"
        ],
        "city": "CHAMBERSBURG",
        "state": "PA",
        "postalCode": "17201-7302"
      },
      {
        "line": [
          "250 FAME AVE",
          "STE 204"
        ],
        "city": "HANOVER",
        "state": "PA",
        "postalCode": "17331-1587"
      },
      {
        "line": [
          "5401 OLD COURT ROAD"
        ],
        "city": "RANDALLSTOWN",
        "state": "MD",
        "postalCode": "21133-5103"
      },
      {
        "line": [
          "540 E. BELVEDERE AVE 204"
        ],
        "city": "BALTIMORE",
        "state": "MD",
        "postalCode": "21212-3750"
      },
      {
        "line": [
          "10700 CHARTER DRIVE SUITE 335"
        ],
        "city": "COLUMBIA",
        "state": "MD",
        "postalCode": "21044-3695"
      },
      {
        "line": [
          "110 OLD PADONIA RD STE 101"
        ],
        "city": "COCKEYSVILLE",
        "state": "MD",
        "postalCode": "21030-4944"
      },
      {
        "line": [
          "2401 W BELVEDERE AVE"
        ],
        "city": "BALTIMORE",
        "state": "MD",
        "postalCode": "21215-5216"
      },
      {
        "line": [
          "6701 NORTH CHARLES STREET"
        ],
        "city": "TOWSON",
        "state": "MD",
        "postalCode": "21204-6808"
      },
      {
        "line": [
          "1212 YORK RD",
          "STE B201"
        ],
        "city": "LUTHERVILLE TIMONIUM",
        "state": "MD",
        "postalCode": "21093-6242"
      },
      {
        "line": [
          "5601 LOCH RAVEN BLVD"
        ],
        "city": "BALTIMORE",
        "state": "MD",
        "postalCode": "21239-2945"
      },
      {
        "line": [
          "9000 Franklin Square Drive"
        ],
        "city": "ROSEDALE",
        "state": "MD",
        "postalCode": "21237-3901"
      },
      {
        "line": [
          "1001 S GEORGE STREET"
        ],
        "city": "YORK",
        "state": "PA",
        "postalCode": "17403-3676"
      },
      {
        "line": [
          "7601 OSLER DRIVE"
        ],
        "city": "TOWSON",
        "state": "MD",
        "postalCode": "21204-7700"
      },
      {
        "line": [
          "500 UPPER CHESAPEAKE DR"
        ],
        "city": "BEL AIR",
        "state": "MD",
        "postalCode": "21014-4324"
      },
      {
        "line": [
          "3401 BOXHILL CORPORATE CENTER DR # 204"
        ],
        "city": "ABINGDON",
        "state": "MD",
        "postalCode": "21009-1200"
      },
      {
        "line": [
          "300 HIGHLAND AVE"
        ],
        "city": "HANOVER",
        "state": "PA",
        "postalCode": "17331-2297"
      },
      {
        "line": [
          "1300 York Road",
          "Suite 200 Bldg C"
        ],
        "city": "LUTHERVILLE TIMONIUM",
        "state": "MD",
        "postalCode": "21093-6090"
      },
      {
        "line": [
          "1124 MACE AVE"
        ],
        "city": "ESSEX",
        "state": "MD",
        "postalCode": "21221-3315"
      },
      {
        "line": [
          "6201 GREENBELT RD STE L1"
        ],
        "city": "COLLEGE PARK",
        "state": "MD",
        "postalCode": "20740-2357"
      },
      {
        "line": [
          "301 HOSPITAL DRIVE"
        ],
        "city": "GLEN BURNIE",
        "state": "MD",
        "postalCode": "21061-5803"
      },
      {
        "line": [
          "900 Caton Avenue"
        ],
        "city": "BALTIMORE",
        "state": "MD",
        "postalCode": "21229-5201"
      },
      {
        "line": [
          "3623 FALLS RD"
        ],
        "city": "BALTIMORE",
        "state": "MD",
        "postalCode": "21211-1815"
      },
      {
        "line": [
          "201 E UNIVERSITY PKWY"
        ],
        "city": "BALTIMORE",
        "state": "MD",
        "postalCode": "21218-2829"
      },
      {
        "line": [
          "1811 S. CRAIN HWY SUITE C"
        ],
        "city": "GLEN BURNIE",
        "state": "MD",
        "postalCode": "21061-5561"
      },
      {
        "line": [
          "501 S UNION AVE"
        ],
        "city": "HAVRE DE GRACE",
        "state": "MD",
        "postalCode": "21078-3409"
      },
      {
        "line": [
          "1701 Innovation Drive"
        ],
        "city": "YORK",
        "state": "PA",
        "postalCode": "17408-8815"
      },
      {
        "line": [
          "1838 GREENE TREE RD",
          "STE 325"
        ],
        "city": "PIKESVILLE",
        "state": "MD",
        "postalCode": "21208-2946"
      },
      {
        "line": [
          "1110 PROFESSIONAL CT",
          "SUITE 100"
        ],
        "city": "HAGERSTOWN",
        "state": "MD",
        "postalCode": "21740-5944"
      },
      {
        "line": [
          "11116 MEDICAL CAMPUS ROAD"
        ],
        "city": "HAGERSTOWN",
        "state": "MD",
        "postalCode": "21742-6710"
      },
      {
        "line": [
          "1300 YORK RD"
        ],
        "city": "LUTHERVILLE TIMONIUM",
        "state": "MD",
        "postalCode": "21093-6016"
      },
      {
        "line": [
          "5755 Cedar Ln"
        ],
        "city": "COLUMBIA",
        "state": "MD",
        "postalCode": "21044-2912"
      },
      {
        "line": [
          "215 SCHILLING CIR STE 110-112"
        ],
        "city": "HUNT VALLEY",
        "state": "MD",
        "postalCode": "21031-1108"
      },
      {
        "line": [
          "12 ST PAUL DR STE 100"
        ],
        "city": "CHAMBERSBURG",
        "state": "PA",
        "postalCode": "17201-1035"
      },
      {
        "line": [
          "14201 LAUREL PARK DR",
          "STE 214"
        ],
        "city": "LAUREL",
        "state": "MD",
        "postalCode": "20707-5203"
      },
      {
        "line": [
          "5233 KING AVE",
          "STE 104"
        ],
        "city": "ROSEDALE",
        "state": "MD",
        "postalCode": "21237-4003"
      },
      {
        "line": [
          "11116 MEDICAL CAMPUS ROAD"
        ],
        "city": "HAGERSTOWN",
        "state": "MD",
        "postalCode": "21742-6799"
      },
      {
        "line": [
          "901 HARRY S TRUMAN DR N"
        ],
        "city": "UPPER MARLBORO",
        "state": "MD",
        "postalCode": "20774-5477"
      },
      {
        "line": [
          "1500 Blenheim Farm Lane"
        ],
        "city": "HAVRE DE GRACE",
        "state": "MD",
        "postalCode": "21078-2042"
      },
      {
        "line": [
          "510 UPPER CHESAPEAKE DR STE 517"
        ],
        "city": "BEL AIR",
        "state": "MD",
        "postalCode": "21014-4332"
      },
      {
        "line": [
          "2350 FREEDOM WAY",
          "STE 253"
        ],
        "city": "YORK",
        "state": "PA",
        "postalCode": "17402-8200"
      },
      {
        "line": [
          "535 Old Westminster Pike",
          "Suite 105"
        ],
        "city": "WESTMINSTER",
        "state": "MD",
        "postalCode": "21157-5780"
      },
      {
        "line": [
          "3407 WILKENS AVE",
          "SUITE 400"
        ],
        "city": "BALTIMORE",
        "state": "MD",
        "postalCode": "21229-5074"
      }
    ],
    "extension": [
      {
        "url": "https://fhir.athena.io/StructureDefinition/ah-practice",
        "valueReference": {
          "reference": "Organization/a-1.Practice-16925"
        }
      },
      {
        "url": "https://fhir.athena.io/StructureDefinition/ah-brand",
        "valueReference": {
          "reference": "Organization/a-16925.Brand-2"
        }
      }
    ]
  },
  "fullUrl": "urn:uuid:2528c9aa-54fb-5815-9c3d-848fd3b1ae36"
}