{
  "resource": {
    "resourceType": "Organization",
    "id": "45758e27-c97d-5e40-8457-3b992c8c1653",
    "name": "Ascension Sacred Heart Bay",
    "endpoint": [
      {
        "reference": "Endpoint/27a4e967-47aa-5a9c-a572-b8297ee268a2"
      },
      {
        "reference": "Endpoint/f58d8378-b4b2-5811-b06d-46a8992432f2"
      }
    ],
    "identifier": [
      {
        "system": "http://hl7.org/fhir/sid/us-npi",
        "value": "1306363007"
      },
      {
        "system": "http://hl7.org/fhir/sid/us-npi",
        "value": "1588180475"
      },
      {
        "system": "http://hl7.org/fhir/sid/us-npi",
        "value": "1962453308"
      },
      {
        "system": "http://hl7.org/fhir/sid/us-npi",
        "value": "1952177446"
      },
      {
        "system": "http://hl7.org/fhir/sid/us-npi",
        "value": "1619928165"
      },
      {
        "system": "http://hl7.org/fhir/sid/us-npi",
        "value": "1144271586"
      },
      {
        "system": "http://hl7.org/fhir/sid/us-npi",
        "value": "1326099763"
      },
      {
        "system": "http://hl7.org/fhir/sid/us-npi",
        "value": "1730790551"
      },
      {
        "system": "http://hl7.org/fhir/sid/us-npi",
        "value": "1619494366"
      },
      {
        "system": "http://hl7.org/fhir/sid/us-npi",
        "value": "1043261498"
      },
      {
        "system": "http://hl7.org/fhir/sid/us-npi",
        "value": "1902857352"
      },
      {
        "system": "http://hl7.org/fhir/sid/us-npi",
        "value": "1982963344"
      },
      {
        "system": "http://hl7.org/fhir/sid/us-npi",
        "value": "1528336302"
      },
      {
        "system": "http://hl7.org/fhir/sid/us-npi",
        "value": "1912466194"
      },
      {
        "system": "http://hl7.org/fhir/sid/us-npi",
        "value": "1912495375"
      },
      {
        "system": "http://hl7.org/fhir/sid/us-npi",
        "value": "1023506532"
      },
      {
        "system": "http://hl7.org/fhir/sid/us-npi",
        "value": "1245669514"
      },
      {
        "system": "http://hl7.org/fhir/sid/us-npi",
        "value": "1770533077"
      },
      {
        "system": "http://hl7.org/fhir/sid/us-npi",
        "value": "1215948096"
      },
      {
        "system": "http://hl7.org/fhir/sid/us-npi",
        "value": "1386932937"
      }
    ],
    "address": [
      {
        "line": [
          "1110 Gulf Breeze Pkwy"
        ],
        "city": "Gulf Breeze",
        "state": "FL",
        "postalCode": "32561-4883"
      },
      {
        "line": [
          "615 N Bonita Avenue"
        ],
        "city": "PANAMA CITY",
        "state": "FL",
        "postalCode": "32401-3623"
      },
      {
        "line": [
          "123 Baptist Way"
        ],
        "city": "Pensacola",
        "state": "FL",
        "postalCode": "32503-2254"
      },
      {
        "line": [
          "615 N Bonita Avenue"
        ],
        "city": "Panama City",
        "state": "FL",
        "postalCode": "32401-3623"
      },
      {
        "line": [
          "5151 N 9th Ave"
        ],
        "city": "Pensacola",
        "state": "FL",
        "postalCode": "32504-8271"
      },
      {
        "line": [
          "4451 Bayou Boulevard"
        ],
        "city": "PENSACOLA",
        "state": "FL",
        "postalCode": "32504-2601"
      },
      {
        "line": [
          "615 N. Bonita Ave"
        ],
        "city": "Panama City",
        "state": "FL",
        "postalCode": "32401-3623"
      },
      {
        "line": [
          "6701 Airport Blvd Ste A206"
        ],
        "city": "Mobile",
        "state": "AL",
        "postalCode": "36608-3763"
      },
      {
        "line": [
          "3871 E Hwy 98 Ste 201"
        ],
        "city": "Port Saint Joe",
        "state": "FL",
        "postalCode": "32456-5318"
      },
      {
        "line": [
          "6701 Airport Blvd"
        ],
        "city": "Mobile",
        "state": "AL",
        "postalCode": "36608-6775"
      },
      {
        "line": [
          "6701 Airport Blvd Suite A206"
        ],
        "city": "Mobile",
        "state": "AL",
        "postalCode": "36608-3763"
      },
      {
        "line": [
          "615 Bonita Ave"
        ],
        "city": "Panama City",
        "state": "FL",
        "postalCode": "32401-3623"
      },
      {
        "line": [
          "1655 McGill Ave"
        ],
        "city": "Mobile",
        "state": "AL",
        "postalCode": "36604-1299"
      },
      {
        "line": [
          "5151 N 9th Avenue"
        ],
        "city": "PENSACOLA",
        "state": "FL",
        "postalCode": "32504-8721"
      },
      {
        "line": [
          "4451 Bayou Blvd"
        ],
        "city": "Pensacola",
        "state": "FL",
        "postalCode": "32504-2601"
      },
      {
        "line": [
          "123"
        ],
        "city": "PENSACOLA",
        "state": "FL",
        "postalCode": "32501-2347"
      },
      {
        "line": [
          "3801 East Hwy 98"
        ],
        "city": "PORT SAINT JOE",
        "state": "FL",
        "postalCode": "32456-5318"
      }
    ],
    "extension": [
      {
        "url": "https://fhir.athena.io/StructureDefinition/ah-practice",
        "valueReference": {
          "reference": "Organization/a-1.Practice-9582"
        }
      },
      {
        "url": "https://fhir.athena.io/StructureDefinition/ah-brand",
        "valueReference": {
          "reference": "Organization/a-9582.Brand-3"
        }
      }
    ]
  },
  "fullUrl": "urn:uuid:45758e27-c97d-5e40-8457-3b992c8c1653"
}