{
  "resource": {
    "resourceType": "Organization",
    "id": "3759e807-e153-5328-a88c-c3225df8f68a",
    "name": "ADULT LEISURE LIVING INC",
    "endpoint": [
      {
        "reference": "Endpoint/27a4e967-47aa-5a9c-a572-b8297ee268a2"
      },
      {
        "reference": "Endpoint/6082bcba-5db3-5380-bb78-f16784122282"
      }
    ],
    "identifier": [
      {
        "system": "http://hl7.org/fhir/sid/us-npi",
        "value": "1821409343"
      },
      {
        "system": "http://hl7.org/fhir/sid/us-npi",
        "value": "1487983656"
      },
      {
        "system": "http://hl7.org/fhir/sid/us-npi",
        "value": "1386851822"
      }
    ],
    "address": [
      {
        "line": [
          "7261 Sheridan Street"
        ],
        "city": "HOLLYWOOD",
        "state": "FL",
        "postalCode": "33024-2706"
      },
      {
        "line": [
          "7800 SW 87th Avenue",
          "Suite 210-b"
        ],
        "city": "MIAMI",
        "state": "FL",
        "postalCode": "33173-3570"
      },
      {
        "line": [
          "2801 North State Road 7"
        ],
        "city": "MARGATE",
        "state": "FL",
        "postalCode": "33063-5727"
      },
      {
        "line": [
          "6810 sw 7 street"
        ],
        "city": "POMPANO BEACH",
        "state": "FL",
        "postalCode": "33068-2404"
      },
      {
        "line": [
          "3663 South Miami Avenue"
        ],
        "city": "MIAMI",
        "state": "FL",
        "postalCode": "33133-4253"
      },
      {
        "line": [
          "2801 N State Road 7"
        ],
        "city": "MARGATE",
        "state": "FL",
        "postalCode": "33063-5727"
      },
      {
        "line": [
          "9355 sw 158 avenue"
        ],
        "city": "MIAMI",
        "state": "FL",
        "postalCode": "33196-5872"
      },
      {
        "line": [
          "6849 Taft St"
        ],
        "city": "HOLLYWOOD",
        "state": "FL",
        "postalCode": "33024-5601"
      },
      {
        "line": [
          "2500 ANDORA PLACE"
        ],
        "city": "HOLLYWOOD",
        "state": "FL",
        "postalCode": "33025-2557"
      },
      {
        "line": [
          "16100 NW 2nd Ave"
        ],
        "city": "MIAMI",
        "state": "FL",
        "postalCode": "33169-6504"
      },
      {
        "line": [
          "6110 sw 70 Street"
        ],
        "city": "MIAMI",
        "state": "FL",
        "postalCode": "33143-3419"
      },
      {
        "line": [
          "3700 Washington St #403"
        ],
        "city": "HOLLYWOOD",
        "state": "FL",
        "postalCode": "33021-8249"
      },
      {
        "line": [
          "2645 Douglas Road",
          "Suite 400"
        ],
        "city": "MIAMI",
        "state": "FL",
        "postalCode": "33133-2754"
      },
      {
        "line": [
          "2500 SW 75th Ave"
        ],
        "city": "MIAMI",
        "state": "FL",
        "postalCode": "33155-2805"
      },
      {
        "line": [
          "3475 Sheridan st",
          "104"
        ],
        "city": "HOLLYWOOD",
        "state": "FL",
        "postalCode": "33021-3640"
      },
      {
        "line": [
          "1404 n.w. 22nd street"
        ],
        "city": "MIAMI",
        "state": "FL",
        "postalCode": "33142-7742"
      },
      {
        "line": [
          "5280 SW 157th Aveue"
        ],
        "city": "MIAMI",
        "state": "FL",
        "postalCode": "33185-2252"
      },
      {
        "line": [
          "434 SE 3 STREET"
        ],
        "city": "DANIA",
        "state": "FL",
        "postalCode": "33004-4014"
      },
      {
        "line": [
          "2201 Ne 170th St"
        ],
        "city": "NORTH MIAMI BEACH",
        "state": "FL",
        "postalCode": "33160-3705"
      },
      {
        "line": [
          "17475 S DIXIE HWY"
        ],
        "city": "MIAMI",
        "state": "FL",
        "postalCode": "33157-5434"
      },
      {
        "line": [
          "21097 ne 27 court"
        ],
        "city": "MIAMI",
        "state": "FL",
        "postalCode": "33180-1204"
      },
      {
        "line": [
          "5951 COLONIAL DRIVE"
        ],
        "city": "POMPANO BEACH",
        "state": "FL",
        "postalCode": "33063-5661"
      },
      {
        "line": [
          "3418 sw 23 terrace"
        ],
        "city": "MIAMI",
        "state": "FL",
        "postalCode": "33145-3023"
      },
      {
        "line": [
          "13650 NE 3rd Ct"
        ],
        "city": "MIAMI",
        "state": "FL",
        "postalCode": "33161-3626"
      },
      {
        "line": [
          "3700 Washington Street",
          "Suite 403"
        ],
        "city": "HOLLYWOOD",
        "state": "FL",
        "postalCode": "33021-8284"
      },
      {
        "line": [
          "3075 NW 35th Ave"
        ],
        "city": "FORT LAUDERDALE",
        "state": "FL",
        "postalCode": "33311-1107"
      },
      {
        "line": [
          "755 Meadows Road"
        ],
        "city": "BOCA RATON",
        "state": "FL",
        "postalCode": "33486-2301"
      },
      {
        "line": [
          "15650 West Bunche Park Drive"
        ],
        "city": "OPA LOCKA",
        "state": "FL",
        "postalCode": "33054-6965"
      },
      {
        "line": [
          "13900 NE 3rd Ct"
        ],
        "city": "MIAMI",
        "state": "FL",
        "postalCode": "33161-2898"
      },
      {
        "line": [
          "741 sw 72 avenue"
        ],
        "city": "HOLLYWOOD",
        "state": "FL",
        "postalCode": "33023-1076"
      }
    ],
    "extension": [
      {
        "url": "https://fhir.athena.io/StructureDefinition/ah-practice",
        "valueReference": {
          "reference": "Organization/a-1.Practice-6402"
        }
      },
      {
        "url": "https://fhir.athena.io/StructureDefinition/ah-brand",
        "valueReference": {
          "reference": "Organization/a-6402.Brand-1"
        }
      }
    ]
  },
  "fullUrl": "urn:uuid:3759e807-e153-5328-a88c-c3225df8f68a"
}