{
  "resource": {
    "resourceType": "Organization",
    "id": "eb7195b6-b82a-5539-a9db-70f217e92ff9",
    "name": "Southern Maine Geriatrics Associates LLC",
    "endpoint": [
      {
        "reference": "Endpoint/27a4e967-47aa-5a9c-a572-b8297ee268a2"
      },
      {
        "reference": "Endpoint/a3fb8fdf-7860-5951-bc5c-99f42e8f6c72"
      }
    ],
    "identifier": [
      {
        "system": "http://hl7.org/fhir/sid/us-npi",
        "value": "1366553091"
      }
    ],
    "address": [
      {
        "line": [
          "477 HIGH STREET"
        ],
        "city": "SOUTH PARIS",
        "state": "ME",
        "postalCode": "04281-6507"
      },
      {
        "line": [
          "26 ELM STREET",
          "GOV KING APTS"
        ],
        "city": "TOPSHAM",
        "state": "ME",
        "postalCode": "04086-1413"
      },
      {
        "line": [
          "22 NORTHBROOK DRIVE"
        ],
        "city": "FALMOUTH",
        "state": "ME",
        "postalCode": "04105-1318"
      },
      {
        "line": [
          "20 BLUEBERRY LANE"
        ],
        "city": "FALMOUTH",
        "state": "ME",
        "postalCode": "04105-1856"
      },
      {
        "line": [
          "4 OLD COUNTY ROAD"
        ],
        "city": "FREEPORT",
        "state": "ME",
        "postalCode": "04032-6231"
      },
      {
        "line": [
          "100 HARBOR DRIVE"
        ],
        "city": "SACO",
        "state": "ME",
        "postalCode": "04072-2173"
      },
      {
        "line": [
          "1142 Main Street"
        ],
        "city": "SANFORD",
        "state": "ME",
        "postalCode": "04073-3614"
      },
      {
        "line": [
          "6 OLD COUNTY ROAD"
        ],
        "city": "FREEPORT",
        "state": "ME",
        "postalCode": "04032-6231"
      },
      {
        "line": [
          "630 Ocean Ave"
        ],
        "city": "PORTLAND",
        "state": "ME",
        "postalCode": "04103-2704"
      },
      {
        "line": [
          "27 FOREST FALLS DRIVE"
        ],
        "city": "YARMOUTH",
        "state": "ME",
        "postalCode": "04096-6972"
      },
      {
        "line": [
          "50 NEW PORTLAND ROAD"
        ],
        "city": "GORHAM",
        "state": "ME",
        "postalCode": "04038-1542"
      },
      {
        "line": [
          "51 Winship St"
        ],
        "city": "BATH",
        "state": "ME",
        "postalCode": "04530-2843"
      },
      {
        "line": [
          "88 HARBOR DRIVE"
        ],
        "city": "SACO",
        "state": "ME",
        "postalCode": "04072-2148"
      },
      {
        "line": [
          "29 MAURICE DRIVE"
        ],
        "city": "BRUNSWICK",
        "state": "ME",
        "postalCode": "04011-3270"
      },
      {
        "line": [
          "26 ELM STREET"
        ],
        "city": "TOPSHAM",
        "state": "ME",
        "postalCode": "04086-1413"
      },
      {
        "line": [
          "116 Landing Road"
        ],
        "city": "WESTBROOK",
        "state": "ME",
        "postalCode": "04092-4094"
      },
      {
        "line": [
          "47 ELM STREET"
        ],
        "city": "NORTH BERWICK",
        "state": "ME",
        "postalCode": "03906-6727"
      },
      {
        "line": [
          "1 HUNTINGTON COMMOND DRIVE"
        ],
        "city": "KENNEBUNK",
        "state": "ME",
        "postalCode": "04043-6558"
      },
      {
        "line": [
          "142 Neptune Drive"
        ],
        "city": "BRUNSWICK",
        "state": "ME",
        "postalCode": "04011-2882"
      },
      {
        "line": [
          "158 Ross Road"
        ],
        "city": "KENNEBUNK",
        "state": "ME",
        "postalCode": "04043-6532"
      },
      {
        "line": [
          "102 CAMPUS AVE"
        ],
        "city": "LEWISTON",
        "state": "ME",
        "postalCode": "04240-6019"
      },
      {
        "line": [
          "370 Portland Street"
        ],
        "city": "YARMOUTH",
        "state": "ME",
        "postalCode": "04096-8101"
      },
      {
        "line": [
          "102 CAMPUS AVENUE"
        ],
        "city": "LEWISTON",
        "state": "ME",
        "postalCode": "04240-6019"
      },
      {
        "line": [
          "86 Sanford Rd"
        ],
        "city": "WELLS",
        "state": "ME",
        "postalCode": "04090-5532"
      }
    ],
    "extension": [
      {
        "url": "https://fhir.athena.io/StructureDefinition/ah-practice",
        "valueReference": {
          "reference": "Organization/a-1.Practice-6851"
        }
      },
      {
        "url": "https://fhir.athena.io/StructureDefinition/ah-brand",
        "valueReference": {
          "reference": "Organization/a-6851.Brand-1"
        }
      }
    ]
  },
  "fullUrl": "urn:uuid:eb7195b6-b82a-5539-a9db-70f217e92ff9"
}