{
  "resource": {
    "resourceType": "Organization",
    "id": "9926bd27-2418-52d4-bb3b-b45cdfc99c21",
    "name": "Physician HealthCare Network",
    "endpoint": [
      {
        "reference": "Endpoint/27a4e967-47aa-5a9c-a572-b8297ee268a2"
      },
      {
        "reference": "Endpoint/5f8ecd95-4590-5189-bf00-a83dd2d1cc8b"
      }
    ],
    "identifier": [
      {
        "system": "http://hl7.org/fhir/sid/us-npi",
        "value": "1750334405"
      }
    ],
    "address": [
      {
        "line": [
          "1600 Gratiot Blvd",
          "Suite 8"
        ],
        "city": "MARYSVILLE",
        "state": "MI",
        "postalCode": "48040-1145"
      },
      {
        "line": [
          "1231 Pine Grove",
          "Suite 2A"
        ],
        "city": "PORT HURON",
        "state": "MI",
        "postalCode": "48060-3500"
      },
      {
        "line": [
          "2770 Main St",
          "PO Box 307"
        ],
        "city": "MARLETTE",
        "state": "MI",
        "postalCode": "48453-1141"
      },
      {
        "line": [
          "120 Delaware"
        ],
        "city": "SANDUSKY",
        "state": "MI",
        "postalCode": "48471-1009"
      },
      {
        "line": [
          "1321 Stone St"
        ],
        "city": "PORT HURON",
        "state": "MI",
        "postalCode": "48060-3520"
      },
      {
        "line": [
          "1600 Gratiot Blvd",
          "Suite 10"
        ],
        "city": "MARYSVILLE",
        "state": "MI",
        "postalCode": "48040-1145"
      },
      {
        "line": [
          "105 Commerce Dr"
        ],
        "city": "YALE",
        "state": "MI",
        "postalCode": "48097-3460"
      },
      {
        "line": [
          "3050 Commerce Dr"
        ],
        "city": "FORT GRATIOT",
        "state": "MI",
        "postalCode": "48059-3819"
      },
      {
        "line": [
          "4154 S River Rd",
          "Building 1"
        ],
        "city": "EAST CHINA",
        "state": "MI",
        "postalCode": "48054-2929"
      },
      {
        "line": [
          "3559 Pine St"
        ],
        "city": "DECKERVILLE",
        "state": "MI",
        "postalCode": "48427-7703"
      },
      {
        "line": [
          "4154 S. River Rd",
          "Building 2"
        ],
        "city": "EAST CHINA",
        "state": "MI",
        "postalCode": "48054-2929"
      }
    ],
    "extension": [
      {
        "url": "https://fhir.athena.io/StructureDefinition/ah-practice",
        "valueReference": {
          "reference": "Organization/a-1.Practice-11357"
        }
      },
      {
        "url": "https://fhir.athena.io/StructureDefinition/ah-brand",
        "valueReference": {
          "reference": "Organization/a-11357.Brand-3"
        }
      }
    ]
  },
  "fullUrl": "urn:uuid:9926bd27-2418-52d4-bb3b-b45cdfc99c21"
}