{
  "resource": {
    "resourceType": "Organization",
    "id": "4eb53468-1fe8-543c-98eb-d0ae945380bd",
    "name": "Advanced Surgical Institute",
    "endpoint": [
      {
        "reference": "Endpoint/27a4e967-47aa-5a9c-a572-b8297ee268a2"
      },
      {
        "reference": "Endpoint/d5d26e5a-8c4c-5f9d-9d1b-c3dc0f32e7d1"
      }
    ],
    "identifier": [
      {
        "system": "http://hl7.org/fhir/sid/us-npi",
        "value": "1770559981"
      }
    ],
    "address": [
      {
        "line": [
          "15107 Vanowen Street"
        ],
        "city": "VAN NUYS",
        "state": "CA",
        "postalCode": "91405-4542"
      },
      {
        "line": [
          "800 S. Main st"
        ],
        "city": "CORONA",
        "state": "CA",
        "postalCode": "92882-3420"
      },
      {
        "line": [
          "31150 Temecula Pkwy Suite 103"
        ],
        "city": "TEMECULA",
        "state": "CA",
        "postalCode": "92592-2921"
      },
      {
        "line": [
          "7640 Tampa Ave",
          "STE. 102"
        ],
        "city": "RESEDA",
        "state": "CA",
        "postalCode": "91335-1700"
      },
      {
        "line": [
          "477 N El Camino Real",
          "C204"
        ],
        "city": "ENCINITAS",
        "state": "CA",
        "postalCode": "92024-1328"
      },
      {
        "line": [
          "35100 MAKENA AVE STE 102"
        ],
        "city": "MURRIETA",
        "state": "CA",
        "postalCode": "92563-8458"
      },
      {
        "line": [
          "31170 TEMECULA PKWY STE 100"
        ],
        "city": "TEMECULA",
        "state": "CA",
        "postalCode": "92592-2915"
      },
      {
        "line": [
          "400 NEWPORT CENTER DR",
          "SUITE 102"
        ],
        "city": "NEWPORT BEACH",
        "state": "CA",
        "postalCode": "92660-7695"
      },
      {
        "line": [
          "24411 HEALTH CENTER DR STE 450"
        ],
        "city": "LAGUNA HILLS",
        "state": "CA",
        "postalCode": "92653-3687"
      },
      {
        "line": [
          "477 El Camino Real",
          "Suite a210"
        ],
        "city": "ENCINITAS",
        "state": "CA",
        "postalCode": "92024-1328"
      },
      {
        "line": [
          "4150 REGENTS PARK ROW",
          "STE 230"
        ],
        "city": "LA JOLLA",
        "state": "CA",
        "postalCode": "92037-1414"
      },
      {
        "line": [
          "70017 HIGHWAY 111 STE 2"
        ],
        "city": "RANCHO MIRAGE",
        "state": "CA",
        "postalCode": "92270-2999"
      },
      {
        "line": [
          "400 NEWPORT CENTER DR STE 100"
        ],
        "city": "NEWPORT BEACH",
        "state": "CA",
        "postalCode": "92660-7695"
      },
      {
        "line": [
          "16677 YORBA LINDA BLVD"
        ],
        "city": "YORBA LINDA",
        "state": "CA",
        "postalCode": "92886-2046"
      },
      {
        "line": [
          "6958 BROCKTON AVE STE 203"
        ],
        "city": "RIVERSIDE",
        "state": "CA",
        "postalCode": "92506-3832"
      },
      {
        "line": [
          "20311 SW BIRCH ST STE 210"
        ],
        "city": "NEWPORT BEACH",
        "state": "CA",
        "postalCode": "92660-1755"
      },
      {
        "line": [
          "5020 CAMPUS DR STE 200"
        ],
        "city": "NEWPORT BEACH",
        "state": "CA",
        "postalCode": "92660-2111"
      },
      {
        "line": [
          "7051 ALVARADO RD # 100"
        ],
        "city": "LA MESA",
        "state": "CA",
        "postalCode": "91942-8901"
      },
      {
        "line": [
          "3865 JACKSON ST"
        ],
        "city": "RIVERSIDE",
        "state": "CA",
        "postalCode": "92503-3919"
      },
      {
        "line": [
          "477 N El Camino Real, Ste. C204"
        ],
        "city": "ENCINITAS",
        "state": "CA",
        "postalCode": "92024-1328"
      },
      {
        "line": [
          "44605 Avenida De Missiones, Ste. 201"
        ],
        "city": "TEMECULA",
        "state": "CA",
        "postalCode": "92592-5001"
      },
      {
        "line": [
          "477 N EL CAMINO REAL STE C204"
        ],
        "city": "ENCINITAS",
        "state": "CA",
        "postalCode": "92024-1332"
      },
      {
        "line": [
          "23621 PARK SORRENTO STE 100"
        ],
        "city": "CALABASAS",
        "state": "CA",
        "postalCode": "91302-1395"
      },
      {
        "line": [
          "35-800 BOB HOPE DRIVE"
        ],
        "city": "RANCHO MIRAGE",
        "state": "CA",
        "postalCode": "92270-1722"
      },
      {
        "line": [
          "5643 COPLEY DR STE 110"
        ],
        "city": "SAN DIEGO",
        "state": "CA",
        "postalCode": "92111-7903"
      },
      {
        "line": [
          "31700 TEMECULA PKWY"
        ],
        "city": "TEMECULA",
        "state": "CA",
        "postalCode": "92592-5896"
      },
      {
        "line": [
          "18330 Roscoe Blvd."
        ],
        "city": "NORTHRIDGE",
        "state": "CA",
        "postalCode": "91325-4105"
      },
      {
        "line": [
          "8945 MAGNOLIA AVE SUITE 200"
        ],
        "city": "RIVERSIDE",
        "state": "CA",
        "postalCode": "92503-4408"
      },
      {
        "line": [
          "10666 N Torrey Pines Rd"
        ],
        "city": "LA JOLLA",
        "state": "CA",
        "postalCode": "92037-1027"
      },
      {
        "line": [
          "6185 PASEO DEL NORTE STE 140"
        ],
        "city": "CARLSBAD",
        "state": "CA",
        "postalCode": "92011-1152"
      },
      {
        "line": [
          "6645 Alvarado Rd"
        ],
        "city": "SAN DIEGO",
        "state": "CA",
        "postalCode": "92120-5208"
      },
      {
        "line": [
          "7300 Medical Center Dr."
        ],
        "city": "WEST HILLS",
        "state": "CA",
        "postalCode": "91307-1902"
      },
      {
        "line": [
          "3833 WORSHAM AVE STE 300"
        ],
        "city": "LONG BEACH",
        "state": "CA",
        "postalCode": "90808-1766"
      },
      {
        "line": [
          "12980 FREDERICK ST STE J"
        ],
        "city": "MORENO VALLEY",
        "state": "CA",
        "postalCode": "92553-5263"
      },
      {
        "line": [
          "4445 Magnolia Ave."
        ],
        "city": "RIVERSIDE",
        "state": "CA",
        "postalCode": "92501-4135"
      },
      {
        "line": [
          "3903 Waring Rd."
        ],
        "city": "OCEANSIDE",
        "state": "CA",
        "postalCode": "92056-4405"
      },
      {
        "line": [
          "101 E VALENCIA MESA DR"
        ],
        "city": "FULLERTON",
        "state": "CA",
        "postalCode": "92835-3809"
      },
      {
        "line": [
          "3925 Waring Rd. Ste. C"
        ],
        "city": "OCEANSIDE",
        "state": "CA",
        "postalCode": "92056-4459"
      },
      {
        "line": [
          "20072 SW BIRCH ST STE 100"
        ],
        "city": "NEWPORT BEACH",
        "state": "CA",
        "postalCode": "92660-0794"
      },
      {
        "line": [
          "600 N HIGHLAND SPRINGS AVE"
        ],
        "city": "BANNING",
        "state": "CA",
        "postalCode": "92220-3046"
      },
      {
        "line": [
          "501 S BUENA VISTA ST"
        ],
        "city": "BURBANK",
        "state": "CA",
        "postalCode": "91505-4809"
      },
      {
        "line": [
          "5010 CAMPUS DR STE 120"
        ],
        "city": "NEWPORT BEACH",
        "state": "CA",
        "postalCode": "92660-2120"
      },
      {
        "line": [
          "40740 CALIFORNIA OAKS RD"
        ],
        "city": "MURRIETA",
        "state": "CA",
        "postalCode": "92562-5727"
      },
      {
        "line": [
          "1140 w la veta ave suite 550"
        ],
        "city": "ORANGE",
        "state": "CA",
        "postalCode": "92868-4214"
      },
      {
        "line": [
          "1301 N ROSE DR"
        ],
        "city": "PLACENTIA",
        "state": "CA",
        "postalCode": "92870-3802"
      },
      {
        "line": [
          "9850 Genesee Ave #100"
        ],
        "city": "LA JOLLA",
        "state": "CA",
        "postalCode": "92037-1206"
      },
      {
        "line": [
          "4150 Regents Park Row",
          "Ste. 345"
        ],
        "city": "LA JOLLA",
        "state": "CA",
        "postalCode": "92037-9102"
      },
      {
        "line": [
          "35900 Bob Hope Dr."
        ],
        "city": "RANCHO MIRAGE",
        "state": "CA",
        "postalCode": "92270-3221"
      },
      {
        "line": [
          "4077 Fifth Ave"
        ],
        "city": "SAN DIEGO",
        "state": "CA",
        "postalCode": "92103-2105"
      },
      {
        "line": [
          "341 Magnolia Ave. Suite  207"
        ],
        "city": "CORONA",
        "state": "CA",
        "postalCode": "92879-3330"
      },
      {
        "line": [
          "35100 MAKENA AVE STE 101"
        ],
        "city": "MURRIETA",
        "state": "CA",
        "postalCode": "92563-8458"
      },
      {
        "line": [
          "7901 Frost St"
        ],
        "city": "SAN DIEGO",
        "state": "CA",
        "postalCode": "92123-2701"
      },
      {
        "line": [
          "18300 Roscoe Blvd."
        ],
        "city": "NORTHRIDGE",
        "state": "CA",
        "postalCode": "91325-4105"
      },
      {
        "line": [
          "3998 Vista Way, Ste. 108"
        ],
        "city": "OCEANSIDE",
        "state": "CA",
        "postalCode": "92056-4515"
      },
      {
        "line": [
          "20072 SW Birch St., Ste. 100"
        ],
        "city": "NEWPORT BEACH",
        "state": "CA",
        "postalCode": "92660-0794"
      },
      {
        "line": [
          "351 Hospital Rd. #110"
        ],
        "city": "NEWPORT BEACH",
        "state": "CA",
        "postalCode": "92663-3503"
      },
      {
        "line": [
          "477 N. El Camino Real C204"
        ],
        "city": "ENCINITAS",
        "state": "CA",
        "postalCode": "92024-1328"
      },
      {
        "line": [
          "44605 Avenida De Missiones",
          "Ste 203"
        ],
        "city": "TEMECULA",
        "state": "CA",
        "postalCode": "92592-4859"
      },
      {
        "line": [
          "7901 Frost St."
        ],
        "city": "SAN DIEGO",
        "state": "CA",
        "postalCode": "92123-2701"
      },
      {
        "line": [
          "9888 Genesee Ave"
        ],
        "city": "LA JOLLA",
        "state": "CA",
        "postalCode": "92037-1205"
      },
      {
        "line": [
          "36485 Inland Valley Drive"
        ],
        "city": "WILDOMAR",
        "state": "CA",
        "postalCode": "92595-9680"
      },
      {
        "line": [
          "341 MAGNOLIA AVE STE 207"
        ],
        "city": "CORONA",
        "state": "CA",
        "postalCode": "92879-3332"
      },
      {
        "line": [
          "14850 Roscoe Blvd"
        ],
        "city": "PANORAMA CITY",
        "state": "CA",
        "postalCode": "91402-4618"
      },
      {
        "line": [
          "6655 Alvarado Rd"
        ],
        "city": "SAN DIEGO",
        "state": "CA",
        "postalCode": "92120-5208"
      },
      {
        "line": [
          "1211 W. 6th St."
        ],
        "city": "ONTARIO",
        "state": "CA",
        "postalCode": "91762-1103"
      },
      {
        "line": [
          "1441 AVOCADO AVE STE 100"
        ],
        "city": "NEWPORT BEACH",
        "state": "CA",
        "postalCode": "92660-7702"
      },
      {
        "line": [
          "380 W CENTRAL AVE STE 310"
        ],
        "city": "BREA",
        "state": "CA",
        "postalCode": "92821-3066"
      },
      {
        "line": [
          "477 N. El Camino Real",
          "Suite C204"
        ],
        "city": "ENCINITAS",
        "state": "CA",
        "postalCode": "92024-1328"
      },
      {
        "line": [
          "341 MAGNOLIA AVE STE 101"
        ],
        "city": "CORONA",
        "state": "CA",
        "postalCode": "92879-3331"
      },
      {
        "line": [
          "350 TERRACINA BLVD"
        ],
        "city": "REDLANDS",
        "state": "CA",
        "postalCode": "92373-4850"
      },
      {
        "line": [
          "15775 LAGUNA CANYON RD",
          "Ste. 240"
        ],
        "city": "IRVINE",
        "state": "CA",
        "postalCode": "92618-3145"
      },
      {
        "line": [
          "800 S Main St"
        ],
        "city": "CORONA",
        "state": "CA",
        "postalCode": "92882-3420"
      },
      {
        "line": [
          "3840 WOODRUFF AVE STE 206"
        ],
        "city": "LONG BEACH",
        "state": "CA",
        "postalCode": "90808-2149"
      },
      {
        "line": [
          "6655 Alvarado rd"
        ],
        "city": "SAN DIEGO",
        "state": "CA",
        "postalCode": "92120-5208"
      },
      {
        "line": [
          "9834 Genesee Avenue",
          "Suite 400"
        ],
        "city": "LA JOLLA",
        "state": "CA",
        "postalCode": "92037-1223"
      },
      {
        "line": [
          "28078 Baxter Rd",
          "Suite 530"
        ],
        "city": "MURRIETA",
        "state": "CA",
        "postalCode": "92563-1405"
      },
      {
        "line": [
          "250 Prospect place"
        ],
        "city": "CORONADO",
        "state": "CA",
        "postalCode": "92118-1943"
      },
      {
        "line": [
          "6260 EL CAMINO REAL STE 101"
        ],
        "city": "CARLSBAD",
        "state": "CA",
        "postalCode": "92009-1609"
      },
      {
        "line": [
          "39000 Bob Hope Dr",
          "Suite 203"
        ],
        "city": "RANCHO MIRAGE",
        "state": "CA",
        "postalCode": "92270-1766"
      },
      {
        "line": [
          "26732 CROWN VALLEY PKWY STE 240"
        ],
        "city": "MISSION VIEJO",
        "state": "CA",
        "postalCode": "92691-6373"
      },
      {
        "line": [
          "6125 PASEO DEL NORTE",
          "STE 130"
        ],
        "city": "CARLSBAD",
        "state": "CA",
        "postalCode": "92011-1119"
      },
      {
        "line": [
          "6958 BROCKTON AVE STE 100"
        ],
        "city": "RIVERSIDE",
        "state": "CA",
        "postalCode": "92506-3832"
      },
      {
        "line": [
          "1441 Constitution Blvd"
        ],
        "city": "SALINAS",
        "state": "CA",
        "postalCode": "93906-3100"
      },
      {
        "line": [
          "999 San Bernardino Rd."
        ],
        "city": "UPLAND",
        "state": "CA",
        "postalCode": "91786-4920"
      },
      {
        "line": [
          "2185 Citricado Parkway"
        ],
        "city": "ESCONDIDO",
        "state": "CA",
        "postalCode": "92029-4149"
      },
      {
        "line": [
          "6125 PASEO DEL NORTE",
          "STE 140"
        ],
        "city": "CARLSBAD",
        "state": "CA",
        "postalCode": "92011-1119"
      },
      {
        "line": [
          "2801 ATLANTIC AVE"
        ],
        "city": "LONG BEACH",
        "state": "CA",
        "postalCode": "90806-1737"
      },
      {
        "line": [
          "39935 Vista Del Sol # 101"
        ],
        "city": "RANCHO MIRAGE",
        "state": "CA",
        "postalCode": "92270-1766"
      },
      {
        "line": [
          "18350 ROSCOE BLVD STE 604"
        ],
        "city": "NORTHRIDGE",
        "state": "CA",
        "postalCode": "91325-4190"
      },
      {
        "line": [
          "477 N El Camino Real, Ste. C204"
        ],
        "city": "ENCINITAS",
        "state": "CA",
        "postalCode": "92024-1332"
      },
      {
        "line": [
          "4150 Regents Park Row"
        ],
        "city": "LA JOLLA",
        "state": "CA",
        "postalCode": "92037-9124"
      },
      {
        "line": [
          "1605 Avocado Ave"
        ],
        "city": "NEWPORT BEACH",
        "state": "CA",
        "postalCode": "92660-7725"
      },
      {
        "line": [
          "24411 HEALTH CENTER DR STE 430"
        ],
        "city": "LAGUNA HILLS",
        "state": "CA",
        "postalCode": "92653-3687"
      },
      {
        "line": [
          "5643 COPLEY DR STE 220"
        ],
        "city": "SAN DIEGO",
        "state": "CA",
        "postalCode": "92111-7903"
      },
      {
        "line": [
          "24451 Health Center Dr."
        ],
        "city": "LAGUNA HILLS",
        "state": "CA",
        "postalCode": "92653-3689"
      },
      {
        "line": [
          "477 N. El Camino Real",
          "Ste. C204"
        ],
        "city": "ENCINITAS",
        "state": "CA",
        "postalCode": "92024-1332"
      },
      {
        "line": [
          "18111 Brookhurst St",
          "Suite 5200"
        ],
        "city": "FOUNTAIN VALLEY",
        "state": "CA",
        "postalCode": "92708-6728"
      },
      {
        "line": [
          "341 Magnolia Ave",
          "Ste 205"
        ],
        "city": "CORONA",
        "state": "CA",
        "postalCode": "92879-3332"
      },
      {
        "line": [
          "12401 WASHINGTON BLVD"
        ],
        "city": "WHITTIER",
        "state": "CA",
        "postalCode": "90602-1006"
      },
      {
        "line": [
          "5643 COPLEY DR STE 240"
        ],
        "city": "SAN DIEGO",
        "state": "CA",
        "postalCode": "92111-7903"
      },
      {
        "line": [
          "31170 Temecula Parkway",
          "Suite 100"
        ],
        "city": "TEMECULA",
        "state": "CA",
        "postalCode": "92592-4834"
      },
      {
        "line": [
          "31150 Temecula Parkway Suite",
          "Suite 103"
        ],
        "city": "TEMECULA",
        "state": "CA",
        "postalCode": "92592-4834"
      },
      {
        "line": [
          "3434 Midway Dr., Ste. 1008"
        ],
        "city": "SAN DIEGO",
        "state": "CA",
        "postalCode": "92110-4924"
      },
      {
        "line": [
          "18682 Beach Blvd. Ste 150"
        ],
        "city": "HUNTINGTON BEACH",
        "state": "CA",
        "postalCode": "92648-1868"
      },
      {
        "line": [
          "500 S KRAEMER BLVD"
        ],
        "city": "BREA",
        "state": "CA",
        "postalCode": "92821-6728"
      },
      {
        "line": [
          "15615 Pomerado Rd"
        ],
        "city": "POWAY",
        "state": "CA",
        "postalCode": "92064-2405"
      },
      {
        "line": [
          "435 H St."
        ],
        "city": "CHULA VISTA",
        "state": "CA",
        "postalCode": "91910-4307"
      },
      {
        "line": [
          "27700 Medical Center Rd"
        ],
        "city": "MISSION VIEJO",
        "state": "CA",
        "postalCode": "92691-6426"
      },
      {
        "line": [
          "35100 Makena Ave. #103"
        ],
        "city": "MURRIETA",
        "state": "CA",
        "postalCode": "92563-1405"
      },
      {
        "line": [
          "Encino Office",
          "5400 Balboa Blvd Ste 228"
        ],
        "city": "ENCINO",
        "state": "CA",
        "postalCode": "91316-5212"
      },
      {
        "line": [
          "31150 TEMECULA PKWY., Ste 101"
        ],
        "city": "TEMECULA",
        "state": "CA",
        "postalCode": "92592-2916"
      },
      {
        "line": [
          "250 Prospect Place"
        ],
        "city": "CORONADO",
        "state": "CA",
        "postalCode": "92118-1943"
      },
      {
        "line": [
          "16200 San Canyon Ave"
        ],
        "city": "IRVINE",
        "state": "CA",
        "postalCode": "92618-3714"
      },
      {
        "line": [
          "1525 SUPERIOR AVE STE 212"
        ],
        "city": "NEWPORT BEACH",
        "state": "CA",
        "postalCode": "92663-3639"
      },
      {
        "line": [
          "18425 Burbank Blvd. #525"
        ],
        "city": "TARZANA",
        "state": "CA",
        "postalCode": "91356-2883"
      },
      {
        "line": [
          "477 N EL Camino Real C204"
        ],
        "city": "ENCINITAS",
        "state": "CA",
        "postalCode": "92024-1350"
      },
      {
        "line": [
          "8929 University Center Ln"
        ],
        "city": "SAN DIEGO",
        "state": "CA",
        "postalCode": "92122-1007"
      },
      {
        "line": [
          "3991 Macarthur Blvd",
          "suite 320"
        ],
        "city": "NEWPORT BEACH",
        "state": "CA",
        "postalCode": "92660-3009"
      },
      {
        "line": [
          "3851 Atlantic Avenue"
        ],
        "city": "LONG BEACH",
        "state": "CA",
        "postalCode": "90807-3505"
      },
      {
        "line": [
          "3833 WORSHAM AVE STE 200"
        ],
        "city": "LONG BEACH",
        "state": "CA",
        "postalCode": "90808-1766"
      },
      {
        "line": [
          "519 ENCINITAS BLVD STE 106"
        ],
        "city": "ENCINITAS",
        "state": "CA",
        "postalCode": "92024-3738"
      },
      {
        "line": [
          "25405 HANCOCK AVE STE 103"
        ],
        "city": "MURRIETA",
        "state": "CA",
        "postalCode": "92562-5978"
      },
      {
        "line": [
          "2550 Medical Center Dr."
        ],
        "city": "MURRIETA",
        "state": "CA",
        "postalCode": "92562-5965"
      },
      {
        "line": [
          "2400 E. 4th St."
        ],
        "city": "NATIONAL CITY",
        "state": "CA",
        "postalCode": "91950-2026"
      },
      {
        "line": [
          "777 N El Camino Real"
        ],
        "city": "ENCINITAS",
        "state": "CA",
        "postalCode": "92024-1349"
      },
      {
        "line": [
          "3020 CHILDRENS WAY"
        ],
        "city": "SAN DIEGO",
        "state": "CA",
        "postalCode": "92123-4223"
      },
      {
        "line": [
          "28078 BAXTER RD STE 530"
        ],
        "city": "MURRIETA",
        "state": "CA",
        "postalCode": "92563-1405"
      },
      {
        "line": [
          "5353 BALBOA BLVD"
        ],
        "city": "ENCINO",
        "state": "CA",
        "postalCode": "91316-2804"
      },
      {
        "line": [
          "31150 Temecula Pkwy",
          "Ste. 101"
        ],
        "city": "TEMECULA",
        "state": "CA",
        "postalCode": "92592-2921"
      },
      {
        "line": [
          "26732 Crown Valley Pkwy., Ste. 241"
        ],
        "city": "MISSION VIEJO",
        "state": "CA",
        "postalCode": "92691-6306"
      },
      {
        "line": [
          "317 N EL CAMINO REAL STE 506"
        ],
        "city": "ENCINITAS",
        "state": "CA",
        "postalCode": "92024-2816"
      },
      {
        "line": [
          "4002 Vista Way"
        ],
        "city": "OCEANSIDE",
        "state": "CA",
        "postalCode": "92056-4506"
      },
      {
        "line": [
          "9988 Genesee Ave."
        ],
        "city": "LA JOLLA",
        "state": "CA",
        "postalCode": "92037-1205"
      },
      {
        "line": [
          "4002 vista way"
        ],
        "city": "OCEANSIDE",
        "state": "CA",
        "postalCode": "92056-4506"
      },
      {
        "line": [
          "16501 Ventura Boulevard Suite 103"
        ],
        "city": "ENCINO",
        "state": "CA",
        "postalCode": "91436-2007"
      },
      {
        "line": [
          "44605 Avenida De Missiones",
          "Ste. 205"
        ],
        "city": "TEMECULA",
        "state": "CA",
        "postalCode": "92592-5000"
      },
      {
        "line": [
          "1281 W C ST"
        ],
        "city": "COLTON",
        "state": "CA",
        "postalCode": "92324-1916"
      },
      {
        "line": [
          "3750 CONVOY ST STE 201"
        ],
        "city": "SAN DIEGO",
        "state": "CA",
        "postalCode": "92111-3770"
      },
      {
        "line": [
          "25500 Medical Center Drive"
        ],
        "city": "MURRIETA",
        "state": "CA",
        "postalCode": "92562-5965"
      },
      {
        "line": [
          "301 BAYVIEW CIR. #105"
        ],
        "city": "NEWPORT BEACH",
        "state": "CA",
        "postalCode": "92660-2948"
      },
      {
        "line": [
          "18321 Clark St"
        ],
        "city": "TARZANA",
        "state": "CA",
        "postalCode": "91356-4215"
      },
      {
        "line": [
          "36485 inland valley dr"
        ],
        "city": "WILDOMAR",
        "state": "CA",
        "postalCode": "92595-9681"
      },
      {
        "line": [
          "39000 Bob Hope Dr."
        ],
        "city": "RANCHO MIRAGE",
        "state": "CA",
        "postalCode": "92270-3221"
      },
      {
        "line": [
          "477 N. El Camino Real",
          "Ste. C-100"
        ],
        "city": "ENCINITAS",
        "state": "CA",
        "postalCode": "92024-1332"
      },
      {
        "line": [
          "488 E VALLEY PKWY STE 100"
        ],
        "city": "ESCONDIDO",
        "state": "CA",
        "postalCode": "92025-3300"
      },
      {
        "line": [
          "4244 Riverwalk Pkwy, Ste. 290"
        ],
        "city": "RIVERSIDE",
        "state": "CA",
        "postalCode": "92505-8509"
      }
    ],
    "extension": [
      {
        "url": "https://fhir.athena.io/StructureDefinition/ah-practice",
        "valueReference": {
          "reference": "Organization/a-1.Practice-9170"
        }
      },
      {
        "url": "https://fhir.athena.io/StructureDefinition/ah-brand",
        "valueReference": {
          "reference": "Organization/a-9170.Brand-1"
        }
      }
    ]
  },
  "fullUrl": "urn:uuid:4eb53468-1fe8-543c-98eb-d0ae945380bd"
}