{
  "resource": {
    "resourceType": "Organization",
    "id": "ba1c3f86-0a37-5d26-90c6-be67124cf639",
    "name": "ARDEN COURTS KING OF PRUSSIA",
    "endpoint": [
      {
        "reference": "Endpoint/27a4e967-47aa-5a9c-a572-b8297ee268a2"
      },
      {
        "reference": "Endpoint/a68fe27e-b836-5138-935d-9573453f3737"
      }
    ],
    "identifier": [
      {
        "system": "http://hl7.org/fhir/sid/us-npi",
        "value": "1134175193"
      }
    ],
    "address": [
      {
        "line": [
          "6300 GREENE STREET"
        ],
        "city": "PHILADELPHIA",
        "state": "PA",
        "postalCode": "19144-2510"
      },
      {
        "line": [
          "417 W FREDERICK ST"
        ],
        "city": "LANCASTER",
        "state": "PA",
        "postalCode": "17604-2804"
      },
      {
        "line": [
          "2200 SPRINGWOOD RD"
        ],
        "city": "YORK",
        "state": "PA",
        "postalCode": "17403-4848"
      },
      {
        "line": [
          "581 FREEMASON DR"
        ],
        "city": "ELIZABETHTOWN",
        "state": "PA",
        "postalCode": "17022-3187"
      },
      {
        "line": [
          "502 ELIZABETH DR"
        ],
        "city": "LANCASTER",
        "state": "PA",
        "postalCode": "17601-4406"
      },
      {
        "line": [
          "300 ST MARK AVENUE"
        ],
        "city": "LITITZ",
        "state": "PA",
        "postalCode": "17543-2208"
      },
      {
        "line": [
          "722 FURNACE HILLS PK"
        ],
        "city": "LITITZ",
        "state": "PA",
        "postalCode": "17543-9502"
      },
      {
        "line": [
          "237 N. Aberdeen Ave"
        ],
        "city": "WAYNE",
        "state": "PA",
        "postalCode": "19087-3537"
      },
      {
        "line": [
          "4400 HAINES ST"
        ],
        "city": "READING",
        "state": "PA",
        "postalCode": "19608-9079"
      },
      {
        "line": [
          "4401 MEGARGEE ST"
        ],
        "city": "PHILADELPHIA",
        "state": "PA",
        "postalCode": "19136-2160"
      },
      {
        "line": [
          "1240 MCKEE RD"
        ],
        "city": "DOVER",
        "state": "DE",
        "postalCode": "19904-1381"
      },
      {
        "line": [
          "820 MIDDLETOWN ODESSA RD"
        ],
        "city": "MIDDLETOWN",
        "state": "DE",
        "postalCode": "19709-9049"
      },
      {
        "line": [
          "1520 HARRISBURG PIKE"
        ],
        "city": "LANCASTER",
        "state": "PA",
        "postalCode": "17601-2632"
      },
      {
        "line": [
          "2849 BIG RD"
        ],
        "city": "FREDERICK",
        "state": "PA",
        "postalCode": "19435-0498"
      },
      {
        "line": [
          "1072 JUSTISON ST"
        ],
        "city": "WILMINGTON",
        "state": "DE",
        "postalCode": "19801-5162"
      },
      {
        "line": [
          "11 ROBINSON ST"
        ],
        "city": "POTTSTOWN",
        "state": "PA",
        "postalCode": "19464-6439"
      },
      {
        "line": [
          "125 HOLLY RD"
        ],
        "city": "HAMBURG",
        "state": "PA",
        "postalCode": "19526-8729"
      },
      {
        "line": [
          "3232 HENRY AVE"
        ],
        "city": "PHILADELPHIA",
        "state": "PA",
        "postalCode": "19129-1238"
      },
      {
        "line": [
          "451 SAND HILL RD"
        ],
        "city": "HERSHEY",
        "state": "PA",
        "postalCode": "17033-3411"
      },
      {
        "line": [
          "3001 LITITZ PIKE"
        ],
        "city": "LITITZ",
        "state": "PA",
        "postalCode": "17543-9414"
      },
      {
        "line": [
          "1225 WALKER RD"
        ],
        "city": "DOVER",
        "state": "DE",
        "postalCode": "19904-6541"
      },
      {
        "line": [
          "2829 LITITZ PIKE"
        ],
        "city": "LANCASTER",
        "state": "PA",
        "postalCode": "17601-3321"
      },
      {
        "line": [
          "184 BETHLEHEM PIKE"
        ],
        "city": "PHILADELPHIA",
        "state": "PA",
        "postalCode": "19118-2815"
      },
      {
        "line": [
          "2499 ZERBE RD"
        ],
        "city": "NARVON",
        "state": "PA",
        "postalCode": "17555-9328"
      },
      {
        "line": [
          "1175 MCKEE RD"
        ],
        "city": "DOVER",
        "state": "DE",
        "postalCode": "19904-2268"
      },
      {
        "line": [
          "301 E CONESTOGA RD",
          "301 E CONESTOGA RD"
        ],
        "city": "WAYNE",
        "state": "PA",
        "postalCode": "19087-2555"
      },
      {
        "line": [
          "710 FOX CHASE RD"
        ],
        "city": "JENKINTOWN",
        "state": "PA",
        "postalCode": "19046-4118"
      },
      {
        "line": [
          "21 W CLARKE AVE STE 1010"
        ],
        "city": "MILFORD",
        "state": "DE",
        "postalCode": "19963-1849"
      },
      {
        "line": [
          "3034 S DUPONT BLVD"
        ],
        "city": "SMYRNA",
        "state": "DE",
        "postalCode": "19977-1898"
      },
      {
        "line": [
          "1500 MEMORY LANE EXT"
        ],
        "city": "YORK",
        "state": "PA",
        "postalCode": "17402-9602"
      },
      {
        "line": [
          "31 MILLERSVILLE RD"
        ],
        "city": "LANCASTER",
        "state": "PA",
        "postalCode": "17603-4219"
      },
      {
        "line": [
          "32 BUENA VISTA DR"
        ],
        "city": "NEW CASTLE",
        "state": "DE",
        "postalCode": "19720-4660"
      },
      {
        "line": [
          "3030 COLUMBIA AVE"
        ],
        "city": "LANCASTER",
        "state": "PA",
        "postalCode": "17603-4011"
      },
      {
        "line": [
          "517 MONTGOMERY AVE"
        ],
        "city": "MERION STATION",
        "state": "PA",
        "postalCode": "19066-1214"
      },
      {
        "line": [
          "2500 NORTHGATE DR"
        ],
        "city": "FEASTERVILLE TREVOSE",
        "state": "PA",
        "postalCode": "19053-6950"
      },
      {
        "line": [
          "118 PLEASANT ACRES RD"
        ],
        "city": "YORK",
        "state": "PA",
        "postalCode": "17402-8975"
      },
      {
        "line": [
          "240 BARKER RD"
        ],
        "city": "WYNCOTE",
        "state": "PA",
        "postalCode": "19095-1716"
      },
      {
        "line": [
          "3609 CHESTNUT ST"
        ],
        "city": "PHILADELPHIA",
        "state": "PA",
        "postalCode": "19104-2612"
      },
      {
        "line": [
          "26002 JOHN J WILLIAMS HWY"
        ],
        "city": "MILLSBORO",
        "state": "DE",
        "postalCode": "19966-4948"
      },
      {
        "line": [
          "1695 LENAPE RD"
        ],
        "city": "WEST CHESTER",
        "state": "PA",
        "postalCode": "19382-6800"
      },
      {
        "line": [
          "555 FOX CHASE"
        ],
        "city": "COATESVILLE",
        "state": "PA",
        "postalCode": "19320-1885"
      },
      {
        "line": [
          "1320 MILL RD"
        ],
        "city": "QUAKERTOWN",
        "state": "PA",
        "postalCode": "18951-1137"
      },
      {
        "line": [
          "544 N PENRYN RD"
        ],
        "city": "MANHEIM",
        "state": "PA",
        "postalCode": "17545-8562"
      },
      {
        "line": [
          "1001 E OREGON RD"
        ],
        "city": "LITITZ",
        "state": "PA",
        "postalCode": "17543-9205"
      },
      {
        "line": [
          "2618 E MARKET ST"
        ],
        "city": "YORK",
        "state": "PA",
        "postalCode": "17402-2411"
      },
      {
        "line": [
          "5364 JACKSON ST"
        ],
        "city": "PHILADELPHIA",
        "state": "PA",
        "postalCode": "19124-1912"
      },
      {
        "line": [
          "722 FURNACE HILLS PIKE"
        ],
        "city": "LITITZ",
        "state": "PA",
        "postalCode": "17543-7954"
      },
      {
        "line": [
          "149 S HUNTER HYWY"
        ],
        "city": "DRUMS",
        "state": "PA",
        "postalCode": "18222-2422"
      },
      {
        "line": [
          "420 PULASKI DR"
        ],
        "city": "POTTSVILLE",
        "state": "PA",
        "postalCode": "17901-3634"
      },
      {
        "line": [
          "945 DUKE ST"
        ],
        "city": "LEBANON",
        "state": "PA",
        "postalCode": "17042-7216"
      },
      {
        "line": [
          "620 W VALLEY FORGE RD"
        ],
        "city": "KING OF PRUSSIA",
        "state": "PA",
        "postalCode": "19406-1571"
      },
      {
        "line": [
          "2600 WAYLAND RD"
        ],
        "city": "BERWYN",
        "state": "PA",
        "postalCode": "19312-2307"
      },
      {
        "line": [
          "1392 FARMINGTON AVE"
        ],
        "city": "POTTSTOWN",
        "state": "PA",
        "postalCode": "19464-1836"
      },
      {
        "line": [
          "6400 GREENE STREET"
        ],
        "city": "PHILADELPHIA",
        "state": "PA",
        "postalCode": "19144-2510"
      },
      {
        "line": [
          "1170 W MAIN STREET"
        ],
        "city": "STROUDSBURG",
        "state": "PA",
        "postalCode": "18360-1301"
      },
      {
        "line": [
          "3000 WINDMILL RD"
        ],
        "city": "READING",
        "state": "PA",
        "postalCode": "19608-1614"
      },
      {
        "line": [
          "2723 SHIPLEY RD"
        ],
        "city": "WILMINGTON",
        "state": "DE",
        "postalCode": "19810-3251"
      },
      {
        "line": [
          "4100 FREEMANSBURG AVE"
        ],
        "city": "EASTON",
        "state": "PA",
        "postalCode": "18045-5540"
      },
      {
        "line": [
          "595 BIGLERVILLE RD"
        ],
        "city": "GETTYSBURG",
        "state": "PA",
        "postalCode": "17325-8002"
      },
      {
        "line": [
          "1775 POWDERMILL RD"
        ],
        "city": "YORK",
        "state": "PA",
        "postalCode": "17403-4955"
      },
      {
        "line": [
          "1 MASONIC DR"
        ],
        "city": "ELIZABETHTOWN",
        "state": "PA",
        "postalCode": "17022-3187"
      },
      {
        "line": [
          "9501 STATE ROAD"
        ],
        "city": "PHILADELPHIA",
        "state": "PA",
        "postalCode": "19114-3053"
      },
      {
        "line": [
          "5300 CHESTER AVENUE"
        ],
        "city": "PHILADELPHIA",
        "state": "PA",
        "postalCode": "19143-4993"
      },
      {
        "line": [
          "32 S. BETHLEHEM PIKE"
        ],
        "city": "AMBLER",
        "state": "PA",
        "postalCode": "19002-5801"
      },
      {
        "line": [
          "4400 HAINES ST"
        ],
        "city": "SINKING SPRING",
        "state": "PA",
        "postalCode": "19608-9079"
      },
      {
        "line": [
          "1857 CONSTITUTION AVE"
        ],
        "city": "WOODLYN",
        "state": "PA",
        "postalCode": "19094-1411"
      },
      {
        "line": [
          "970 COLONIAL AVE"
        ],
        "city": "YORK",
        "state": "PA",
        "postalCode": "17403-3430"
      },
      {
        "line": [
          "220 S 4TH AVE"
        ],
        "city": "READING",
        "state": "PA",
        "postalCode": "19611-1350"
      },
      {
        "line": [
          "600 E MAIN ST"
        ],
        "city": "LITITZ",
        "state": "PA",
        "postalCode": "17543-2224"
      },
      {
        "line": [
          "8301 ROOSEVELT BLVD"
        ],
        "city": "PHILADELPHIA",
        "state": "PA",
        "postalCode": "19152-2006"
      },
      {
        "line": [
          "300 E GERMANTOWN PIKE"
        ],
        "city": "E NORRITON",
        "state": "PA",
        "postalCode": "19401-6520"
      },
      {
        "line": [
          "283 LANCASTER AVE"
        ],
        "city": "MALVERN",
        "state": "PA",
        "postalCode": "19355-3089"
      },
      {
        "line": [
          "5300 CHESTER AVENUE",
          "5300 CHESTER AVENUE"
        ],
        "city": "PHILADELPHIA",
        "state": "PA",
        "postalCode": "19143-4993"
      },
      {
        "line": [
          "2200 1ST AVE"
        ],
        "city": "POTTSVILLE",
        "state": "PA",
        "postalCode": "17901-2065"
      },
      {
        "line": [
          "300 W LEMON ST"
        ],
        "city": "LITITZ",
        "state": "PA",
        "postalCode": "17543-2311"
      },
      {
        "line": [
          "21 W CLARK AVE"
        ],
        "city": "MILFORD",
        "state": "DE",
        "postalCode": "19963-1840"
      },
      {
        "line": [
          "1020 OAK LANE AVE"
        ],
        "city": "PHILADELPHIA",
        "state": "PA",
        "postalCode": "19126-3340"
      },
      {
        "line": [
          "425 BUTTONWOOD ST"
        ],
        "city": "READING",
        "state": "PA",
        "postalCode": "19611-1101"
      },
      {
        "line": [
          "150 KEMPTON AVE"
        ],
        "city": "HARRISBURG",
        "state": "PA",
        "postalCode": "17111-3543"
      },
      {
        "line": [
          "24 HIKES HOLLOW RD"
        ],
        "city": "PINE GROVE",
        "state": "PA",
        "postalCode": "17963-9200"
      },
      {
        "line": [
          "1212 FOULK RD"
        ],
        "city": "WILMINGTON",
        "state": "DE",
        "postalCode": "19803-2746"
      },
      {
        "line": [
          "2500 NORTHGATE RD"
        ],
        "city": "FEASTERVILLE TREVOSE",
        "state": "PA",
        "postalCode": "19053-6950"
      },
      {
        "line": [
          "3540 THREE LITTLE BAKERS BLVD"
        ],
        "city": "WILMINGTON",
        "state": "DE",
        "postalCode": "19808-1754"
      },
      {
        "line": [
          "2015 N READING RD"
        ],
        "city": "DENVER",
        "state": "PA",
        "postalCode": "17517-9168"
      },
      {
        "line": [
          "530 MACOBY STREET"
        ],
        "city": "PENNSBURG",
        "state": "PA",
        "postalCode": "18073-1112"
      },
      {
        "line": [
          "61 E MOUNT KIRK AVE"
        ],
        "city": "EAGLEVILLE",
        "state": "PA",
        "postalCode": "19403-1138"
      },
      {
        "line": [
          "773 E HAVERFORD RD"
        ],
        "city": "BRYN MAWR",
        "state": "PA",
        "postalCode": "19010-3837"
      },
      {
        "line": [
          "500 E MAIN STREET"
        ],
        "city": "ANNVILLE",
        "state": "PA",
        "postalCode": "17003-1511"
      },
      {
        "line": [
          "815 CHESTER PIKE"
        ],
        "city": "PROSPECT PARK",
        "state": "PA",
        "postalCode": "19076-2322"
      },
      {
        "line": [
          "144 BELMONT AVE"
        ],
        "city": "AMBLER",
        "state": "PA",
        "postalCode": "19002-5907"
      },
      {
        "line": [
          "600 EAST MAIN STREET"
        ],
        "city": "LITITZ",
        "state": "PA",
        "postalCode": "17543-2224"
      },
      {
        "line": [
          "945 DUKE STREET"
        ],
        "city": "LEBANON",
        "state": "PA",
        "postalCode": "17042-7216"
      },
      {
        "line": [
          "544 N PENRYN RD"
        ],
        "city": "MANHEIM",
        "state": "PA",
        "postalCode": "17454-8562"
      },
      {
        "line": [
          "301 E. CONESTOGA ROAD"
        ],
        "city": "WAYNE",
        "state": "PA",
        "postalCode": "19087-2555"
      },
      {
        "line": [
          "315 E LONDON GROVE RD"
        ],
        "city": "WEST GROVE",
        "state": "PA",
        "postalCode": "19390-9239"
      },
      {
        "line": [
          "6950 GERMANTOWN AVE"
        ],
        "city": "PHILADELPHIA",
        "state": "PA",
        "postalCode": "19119-2114"
      },
      {
        "line": [
          "146 MARPLE ROAD"
        ],
        "city": "BROOMALL",
        "state": "PA",
        "postalCode": "19008-2040"
      },
      {
        "line": [
          "464 ST BERNADINE ST"
        ],
        "city": "READING",
        "state": "PA",
        "postalCode": "19607-1737"
      },
      {
        "line": [
          "200 LUTHER LN"
        ],
        "city": "COLUMBIA",
        "state": "PA",
        "postalCode": "17512-2401"
      },
      {
        "line": [
          "5300 CHE19143-4929 STER AVE"
        ],
        "city": "PHILADELPHIA",
        "state": "PA",
        "postalCode": "19143-4929"
      },
      {
        "line": [
          "101 E STATE ST"
        ],
        "city": "KENNETT SQUARE",
        "state": "PA",
        "postalCode": "19348-3109"
      },
      {
        "line": [
          "260 CHAMBERS BRIDGE RD"
        ],
        "city": "BRICK",
        "state": "NJ",
        "postalCode": "08723-2809"
      },
      {
        "line": [
          "300 BANNING STREET"
        ],
        "city": "DOVER",
        "state": "DE",
        "postalCode": "19904-2486"
      },
      {
        "line": [
          "38 COTTAGE AVE"
        ],
        "city": "LANCASTER",
        "state": "PA",
        "postalCode": "17602-3212"
      },
      {
        "line": [
          "530 MACOBY ST"
        ],
        "city": "PENNSBURG",
        "state": "PA",
        "postalCode": "18073-1112"
      },
      {
        "line": [
          "2830 CAROL RD"
        ],
        "city": "YORK",
        "state": "PA",
        "postalCode": "17402-3852"
      },
      {
        "line": [
          "1412 LANSDOWNE AVENUE"
        ],
        "city": "DARBY",
        "state": "PA",
        "postalCode": "19023-1299"
      },
      {
        "line": [
          "4401 HAVERFORD AVENUE"
        ],
        "city": "PHILADELPHIA",
        "state": "PA",
        "postalCode": "19104-1332"
      },
      {
        "line": [
          "2630 WOODLAND RD"
        ],
        "city": "ABINGTON",
        "state": "PA",
        "postalCode": "19001-3013"
      },
      {
        "line": [
          "20 SHELBORNE RD"
        ],
        "city": "READING",
        "state": "PA",
        "postalCode": "19606-3633"
      },
      {
        "line": [
          "1430 DEKALB STREET",
          "SUITE 2050"
        ],
        "city": "NORRISTOWN",
        "state": "PA",
        "postalCode": "19401-3426"
      },
      {
        "line": [
          "300 E GERMANTOWN PIKE"
        ],
        "city": "NORRISTOWN",
        "state": "PA",
        "postalCode": "19401-6520"
      },
      {
        "line": [
          "650 EDISON AVE"
        ],
        "city": "PHILADELPHIA",
        "state": "PA",
        "postalCode": "19116-1237"
      },
      {
        "line": [
          "500 E PHILADELPHIA AVE"
        ],
        "city": "SHILLINGTON",
        "state": "PA",
        "postalCode": "19607-2764"
      },
      {
        "line": [
          "550 E MAIN ST"
        ],
        "city": "ANNVILLE",
        "state": "PA",
        "postalCode": "17003-1511"
      },
      {
        "line": [
          "21 FAIRLAINE RD"
        ],
        "city": "READING",
        "state": "PA",
        "postalCode": "19606-9567"
      },
      {
        "line": [
          "2125 ELIZABETH AVE"
        ],
        "city": "LAURELDALE",
        "state": "PA",
        "postalCode": "19605-2259"
      },
      {
        "line": [
          "1 BOYD STREET"
        ],
        "city": "CORNWALL",
        "state": "PA",
        "postalCode": "17016-0125"
      },
      {
        "line": [
          "101 E WASHINGTON ST"
        ],
        "city": "SHENANDOAH",
        "state": "PA",
        "postalCode": "17976-1701"
      }
    ],
    "extension": [
      {
        "url": "https://fhir.athena.io/StructureDefinition/ah-practice",
        "valueReference": {
          "reference": "Organization/a-1.Practice-12226"
        }
      },
      {
        "url": "https://fhir.athena.io/StructureDefinition/ah-brand",
        "valueReference": {
          "reference": "Organization/a-12226.Brand-1"
        }
      }
    ]
  },
  "fullUrl": "urn:uuid:ba1c3f86-0a37-5d26-90c6-be67124cf639"
}