{
  "resource": {
    "resourceType": "Organization",
    "id": "f4154aec-c5bc-5713-8106-36e4a699bdf2",
    "name": "Behavioral Health",
    "endpoint": [
      {
        "reference": "Endpoint/27a4e967-47aa-5a9c-a572-b8297ee268a2"
      },
      {
        "reference": "Endpoint/ab3c94d9-cbd1-5382-b577-4e4ea626089b"
      }
    ],
    "identifier": [
      {
        "system": "http://hl7.org/fhir/sid/us-npi",
        "value": "1255376000"
      }
    ],
    "address": [
      {
        "line": [
          "900 Beckett Way"
        ],
        "city": "TARPON SPRINGS",
        "state": "FL",
        "postalCode": "34689-5709"
      },
      {
        "line": [
          "401 Fairwood Ave"
        ],
        "city": "CLEARWATER",
        "state": "FL",
        "postalCode": "33759-3134"
      },
      {
        "line": [
          "1010 US 27 N"
        ],
        "city": "AVON PARK",
        "state": "FL",
        "postalCode": "33825-2556"
      },
      {
        "line": [
          "2000 East Commercial Bl2000 East Commercial Blvdvd"
        ],
        "city": "FORT LAUDERDALE",
        "state": "FL",
        "postalCode": "33308-3744"
      },
      {
        "line": [
          "8235 University Parkway"
        ],
        "city": "Palmetto",
        "state": "FL",
        "postalCode": "32514-4949"
      },
      {
        "line": [
          "150 Mariner Health Way"
        ],
        "city": "SAINT AUGUSTINE",
        "state": "FL",
        "postalCode": "32086-3215"
      },
      {
        "line": [
          "650 Reed Canal Rd"
        ],
        "city": "DAYTONA BEACH",
        "state": "FL",
        "postalCode": "32119-3230"
      },
      {
        "line": [
          "800 E County Road 540A"
        ],
        "city": "LAKELAND",
        "state": "FL",
        "postalCode": "33813-4650"
      },
      {
        "line": [
          "93 Balmoral Dr"
        ],
        "city": "LAKE PLACID",
        "state": "FL",
        "postalCode": "33852-7000"
      },
      {
        "line": [
          "3250 Winkler Avenue Extension"
        ],
        "city": "FORT MYERS",
        "state": "FL",
        "postalCode": "33916-9414"
      },
      {
        "line": [
          "910 New York Ave"
        ],
        "city": "DUNEDIN",
        "state": "FL",
        "postalCode": "34698-6600"
      },
      {
        "line": [
          "16650 W Dixie Hwy"
        ],
        "city": "NORTH MIAMI BEACH",
        "state": "FL",
        "postalCode": "33160-3713"
      },
      {
        "line": [
          "9848 SW 110th St"
        ],
        "city": "TRENTON",
        "state": "FL",
        "postalCode": "32693-5881"
      },
      {
        "line": [
          "1920 Mason Ave"
        ],
        "city": "DAYTONA BEACH",
        "state": "FL",
        "postalCode": "32117-5103"
      },
      {
        "line": [
          "130 W Armstrong Ave"
        ],
        "city": "DELAND",
        "state": "FL",
        "postalCode": "32720-5861"
      },
      {
        "line": [
          "7333 Scotland Way"
        ],
        "city": "SARASOTA",
        "state": "FL",
        "postalCode": "34238-8530"
      },
      {
        "line": [
          "300 Dr Carter Blvd"
        ],
        "city": "BUNNELL",
        "state": "FL",
        "postalCode": "32110-6211"
      },
      {
        "line": [
          "501 S Walton Ave"
        ],
        "city": "TARPON SPRINGS",
        "state": "FL",
        "postalCode": "34689-4729"
      },
      {
        "line": [
          "4125 West Sample Rd"
        ],
        "city": "POMPANO BEACH",
        "state": "FL",
        "postalCode": "33073-4456"
      },
      {
        "line": [
          "1701 NE 26th St"
        ],
        "city": "FORT LAUDERDALE",
        "state": "FL",
        "postalCode": "33305-1412"
      },
      {
        "line": [
          "1330 S Andrews Ave"
        ],
        "city": "FORT LAUDERDALE",
        "state": "FL",
        "postalCode": "33316-1838"
      },
      {
        "line": [
          "587 SE Ermine Ave"
        ],
        "city": "LAKE CITY",
        "state": "FL",
        "postalCode": "32025-6126"
      },
      {
        "line": [
          "750 Hayes Road"
        ],
        "city": "LUTZ",
        "state": "FL",
        "postalCode": "33549-6132"
      },
      {
        "line": [
          "17781 Thelma Ave"
        ],
        "city": "JUPITER",
        "state": "FL",
        "postalCode": "33458-7942"
      },
      {
        "line": [
          "3250 SW 41st Pl"
        ],
        "city": "GAINESVILLE",
        "state": "FL",
        "postalCode": "32608-2621"
      },
      {
        "line": [
          "1894 S Patrick Dr"
        ],
        "city": "SATELLITE BEACH",
        "state": "FL",
        "postalCode": "32937-2792"
      },
      {
        "line": [
          "7751 W Broward Blvd"
        ],
        "city": "FORT LAUDERDALE",
        "state": "FL",
        "postalCode": "33324-2003"
      },
      {
        "line": [
          "6400 Trouble Creek Rd"
        ],
        "city": "NEW PORT RICHEY",
        "state": "FL",
        "postalCode": "34653-5248"
      },
      {
        "line": [
          "8104 Tuttle Ave"
        ],
        "city": "SARASOTA",
        "state": "FL",
        "postalCode": "34243-2885"
      },
      {
        "line": [
          "5111 Palmer Ranch Pkwy"
        ],
        "city": "SARASOTA",
        "state": "FL",
        "postalCode": "34238-4477"
      },
      {
        "line": [
          "5640 Rand Blvd"
        ],
        "city": "SARASOTA",
        "state": "FL",
        "postalCode": "34238-5174"
      },
      {
        "line": [
          "300 Executive Center Dr"
        ],
        "city": "SEBRING",
        "state": "FL",
        "postalCode": "33870-3654"
      },
      {
        "line": [
          "18905 NE 25th Ave"
        ],
        "city": "MIAMI",
        "state": "FL",
        "postalCode": "33180-3208"
      },
      {
        "line": [
          "7280 SW State Rd"
        ],
        "city": "TRENTON",
        "state": "FL",
        "postalCode": "32693-5881"
      },
      {
        "line": [
          "6363 Verde Trail"
        ],
        "city": "BOCA RATON",
        "state": "FL",
        "postalCode": "33433-7702"
      },
      {
        "line": [
          "1213 W Stratford Rd"
        ],
        "city": "AVON PARK",
        "state": "FL",
        "postalCode": "33825-8091"
      },
      {
        "line": [
          "606 NE 7th St"
        ],
        "city": "TRENTON",
        "state": "FL",
        "postalCode": "32693-3636"
      },
      {
        "line": [
          "808 S Colley Rd"
        ],
        "city": "STARKE",
        "state": "FL",
        "postalCode": "32091-4215"
      },
      {
        "line": [
          "7300 Del Prado Circle South"
        ],
        "city": "BOCA RATON",
        "state": "FL",
        "postalCode": "33433-3386"
      },
      {
        "line": [
          "1704 Huntingdon Village Cir"
        ],
        "city": "DAYTONA BEACH",
        "state": "FL",
        "postalCode": "32114-1484"
      },
      {
        "line": [
          "4200 Washington St"
        ],
        "city": "HOLLYWOOD",
        "state": "FL",
        "postalCode": "33021-7353"
      },
      {
        "line": [
          "3011 Kenilworth Blvd"
        ],
        "city": "SEBRING",
        "state": "FL",
        "postalCode": "33870-4310"
      },
      {
        "line": [
          "5888 Blanding Blvd"
        ],
        "city": "JACKSONVILLE",
        "state": "FL",
        "postalCode": "32244-1927"
      },
      {
        "line": [
          "6810 SW 7th St"
        ],
        "city": "POMPANO BEACH",
        "state": "FL",
        "postalCode": "33068-2404"
      },
      {
        "line": [
          "1100 South Courtenay Pkwy"
        ],
        "city": "MERRITT ISLAND",
        "state": "FL",
        "postalCode": "32952-3804"
      },
      {
        "line": [
          "375 NW 51st St"
        ],
        "city": "BOCA RATON",
        "state": "FL",
        "postalCode": "33431-4773"
      },
      {
        "line": [
          "1210 North Stone St"
        ],
        "city": "DELAND",
        "state": "FL",
        "postalCode": "32720-0915"
      },
      {
        "line": [
          "602 E Laura St"
        ],
        "city": "STARKE",
        "state": "FL",
        "postalCode": "32091-4026"
      }
    ],
    "extension": [
      {
        "url": "https://fhir.athena.io/StructureDefinition/ah-practice",
        "valueReference": {
          "reference": "Organization/a-1.Practice-11352"
        }
      },
      {
        "url": "https://fhir.athena.io/StructureDefinition/ah-brand",
        "valueReference": {
          "reference": "Organization/a-11352.Brand-2"
        }
      }
    ]
  },
  "fullUrl": "urn:uuid:f4154aec-c5bc-5713-8106-36e4a699bdf2"
}