{
  "resource": {
    "resourceType": "Organization",
    "id": "d7b454ba-38e2-5780-bda7-71fc5290867f",
    "name": "ALAMEDA SURGERY CENTER",
    "endpoint": [
      {
        "reference": "Endpoint/27a4e967-47aa-5a9c-a572-b8297ee268a2"
      },
      {
        "reference": "Endpoint/d9042e41-7bf2-5d10-85da-7423c6b1dd0f"
      }
    ],
    "identifier": [
      {
        "system": "http://hl7.org/fhir/sid/us-npi",
        "value": "1386911006"
      },
      {
        "system": "http://hl7.org/fhir/sid/us-npi",
        "value": "1548567498"
      }
    ],
    "address": [
      {
        "line": [
          "2403 Castillo Street",
          "Suite 201"
        ],
        "city": "SANTA BARBARA",
        "state": "CA",
        "postalCode": "93105-5316"
      },
      {
        "line": [
          "2050 Viborg Road"
        ],
        "city": "SOLVANG",
        "state": "CA",
        "postalCode": "93463-2220"
      },
      {
        "line": [
          "400 W. Pueblo Street"
        ],
        "city": "SANTA BARBARA",
        "state": "CA",
        "postalCode": "93105-4353"
      },
      {
        "line": [
          "351 S PATTERSON AVE"
        ],
        "city": "SANTA BARBARA",
        "state": "CA",
        "postalCode": "93111-2403"
      },
      {
        "line": [
          "400 W. Pueblo Street"
        ],
        "city": "Santa Barbara",
        "state": "CA",
        "postalCode": "93015-4353"
      },
      {
        "line": [
          "25 W. Micheltorena Street"
        ],
        "city": "SANTA BARBARA",
        "state": "CA",
        "postalCode": "93101-2509"
      },
      {
        "line": [
          "2050 VIBORG RD"
        ],
        "city": "SOLVANG",
        "state": "CA",
        "postalCode": "93463-2220"
      },
      {
        "line": [
          "2050 Viborg Rd"
        ],
        "city": "SOLVANG",
        "state": "CA",
        "postalCode": "93463-2220"
      }
    ],
    "extension": [
      {
        "url": "https://fhir.athena.io/StructureDefinition/ah-practice",
        "valueReference": {
          "reference": "Organization/a-1.Practice-3663"
        }
      },
      {
        "url": "https://fhir.athena.io/StructureDefinition/ah-brand",
        "valueReference": {
          "reference": "Organization/a-3663.Brand-28"
        }
      }
    ]
  },
  "fullUrl": "urn:uuid:d7b454ba-38e2-5780-bda7-71fc5290867f"
}