{
  "resource": {
    "resourceType": "Organization",
    "id": "aeeaa655-d831-5d33-b9f0-896dc6410efa",
    "name": "Office of Dr. Turalic Premier Cardiology Care",
    "endpoint": [
      {
        "reference": "Endpoint/27a4e967-47aa-5a9c-a572-b8297ee268a2"
      },
      {
        "reference": "Endpoint/1bed8b63-d9a2-54bb-869a-45cb27347d18"
      }
    ],
    "identifier": [
      {
        "system": "http://hl7.org/fhir/sid/us-npi",
        "value": "1528626215"
      }
    ],
    "address": [
      {
        "line": [
          "1500 LEE BLVD."
        ],
        "city": "LEHIGH ACRES",
        "state": "FL",
        "postalCode": "33936-4835"
      },
      {
        "line": [
          "13681 Doctors Way,"
        ],
        "city": "FORT MYERS",
        "state": "FL",
        "postalCode": "33912-4300"
      },
      {
        "line": [
          "2776 Cleveland Ave."
        ],
        "city": "FORT MYERS",
        "state": "FL",
        "postalCode": "33901-5864"
      },
      {
        "line": [
          "2776 CLEVELAND AVE"
        ],
        "city": "FORT MYERS",
        "state": "FL",
        "postalCode": "33901-5855"
      },
      {
        "line": [
          "1500 Lee blvd"
        ],
        "city": "LEHIGH ACRES",
        "state": "FL",
        "postalCode": "33936-4835"
      },
      {
        "line": [
          "1500 Lee Blvd."
        ],
        "city": "LEHIGH ACRES",
        "state": "FL",
        "postalCode": "33936-4835"
      },
      {
        "line": [
          "13681 DOCTOR'S WAY"
        ],
        "city": "FORT MYERS",
        "state": "FL",
        "postalCode": "33912-4300"
      },
      {
        "line": [
          "1530 Lee Blvd",
          "Suite 1300"
        ],
        "city": "LEHIGH ACRES",
        "state": "FL",
        "postalCode": "33936-4835"
      },
      {
        "line": [
          "3050 CHAMPION RING RD,"
        ],
        "city": "FORT MYERS",
        "state": "FL",
        "postalCode": "33905-5599"
      },
      {
        "line": [
          "1530 LEE BLVD. SUITE 1300"
        ],
        "city": "LEHIGH ACRES",
        "state": "FL",
        "postalCode": "33936-4887"
      }
    ],
    "extension": [
      {
        "url": "https://fhir.athena.io/StructureDefinition/ah-practice",
        "valueReference": {
          "reference": "Organization/a-1.Practice-19884"
        }
      },
      {
        "url": "https://fhir.athena.io/StructureDefinition/ah-brand",
        "valueReference": {
          "reference": "Organization/a-19884.Brand-1"
        }
      }
    ]
  },
  "fullUrl": "urn:uuid:aeeaa655-d831-5d33-b9f0-896dc6410efa"
}