{
  "resource": {
    "resourceType": "Organization",
    "id": "3df78190-4398-52a1-8fad-ce4e44418a5c",
    "name": "Triad Ocular and Facial Plastic Surgery",
    "endpoint": [
      {
        "reference": "Endpoint/27a4e967-47aa-5a9c-a572-b8297ee268a2"
      },
      {
        "reference": "Endpoint/bbc74755-b208-5851-b1df-78082e1ee351"
      }
    ],
    "identifier": [
      {
        "system": "http://hl7.org/fhir/sid/us-npi",
        "value": "1245737568"
      }
    ],
    "address": [
      {
        "line": [
          "180 KIMEL PARK DR STE 200"
        ],
        "city": "WINSTON SALEM",
        "state": "NC",
        "postalCode": "27103-6970"
      },
      {
        "line": [
          "329 NC-801 N"
        ],
        "city": "BERMUDA RUN",
        "state": "NC",
        "postalCode": "27006-2905"
      },
      {
        "line": [
          "6441 KINNAMON COURT"
        ],
        "city": "WINSTON SALEM",
        "state": "NC",
        "postalCode": "27103-9819"
      },
      {
        "line": [
          "1999 S HAWTHORNE RD"
        ],
        "city": "WINSTON SALEM",
        "state": "NC",
        "postalCode": "27103-3916"
      },
      {
        "line": [
          "122 E KINDERTON WAY",
          "SUITE B"
        ],
        "city": "ADVANCE",
        "state": "NC",
        "postalCode": "27006-7303"
      },
      {
        "line": [
          "122 E. Kinderton Way"
        ],
        "city": "ADVANCE",
        "state": "NC",
        "postalCode": "27006-7303"
      },
      {
        "line": [
          "1570 NC 8 AND 89 HWY N"
        ],
        "city": "DANBURY",
        "state": "NC",
        "postalCode": "27016-7360"
      },
      {
        "line": [
          "7210 VILLAGE MEDICAL CIR STE 235"
        ],
        "city": "CLEMMONS",
        "state": "NC",
        "postalCode": "27012-8041"
      },
      {
        "line": [
          "705 GREEN VALLEY RD"
        ],
        "city": "GREENSBORO",
        "state": "NC",
        "postalCode": "27408-7019"
      },
      {
        "line": [
          "1950 SOUTH HAWTHORNE ROAD"
        ],
        "city": "WINSTON SALEM",
        "state": "NC",
        "postalCode": "27103-3912"
      },
      {
        "line": [
          "6318 Jessie Lane"
        ],
        "city": "CLEMMONS",
        "state": "NC",
        "postalCode": "27012-9887"
      }
    ],
    "extension": [
      {
        "url": "https://fhir.athena.io/StructureDefinition/ah-practice",
        "valueReference": {
          "reference": "Organization/a-1.Practice-21596"
        }
      },
      {
        "url": "https://fhir.athena.io/StructureDefinition/ah-brand",
        "valueReference": {
          "reference": "Organization/a-21596.Brand-1"
        }
      }
    ]
  },
  "fullUrl": "urn:uuid:3df78190-4398-52a1-8fad-ce4e44418a5c"
}