{
  "resource": {
    "resourceType": "Organization",
    "id": "d99d9589-27ed-54ba-9f14-8663250585f5",
    "name": "Bobcat Health Center",
    "endpoint": [
      {
        "reference": "Endpoint/27a4e967-47aa-5a9c-a572-b8297ee268a2"
      },
      {
        "reference": "Endpoint/6db4cc6c-a305-5638-be2c-eaa8ec271394"
      }
    ],
    "identifier": [
      {
        "system": "http://hl7.org/fhir/sid/us-npi",
        "value": "1942274543"
      }
    ],
    "address": [
      {
        "line": [
          "913 Van High School Road"
        ],
        "city": "VAN",
        "state": "WV",
        "postalCode": "25206-7002"
      },
      {
        "line": [
          "81 Lincoln Panther Way"
        ],
        "city": "HAMLIN",
        "state": "WV",
        "postalCode": "25523-1169"
      },
      {
        "line": [
          "26 Trinity Lane"
        ],
        "city": "OCEANA",
        "state": "WV",
        "postalCode": "24870-0400"
      },
      {
        "line": [
          "1563 Sand Plant Road"
        ],
        "city": "SOUTH CHARLESTON",
        "state": "WV",
        "postalCode": "25309-6120"
      },
      {
        "line": [
          "506 Crawley Creek Rd"
        ],
        "city": "CHAPMANVILLE",
        "state": "WV",
        "postalCode": "25508-7002"
      },
      {
        "line": [
          "1 Wildcat Way"
        ],
        "city": "LOGAN",
        "state": "WV",
        "postalCode": "25601-3474"
      },
      {
        "line": [
          "8130 Court Ave"
        ],
        "city": "HAMLIN",
        "state": "WV",
        "postalCode": "25523-1734"
      },
      {
        "line": [
          "7400 Lynn Avenue"
        ],
        "city": "HAMLIN",
        "state": "WV",
        "postalCode": "25523-1138"
      },
      {
        "line": [
          "35767 Pond Fork Rd"
        ],
        "city": "WHARTON",
        "state": "WV",
        "postalCode": "25208-0341"
      },
      {
        "line": [
          "338 Van High School Rd"
        ],
        "city": "VAN",
        "state": "WV",
        "postalCode": "25206-7002"
      },
      {
        "line": [
          "2900 1ST AVE"
        ],
        "city": "HUNTINGTON",
        "state": "WV",
        "postalCode": "25702-1241"
      },
      {
        "line": [
          "7487 Coal River Rd"
        ],
        "city": "COMFORT",
        "state": "WV",
        "postalCode": "25049-0369"
      },
      {
        "line": [
          "10008 Coal River Rd"
        ],
        "city": "SETH",
        "state": "WV",
        "postalCode": "25181-0611"
      }
    ],
    "extension": [
      {
        "url": "https://fhir.athena.io/StructureDefinition/ah-practice",
        "valueReference": {
          "reference": "Organization/a-1.Practice-6401"
        }
      },
      {
        "url": "https://fhir.athena.io/StructureDefinition/ah-brand",
        "valueReference": {
          "reference": "Organization/a-6401.Brand-1"
        }
      }
    ]
  },
  "fullUrl": "urn:uuid:d99d9589-27ed-54ba-9f14-8663250585f5"
}