{
  "resource": {
    "resourceType": "Organization",
    "id": "aa499fe6-5fa8-5149-adb3-3536c5119716",
    "name": "UNIVERSITY OF TOLEDO PHYSICIANS, LLC",
    "endpoint": [
      {
        "reference": "Endpoint/27a4e967-47aa-5a9c-a572-b8297ee268a2"
      },
      {
        "reference": "Endpoint/371774d8-28dd-5e80-8796-819b746aec8d"
      }
    ],
    "identifier": [
      {
        "system": "http://hl7.org/fhir/sid/us-npi",
        "value": "1215240676"
      },
      {
        "system": "http://hl7.org/fhir/sid/us-npi",
        "value": "1942296033"
      }
    ],
    "address": [
      {
        "line": [
          "11239 WATERVILLE STREET"
        ],
        "city": "WHITEHOUSE",
        "state": "OH",
        "postalCode": "43571-9381"
      },
      {
        "line": [
          "5069 OTTERBEIN WAY"
        ],
        "city": "MONCLOVA",
        "state": "OH",
        "postalCode": "43542-8500"
      },
      {
        "line": [
          "2001 PERRYSBURG HOLLAND RD"
        ],
        "city": "HOLLAND",
        "state": "OH",
        "postalCode": "43528-7005"
      },
      {
        "line": [
          "1037 CONNEAUT AVE"
        ],
        "city": "BOWLING GREEN",
        "state": "OH",
        "postalCode": "43402-5301"
      },
      {
        "line": [
          "725 SOUTH SHOOP AVENUE"
        ],
        "city": "WAUSEON",
        "state": "OH",
        "postalCode": "43567-1702"
      },
      {
        "line": [
          "5220 ALEXIS ROAD"
        ],
        "city": "SYLVANIA",
        "state": "OH",
        "postalCode": "43560-2504"
      },
      {
        "line": [
          "6832 CONVENT BLVD"
        ],
        "city": "SYLVANIA",
        "state": "OH",
        "postalCode": "43560-4805"
      },
      {
        "line": [
          "885 NORTH SANDUSKY AVE"
        ],
        "city": "UPPER SANDUSKY",
        "state": "OH",
        "postalCode": "43351-1031"
      },
      {
        "line": [
          "12469 FIVE POINT ROAD"
        ],
        "city": "PERRYSBURG",
        "state": "OH",
        "postalCode": "43551-9615"
      },
      {
        "line": [
          "1600 E RIVERVIEW AVE"
        ],
        "city": "NAPOLEON",
        "state": "OH",
        "postalCode": "43545-9805"
      },
      {
        "line": [
          "407 E LUTZ ROAD"
        ],
        "city": "ARCHBOLD",
        "state": "OH",
        "postalCode": "43502-1234"
      },
      {
        "line": [
          "4293 MONROE ST."
        ],
        "city": "TOLEDO",
        "state": "OH",
        "postalCode": "43606-1234"
      },
      {
        "line": [
          "4020 INDIAN ROAD"
        ],
        "city": "OTTAWA HILLS",
        "state": "OH",
        "postalCode": "43606-2265"
      },
      {
        "line": [
          "1125 HOSPITAL DR"
        ],
        "city": "TOLEDO",
        "state": "OH",
        "postalCode": "43614-8001"
      },
      {
        "line": [
          "950 W WOOSTER STREET"
        ],
        "city": "BOWLING GREEN",
        "state": "OH",
        "postalCode": "43402-2643"
      },
      {
        "line": [
          "430 N BROADWAY"
        ],
        "city": "GREEN SPRINGS",
        "state": "OH",
        "postalCode": "44836-9601"
      },
      {
        "line": [
          "3000 ARLINGTON AVENUE"
        ],
        "city": "TOLEDO",
        "state": "OH",
        "postalCode": "43614-2595"
      },
      {
        "line": [
          "1850 E 2ND ST",
          "STE 1850"
        ],
        "city": "DEFIANCE",
        "state": "OH",
        "postalCode": "43512-2502"
      },
      {
        "line": [
          "850 W POE RD"
        ],
        "city": "BOWLING GREEN",
        "state": "OH",
        "postalCode": "43402-1219"
      },
      {
        "line": [
          "332 W DUSSEL"
        ],
        "city": "MAUMEE",
        "state": "OH",
        "postalCode": "43537-1670"
      },
      {
        "line": [
          "1101  S DETROIT"
        ],
        "city": "TOLEDO",
        "state": "OH",
        "postalCode": "43614-2704"
      },
      {
        "line": [
          "555 ANTHONY WAYNE TRAIL"
        ],
        "city": "WATERVILLE",
        "state": "OH",
        "postalCode": "43566-1516"
      },
      {
        "line": [
          "1036 S. PERRY"
        ],
        "city": "NAPOLEON",
        "state": "OH",
        "postalCode": "43545-2159"
      },
      {
        "line": [
          "45 ST LAWRENCE DR"
        ],
        "city": "TIFFIN",
        "state": "OH",
        "postalCode": "44883-8310"
      },
      {
        "line": [
          "1400 W MAIN ST"
        ],
        "city": "BELLEVUE",
        "state": "OH",
        "postalCode": "44811-9088"
      },
      {
        "line": [
          "1215 N TELEGRAPH RD"
        ],
        "city": "MONROE",
        "state": "MI",
        "postalCode": "48162-3368"
      },
      {
        "line": [
          "145 W WALLACE ST"
        ],
        "city": "FINDLAY",
        "state": "OH",
        "postalCode": "45840-1214"
      },
      {
        "line": [
          "4330 KEYSTONE DR"
        ],
        "city": "MAUMEE",
        "state": "OH",
        "postalCode": "43537-8795"
      },
      {
        "line": [
          "1069 KLOTZ RD"
        ],
        "city": "BOWLING GREEN",
        "state": "OH",
        "postalCode": "43402-4802"
      },
      {
        "line": [
          "3404 W SYLVANIA AVE"
        ],
        "city": "Toledo",
        "state": "OH",
        "postalCode": "43623-4467"
      },
      {
        "line": [
          "7223  MAUMEE WESTERN RD"
        ],
        "city": "MAUMEE",
        "state": "OH",
        "postalCode": "43537-9755"
      },
      {
        "line": [
          "4420 SOUTH AVE"
        ],
        "city": "TOLEDO",
        "state": "OH",
        "postalCode": "43615-6417"
      },
      {
        "line": [
          "8885 BROWNING DR"
        ],
        "city": "WATERVILLE",
        "state": "OH",
        "postalCode": "43566-9701"
      },
      {
        "line": [
          "5757 WHITEFORD RD"
        ],
        "city": "SYLVANIA",
        "state": "OH",
        "postalCode": "43560-2114"
      },
      {
        "line": [
          "1400 E MEDICAL LOOP"
        ],
        "city": "TOLEDO",
        "state": "OH",
        "postalCode": "43614-8004"
      },
      {
        "line": [
          "1971 NORTH MONROE ST"
        ],
        "city": "MONROE",
        "state": "MI",
        "postalCode": "48162-4255"
      },
      {
        "line": [
          "240 NORTHCREST DR"
        ],
        "city": "NAPOLEON",
        "state": "OH",
        "postalCode": "43545-7737"
      },
      {
        "line": [
          "2213 CHERRY STREET",
          "ACC BLDG"
        ],
        "city": "TOLEDO",
        "state": "OH",
        "postalCode": "43608-2603"
      },
      {
        "line": [
          "4041 WEST SYLVANIA AVENUE"
        ],
        "city": "TOLEDO",
        "state": "OH",
        "postalCode": "43623-4465"
      },
      {
        "line": [
          "410  BIRCHARD AVE"
        ],
        "city": "FREMONT",
        "state": "OH",
        "postalCode": "43420-1234"
      },
      {
        "line": [
          "121 WESTFIELD DRIVE"
        ],
        "city": "ARCHBOLD",
        "state": "OH",
        "postalCode": "43502-1056"
      },
      {
        "line": [
          "5871 MONCLOVA RD."
        ],
        "city": "MAUMEE",
        "state": "OH",
        "postalCode": "43537-9256"
      },
      {
        "line": [
          "11239 WATERVILLE STREET"
        ],
        "city": "WHITEHOUSE",
        "state": "OH",
        "postalCode": "43571-9813"
      },
      {
        "line": [
          "800 STEWART ROAD"
        ],
        "city": "MONROE",
        "state": "MI",
        "postalCode": "48162-4226"
      },
      {
        "line": [
          "1001 BELLEFOUNTAINE AVE"
        ],
        "city": "LIMA",
        "state": "OH",
        "postalCode": "45804-2800"
      },
      {
        "line": [
          "403 E Broadway Street"
        ],
        "city": "TOLEDO",
        "state": "OH",
        "postalCode": "43605-2354"
      },
      {
        "line": [
          "2401 CASS RD"
        ],
        "city": "TOLEDO",
        "state": "OH",
        "postalCode": "43614-3119"
      },
      {
        "line": [],
        "city": "TOLEDO",
        "state": "OH",
        "postalCode": "43699-1234"
      },
      {
        "line": [
          "1621 S BYRNE RD"
        ],
        "city": "TOLEDO",
        "state": "OH",
        "postalCode": "43614-3456"
      },
      {
        "line": [
          "250 MANOR DR"
        ],
        "city": "PERRYSBURG",
        "state": "OH",
        "postalCode": "43551-3118"
      },
      {
        "line": [
          "345 E BOUNDARY ST"
        ],
        "city": "PERRYSBURG",
        "state": "OH",
        "postalCode": "43551-2760"
      },
      {
        "line": [
          "4204 SYLVANIA AVE",
          "UNITS 1 AND 2"
        ],
        "city": "TOLEDO",
        "state": "OH",
        "postalCode": "43623-4498"
      },
      {
        "line": [
          "1787 INDIAN WOOD CIRCLE"
        ],
        "city": "MAUMEE",
        "state": "OH",
        "postalCode": "43537-4175"
      },
      {
        "line": [
          "3231 MANLEY RD"
        ],
        "city": "MAUMEE",
        "state": "OH",
        "postalCode": "43537-9680"
      },
      {
        "line": [
          "3525 RIVERS EDGE DR"
        ],
        "city": "PERRYSBURG",
        "state": "OH",
        "postalCode": "43551-1672"
      },
      {
        "line": [
          "71 S WASHINGTON"
        ],
        "city": "TIFFIN",
        "state": "OH",
        "postalCode": "44883-2357"
      },
      {
        "line": [
          "442 WEST HIGH STREET"
        ],
        "city": "BRYAN",
        "state": "OH",
        "postalCode": "43506-1681"
      },
      {
        "line": [
          "700 HELEN ST"
        ],
        "city": "CLYDE",
        "state": "OH",
        "postalCode": "43410-2051"
      },
      {
        "line": [
          "10540 FREMONT PIKE"
        ],
        "city": "PERRYSBURG",
        "state": "OH",
        "postalCode": "43551-1531"
      },
      {
        "line": [
          "723 S SHOOP AVE"
        ],
        "city": "WAUSEON",
        "state": "OH",
        "postalCode": "43567-1702"
      },
      {
        "line": [
          "120 S HOLLAND SYLVANIA ROAD"
        ],
        "city": "TOLEDO",
        "state": "OH",
        "postalCode": "43615-5622"
      },
      {
        "line": [
          "904 ISAAC STREET DR"
        ],
        "city": "OREGON",
        "state": "OH",
        "postalCode": "43616-3204"
      },
      {
        "line": [
          "2600 NAVARRE AVE"
        ],
        "city": "OREGON",
        "state": "OH",
        "postalCode": "43616-3207"
      },
      {
        "line": [
          "4035 INDIAN RD"
        ],
        "city": "TOLEDO",
        "state": "OH",
        "postalCode": "43606-2226"
      },
      {
        "line": [
          "3404 W SYLVANIA AVE"
        ],
        "city": "TOLEDO",
        "state": "OH",
        "postalCode": "43623-4467"
      },
      {
        "line": [
          "2249 N REYNOLDS RD"
        ],
        "city": "TOLEDO",
        "state": "OH",
        "postalCode": "43615-2835"
      },
      {
        "line": [
          "4220 SOUTH ST"
        ],
        "city": "TOLEDO",
        "state": "OH",
        "postalCode": "43615-6234"
      },
      {
        "line": [
          "1111 HAYES AVE"
        ],
        "city": "SANDUSKY",
        "state": "OH",
        "postalCode": "44870-3323"
      },
      {
        "line": [
          "1037 CONNEAUT AVE"
        ],
        "city": "BOWLING GREEN",
        "state": "OH",
        "postalCode": "43402-4340"
      },
      {
        "line": [
          "1011 N BYRNE RD"
        ],
        "city": "TOLEDO",
        "state": "OH",
        "postalCode": "43607-2710"
      },
      {
        "line": [
          "1021 W POE RD"
        ],
        "city": "BOWLING GREEN",
        "state": "OH",
        "postalCode": "43402-9362"
      },
      {
        "line": [
          "721 S SHOOP AVENUE"
        ],
        "city": "WAUSEON",
        "state": "OH",
        "postalCode": "43567-1729"
      },
      {
        "line": [
          "730 WEST MARKET STREET"
        ],
        "city": "LIMA",
        "state": "OH",
        "postalCode": "45801-4602"
      },
      {
        "line": [
          "2400 ENTERPRISE STREET"
        ],
        "city": "FREMONT",
        "state": "OH",
        "postalCode": "43420-8550"
      },
      {
        "line": [
          "5308 HARROUN RD"
        ],
        "city": "SYLVANIA",
        "state": "OH",
        "postalCode": "43560-2114"
      },
      {
        "line": [
          "537 W HIGH ST"
        ],
        "city": "BRYAN",
        "state": "OH",
        "postalCode": "43506-1619"
      },
      {
        "line": [
          "131 NORTH WHEELING STREET"
        ],
        "city": "TOLEDO",
        "state": "OH",
        "postalCode": "43605-1234"
      },
      {
        "line": [
          "5201 AIRPORT HWY"
        ],
        "city": "TOLEDO",
        "state": "OH",
        "postalCode": "43615-6800"
      },
      {
        "line": [
          "4645 LEWIS AVE"
        ],
        "city": "TOLEDO",
        "state": "OH",
        "postalCode": "43612-1234"
      },
      {
        "line": [
          "28546 STARBRIGHT BLVE"
        ],
        "city": "PERRYSBURG",
        "state": "OH",
        "postalCode": "43551-4686"
      },
      {
        "line": [
          "1614 S BYRNE RD"
        ],
        "city": "TOLEDO",
        "state": "OH",
        "postalCode": "43614-3464"
      },
      {
        "line": [
          "303 W LEGGETT ST"
        ],
        "city": "WAUSEON",
        "state": "OH",
        "postalCode": "43567-1234"
      },
      {
        "line": [
          "4900 NAVARRE"
        ],
        "city": "OREGON",
        "state": "OH",
        "postalCode": "43616-1234"
      },
      {
        "line": [
          "3120 Glendale Ave Ste 001",
          "Ste 0001"
        ],
        "city": "TOLEDO",
        "state": "OH",
        "postalCode": "43614-5811"
      },
      {
        "line": [
          "715 SOUTH TAFT AVE"
        ],
        "city": "FREMONT",
        "state": "OH",
        "postalCode": "43420-8840"
      },
      {
        "line": [
          "1402 E SECOND STREET"
        ],
        "city": "DEFIANCE",
        "state": "OH",
        "postalCode": "43512-2440"
      },
      {
        "line": [
          "12623 ECKEL JUNCTION RD"
        ],
        "city": "PERRYSBURG",
        "state": "OH",
        "postalCode": "43551-1762"
      },
      {
        "line": [
          "4121 KING ROAD"
        ],
        "city": "SYLVANIA",
        "state": "OH",
        "postalCode": "43560-4438"
      },
      {
        "line": [
          "214 S. MUNSON ROAD"
        ],
        "city": "SWANTON",
        "state": "OH",
        "postalCode": "43558-1445"
      },
      {
        "line": [
          "5901 MONCLOVA ROAD"
        ],
        "city": "MAUMEE",
        "state": "OH",
        "postalCode": "43537-1841"
      },
      {
        "line": [
          "401 W AIRPORT HWY"
        ],
        "city": "SWANTON",
        "state": "OH",
        "postalCode": "43558-1445"
      },
      {
        "line": [
          "131 NORTH WHEELING ST"
        ],
        "city": "TOLEDO",
        "state": "OH",
        "postalCode": "43605-1544"
      },
      {
        "line": [
          "950 W WOOSTER"
        ],
        "city": "BOWLING GREEN",
        "state": "OH",
        "postalCode": "43402-2603"
      },
      {
        "line": [
          "1036 S PERRY"
        ],
        "city": "NAPOLEON",
        "state": "OH",
        "postalCode": "43545-2159"
      },
      {
        "line": [
          "250 MANOR DR"
        ],
        "city": "PERRYSBURG",
        "state": "OH",
        "postalCode": "43551-3318"
      },
      {
        "line": [
          "950 W WOOSTER ST"
        ],
        "city": "BOWLING GREEN",
        "state": "OH",
        "postalCode": "43402-2603"
      },
      {
        "line": [
          "5719  JACKMAN RD"
        ],
        "city": "TOLEDO",
        "state": "OH",
        "postalCode": "43613-2332"
      },
      {
        "line": [
          "4111 N HOLLAND SYLVANIA RD"
        ],
        "city": "TOLEDO",
        "state": "OH",
        "postalCode": "43623-2503"
      },
      {
        "line": [
          "701 COMMERCE DRIVE"
        ],
        "city": "PERRYSBURG",
        "state": "OH",
        "postalCode": "43551-5271"
      },
      {
        "line": [
          "1445 West Medical Loop"
        ],
        "city": "TOLEDO",
        "state": "OH",
        "postalCode": "43614-5811"
      },
      {
        "line": [
          "951 HICKORY CREEK BOLULEVARD"
        ],
        "city": "TEMPERANCE",
        "state": "MI",
        "postalCode": "48182-1234"
      },
      {
        "line": [
          "3310 DUSTIN RD"
        ],
        "city": "OREGON",
        "state": "OH",
        "postalCode": "43616-3302"
      },
      {
        "line": [
          "7635 SYLVANIA AVE"
        ],
        "city": "SYLVANIA",
        "state": "OH",
        "postalCode": "43560-1234"
      },
      {
        "line": [
          "501 VAN BUREN STREET"
        ],
        "city": "FOSTORIA",
        "state": "OH",
        "postalCode": "44830-1534"
      },
      {
        "line": [
          "1325 CONFERENCE DR"
        ],
        "city": "TOLEDO",
        "state": "OH",
        "postalCode": "43614-8009"
      },
      {
        "line": [
          "4925 JACKMAN ROAD",
          "UNIT 59"
        ],
        "city": "TOLEDO",
        "state": "OH",
        "postalCode": "43613-3574"
      },
      {
        "line": [
          "1125 CLARION AVE"
        ],
        "city": "HOLLAND",
        "state": "OH",
        "postalCode": "43528-8107"
      },
      {
        "line": [
          "R858 COUNTRY RD 15",
          "PO BOX 525"
        ],
        "city": "NAPOLEON",
        "state": "OH",
        "postalCode": "43545-1234"
      },
      {
        "line": [
          "5901 MONCLOVA RD"
        ],
        "city": "MAUMEE",
        "state": "OH",
        "postalCode": "43537-1841"
      },
      {
        "line": [
          "2865 N REYNOLDS  RD",
          "SUITE 190"
        ],
        "city": "TOLEDO",
        "state": "OH",
        "postalCode": "43615-2076"
      },
      {
        "line": [
          "795 BARDSHAR RD"
        ],
        "city": "SANDUSKY",
        "state": "OH",
        "postalCode": "44870-1234"
      },
      {
        "line": [
          "5901 MONCLOVA ROAD"
        ],
        "city": "MAUMEE",
        "state": "OH",
        "postalCode": "43537-1234"
      },
      {
        "line": [
          "4041 WEST SYLVANIA  AVENUE"
        ],
        "city": "TOLEDO",
        "state": "OH",
        "postalCode": "43623-4465"
      },
      {
        "line": [
          "1000 REGENCY CT",
          "STE 200"
        ],
        "city": "TOLEDO",
        "state": "OH",
        "postalCode": "43623-3074"
      },
      {
        "line": [
          "611 LEMOYNE RD"
        ],
        "city": "NORTHWOOD",
        "state": "OH",
        "postalCode": "43619-1811"
      },
      {
        "line": [
          "1015 GARDEN LAKE PKWY"
        ],
        "city": "TOLEDO",
        "state": "OH",
        "postalCode": "43614-2779"
      },
      {
        "line": [
          "R858 COUNTY RD 15",
          "PO BOX 525"
        ],
        "city": "NAPOLEON",
        "state": "OH",
        "postalCode": "43545-7968"
      },
      {
        "line": [
          "2532 W LASKEY RD"
        ],
        "city": "TOLEDO",
        "state": "OH",
        "postalCode": "43613-3205"
      },
      {
        "line": [
          "1021 POE RD"
        ],
        "city": "BOWLING GREEN",
        "state": "OH",
        "postalCode": "43402-9362"
      },
      {
        "line": [
          "2390 ENTERPRISE DRIVE"
        ],
        "city": "FREMONT",
        "state": "OH",
        "postalCode": "43420-8507"
      },
      {
        "line": [
          "5360 HARROUN ROAD"
        ],
        "city": "SYLVANIA",
        "state": "OH",
        "postalCode": "43560-2114"
      },
      {
        "line": [
          "3401 GLENDALE AVE"
        ],
        "city": "TOLEDO",
        "state": "OH",
        "postalCode": "43614-2418"
      },
      {
        "line": [
          "2900 CARSKADDON"
        ],
        "city": "TOLEDO",
        "state": "OH",
        "postalCode": "43606-1601"
      }
    ],
    "extension": [
      {
        "url": "https://fhir.athena.io/StructureDefinition/ah-practice",
        "valueReference": {
          "reference": "Organization/a-1.Practice-9641"
        }
      },
      {
        "url": "https://fhir.athena.io/StructureDefinition/ah-brand",
        "valueReference": {
          "reference": "Organization/a-9641.Brand-2"
        }
      }
    ]
  },
  "fullUrl": "urn:uuid:aa499fe6-5fa8-5149-adb3-3536c5119716"
}