{
  "resource": {
    "resourceType": "Organization",
    "id": "14ce3fd9-fd43-56a0-98e9-0567c581be98",
    "name": "Ascension Medical Group",
    "endpoint": [
      {
        "reference": "Endpoint/27a4e967-47aa-5a9c-a572-b8297ee268a2"
      },
      {
        "reference": "Endpoint/5fafb2d3-4ae2-5c26-a48e-9cb710501246"
      }
    ],
    "identifier": [
      {
        "system": "http://hl7.org/fhir/sid/us-npi",
        "value": "1376541748"
      },
      {
        "system": "http://hl7.org/fhir/sid/us-npi",
        "value": "1730126392"
      },
      {
        "system": "http://hl7.org/fhir/sid/us-npi",
        "value": "1407803638"
      },
      {
        "system": "http://hl7.org/fhir/sid/us-npi",
        "value": "1912527193"
      },
      {
        "system": "http://hl7.org/fhir/sid/us-npi",
        "value": "1023065356"
      },
      {
        "system": "http://hl7.org/fhir/sid/us-npi",
        "value": "1538112230"
      }
    ],
    "address": [
      {
        "line": [
          "614 MEMORIAL DR"
        ],
        "city": "CHILTON",
        "state": "WI",
        "postalCode": "53014-1568"
      },
      {
        "line": [
          "1700 MIDWAY RD"
        ],
        "city": "MENASHA",
        "state": "WI",
        "postalCode": "54952-1230"
      },
      {
        "line": [
          "500 S OAKWOOD RD"
        ],
        "city": "Oshkosh",
        "state": "WI",
        "postalCode": "54904-7247"
      },
      {
        "line": [
          "N/A"
        ],
        "city": "MENASHA",
        "state": "WI",
        "postalCode": "54952-1165"
      },
      {
        "line": [
          "1506 S ONEDIA ST"
        ],
        "city": "APPLETON",
        "state": "WI",
        "postalCode": "54915-1305"
      },
      {
        "line": [
          "2700 W 9th Ave"
        ],
        "city": "OSHKOSH",
        "state": "WI",
        "postalCode": "54904-7247"
      },
      {
        "line": [
          "900 ILLINOIS AVE"
        ],
        "city": "STEVENS POINT",
        "state": "WI",
        "postalCode": "54481-3114"
      },
      {
        "line": [
          "\".\""
        ],
        "city": "STEVENS POINT",
        "state": "WI",
        "postalCode": "54481-9677"
      },
      {
        "line": [
          "1506 S ONIEDA ST"
        ],
        "city": "APPLETON",
        "state": "WI",
        "postalCode": "54915-1305"
      },
      {
        "line": [
          "1506 S ONEIDA ST"
        ],
        "city": "APPLETON",
        "state": "WI",
        "postalCode": "54915-1305"
      },
      {
        "line": [
          "855 N Westhaven Dr"
        ],
        "city": "OSHKOSH",
        "state": "WI",
        "postalCode": "54904-7668"
      },
      {
        "line": [
          "N/A"
        ],
        "city": "OSHKOSH",
        "state": "WI",
        "postalCode": "54904-7864"
      },
      {
        "line": [
          "NA"
        ],
        "city": "OSHKOSH",
        "state": "WI",
        "postalCode": "54904-7864"
      },
      {
        "line": [
          "1818 N Meade Street"
        ],
        "city": "APPLETON",
        "state": "WI",
        "postalCode": "54911-3454"
      },
      {
        "line": [
          "500 S Oakwood"
        ],
        "city": "OSHKOSH",
        "state": "WI",
        "postalCode": "54904-7944"
      },
      {
        "line": [
          "222 West College Ave"
        ],
        "city": "APPLETON",
        "state": "WI",
        "postalCode": "54911-1111"
      },
      {
        "line": [
          "618 MEMORIAL DR"
        ],
        "city": "CHILTON",
        "state": "WI",
        "postalCode": "53014-1568"
      },
      {
        "line": [
          "N/A"
        ],
        "city": "STEVENS POINT",
        "state": "WI",
        "postalCode": "54481-3114"
      }
    ],
    "extension": [
      {
        "url": "https://fhir.athena.io/StructureDefinition/ah-practice",
        "valueReference": {
          "reference": "Organization/a-1.Practice-10114"
        }
      },
      {
        "url": "https://fhir.athena.io/StructureDefinition/ah-brand",
        "valueReference": {
          "reference": "Organization/a-10114.Brand-2"
        }
      }
    ]
  },
  "fullUrl": "urn:uuid:14ce3fd9-fd43-56a0-98e9-0567c581be98"
}