{
  "resource": {
    "resourceType": "Organization",
    "id": "6372c7a2-9734-5bef-b2ce-b7baf0a46528",
    "name": "Sonia Vazquez",
    "endpoint": [
      {
        "reference": "Endpoint/27a4e967-47aa-5a9c-a572-b8297ee268a2"
      },
      {
        "reference": "Endpoint/8e9e94c9-a5a6-50bf-91b0-5d2837190685"
      }
    ],
    "identifier": [
      {
        "system": "http://hl7.org/fhir/sid/us-npi",
        "value": "1295458941"
      }
    ],
    "address": [
      {
        "line": [
          "2200 W acacia"
        ],
        "city": "HEMET",
        "state": "CA",
        "postalCode": "92545-0701"
      },
      {
        "line": [
          "11918 Central Avenue"
        ],
        "city": "CHINO",
        "state": "CA",
        "postalCode": "91710-0100"
      },
      {
        "line": [
          "17040 ARNOLD DR"
        ],
        "city": "MARCH AIR RESERVE BASE",
        "state": "CA",
        "postalCode": "92518-2813"
      },
      {
        "line": [
          "17050 Arnold Dr"
        ],
        "city": "CORONA",
        "state": "CA",
        "postalCode": "92879-0606"
      },
      {
        "line": [
          "11825 APPLE VALLEY RD"
        ],
        "city": "APPLE VALLEY",
        "state": "CA",
        "postalCode": "92308-9364"
      },
      {
        "line": [
          "18523 CORWIN RD STE B"
        ],
        "city": "APPLE VALLEY",
        "state": "CA",
        "postalCode": "92307-2300"
      },
      {
        "line": [
          "7898 California Ave"
        ],
        "city": "RIVERSIDE",
        "state": "CA",
        "postalCode": "92504-1000"
      },
      {
        "line": [
          "2300 Main St"
        ],
        "city": "CORONA",
        "state": "CA",
        "postalCode": "92882-0300"
      }
    ],
    "extension": [
      {
        "url": "https://fhir.athena.io/StructureDefinition/ah-practice",
        "valueReference": {
          "reference": "Organization/a-1.Practice-10718"
        }
      },
      {
        "url": "https://fhir.athena.io/StructureDefinition/ah-brand",
        "valueReference": {
          "reference": "Organization/a-10718.Brand-7"
        }
      }
    ]
  },
  "fullUrl": "urn:uuid:6372c7a2-9734-5bef-b2ce-b7baf0a46528"
}