{
  "resource": {
    "resourceType": "Organization",
    "id": "12f32bcc-4edb-55fd-afbf-dff3d8fb2873",
    "name": "Optum Los Lunas",
    "endpoint": [
      {
        "reference": "Endpoint/27a4e967-47aa-5a9c-a572-b8297ee268a2"
      },
      {
        "reference": "Endpoint/8dc9c0a9-18dd-51b0-b49b-d27e7adfee41"
      }
    ],
    "identifier": [
      {
        "system": "http://hl7.org/fhir/sid/us-npi",
        "value": "1194827535"
      }
    ],
    "address": [
      {
        "line": [
          "503 LOS LENTES RD NE"
        ],
        "city": "LOS LUNAS",
        "state": "NM",
        "postalCode": "87031-7320"
      },
      {
        "line": [
          "P O BOX 8300",
          "no physical address for claims"
        ],
        "city": "LONDON",
        "state": "KY",
        "postalCode": "40742-8300"
      },
      {
        "line": [
          "1935 BOSQUE FARMS BLVD"
        ],
        "city": "BOSQUE FARMS",
        "state": "NM",
        "postalCode": "87068-1935"
      },
      {
        "line": [
          "3216 NM-47"
        ],
        "city": "LOS LUNAS",
        "state": "NM",
        "postalCode": "87031-7320"
      },
      {
        "line": [
          "127 SANDOVAL RD SW"
        ],
        "city": "LOS LUNAS",
        "state": "NM",
        "postalCode": "87031-7320"
      },
      {
        "line": [
          "1363 KAGHAN LOOP"
        ],
        "city": "BELEN",
        "state": "NM",
        "postalCode": "87002-1363"
      },
      {
        "line": [
          "127 Sandoval Rd SW"
        ],
        "city": "LOS LUNAS",
        "state": "NM",
        "postalCode": "87031-0127"
      },
      {
        "line": [
          "1001 TRIBAL RD NUMBER 140"
        ],
        "city": "ISLETA VILLAGE PROPER",
        "state": "NM",
        "postalCode": "87022-1001"
      },
      {
        "line": [
          "P O BOX 1209"
        ],
        "city": "LOS LUNAS",
        "state": "NM",
        "postalCode": "87031-7320"
      },
      {
        "line": [
          "1831 CAMINO DEL LLANO"
        ],
        "city": "BELEN",
        "state": "NM",
        "postalCode": "87002-1831"
      },
      {
        "line": [
          "28 LAKE VIEW ST."
        ],
        "city": "LOS LUNAS",
        "state": "NM",
        "postalCode": "87031-7320"
      },
      {
        "line": [
          "1650 NORTH LOS LENTES"
        ],
        "city": "LOS LUNAS",
        "state": "NM",
        "postalCode": "87031-7320"
      }
    ],
    "extension": [
      {
        "url": "https://fhir.athena.io/StructureDefinition/ah-practice",
        "valueReference": {
          "reference": "Organization/a-1.Practice-22334"
        }
      },
      {
        "url": "https://fhir.athena.io/StructureDefinition/ah-brand",
        "valueReference": {
          "reference": "Organization/a-22334.Brand-1"
        }
      }
    ]
  },
  "fullUrl": "urn:uuid:12f32bcc-4edb-55fd-afbf-dff3d8fb2873"
}