{
  "resource": {
    "resourceType": "Organization",
    "id": "d5268bec-7d57-59ef-84b6-a814898a4cb8",
    "name": "YMCA Southcoast",
    "endpoint": [
      {
        "reference": "Endpoint/27a4e967-47aa-5a9c-a572-b8297ee268a2"
      },
      {
        "reference": "Endpoint/abb5f7d5-468e-5806-be46-fb2282afef02"
      }
    ],
    "identifier": [
      {
        "system": "http://hl7.org/fhir/sid/us-npi",
        "value": "1639611502"
      }
    ],
    "address": [
      {
        "line": [
          "25 S Water ST"
        ],
        "city": "NEW BEDFORD",
        "state": "MA",
        "postalCode": "02740-7236"
      },
      {
        "line": [
          "531 Faunce Corner Road"
        ],
        "city": "NORTH DARTMOUTH",
        "state": "MA",
        "postalCode": "02747-1242"
      },
      {
        "line": [
          "276 Gulf Rd"
        ],
        "city": "SOUTH DARTMOUTH",
        "state": "MA",
        "postalCode": "02748-0700"
      },
      {
        "line": [
          "25 So. Water St."
        ],
        "city": "NEW BEDFORD",
        "state": "MA",
        "postalCode": "02740-7236"
      },
      {
        "line": [
          "38 Reservation Rd"
        ],
        "city": "MATTAPOISETT",
        "state": "MA",
        "postalCode": "02739-2609"
      },
      {
        "line": [
          "199 No. Main Street"
        ],
        "city": "FALL RIVER",
        "state": "MA",
        "postalCode": "02720-2319"
      },
      {
        "line": [
          "33 Charge Pond Rd"
        ],
        "city": "WAREHAM",
        "state": "MA",
        "postalCode": "02571-0466"
      },
      {
        "line": [
          "5 Ventura Drive"
        ],
        "city": "NORTH DARTMOUTH",
        "state": "MA",
        "postalCode": "02747-1244"
      },
      {
        "line": [
          "271 Sharps Lot Road"
        ],
        "city": "SWANSEA",
        "state": "MA",
        "postalCode": "02777-3729"
      }
    ],
    "extension": [
      {
        "url": "https://fhir.athena.io/StructureDefinition/ah-practice",
        "valueReference": {
          "reference": "Organization/a-1.Practice-14268"
        }
      },
      {
        "url": "https://fhir.athena.io/StructureDefinition/ah-brand",
        "valueReference": {
          "reference": "Organization/a-14268.Brand-1"
        }
      }
    ]
  },
  "fullUrl": "urn:uuid:d5268bec-7d57-59ef-84b6-a814898a4cb8"
}