{
  "resource": {
    "resourceType": "Organization",
    "id": "7902ec02-01c9-5ee3-938a-21473c25e2f4",
    "name": "Epic Foot and Ankle",
    "endpoint": [
      {
        "reference": "Endpoint/27a4e967-47aa-5a9c-a572-b8297ee268a2"
      },
      {
        "reference": "Endpoint/78ab90d8-f359-566c-bdf6-944172bd80fc"
      }
    ],
    "identifier": [
      {
        "system": "http://hl7.org/fhir/sid/us-npi",
        "value": "1477332336"
      }
    ],
    "address": [
      {
        "line": [
          "47601 GRAND RIVER AVE"
        ],
        "city": "NOVI",
        "state": "MI",
        "postalCode": "48374-1233"
      },
      {
        "line": [
          "44405 WOODWARD AVE"
        ],
        "city": "PONTIAC",
        "state": "MI",
        "postalCode": "48341-5023"
      },
      {
        "line": [
          "3990 JOHN R ST"
        ],
        "city": "DETROIT",
        "state": "MI",
        "postalCode": "48201-2018"
      },
      {
        "line": [
          "22720 MICHIGAN AVE STE 175"
        ],
        "city": "DEARBORN",
        "state": "MI",
        "postalCode": "48124-2000"
      },
      {
        "line": [
          "1101 W UNIVERSITY DR"
        ],
        "city": "ROCHESTER",
        "state": "MI",
        "postalCode": "48307-1863"
      },
      {
        "line": [
          "6071 W OUTER DR"
        ],
        "city": "DETROIT",
        "state": "MI",
        "postalCode": "48235-2624"
      },
      {
        "line": [
          "3601 W 13 MILE RD"
        ],
        "city": "ROYAL OAK",
        "state": "MI",
        "postalCode": "48073-6712"
      },
      {
        "line": [
          "28050 GRAND RIVER AVE"
        ],
        "city": "FARMINGTON",
        "state": "MI",
        "postalCode": "48336-5919"
      },
      {
        "line": [
          "4201 SAINT ANTOINE ST"
        ],
        "city": "DETROIT",
        "state": "MI",
        "postalCode": "48201-2153"
      },
      {
        "line": [
          "28500 ORCHARD LAKE RD"
        ],
        "city": "FARMINGTON",
        "state": "MI",
        "postalCode": "48334-2936"
      },
      {
        "line": [
          "42005 W 12 Mile Rd"
        ],
        "city": "NOVI",
        "state": "MI",
        "postalCode": "48377-3113"
      },
      {
        "line": [
          "555 BARCLAY CIR STE 100"
        ],
        "city": "ROCHESTER",
        "state": "MI",
        "postalCode": "48307-4574"
      },
      {
        "line": [
          "24353 ORCHARD LAKE RD"
        ],
        "city": "FARMINGTON",
        "state": "MI",
        "postalCode": "48336-1917"
      }
    ],
    "extension": [
      {
        "url": "https://fhir.athena.io/StructureDefinition/ah-practice",
        "valueReference": {
          "reference": "Organization/a-1.Practice-30386"
        }
      },
      {
        "url": "https://fhir.athena.io/StructureDefinition/ah-brand",
        "valueReference": {
          "reference": "Organization/a-30386.Brand-1"
        }
      }
    ]
  },
  "fullUrl": "urn:uuid:7902ec02-01c9-5ee3-938a-21473c25e2f4"
}