{
  "resource": {
    "resourceType": "Organization",
    "id": "621a7e82-c136-582c-8a15-024beb425bab",
    "name": "YMCA of Greater Cincinnati",
    "endpoint": [
      {
        "reference": "Endpoint/27a4e967-47aa-5a9c-a572-b8297ee268a2"
      },
      {
        "reference": "Endpoint/abb5f7d5-468e-5806-be46-fb2282afef02"
      }
    ],
    "identifier": [
      {
        "system": "http://hl7.org/fhir/sid/us-npi",
        "value": "1316492390"
      }
    ],
    "address": [
      {
        "line": [
          "1105 Elm Street"
        ],
        "city": "CINCINNATI",
        "state": "OH",
        "postalCode": "45202-7513"
      },
      {
        "line": [
          "7615 Camp Ernst Rd"
        ],
        "city": "BURLINGTON",
        "state": "KY",
        "postalCode": "41005-9409"
      },
      {
        "line": [
          "2075 James E. Sauls, Sr. Drive"
        ],
        "city": "BATAVIA",
        "state": "OH",
        "postalCode": "45103-3256"
      },
      {
        "line": [
          "PO Box 367"
        ],
        "city": "INDEPENDENCE",
        "state": "KY",
        "postalCode": "41051-0367"
      },
      {
        "line": [
          "1425B Linn Street"
        ],
        "city": "CINCINNATI",
        "state": "OH",
        "postalCode": "45214-1310"
      },
      {
        "line": [
          "2600 Clifton Ave."
        ],
        "city": "CINCINNATI",
        "state": "OH",
        "postalCode": "45220-2872"
      },
      {
        "line": [
          "9601 Winton Rd"
        ],
        "city": "CINCINNATI",
        "state": "OH",
        "postalCode": "45231-2637"
      },
      {
        "line": [
          "6474 Beechmont Ave."
        ],
        "city": "CINCINNATI",
        "state": "OH",
        "postalCode": "45230-2002"
      },
      {
        "line": [
          "8108 Clough Pike"
        ],
        "city": "CINCINNATI",
        "state": "OH",
        "postalCode": "45244-2745"
      },
      {
        "line": [
          "201 Diamond Dr"
        ],
        "city": "HILLSBORO",
        "state": "OH",
        "postalCode": "45133-5398"
      },
      {
        "line": [
          "5040 Kingsley Dr"
        ],
        "city": "CINCINNATI",
        "state": "OH",
        "postalCode": "45227-1115"
      },
      {
        "line": [
          "2840 Melrose Ave"
        ],
        "city": "CINCINNATI",
        "state": "OH",
        "postalCode": "45206-1214"
      },
      {
        "line": [
          "5874 Veterans Wy"
        ],
        "city": "BURLINGTON",
        "state": "KY",
        "postalCode": "41005-8824"
      },
      {
        "line": [
          "1437 S Fort Thomas Ave"
        ],
        "city": "FORT THOMAS",
        "state": "KY",
        "postalCode": "41075-2499"
      },
      {
        "line": [
          "8920 Cheviot Rd"
        ],
        "city": "CINCINNATI",
        "state": "OH",
        "postalCode": "45251-5910"
      },
      {
        "line": [
          "5000 YMCA Dr"
        ],
        "city": "CINCINNATI",
        "state": "OH",
        "postalCode": "45242-7444"
      },
      {
        "line": [
          "3159 Montana Ave"
        ],
        "city": "CINCINNATI",
        "state": "OH",
        "postalCode": "45211-6796"
      },
      {
        "line": [
          "2039 Sherman Ave"
        ],
        "city": "CINCINNATI",
        "state": "OH",
        "postalCode": "45212-2634"
      }
    ],
    "extension": [
      {
        "url": "https://fhir.athena.io/StructureDefinition/ah-practice",
        "valueReference": {
          "reference": "Organization/a-1.Practice-14268"
        }
      },
      {
        "url": "https://fhir.athena.io/StructureDefinition/ah-brand",
        "valueReference": {
          "reference": "Organization/a-14268.Brand-1"
        }
      }
    ]
  },
  "fullUrl": "urn:uuid:621a7e82-c136-582c-8a15-024beb425bab"
}