{
  "resource": {
    "resourceType": "Organization",
    "id": "6778f595-543f-5205-b292-285ce21e3d99",
    "name": "Citrus Medical Associates",
    "endpoint": [
      {
        "reference": "Endpoint/27a4e967-47aa-5a9c-a572-b8297ee268a2"
      },
      {
        "reference": "Endpoint/6a40c31a-8aa0-5b47-bafe-18d4889228a7"
      }
    ],
    "identifier": [
      {
        "system": "http://hl7.org/fhir/sid/us-npi",
        "value": "1417423344"
      }
    ],
    "address": [
      {
        "line": [
          "2333 N. Brentwood Circle"
        ],
        "city": "LECANTO",
        "state": "FL",
        "postalCode": "34461-8536"
      },
      {
        "line": [
          "611 Turner Camp Rd"
        ],
        "city": "INVERNESS",
        "state": "FL",
        "postalCode": "34453-1462"
      },
      {
        "line": [
          "4865 W Gulf to Lake Hwy"
        ],
        "city": "LECANTO",
        "state": "FL",
        "postalCode": "34461-8168"
      },
      {
        "line": [
          "216 S. Seminole Avenue"
        ],
        "city": "INVERNESS",
        "state": "FL",
        "postalCode": "34452-1462"
      },
      {
        "line": [
          "850 W NORVELL BRYANT HWY"
        ],
        "city": "HERNANDO",
        "state": "FL",
        "postalCode": "34442-5276"
      },
      {
        "line": [
          "5235 W Boatwright CT"
        ],
        "city": "LECANTO",
        "state": "FL",
        "postalCode": "34461-8595"
      },
      {
        "line": [
          "304 S. Citrus Avenue"
        ],
        "city": "INVERNESS",
        "state": "FL",
        "postalCode": "34452-4706"
      },
      {
        "line": [
          "114 W HIGHLAND BLVD"
        ],
        "city": "INVERNESS",
        "state": "FL",
        "postalCode": "34452-4819"
      },
      {
        "line": [
          "279 N LECANTO HWY"
        ],
        "city": "LECANTO",
        "state": "FL",
        "postalCode": "34461-9195"
      },
      {
        "line": [
          "5701 S Pleasant Grove Rd"
        ],
        "city": "INVERNESS",
        "state": "FL",
        "postalCode": "34452-8385"
      },
      {
        "line": [
          "2341 W. Norvell Bryant Hwy"
        ],
        "city": "LECANTO",
        "state": "FL",
        "postalCode": "34461-9348"
      },
      {
        "line": [
          "1745 Forest Drive"
        ],
        "city": "INVERNESS",
        "state": "FL",
        "postalCode": "34453-3832"
      },
      {
        "line": [
          "502 W. Highland Blvd"
        ],
        "city": "INVERNESS",
        "state": "FL",
        "postalCode": "34452-4720"
      },
      {
        "line": [
          "136 NE 12th Ave"
        ],
        "city": "CRYSTAL RIVER",
        "state": "FL",
        "postalCode": "34429-4553"
      },
      {
        "line": [
          "6201 N SUNCOAST BLVD"
        ],
        "city": "CRYSTAL RIVER",
        "state": "FL",
        "postalCode": "34428-6712"
      },
      {
        "line": [
          "502 W HIGHLAND BLVD"
        ],
        "city": "INVERNESS",
        "state": "FL",
        "postalCode": "34452-4720"
      },
      {
        "line": [
          "700 Medical Ct E"
        ],
        "city": "INVERNESS",
        "state": "FL",
        "postalCode": "34452-4698"
      },
      {
        "line": [
          "701 Medical Ct. E."
        ],
        "city": "INVERNESS",
        "state": "FL",
        "postalCode": "34452-4616"
      },
      {
        "line": [
          "124 W. Norvell Bryant Hwy"
        ],
        "city": "HERNANDO",
        "state": "FL",
        "postalCode": "34442-5105"
      },
      {
        "line": [
          "3325 W. Jerwayne Lane"
        ],
        "city": "LECANTO",
        "state": "FL",
        "postalCode": "34461-8397"
      },
      {
        "line": [
          "518 Ella Drive"
        ],
        "city": "INVERNESS",
        "state": "FL",
        "postalCode": "34450-3415"
      },
      {
        "line": [
          "3967 W NORVELL BRYANT HWY"
        ],
        "city": "LECANTO",
        "state": "FL",
        "postalCode": "34461-9661"
      },
      {
        "line": [
          "2730 W. Marc Knighton Ct."
        ],
        "city": "LECANTO",
        "state": "FL",
        "postalCode": "34461-8334"
      }
    ],
    "extension": [
      {
        "url": "https://fhir.athena.io/StructureDefinition/ah-practice",
        "valueReference": {
          "reference": "Organization/a-1.Practice-19044"
        }
      },
      {
        "url": "https://fhir.athena.io/StructureDefinition/ah-brand",
        "valueReference": {
          "reference": "Organization/a-19044.Brand-3"
        }
      }
    ]
  },
  "fullUrl": "urn:uuid:6778f595-543f-5205-b292-285ce21e3d99"
}