{
  "resource": {
    "resourceType": "Organization",
    "id": "7449e617-c070-595c-9f4b-be4791acad8f",
    "name": "Pinnacle Healthcare Services",
    "endpoint": [
      {
        "reference": "Endpoint/27a4e967-47aa-5a9c-a572-b8297ee268a2"
      },
      {
        "reference": "Endpoint/c83b6f6d-19d2-5dd6-9022-f42fba993182"
      }
    ],
    "identifier": [
      {
        "system": "http://hl7.org/fhir/sid/us-npi",
        "value": "1942635339"
      }
    ],
    "address": [
      {
        "line": [
          "50 INDIAN NECK RD"
        ],
        "city": "WAREHAM",
        "state": "MA",
        "postalCode": "02571-2174"
      },
      {
        "line": [
          "140 WOOD RD STE 104"
        ],
        "city": "BRAINTREE",
        "state": "MA",
        "postalCode": "02184-2512"
      },
      {
        "line": [
          "391 COMMON ST"
        ],
        "city": "DEDHAM",
        "state": "MA",
        "postalCode": "02026-4023"
      },
      {
        "line": [
          "1084 BROADWAY"
        ],
        "city": "RAYNHAM",
        "state": "MA",
        "postalCode": "02767-1976"
      },
      {
        "line": [
          "678 DEPOT ST"
        ],
        "city": "NORTH EASTON",
        "state": "MA",
        "postalCode": "02356-2768"
      },
      {
        "line": [
          "501 CORWAINER DR"
        ],
        "city": "NORWELL",
        "state": "MA",
        "postalCode": "02061-1630"
      },
      {
        "line": [
          "17 CHIPMAN WAY"
        ],
        "city": "KINGSTON",
        "state": "MA",
        "postalCode": "02364-1607"
      },
      {
        "line": [
          "160 GROVE ST"
        ],
        "city": "BRAINTREE",
        "state": "MA",
        "postalCode": "02184-7298"
      },
      {
        "line": [
          "656 KING ST"
        ],
        "city": "FRANKLIN",
        "state": "MA",
        "postalCode": "02038-2535"
      },
      {
        "line": [
          "329 WASHINGTON ST"
        ],
        "city": "NORWELL",
        "state": "MA",
        "postalCode": "02021-1737"
      },
      {
        "line": [
          "115 NORTH AVE"
        ],
        "city": "ROCKLAND",
        "state": "MA",
        "postalCode": "02370-2129"
      },
      {
        "line": [
          "64 PERFORMANCE DR"
        ],
        "city": "EAST WEYMOUTH",
        "state": "MA",
        "postalCode": "02189-3104"
      },
      {
        "line": [
          "175 REVERE ST"
        ],
        "city": "DORCHESTER",
        "state": "MA",
        "postalCode": "02121-2919"
      },
      {
        "line": [
          "56 WEBSTER ST"
        ],
        "city": "ROCKLAND",
        "state": "MA",
        "postalCode": "02370-1737"
      },
      {
        "line": [
          "2 BEAUMONT AVE"
        ],
        "city": "BROCKTON",
        "state": "MA",
        "postalCode": "02301-1529"
      },
      {
        "line": [
          "277 WASHINGTON ST"
        ],
        "city": "ABINGTON",
        "state": "MA",
        "postalCode": "02351-2489"
      }
    ],
    "extension": [
      {
        "url": "https://fhir.athena.io/StructureDefinition/ah-practice",
        "valueReference": {
          "reference": "Organization/a-1.Practice-19959"
        }
      },
      {
        "url": "https://fhir.athena.io/StructureDefinition/ah-brand",
        "valueReference": {
          "reference": "Organization/a-19959.Brand-1"
        }
      }
    ]
  },
  "fullUrl": "urn:uuid:7449e617-c070-595c-9f4b-be4791acad8f"
}