{
  "resource": {
    "resourceType": "Organization",
    "id": "e4546887-4e68-542c-a905-b45a030fd98c",
    "name": "Alamance Regional Medical Center",
    "endpoint": [
      {
        "reference": "Endpoint/27a4e967-47aa-5a9c-a572-b8297ee268a2"
      },
      {
        "reference": "Endpoint/1252db17-9a8d-5f37-a619-c402735d10a8"
      }
    ],
    "identifier": [
      {
        "system": "http://hl7.org/fhir/sid/us-npi",
        "value": "1942664677"
      },
      {
        "system": "http://hl7.org/fhir/sid/us-npi",
        "value": "1720449739"
      },
      {
        "system": "http://hl7.org/fhir/sid/us-npi",
        "value": "1326402074"
      },
      {
        "system": "http://hl7.org/fhir/sid/us-npi",
        "value": "1831552322"
      },
      {
        "system": "http://hl7.org/fhir/sid/us-npi",
        "value": "1417311168"
      },
      {
        "system": "http://hl7.org/fhir/sid/us-npi",
        "value": "1720123748"
      },
      {
        "system": "http://hl7.org/fhir/sid/us-npi",
        "value": "1376592964"
      },
      {
        "system": "http://hl7.org/fhir/sid/us-npi",
        "value": "1104289693"
      },
      {
        "system": "http://hl7.org/fhir/sid/us-npi",
        "value": "1265893291"
      },
      {
        "system": "http://hl7.org/fhir/sid/us-npi",
        "value": "1619338647"
      },
      {
        "system": "http://hl7.org/fhir/sid/us-npi",
        "value": "1710348784"
      },
      {
        "system": "http://hl7.org/fhir/sid/us-npi",
        "value": "1720722820"
      },
      {
        "system": "http://hl7.org/fhir/sid/us-npi",
        "value": "1881058535"
      },
      {
        "system": "http://hl7.org/fhir/sid/us-npi",
        "value": "1235593989"
      },
      {
        "system": "http://hl7.org/fhir/sid/us-npi",
        "value": "1972967628"
      },
      {
        "system": "http://hl7.org/fhir/sid/us-npi",
        "value": "1821452566"
      },
      {
        "system": "http://hl7.org/fhir/sid/us-npi",
        "value": "1821459850"
      }
    ],
    "address": [
      {
        "line": [
          "100 Perkins Dr"
        ],
        "city": "CHAPEL HILL",
        "state": "NC",
        "postalCode": "27514-1783"
      },
      {
        "line": [
          "799 DOCTORS CT"
        ],
        "city": "ROXBORO",
        "state": "NC",
        "postalCode": "27573-4571"
      },
      {
        "line": [
          "11550 Common Oaks Dr",
          "STE 100"
        ],
        "city": "RALEIGH",
        "state": "NC",
        "postalCode": "27614-8093"
      },
      {
        "line": [
          "3100 Duraleigh Rd",
          "STE 100"
        ],
        "city": "RALEIGH",
        "state": "NC",
        "postalCode": "27612-8105"
      },
      {
        "line": [
          "11550 Common Oaks Dr",
          "Suite 100"
        ],
        "city": "RALEIGH",
        "state": "NC",
        "postalCode": "27614-8093"
      },
      {
        "line": [
          "107 E McClanahan Street"
        ],
        "city": "OXFORD",
        "state": "NC",
        "postalCode": "27565-2919"
      },
      {
        "line": [
          "107 E McClanahan St"
        ],
        "city": "OXFORD",
        "state": "NC",
        "postalCode": "27565-2919"
      },
      {
        "line": [
          "741A TILGHMAN DR"
        ],
        "city": "DUNN",
        "state": "NC",
        "postalCode": "28334-5507"
      },
      {
        "line": [
          "1111 Huffman Mill Road"
        ],
        "city": "BURLINGTON",
        "state": "NC",
        "postalCode": "27215-8862"
      },
      {
        "line": [
          "1050 Revolution Mill Drive Suite 1A"
        ],
        "city": "GREENSBORO",
        "state": "NC",
        "postalCode": "27405-5053"
      },
      {
        "line": [
          "7810 NC 751 HWY",
          "Suite 150"
        ],
        "city": "DURHAM",
        "state": "NC",
        "postalCode": "27713-6850"
      },
      {
        "line": [
          "2196 VETERANS PKWY"
        ],
        "city": "CLAYTON",
        "state": "NC",
        "postalCode": "27520-8343"
      },
      {
        "line": [
          "1915 LENDEW ST"
        ],
        "city": "GREENSBORO",
        "state": "NC",
        "postalCode": "27401-1020"
      },
      {
        "line": [
          "910 W WILLIAMS ST"
        ],
        "city": "APEX",
        "state": "NC",
        "postalCode": "27502-5201"
      },
      {
        "line": [
          "7608 Purfoy Rd"
        ],
        "city": "FUQUAY VARINA",
        "state": "NC",
        "postalCode": "27526-8930"
      },
      {
        "line": [
          "7810 NC HIGHWAY 751",
          "Ste 100"
        ],
        "city": "DURHAM",
        "state": "NC",
        "postalCode": "27713-6924"
      },
      {
        "line": [
          "6330 Mount Herman Rd"
        ],
        "city": "RALEIGH",
        "state": "NC",
        "postalCode": "27617-8959"
      },
      {
        "line": [
          "3100 DURALEIGH RD STE 202"
        ],
        "city": "RALEIGH",
        "state": "NC",
        "postalCode": "27612-8104"
      },
      {
        "line": [
          "1803 Forest Hills Rd W"
        ],
        "city": "WILSON",
        "state": "NC",
        "postalCode": "27893-3412"
      },
      {
        "line": [
          "3100 DURALEIGH RD STE 100"
        ],
        "city": "RALEIGH",
        "state": "NC",
        "postalCode": "27612-8105"
      },
      {
        "line": [
          "1803 Forest Hills Rd"
        ],
        "city": "WILSON",
        "state": "NC",
        "postalCode": "27893-3142"
      },
      {
        "line": [
          "3100 Duraleigh Road",
          "STE 202"
        ],
        "city": "RALEIGH",
        "state": "NC",
        "postalCode": "27612-8105"
      },
      {
        "line": [
          "120 William Penn Plz"
        ],
        "city": "DURHAM",
        "state": "NC",
        "postalCode": "27704-2150"
      },
      {
        "line": [
          "7850 Brier Creek Pkwy"
        ],
        "city": "RALEIGH",
        "state": "NC",
        "postalCode": "27617-8900"
      },
      {
        "line": [
          "103 Professional Park Drive"
        ],
        "city": "OXFORD",
        "state": "NC",
        "postalCode": "27565-2581"
      },
      {
        "line": [
          "120 William Penn Plaza"
        ],
        "city": "DURHAM",
        "state": "NC",
        "postalCode": "27704-2150"
      },
      {
        "line": [
          "1301 Fayetteville St"
        ],
        "city": "DURHAM",
        "state": "NC",
        "postalCode": "27707-2325"
      },
      {
        "line": [
          "1820 James Street"
        ],
        "city": "DURHAM",
        "state": "NC",
        "postalCode": "27707-2024"
      },
      {
        "line": [
          "5160 Ocean Hwy W."
        ],
        "city": "SHALLOTTE",
        "state": "NC",
        "postalCode": "28470-5236"
      },
      {
        "line": [
          "1915 LENDEW STREET"
        ],
        "city": "GREENSBORO",
        "state": "NC",
        "postalCode": "27401-1020"
      },
      {
        "line": [
          "7921 ACC Blvd"
        ],
        "city": "RALEIGH",
        "state": "NC",
        "postalCode": "27617-8742"
      },
      {
        "line": [
          "1236 Huffman Mill Rd"
        ],
        "city": "BURLINGTON",
        "state": "NC",
        "postalCode": "27215-8700"
      },
      {
        "line": [
          "3787 Shipyard Blvd"
        ],
        "city": "WILMINGTON",
        "state": "NC",
        "postalCode": "28403-6148"
      },
      {
        "line": [
          "640 S VAN BUREN RD STE B"
        ],
        "city": "EDEN",
        "state": "NC",
        "postalCode": "27288-5365"
      },
      {
        "line": [
          "7850 Brier Creek Pkwy",
          "Ste 200"
        ],
        "city": "RALEIGH",
        "state": "NC",
        "postalCode": "27617-8900"
      },
      {
        "line": [
          "100 Kellie Dr"
        ],
        "city": "SMITHFIELD",
        "state": "NC",
        "postalCode": "27577-9444"
      },
      {
        "line": [
          "910 W Williams Street"
        ],
        "city": "APEX",
        "state": "NC",
        "postalCode": "27502-5201"
      },
      {
        "line": [
          "799 Doctors Ct"
        ],
        "city": "ROXBORO",
        "state": "NC",
        "postalCode": "27573-4571"
      },
      {
        "line": [
          "2131 S 17th St."
        ],
        "city": "WILMINGTON",
        "state": "NC",
        "postalCode": "28401-7407"
      },
      {
        "line": [
          "1240 Huffman Mill Rd."
        ],
        "city": "BURLINGTON",
        "state": "NC",
        "postalCode": "27215-8700"
      },
      {
        "line": [
          "1240 Huffman Mill Rd"
        ],
        "city": "BURLINGTON",
        "state": "NC",
        "postalCode": "27215-8700"
      },
      {
        "line": [
          "1130 N CHURCH ST SUITE 100"
        ],
        "city": "GREENSBORO",
        "state": "NC",
        "postalCode": "27401-1041"
      },
      {
        "line": [
          "50 13th Ave NE"
        ],
        "city": "HICKORY",
        "state": "NC",
        "postalCode": "28601-3767"
      },
      {
        "line": [
          "11550 Common Oaks Drive",
          "STE 100"
        ],
        "city": "RALEIGH",
        "state": "NC",
        "postalCode": "27614-8093"
      },
      {
        "line": [
          "1111 Huffman Mill Rd"
        ],
        "city": "BURLINGTON",
        "state": "NC",
        "postalCode": "27215-8862"
      },
      {
        "line": [
          "3100 Duraleigh Road Ste 100"
        ],
        "city": "RALEIGH",
        "state": "NC",
        "postalCode": "27612-8105"
      },
      {
        "line": [
          "1130 N CHURCH ST STE 100"
        ],
        "city": "GREENSBORO",
        "state": "NC",
        "postalCode": "27401-1041"
      },
      {
        "line": [
          "107 East McClanahan St"
        ],
        "city": "OXFORD",
        "state": "NC",
        "postalCode": "27565-2919"
      },
      {
        "line": [
          "11312 US 15-501",
          "Suite 401"
        ],
        "city": "CHAPEL HILL",
        "state": "NC",
        "postalCode": "27517-6377"
      },
      {
        "line": [
          "1803 Health Park",
          "Suite 109"
        ],
        "city": "RALEIGH",
        "state": "NC",
        "postalCode": "27615-4731"
      },
      {
        "line": [
          "910 West Williams St"
        ],
        "city": "APEX",
        "state": "NC",
        "postalCode": "27502-5201"
      },
      {
        "line": [
          "3200 Northline Avenue",
          "Suite 999"
        ],
        "city": "GREENSBORO",
        "state": "NC",
        "postalCode": "27408-7602"
      },
      {
        "line": [
          "107 E. McClanahan St"
        ],
        "city": "OXFORD",
        "state": "NC",
        "postalCode": "27565-2919"
      },
      {
        "line": [
          "100 KELLIE DR"
        ],
        "city": "SMITHFIELD",
        "state": "NC",
        "postalCode": "27577-9444"
      },
      {
        "line": [
          "7850 Brier Creek Pkwy",
          "Ste 300"
        ],
        "city": "RALEIGH",
        "state": "NC",
        "postalCode": "27617-8900"
      },
      {
        "line": [
          "120 William Penn PLaza"
        ],
        "city": "DURHAM",
        "state": "NC",
        "postalCode": "27704-2150"
      },
      {
        "line": [
          "107 E MCCLANAHAN ST"
        ],
        "city": "OXFORD",
        "state": "NC",
        "postalCode": "27565-2919"
      },
      {
        "line": [
          "5301 Wrightsville Ave"
        ],
        "city": "WILMINGTON",
        "state": "NC",
        "postalCode": "28403-6510"
      },
      {
        "line": [
          "1168 East Cutlar Crossing"
        ],
        "city": "LELAND",
        "state": "NC",
        "postalCode": "28451-6485"
      },
      {
        "line": [
          "1111 Huffman Mill Rd."
        ],
        "city": "BURLINGTON",
        "state": "NC",
        "postalCode": "27215-8862"
      },
      {
        "line": [
          "1130 N CHURCH ST",
          "Suite 100"
        ],
        "city": "GREENSBORO",
        "state": "NC",
        "postalCode": "27401-1041"
      },
      {
        "line": [
          "120 Wlliam Penn Plaza"
        ],
        "city": "DURHAM",
        "state": "NC",
        "postalCode": "27704-2150"
      },
      {
        "line": [
          "8300 Health Park",
          "Ste 107"
        ],
        "city": "RALEIGH",
        "state": "NC",
        "postalCode": "27615-4731"
      },
      {
        "line": [
          "107 McClanahan Street"
        ],
        "city": "OXFORD",
        "state": "NC",
        "postalCode": "27565-2919"
      },
      {
        "line": [
          "910 West Williams Street"
        ],
        "city": "APEX",
        "state": "NC",
        "postalCode": "27502-5201"
      },
      {
        "line": [
          "11550 Common Oaks Dr.",
          "STE 100"
        ],
        "city": "RALEIGH",
        "state": "NC",
        "postalCode": "27614-8093"
      },
      {
        "line": [
          "7810 NC Highway 751"
        ],
        "city": "DURHAM",
        "state": "NC",
        "postalCode": "27713-6850"
      },
      {
        "line": [
          "11550 Common Oaks Dr"
        ],
        "city": "RALEIGH",
        "state": "NC",
        "postalCode": "27614-8093"
      },
      {
        "line": [
          "180 River Bend Dr."
        ],
        "city": "GRANITE FALLS",
        "state": "NC",
        "postalCode": "28630-9371"
      },
      {
        "line": [
          "100 E DOGWOOD DR"
        ],
        "city": "MEBANE",
        "state": "NC",
        "postalCode": "27302-7746"
      },
      {
        "line": [
          "PO BOX 52385",
          "Mailstop 200"
        ],
        "city": "DURHAM",
        "state": "NC",
        "postalCode": "27717-2385"
      },
      {
        "line": [
          "120 william penn plaza"
        ],
        "city": "DURHAM",
        "state": "NC",
        "postalCode": "27704-2150"
      },
      {
        "line": [
          "803 Tilghman Dr.",
          "Suite 300"
        ],
        "city": "DUNN",
        "state": "NC",
        "postalCode": "28334-5509"
      },
      {
        "line": [
          "6019 Oleander Dr"
        ],
        "city": "WILMINGTON",
        "state": "NC",
        "postalCode": "28403-4796"
      },
      {
        "line": [
          "2165 Medical Park Dr"
        ],
        "city": "HICKORY",
        "state": "NC",
        "postalCode": "28602-8809"
      },
      {
        "line": [
          "439 US HIGHWAY 158 W"
        ],
        "city": "YANCEYVILLE",
        "state": "NC",
        "postalCode": "27379-8304"
      },
      {
        "line": [
          "2196 Veterans Pkwy"
        ],
        "city": "CLAYTON",
        "state": "NC",
        "postalCode": "27520-8343"
      }
    ],
    "extension": [
      {
        "url": "https://fhir.athena.io/StructureDefinition/ah-practice",
        "valueReference": {
          "reference": "Organization/a-1.Practice-847"
        }
      },
      {
        "url": "https://fhir.athena.io/StructureDefinition/ah-brand",
        "valueReference": {
          "reference": "Organization/a-847.Brand-4"
        }
      }
    ]
  },
  "fullUrl": "urn:uuid:e4546887-4e68-542c-a905-b45a030fd98c"
}