{
  "resource": {
    "resourceType": "Organization",
    "id": "7a66a3ba-6d28-5a09-ad68-937dc28a14fc",
    "name": "Cardiac Associates of North Jersey",
    "endpoint": [
      {
        "reference": "Endpoint/27a4e967-47aa-5a9c-a572-b8297ee268a2"
      },
      {
        "reference": "Endpoint/68b4d0de-7be1-5e00-a028-48d844fed185"
      }
    ],
    "identifier": [
      {
        "system": "http://hl7.org/fhir/sid/us-npi",
        "value": "1508891003"
      }
    ],
    "address": [
      {
        "line": [
          "4 Valley Health Plaza"
        ],
        "city": "PARAMUS",
        "state": "NJ",
        "postalCode": "07652-1000"
      },
      {
        "line": [
          "97 WEST PKWY"
        ],
        "city": "POMPTON PLAINS",
        "state": "NJ",
        "postalCode": "07444-1647"
      },
      {
        "line": [
          "43 YAWPO AVE STE 7"
        ],
        "city": "OAKLAND",
        "state": "NJ",
        "postalCode": "07436-2717"
      },
      {
        "line": [
          "30 PROSPECT AVE"
        ],
        "city": "HACKENSACK",
        "state": "NJ",
        "postalCode": "07601-9991"
      },
      {
        "line": [
          "350 ENGLE ST"
        ],
        "city": "ENGLEWOOD",
        "state": "NJ",
        "postalCode": "07631-1808"
      },
      {
        "line": [
          "43 YAWPO AVE"
        ],
        "city": "OAKLAND",
        "state": "NJ",
        "postalCode": "07436-2717"
      },
      {
        "line": [
          "W 90 RIDGEWOOD AVE"
        ],
        "city": "PARAMUS",
        "state": "NJ",
        "postalCode": "07652-5741"
      },
      {
        "line": [
          "20 BREAKNECK ROAD"
        ],
        "city": "OAKLAND",
        "state": "NJ",
        "postalCode": "07436-1426"
      },
      {
        "line": [
          "200 FAIRFIELD RD"
        ],
        "city": "FAIRFIELD",
        "state": "NJ",
        "postalCode": "07004-2426"
      }
    ],
    "extension": [
      {
        "url": "https://fhir.athena.io/StructureDefinition/ah-practice",
        "valueReference": {
          "reference": "Organization/a-1.Practice-27406"
        }
      },
      {
        "url": "https://fhir.athena.io/StructureDefinition/ah-brand",
        "valueReference": {
          "reference": "Organization/a-27406.Brand-4"
        }
      }
    ]
  },
  "fullUrl": "urn:uuid:7a66a3ba-6d28-5a09-ad68-937dc28a14fc"
}