{
  "resource": {
    "resourceType": "Organization",
    "id": "fb9ebe38-e6bf-5a85-8ea8-f2b2b3c969d5",
    "name": "Nelson R Kalaf MD",
    "endpoint": [
      {
        "reference": "Endpoint/27a4e967-47aa-5a9c-a572-b8297ee268a2"
      },
      {
        "reference": "Endpoint/5fc4c4e6-83ce-5937-981e-ee1fbf515862"
      }
    ],
    "identifier": [
      {
        "system": "http://hl7.org/fhir/sid/us-npi",
        "value": "1811028921"
      }
    ],
    "address": [
      {
        "line": [
          "615 N. WARE ROAD"
        ],
        "city": "MCALLEN",
        "state": "TX",
        "postalCode": "78501-8057"
      },
      {
        "line": [
          "600 N CYNTHIA ST"
        ],
        "city": "MCALLEN",
        "state": "TX",
        "postalCode": "78501-8702"
      },
      {
        "line": [
          "2023 E GRIFFIN PKWY"
        ],
        "city": "MISSION",
        "state": "TX",
        "postalCode": "78572-3222"
      },
      {
        "line": [
          "1013 S. BRYAN"
        ],
        "city": "MISSION",
        "state": "TX",
        "postalCode": "78572-6840"
      },
      {
        "line": [
          "1214 S. ALAMO"
        ],
        "city": "ALAMO",
        "state": "TX",
        "postalCode": "78516-7257"
      },
      {
        "line": [
          "2023 E. GRIFFIN PARKWAY"
        ],
        "city": "MISSION",
        "state": "TX",
        "postalCode": "78572-3222"
      },
      {
        "line": [
          "1200 S. BRYAN RD"
        ],
        "city": "MISSION",
        "state": "TX",
        "postalCode": "78572-6840"
      },
      {
        "line": [
          "812. W. HOUSTON AVENUE"
        ],
        "city": "MCALLEN",
        "state": "TX",
        "postalCode": "78501-2832"
      },
      {
        "line": [
          "3201 NORTH WARE ROAD"
        ],
        "city": "MCALLEN",
        "state": "TX",
        "postalCode": "78501-3305"
      },
      {
        "line": [
          "2655 CORNERSTONE BLVD"
        ],
        "city": "EDINBURG",
        "state": "TX",
        "postalCode": "78539-8479"
      }
    ],
    "extension": [
      {
        "url": "https://fhir.athena.io/StructureDefinition/ah-practice",
        "valueReference": {
          "reference": "Organization/a-1.Practice-23817"
        }
      },
      {
        "url": "https://fhir.athena.io/StructureDefinition/ah-brand",
        "valueReference": {
          "reference": "Organization/a-23817.Brand-1"
        }
      }
    ]
  },
  "fullUrl": "urn:uuid:fb9ebe38-e6bf-5a85-8ea8-f2b2b3c969d5"
}