{
  "resource": {
    "resourceType": "Organization",
    "id": "d883b611-c0f9-59e9-8e44-3453fe62824e",
    "name": "OROZCO ORTHOPAEDICS",
    "endpoint": [
      {
        "reference": "Endpoint/27a4e967-47aa-5a9c-a572-b8297ee268a2"
      },
      {
        "reference": "Endpoint/79e01aa2-46ad-5c4b-bf4c-94b2e460b014"
      }
    ],
    "identifier": [
      {
        "system": "http://hl7.org/fhir/sid/us-npi",
        "value": "1356981278"
      }
    ],
    "address": [
      {
        "line": [
          "65 West Jimmie Leeds Road"
        ],
        "city": "POMONA",
        "state": "NJ",
        "postalCode": "08240-0061"
      },
      {
        "line": [
          "1999 New Road",
          "STE B"
        ],
        "city": "LINWOOD",
        "state": "NJ",
        "postalCode": "08221-1060"
      },
      {
        "line": [
          "2500 English Creek Avenue Bldg 1200"
        ],
        "city": "EGG HARBOR TOWNSHIP",
        "state": "NJ",
        "postalCode": "08234-5549"
      },
      {
        "line": [
          "1925 PACIFIC AVE"
        ],
        "city": "ABSECON",
        "state": "NJ",
        "postalCode": "08205-9422"
      },
      {
        "line": [
          "1999 New Road, Suite B"
        ],
        "city": "LINWOOD",
        "state": "NJ",
        "postalCode": "08221-1060"
      },
      {
        "line": [
          "517 ROUTE 72 WEST,",
          "STE E"
        ],
        "city": "MANAHAWKIN",
        "state": "NJ",
        "postalCode": "08050-2821"
      },
      {
        "line": [
          "517 ROUTE 72 WEST",
          "STE K"
        ],
        "city": "MANAHAWKIN",
        "state": "NJ",
        "postalCode": "08050-2821"
      },
      {
        "line": [
          "373 SOUTH WHITE HORSE PIKE",
          "STE A"
        ],
        "city": "HAMMONTON",
        "state": "NJ",
        "postalCode": "08037-1135"
      }
    ],
    "extension": [
      {
        "url": "https://fhir.athena.io/StructureDefinition/ah-practice",
        "valueReference": {
          "reference": "Organization/a-1.Practice-21203"
        }
      },
      {
        "url": "https://fhir.athena.io/StructureDefinition/ah-brand",
        "valueReference": {
          "reference": "Organization/a-21203.Brand-1"
        }
      }
    ]
  },
  "fullUrl": "urn:uuid:d883b611-c0f9-59e9-8e44-3453fe62824e"
}