{
  "resource": {
    "resourceType": "Organization",
    "id": "dc2f4d04-d604-560c-ae69-b05b4c373801",
    "name": "Bayshore Medical Center",
    "endpoint": [
      {
        "reference": "Endpoint/27a4e967-47aa-5a9c-a572-b8297ee268a2"
      },
      {
        "reference": "Endpoint/5f11c352-cade-5181-bcfb-d89d93548d31"
      }
    ],
    "identifier": [
      {
        "system": "http://hl7.org/fhir/sid/us-npi",
        "value": "1083619191"
      },
      {
        "system": "http://hl7.org/fhir/sid/us-npi",
        "value": "1841643327"
      },
      {
        "system": "http://hl7.org/fhir/sid/us-npi",
        "value": "1790318566"
      },
      {
        "system": "http://hl7.org/fhir/sid/us-npi",
        "value": "1619503026"
      },
      {
        "system": "http://hl7.org/fhir/sid/us-npi",
        "value": "1295338358"
      },
      {
        "system": "http://hl7.org/fhir/sid/us-npi",
        "value": "1902400880"
      }
    ],
    "address": [
      {
        "line": [
          "11919 W AIRPORT BLVD"
        ],
        "city": "STAFFORD",
        "state": "TX",
        "postalCode": "77477-2409"
      },
      {
        "line": [
          "6801 Emmett F. Lowry Expy"
        ],
        "city": "TEXAS CITY",
        "state": "TX",
        "postalCode": "77591-2500"
      },
      {
        "line": [
          "7450 WILLOW CHASE BLVD"
        ],
        "city": "HOUSTON",
        "state": "TX",
        "postalCode": "77070-5867"
      },
      {
        "line": [
          "7401 South Main ST."
        ],
        "city": "HOUSTON",
        "state": "TX",
        "postalCode": "77030-4509"
      },
      {
        "line": [
          "15800 LONGENBAUGH DR"
        ],
        "city": "HOUSTON",
        "state": "TX",
        "postalCode": "77095-1620"
      },
      {
        "line": [
          "720 W 34th St.",
          "ste 100"
        ],
        "city": "AUSTIN",
        "state": "TX",
        "postalCode": "78705-1205"
      },
      {
        "line": [
          "14520 HIGHWAY 3"
        ],
        "city": "WEBSTER",
        "state": "TX",
        "postalCode": "77598-1832"
      },
      {
        "line": [
          "505 Bering Drive"
        ],
        "city": "HOUSTON",
        "state": "TX",
        "postalCode": "77057-1460"
      },
      {
        "line": [
          "14050 CUTTEN RD"
        ],
        "city": "HOUSTON",
        "state": "TX",
        "postalCode": "77069-2229"
      },
      {
        "line": [
          "2501 Westerland Drive"
        ],
        "city": "HOUSTON",
        "state": "TX",
        "postalCode": "77063-2207"
      },
      {
        "line": [
          "11900 Barryknoll LN"
        ],
        "city": "HOUSTON",
        "state": "TX",
        "postalCode": "77024-4459"
      },
      {
        "line": [
          "23370 JOHNSON RD"
        ],
        "city": "NEW CANEY",
        "state": "TX",
        "postalCode": "77357-7560"
      },
      {
        "line": [
          "117 Vision Park Blvd"
        ],
        "city": "SHENANDOAH",
        "state": "TX",
        "postalCode": "77384-3001"
      },
      {
        "line": [
          "9051 GREENHOUSE RD"
        ],
        "city": "CYPRESS",
        "state": "TX",
        "postalCode": "77433-5445"
      },
      {
        "line": [
          "14101 BAY POINTE CT"
        ],
        "city": "HOUSTON",
        "state": "TX",
        "postalCode": "77062-8107"
      },
      {
        "line": [
          "2635 Saddle Horn Trail"
        ],
        "city": "KATY",
        "state": "TX",
        "postalCode": "77494-5618"
      },
      {
        "line": [
          "13500 BRETON RIDGE ST"
        ],
        "city": "HOUSTON",
        "state": "TX",
        "postalCode": "77070-5815"
      },
      {
        "line": [
          "3151 Southfork Parkway"
        ],
        "city": "MANVEL",
        "state": "TX",
        "postalCode": "77578-1521"
      },
      {
        "line": [
          "25310 OAKHURST DR"
        ],
        "city": "SPRING",
        "state": "TX",
        "postalCode": "77386-1425"
      },
      {
        "line": [
          "5129 E. 5th, Katy"
        ],
        "city": "KATY",
        "state": "TX",
        "postalCode": "77493-2117"
      },
      {
        "line": [
          "400 E. Parkwood Drive"
        ],
        "city": "FRIENDSWOOD",
        "state": "TX",
        "postalCode": "77546-5175"
      },
      {
        "line": [
          "17808 Lakecrest View Drive"
        ],
        "city": "CYPRESS",
        "state": "TX",
        "postalCode": "77433-4959"
      },
      {
        "line": [
          "609 S. Pine Street"
        ],
        "city": "TOMBALL",
        "state": "TX",
        "postalCode": "77375-4616"
      },
      {
        "line": [
          "17935 Longenbaugh Road"
        ],
        "city": "CYPRESS",
        "state": "TX",
        "postalCode": "77433-6756"
      },
      {
        "line": [
          "929 ROCKMEAD DR"
        ],
        "city": "KINGWOOD",
        "state": "TX",
        "postalCode": "77339-2178"
      },
      {
        "line": [
          "8580 Woodway"
        ],
        "city": "HOUSTON",
        "state": "TX",
        "postalCode": "77063-2423"
      },
      {
        "line": [
          "23626 SAWMILL PASS"
        ],
        "city": "SPRING",
        "state": "TX",
        "postalCode": "77373-8575"
      },
      {
        "line": [
          "702 Crenshaw Road"
        ],
        "city": "PASADENA",
        "state": "TX",
        "postalCode": "77504-3734"
      },
      {
        "line": [
          "7400 CLAREWOOD DR"
        ],
        "city": "HOUSTON",
        "state": "TX",
        "postalCode": "77036-4380"
      },
      {
        "line": [
          "2121 Pinegate"
        ],
        "city": "HOUSTON",
        "state": "TX",
        "postalCode": "77008-1388"
      },
      {
        "line": [
          "7210 NORTHLINE DR"
        ],
        "city": "HOUSTON",
        "state": "TX",
        "postalCode": "77076-1517"
      },
      {
        "line": [
          "2929 W. Holcombe Blvd."
        ],
        "city": "HOUSTON",
        "state": "TX",
        "postalCode": "77025-1534"
      },
      {
        "line": [
          "4000 SPENCER HWY"
        ],
        "city": "PASADENA",
        "state": "TX",
        "postalCode": "77504-1202"
      },
      {
        "line": [
          "6420 Cypresswood Drive"
        ],
        "city": "SPRING",
        "state": "TX",
        "postalCode": "77379-8775"
      },
      {
        "line": [
          "1405 Adams Street"
        ],
        "city": "MISSOURI CITY",
        "state": "TX",
        "postalCode": "77489-1516"
      },
      {
        "line": [
          "1222 Park West Green Drive"
        ],
        "city": "KATY",
        "state": "TX",
        "postalCode": "77493-3654"
      },
      {
        "line": [
          "1714 CHESTNUT RIDGE RD"
        ],
        "city": "KINGWOOD",
        "state": "TX",
        "postalCode": "77339-3012"
      },
      {
        "line": [
          "21700 Bellaire Blvd."
        ],
        "city": "HOUSTON",
        "state": "TX",
        "postalCode": "77077-3906"
      },
      {
        "line": [
          "2929 POST OAK BLVD"
        ],
        "city": "HOUSTON",
        "state": "TX",
        "postalCode": "77056-6120"
      },
      {
        "line": [
          "1815 Enclave Parkway"
        ],
        "city": "HOUSTON",
        "state": "TX",
        "postalCode": "77077-3671"
      },
      {
        "line": [
          "3505 FM 1092 Road"
        ],
        "city": "MISSOURI CITY",
        "state": "TX",
        "postalCode": "77459-2255"
      },
      {
        "line": [
          "9889 Kempwood Drive"
        ],
        "city": "HOUSTON",
        "state": "TX",
        "postalCode": "77080-1111"
      },
      {
        "line": [
          "2855 WESTMINSTER PLAZA DR"
        ],
        "city": "HOUSTON",
        "state": "TX",
        "postalCode": "77082-2960"
      },
      {
        "line": [
          "1321 Park Bayou Drive"
        ],
        "city": "HOUSTON",
        "state": "TX",
        "postalCode": "77077-1507"
      },
      {
        "line": [
          "32303 Pintail Street"
        ],
        "city": "BROOKSHIRE",
        "state": "TX",
        "postalCode": "77423-9169"
      },
      {
        "line": [
          "11500 FALLBROOK DR"
        ],
        "city": "HOUSTON",
        "state": "TX",
        "postalCode": "77065-4280"
      },
      {
        "line": [
          "16306 Spring Cypress Road"
        ],
        "city": "CYPRESS",
        "state": "TX",
        "postalCode": "77429-7536"
      },
      {
        "line": [
          "14703 Eagle Vista Drive"
        ],
        "city": "HOUSTON",
        "state": "TX",
        "postalCode": "77077-5394"
      },
      {
        "line": [
          "2029 FM 1092"
        ],
        "city": "MISSOURI CITY",
        "state": "TX",
        "postalCode": "77459-1702"
      },
      {
        "line": [
          "3033 Pearland Parkway"
        ],
        "city": "PEARLAND",
        "state": "TX",
        "postalCode": "77581-4162"
      },
      {
        "line": [
          "2555 S BRAESWOOD BLVD"
        ],
        "city": "HOUSTON",
        "state": "TX",
        "postalCode": "77025-2827"
      },
      {
        "line": [
          "3718 Lake Edinburg Lane"
        ],
        "city": "RICHMOND",
        "state": "TX",
        "postalCode": "77406-8268"
      },
      {
        "line": [
          "10090 RUSHING RD STE B"
        ],
        "city": "EL PASO",
        "state": "TX",
        "postalCode": "79924-3803"
      },
      {
        "line": [
          "151 Commerce Green Blvd."
        ],
        "city": "SUGAR LAND",
        "state": "TX",
        "postalCode": "77478-5573"
      },
      {
        "line": [
          "22003 Southwest FWY"
        ],
        "city": "RICHMOND",
        "state": "TX",
        "postalCode": "77469-7003"
      },
      {
        "line": [
          "1625 MEDICAL CENTER DR"
        ],
        "city": "EL PASO",
        "state": "TX",
        "postalCode": "79902-5005"
      },
      {
        "line": [
          "1901 N AMBURN RD"
        ],
        "city": "TEXAS CITY",
        "state": "TX",
        "postalCode": "77591-2488"
      },
      {
        "line": [
          "5665 Creekside Forest Dr"
        ],
        "city": "SPRING",
        "state": "TX",
        "postalCode": "77389-4969"
      },
      {
        "line": [
          "500 Enterprise Avenue"
        ],
        "city": "LEAGUE CITY",
        "state": "TX",
        "postalCode": "77573-2924"
      },
      {
        "line": [
          "14221 Vintage Preserve Parkway"
        ],
        "city": "HOUSTON",
        "state": "TX",
        "postalCode": "77070-2195"
      },
      {
        "line": [
          "2907 Broadway Bend Drive"
        ],
        "city": "PEARLAND",
        "state": "TX",
        "postalCode": "77584-2258"
      },
      {
        "line": [
          "1520 Katy Gap Road"
        ],
        "city": "KATY",
        "state": "TX",
        "postalCode": "77494-7405"
      },
      {
        "line": [
          "16900 Lexington Blvd"
        ],
        "city": "SUGAR LAND",
        "state": "TX",
        "postalCode": "77479-2364"
      },
      {
        "line": [
          "16700 Ella Blvd"
        ],
        "city": "HOUSTON",
        "state": "TX",
        "postalCode": "77090-4214"
      },
      {
        "line": [
          "11246 Fallbrook Drive"
        ],
        "city": "HOUSTON",
        "state": "TX",
        "postalCode": "77065-4273"
      },
      {
        "line": [
          "2121 Scarsdale Blvd."
        ],
        "city": "PEARLAND",
        "state": "TX",
        "postalCode": "77581-5190"
      },
      {
        "line": [
          "1020 N COLLINS ST"
        ],
        "city": "ARLINGTON",
        "state": "TX",
        "postalCode": "76011-6134"
      },
      {
        "line": [
          "9055 Katy Freeway"
        ],
        "city": "HOUSTON",
        "state": "TX",
        "postalCode": "77024-1629"
      },
      {
        "line": [
          "780 Bay Area Blvd"
        ],
        "city": "WEBSTER",
        "state": "TX",
        "postalCode": "77598-4066"
      },
      {
        "line": [
          "17200 St Lukes Way"
        ],
        "city": "THE WOODLANDS",
        "state": "TX",
        "postalCode": "77384-8007"
      },
      {
        "line": [
          "5020 KELVIN DR"
        ],
        "city": "HOUSTON",
        "state": "TX",
        "postalCode": "77005-2533"
      },
      {
        "line": [
          "5055 W PANTHER CREEK DR"
        ],
        "city": "SPRING",
        "state": "TX",
        "postalCode": "77381-3500"
      },
      {
        "line": [
          "2021 FM 1092 RD"
        ],
        "city": "MISSOURI CITY",
        "state": "TX",
        "postalCode": "77459-1702"
      },
      {
        "line": [
          "21601 Provincial Blvd"
        ],
        "city": "KATY",
        "state": "TX",
        "postalCode": "77450-6510"
      },
      {
        "line": [
          "2620 W Walker"
        ],
        "city": "LEAGUE CITY",
        "state": "TX",
        "postalCode": "77573-6812"
      },
      {
        "line": [
          "1581 AUSTIN HWY STE 102"
        ],
        "city": "SAN ANTONIO",
        "state": "TX",
        "postalCode": "78218-1860"
      },
      {
        "line": [
          "4810 Aquagate Drive"
        ],
        "city": "SPRING",
        "state": "TX",
        "postalCode": "77373-4943"
      },
      {
        "line": [
          "11395 Richmond Avenue"
        ],
        "city": "HOUSTON",
        "state": "TX",
        "postalCode": "77082-2615"
      },
      {
        "line": [
          "604 Conroe Medical Dr"
        ],
        "city": "CONROE",
        "state": "TX",
        "postalCode": "77304-4722"
      },
      {
        "line": [
          "2807 KINGS CROSSING DR"
        ],
        "city": "KINGWOOD",
        "state": "TX",
        "postalCode": "77345-5450"
      },
      {
        "line": [
          "11424 Richmond Ave."
        ],
        "city": "HOUSTON",
        "state": "TX",
        "postalCode": "77082-2519"
      },
      {
        "line": [
          "13825 LEXINGTON BLVD"
        ],
        "city": "SUGAR LAND",
        "state": "TX",
        "postalCode": "77478-5364"
      },
      {
        "line": [
          "13415 Medical Complex Drive"
        ],
        "city": "TOMBALL",
        "state": "TX",
        "postalCode": "77375-3343"
      },
      {
        "line": [
          "15055 N. Eldridge Parkway"
        ],
        "city": "CYPRESS",
        "state": "TX",
        "postalCode": "77429-3668"
      },
      {
        "line": [
          "1 Diamond Hill Rd"
        ],
        "city": "BERKELEY HEIGHTS",
        "state": "NJ",
        "postalCode": "07922-2104"
      },
      {
        "line": [
          "2000 EAST BLVD"
        ],
        "city": "DEER PARK",
        "state": "TX",
        "postalCode": "77536-2065"
      },
      {
        "line": [
          "409 W Green"
        ],
        "city": "WEBSTER",
        "state": "TX",
        "postalCode": "77598-6701"
      },
      {
        "line": [
          "12809 Almeda Genoa Road"
        ],
        "city": "HOUSTON",
        "state": "TX",
        "postalCode": "77034-4637"
      },
      {
        "line": [
          "11718 Bedford Street"
        ],
        "city": "HOUSTON",
        "state": "TX",
        "postalCode": "77031-2112"
      },
      {
        "line": [
          "4004 Vista Road"
        ],
        "city": "PASADENA",
        "state": "TX",
        "postalCode": "77504-2163"
      },
      {
        "line": [
          "8426 OPALWOOD LN"
        ],
        "city": "HUMBLE",
        "state": "TX",
        "postalCode": "77338-2746"
      },
      {
        "line": [
          "12102 Steepleway Blvd."
        ],
        "city": "HOUSTON",
        "state": "TX",
        "postalCode": "77065-4759"
      },
      {
        "line": [
          "770 BROOKS ST"
        ],
        "city": "SUGAR LAND",
        "state": "TX",
        "postalCode": "77478-4632"
      },
      {
        "line": [
          "19400 Space Center Blvd."
        ],
        "city": "HOUSTON",
        "state": "TX",
        "postalCode": "77058-3791"
      },
      {
        "line": [
          "8625 DAVIS BLVD"
        ],
        "city": "NORTH RICHLAND HILLS",
        "state": "TX",
        "postalCode": "76182-8362"
      },
      {
        "line": [
          "8304 Beechnut"
        ],
        "city": "HOUSTON",
        "state": "TX",
        "postalCode": "77036-6854"
      },
      {
        "line": [
          "18550 IH 45 South"
        ],
        "city": "CONROE",
        "state": "TX",
        "postalCode": "77384-4119"
      },
      {
        "line": [
          "5000 CYPRESSWOOD DR"
        ],
        "city": "SPRING",
        "state": "TX",
        "postalCode": "77379-1500"
      },
      {
        "line": [
          "2001 N OREGON ST"
        ],
        "city": "EL PASO",
        "state": "TX",
        "postalCode": "79902-3320"
      },
      {
        "line": [
          "9235 Katy Freeway Houston"
        ],
        "city": "HOUSTON",
        "state": "TX",
        "postalCode": "77024-1522"
      },
      {
        "line": [
          "12102 STEEPLE WAY BLVD"
        ],
        "city": "HOUSTON",
        "state": "TX",
        "postalCode": "77065-4759"
      },
      {
        "line": [
          "8215 Cypresswood Drive"
        ],
        "city": "SPRING",
        "state": "TX",
        "postalCode": "77379-7466"
      },
      {
        "line": [
          "21939 Cinco Ranch Blvd"
        ],
        "city": "KATY",
        "state": "TX",
        "postalCode": "77450-1779"
      },
      {
        "line": [
          "7575 Willow Chase Blvd."
        ],
        "city": "HOUSTON",
        "state": "TX",
        "postalCode": "77070-5935"
      },
      {
        "line": [
          "6400 OILFIELD RD"
        ],
        "city": "SUGAR LAND",
        "state": "TX",
        "postalCode": "77479-9622"
      },
      {
        "line": [
          "8727 Seber Drive"
        ],
        "city": "TOMBALL",
        "state": "TX",
        "postalCode": "77375-5230"
      },
      {
        "line": [
          "5409 Croix Road"
        ],
        "city": "MANVEL",
        "state": "TX",
        "postalCode": "77578-2722"
      },
      {
        "line": [
          "9055 KATY FWY",
          "STE 200"
        ],
        "city": "HOUSTON",
        "state": "TX",
        "postalCode": "77024-1624"
      },
      {
        "line": [
          "2835 Shadowbriar Drive"
        ],
        "city": "HOUSTON",
        "state": "TX",
        "postalCode": "77077-3267"
      },
      {
        "line": [
          "24025 KINGWOOD PLACE DR"
        ],
        "city": "KINGWOOD",
        "state": "TX",
        "postalCode": "77339-3862"
      },
      {
        "line": [
          "720 W 34TH ST"
        ],
        "city": "AUSTIN",
        "state": "TX",
        "postalCode": "78705-1205"
      },
      {
        "line": [
          "2100 Village Living Court"
        ],
        "city": "SUGAR LAND",
        "state": "TX",
        "postalCode": "77479-7497"
      },
      {
        "line": [
          "513 FM 359 RD"
        ],
        "city": "RICHMOND",
        "state": "TX",
        "postalCode": "77406-2001"
      },
      {
        "line": [
          "1725 Eldridge Parkway"
        ],
        "city": "HOUSTON",
        "state": "TX",
        "postalCode": "77077-3567"
      },
      {
        "line": [
          "1221 Graham Drive"
        ],
        "city": "TOMBALL",
        "state": "TX",
        "postalCode": "77375-6407"
      },
      {
        "line": [
          "7001 Riverbrook Drive"
        ],
        "city": "SUGAR LAND",
        "state": "TX",
        "postalCode": "77479-6508"
      },
      {
        "line": [
          "4120 Southwest Fwy. Ste 100"
        ],
        "city": "HOUSTON",
        "state": "TX",
        "postalCode": "77027-0500"
      },
      {
        "line": [
          "2275 THOMAS TRACE RD"
        ],
        "city": "FRIENDSWOOD",
        "state": "TX",
        "postalCode": "77546-2263"
      },
      {
        "line": [
          "14902 WELCOME LN"
        ],
        "city": "HOUSTON",
        "state": "TX",
        "postalCode": "77014-1406"
      },
      {
        "line": [
          "801 N POST OAK RD"
        ],
        "city": "HOUSTON",
        "state": "TX",
        "postalCode": "77024-3879"
      },
      {
        "line": [
          "2607 Manorwood"
        ],
        "city": "SUGAR LAND",
        "state": "TX",
        "postalCode": "77478-1845"
      },
      {
        "line": [
          "9055 KATY FWY",
          "Suite 200"
        ],
        "city": "HOUSTON",
        "state": "TX",
        "postalCode": "77024-1624"
      },
      {
        "line": [
          "7401 Main St."
        ],
        "city": "HOUSTON",
        "state": "TX",
        "postalCode": "77030-4509"
      }
    ],
    "extension": [
      {
        "url": "https://fhir.athena.io/StructureDefinition/ah-practice",
        "valueReference": {
          "reference": "Organization/a-1.Practice-13711"
        }
      },
      {
        "url": "https://fhir.athena.io/StructureDefinition/ah-brand",
        "valueReference": {
          "reference": "Organization/a-13711.Brand-1"
        }
      }
    ]
  },
  "fullUrl": "urn:uuid:dc2f4d04-d604-560c-ae69-b05b4c373801"
}