{
  "resource": {
    "resourceType": "Organization",
    "id": "ac2a613a-164e-51c6-aa95-2b54b5c175ee",
    "name": "Andrew Marlowe, MD Ear, Nose and Throat",
    "endpoint": [
      {
        "reference": "Endpoint/27a4e967-47aa-5a9c-a572-b8297ee268a2"
      },
      {
        "reference": "Endpoint/23d036d2-b937-5dca-9074-093542f70246"
      }
    ],
    "identifier": [
      {
        "system": "http://hl7.org/fhir/sid/us-npi",
        "value": "1750339776"
      }
    ],
    "address": [
      {
        "line": [
          "1941 WALDEMERE ST"
        ],
        "city": "SARASOTA",
        "state": "FL",
        "postalCode": "34239-2922"
      },
      {
        "line": [
          "4937 CLARK RD STE 101"
        ],
        "city": "SARASOTA",
        "state": "FL",
        "postalCode": "34233-3241"
      },
      {
        "line": [
          "8330 LAKEWOOD RANCH BLVD"
        ],
        "city": "BRADENTON",
        "state": "FL",
        "postalCode": "34202-5174"
      },
      {
        "line": [
          "983 S BENEVA RD"
        ],
        "city": "SARASOTA",
        "state": "FL",
        "postalCode": "34232-2401"
      },
      {
        "line": [
          "3201 S TAMIAMI TRAIL"
        ],
        "city": "SARASOTA",
        "state": "FL",
        "postalCode": "34239-5112"
      },
      {
        "line": [
          "1700 S TAMIAMI TRAIL"
        ],
        "city": "SARASOTA",
        "state": "FL",
        "postalCode": "34239-3509"
      },
      {
        "line": [
          "4937 CLARK RD STE 101"
        ],
        "city": "SARASOTA",
        "state": "FL",
        "postalCode": "34233-3252"
      },
      {
        "line": [
          "7333 SCOTLAND WAY"
        ],
        "city": "SARASOTA",
        "state": "FL",
        "postalCode": "34238-8530"
      },
      {
        "line": [
          "5741 BEE RIDGE RD STE 100"
        ],
        "city": "SARASOTA",
        "state": "FL",
        "postalCode": "34233-5060"
      }
    ],
    "extension": [
      {
        "url": "https://fhir.athena.io/StructureDefinition/ah-practice",
        "valueReference": {
          "reference": "Organization/a-1.Practice-21525"
        }
      },
      {
        "url": "https://fhir.athena.io/StructureDefinition/ah-brand",
        "valueReference": {
          "reference": "Organization/a-21525.Brand-1"
        }
      }
    ]
  },
  "fullUrl": "urn:uuid:ac2a613a-164e-51c6-aa95-2b54b5c175ee"
}