{
  "resource": {
    "resourceType": "Organization",
    "id": "d3ab286b-37ec-5772-bc9b-8e0a3e38c941",
    "name": "Radiant Surgical Specialists of NTX",
    "endpoint": [
      {
        "reference": "Endpoint/27a4e967-47aa-5a9c-a572-b8297ee268a2"
      },
      {
        "reference": "Endpoint/be91c0b9-d021-5a5d-8902-801d65c79d52"
      }
    ],
    "identifier": [
      {
        "system": "http://hl7.org/fhir/sid/us-npi",
        "value": "1427626696"
      },
      {
        "system": "http://hl7.org/fhir/sid/us-npi",
        "value": "1144630609"
      }
    ],
    "address": [
      {
        "line": [
          "5500 FRISCO SQUARE BLVD"
        ],
        "city": "FRISCO",
        "state": "TX",
        "postalCode": "75034-3305"
      },
      {
        "line": [
          "3901 W 15TH ST"
        ],
        "city": "PLANO",
        "state": "TX",
        "postalCode": "75075-7738"
      },
      {
        "line": [
          "1105 N CENTRAL EXPY"
        ],
        "city": "ALLEN",
        "state": "TX",
        "postalCode": "75013-6103"
      },
      {
        "line": [
          "4500 MEDICAL CENTER DR"
        ],
        "city": "MCKINNEY",
        "state": "TX",
        "postalCode": "75069-1650"
      },
      {
        "line": [
          "4510 Medical Center Drive, Suite 150"
        ],
        "city": "MCKINNEY",
        "state": "TX",
        "postalCode": "75069-1650"
      },
      {
        "line": [
          "1105 CENTRAL EXPY N STE 2350"
        ],
        "city": "ALLEN",
        "state": "TX",
        "postalCode": "75013-6116"
      },
      {
        "line": [
          "12400 DALLAS PKWY"
        ],
        "city": "FRISCO",
        "state": "TX",
        "postalCode": "75033-4224"
      },
      {
        "line": [
          "4005 W. 15th Street"
        ],
        "city": "PLANO",
        "state": "TX",
        "postalCode": "75093-5818"
      },
      {
        "line": [
          "8080 STATE HWY 121, SUITE 100"
        ],
        "city": "MCKINNEY",
        "state": "TX",
        "postalCode": "75070-2903"
      },
      {
        "line": [
          "12505 LEBANON RD"
        ],
        "city": "FRISCO",
        "state": "TX",
        "postalCode": "75035-8298"
      },
      {
        "line": [
          "931 STATE HIGHWAY 121",
          "SUITE 3300"
        ],
        "city": "ALLEN",
        "state": "TX",
        "postalCode": "75013-1184"
      },
      {
        "line": [
          "6200 W PARKER ROAD"
        ],
        "city": "PLANO",
        "state": "TX",
        "postalCode": "75093-8185"
      },
      {
        "line": [
          "5252 W UNIVERSITY DR"
        ],
        "city": "MCKINNEY",
        "state": "TX",
        "postalCode": "75071-7822"
      },
      {
        "line": [
          "5575 FRISCO SQUARE BLVD STE 100"
        ],
        "city": "FRISCO",
        "state": "TX",
        "postalCode": "75034-3309"
      },
      {
        "line": [
          "17950 PRESTON RD"
        ],
        "city": "DALLAS",
        "state": "TX",
        "postalCode": "75252-5793"
      }
    ],
    "extension": [
      {
        "url": "https://fhir.athena.io/StructureDefinition/ah-practice",
        "valueReference": {
          "reference": "Organization/a-1.Practice-24017"
        }
      },
      {
        "url": "https://fhir.athena.io/StructureDefinition/ah-brand",
        "valueReference": {
          "reference": "Organization/a-24017.Brand-1"
        }
      }
    ]
  },
  "fullUrl": "urn:uuid:d3ab286b-37ec-5772-bc9b-8e0a3e38c941"
}