{
  "resource": {
    "resourceType": "Organization",
    "id": "3632c783-f7ab-504b-b309-d1668f0576fd",
    "name": "Doctor Kuo's Office",
    "endpoint": [
      {
        "reference": "Endpoint/27a4e967-47aa-5a9c-a572-b8297ee268a2"
      },
      {
        "reference": "Endpoint/ec0720b1-53eb-5009-ae48-e882aa1ce51d"
      }
    ],
    "identifier": [
      {
        "system": "http://hl7.org/fhir/sid/us-npi",
        "value": "1881778157"
      }
    ],
    "address": [
      {
        "line": [
          "208 MAPLE ST"
        ],
        "city": "LULING",
        "state": "TX",
        "postalCode": "78648-2164"
      },
      {
        "line": [
          "1219 EASTWOOD DR."
        ],
        "city": "SEGUIN",
        "state": "TX",
        "postalCode": "78155-5133"
      },
      {
        "line": [
          "1637 N. KING ST."
        ],
        "city": "SEGUIN",
        "state": "TX",
        "postalCode": "78155-2109"
      },
      {
        "line": [
          "1003 CARSON DR"
        ],
        "city": "MAGNOLIA",
        "state": "TX",
        "postalCode": "77354-3142"
      },
      {
        "line": [
          "1210 EASTWOOD DRIVE"
        ],
        "city": "SEGUIN",
        "state": "TX",
        "postalCode": "78155-5134"
      },
      {
        "line": [
          "1210 Eastwood Drive"
        ],
        "city": "SEGUIN",
        "state": "TX",
        "postalCode": "78155-5134"
      },
      {
        "line": [
          "1356 E. WALNUT ST"
        ],
        "city": "SEGUIN",
        "state": "TX",
        "postalCode": "78155-5126"
      },
      {
        "line": [
          "1356 E. WALNUT"
        ],
        "city": "SEGUIN",
        "state": "TX",
        "postalCode": "78155-5126"
      },
      {
        "line": [
          "1215 ASHBY ST."
        ],
        "city": "SEGUIN",
        "state": "TX",
        "postalCode": "78155-5101"
      },
      {
        "line": [
          "1356 E WALNUT ST"
        ],
        "city": "SEGUIN",
        "state": "TX",
        "postalCode": "78155-5126"
      },
      {
        "line": [
          "1339 EASTWOOD DR."
        ],
        "city": "SEGUIN",
        "state": "TX",
        "postalCode": "78155-5135"
      },
      {
        "line": [
          "953 S STATE HWY 123 BYPASS"
        ],
        "city": "SEGUIN",
        "state": "TX",
        "postalCode": "78155-9744"
      },
      {
        "line": [
          "226 PRESTON DR"
        ],
        "city": "SEGUIN",
        "state": "TX",
        "postalCode": "78155-5255"
      }
    ],
    "extension": [
      {
        "url": "https://fhir.athena.io/StructureDefinition/ah-practice",
        "valueReference": {
          "reference": "Organization/a-1.Practice-16193"
        }
      },
      {
        "url": "https://fhir.athena.io/StructureDefinition/ah-brand",
        "valueReference": {
          "reference": "Organization/a-16193.Brand-1"
        }
      }
    ]
  },
  "fullUrl": "urn:uuid:3632c783-f7ab-504b-b309-d1668f0576fd"
}