{
  "resource": {
    "resourceType": "Organization",
    "id": "04cb46d2-7029-59fd-8885-56d316f9b510",
    "name": "Primary Care House Calls",
    "endpoint": [
      {
        "reference": "Endpoint/27a4e967-47aa-5a9c-a572-b8297ee268a2"
      },
      {
        "reference": "Endpoint/2a0bca60-6e6b-5269-b838-d2e009a8c75c"
      }
    ],
    "identifier": [
      {
        "system": "http://hl7.org/fhir/sid/us-npi",
        "value": "1770902462"
      }
    ],
    "address": [
      {
        "line": [
          "1851 W TEN MILE RD"
        ],
        "city": "CANTONMENT",
        "state": "FL",
        "postalCode": "32533-7758"
      },
      {
        "line": [
          "639 BROOKMEADE DR",
          "Katie Manor"
        ],
        "city": "CRESTVIEW",
        "state": "FL",
        "postalCode": "32539-6212"
      },
      {
        "line": [
          "901 SOMERBY DR"
        ],
        "city": "MOBILE",
        "state": "AL",
        "postalCode": "36695-3479"
      },
      {
        "line": [
          "2000 PRINCIPAL LANE"
        ],
        "city": "FORT WALTON BEACH",
        "state": "FL",
        "postalCode": "32547-6636"
      },
      {
        "line": [
          "650 INDUSTRIAL DR"
        ],
        "city": "CRESTVIEW",
        "state": "FL",
        "postalCode": "32539-2208"
      },
      {
        "line": [
          "7830 PINE FOREST RD."
        ],
        "city": "PENSACOLA",
        "state": "FL",
        "postalCode": "32526-8404"
      },
      {
        "line": [
          "5918 DAVIS HWY."
        ],
        "city": "PENSACOLA",
        "state": "FL",
        "postalCode": "32503-2050"
      },
      {
        "line": [
          "6848 STATE HIGHWAY 59"
        ],
        "city": "GULF SHORES",
        "state": "AL",
        "postalCode": "36542-2551"
      },
      {
        "line": [
          "164 W HEWETT RD"
        ],
        "city": "SANTA ROSA BEACH",
        "state": "FL",
        "postalCode": "32459-3310"
      },
      {
        "line": [
          "90 PONCE DE LEON ST"
        ],
        "city": "MIRAMAR BEACH",
        "state": "FL",
        "postalCode": "32550-4077"
      },
      {
        "line": [
          "2300 N CEDAR ST"
        ],
        "city": "FOLEY",
        "state": "AL",
        "postalCode": "36535-2381"
      },
      {
        "line": [
          "2300 N. PARTIN DRIVE"
        ],
        "city": "NICEVILLE",
        "state": "FL",
        "postalCode": "32578-1538"
      },
      {
        "line": [
          "150 CROSSVILLE ST."
        ],
        "city": "CANTONMENT",
        "state": "FL",
        "postalCode": "32533-6587"
      },
      {
        "line": [
          "8991 UNIVERSITY PKWY."
        ],
        "city": "PENSACOLA",
        "state": "FL",
        "postalCode": "32514-9400"
      },
      {
        "line": [
          "4685 CHUMUCKLA HWY."
        ],
        "city": "MILTON",
        "state": "FL",
        "postalCode": "32571-1007"
      },
      {
        "line": [
          "50 JOACHIM DR."
        ],
        "city": "GULF BREEZE",
        "state": "FL",
        "postalCode": "32561-4474"
      },
      {
        "line": [
          "5101 NORTHPOINT PKWY."
        ],
        "city": "PENSACOLA",
        "state": "FL",
        "postalCode": "32514-7846"
      },
      {
        "line": [
          "6982 PINE FOREST RD."
        ],
        "city": "PENSACOLA",
        "state": "FL",
        "postalCode": "32526-8909"
      },
      {
        "line": [
          "604 RESERVE LOOP"
        ],
        "city": "FAIRHOPE",
        "state": "AL",
        "postalCode": "36532-3162"
      },
      {
        "line": [
          "21298 COTTON CREEK DR"
        ],
        "city": "GULF SHORES",
        "state": "AL",
        "postalCode": "36542-9129"
      },
      {
        "line": [
          "2744 GULF BREEZE PKWY"
        ],
        "city": "GULF BREEZE",
        "state": "FL",
        "postalCode": "32563-3091"
      },
      {
        "line": [
          "1001 MAR WALT DR."
        ],
        "city": "FORT WALTON BEACH",
        "state": "FL",
        "postalCode": "32547-6780"
      },
      {
        "line": [
          "924 PLANTATION BLVD"
        ],
        "city": "FAIRHOPE",
        "state": "AL",
        "postalCode": "36532-2952"
      },
      {
        "line": [
          "10100 HILLVIEW DR"
        ],
        "city": "PENSACOLA",
        "state": "FL",
        "postalCode": "32514-5436"
      },
      {
        "line": [
          "109 CHANEY ST."
        ],
        "city": "ENTERPRISE",
        "state": "AL",
        "postalCode": "36330-1304"
      },
      {
        "line": [
          "1307 DAPHNE AVE"
        ],
        "city": "DAPHNE",
        "state": "AL",
        "postalCode": "36526-4265"
      },
      {
        "line": [
          "8127 GAYFER ROAD EXT"
        ],
        "city": "FAIRHOPE",
        "state": "AL",
        "postalCode": "36532-2653"
      },
      {
        "line": [
          "15891 SILVERHILL AVE OFC 25"
        ],
        "city": "SILVERHILL",
        "state": "AL",
        "postalCode": "36576-3877"
      },
      {
        "line": [
          "27645 HIGHWAY 181"
        ],
        "city": "DAPHNE",
        "state": "AL",
        "postalCode": "36526-8533"
      },
      {
        "line": [
          "1851 W. TEN MILE RD"
        ],
        "city": "CANTONMENT",
        "state": "FL",
        "postalCode": "32533-7758"
      },
      {
        "line": [
          "3450 WIMBLEDON DRIVE"
        ],
        "city": "PENSACOLA",
        "state": "FL",
        "postalCode": "32504-4503"
      },
      {
        "line": [
          "428 AIRPORT RD"
        ],
        "city": "PENSACOLA",
        "state": "FL",
        "postalCode": "32503-7865"
      },
      {
        "line": [
          "5887 BERRYHILL ROAD"
        ],
        "city": "MILTON",
        "state": "FL",
        "postalCode": "32570-8241"
      },
      {
        "line": [
          "5221 FLAXMAN ST"
        ],
        "city": "PENSACOLA",
        "state": "FL",
        "postalCode": "32506-3003"
      },
      {
        "line": [
          "9700 PENSACOLA, BLVD"
        ],
        "city": "PENSACOLA",
        "state": "FL",
        "postalCode": "32534-1242"
      },
      {
        "line": [
          "1007 W. WRIGHT ST."
        ],
        "city": "PENSACOLA",
        "state": "FL",
        "postalCode": "32501-3766"
      },
      {
        "line": [
          "27440 COUNTY RD 13"
        ],
        "city": "DAPHNE",
        "state": "AL",
        "postalCode": "36526-6222"
      },
      {
        "line": [
          "8601 N. DAVIS HWY"
        ],
        "city": "PENSACOLA",
        "state": "FL",
        "postalCode": "32514-5932"
      },
      {
        "line": [
          "1053 JOHN SIMS PKWY."
        ],
        "city": "NICEVILLE",
        "state": "FL",
        "postalCode": "32578-2750"
      },
      {
        "line": [
          "50 SPRING RUN DR."
        ],
        "city": "FAIRHOPE",
        "state": "AL",
        "postalCode": "36532-3800"
      },
      {
        "line": [
          "108 CHANEY ST."
        ],
        "city": "ENTERPRISE",
        "state": "AL",
        "postalCode": "36330-1304"
      },
      {
        "line": [
          "1706 E. OLIVE RD."
        ],
        "city": "PENSACOLA",
        "state": "FL",
        "postalCode": "32514-7533"
      },
      {
        "line": [
          "1030 JOJO RD."
        ],
        "city": "PENSACOLA",
        "state": "FL",
        "postalCode": "32514-3235"
      },
      {
        "line": [
          "8700 UNIVERSITY PKY."
        ],
        "city": "PENSACOLA",
        "state": "FL",
        "postalCode": "32514-4930"
      },
      {
        "line": [
          "11626 US HWY 90"
        ],
        "city": "DAPHNE",
        "state": "AL",
        "postalCode": "36526-8913"
      },
      {
        "line": [
          "1030 JO JO RD"
        ],
        "city": "PENSACOLA",
        "state": "FL",
        "postalCode": "32514-3235"
      },
      {
        "line": [
          "3091 SKYLINE DRIVE"
        ],
        "city": "CRESTVIEW",
        "state": "FL",
        "postalCode": "32539-8176"
      },
      {
        "line": [
          "1709 SAROCO RD"
        ],
        "city": "GULF BREEZE",
        "state": "FL",
        "postalCode": "32563-9254"
      },
      {
        "line": [
          "426 SEAGRASS CIR"
        ],
        "city": "DAPHNE",
        "state": "AL",
        "postalCode": "36526-4877"
      },
      {
        "line": [
          "10171 PAPAGEORGE ST."
        ],
        "city": "DAPHNE",
        "state": "AL",
        "postalCode": "36526-9553"
      },
      {
        "line": [
          "4916 MOBILE HWY."
        ],
        "city": "PENSACOLA",
        "state": "FL",
        "postalCode": "32506-3230"
      },
      {
        "line": [
          "233 CARMEL DR"
        ],
        "city": "FORT WALTON BEACH",
        "state": "FL",
        "postalCode": "32547-1957"
      },
      {
        "line": [
          "5544 SWANNER RD."
        ],
        "city": "MILTON",
        "state": "FL",
        "postalCode": "32570-4069"
      },
      {
        "line": [
          "203 WYNN RD."
        ],
        "city": "ENTERPRISE",
        "state": "AL",
        "postalCode": "36330-2082"
      },
      {
        "line": [
          "101 TULIP LN"
        ],
        "city": "DOTHAN",
        "state": "AL",
        "postalCode": "36305-5825"
      },
      {
        "line": [
          "3343 BERRYHILL RD."
        ],
        "city": "MILTON",
        "state": "FL",
        "postalCode": "32571-9813"
      },
      {
        "line": [
          "4410 GULF BREEZE PARKWAY"
        ],
        "city": "GULF BREEZE",
        "state": "FL",
        "postalCode": "32563-8130"
      },
      {
        "line": [
          "718 WALTON RD"
        ],
        "city": "DEFUNIAK SPRINGS",
        "state": "FL",
        "postalCode": "32433-9504"
      },
      {
        "line": [
          "1551 MERCHANTS WAY"
        ],
        "city": "NICEVILLE",
        "state": "FL",
        "postalCode": "32578-8833"
      },
      {
        "line": [
          "5100 NORTHPOINTE PKWY"
        ],
        "city": "PENSACOLA",
        "state": "FL",
        "postalCode": "32514-7846"
      },
      {
        "line": [
          "108 LOUISIANA DR",
          "MEMORY LANE ALF"
        ],
        "city": "PENSACOLA",
        "state": "FL",
        "postalCode": "32505-4616"
      },
      {
        "line": [
          "9015 UNIVERSITY PARKWAY"
        ],
        "city": "PENSACOLA",
        "state": "FL",
        "postalCode": "32514-5525"
      },
      {
        "line": [
          "2910 MICHAEL DRIVE"
        ],
        "city": "PENSACOLA",
        "state": "FL",
        "postalCode": "32505-3999"
      },
      {
        "line": [
          "101 MCABEE CT."
        ],
        "city": "GULF BREEZE",
        "state": "FL",
        "postalCode": "32561-4756"
      },
      {
        "line": [
          "3387 GULF BREEZE PARKWAY"
        ],
        "city": "GULF BREEZE",
        "state": "FL",
        "postalCode": "32563-3351"
      },
      {
        "line": [
          "2640 HIGHWAY 87"
        ],
        "city": "NAVARRE",
        "state": "FL",
        "postalCode": "32566-2407"
      },
      {
        "line": [
          "604 Reserve Loop"
        ],
        "city": "Fairhope",
        "state": "AL",
        "postalCode": "32563-3091"
      },
      {
        "line": [
          "111 E WRIGHT ST."
        ],
        "city": "PENSACOLA",
        "state": "FL",
        "postalCode": "32501-4802"
      },
      {
        "line": [
          "603 N. PEARL ST."
        ],
        "city": "CRESTVIEW",
        "state": "FL",
        "postalCode": "32536-2749"
      },
      {
        "line": [
          "575 W REDSTONE AVE."
        ],
        "city": "CRESTVIEW",
        "state": "FL",
        "postalCode": "32536-6467"
      },
      {
        "line": [
          "4595 E HWY 20"
        ],
        "city": "NICEVILLE",
        "state": "FL",
        "postalCode": "32578-8847"
      },
      {
        "line": [
          "1551 MERCHANTS WAY"
        ],
        "city": "NICEVILLE",
        "state": "FL",
        "postalCode": "32578-8830"
      },
      {
        "line": [
          "205 W HEWITT RD."
        ],
        "city": "SANTA ROSA BEACH",
        "state": "FL",
        "postalCode": "32459-3322"
      },
      {
        "line": [
          "7254 NAVARRE PKWY"
        ],
        "city": "NAVARRE",
        "state": "FL",
        "postalCode": "32566-7753"
      },
      {
        "line": [
          "2400 CRYSTAL COVE LANE"
        ],
        "city": "MIRAMAR BEACH",
        "state": "FL",
        "postalCode": "32550-4872"
      },
      {
        "line": [
          "4702 GULF BREEZE PARKWAY"
        ],
        "city": "GULF BREEZE",
        "state": "FL",
        "postalCode": "32563-9282"
      },
      {
        "line": [
          "2310 ABBIE LANE"
        ],
        "city": "PENSACOLA",
        "state": "FL",
        "postalCode": "32514-5983"
      },
      {
        "line": [
          "1012 N 72nd AVE."
        ],
        "city": "PENSACOLA",
        "state": "FL",
        "postalCode": "32506-3810"
      },
      {
        "line": [
          "5601 GIRBY RD"
        ],
        "city": "MOBILE",
        "state": "AL",
        "postalCode": "36693-3328"
      },
      {
        "line": [
          "7901 KIPLING ST."
        ],
        "city": "PENSACOLA",
        "state": "FL",
        "postalCode": "32514-6265"
      },
      {
        "line": [
          "650 S. University Blvd"
        ],
        "city": "MOBILE",
        "state": "AL",
        "postalCode": "36609-7868"
      },
      {
        "line": [
          "1200 HAWTHORN HOUSE Dr."
        ],
        "city": "SHALIMAR",
        "state": "FL",
        "postalCode": "32579-1168"
      },
      {
        "line": [
          "10075 HILLVIEW RD."
        ],
        "city": "PENSACOLA",
        "state": "FL",
        "postalCode": "32514-5469"
      },
      {
        "line": [
          "243 HOLLYWOOD BLVD."
        ],
        "city": "FORT WALTON BEACH",
        "state": "FL",
        "postalCode": "32548-5764"
      },
      {
        "line": [
          "30 HOLLY AVE"
        ],
        "city": "SHALIMAR",
        "state": "FL",
        "postalCode": "32579-1158"
      }
    ],
    "extension": [
      {
        "url": "https://fhir.athena.io/StructureDefinition/ah-practice",
        "valueReference": {
          "reference": "Organization/a-1.Practice-30358"
        }
      },
      {
        "url": "https://fhir.athena.io/StructureDefinition/ah-brand",
        "valueReference": {
          "reference": "Organization/a-30358.Brand-1"
        }
      }
    ]
  },
  "fullUrl": "urn:uuid:04cb46d2-7029-59fd-8885-56d316f9b510"
}