{
  "resource": {
    "resourceType": "Organization",
    "id": "93a2b38f-dd35-56a2-a8f3-70e6be3b49ce",
    "name": "SHAKIL ORTHOPEDIC ASSOCIATES",
    "endpoint": [
      {
        "reference": "Endpoint/27a4e967-47aa-5a9c-a572-b8297ee268a2"
      },
      {
        "reference": "Endpoint/8fd13bb6-2db2-5be1-b6a9-008262332ce4"
      }
    ],
    "identifier": [
      {
        "system": "http://hl7.org/fhir/sid/us-npi",
        "value": "1376501270"
      }
    ],
    "address": [
      {
        "line": [
          "135 LAFAYETTE STREET"
        ],
        "city": "PALMERTON",
        "state": "PA",
        "postalCode": "18071-1518"
      },
      {
        "line": [
          "100 SCHUYLKILL MEDICAL PLAZA",
          "STE 106"
        ],
        "city": "POTTSVILLE",
        "state": "PA",
        "postalCode": "17901-3636"
      },
      {
        "line": [
          "700 EAST NORWEGIAN STREET"
        ],
        "city": "POTTSVILLE",
        "state": "PA",
        "postalCode": "17901-2710"
      },
      {
        "line": [
          "420 SOUTH JACKSON STREET"
        ],
        "city": "POTTSVILLE",
        "state": "PA",
        "postalCode": "17901-3625"
      },
      {
        "line": [
          "4815 TILGHMAN STREET"
        ],
        "city": "ALLENTOWN",
        "state": "PA",
        "postalCode": "18104-9374"
      },
      {
        "line": [
          "115 SEVEN BRIDGE RD"
        ],
        "city": "EAST STROUDSBURG",
        "state": "PA",
        "postalCode": "18301-3098"
      },
      {
        "line": [
          "135 LAYFATTE STREET",
          "2ND FLOOR"
        ],
        "city": "PALMERTON",
        "state": "PA",
        "postalCode": "18071-1518"
      },
      {
        "line": [
          "4825 TILGHMAN STREET"
        ],
        "city": "ALLENTOWN",
        "state": "PA",
        "postalCode": "18104-9322"
      }
    ],
    "extension": [
      {
        "url": "https://fhir.athena.io/StructureDefinition/ah-practice",
        "valueReference": {
          "reference": "Organization/a-1.Practice-2828"
        }
      },
      {
        "url": "https://fhir.athena.io/StructureDefinition/ah-brand",
        "valueReference": {
          "reference": "Organization/a-2828.Brand-1"
        }
      }
    ]
  },
  "fullUrl": "urn:uuid:93a2b38f-dd35-56a2-a8f3-70e6be3b49ce"
}