{
  "resource": {
    "resourceType": "Organization",
    "id": "fecd7d0b-8e6a-5e02-a942-e8a86aa04072",
    "name": "FOLX Health",
    "endpoint": [
      {
        "reference": "Endpoint/27a4e967-47aa-5a9c-a572-b8297ee268a2"
      },
      {
        "reference": "Endpoint/9b833086-5ced-519e-9110-2315dd193b12"
      }
    ],
    "identifier": [
      {
        "system": "http://hl7.org/fhir/sid/us-npi",
        "value": "1841520962"
      }
    ],
    "address": [
      {
        "line": [
          "1201 HAYS STREET"
        ],
        "city": "TALLAHASSEE",
        "state": "FL",
        "postalCode": "32301-2699"
      },
      {
        "line": [
          "1188 BISHOP STREET",
          "SUITE 2212"
        ],
        "city": "HONOLULU",
        "state": "HI",
        "postalCode": "96813-3301"
      },
      {
        "line": [
          "222 JEFFERSON BOULEVARD"
        ],
        "city": "WARWICK",
        "state": "RI",
        "postalCode": "02888-3847"
      },
      {
        "line": [
          "302 N LAST CHANCE GULCH",
          "SUITE 403"
        ],
        "city": "HELENA",
        "state": "MT",
        "postalCode": "59601-5002"
      },
      {
        "line": [
          "1215 TWIN LAKES DRIVE"
        ],
        "city": "LITTLE ROCK",
        "state": "AR",
        "postalCode": "72205-6768"
      },
      {
        "line": [
          "698 12TH STREET SE",
          "SUITE 1000"
        ],
        "city": "SALEM",
        "state": "OR",
        "postalCode": "97301-4039"
      },
      {
        "line": [
          "321 W. WINNIE LANE",
          "#104"
        ],
        "city": "CARSON CITY",
        "state": "NV",
        "postalCode": "89703-2163"
      },
      {
        "line": [
          "14 SCENIC DRIVE"
        ],
        "city": "DAYTON",
        "state": "NJ",
        "postalCode": "08810-1495"
      },
      {
        "line": [
          "ONE BOSTON PLACE",
          "SUITE 2600"
        ],
        "city": "BOSTON",
        "state": "MA",
        "postalCode": "02108-4420"
      },
      {
        "line": [
          "600 SOUTH SECOND STREET",
          "SUITE 404"
        ],
        "city": "SPRINGFIELD",
        "state": "IL",
        "postalCode": "62704-2542"
      },
      {
        "line": [
          "1012 MARQUEZ PLACE",
          "SUITE 106B"
        ],
        "city": "SANTA FE",
        "state": "NM",
        "postalCode": "87505-1834"
      },
      {
        "line": [
          "2710 GATEWAY OAKS DRIVE",
          "SUITE 150N"
        ],
        "city": "SACRAMENTO",
        "state": "CA",
        "postalCode": "95833-3502"
      },
      {
        "line": [
          "229 BROOKWOOD DRIVE",
          "SUITE 14"
        ],
        "city": "SOUTH LYON",
        "state": "MI",
        "postalCode": "48178-1857"
      },
      {
        "line": [
          "2101 S.W. 21ST STREET"
        ],
        "city": "TOPEKA",
        "state": "KS",
        "postalCode": "66604-3174"
      },
      {
        "line": [
          "122 EAST 42ND STREET",
          "18TH FLOOR"
        ],
        "city": "NEW YORK",
        "state": "NY",
        "postalCode": "10168-1899"
      },
      {
        "line": [
          "50 W. Broad Street"
        ],
        "city": "COLUMBUS",
        "state": "OH",
        "postalCode": "43215-3301"
      },
      {
        "line": [
          "326 N. MADISON AVE"
        ],
        "city": "PIERRE",
        "state": "SD",
        "postalCode": "57501-2629"
      },
      {
        "line": [
          "63 PLEASANT STREET"
        ],
        "city": "CONCORD",
        "state": "NH",
        "postalCode": "03301-3947"
      },
      {
        "line": [
          "3085 MOUNTAINWOOD CIRCLE"
        ],
        "city": "JUNEAU",
        "state": "AK",
        "postalCode": "99801-9624"
      },
      {
        "line": [
          "211 E. 7TH STREET",
          "SUITE 260"
        ],
        "city": "AUSTIN",
        "state": "TX",
        "postalCode": "78701-3334"
      },
      {
        "line": [
          "5601 S. 59TH STREET",
          "SUITE C"
        ],
        "city": "LINCOLN",
        "state": "NE",
        "postalCode": "68516-2306"
      },
      {
        "line": [
          "300 DESCHUTES WAY SW",
          "SUITE 208 MC-CSCI"
        ],
        "city": "TUMWATER",
        "state": "WA",
        "postalCode": "98501-7719"
      },
      {
        "line": [
          "921 S. ORCHARD STREET",
          "SUITE G"
        ],
        "city": "BOISE",
        "state": "ID",
        "postalCode": "83705-1992"
      },
      {
        "line": [
          "29 WEST HIGH STREET"
        ],
        "city": "EAST HAMPTON",
        "state": "CT",
        "postalCode": "06424-1024"
      },
      {
        "line": [
          "828 LANE ALLEN ROAD",
          "SUITE 201"
        ],
        "city": "LEXINGTON",
        "state": "KY",
        "postalCode": "40504-3658"
      },
      {
        "line": [
          "212 SOUTH TRYON STREET",
          "SUITE 1000"
        ],
        "city": "CHARLOTTE",
        "state": "NC",
        "postalCode": "28281-0001"
      },
      {
        "line": [
          "7700 E ARAPAHOE ROAD"
        ],
        "city": "CENTENNIAL",
        "state": "CO",
        "postalCode": "80112-1266"
      },
      {
        "line": [
          "15205 TRADITIONS LAKE PARKWAY"
        ],
        "city": "EDMOND",
        "state": "OK",
        "postalCode": "73013-1198"
      },
      {
        "line": [
          "1920 THOMES AVE",
          "SUITE 610"
        ],
        "city": "CHEYENNE",
        "state": "WY",
        "postalCode": "82001-3542"
      },
      {
        "line": [
          "300 W. CLARENDON AVE",
          "SUITE 240"
        ],
        "city": "PHOENIX",
        "state": "AZ",
        "postalCode": "85013-3420"
      },
      {
        "line": [
          "1627 QUARRIER STREET EAST"
        ],
        "city": "CHARLESTON",
        "state": "WV",
        "postalCode": "25311-2124"
      },
      {
        "line": [
          "6160 SUMMIT DRIVE N"
        ],
        "city": "BROOKLYN CENTER",
        "state": "MN",
        "postalCode": "55430-2118"
      },
      {
        "line": [
          "900 OLD ROSWELL LAKES PARKWAY",
          "SUITE 310"
        ],
        "city": "ROSWELL",
        "state": "GA",
        "postalCode": "30076-8663"
      },
      {
        "line": [
          "1025 VERMONT AVE N.W."
        ],
        "city": "WASHINGTON",
        "state": "DC",
        "postalCode": "20005-3577"
      },
      {
        "line": [
          "2 OFFICE PARK COURT",
          "SUITE 103"
        ],
        "city": "COLUMBIA",
        "state": "SC",
        "postalCode": "29223-5948"
      },
      {
        "line": [
          "901 SOUTH WHITNEY WAY"
        ],
        "city": "MADISON",
        "state": "WI",
        "postalCode": "53711-2553"
      },
      {
        "line": [
          "120 WEST SWEET AVENUE",
          "SUITE 9"
        ],
        "city": "BISMARCK",
        "state": "ND",
        "postalCode": "58504-5566"
      },
      {
        "line": [
          "28 Old Rudnick Lane"
        ],
        "city": "Dover",
        "state": "DE",
        "postalCode": "19901-4912"
      },
      {
        "line": [
          "2 NORTH JACKSON STREET",
          "SUITE 605"
        ],
        "city": "MONTGOMERY",
        "state": "AL",
        "postalCode": "36104-3803"
      },
      {
        "line": [
          "100 SHOCKOE SLIP",
          "2ND FLOOR"
        ],
        "city": "RICHMOND",
        "state": "VA",
        "postalCode": "23219-4164"
      },
      {
        "line": [
          "9800 AIRLINE HIGHWAY",
          "SUITE 105"
        ],
        "city": "BATON ROUGE",
        "state": "LA",
        "postalCode": "70816-8171"
      },
      {
        "line": [
          "400 LOCUST STREET",
          "SUITE 400"
        ],
        "city": "DES MOINES",
        "state": "IA",
        "postalCode": "50309-2331"
      },
      {
        "line": [
          "128 STATE STREET",
          "# 3"
        ],
        "city": "AUGUSTA",
        "state": "ME",
        "postalCode": "04330-5630"
      },
      {
        "line": [
          "1154 ROUTE 30"
        ],
        "city": "TOWNSHEND",
        "state": "VT",
        "postalCode": "05353-4403"
      },
      {
        "line": [
          "248 EAST CAPITOL STREET",
          "SUITE 840"
        ],
        "city": "JACKSON",
        "state": "MS",
        "postalCode": "39201-2503"
      },
      {
        "line": [
          "2595 INTERSTATE DR STE 103"
        ],
        "city": "HARRISBURG",
        "state": "PA",
        "postalCode": "17110-9378"
      },
      {
        "line": [
          "1519 York Rd"
        ],
        "city": "LUTHERVILLE TIMONIUM",
        "state": "MD",
        "postalCode": "21093-5611"
      },
      {
        "line": [
          "2005 EAST 2700 SOUTH",
          "SUITE 200"
        ],
        "city": "SALT LAKE CITY",
        "state": "UT",
        "postalCode": "84109-1700"
      },
      {
        "line": [
          "9221 CRAWFORDSVILLE ROAD"
        ],
        "city": "INDIANAPOLIS",
        "state": "IN",
        "postalCode": "46234-1521"
      },
      {
        "line": [
          "9666 OLIVE BLVD",
          "SUITE 690"
        ],
        "city": "SAINT LOUIS",
        "state": "MO",
        "postalCode": "63132-3013"
      },
      {
        "line": [
          "992 DAVIDSON DRIVE",
          "SUITE B"
        ],
        "city": "NASHVILLE",
        "state": "TN",
        "postalCode": "37205-1051"
      }
    ],
    "extension": [
      {
        "url": "https://fhir.athena.io/StructureDefinition/ah-practice",
        "valueReference": {
          "reference": "Organization/a-1.Practice-22378"
        }
      },
      {
        "url": "https://fhir.athena.io/StructureDefinition/ah-brand",
        "valueReference": {
          "reference": "Organization/a-22378.Brand-1"
        }
      }
    ]
  },
  "fullUrl": "urn:uuid:fecd7d0b-8e6a-5e02-a942-e8a86aa04072"
}