{
  "resource": {
    "resourceType": "Organization",
    "id": "068d709d-71de-5603-b56e-377c04d98ce8",
    "name": "Cedars-Sinai Medical Center",
    "endpoint": [
      {
        "reference": "Endpoint/27a4e967-47aa-5a9c-a572-b8297ee268a2"
      },
      {
        "reference": "Endpoint/97f41fab-9b64-51f2-9aa7-0a9d59e4d549"
      }
    ],
    "identifier": [
      {
        "system": "http://hl7.org/fhir/sid/us-npi",
        "value": "1760756860"
      }
    ],
    "address": [
      {
        "line": [
          "8700 BEVERLY BLVD."
        ],
        "city": "LOS ANGELES",
        "state": "CA",
        "postalCode": "90048-1804"
      },
      {
        "line": [
          "2320 REDONDO BEACH BLVD"
        ],
        "city": "TORRANCE",
        "state": "CA",
        "postalCode": "90504-1528"
      },
      {
        "line": [
          "4081 E OLYMPIC BLVD"
        ],
        "city": "LOS ANGELES",
        "state": "CA",
        "postalCode": "90023-3330"
      },
      {
        "line": [
          "4500 TWEEDY BLVD"
        ],
        "city": "SOUTH GATE",
        "state": "CA",
        "postalCode": "90280-6334"
      },
      {
        "line": [
          "301 W CARSON ST"
        ],
        "city": "CARSON",
        "state": "CA",
        "postalCode": "90745-2608"
      },
      {
        "line": [
          "11602 Hawthorne Blvd",
          "suite a"
        ],
        "city": "HAWTHORNE",
        "state": "CA",
        "postalCode": "90250-3832"
      },
      {
        "line": [
          "1300 W 7th St."
        ],
        "city": "SAN PEDRO",
        "state": "CA",
        "postalCode": "90732-3505"
      },
      {
        "line": [
          "2401 E 1ST ST"
        ],
        "city": "LOS ANGELES",
        "state": "CA",
        "postalCode": "90033-3501"
      },
      {
        "line": [
          "1125 CHERRY AVE"
        ],
        "city": "LONG BEACH",
        "state": "CA",
        "postalCode": "90813-3911"
      }
    ],
    "extension": [
      {
        "url": "https://fhir.athena.io/StructureDefinition/ah-practice",
        "valueReference": {
          "reference": "Organization/a-1.Practice-14654"
        }
      },
      {
        "url": "https://fhir.athena.io/StructureDefinition/ah-brand",
        "valueReference": {
          "reference": "Organization/a-14654.Brand-1"
        }
      }
    ]
  },
  "fullUrl": "urn:uuid:068d709d-71de-5603-b56e-377c04d98ce8"
}