{
  "resource": {
    "resourceType": "Organization",
    "id": "a8bbf8c8-9f5e-55b5-a56a-e368f8dec9b6",
    "name": "Pacific Pain Physicians",
    "endpoint": [
      {
        "reference": "Endpoint/27a4e967-47aa-5a9c-a572-b8297ee268a2"
      },
      {
        "reference": "Endpoint/6e2f54a1-7412-52bc-92fb-d13441b82713"
      }
    ],
    "identifier": [
      {
        "system": "http://hl7.org/fhir/sid/us-npi",
        "value": "1164449880"
      }
    ],
    "address": [
      {
        "line": [
          "525 PLAZA DR",
          "STE 204-B"
        ],
        "city": "SANTA MARIA",
        "state": "CA",
        "postalCode": "93454-6954"
      },
      {
        "line": [
          "228 S D ST",
          "STE B"
        ],
        "city": "LOMPOC",
        "state": "CA",
        "postalCode": "93436-7308"
      },
      {
        "line": [
          "9300 STOCKDALE HWY"
        ],
        "city": "BAKERSFIELD",
        "state": "CA",
        "postalCode": "93311-3613"
      },
      {
        "line": [
          "2901 SILLECT AVE STE 200"
        ],
        "city": "BAKERSFIELD",
        "state": "CA",
        "postalCode": "93308-6373"
      },
      {
        "line": [
          "1551 BISHOP ST BLDG B STE 210"
        ],
        "city": "SAN LUIS OBISPO",
        "state": "CA",
        "postalCode": "93401-4661"
      },
      {
        "line": [
          "1105 LAS TABLAS RD STE E"
        ],
        "city": "TEMPLETON",
        "state": "CA",
        "postalCode": "93465-9731"
      },
      {
        "line": [
          "2927 DE LA VINA ST"
        ],
        "city": "SANTA BARBARA",
        "state": "CA",
        "postalCode": "93105-3362"
      },
      {
        "line": [
          "231 W PUEBLO ST"
        ],
        "city": "SANTA BARBARA",
        "state": "CA",
        "postalCode": "93105-3804"
      },
      {
        "line": [
          "536 E ARRELLAGA ST",
          "STE 104"
        ],
        "city": "SANTA BARBARA",
        "state": "CA",
        "postalCode": "93103-2255"
      },
      {
        "line": [
          "351 S PATTERSON AVE"
        ],
        "city": "SANTA BARBARA",
        "state": "CA",
        "postalCode": "93111-2403"
      },
      {
        "line": [
          "4472 BROAD ST STE 150"
        ],
        "city": "SAN LUIS OBISPO",
        "state": "CA",
        "postalCode": "93401-7990"
      },
      {
        "line": [
          "222 W PUEBLO ST",
          "STE C"
        ],
        "city": "SANTA BARBARA",
        "state": "CA",
        "postalCode": "93105-3805"
      },
      {
        "line": [
          "400 W PUEBLO ST"
        ],
        "city": "SANTA BARBARA",
        "state": "CA",
        "postalCode": "93105-4353"
      },
      {
        "line": [
          "222 W PUEBLO STREET, SUITE B"
        ],
        "city": "SANTA BARBARA",
        "state": "CA",
        "postalCode": "93105-3805"
      },
      {
        "line": [
          "525 PLAZA DR",
          "STE 100"
        ],
        "city": "SANTA MARIA",
        "state": "CA",
        "postalCode": "93454-6966"
      },
      {
        "line": [
          "2901 SILLECT AVE STE 203"
        ],
        "city": "BAKERSFIELD",
        "state": "CA",
        "postalCode": "93308-6373"
      },
      {
        "line": [
          "8844 MORRO RD"
        ],
        "city": "ATASCADERO",
        "state": "CA",
        "postalCode": "93422-3953"
      },
      {
        "line": [
          "820 E ENOS DR"
        ],
        "city": "SANTA MARIA",
        "state": "CA",
        "postalCode": "93454-7295"
      },
      {
        "line": [
          "4472 Broad St",
          "Ste 150"
        ],
        "city": "SAN LUIS OBISPO",
        "state": "CA",
        "postalCode": "93401-7933"
      }
    ],
    "extension": [
      {
        "url": "https://fhir.athena.io/StructureDefinition/ah-practice",
        "valueReference": {
          "reference": "Organization/a-1.Practice-22602"
        }
      },
      {
        "url": "https://fhir.athena.io/StructureDefinition/ah-brand",
        "valueReference": {
          "reference": "Organization/a-22602.Brand-1"
        }
      }
    ]
  },
  "fullUrl": "urn:uuid:a8bbf8c8-9f5e-55b5-a56a-e368f8dec9b6"
}