{
  "resource": {
    "resourceType": "Organization",
    "id": "ddb67fe9-74ff-597e-8e2c-4a842b239667",
    "name": "439 WASHINGTON",
    "endpoint": [
      {
        "reference": "Endpoint/27a4e967-47aa-5a9c-a572-b8297ee268a2"
      },
      {
        "reference": "Endpoint/7b51d5f7-51fb-5fe1-b6f4-090ae433dc5c"
      }
    ],
    "identifier": [
      {
        "system": "http://hl7.org/fhir/sid/us-npi",
        "value": "1184695462"
      }
    ],
    "address": [
      {
        "line": [
          "2121 CENTRAL ST"
        ],
        "city": "STOUGHTON",
        "state": "MA",
        "postalCode": "02072-6146"
      },
      {
        "line": [
          "125 BROAD STREET"
        ],
        "city": "WEYMOUTH",
        "state": "MA",
        "postalCode": "02188-2336"
      },
      {
        "line": [
          "479 TORREY ST"
        ],
        "city": "BROCKTON",
        "state": "MA",
        "postalCode": "02301-4617"
      },
      {
        "line": [
          "1135 MORTON ST"
        ],
        "city": "MATTAPAN",
        "state": "MA",
        "postalCode": "02126-2834"
      },
      {
        "line": [
          "211 FRANKLIN ST"
        ],
        "city": "QUINCY",
        "state": "MA",
        "postalCode": "02169-7833"
      },
      {
        "line": [
          "160 GROVE ST"
        ],
        "city": "BRAINTREE",
        "state": "MA",
        "postalCode": "02184-7216"
      },
      {
        "line": [
          "540 HANCOCK ST"
        ],
        "city": "QUINCY",
        "state": "MA",
        "postalCode": "02170-1929"
      },
      {
        "line": [
          "670 MAIN ST"
        ],
        "city": "SOUTH WEYMOUTH",
        "state": "MA",
        "postalCode": "02190-1842"
      },
      {
        "line": [
          "54 UNION ST"
        ],
        "city": "SOUTH WEYMOUTH",
        "state": "MA",
        "postalCode": "02190-2306"
      },
      {
        "line": [
          "804 PLEASANT ST"
        ],
        "city": "BROCKTON",
        "state": "MA",
        "postalCode": "02301-3055"
      },
      {
        "line": [
          "95 COMMERCIAL ST"
        ],
        "city": "BRAINTREE",
        "state": "MA",
        "postalCode": "02184-4301"
      },
      {
        "line": [
          "337 NEPONSET AVE"
        ],
        "city": "DORCHESTER",
        "state": "MA",
        "postalCode": "02122-3103"
      },
      {
        "line": [
          "2 Seaport Drive"
        ],
        "city": "QUINCY",
        "state": "MA",
        "postalCode": "02171-1599"
      },
      {
        "line": [
          "1044 PARK ST"
        ],
        "city": "STOUGHTON",
        "state": "MA",
        "postalCode": "02072-3762"
      },
      {
        "line": [
          "600 canton ave"
        ],
        "city": "MILTON",
        "state": "MA",
        "postalCode": "02186-3161"
      },
      {
        "line": [
          "99 BRACKETT ST"
        ],
        "city": "QUINCY",
        "state": "MA",
        "postalCode": "02169-4647"
      },
      {
        "line": [
          "180 Corey Rd"
        ],
        "city": "BRIGHTON",
        "state": "MA",
        "postalCode": "02135-8239"
      }
    ],
    "extension": [
      {
        "url": "https://fhir.athena.io/StructureDefinition/ah-practice",
        "valueReference": {
          "reference": "Organization/a-1.Practice-4365"
        }
      },
      {
        "url": "https://fhir.athena.io/StructureDefinition/ah-brand",
        "valueReference": {
          "reference": "Organization/a-4365.Brand-1"
        }
      }
    ]
  },
  "fullUrl": "urn:uuid:ddb67fe9-74ff-597e-8e2c-4a842b239667"
}