{
  "resource": {
    "resourceType": "Organization",
    "id": "1e083ff2-7627-59b5-9bae-a9ad92c88712",
    "name": "Destin Surgery Center",
    "endpoint": [
      {
        "reference": "Endpoint/27a4e967-47aa-5a9c-a572-b8297ee268a2"
      },
      {
        "reference": "Endpoint/17d5c239-59c5-5682-b4d3-482c3c99f5a9"
      }
    ],
    "identifier": [
      {
        "system": "http://hl7.org/fhir/sid/us-npi",
        "value": "1467437277"
      }
    ],
    "address": [
      {
        "line": [
          "1008  Airport Road"
        ],
        "city": "DESTIN",
        "state": "FL",
        "postalCode": "32541-2820"
      },
      {
        "line": [
          "7800 US Highway 98 W"
        ],
        "city": "MIRAMAR BEACH",
        "state": "FL",
        "postalCode": "32550-7228"
      },
      {
        "line": [
          "1000 Mar Walt Drive"
        ],
        "city": "FORT WALTON BEACH",
        "state": "FL",
        "postalCode": "32547-6707"
      },
      {
        "line": [
          "114 THIRD ST"
        ],
        "city": "FORT WALTON BEACH",
        "state": "FL",
        "postalCode": "32548-5401"
      },
      {
        "line": [
          "1005 Mar Walt Drive"
        ],
        "city": "FORT WALTON BEACH",
        "state": "FL",
        "postalCode": "32547-6707"
      },
      {
        "line": [
          "1 LBJ SR. DR"
        ],
        "city": "FORT WALTON BEACH",
        "state": "FL",
        "postalCode": "32547-1163"
      },
      {
        "line": [
          "1001 MAR WALT DRIVE"
        ],
        "city": "FORT WALTON BEACH",
        "state": "FL",
        "postalCode": "32547-6744"
      },
      {
        "line": [
          "340 BEAL PKWY NW",
          "SUITE A"
        ],
        "city": "FORT WALTON BEACH",
        "state": "FL",
        "postalCode": "32548-3986"
      },
      {
        "line": [
          "2001 HWY 20"
        ],
        "city": "NICEVILLE",
        "state": "FL",
        "postalCode": "32578-8826"
      },
      {
        "line": [
          "1005 MAR WALT DR"
        ],
        "city": "FORT WALTON BEACH",
        "state": "FL",
        "postalCode": "32547-6796"
      },
      {
        "line": [
          "151 E REDSTONE AVE"
        ],
        "city": "CRESTVIEW",
        "state": "FL",
        "postalCode": "32539-5348"
      },
      {
        "line": [
          "1005 MAR WALT DR"
        ],
        "city": "FORT WALTON BEACH",
        "state": "FL",
        "postalCode": "32547-6707"
      },
      {
        "line": [
          "195 MATTIE M. KELLY BLVD"
        ],
        "city": "DESTIN",
        "state": "FL",
        "postalCode": "32541-2811"
      },
      {
        "line": [
          "990 AIRPORT RD"
        ],
        "city": "DESTIN",
        "state": "FL",
        "postalCode": "32541-2820"
      },
      {
        "line": [
          "1005 Mar Walt Dr"
        ],
        "city": "FORT WALTON BEACH",
        "state": "FL",
        "postalCode": "32547-6707"
      },
      {
        "line": [
          "1225 AIRPORT RD"
        ],
        "city": "DESTIN",
        "state": "FL",
        "postalCode": "32541-2909"
      },
      {
        "line": [
          "1045 US HIGHWAY 331 S STE D"
        ],
        "city": "DEFUNIAK SPRINGS",
        "state": "FL",
        "postalCode": "32435-3379"
      },
      {
        "line": [
          "101 REJEN DR"
        ],
        "city": "CARROLLTON",
        "state": "GA",
        "postalCode": "30117-4270"
      },
      {
        "line": [
          "1332 N Ferdon Blvd"
        ],
        "city": "CRESTVIEW",
        "state": "FL",
        "postalCode": "32536-1749"
      },
      {
        "line": [
          "130 E. Redstone Ave"
        ],
        "city": "CRESTVIEW",
        "state": "FL",
        "postalCode": "32536-5348"
      },
      {
        "line": [
          "2190 HIGHWAY 85 N"
        ],
        "city": "NICEVILLE",
        "state": "FL",
        "postalCode": "32578-1045"
      },
      {
        "line": [
          "1112 Hospital Rd"
        ],
        "city": "FORT WALTON BEACH",
        "state": "FL",
        "postalCode": "32547-6742"
      },
      {
        "line": [
          "925 Mar Walt Drive",
          "#2"
        ],
        "city": "FORT WALTON BEACH",
        "state": "FL",
        "postalCode": "32547-6602"
      },
      {
        "line": [
          "8990 NAVARRE PARKWAY"
        ],
        "city": "NAVARRE",
        "state": "FL",
        "postalCode": "32566-2216"
      },
      {
        "line": [
          "1005 MAR WALT DRIVE"
        ],
        "city": "FORT WALTON BEACH",
        "state": "FL",
        "postalCode": "32547-6707"
      },
      {
        "line": [
          "340 BEAL PKWY  NW",
          "SUITE C"
        ],
        "city": "FORT WALTON BEACH",
        "state": "FL",
        "postalCode": "32548-3895"
      },
      {
        "line": [
          "339 RACETRACK RD",
          "SUITE 16"
        ],
        "city": "FORT WALTON BEACH",
        "state": "FL",
        "postalCode": "32547-1581"
      },
      {
        "line": [
          "1 LBJ SR DR"
        ],
        "city": "FORT WALTON BEACH",
        "state": "FL",
        "postalCode": "32547-1163"
      },
      {
        "line": [
          "233 CARMEL DR"
        ],
        "city": "FORT WALTON BEACH",
        "state": "FL",
        "postalCode": "32547-1957"
      },
      {
        "line": [
          "4413 US HIGHWAY 331 S"
        ],
        "city": "DEFUNIAK SPRINGS",
        "state": "FL",
        "postalCode": "32435-6307"
      },
      {
        "line": [
          "1005 MARWALT"
        ],
        "city": "FORT WALTON BEACH",
        "state": "FL",
        "postalCode": "32547-6426"
      },
      {
        "line": [
          "1024 MAR WALT DR"
        ],
        "city": "FORT WALTON BEACH",
        "state": "FL",
        "postalCode": "32547-6645"
      },
      {
        "line": [
          "500 HOSPITAL DR"
        ],
        "city": "CRESTVIEW",
        "state": "FL",
        "postalCode": "32539-7355"
      },
      {
        "line": [
          "130 E REDSTONE AVE"
        ],
        "city": "CRESTVIEW",
        "state": "FL",
        "postalCode": "32539-5348"
      },
      {
        "line": [
          "1500 N WHITE POINT"
        ],
        "city": "NICEVILLE",
        "state": "FL",
        "postalCode": "32578-4249"
      },
      {
        "line": [
          "400 REDSTONE AVE W"
        ],
        "city": "CRESTVIEW",
        "state": "FL",
        "postalCode": "32536-8467"
      },
      {
        "line": [
          "138 SANDESTIN LANE"
        ],
        "city": "MIRAMAR BEACH",
        "state": "FL",
        "postalCode": "32550-5815"
      },
      {
        "line": [
          "2207 S FERDON BLVD"
        ],
        "city": "CRESTVIEW",
        "state": "FL",
        "postalCode": "32536-8458"
      }
    ],
    "extension": [
      {
        "url": "https://fhir.athena.io/StructureDefinition/ah-practice",
        "valueReference": {
          "reference": "Organization/a-1.Practice-21123"
        }
      },
      {
        "url": "https://fhir.athena.io/StructureDefinition/ah-brand",
        "valueReference": {
          "reference": "Organization/a-21123.Brand-1"
        }
      }
    ]
  },
  "fullUrl": "urn:uuid:1e083ff2-7627-59b5-9bae-a9ad92c88712"
}