{
  "resource": {
    "resourceType": "Organization",
    "id": "c4d12ae5-45d1-5b26-94b3-4665346873c5",
    "name": "BON SECOURS PALLIATIVE MEDICINE",
    "endpoint": [
      {
        "reference": "Endpoint/27a4e967-47aa-5a9c-a572-b8297ee268a2"
      },
      {
        "reference": "Endpoint/8954f73e-a0a9-5554-9f92-934adcd36d61"
      }
    ],
    "identifier": [
      {
        "system": "http://hl7.org/fhir/sid/us-npi",
        "value": "1477112225"
      }
    ],
    "address": [
      {
        "line": [
          "5801 BREMO ROAD",
          "MOB S, SUITE 208"
        ],
        "city": "RICHMOND",
        "state": "VA",
        "postalCode": "23226-1907"
      },
      {
        "line": [
          "8580 MAGELLAN PARKWAY"
        ],
        "city": "RICHMOND",
        "state": "VA",
        "postalCode": "23227-1149"
      },
      {
        "line": [
          "14051 ST FRANCIS BLVD",
          "SUITE 2200"
        ],
        "city": "MIDLOTHIAN",
        "state": "VA",
        "postalCode": "23114-3201"
      },
      {
        "line": [
          "8266 ATLEE ROAD",
          "MOB II SUITE 225"
        ],
        "city": "MECHANICSVILLE",
        "state": "VA",
        "postalCode": "23116-1813"
      },
      {
        "line": [
          "14051 ST FRANCIS BLVD",
          "SUITE 2209"
        ],
        "city": "MIDLOTHIAN",
        "state": "VA",
        "postalCode": "23114-3203"
      },
      {
        "line": [
          "8220 MEADOWBRIDGE RD"
        ],
        "city": "MECHANICSVILLE",
        "state": "VA",
        "postalCode": "23116-2336"
      },
      {
        "line": [
          "5855 BREMO ROAD",
          "MOB N, SUITE 403"
        ],
        "city": "RICHMOND",
        "state": "VA",
        "postalCode": "23226-1924"
      },
      {
        "line": [
          "5855 BREMO ROAD",
          "SUITE 403"
        ],
        "city": "RICHMOND",
        "state": "VA",
        "postalCode": "23226-1924"
      }
    ],
    "extension": [
      {
        "url": "https://fhir.athena.io/StructureDefinition/ah-practice",
        "valueReference": {
          "reference": "Organization/a-1.Practice-679"
        }
      },
      {
        "url": "https://fhir.athena.io/StructureDefinition/ah-brand",
        "valueReference": {
          "reference": "Organization/a-679.Brand-1"
        }
      }
    ]
  },
  "fullUrl": "urn:uuid:c4d12ae5-45d1-5b26-94b3-4665346873c5"
}