{
  "resource": {
    "resourceType": "Organization",
    "id": "4290d9ae-0889-5cc7-88e0-9564fa2deb16",
    "name": "YMCA of Greater Grand Rapids",
    "endpoint": [
      {
        "reference": "Endpoint/27a4e967-47aa-5a9c-a572-b8297ee268a2"
      },
      {
        "reference": "Endpoint/abb5f7d5-468e-5806-be46-fb2282afef02"
      }
    ],
    "identifier": [
      {
        "system": "http://hl7.org/fhir/sid/us-npi",
        "value": "1528515376"
      }
    ],
    "address": [
      {
        "line": [
          "404 E Woodlawn Ave"
        ],
        "city": "HASTINGS",
        "state": "MI",
        "postalCode": "49058-1005"
      },
      {
        "line": [
          "475 Lake Michigan Dr NW"
        ],
        "city": "GRAND RAPIDS",
        "state": "MI",
        "postalCode": "49504-5600"
      },
      {
        "line": [
          "211 Lafayette NE"
        ],
        "city": "GRAND RAPIDS",
        "state": "MI",
        "postalCode": "49503-3306"
      },
      {
        "line": [
          "100 Cherry St SE"
        ],
        "city": "GRAND RAPIDS",
        "state": "MI",
        "postalCode": "49503-4526"
      },
      {
        "line": [
          "1246 Madison Ave"
        ],
        "city": "GRAND RAPIDS",
        "state": "MI",
        "postalCode": "49507-1761"
      },
      {
        "line": [
          "2399 Charring Cross Drive SE"
        ],
        "city": "GRAND RAPIDS",
        "state": "MI",
        "postalCode": "49546-7661"
      },
      {
        "line": [
          "665 Seward St."
        ],
        "city": "GRAND RAPIDS",
        "state": "MI",
        "postalCode": "49504-5190"
      },
      {
        "line": [
          "1440 Davis Ave. NW"
        ],
        "city": "GRAND RAPIDS",
        "state": "MI",
        "postalCode": "49504-3112"
      },
      {
        "line": [
          "1530 Grandville Ave"
        ],
        "city": "GRAND RAPIDS",
        "state": "MI",
        "postalCode": "49503-8046"
      },
      {
        "line": [
          "900 West Western Avenue"
        ],
        "city": "MUSKEGON",
        "state": "MI",
        "postalCode": "49441-1617"
      },
      {
        "line": [
          "6555 Jupiter Ave"
        ],
        "city": "BELMONT",
        "state": "MI",
        "postalCode": "49306-8931"
      },
      {
        "line": [
          "4360 52nd Street SE"
        ],
        "city": "GRAND RAPIDS",
        "state": "MI",
        "postalCode": "49512-9673"
      },
      {
        "line": [
          "5722 Metro Way SW"
        ],
        "city": "WYOMING",
        "state": "MI",
        "postalCode": "49519-9601"
      },
      {
        "line": [
          "1441 Madison Ave SW"
        ],
        "city": "GRAND RAPIDS",
        "state": "MI",
        "postalCode": "49507-1712"
      },
      {
        "line": [
          "1335 W Main St"
        ],
        "city": "LOWELL",
        "state": "MI",
        "postalCode": "49331-1555"
      },
      {
        "line": [
          "250 E Tuttle Rd"
        ],
        "city": "IONIA",
        "state": "MI",
        "postalCode": "48846-8605"
      },
      {
        "line": [
          "1167 Madison Ave."
        ],
        "city": "GRAND RAPIDS",
        "state": "MI",
        "postalCode": "49507-1200"
      },
      {
        "line": [
          "1095 Briggs Rd N"
        ],
        "city": "MIDDLEVILLE",
        "state": "MI",
        "postalCode": "49333-9700"
      },
      {
        "line": [
          "911 South Crystal Ave."
        ],
        "city": "BENTON HARBOR",
        "state": "MI",
        "postalCode": "49022-1629"
      },
      {
        "line": [
          "5500 Burton Street SE"
        ],
        "city": "GRAND RAPIDS",
        "state": "MI",
        "postalCode": "49546-6711"
      },
      {
        "line": [
          "730 Grandville Avenue SW"
        ],
        "city": "GRAND RAPIDS",
        "state": "MI",
        "postalCode": "49503-4920"
      },
      {
        "line": [
          "1100 Grandville SW"
        ],
        "city": "GRAND RAPIDS",
        "state": "MI",
        "postalCode": "49503-5028"
      },
      {
        "line": [
          "5600 Beechtree Lane SE"
        ],
        "city": "CALEDONIA",
        "state": "MI",
        "postalCode": "49316-9587"
      },
      {
        "line": [
          "1409 Buchanan Ave. SW"
        ],
        "city": "GRAND RAPIDS",
        "state": "MI",
        "postalCode": "49507-1610"
      },
      {
        "line": [
          "935 Baxter SE"
        ],
        "city": "GRAND RAPIDS",
        "state": "MI",
        "postalCode": "49506-2500"
      },
      {
        "line": [
          "2133 Buchannan Ave. SW"
        ],
        "city": "GRAND RAPIDS",
        "state": "MI",
        "postalCode": "49507-2967"
      },
      {
        "line": [
          "100 Cherry St."
        ],
        "city": "GRAND RAPIDS",
        "state": "MI",
        "postalCode": "49503-4526"
      },
      {
        "line": [
          "1035 Godfrey Avenue SW"
        ],
        "city": "GRAND RAPIDS",
        "state": "MI",
        "postalCode": "49503-4889"
      },
      {
        "line": [
          "801 Oakland Ave. SW"
        ],
        "city": "GRAND RAPIDS",
        "state": "MI",
        "postalCode": "49503-5057"
      },
      {
        "line": [
          "75 Sheldon Blvd. SE"
        ],
        "city": "GRAND RAPIDS",
        "state": "MI",
        "postalCode": "49503-4224"
      },
      {
        "line": [
          "475 Lake Michigan Dr NW"
        ],
        "city": "GRAND RAPIDS",
        "state": "MI",
        "postalCode": "49504-2909"
      },
      {
        "line": [
          "943 Sibley NW"
        ],
        "city": "GRAND RAPIDS",
        "state": "MI",
        "postalCode": "49504-5646"
      },
      {
        "line": [
          "3540 Fairlanes Ave SW"
        ],
        "city": "GRANDVILLE",
        "state": "MI",
        "postalCode": "49418-1242"
      },
      {
        "line": [
          "1700 Oak Ave."
        ],
        "city": "MUSKEGON",
        "state": "MI",
        "postalCode": "49442-2407"
      },
      {
        "line": [
          "1025 Three Mile Road NE"
        ],
        "city": "GRAND RAPIDS",
        "state": "MI",
        "postalCode": "49505-3419"
      },
      {
        "line": [
          "730 Forest Hill SE"
        ],
        "city": "GRAND RAPIDS",
        "state": "MI",
        "postalCode": "49546-2324"
      },
      {
        "line": [
          "311 State St SE"
        ],
        "city": "GRAND RAPIDS",
        "state": "MI",
        "postalCode": "49503-4312"
      },
      {
        "line": [
          "1239 Fuller Ave SE"
        ],
        "city": "GRAND RAPIDS",
        "state": "MI",
        "postalCode": "49506-3248"
      },
      {
        "line": [
          "850 Norwich Ave SW"
        ],
        "city": "GRAND RAPIDS",
        "state": "MI",
        "postalCode": "49503-4844"
      },
      {
        "line": [
          "4730 Baumhoff Ave"
        ],
        "city": "COMSTOCK PARK",
        "state": "MI",
        "postalCode": "49321-9741"
      },
      {
        "line": [
          "5500 Burton Street, SE"
        ],
        "city": "GRAND RAPIDS",
        "state": "MI",
        "postalCode": "49546-6711"
      },
      {
        "line": [
          "Straight School, 850 Chatham NW"
        ],
        "city": "GRAND RAPIDS",
        "state": "MI",
        "postalCode": "49504-1234"
      },
      {
        "line": [
          "901 44th St SE"
        ],
        "city": "GRAND RAPIDS",
        "state": "MI",
        "postalCode": "49508-7575"
      },
      {
        "line": [
          "1357 Grandville Ave SW"
        ],
        "city": "GRAND RAPIDS",
        "state": "MI",
        "postalCode": "49503-1234"
      },
      {
        "line": [
          "644 Grandville Ave. SW"
        ],
        "city": "GRAND RAPIDS",
        "state": "MI",
        "postalCode": "49503-4952"
      }
    ],
    "extension": [
      {
        "url": "https://fhir.athena.io/StructureDefinition/ah-practice",
        "valueReference": {
          "reference": "Organization/a-1.Practice-14268"
        }
      },
      {
        "url": "https://fhir.athena.io/StructureDefinition/ah-brand",
        "valueReference": {
          "reference": "Organization/a-14268.Brand-1"
        }
      }
    ]
  },
  "fullUrl": "urn:uuid:4290d9ae-0889-5cc7-88e0-9564fa2deb16"
}