{
  "resource": {
    "resourceType": "Organization",
    "id": "572598b7-6741-5425-8066-f927475ef985",
    "name": "ASCENSION ILLINOIS",
    "endpoint": [
      {
        "reference": "Endpoint/27a4e967-47aa-5a9c-a572-b8297ee268a2"
      },
      {
        "reference": "Endpoint/5402d977-3532-5f7b-a326-419fe7d7e278"
      }
    ],
    "identifier": [
      {
        "system": "http://hl7.org/fhir/sid/us-npi",
        "value": "1275990061"
      },
      {
        "system": "http://hl7.org/fhir/sid/us-npi",
        "value": "1588775647"
      }
    ],
    "address": [
      {
        "line": [
          "675 S ROSELLE RD"
        ],
        "city": "SCHAUMBURG",
        "state": "IL",
        "postalCode": "60193-3100"
      },
      {
        "line": [
          "7350 N SHERIDAN RD"
        ],
        "city": "CHICAGO",
        "state": "IL",
        "postalCode": "60626-2017"
      },
      {
        "line": [
          "6141 N PULASKI RD"
        ],
        "city": "CHICAGO",
        "state": "IL",
        "postalCode": "60646-5215"
      },
      {
        "line": [
          "14718 S EASTERN AVE"
        ],
        "city": "PLAINFIELD",
        "state": "IL",
        "postalCode": "60544-8870"
      },
      {
        "line": [
          "10 North Summit Ave"
        ],
        "city": "PARK RIDGE",
        "state": "IL",
        "postalCode": "60068-3310"
      },
      {
        "line": [
          "600 W Ogden Ave"
        ],
        "city": "HINSDALE",
        "state": "IL",
        "postalCode": "60521-3158"
      },
      {
        "line": [
          "2450 N CENTRAL AVE"
        ],
        "city": "CHICAGO",
        "state": "IL",
        "postalCode": "60639-1316"
      },
      {
        "line": [
          "1601 N FARNSWORTH AVE"
        ],
        "city": "AURORA",
        "state": "IL",
        "postalCode": "60505-1509"
      },
      {
        "line": [
          "2355 ROYAL BLVD"
        ],
        "city": "ELGIN",
        "state": "IL",
        "postalCode": "60123-4716"
      },
      {
        "line": [
          "1425 W ESTES AVE"
        ],
        "city": "CHICAGO",
        "state": "IL",
        "postalCode": "60712-4029"
      },
      {
        "line": [
          "3601 SOUTH HARLEM AVE"
        ],
        "city": "BERWYN",
        "state": "IL",
        "postalCode": "60402-3219"
      },
      {
        "line": [
          "66 W OAK ST"
        ],
        "city": "CHICAGO",
        "state": "IL",
        "postalCode": "60610-7325"
      },
      {
        "line": [
          "5336 N WESTERN AVE"
        ],
        "city": "CHICAGO",
        "state": "IL",
        "postalCode": "60625-2310"
      },
      {
        "line": [
          "335 ILLINOIS ST"
        ],
        "city": "CRYSTAL LAKE",
        "state": "IL",
        "postalCode": "60014-3618"
      },
      {
        "line": [
          "9615 KNOX AVE"
        ],
        "city": "SKOKIE",
        "state": "IL",
        "postalCode": "60076-1219"
      },
      {
        "line": [
          "200 MARTIN AVE"
        ],
        "city": "NAPERVILLE",
        "state": "IL",
        "postalCode": "60540-6516"
      },
      {
        "line": [
          "5061 N PULASKI RD"
        ],
        "city": "CHICAGO",
        "state": "IL",
        "postalCode": "60630-2706"
      },
      {
        "line": [
          "3121  N SHERIDAN RD"
        ],
        "city": "CHICAGO",
        "state": "IL",
        "postalCode": "60657-4945"
      },
      {
        "line": [
          "2308 OLD HICKS RD"
        ],
        "city": "LAKE ZURICH",
        "state": "IL",
        "postalCode": "60047-8373"
      },
      {
        "line": [
          "80 W NORTHWEST HWY"
        ],
        "city": "PALATINE",
        "state": "IL",
        "postalCode": "60067-3582"
      },
      {
        "line": [
          "625 N HARLEM AVE"
        ],
        "city": "OAK PARK",
        "state": "IL",
        "postalCode": "60302-1805"
      },
      {
        "line": [
          "134 N MCLEAN BLVD"
        ],
        "city": "ELGIN",
        "state": "IL",
        "postalCode": "60123-5169"
      },
      {
        "line": [
          "5825 W CERMAK RD"
        ],
        "city": "CICERO",
        "state": "IL",
        "postalCode": "60804-2134"
      },
      {
        "line": [
          "610 PETERSON RD (HIGHWAY #137)"
        ],
        "city": "LIBERTYVILLE",
        "state": "IL",
        "postalCode": "60048-1014"
      },
      {
        "line": [
          "4501 CONCORD LN"
        ],
        "city": "NORTHBROOK",
        "state": "IL",
        "postalCode": "60062-7163"
      },
      {
        "line": [
          "1515 W FARGO AVE"
        ],
        "city": "CHICAGO",
        "state": "IL",
        "postalCode": "60626-1805"
      },
      {
        "line": [
          "3919 W FOSTER AVE"
        ],
        "city": "CHICAGO",
        "state": "IL",
        "postalCode": "60625-6056"
      }
    ],
    "extension": [
      {
        "url": "https://fhir.athena.io/StructureDefinition/ah-practice",
        "valueReference": {
          "reference": "Organization/a-1.Practice-380"
        }
      },
      {
        "url": "https://fhir.athena.io/StructureDefinition/ah-brand",
        "valueReference": {
          "reference": "Organization/a-380.Brand-1"
        }
      }
    ]
  },
  "fullUrl": "urn:uuid:572598b7-6741-5425-8066-f927475ef985"
}