{
  "resource": {
    "resourceType": "Organization",
    "id": "21851d4f-68a2-524c-9552-787ff11a4d93",
    "name": "National Kidney Partners",
    "endpoint": [
      {
        "reference": "Endpoint/27a4e967-47aa-5a9c-a572-b8297ee268a2"
      },
      {
        "reference": "Endpoint/24a63c62-d155-5603-80ac-0f5e4a73ef70"
      }
    ],
    "identifier": [
      {
        "system": "http://hl7.org/fhir/sid/us-npi",
        "value": "1780684795"
      }
    ],
    "address": [
      {
        "line": [
          "11011 Sheridan st",
          "ste 308"
        ],
        "city": "HOLLYWOOD",
        "state": "FL",
        "postalCode": "33026-1011"
      },
      {
        "line": [
          "7950 SW 30TH ST"
        ],
        "city": "FORT LAUDERDALE",
        "state": "FL",
        "postalCode": "33328-1979"
      },
      {
        "line": [
          "1983 west hillboro blvd"
        ],
        "city": "DEERFIELD BEACH",
        "state": "FL",
        "postalCode": "33442-1983"
      },
      {
        "line": [
          "6264 n federal hwy"
        ],
        "city": "FORT LAUDERDALE",
        "state": "FL",
        "postalCode": "33308-1904"
      },
      {
        "line": [
          "5130 linton blvd",
          "ste g4"
        ],
        "city": "DELRAY BEACH",
        "state": "FL",
        "postalCode": "33484-5130"
      },
      {
        "line": [
          "1680 ne 164th st"
        ],
        "city": "MIAMI",
        "state": "FL",
        "postalCode": "33162-1608"
      },
      {
        "line": [
          "7059 NW 88th ave"
        ],
        "city": "FORT LAUDERDALE",
        "state": "FL",
        "postalCode": "33321-2554"
      },
      {
        "line": [
          "725 North Federal Hwy"
        ],
        "city": "FORT LAUDERDALE",
        "state": "FL",
        "postalCode": "33308-4063"
      },
      {
        "line": [
          "1516 Las Olas Blvd"
        ],
        "city": "FORT LAUDERDALE",
        "state": "FL",
        "postalCode": "33301-2346"
      },
      {
        "line": [
          "500 N HIATUS RD",
          "STE 105"
        ],
        "city": "PEMBROKE PINES",
        "state": "FL",
        "postalCode": "33026-5213"
      },
      {
        "line": [
          "8524 nw 103rd st"
        ],
        "city": "HIALEAH",
        "state": "FL",
        "postalCode": "33016-8524"
      },
      {
        "line": [
          "600 SW 3RD ST STE 1100"
        ],
        "city": "POMPANO BEACH",
        "state": "FL",
        "postalCode": "33060-6936"
      },
      {
        "line": [
          "19559 ne 10th ave"
        ],
        "city": "MIAMI",
        "state": "FL",
        "postalCode": "33178-3501"
      },
      {
        "line": [
          "10150 hagen ranch rd",
          "ste 101"
        ],
        "city": "BOYNTON BEACH",
        "state": "FL",
        "postalCode": "33437-0105"
      },
      {
        "line": [
          "2685 executive park drive"
        ],
        "city": "FORT LAUDERDALE",
        "state": "FL",
        "postalCode": "33331-3651"
      },
      {
        "line": [
          "3863 w broward blvd"
        ],
        "city": "FORT LAUDERDALE",
        "state": "FL",
        "postalCode": "33312-2036"
      },
      {
        "line": [
          "332 N CONGRESS AVE"
        ],
        "city": "BOYNTON BEACH",
        "state": "FL",
        "postalCode": "33426-3413"
      },
      {
        "line": [
          "1905 clintmoore rd",
          "ste 211"
        ],
        "city": "BOCA RATON",
        "state": "FL",
        "postalCode": "33496-1905"
      },
      {
        "line": [
          "4875 ne 20th terr"
        ],
        "city": "FORT LAUDERDALE",
        "state": "FL",
        "postalCode": "33308-4875"
      },
      {
        "line": [
          "3925 w boynton  beach blvd"
        ],
        "city": "BOYNTON BEACH",
        "state": "FL",
        "postalCode": "33436-3925"
      },
      {
        "line": [
          "1311 e atlantic blvd"
        ],
        "city": "POMPANO BEACH",
        "state": "FL",
        "postalCode": "33060-1311"
      },
      {
        "line": [
          "1299 E COMMERCIAL BLVD"
        ],
        "city": "FORT LAUDERDALE",
        "state": "FL",
        "postalCode": "33334-4800"
      },
      {
        "line": [
          "2655 west atlantic"
        ],
        "city": "DELRAY BEACH",
        "state": "FL",
        "postalCode": "33445-4400"
      },
      {
        "line": [
          "9999 ne 2nd ave",
          "ste 119"
        ],
        "city": "MIAMI",
        "state": "FL",
        "postalCode": "33138-2344"
      },
      {
        "line": [
          "998 nw 9th ct"
        ],
        "city": "BOCA RATON",
        "state": "FL",
        "postalCode": "33486-2214"
      },
      {
        "line": [
          "2916 n state road",
          "#7"
        ],
        "city": "FORT LAUDERDALE",
        "state": "FL",
        "postalCode": "33313-1912"
      },
      {
        "line": [
          "850 riverside drive"
        ],
        "city": "POMPANO BEACH",
        "state": "FL",
        "postalCode": "33071-7010"
      },
      {
        "line": [
          "8144 w broward blvd"
        ],
        "city": "FORT LAUDERDALE",
        "state": "FL",
        "postalCode": "33324-2000"
      },
      {
        "line": [
          "326 e dania beach blvd"
        ],
        "city": "DANIA",
        "state": "FL",
        "postalCode": "33004-3028"
      },
      {
        "line": [
          "2655 Hollywood Blvd"
        ],
        "city": "HOLLYWOOD",
        "state": "FL",
        "postalCode": "33020-4840"
      },
      {
        "line": [
          "4401 hollywood blvd"
        ],
        "city": "HOLLYWOOD",
        "state": "FL",
        "postalCode": "33021-4401"
      },
      {
        "line": [
          "4955 LE chalet Blvd"
        ],
        "city": "BOYNTON BEACH",
        "state": "FL",
        "postalCode": "33436-4965"
      },
      {
        "line": [
          "849 n nob hill rd"
        ],
        "city": "FORT LAUDERDALE",
        "state": "FL",
        "postalCode": "33324-0849"
      },
      {
        "line": [
          "2514 n st road",
          "#7"
        ],
        "city": "POMPANO BEACH",
        "state": "FL",
        "postalCode": "33063-5722"
      },
      {
        "line": [
          "4970 sw 52 st"
        ],
        "city": "FORT LAUDERDALE",
        "state": "FL",
        "postalCode": "33314-5531"
      },
      {
        "line": [
          "7061 cypress rd"
        ],
        "city": "FORT LAUDERDALE",
        "state": "FL",
        "postalCode": "33317-2243"
      },
      {
        "line": [
          "1871 n pine island"
        ],
        "city": "FORT LAUDERDALE",
        "state": "FL",
        "postalCode": "33322-5208"
      },
      {
        "line": [
          "9060 Kimberly Blvd",
          "ste 32"
        ],
        "city": "BOYNTON BEACH",
        "state": "FL",
        "postalCode": "33435-9060"
      },
      {
        "line": [
          "4725 N FEDERAL HWY"
        ],
        "city": "FORT LAUDERDALE",
        "state": "FL",
        "postalCode": "33308-4603"
      },
      {
        "line": [
          "2700 hollywood blvd",
          "ste 100"
        ],
        "city": "HOLLYWOOD",
        "state": "FL",
        "postalCode": "33020-2700"
      },
      {
        "line": [
          "19801 hampton drive"
        ],
        "city": "BOCA RATON",
        "state": "FL",
        "postalCode": "33434-9801"
      },
      {
        "line": [
          "2459 s congress ave",
          "ste 100"
        ],
        "city": "WEST PALM BEACH",
        "state": "FL",
        "postalCode": "33406-7616"
      },
      {
        "line": [
          "100 e sample rd",
          "#120"
        ],
        "city": "POMPANO BEACH",
        "state": "FL",
        "postalCode": "33064-3554"
      },
      {
        "line": [
          "4984 N UNIVERSITY DR"
        ],
        "city": "FORT LAUDERDALE",
        "state": "FL",
        "postalCode": "33351-5748"
      },
      {
        "line": [
          "2800 n st rd",
          "#7"
        ],
        "city": "POMPANO BEACH",
        "state": "FL",
        "postalCode": "33063-5704"
      },
      {
        "line": [
          "8100 johnson st"
        ],
        "city": "HOLLYWOOD",
        "state": "FL",
        "postalCode": "33024-8100"
      },
      {
        "line": [
          "601 n flamingo rd",
          "ste 109"
        ],
        "city": "PEMBROKE PINES",
        "state": "FL",
        "postalCode": "33028-1007"
      },
      {
        "line": [
          "2900 n military trl"
        ],
        "city": "BOCA RATON",
        "state": "FL",
        "postalCode": "33431-6365"
      },
      {
        "line": [
          "7525 n st rd",
          "7"
        ],
        "city": "DELRAY BEACH",
        "state": "FL",
        "postalCode": "33445-2605"
      },
      {
        "line": [
          "10725 Wiles Road"
        ],
        "city": "POMPANO BEACH",
        "state": "FL",
        "postalCode": "33076-0725"
      }
    ],
    "extension": [
      {
        "url": "https://fhir.athena.io/StructureDefinition/ah-practice",
        "valueReference": {
          "reference": "Organization/a-1.Practice-16880"
        }
      },
      {
        "url": "https://fhir.athena.io/StructureDefinition/ah-brand",
        "valueReference": {
          "reference": "Organization/a-16880.Brand-5"
        }
      }
    ]
  },
  "fullUrl": "urn:uuid:21851d4f-68a2-524c-9552-787ff11a4d93"
}