{
  "resource": {
    "resourceType": "Organization",
    "id": "5c9ee5e4-a623-5b60-873e-9394f05337c9",
    "name": "Vision is Priceless",
    "endpoint": [
      {
        "reference": "Endpoint/27a4e967-47aa-5a9c-a572-b8297ee268a2"
      },
      {
        "reference": "Endpoint/6734912b-3792-59e5-9f45-8003290a125a"
      }
    ],
    "identifier": [
      {
        "system": "http://hl7.org/fhir/sid/us-npi",
        "value": "1234567890"
      }
    ],
    "address": [
      {
        "line": [
          "751 OAK STREET",
          "SUITE 200"
        ],
        "city": "JACKSONVILLE",
        "state": "FL",
        "postalCode": "32204-3361"
      },
      {
        "line": [
          "76212 NICHOLAS CUTINHA RD"
        ],
        "city": "YULEE",
        "state": "FL",
        "postalCode": "32097-5420"
      },
      {
        "line": [
          "6161 ARLINGTON EXPY"
        ],
        "city": "JACKSONVILLE",
        "state": "FL",
        "postalCode": "32211-5604"
      },
      {
        "line": [
          "1909 BEACH BLVD",
          "SUITE 101"
        ],
        "city": "JACKSONVILLE BEACH",
        "state": "FL",
        "postalCode": "32250-2643"
      },
      {
        "line": [
          "2 SHIRCLIFF WAY",
          "SUITE 715"
        ],
        "city": "JACKSONVILLE",
        "state": "FL",
        "postalCode": "32204-4759"
      },
      {
        "line": [
          "3636 UNIVERSITY BLVD S",
          "SUITE 8A"
        ],
        "city": "JACKSONVILLE",
        "state": "FL",
        "postalCode": "32216-4210"
      },
      {
        "line": [
          "1615 COUNTY RD 220",
          "SUITE 140"
        ],
        "city": "FLEMING ISLAND",
        "state": "FL",
        "postalCode": "32003-4937"
      },
      {
        "line": [
          "58 BLANDING BLVD"
        ],
        "city": "ORANGE PARK",
        "state": "FL",
        "postalCode": "32073-2625"
      },
      {
        "line": [
          "4501 CAPPER RD"
        ],
        "city": "JACKSONVILLE",
        "state": "FL",
        "postalCode": "32218-4499"
      },
      {
        "line": [
          "100 WHETSTONE PL"
        ],
        "city": "SAINT AUGUSTINE",
        "state": "FL",
        "postalCode": "32086-5574"
      },
      {
        "line": [
          "7740 POINT MEADOWS DR",
          "SUITE 34"
        ],
        "city": "JACKSONVILLE",
        "state": "FL",
        "postalCode": "32256-9179"
      },
      {
        "line": [
          "1303 JASMINE ST",
          "SUITE 101"
        ],
        "city": "FERNANDINA BEACH",
        "state": "FL",
        "postalCode": "32034-2991"
      },
      {
        "line": [
          "3737 BLANDING BLVD"
        ],
        "city": "JACKSONVILLE",
        "state": "FL",
        "postalCode": "32210-5242"
      },
      {
        "line": [
          "4615 PHILIPS HWY",
          "STE 100A"
        ],
        "city": "JACKSONVILLE",
        "state": "FL",
        "postalCode": "32207-9506"
      },
      {
        "line": [
          "3546 ST JOHNS BLUFF RD S",
          "SUITE 203"
        ],
        "city": "JACKSONVILLE",
        "state": "FL",
        "postalCode": "32224-2716"
      },
      {
        "line": [
          "2450 OLD MOULTRIE RD",
          "SUITE 101"
        ],
        "city": "SAINT AUGUSTINE",
        "state": "FL",
        "postalCode": "32086-3100"
      },
      {
        "line": [
          "9400 ATLANTIC BLVD",
          "SUITE 62"
        ],
        "city": "JACKSONVILLE",
        "state": "FL",
        "postalCode": "32225-8245"
      },
      {
        "line": [
          "5126 TIMUQUANA RD,  FL"
        ],
        "city": "JACKSONVILLE",
        "state": "FL",
        "postalCode": "32210-7441"
      },
      {
        "line": [
          "8786 PERIMETER PARK BLVD"
        ],
        "city": "JACKSONVILLE",
        "state": "FL",
        "postalCode": "32216-6347"
      },
      {
        "line": [
          "31 S 6TH ST"
        ],
        "city": "MACCLENNY",
        "state": "FL",
        "postalCode": "32063-2311"
      },
      {
        "line": [
          "3020 HARTLEY RD",
          "SUITE 190"
        ],
        "city": "JACKSONVILLE",
        "state": "FL",
        "postalCode": "32257-8204"
      },
      {
        "line": [
          "3 SHIRCLIFF WAY",
          "STE 122"
        ],
        "city": "JACKSONVILLE",
        "state": "FL",
        "postalCode": "32204-4785"
      },
      {
        "line": [
          "11512 LAKE MEAD AVE",
          "SUITE 534"
        ],
        "city": "JACKSONVILLE",
        "state": "FL",
        "postalCode": "32256-5835"
      },
      {
        "line": [
          "9397 SAN JOSE BLVD",
          "SUITE 2"
        ],
        "city": "JACKSONVILLE",
        "state": "FL",
        "postalCode": "32257-5637"
      },
      {
        "line": [
          "905 PARK AVE",
          "SUITE 104"
        ],
        "city": "ORANGE PARK",
        "state": "FL",
        "postalCode": "32073-4110"
      },
      {
        "line": [
          "201 N HOGAN ST",
          "SUITE 100"
        ],
        "city": "JACKSONVILLE",
        "state": "FL",
        "postalCode": "32202-4203"
      },
      {
        "line": [
          "213  LAURA ST"
        ],
        "city": "JACKSONVILLE",
        "state": "FL",
        "postalCode": "32202-3501"
      },
      {
        "line": [
          "2639 OAK ST"
        ],
        "city": "JACKSONVILLE",
        "state": "FL",
        "postalCode": "32204-4505"
      },
      {
        "line": [
          "11790 SAN JOSE BLVD"
        ],
        "city": "JACKSONVILLE",
        "state": "FL",
        "postalCode": "32223-1836"
      },
      {
        "line": [
          "5255 DUNN AVE"
        ],
        "city": "JACKSONVILLE",
        "state": "FL",
        "postalCode": "32218-4361"
      },
      {
        "line": [
          "13227 CITY SQUARE DR"
        ],
        "city": "JACKSONVILLE",
        "state": "FL",
        "postalCode": "32218-7218"
      },
      {
        "line": [
          "7500 CENTURION PARKWAY"
        ],
        "city": "JACKSONVILLE",
        "state": "FL",
        "postalCode": "32256-0514"
      },
      {
        "line": [
          "1563 KINGSLEY AVE",
          "SUITE 101"
        ],
        "city": "ORANGE PARK",
        "state": "FL",
        "postalCode": "32073-4503"
      },
      {
        "line": [
          "2023 PROFESSIONAL CENTER DR"
        ],
        "city": "ORANGE PARK",
        "state": "FL",
        "postalCode": "32073-4472"
      },
      {
        "line": [
          "161 HAMPTON POINT DR",
          "SUITE 3"
        ],
        "city": "SAINT AUGUSTINE",
        "state": "FL",
        "postalCode": "32092-3058"
      },
      {
        "line": [
          "542069 US HWY 1"
        ],
        "city": "CALLAHAN",
        "state": "FL",
        "postalCode": "32011-8110"
      }
    ],
    "extension": [
      {
        "url": "https://fhir.athena.io/StructureDefinition/ah-practice",
        "valueReference": {
          "reference": "Organization/a-1.Practice-19770"
        }
      },
      {
        "url": "https://fhir.athena.io/StructureDefinition/ah-brand",
        "valueReference": {
          "reference": "Organization/a-19770.Brand-1"
        }
      }
    ]
  },
  "fullUrl": "urn:uuid:5c9ee5e4-a623-5b60-873e-9394f05337c9"
}