{
  "resource": {
    "resourceType": "Organization",
    "id": "d6d7e7e7-46d9-5c3a-8ee5-fed72a65c8cd",
    "name": "DiFranco Family Foot Care",
    "endpoint": [
      {
        "reference": "Endpoint/27a4e967-47aa-5a9c-a572-b8297ee268a2"
      },
      {
        "reference": "Endpoint/d35f2aa4-712c-5dcd-b44f-62f0027982e8"
      }
    ],
    "identifier": [
      {
        "system": "http://hl7.org/fhir/sid/us-npi",
        "value": "1528674462"
      }
    ],
    "address": [
      {
        "line": [
          "242 West 11th Street"
        ],
        "city": "ERIE",
        "state": "PA",
        "postalCode": "16501-1701"
      },
      {
        "line": [
          "3939 WEST RIDGE ROAD",
          "SUITE C-1"
        ],
        "city": "ERIE",
        "state": "PA",
        "postalCode": "16506-1879"
      },
      {
        "line": [
          "201 State Street"
        ],
        "city": "ERIE",
        "state": "PA",
        "postalCode": "16550-0002"
      },
      {
        "line": [
          "200 State Street"
        ],
        "city": "ERIE",
        "state": "PA",
        "postalCode": "16507-1420"
      },
      {
        "line": [
          "143 East 2nd Street"
        ],
        "city": "ERIE",
        "state": "PA",
        "postalCode": "16507-1501"
      },
      {
        "line": [
          "4850 Zuck Rd"
        ],
        "city": "ERIE",
        "state": "PA",
        "postalCode": "16506-4396"
      },
      {
        "line": [
          "5515 Peach Street"
        ],
        "city": "ERIE",
        "state": "PA",
        "postalCode": "16509-2603"
      },
      {
        "line": [
          "5473 Village Common Dr STE 100"
        ],
        "city": "ERIE",
        "state": "PA",
        "postalCode": "16506-4961"
      },
      {
        "line": [
          "965 Shamrock Lane"
        ],
        "city": "CORRY",
        "state": "PA",
        "postalCode": "16407-9121"
      },
      {
        "line": [
          "5515 PEACH ST"
        ],
        "city": "ERIE",
        "state": "PA",
        "postalCode": "16509-2603"
      }
    ],
    "extension": [
      {
        "url": "https://fhir.athena.io/StructureDefinition/ah-practice",
        "valueReference": {
          "reference": "Organization/a-1.Practice-22494"
        }
      },
      {
        "url": "https://fhir.athena.io/StructureDefinition/ah-brand",
        "valueReference": {
          "reference": "Organization/a-22494.Brand-1"
        }
      }
    ]
  },
  "fullUrl": "urn:uuid:d6d7e7e7-46d9-5c3a-8ee5-fed72a65c8cd"
}