{
  "resource": {
    "resourceType": "Organization",
    "id": "f4065cb0-d9b4-5bfe-b824-0cf8cbef3278",
    "name": "Cardiothoracic Surgery",
    "endpoint": [
      {
        "reference": "Endpoint/27a4e967-47aa-5a9c-a572-b8297ee268a2"
      },
      {
        "reference": "Endpoint/463e6a9e-bb4a-5ade-8351-3c8bd1d0fb6d"
      }
    ],
    "identifier": [
      {
        "system": "http://hl7.org/fhir/sid/us-npi",
        "value": "1972605285"
      },
      {
        "system": "http://hl7.org/fhir/sid/us-npi",
        "value": "1255984456"
      },
      {
        "system": "http://hl7.org/fhir/sid/us-npi",
        "value": "1659931525"
      },
      {
        "system": "http://hl7.org/fhir/sid/us-npi",
        "value": "1487131025"
      },
      {
        "system": "http://hl7.org/fhir/sid/us-npi",
        "value": "1841783180"
      }
    ],
    "address": [
      {
        "line": [
          "1701 East 23rd Ave",
          "Suite 2000"
        ],
        "city": "HUTCHINSON",
        "state": "KS",
        "postalCode": "67502-1105"
      },
      {
        "line": [
          "1202 E 23RD AVE"
        ],
        "city": "HUTCHINSON",
        "state": "KS",
        "postalCode": "67502-5656"
      },
      {
        "line": [
          "1701 E 23RD AVE"
        ],
        "city": "HUTCHINSON",
        "state": "KS",
        "postalCode": "67502-1105"
      },
      {
        "line": [
          "1701 East 23rd Ave",
          "Ste. 2000"
        ],
        "city": "HUTCHINSON",
        "state": "KS",
        "postalCode": "67502-1105"
      },
      {
        "line": [
          "2100 N Waldron St.",
          "Suite #4"
        ],
        "city": "HUTCHINSON",
        "state": "KS",
        "postalCode": "67502-1167"
      },
      {
        "line": [
          "1000 Hospital Dr"
        ],
        "city": "MCPHERSON",
        "state": "KS",
        "postalCode": "67460-2326"
      },
      {
        "line": [
          "1701 E 23rd"
        ],
        "city": "HUTCHINSON",
        "state": "KS",
        "postalCode": "67502-1105"
      },
      {
        "line": [
          "1701 E. 23rd Ave."
        ],
        "city": "HUTCHINSON",
        "state": "KS",
        "postalCode": "67502-1105"
      },
      {
        "line": [
          "1701 E 23RD AVE"
        ],
        "city": "HUTCHINSON",
        "state": "KS",
        "postalCode": "67502-9907"
      },
      {
        "line": [
          "1701 East 23rd Ave"
        ],
        "city": "HUTCHINSON",
        "state": "KS",
        "postalCode": "67502-1105"
      },
      {
        "line": [
          "10 S MAIN ST STE B"
        ],
        "city": "HUTCHINSON",
        "state": "KS",
        "postalCode": "67501-5422"
      },
      {
        "line": [
          "2100 N Waldron St.",
          " Suite #4"
        ],
        "city": "HUTCHINSON",
        "state": "KS",
        "postalCode": "67502-1167"
      },
      {
        "line": [
          "1701 E 23rd"
        ],
        "city": "HUTCHINSON",
        "state": "KS",
        "postalCode": "67502-9907"
      },
      {
        "line": [
          "2520 N WALDRON ST"
        ],
        "city": "HUTCHINSON",
        "state": "KS",
        "postalCode": "67502-1279"
      },
      {
        "line": [
          "1701 E 23rd Ave"
        ],
        "city": "HUTCHINSON",
        "state": "KS",
        "postalCode": "67502-1105"
      }
    ],
    "extension": [
      {
        "url": "https://fhir.athena.io/StructureDefinition/ah-practice",
        "valueReference": {
          "reference": "Organization/a-1.Practice-19896"
        }
      },
      {
        "url": "https://fhir.athena.io/StructureDefinition/ah-brand",
        "valueReference": {
          "reference": "Organization/a-19896.Brand-1"
        }
      }
    ]
  },
  "fullUrl": "urn:uuid:f4065cb0-d9b4-5bfe-b824-0cf8cbef3278"
}