{
  "resource": {
    "resourceType": "Organization",
    "id": "524ecc9d-53ef-5008-983d-b37c57d081c0",
    "name": "Access HH and Hospice",
    "endpoint": [
      {
        "reference": "Endpoint/27a4e967-47aa-5a9c-a572-b8297ee268a2"
      },
      {
        "reference": "Endpoint/d853e343-f75b-5a35-9090-2da843ee6896"
      }
    ],
    "identifier": [
      {
        "system": "http://hl7.org/fhir/sid/us-npi",
        "value": "1679608582"
      }
    ],
    "address": [
      {
        "line": [
          "565 W 465 N STE 130"
        ],
        "city": "PROVIDENCE",
        "state": "UT",
        "postalCode": "84332-4802"
      },
      {
        "line": [
          "565 WEST 465 NORTH, STE 130"
        ],
        "city": "PROVIDENCE",
        "state": "UT",
        "postalCode": "84332-9707"
      },
      {
        "line": [
          "455 East 2500 Nrth"
        ],
        "city": "LOGAN",
        "state": "UT",
        "postalCode": "84341-1523"
      },
      {
        "line": [
          "352 S 500 W"
        ],
        "city": "LOGAN",
        "state": "UT",
        "postalCode": "84321-5118"
      },
      {
        "line": [
          "350 E 2200 N"
        ],
        "city": "North LOGAN",
        "state": "UT",
        "postalCode": "84341-1865"
      },
      {
        "line": [
          "165 E 1400",
          "UNIT 230"
        ],
        "city": "LOGAN",
        "state": "UT",
        "postalCode": "84341-2395"
      },
      {
        "line": [
          "1480N 400 E"
        ],
        "city": "LOGAN",
        "state": "UT",
        "postalCode": "84341-7525"
      },
      {
        "line": [
          "Logan"
        ],
        "city": "LOGAN",
        "state": "UT",
        "postalCode": "84321-4506"
      },
      {
        "line": [
          "1480 North 400 East"
        ],
        "city": "LOGAN",
        "state": "UT",
        "postalCode": "84341-7525"
      },
      {
        "line": [
          "225 N 200 W"
        ],
        "city": "LOGAN",
        "state": "UT",
        "postalCode": "84321-1708"
      }
    ],
    "extension": [
      {
        "url": "https://fhir.athena.io/StructureDefinition/ah-practice",
        "valueReference": {
          "reference": "Organization/a-1.Practice-17691"
        }
      },
      {
        "url": "https://fhir.athena.io/StructureDefinition/ah-brand",
        "valueReference": {
          "reference": "Organization/a-17691.Brand-1"
        }
      }
    ]
  },
  "fullUrl": "urn:uuid:524ecc9d-53ef-5008-983d-b37c57d081c0"
}