{
  "resource": {
    "resourceType": "Organization",
    "id": "de0c2c41-7d24-5e74-b989-ecefd78cebb8",
    "name": "VINOD K. VALIVETI, M.D., INC.",
    "endpoint": [
      {
        "reference": "Endpoint/27a4e967-47aa-5a9c-a572-b8297ee268a2"
      },
      {
        "reference": "Endpoint/8c2b577e-ab98-51ff-9a34-d5b54f49eee3"
      }
    ],
    "identifier": [
      {
        "system": "http://hl7.org/fhir/sid/us-npi",
        "value": "1245263664"
      }
    ],
    "address": [
      {
        "line": [
          "2309 ANTONIO AVENUE"
        ],
        "city": "CAMARILLO",
        "state": "CA",
        "postalCode": "93010-1414"
      },
      {
        "line": [
          "2641 SOUTH C STREET"
        ],
        "city": "OXNARD",
        "state": "CA",
        "postalCode": "93033-4502"
      },
      {
        "line": [
          "5225 SOUTH J STREET"
        ],
        "city": "OXNARD",
        "state": "CA",
        "postalCode": "93033-8320"
      },
      {
        "line": [
          "4020 LOMA VISTA ROAD"
        ],
        "city": "VENTURA",
        "state": "CA",
        "postalCode": "93003-1801"
      },
      {
        "line": [
          "5445 EVERGLADES STREET"
        ],
        "city": "VENTURA",
        "state": "CA",
        "postalCode": "93003-6523"
      },
      {
        "line": [
          "5445 EVERGLADES STEET"
        ],
        "city": "VENTURA",
        "state": "CA",
        "postalCode": "93003-6523"
      },
      {
        "line": [
          "205 GRANADA STREET"
        ],
        "city": "CAMARILLO",
        "state": "CA",
        "postalCode": "93010-7715"
      },
      {
        "line": [
          "1600 NORTH ROSE AVENUE"
        ],
        "city": "OXNARD",
        "state": "CA",
        "postalCode": "93030-3722"
      }
    ],
    "extension": [
      {
        "url": "https://fhir.athena.io/StructureDefinition/ah-practice",
        "valueReference": {
          "reference": "Organization/a-1.Practice-8609"
        }
      },
      {
        "url": "https://fhir.athena.io/StructureDefinition/ah-brand",
        "valueReference": {
          "reference": "Organization/a-8609.Brand-1"
        }
      }
    ]
  },
  "fullUrl": "urn:uuid:de0c2c41-7d24-5e74-b989-ecefd78cebb8"
}