{
  "resource": {
    "resourceType": "Organization",
    "id": "3c0c3c20-99c9-50b2-9e65-b4e75b31493a",
    "name": "2121 East Harmony Rd, Suite 370 Fort Collins CO 80528-340",
    "endpoint": [
      {
        "reference": "Endpoint/27a4e967-47aa-5a9c-a572-b8297ee268a2"
      },
      {
        "reference": "Endpoint/fc7cf930-2c93-560e-bfcb-df935317e377"
      }
    ],
    "identifier": [
      {
        "system": "http://hl7.org/fhir/sid/us-npi",
        "value": "1275646614"
      },
      {
        "system": "http://hl7.org/fhir/sid/us-npi",
        "value": "1053810622"
      },
      {
        "system": "http://hl7.org/fhir/sid/us-npi",
        "value": "1285210757"
      }
    ],
    "address": [
      {
        "line": [
          "1024 S LEMAY AVE"
        ],
        "city": "FORT COLLINS",
        "state": "CO",
        "postalCode": "80524-3929"
      },
      {
        "line": [
          "20424 N 98TH LN"
        ],
        "city": "PEORIA",
        "state": "AZ",
        "postalCode": "85382-5107"
      },
      {
        "line": [
          "14335 W Yucatan St"
        ],
        "city": "SURPRISE",
        "state": "AZ",
        "postalCode": "85379-4361"
      },
      {
        "line": [
          "5941 W AUDREY LN"
        ],
        "city": "GLENDALE",
        "state": "AZ",
        "postalCode": "85308-0702"
      },
      {
        "line": [
          "6735 W GOLDEN LN"
        ],
        "city": "PEORIA",
        "state": "AZ",
        "postalCode": "85345-4372"
      },
      {
        "line": [
          "18441 N 87TH AVE"
        ],
        "city": "PEORIA",
        "state": "AZ",
        "postalCode": "85382-8532"
      },
      {
        "line": [
          "15833 CLUBHOUSE DR"
        ],
        "city": "GOODYEAR",
        "state": "AZ",
        "postalCode": "85395-6494"
      },
      {
        "line": [
          "3003 N CENTRAL AVE"
        ],
        "city": "PHOENIX",
        "state": "AZ",
        "postalCode": "85012-2902"
      },
      {
        "line": [
          "4723 E BUCKBOARD CT"
        ],
        "city": "GILBERT",
        "state": "AZ",
        "postalCode": "85297-9607"
      },
      {
        "line": [
          "1875 FALL RIVER DR"
        ],
        "city": "LOVELAND",
        "state": "CO",
        "postalCode": "80538-4412"
      },
      {
        "line": [
          "6945 E MAIN ST BLDG 5"
        ],
        "city": "MESA",
        "state": "AZ",
        "postalCode": "85207-8206"
      },
      {
        "line": [
          "2895 EMPIRE AVE"
        ],
        "city": "LOVELAND",
        "state": "CO",
        "postalCode": "80538-3039"
      },
      {
        "line": [
          "17271 N 87TH AVE"
        ],
        "city": "PEORIA",
        "state": "AZ",
        "postalCode": "85382-2777"
      },
      {
        "line": [
          "11523 W PEORIA AVE"
        ],
        "city": "YOUNGTOWN",
        "state": "AZ",
        "postalCode": "85363-1640"
      },
      {
        "line": [
          "1910 S RIALTO"
        ],
        "city": "MESA",
        "state": "AZ",
        "postalCode": "85209-7018"
      },
      {
        "line": [
          "18172 N 91ST AVE"
        ],
        "city": "PEORIA",
        "state": "AZ",
        "postalCode": "85382-3001"
      },
      {
        "line": [
          "8620 N 65TH AVE"
        ],
        "city": "GLENDALE",
        "state": "AZ",
        "postalCode": "85302-4330"
      },
      {
        "line": [
          "1024 S. Lemay Ave."
        ],
        "city": "FORT COLLINS",
        "state": "CO",
        "postalCode": "80524-3929"
      },
      {
        "line": [
          "5625 E MCKELLIPS RD"
        ],
        "city": "MESA",
        "state": "AZ",
        "postalCode": "85215-2737"
      },
      {
        "line": [
          "985 E VIRGO PL"
        ],
        "city": "CHANDLER",
        "state": "AZ",
        "postalCode": "85249-3664"
      },
      {
        "line": [
          "6981 W VILLA HERMOSA"
        ],
        "city": "GLENDALE",
        "state": "AZ",
        "postalCode": "85310-5855"
      },
      {
        "line": [
          "1221 S ARROYA CIR"
        ],
        "city": "MESA",
        "state": "AZ",
        "postalCode": "85206-6705"
      },
      {
        "line": [
          "5125 N 58TH AVE"
        ],
        "city": "GLENDALE",
        "state": "AZ",
        "postalCode": "85301-7453"
      },
      {
        "line": [
          "3864 E Dogwood Pl"
        ],
        "city": "CHANDLER",
        "state": "AZ",
        "postalCode": "85286-0214"
      },
      {
        "line": [
          "7250 W Cathedral Rock Drive"
        ],
        "city": "LAS VEGAS",
        "state": "NV",
        "postalCode": "89128-0433"
      },
      {
        "line": [
          "5620 W THUNDERBIRD RD"
        ],
        "city": "GLENDALE",
        "state": "AZ",
        "postalCode": "85306-4636"
      },
      {
        "line": [
          "5515 N 132ND DR"
        ],
        "city": "LITCHFIELD PARK",
        "state": "AZ",
        "postalCode": "85340-8330"
      },
      {
        "line": [
          "2500 Rocky Mountain Ave."
        ],
        "city": "LOVELAND",
        "state": "CO",
        "postalCode": "80538-9004"
      },
      {
        "line": [
          "6134 W BEVERLY LN"
        ],
        "city": "GLENDALE",
        "state": "AZ",
        "postalCode": "85306-1716"
      },
      {
        "line": [
          "13810 W SANDRIDGE DR"
        ],
        "city": "SUN CITY WEST",
        "state": "AZ",
        "postalCode": "85375-4465"
      },
      {
        "line": [
          "2647 Box Canyon Dr"
        ],
        "city": "LAS VEGAS",
        "state": "NV",
        "postalCode": "89128-0450"
      },
      {
        "line": [
          "4647 W MOON BLOSSUM LN"
        ],
        "city": "PHOENIX",
        "state": "AZ",
        "postalCode": "85083-1670"
      },
      {
        "line": [
          "17207 N BOSWELL BLVD"
        ],
        "city": "SUN CITY",
        "state": "AZ",
        "postalCode": "85373-2073"
      },
      {
        "line": [
          "1614 N MESA DR"
        ],
        "city": "MESA",
        "state": "AZ",
        "postalCode": "85201-2322"
      },
      {
        "line": [
          "28040 N 99TH DR"
        ],
        "city": "PEORIA",
        "state": "AZ",
        "postalCode": "85383-8811"
      },
      {
        "line": [
          "1625 FOXTRAIL DR STE 190"
        ],
        "city": "LOVELAND",
        "state": "CO",
        "postalCode": "80538-9089"
      },
      {
        "line": [
          "4929 E LAUREL LN"
        ],
        "city": "SCOTTSDALE",
        "state": "AZ",
        "postalCode": "85254-4640"
      },
      {
        "line": [
          "10087 W EL CORTEZ PL"
        ],
        "city": "PEORIA",
        "state": "AZ",
        "postalCode": "85383-1460"
      },
      {
        "line": [
          "2451 PRATT ST"
        ],
        "city": "LONGMONT",
        "state": "CO",
        "postalCode": "80501-1123"
      },
      {
        "line": [
          "2121 E HARMONY RD UNIT 370"
        ],
        "city": "FORT COLLINS",
        "state": "CO",
        "postalCode": "80528-3404"
      },
      {
        "line": [
          "636 CASTLE RIDGE CT"
        ],
        "city": "FORT COLLINS",
        "state": "CO",
        "postalCode": "80525-6205"
      },
      {
        "line": [
          "10101 W Palmeras Dr."
        ],
        "city": "SUN CITY",
        "state": "AZ",
        "postalCode": "85373-2058"
      },
      {
        "line": [
          "1341 N LAKESHORE DR"
        ],
        "city": "CHANDLER",
        "state": "AZ",
        "postalCode": "85226-7207"
      },
      {
        "line": [
          "3864 E DOGWOOD PL"
        ],
        "city": "CHANDLER",
        "state": "AZ",
        "postalCode": "85286-0214"
      },
      {
        "line": [
          "20240 N 78TH AVE"
        ],
        "city": "GLENDALE",
        "state": "AZ",
        "postalCode": "85308-6198"
      },
      {
        "line": [
          "2025 BIGHORN RD"
        ],
        "city": "FORT COLLINS",
        "state": "CO",
        "postalCode": "80525-3480"
      },
      {
        "line": [
          "8035 E BROWN RD"
        ],
        "city": "MESA",
        "state": "AZ",
        "postalCode": "85207-3901"
      },
      {
        "line": [
          "6502 E BROWN RD"
        ],
        "city": "MESA",
        "state": "AZ",
        "postalCode": "85205-4903"
      },
      {
        "line": [
          "1760 E Pecos Road",
          "Suite 102"
        ],
        "city": "GILBERT",
        "state": "AZ",
        "postalCode": "85295-3200"
      },
      {
        "line": [
          "2635 N DYSART RD"
        ],
        "city": "AVONDALE",
        "state": "AZ",
        "postalCode": "85392-2001"
      },
      {
        "line": [
          "2150 W Orange Grove Rd"
        ],
        "city": "TUCSON",
        "state": "AZ",
        "postalCode": "85741-3119"
      },
      {
        "line": [
          "900 CENTRE AVE"
        ],
        "city": "FORT COLLINS",
        "state": "CO",
        "postalCode": "80526-1848"
      },
      {
        "line": [
          "7987 N 53RD AVE"
        ],
        "city": "GLENDALE",
        "state": "AZ",
        "postalCode": "85301-8644"
      },
      {
        "line": [
          "16623 N WEST POINT PKWY"
        ],
        "city": "SURPRISE",
        "state": "AZ",
        "postalCode": "85374-6011"
      },
      {
        "line": [
          "8559 W BROWN ST"
        ],
        "city": "PEORIA",
        "state": "AZ",
        "postalCode": "85345-3147"
      },
      {
        "line": [
          "5620 W Thunderbird Rd"
        ],
        "city": "GLENDALE",
        "state": "AZ",
        "postalCode": "85306-4639"
      },
      {
        "line": [
          "22412 N 101ST AVE"
        ],
        "city": "PEORIA",
        "state": "AZ",
        "postalCode": "85383-3572"
      },
      {
        "line": [
          "424 S 56TH ST",
          "Ste 200"
        ],
        "city": "PHOENIX",
        "state": "AZ",
        "postalCode": "85034-2108"
      },
      {
        "line": [
          "17200 N 67TH AVE"
        ],
        "city": "GLENDALE",
        "state": "AZ",
        "postalCode": "85308-4513"
      },
      {
        "line": [
          "8611 N 67TH AVE"
        ],
        "city": "GLENDALE",
        "state": "AZ",
        "postalCode": "85302-4351"
      },
      {
        "line": [
          "17202 N 69TH AVE"
        ],
        "city": "GLENDALE",
        "state": "AZ",
        "postalCode": "85308-8478"
      },
      {
        "line": [
          "2500 ROCKY MOUNTAIN AVE"
        ],
        "city": "LOVELAND",
        "state": "CO",
        "postalCode": "80538-9004"
      },
      {
        "line": [
          "4321 W CHOLLA ST"
        ],
        "city": "GLENDALE",
        "state": "AZ",
        "postalCode": "85304-3531"
      },
      {
        "line": [
          "15048 W YOUNG ST"
        ],
        "city": "SURPRISE",
        "state": "AZ",
        "postalCode": "85374-7484"
      },
      {
        "line": [
          "4816 W PARK VIEW LN"
        ],
        "city": "GLENDALE",
        "state": "AZ",
        "postalCode": "85310-3021"
      },
      {
        "line": [
          "1651 N 58TH ST"
        ],
        "city": "MESA",
        "state": "AZ",
        "postalCode": "85205-3576"
      },
      {
        "line": [
          "3675 S ROME ST"
        ],
        "city": "GILBERT",
        "state": "AZ",
        "postalCode": "85297-7342"
      },
      {
        "line": [
          "13840 N Desert Harbor Dr"
        ],
        "city": "PEORIA",
        "state": "AZ",
        "postalCode": "85381-3621"
      },
      {
        "line": [
          "755 S. Perry ST"
        ],
        "city": "CASTLE ROCK",
        "state": "CO",
        "postalCode": "80104-1901"
      },
      {
        "line": [
          "11830 N 19TH AVE"
        ],
        "city": "PHOENIX",
        "state": "AZ",
        "postalCode": "85029-3519"
      },
      {
        "line": [
          "5401 W DAILEY ST"
        ],
        "city": "GLENDALE",
        "state": "AZ",
        "postalCode": "85306-4708"
      }
    ],
    "extension": [
      {
        "url": "https://fhir.athena.io/StructureDefinition/ah-practice",
        "valueReference": {
          "reference": "Organization/a-1.Practice-19654"
        }
      },
      {
        "url": "https://fhir.athena.io/StructureDefinition/ah-brand",
        "valueReference": {
          "reference": "Organization/a-19654.Brand-1"
        }
      }
    ]
  },
  "fullUrl": "urn:uuid:3c0c3c20-99c9-50b2-9e65-b4e75b31493a"
}