{
  "resource": {
    "resourceType": "Organization",
    "id": "f7a96f1b-eac4-5c7b-92eb-9c8dba81a404",
    "name": "MID ATLANTIC EPILEPSY AND SLEEP CENTER",
    "endpoint": [
      {
        "reference": "Endpoint/27a4e967-47aa-5a9c-a572-b8297ee268a2"
      },
      {
        "reference": "Endpoint/e6292ae4-1606-5a2e-b60c-e31a4170a32b"
      }
    ],
    "identifier": [
      {
        "system": "http://hl7.org/fhir/sid/us-npi",
        "value": "1740587435"
      }
    ],
    "address": [
      {
        "line": [
          "9901 Medical Center dr"
        ],
        "city": "ROCKVILLE",
        "state": "MD",
        "postalCode": "20850-3357"
      },
      {
        "line": [
          "9909 MEDICAL CENTER DRIVE"
        ],
        "city": "ROCKVILLE",
        "state": "MD",
        "postalCode": "20850-3357"
      },
      {
        "line": [
          "1500 FOREST GLEN ROAD"
        ],
        "city": "SILVER SPRING",
        "state": "MD",
        "postalCode": "20910-1483"
      },
      {
        "line": [
          "11890 HEALING WAY"
        ],
        "city": "SILVER SPRING",
        "state": "MD",
        "postalCode": "20904-7804"
      },
      {
        "line": [
          "15200 Shady Grove Rd, #401"
        ],
        "city": "ROCKVILLE",
        "state": "MD",
        "postalCode": "20850-3218"
      },
      {
        "line": [
          "14901 BROSCHART ROAD"
        ],
        "city": "ROCKVILLE",
        "state": "MD",
        "postalCode": "20850-3357"
      },
      {
        "line": [
          "5721 Grosvenor Ln"
        ],
        "city": "BETHESDA",
        "state": "MD",
        "postalCode": "20814-1833"
      },
      {
        "line": [
          "8600 OLD GEORGETOWN ROAD"
        ],
        "city": "BETHESDA",
        "state": "MD",
        "postalCode": "20814-1422"
      },
      {
        "line": [
          "9901 MEDICAL CENTER DRIVE"
        ],
        "city": "ROCKVILLE",
        "state": "MD",
        "postalCode": "20850-3357"
      }
    ],
    "extension": [
      {
        "url": "https://fhir.athena.io/StructureDefinition/ah-practice",
        "valueReference": {
          "reference": "Organization/a-1.Practice-7347"
        }
      },
      {
        "url": "https://fhir.athena.io/StructureDefinition/ah-brand",
        "valueReference": {
          "reference": "Organization/a-7347.Brand-1"
        }
      }
    ]
  },
  "fullUrl": "urn:uuid:f7a96f1b-eac4-5c7b-92eb-9c8dba81a404"
}