{
  "resource": {
    "resourceType": "Organization",
    "id": "6998bc5a-f028-59e1-a727-99d70b872587",
    "name": "B&L Family Practice Div. Med First Primary and Urgent Care",
    "endpoint": [
      {
        "reference": "Endpoint/27a4e967-47aa-5a9c-a572-b8297ee268a2"
      },
      {
        "reference": "Endpoint/95a1be58-263b-5ff7-bb9c-091eadefcf68"
      }
    ],
    "identifier": [
      {
        "system": "http://hl7.org/fhir/sid/us-npi",
        "value": "1053503763"
      }
    ],
    "address": [
      {
        "line": [
          "388 Venture Blvd",
          "Ste 1"
        ],
        "city": "SMITHFIELD",
        "state": "NC",
        "postalCode": "27577-4775"
      },
      {
        "line": [
          "2002 Glenburnie Blvd Ste 100"
        ],
        "city": "NEW BERN",
        "state": "NC",
        "postalCode": "28562-5229"
      },
      {
        "line": [
          "1033 Randolph St",
          "Ste 32"
        ],
        "city": "THOMASVILLE",
        "state": "NC",
        "postalCode": "27360-5731"
      },
      {
        "line": [
          "5130 Southport Supply Rd",
          "ste 101-1"
        ],
        "city": "SOUTHPORT",
        "state": "NC",
        "postalCode": "28461-9261"
      },
      {
        "line": [
          "3604 Rogers Branch Rd",
          "Suite 106"
        ],
        "city": "WAKE FOREST",
        "state": "NC",
        "postalCode": "27587-5011"
      },
      {
        "line": [
          "7901 Emerald Isle Dr Ste 7"
        ],
        "city": "EMERALD ISLE",
        "state": "NC",
        "postalCode": "28594-2880"
      },
      {
        "line": [
          "608 E COLUMBIA AVE"
        ],
        "city": "LEESVILLE",
        "state": "SC",
        "postalCode": "29070-7318"
      },
      {
        "line": [
          "4002 Elton Way",
          "STE 104"
        ],
        "city": "GREENSBORO",
        "state": "NC",
        "postalCode": "27406-8973"
      },
      {
        "line": [
          "1033 Randolph Ste 32"
        ],
        "city": "THOMASVILLE",
        "state": "NC",
        "postalCode": "27360-5876"
      },
      {
        "line": [
          "2002 S. Glenburnie Rd Ste 100"
        ],
        "city": "NEW BERN",
        "state": "NC",
        "postalCode": "28562-5229"
      },
      {
        "line": [
          "5130 Southport Supply Rd Ste 101-1"
        ],
        "city": "SOUTHPORT",
        "state": "NC",
        "postalCode": "28461-9261"
      },
      {
        "line": [
          "200 Cape Fear Circle Ste 1"
        ],
        "city": "SNEADS FERRY",
        "state": "NC",
        "postalCode": "28460-9192"
      },
      {
        "line": [
          "2020 Waterscape Way"
        ],
        "city": "NEW BERN",
        "state": "NC",
        "postalCode": "28562-9831"
      },
      {
        "line": [
          "275 NC 24 & 50 Hwy"
        ],
        "city": "KENANSVILLE",
        "state": "NC",
        "postalCode": "28349-0148"
      },
      {
        "line": [
          "388 Venture Dr Ste 1"
        ],
        "city": "SMITHFIELD",
        "state": "NC",
        "postalCode": "27577-4775"
      },
      {
        "line": [
          "718 W Corbett Ave"
        ],
        "city": "SWANSBORO",
        "state": "NC",
        "postalCode": "28584-8452"
      },
      {
        "line": [
          "154 Beulaville Hwy"
        ],
        "city": "RICHLANDS",
        "state": "NC",
        "postalCode": "28574-7104"
      },
      {
        "line": [
          "1800 East Franklin Street",
          "Suite 11A"
        ],
        "city": "CHAPEL HILL",
        "state": "NC",
        "postalCode": "27514-2332"
      },
      {
        "line": [
          "929 N 2ND ST STE 201"
        ],
        "city": "ALBEMARLE",
        "state": "NC",
        "postalCode": "28001-3365"
      },
      {
        "line": [
          "2002 South Glenburnie Rd Ste 100"
        ],
        "city": "NEW BERN",
        "state": "NC",
        "postalCode": "28562-5229"
      },
      {
        "line": [
          "275 NC 24 & 50"
        ],
        "city": "KENANSVILLE",
        "state": "NC",
        "postalCode": "28349-0148"
      },
      {
        "line": [
          "5130 Southport Supply Rd"
        ],
        "city": "SOUTHPORT",
        "state": "NC",
        "postalCode": "28461-8627"
      },
      {
        "line": [
          "1899 N Marine Blvd"
        ],
        "city": "JACKSONVILLE",
        "state": "NC",
        "postalCode": "28546-6555"
      },
      {
        "line": [
          "7901 Emerald Isle Drive"
        ],
        "city": "EMERALD ISLE",
        "state": "NC",
        "postalCode": "28594-2880"
      },
      {
        "line": [
          "4002 Elton Way Ste 105"
        ],
        "city": "GREENSBORO",
        "state": "NC",
        "postalCode": "27406-8973"
      },
      {
        "line": [
          "609 Richlands Hwy Ste 6"
        ],
        "city": "JACKSONVILLE",
        "state": "NC",
        "postalCode": "28540-3606"
      },
      {
        "line": [
          "349 Brookdale Drive"
        ],
        "city": "STATESVILLE",
        "state": "NC",
        "postalCode": "28677-4103"
      },
      {
        "line": [
          "325 Western Blvd"
        ],
        "city": "JACKSONVILLE",
        "state": "NC",
        "postalCode": "28546-6341"
      },
      {
        "line": [
          "3396 Six Forks Rd"
        ],
        "city": "RALEIGH",
        "state": "NC",
        "postalCode": "27609-7233"
      },
      {
        "line": [
          "929 N 2ND ST STE 201"
        ],
        "city": "ALBEMARLE",
        "state": "NC",
        "postalCode": "28001-3509"
      },
      {
        "line": [
          "325 Western Bvld"
        ],
        "city": "JACKSONVILLE",
        "state": "NC",
        "postalCode": "28546-6341"
      },
      {
        "line": [
          "325 Western blvd"
        ],
        "city": "JACKSONVILLE",
        "state": "NC",
        "postalCode": "28546-6341"
      }
    ],
    "extension": [
      {
        "url": "https://fhir.athena.io/StructureDefinition/ah-practice",
        "valueReference": {
          "reference": "Organization/a-1.Practice-1905"
        }
      },
      {
        "url": "https://fhir.athena.io/StructureDefinition/ah-brand",
        "valueReference": {
          "reference": "Organization/a-1905.Brand-1"
        }
      }
    ]
  },
  "fullUrl": "urn:uuid:6998bc5a-f028-59e1-a727-99d70b872587"
}