{
  "resource": {
    "resourceType": "Organization",
    "id": "20de83f6-ca05-5572-8148-4a039f3117ff",
    "name": "DWIC of Tampa Bay, Inc",
    "endpoint": [
      {
        "reference": "Endpoint/27a4e967-47aa-5a9c-a572-b8297ee268a2"
      },
      {
        "reference": "Endpoint/7746d9b3-43a9-5a03-ad9f-8f144b0df94f"
      }
    ],
    "identifier": [
      {
        "system": "http://hl7.org/fhir/sid/us-npi",
        "value": "1821047952"
      }
    ],
    "address": [
      {
        "line": [
          "408 E BRANDON BLVD"
        ],
        "city": "BRANDON",
        "state": "FL",
        "postalCode": "33511-5318"
      },
      {
        "line": [
          "19985 S. Tamiami Trail"
        ],
        "city": "ESTERO",
        "state": "FL",
        "postalCode": "33928-2268"
      },
      {
        "line": [
          "8849 State Road 52"
        ],
        "city": "HUDSON",
        "state": "FL",
        "postalCode": "34667-6742"
      },
      {
        "line": [
          "11985 Atlantic Blvd"
        ],
        "city": "JACKSONVILLE",
        "state": "FL",
        "postalCode": "32225-2919"
      },
      {
        "line": [
          "801 W. M.L.K. BLVD"
        ],
        "city": "SEFFNER",
        "state": "FL",
        "postalCode": "33584-4535"
      },
      {
        "line": [
          "2810 W. M.L.K. Blvd."
        ],
        "city": "TAMPA",
        "state": "FL",
        "postalCode": "33607-6306"
      },
      {
        "line": [
          "26812 U.S. HWY 19N"
        ],
        "city": "CLEARWATER",
        "state": "FL",
        "postalCode": "33761-3405"
      },
      {
        "line": [
          "3700 N. Road 98",
          "Suite 101"
        ],
        "city": "LAKELAND",
        "state": "FL",
        "postalCode": "33809-3863"
      },
      {
        "line": [
          "313 SW PINE ISLAND RD"
        ],
        "city": "CAPE CORAL",
        "state": "FL",
        "postalCode": "33991-2043"
      },
      {
        "line": [
          "7301 Baymeadows Way"
        ],
        "city": "JACKSONVILLE",
        "state": "FL",
        "postalCode": "32256-6826"
      },
      {
        "line": [
          "13856 N. DALE MABRY"
        ],
        "city": "TAMPA",
        "state": "FL",
        "postalCode": "33618-2420"
      },
      {
        "line": [
          "13610 N BRUCE B DOWNS BLVD"
        ],
        "city": "TAMPA",
        "state": "FL",
        "postalCode": "33613-4650"
      },
      {
        "line": [
          "1120 HOMESTEAD RD N"
        ],
        "city": "LEHIGH ACRES",
        "state": "FL",
        "postalCode": "33936-6044"
      },
      {
        "line": [
          "1150 US Highway 1"
        ],
        "city": "VERO BEACH",
        "state": "FL",
        "postalCode": "32960-9992"
      },
      {
        "line": [
          "22945 S.R. 54"
        ],
        "city": "LUTZ",
        "state": "FL",
        "postalCode": "33549-6932"
      },
      {
        "line": [
          "26812 U.S. Hwy. 19N"
        ],
        "city": "CLEARWATER",
        "state": "FL",
        "postalCode": "33761-3405"
      },
      {
        "line": [
          "5616 Tuscola Blvd"
        ],
        "city": "NORTH PORT",
        "state": "FL",
        "postalCode": "34287-2738"
      },
      {
        "line": [
          "20677 BRUCE B DOWNS BLVD"
        ],
        "city": "TAMPA",
        "state": "FL",
        "postalCode": "33647-3553"
      },
      {
        "line": [
          "10500 ULMERTON RD",
          "Suite 202"
        ],
        "city": "LARGO",
        "state": "FL",
        "postalCode": "33771-3544"
      },
      {
        "line": [
          "2200 Tamiami TRL"
        ],
        "city": "PORT CHARLOTTE",
        "state": "FL",
        "postalCode": "33948-2177"
      },
      {
        "line": [
          "12375 S Cleveland Avenue"
        ],
        "city": "FORT MYERS",
        "state": "FL",
        "postalCode": "33907-3803"
      }
    ],
    "extension": [
      {
        "url": "https://fhir.athena.io/StructureDefinition/ah-practice",
        "valueReference": {
          "reference": "Organization/a-1.Practice-3908"
        }
      },
      {
        "url": "https://fhir.athena.io/StructureDefinition/ah-brand",
        "valueReference": {
          "reference": "Organization/a-3908.Brand-1"
        }
      }
    ]
  },
  "fullUrl": "urn:uuid:20de83f6-ca05-5572-8148-4a039f3117ff"
}