{
  "resource": {
    "resourceType": "Organization",
    "id": "f2dab287-1b5c-5a86-bfd9-949cd28518f6",
    "name": "Ashley Park Retirement",
    "endpoint": [
      {
        "reference": "Endpoint/27a4e967-47aa-5a9c-a572-b8297ee268a2"
      },
      {
        "reference": "Endpoint/4709059e-20fa-5921-bac2-d23cfe31ed95"
      }
    ],
    "identifier": [
      {
        "system": "http://hl7.org/fhir/sid/us-npi",
        "value": "1609273549"
      }
    ],
    "address": [
      {
        "line": [
          "601 Solana Way,"
        ],
        "city": "MOUNT PLEASANT",
        "state": "SC",
        "postalCode": "29464-8153"
      },
      {
        "line": [
          "6151 COLLINE VERDI WAY"
        ],
        "city": "MYRTLE BEACH",
        "state": "SC",
        "postalCode": "29577-9437"
      },
      {
        "line": [
          "1025 Hungryneck Blvd"
        ],
        "city": "MOUNT PLEASANT",
        "state": "SC",
        "postalCode": "29464-3595"
      },
      {
        "line": [
          "3501 Merrill Pl"
        ],
        "city": "MOUNT PLEASANT",
        "state": "SC",
        "postalCode": "29466-8597"
      },
      {
        "line": [
          "5087 HIGHWAY 17"
        ],
        "city": "MURRELLS INLET",
        "state": "SC",
        "postalCode": "29576-5043"
      },
      {
        "line": [
          "2563 N FRASER ST"
        ],
        "city": "GEORGETOWN",
        "state": "SC",
        "postalCode": "29440-6411"
      },
      {
        "line": [
          "1451 TOBIAS GADSON"
        ],
        "city": "CHARLESTON",
        "state": "SC",
        "postalCode": "29407-4769"
      },
      {
        "line": [
          "1885 RIFLE RANGE RD"
        ],
        "city": "MOUNT PLEASANT",
        "state": "SC",
        "postalCode": "29464-9440"
      },
      {
        "line": [
          "699 PRINCE CREEK PKWY"
        ],
        "city": "MURRELLS INLET",
        "state": "SC",
        "postalCode": "29576-6622"
      },
      {
        "line": [
          "224 WARD LOOP"
        ],
        "city": "HEMINGWAY",
        "state": "SC",
        "postalCode": "29554-3415"
      },
      {
        "line": [
          "509 Standard Way"
        ],
        "city": "CHARLESTON",
        "state": "SC",
        "postalCode": "29412-2397"
      },
      {
        "line": [
          "1131 Bexley st"
        ],
        "city": "NORTH CHARLESTON",
        "state": "SC",
        "postalCode": "29405-4726"
      },
      {
        "line": [
          "7770 Farr St"
        ],
        "city": "CHARLESTON",
        "state": "SC",
        "postalCode": "29492-8673"
      },
      {
        "line": [
          "514 Robert Daniel Drive"
        ],
        "city": "CHARLESTON",
        "state": "SC",
        "postalCode": "29492-7329"
      },
      {
        "line": [
          "1056 TPC BLVD"
        ],
        "city": "MURRELLS INLET",
        "state": "SC",
        "postalCode": "29576-8912"
      },
      {
        "line": [
          "601 Solana Way"
        ],
        "city": "MOUNT PLEASANT",
        "state": "SC",
        "postalCode": "29464-8153"
      },
      {
        "line": [
          "1925 ESSEX FARMS DR"
        ],
        "city": "CHARLESTON",
        "state": "SC",
        "postalCode": "29414-6696"
      },
      {
        "line": [
          "3100 TRADITION CIR"
        ],
        "city": "MOUNT PLEASANT",
        "state": "SC",
        "postalCode": "29466-7153"
      },
      {
        "line": [
          "1400 LIBERTY MIDTOWN DR"
        ],
        "city": "MOUNT PLEASANT",
        "state": "SC",
        "postalCode": "29464-3997"
      },
      {
        "line": [
          "5130 Wescott Blvd"
        ],
        "city": "SUMMERVILLE",
        "state": "SC",
        "postalCode": "29485-9043"
      },
      {
        "line": [
          "176 VILLAGE CENTER BLVD"
        ],
        "city": "MYRTLE BEACH",
        "state": "SC",
        "postalCode": "29579-6618"
      },
      {
        "line": [
          "1010 Lake Hunter Cir"
        ],
        "city": "MOUNT PLEASANT",
        "state": "SC",
        "postalCode": "29464-5417"
      },
      {
        "line": [
          "2333 ASHLEY RIVER RD"
        ],
        "city": "CHARLESTON",
        "state": "SC",
        "postalCode": "29414-4755"
      },
      {
        "line": [
          "1305 Horseshoe Bend"
        ],
        "city": "MOUNT PLEASANT",
        "state": "SC",
        "postalCode": "29464-5723"
      },
      {
        "line": [
          "3100 TRADITION CIRCLE"
        ],
        "city": "MOUNT PLEASANT",
        "state": "SC",
        "postalCode": "29466-7200"
      },
      {
        "line": [
          "580 ROBERT DANIEL DR"
        ],
        "city": "CHARLESTON",
        "state": "SC",
        "postalCode": "29492-7448"
      },
      {
        "line": [
          "45 Coburg Rd"
        ],
        "city": "CHARLESTON",
        "state": "SC",
        "postalCode": "29407-7352"
      },
      {
        "line": [
          "1925 Essex Farms Dr Charleston, SC 29414"
        ],
        "city": "CHARLESTON",
        "state": "SC",
        "postalCode": "29414-6696"
      },
      {
        "line": [
          "2106 MOUNT PLEASANT ST, APT 1213"
        ],
        "city": "CHARLESTON",
        "state": "SC",
        "postalCode": "29403-3037"
      },
      {
        "line": [
          "2628 N FRASER ST"
        ],
        "city": "GEORGETOWN",
        "state": "SC",
        "postalCode": "29440-6946"
      }
    ],
    "extension": [
      {
        "url": "https://fhir.athena.io/StructureDefinition/ah-practice",
        "valueReference": {
          "reference": "Organization/a-1.Practice-15289"
        }
      },
      {
        "url": "https://fhir.athena.io/StructureDefinition/ah-brand",
        "valueReference": {
          "reference": "Organization/a-15289.Brand-1"
        }
      }
    ]
  },
  "fullUrl": "urn:uuid:f2dab287-1b5c-5a86-bfd9-949cd28518f6"
}