{
  "resource": {
    "resourceType": "Organization",
    "id": "473d305b-ba3d-5658-92f6-8b5a92ccd7fe",
    "name": "YMCA of Greater Waukesha County",
    "endpoint": [
      {
        "reference": "Endpoint/27a4e967-47aa-5a9c-a572-b8297ee268a2"
      },
      {
        "reference": "Endpoint/abb5f7d5-468e-5806-be46-fb2282afef02"
      }
    ],
    "identifier": [
      {
        "system": "http://hl7.org/fhir/sid/us-npi",
        "value": "1730636770"
      }
    ],
    "address": [
      {
        "line": [
          "320 E. Broadway"
        ],
        "city": "WAUKESHA",
        "state": "WI",
        "postalCode": "53186-5060"
      },
      {
        "line": [
          "4455 S 108th Street"
        ],
        "city": "MILWAUKEE",
        "state": "WI",
        "postalCode": "53228-2504"
      },
      {
        "line": [
          "515 W Moreland Blvd"
        ],
        "city": "WAUKESHA",
        "state": "WI",
        "postalCode": "53188-2411"
      },
      {
        "line": [
          "36500 Aurora Dr"
        ],
        "city": "OCONOMOWOC",
        "state": "WI",
        "postalCode": "53066-4899"
      },
      {
        "line": [
          "320 E Broadway"
        ],
        "city": "WAUKESHA",
        "state": "WI",
        "postalCode": "53186-5060"
      },
      {
        "line": [
          "10100 W Innovation Dr."
        ],
        "city": "MILWAUKEE",
        "state": "WI",
        "postalCode": "53226-4855"
      },
      {
        "line": [
          "240 Maple Avenue"
        ],
        "city": "MUKWONAGO",
        "state": "WI",
        "postalCode": "53149-8475"
      },
      {
        "line": [
          "2420 N 124th St"
        ],
        "city": "MILWAUKEE",
        "state": "WI",
        "postalCode": "53226-1093"
      },
      {
        "line": [
          "N84 W17501 Menomonee Ave"
        ],
        "city": "MENOMONEE FALLS",
        "state": "WI",
        "postalCode": "53051-2678"
      },
      {
        "line": [
          "1750 E. Valley Road"
        ],
        "city": "OCONOMOWOC",
        "state": "WI",
        "postalCode": "53066-4851"
      },
      {
        "line": [
          "11311 W Howard Ave"
        ],
        "city": "MILWAUKEE",
        "state": "WI",
        "postalCode": "53228-1899"
      },
      {
        "line": [
          "615 W. Moreland Blvd."
        ],
        "city": "WAUKESHA",
        "state": "WI",
        "postalCode": "53188-2462"
      }
    ],
    "extension": [
      {
        "url": "https://fhir.athena.io/StructureDefinition/ah-practice",
        "valueReference": {
          "reference": "Organization/a-1.Practice-14268"
        }
      },
      {
        "url": "https://fhir.athena.io/StructureDefinition/ah-brand",
        "valueReference": {
          "reference": "Organization/a-14268.Brand-1"
        }
      }
    ]
  },
  "fullUrl": "urn:uuid:473d305b-ba3d-5658-92f6-8b5a92ccd7fe"
}