{
  "resource": {
    "resourceType": "Organization",
    "id": "1604b168-da37-5c93-be6e-57e5c1a432dc",
    "name": "Grau Orthopaedics, a division of Redefine Healthcare",
    "endpoint": [
      {
        "reference": "Endpoint/27a4e967-47aa-5a9c-a572-b8297ee268a2"
      },
      {
        "reference": "Endpoint/3380fd46-11dd-5389-bad9-c4310d839c53"
      }
    ],
    "identifier": [
      {
        "system": "http://hl7.org/fhir/sid/us-npi",
        "value": "1922771377"
      }
    ],
    "address": [
      {
        "line": [
          "85 S JEFFERSON ST"
        ],
        "city": "ORANGE",
        "state": "NJ",
        "postalCode": "07050-1562"
      },
      {
        "line": [
          "2500 Morris Avenue",
          "Ste 220"
        ],
        "city": "UNION",
        "state": "NJ",
        "postalCode": "07083-5675"
      },
      {
        "line": [
          "19 E 27TH ST"
        ],
        "city": "BAYONNE",
        "state": "NJ",
        "postalCode": "07002-4608"
      },
      {
        "line": [
          "146 N STATE RT 17 STE 1"
        ],
        "city": "HACKENSACK",
        "state": "NJ",
        "postalCode": "07601-1071"
      },
      {
        "line": [
          "935 RIVER RD",
          "Suite 100"
        ],
        "city": "EDGEWATER",
        "state": "NJ",
        "postalCode": "07020-2234"
      },
      {
        "line": [
          "11 RIDGE RD"
        ],
        "city": "NORTH ARLINGTON",
        "state": "NJ",
        "postalCode": "07031-6306"
      },
      {
        "line": [
          "2 UNIVERSITY PLZ STE 500"
        ],
        "city": "HACKENSACK",
        "state": "NJ",
        "postalCode": "07601-6228"
      },
      {
        "line": [
          "922 Main Street",
          "Ste 201"
        ],
        "city": "PATERSON",
        "state": "NJ",
        "postalCode": "07503-2602"
      },
      {
        "line": [
          "855 VALLEY RD"
        ],
        "city": "CLIFTON",
        "state": "NJ",
        "postalCode": "07013-2441"
      },
      {
        "line": [
          "3540 JOHN F KENNEDY BLVD"
        ],
        "city": "JERSEY CITY",
        "state": "NJ",
        "postalCode": "07307-3450"
      },
      {
        "line": [
          "55 MEADOWLANDS PKWY FL 2"
        ],
        "city": "SECAUCUS",
        "state": "NJ",
        "postalCode": "07094-2977"
      }
    ],
    "extension": [
      {
        "url": "https://fhir.athena.io/StructureDefinition/ah-practice",
        "valueReference": {
          "reference": "Organization/a-1.Practice-21449"
        }
      },
      {
        "url": "https://fhir.athena.io/StructureDefinition/ah-brand",
        "valueReference": {
          "reference": "Organization/a-21449.Brand-19"
        }
      }
    ]
  },
  "fullUrl": "urn:uuid:1604b168-da37-5c93-be6e-57e5c1a432dc"
}