{
  "resource": {
    "resourceType": "Organization",
    "id": "5fe977d7-c9f3-58a8-929e-9a7efece40bb",
    "name": "Mobile Medical",
    "endpoint": [
      {
        "reference": "Endpoint/27a4e967-47aa-5a9c-a572-b8297ee268a2"
      },
      {
        "reference": "Endpoint/90adfc7a-09e3-549a-ac58-d33d8d7dfb16"
      }
    ],
    "identifier": [
      {
        "system": "http://hl7.org/fhir/sid/us-npi",
        "value": "1366727463"
      }
    ],
    "address": [
      {
        "line": [
          "117 N BRENDONWOOD CT"
        ],
        "city": "WICHITA",
        "state": "KS",
        "postalCode": "67206-2101"
      },
      {
        "line": [
          "2323 S GOEBEL CIR"
        ],
        "city": "WICHITA",
        "state": "KS",
        "postalCode": "67207-7121"
      },
      {
        "line": [
          "900 N BAYSHORE DR"
        ],
        "city": "WICHITA",
        "state": "KS",
        "postalCode": "67212-4807"
      },
      {
        "line": [
          "11150 Greenwood St"
        ],
        "city": "LENEXA",
        "state": "KS",
        "postalCode": "66215-9998"
      },
      {
        "line": [
          "300 E CHICAGO AVE"
        ],
        "city": "COLWICH",
        "state": "KS",
        "postalCode": "67030-9243"
      },
      {
        "line": [
          "600 N 127TH ST E"
        ],
        "city": "WICHITA",
        "state": "KS",
        "postalCode": "67206-2830"
      },
      {
        "line": [
          "11702 W KENNY LN"
        ],
        "city": "WICHITA",
        "state": "KS",
        "postalCode": "67212-6649"
      },
      {
        "line": [
          "11860 S SUNSET DR"
        ],
        "city": "OLATHE",
        "state": "KS",
        "postalCode": "66061-2792"
      },
      {
        "line": [
          "2700 N Washington St"
        ],
        "city": "HUTCHINSON",
        "state": "KS",
        "postalCode": "67502-3478"
      },
      {
        "line": [
          "223 N BURR OAK RD"
        ],
        "city": "WICHITA",
        "state": "KS",
        "postalCode": "67206-2105"
      },
      {
        "line": [
          "531 N CRESTLINE ST"
        ],
        "city": "WICHITA",
        "state": "KS",
        "postalCode": "67212-4618"
      },
      {
        "line": [
          "430 N DERBY AVE"
        ],
        "city": "DERBY",
        "state": "KS",
        "postalCode": "67037-1700"
      },
      {
        "line": [
          "1240 N BROADMOOR ST"
        ],
        "city": "WICHITA",
        "state": "KS",
        "postalCode": "67206-3869"
      },
      {
        "line": [
          "1700 E 23RD AVE"
        ],
        "city": "HUTCHINSON",
        "state": "KS",
        "postalCode": "67502-1159"
      },
      {
        "line": [
          "770 N SILVER SPRINGS BLVD"
        ],
        "city": "WICHITA",
        "state": "KS",
        "postalCode": "67212-6099"
      },
      {
        "line": [
          "6050 BROADMOOR ST"
        ],
        "city": "MISSION",
        "state": "KS",
        "postalCode": "66202-3256"
      },
      {
        "line": [
          "10550 E. 21st N."
        ],
        "city": "WICHITA",
        "state": "KS",
        "postalCode": "67206-3509"
      },
      {
        "line": [
          "5224 W Elm Circle"
        ],
        "city": "WICHITA",
        "state": "KS",
        "postalCode": "67212-2767"
      },
      {
        "line": [
          "3220 PETERSON RD"
        ],
        "city": "LAWRENCE",
        "state": "KS",
        "postalCode": "66049-1963"
      },
      {
        "line": [
          "2251 E CRAWFORD ST"
        ],
        "city": "SALINA",
        "state": "KS",
        "postalCode": "67401-1317"
      },
      {
        "line": [
          "2062 N GARNETT ST"
        ],
        "city": "WICHITA",
        "state": "KS",
        "postalCode": "67206-3021"
      },
      {
        "line": [
          "2416 BRENTWOOD ST"
        ],
        "city": "HUTCHINSON",
        "state": "KS",
        "postalCode": "67502-5000"
      },
      {
        "line": [
          "100 N MAIN ST"
        ],
        "city": "HUTCHINSON",
        "state": "KS",
        "postalCode": "67501-5230"
      },
      {
        "line": [
          "3636 N RIDGE RD"
        ],
        "city": "WICHITA",
        "state": "KS",
        "postalCode": "67205-1213"
      },
      {
        "line": [
          "3109 W 26TH ST"
        ],
        "city": "LAWRENCE",
        "state": "KS",
        "postalCode": "66047-2706"
      },
      {
        "line": [
          "345 N RIVERVIEW ST STE 500"
        ],
        "city": "WICHITA",
        "state": "KS",
        "postalCode": "67203-4265"
      },
      {
        "line": [
          "1655 S. Georgetown St"
        ],
        "city": "WICHITA",
        "state": "KS",
        "postalCode": "67218-4140"
      },
      {
        "line": [
          "2121 N 143RD ST E"
        ],
        "city": "WICHITA",
        "state": "KS",
        "postalCode": "67230-7268"
      },
      {
        "line": [
          "700 E 14TH ST"
        ],
        "city": "NEWTON",
        "state": "KS",
        "postalCode": "67114-5702"
      },
      {
        "line": [
          "1510 SAINT ANDREWS DR"
        ],
        "city": "LAWRENCE",
        "state": "KS",
        "postalCode": "66047-1618"
      },
      {
        "line": [
          "1377 N IROQUOIS RD"
        ],
        "city": "WICHITA",
        "state": "KS",
        "postalCode": "67203-4623"
      },
      {
        "line": [
          "1602 S CRANBROOK AVE"
        ],
        "city": "WICHITA",
        "state": "KS",
        "postalCode": "67207-5702"
      },
      {
        "line": [
          "1501 East Magnolia Road"
        ],
        "city": "SALINA",
        "state": "KS",
        "postalCode": "67401-9112"
      },
      {
        "line": [
          "5640 East 21st St N"
        ],
        "city": "WICHITA",
        "state": "KS",
        "postalCode": "67208-1766"
      },
      {
        "line": [
          "4430 BAUER FARM DR"
        ],
        "city": "LAWRENCE",
        "state": "KS",
        "postalCode": "66049-9994"
      },
      {
        "line": [
          "6732 SW 17TH ST"
        ],
        "city": "TOPEKA",
        "state": "KS",
        "postalCode": "66615-1169"
      },
      {
        "line": [
          "702 MONTEREY PL"
        ],
        "city": "HUTCHINSON",
        "state": "KS",
        "postalCode": "67502-2268"
      },
      {
        "line": [
          "200 E. Rock Road Court"
        ],
        "city": "MULVANE",
        "state": "KS",
        "postalCode": "67110-9206"
      },
      {
        "line": [
          "8550 N GRANBY AVE"
        ],
        "city": "KANSAS CITY",
        "state": "MO",
        "postalCode": "64154-1200"
      },
      {
        "line": [
          "613 N PAMELA CIR"
        ],
        "city": "WICHITA",
        "state": "KS",
        "postalCode": "67212-3919"
      },
      {
        "line": [
          "6550 E 45TH ST N"
        ],
        "city": "WICHITA",
        "state": "KS",
        "postalCode": "67226-8813"
      },
      {
        "line": [
          "2500 PLEASANT HILLS PKWY"
        ],
        "city": "HUTCHINSON",
        "state": "KS",
        "postalCode": "67502-1611"
      },
      {
        "line": [
          "1411 S MAIZE RD"
        ],
        "city": "WICHITA",
        "state": "KS",
        "postalCode": "67209-1314"
      },
      {
        "line": [
          "5808 W 8TH ST N"
        ],
        "city": "WICHITA",
        "state": "KS",
        "postalCode": "67212-2802"
      },
      {
        "line": [
          "1225 E KIRWIN AVE"
        ],
        "city": "SALINA",
        "state": "KS",
        "postalCode": "67401-6332"
      },
      {
        "line": [
          "2207 N BLUE MILLS RD"
        ],
        "city": "INDEPENDENCE",
        "state": "MO",
        "postalCode": "64058-2022"
      },
      {
        "line": [
          "17500 W 119TH ST"
        ],
        "city": "OLATHE",
        "state": "KS",
        "postalCode": "66061-9524"
      },
      {
        "line": [
          "1501 E MAGNOLIA RD"
        ],
        "city": "SALINA",
        "state": "KS",
        "postalCode": "67401-9112"
      },
      {
        "line": [
          "402 S MARTINSON ST"
        ],
        "city": "WICHITA",
        "state": "KS",
        "postalCode": "67213-3998"
      },
      {
        "line": [
          "254 S ROBIN RD"
        ],
        "city": "WICHITA",
        "state": "KS",
        "postalCode": "67209-1429"
      },
      {
        "line": [
          "8200 E Pawnee"
        ],
        "city": "WICHITA",
        "state": "KS",
        "postalCode": "67207-5400"
      },
      {
        "line": [
          "1006 E WATERMAN ST"
        ],
        "city": "WICHITA",
        "state": "KS",
        "postalCode": "67211-1525"
      },
      {
        "line": [
          "821 W 3RD ST"
        ],
        "city": "VALLEY CENTER",
        "state": "KS",
        "postalCode": "67147-2417"
      },
      {
        "line": [
          "12221 W MAPLE ST"
        ],
        "city": "WICHITA",
        "state": "KS",
        "postalCode": "67235-8751"
      },
      {
        "line": [
          "7677 East 21st St N"
        ],
        "city": "WICHITA",
        "state": "KS",
        "postalCode": "67206-1017"
      },
      {
        "line": [
          "2133 S ELIZABETH ST"
        ],
        "city": "WICHITA",
        "state": "KS",
        "postalCode": "67213-3403"
      },
      {
        "line": [
          "8600 E 21ST ST N"
        ],
        "city": "WICHITA",
        "state": "KS",
        "postalCode": "67206-2939"
      },
      {
        "line": [
          "3618 W 13th St N"
        ],
        "city": "WICHITA",
        "state": "KS",
        "postalCode": "67203-4516"
      },
      {
        "line": [
          "606 CENTRE CT"
        ],
        "city": "SOUTH HUTCHINSON",
        "state": "KS",
        "postalCode": "67505-1744"
      },
      {
        "line": [
          "550 S CIRCLE LAKE RD"
        ],
        "city": "WICHITA",
        "state": "KS",
        "postalCode": "67209-1005"
      },
      {
        "line": [
          "317 North viking blvd"
        ],
        "city": "WINFIELD",
        "state": "KS",
        "postalCode": "67156-2507"
      },
      {
        "line": [
          "777 N MCLEAN BLVD"
        ],
        "city": "WICHITA",
        "state": "KS",
        "postalCode": "67203-4980"
      },
      {
        "line": [
          "9705 MONROVIA ST"
        ],
        "city": "LENEXA",
        "state": "KS",
        "postalCode": "66215-1566"
      },
      {
        "line": [
          "821 E SWENSSON ST"
        ],
        "city": "LINDSBORG",
        "state": "KS",
        "postalCode": "67456-1714"
      },
      {
        "line": [
          "1730 N NORTHWEST PKWY"
        ],
        "city": "WICHITA",
        "state": "KS",
        "postalCode": "67212-1548"
      },
      {
        "line": [
          "2021 N Old Manor Rd"
        ],
        "city": "WICHITA",
        "state": "KS",
        "postalCode": "67208-2541"
      },
      {
        "line": [
          "6922 W SHADE LN"
        ],
        "city": "WICHITA",
        "state": "KS",
        "postalCode": "67212-3366"
      },
      {
        "line": [
          "14601 E TIMBER LAKE RD"
        ],
        "city": "WICHITA",
        "state": "KS",
        "postalCode": "67230-9220"
      },
      {
        "line": [
          "1115 GARDEN WAY"
        ],
        "city": "MANHATTAN",
        "state": "KS",
        "postalCode": "66502-1779"
      },
      {
        "line": [
          "141 SARAH LN"
        ],
        "city": "HAYSVILLE",
        "state": "KS",
        "postalCode": "67060-1255"
      },
      {
        "line": [
          "721 W 21ST ST N"
        ],
        "city": "ANDOVER",
        "state": "KS",
        "postalCode": "67002-8492"
      },
      {
        "line": [
          "2900 NE KENDALLWOOD PKWY"
        ],
        "city": "KANSAS CITY",
        "state": "MO",
        "postalCode": "64119-1858"
      },
      {
        "line": [
          "6807 E ROCKWOOD RD"
        ],
        "city": "WICHITA",
        "state": "KS",
        "postalCode": "67206-2039"
      },
      {
        "line": [
          "6403 E MARJORIE ST"
        ],
        "city": "WICHITA",
        "state": "KS",
        "postalCode": "67206-1421"
      },
      {
        "line": [
          "420 S PAULA AVE"
        ],
        "city": "WICHITA",
        "state": "KS",
        "postalCode": "67209-1615"
      },
      {
        "line": [
          "2300 N Tyler"
        ],
        "city": "WICHITA",
        "state": "KS",
        "postalCode": "67205-8766"
      },
      {
        "line": [
          "719 N KLEIN CIR"
        ],
        "city": "DERBY",
        "state": "KS",
        "postalCode": "67037-7019"
      },
      {
        "line": [
          "105 W 9th St"
        ],
        "city": "NEWTON",
        "state": "KS",
        "postalCode": "67114-1947"
      },
      {
        "line": [
          "440 N 4TH ST"
        ],
        "city": "CLEARWATER",
        "state": "KS",
        "postalCode": "67026-9708"
      },
      {
        "line": [
          "15834 SW Butler Rd"
        ],
        "city": "ROSE HILL",
        "state": "KS",
        "postalCode": "67133-8549"
      },
      {
        "line": [
          "1301 S. Bleckley Dr"
        ],
        "city": "WICHITA",
        "state": "KS",
        "postalCode": "67218-3363"
      },
      {
        "line": [
          "1515 W WHITE OAK ST"
        ],
        "city": "INDEPENDENCE",
        "state": "MO",
        "postalCode": "64050-2557"
      },
      {
        "line": [
          "421 E SALINE ST"
        ],
        "city": "LINDSBORG",
        "state": "KS",
        "postalCode": "67456-2020"
      },
      {
        "line": [
          "202 S WASHINGTON ST"
        ],
        "city": "MARQUETTE",
        "state": "KS",
        "postalCode": "67464-9775"
      },
      {
        "line": [
          "339 N Country Acres Ave"
        ],
        "city": "WICHITA",
        "state": "KS",
        "postalCode": "67212-6144"
      },
      {
        "line": [
          "9651 BARKLEY ST"
        ],
        "city": "OVERLAND PARK",
        "state": "KS",
        "postalCode": "66212-1593"
      },
      {
        "line": [
          "10604 E 13TH ST N"
        ],
        "city": "WICHITA",
        "state": "KS",
        "postalCode": "67206-3706"
      },
      {
        "line": [
          "505 N MAIZE RD"
        ],
        "city": "WICHITA",
        "state": "KS",
        "postalCode": "67212-4689"
      },
      {
        "line": [
          "9000 N CONGRESS AVE"
        ],
        "city": "KANSAS CITY",
        "state": "MO",
        "postalCode": "64153-1804"
      },
      {
        "line": [
          "4925 E. Shadybrook St"
        ],
        "city": "WICHITA",
        "state": "KS",
        "postalCode": "67208-2558"
      },
      {
        "line": [
          "6412 E MARJORIE ST"
        ],
        "city": "WICHITA",
        "state": "KS",
        "postalCode": "67206-1422"
      },
      {
        "line": [
          "802 N MAIN ST"
        ],
        "city": "CHENEY",
        "state": "KS",
        "postalCode": "67025-9094"
      },
      {
        "line": [
          "1432 N WACO AVE"
        ],
        "city": "WICHITA",
        "state": "KS",
        "postalCode": "67203-2649"
      },
      {
        "line": [
          "1345 Cherokee Rd."
        ],
        "city": "INMAN",
        "state": "KS",
        "postalCode": "67546-8086"
      },
      {
        "line": [
          "1123 JEFFERSON ST"
        ],
        "city": "HARPER",
        "state": "KS",
        "postalCode": "67058-1371"
      },
      {
        "line": [
          "2113 N Madison"
        ],
        "city": "WICHITA",
        "state": "KS",
        "postalCode": "67214-1967"
      },
      {
        "line": [
          "623 S MAIZE CT"
        ],
        "city": "WICHITA",
        "state": "KS",
        "postalCode": "67209-1337"
      },
      {
        "line": [
          "600 W BLANCHARD AVE"
        ],
        "city": "SOUTH HUTCHINSON",
        "state": "KS",
        "postalCode": "67505-1526"
      },
      {
        "line": [
          "1450 N MAIN ST"
        ],
        "city": "MCPHERSON",
        "state": "KS",
        "postalCode": "67460-1902"
      },
      {
        "line": [
          "1709 E WALNUT GROVE RD"
        ],
        "city": "DERBY",
        "state": "KS",
        "postalCode": "67037-3580"
      },
      {
        "line": [
          "1701 E WALNUT GROVE RD"
        ],
        "city": "DERBY",
        "state": "KS",
        "postalCode": "67037-3528"
      },
      {
        "line": [
          "613 N RIDGE RD STE 105S"
        ],
        "city": "WICHITA",
        "state": "KS",
        "postalCode": "67212-3391"
      },
      {
        "line": [
          "715 W 6th St"
        ],
        "city": "HALSTEAD",
        "state": "KS",
        "postalCode": "67056-2173"
      },
      {
        "line": [
          "2301 N SEVERANCE ST"
        ],
        "city": "HUTCHINSON",
        "state": "KS",
        "postalCode": "67502-4301"
      },
      {
        "line": [
          "2901 SW ARMSTRONG AVE"
        ],
        "city": "TOPEKA",
        "state": "KS",
        "postalCode": "66614-5640"
      },
      {
        "line": [
          "1611 FAIRWAY DR"
        ],
        "city": "AUGUSTA",
        "state": "KS",
        "postalCode": "67010-2246"
      },
      {
        "line": [
          "1315 N West St"
        ],
        "city": "WICHITA",
        "state": "KS",
        "postalCode": "67203-1382"
      },
      {
        "line": [
          "10200 W 62ND ST"
        ],
        "city": "SHAWNEE",
        "state": "KS",
        "postalCode": "66203-3019"
      },
      {
        "line": [
          "7300 W 107TH ST"
        ],
        "city": "OVERLAND PARK",
        "state": "KS",
        "postalCode": "66212-2500"
      },
      {
        "line": [
          "2004 FOUNTAINWOOD"
        ],
        "city": "HUTCHINSON",
        "state": "KS",
        "postalCode": "67502-2662"
      },
      {
        "line": [
          "101 W AVENUE C"
        ],
        "city": "GARDEN PLAIN",
        "state": "KS",
        "postalCode": "67050-9574"
      },
      {
        "line": [
          "6555 W 75TH ST"
        ],
        "city": "OVERLAND PARK",
        "state": "KS",
        "postalCode": "66204-3023"
      },
      {
        "line": [
          "1315 N WEST ST"
        ],
        "city": "WICHITA",
        "state": "KS",
        "postalCode": "67203-1382"
      },
      {
        "line": [
          "7104 E Chelsea"
        ],
        "city": "WICHITA",
        "state": "KS",
        "postalCode": "67206-1039"
      },
      {
        "line": [
          "524 N Main St"
        ],
        "city": "GARDEN PLAIN",
        "state": "KS",
        "postalCode": "67050-5005"
      },
      {
        "line": [
          "3850 W Newell St"
        ],
        "city": "WICHITA",
        "state": "KS",
        "postalCode": "67203-5082"
      },
      {
        "line": [
          "1425 S Leecrest St"
        ],
        "city": "WICHITA",
        "state": "KS",
        "postalCode": "67203-1131"
      },
      {
        "line": [
          "999 N SILVER SPRINGS BLVD"
        ],
        "city": "WICHITA",
        "state": "KS",
        "postalCode": "67212-6000"
      },
      {
        "line": [
          "1235 Starkey"
        ],
        "city": "AUGUSTA",
        "state": "KS",
        "postalCode": "67010-1123"
      },
      {
        "line": [
          "1701 E. Osage Rd"
        ],
        "city": "DERBY",
        "state": "KS",
        "postalCode": "67037-2086"
      },
      {
        "line": [
          "3001 IVY DR"
        ],
        "city": "NORTH NEWTON",
        "state": "KS",
        "postalCode": "67117-8001"
      },
      {
        "line": [
          "701 MONTEREY PL"
        ],
        "city": "HUTCHINSON",
        "state": "KS",
        "postalCode": "67502-2267"
      },
      {
        "line": [
          "3305 E 31st Street south"
        ],
        "city": "WICHITA",
        "state": "KS",
        "postalCode": "67216-2704"
      },
      {
        "line": [
          "8101 W MAPLE ST"
        ],
        "city": "WICHITA",
        "state": "KS",
        "postalCode": "67209-1403"
      },
      {
        "line": [
          "14001 W 133RD ST"
        ],
        "city": "OLATHE",
        "state": "KS",
        "postalCode": "66062-4699"
      },
      {
        "line": [
          "1226 S BYRON RD"
        ],
        "city": "WICHITA",
        "state": "KS",
        "postalCode": "67209-1812"
      },
      {
        "line": [
          "1678 N CHARLES ST"
        ],
        "city": "WICHITA",
        "state": "KS",
        "postalCode": "67203-1518"
      },
      {
        "line": [
          "2395 N BEACON HILL ST"
        ],
        "city": "WICHITA",
        "state": "KS",
        "postalCode": "67220-4058"
      },
      {
        "line": [
          "1320 WHEAT RD"
        ],
        "city": "WINFIELD",
        "state": "KS",
        "postalCode": "67156-4704"
      },
      {
        "line": [
          "626 S 3RD ST"
        ],
        "city": "SALINA",
        "state": "KS",
        "postalCode": "67401-4105"
      },
      {
        "line": [
          "1421 N. Spruce  St"
        ],
        "city": "WICHITA",
        "state": "KS",
        "postalCode": "67214-2058"
      },
      {
        "line": [
          "103 FRIENDSHIP RD"
        ],
        "city": "SOUTH HUTCHINSON",
        "state": "KS",
        "postalCode": "67505-1500"
      },
      {
        "line": [
          "1221 E. MacArthur Road"
        ],
        "city": "WICHITA",
        "state": "KS",
        "postalCode": "67216-1816"
      },
      {
        "line": [
          "326 N WABASH AVE"
        ],
        "city": "WICHITA",
        "state": "KS",
        "postalCode": "67214-3948"
      },
      {
        "line": [
          "1400 S 183RD ST W"
        ],
        "city": "GODDARD",
        "state": "KS",
        "postalCode": "67052-9357"
      },
      {
        "line": [
          "1201 N PINECREST ST"
        ],
        "city": "WICHITA",
        "state": "KS",
        "postalCode": "67208-2735"
      },
      {
        "line": [
          "2637 FAIRMOUNT AVE"
        ],
        "city": "WICHITA",
        "state": "KS",
        "postalCode": "67220-2410"
      },
      {
        "line": [
          "6321 PEACH TREE LN"
        ],
        "city": "WICHITA",
        "state": "KS",
        "postalCode": "67218-1819"
      },
      {
        "line": [
          "2101 E Tall Tree Road"
        ],
        "city": "DERBY",
        "state": "KS",
        "postalCode": "67037-3993"
      },
      {
        "line": [
          "5112 E 36TH ST N Suite 100"
        ],
        "city": "WICHITA",
        "state": "KS",
        "postalCode": "67220-3204"
      },
      {
        "line": [
          "6335 MAURER RD"
        ],
        "city": "SHAWNEE",
        "state": "KS",
        "postalCode": "66217-8345"
      },
      {
        "line": [
          "120 E. Karla"
        ],
        "city": "HAYSVILLE",
        "state": "KS",
        "postalCode": "67060-1843"
      },
      {
        "line": [
          "11216 W MAPLE ST"
        ],
        "city": "WICHITA",
        "state": "KS",
        "postalCode": "67209-4026"
      },
      {
        "line": [
          "19401 E 40TH STREET CT S"
        ],
        "city": "INDEPENDENCE",
        "state": "MO",
        "postalCode": "64057-1684"
      },
      {
        "line": [
          "14422 E TWINLAKE DR"
        ],
        "city": "WICHITA",
        "state": "KS",
        "postalCode": "67230-9517"
      },
      {
        "line": [
          "1051 S BLUFFVIEW DR"
        ],
        "city": "WICHITA",
        "state": "KS",
        "postalCode": "67218-3022"
      },
      {
        "line": [
          "707 N Golden Hills St"
        ],
        "city": "WICHITA",
        "state": "KS",
        "postalCode": "67212-6565"
      },
      {
        "line": [
          "305 E Windsor Rd"
        ],
        "city": "ARKANSAS CITY",
        "state": "KS",
        "postalCode": "67005-3869"
      },
      {
        "line": [
          "6101 W 119TH ST"
        ],
        "city": "LEAWOOD",
        "state": "KS",
        "postalCode": "66209-2728"
      },
      {
        "line": [
          "101 FRIENDSHIP RD"
        ],
        "city": "SOUTH HUTCHINSON",
        "state": "KS",
        "postalCode": "67505-1500"
      },
      {
        "line": [
          "2050 N WEBB RD"
        ],
        "city": "WICHITA",
        "state": "KS",
        "postalCode": "67206-3428"
      },
      {
        "line": [
          "711 SMILES AVE"
        ],
        "city": "AUGUSTA",
        "state": "KS",
        "postalCode": "67010-2386"
      },
      {
        "line": [
          "1200 E KIRWIN AVE"
        ],
        "city": "SALINA",
        "state": "KS",
        "postalCode": "67401-6333"
      },
      {
        "line": [
          "5516 N Polo Dr"
        ],
        "city": "WICHITA",
        "state": "KS",
        "postalCode": "67208-2752"
      },
      {
        "line": [
          "4500 W Maple St"
        ],
        "city": "WICHITA",
        "state": "KS",
        "postalCode": "67209-2567"
      },
      {
        "line": [
          "2490 W Riverpark Dr"
        ],
        "city": "WICHITA",
        "state": "KS",
        "postalCode": "67203-2077"
      },
      {
        "line": [
          "2455 N WOODLAWN BLVD"
        ],
        "city": "WICHITA",
        "state": "KS",
        "postalCode": "67220-3996"
      },
      {
        "line": [
          "7057 West Village Cir"
        ],
        "city": "WICHITA",
        "state": "KS",
        "postalCode": "67205-1509"
      },
      {
        "line": [
          "1433 N HAMILTON DR"
        ],
        "city": "DERBY",
        "state": "KS",
        "postalCode": "67037-8919"
      },
      {
        "line": [
          "1442 GARDEN LN"
        ],
        "city": "MCPHERSON",
        "state": "KS",
        "postalCode": "67460-1900"
      },
      {
        "line": [
          "10 E 1ST AVE"
        ],
        "city": "HUTCHINSON",
        "state": "KS",
        "postalCode": "67501-7101"
      },
      {
        "line": [
          "649 N STRATFORD LN"
        ],
        "city": "WICHITA",
        "state": "KS",
        "postalCode": "67206-1529"
      },
      {
        "line": [
          "335 South Jane St"
        ],
        "city": "HAYSVILLE",
        "state": "KS",
        "postalCode": "67060-1784"
      },
      {
        "line": [
          "2355 S Bedford"
        ],
        "city": "WICHITA",
        "state": "KS",
        "postalCode": "67207-6303"
      },
      {
        "line": [
          "700 MONTERY PL"
        ],
        "city": "HUTCHINSON",
        "state": "KS",
        "postalCode": "67502-2267"
      },
      {
        "line": [
          "2000 Fountainwood Dr"
        ],
        "city": "HUTCHINSON",
        "state": "KS",
        "postalCode": "67502-2662"
      },
      {
        "line": [
          "420 Lioba Dr."
        ],
        "city": "ANDOVER",
        "state": "KS",
        "postalCode": "67002-9077"
      },
      {
        "line": [
          "947 S ROCK RD"
        ],
        "city": "WICHITA",
        "state": "KS",
        "postalCode": "67207-2738"
      },
      {
        "line": [
          "2929 SE MINNESOTA AVE"
        ],
        "city": "TOPEKA",
        "state": "KS",
        "postalCode": "66605-2577"
      },
      {
        "line": [
          "415 SW 12TH ST"
        ],
        "city": "NEWTON",
        "state": "KS",
        "postalCode": "67114-4734"
      },
      {
        "line": [
          "343 Country Acres Ave"
        ],
        "city": "WICHITA",
        "state": "KS",
        "postalCode": "67212-6138"
      },
      {
        "line": [
          "700 Monterey Place"
        ],
        "city": "HUTCHINSON",
        "state": "KS",
        "postalCode": "67502-2266"
      },
      {
        "line": [
          "402 S Martinson St"
        ],
        "city": "WICHITA",
        "state": "KS",
        "postalCode": "67213-3998"
      },
      {
        "line": [
          "200 Sunnydell Cir"
        ],
        "city": "SOUTH HUTCHINSON",
        "state": "KS",
        "postalCode": "67505-1735"
      },
      {
        "line": [
          "408 E CENTRAL AVE"
        ],
        "city": "ANDOVER",
        "state": "KS",
        "postalCode": "67002-8556"
      },
      {
        "line": [
          "428 N Emporia St"
        ],
        "city": "WICHITA",
        "state": "KS",
        "postalCode": "67202-2514"
      },
      {
        "line": [
          "3130 N PARKDALE CIR"
        ],
        "city": "WICHITA",
        "state": "KS",
        "postalCode": "67205-6052"
      },
      {
        "line": [
          "542 N INDIANA AVE"
        ],
        "city": "WICHITA",
        "state": "KS",
        "postalCode": "67214-4010"
      },
      {
        "line": [
          "724 N Main St.",
          "PO Box 370"
        ],
        "city": "CHENEY",
        "state": "KS",
        "postalCode": "67025-9059"
      },
      {
        "line": [
          "1704 E 23RD AVE"
        ],
        "city": "HUTCHINSON",
        "state": "KS",
        "postalCode": "67502-1114"
      },
      {
        "line": [
          "4707 N MARBLEFALLS ST"
        ],
        "city": "WICHITA",
        "state": "KS",
        "postalCode": "67219-3061"
      },
      {
        "line": [
          "105 E 7TH AVE"
        ],
        "city": "SOUTH HUTCHINSON",
        "state": "KS",
        "postalCode": "67505-1001"
      },
      {
        "line": [
          "925 West 29th St S"
        ],
        "city": "WICHITA",
        "state": "KS",
        "postalCode": "67217-3191"
      },
      {
        "line": [
          "5319 S Spruce St"
        ],
        "city": "WICHITA",
        "state": "KS",
        "postalCode": "67216-3246"
      },
      {
        "line": [
          "2605 S Ohio St"
        ],
        "city": "SALINA",
        "state": "KS",
        "postalCode": "67401-7788"
      },
      {
        "line": [
          "1605 W. May St."
        ],
        "city": "WICHITA",
        "state": "KS",
        "postalCode": "67213-3511"
      },
      {
        "line": [
          "10665 W 13th St N"
        ],
        "city": "WICHITA",
        "state": "KS",
        "postalCode": "67212-5600"
      },
      {
        "line": [
          "1515 Clubhouse Dr"
        ],
        "city": "AUGUSTA",
        "state": "KS",
        "postalCode": "67010-2258"
      },
      {
        "line": [
          "9191 E 21ST ST N"
        ],
        "city": "WICHITA",
        "state": "KS",
        "postalCode": "67206-2923"
      },
      {
        "line": [
          "3051 N PARKDALE CIR"
        ],
        "city": "WICHITA",
        "state": "KS",
        "postalCode": "67205-6013"
      },
      {
        "line": [
          "3515 SW 6th Ave"
        ],
        "city": "TOPEKA",
        "state": "KS",
        "postalCode": "66606-0004"
      },
      {
        "line": [
          "155 W 23rd St N"
        ],
        "city": "WICHITA",
        "state": "KS",
        "postalCode": "67204-5772"
      },
      {
        "line": [
          "707 N GOLDEN HLS"
        ],
        "city": "WICHITA",
        "state": "KS",
        "postalCode": "67212-6565"
      },
      {
        "line": [
          "1429 KASOLD DR"
        ],
        "city": "LAWRENCE",
        "state": "KS",
        "postalCode": "66049-3425"
      },
      {
        "line": [
          "1310 N Charlotte St"
        ],
        "city": "WICHITA",
        "state": "KS",
        "postalCode": "67208-2659"
      },
      {
        "line": [
          "742 W 50TH CT S"
        ],
        "city": "WICHITA",
        "state": "KS",
        "postalCode": "67217-5025"
      },
      {
        "line": [
          "100 Cottonwood Point Lane"
        ],
        "city": "AUGUSTA",
        "state": "KS",
        "postalCode": "67010-2169"
      },
      {
        "line": [
          "10001 W 12TH ST N"
        ],
        "city": "WICHITA",
        "state": "KS",
        "postalCode": "67212-4336"
      },
      {
        "line": [
          "1259 N BUCKNER ST"
        ],
        "city": "DERBY",
        "state": "KS",
        "postalCode": "67037-2744"
      },
      {
        "line": [
          "7057 W VILLAGE CIR"
        ],
        "city": "WICHITA",
        "state": "KS",
        "postalCode": "67205-1509"
      },
      {
        "line": [
          "1605 W May St"
        ],
        "city": "WICHITA",
        "state": "KS",
        "postalCode": "67213-3511"
      },
      {
        "line": [
          "700 MONTEREY PL"
        ],
        "city": "HUTCHINSON",
        "state": "KS",
        "postalCode": "67502-2266"
      },
      {
        "line": [
          "2075 SW FILLMORE ST"
        ],
        "city": "TOPEKA",
        "state": "KS",
        "postalCode": "66604-3075"
      },
      {
        "line": [
          "1316 N CHARLOTTE ST"
        ],
        "city": "WICHITA",
        "state": "KS",
        "postalCode": "67208-2659"
      },
      {
        "line": [
          "10550 E 21ST ST N"
        ],
        "city": "WICHITA",
        "state": "KS",
        "postalCode": "67206-3509"
      },
      {
        "line": [
          "6322 PEACH TREE LN"
        ],
        "city": "WICHITA",
        "state": "KS",
        "postalCode": "67218-1820"
      },
      {
        "line": [
          "10720 Clubview Rd"
        ],
        "city": "MAIZE",
        "state": "KS",
        "postalCode": "67101-3750"
      },
      {
        "line": [
          "211 N GORDY ST"
        ],
        "city": "EL DORADO",
        "state": "KS",
        "postalCode": "67042-1900"
      },
      {
        "line": [
          "1914 E 10TH ST N"
        ],
        "city": "WICHITA",
        "state": "KS",
        "postalCode": "67214-3100"
      },
      {
        "line": [
          "1200 E 7TH ST"
        ],
        "city": "NEWTON",
        "state": "KS",
        "postalCode": "67114-2820"
      },
      {
        "line": [
          "1101 VERMONT ST"
        ],
        "city": "LAWRENCE",
        "state": "KS",
        "postalCode": "66044-3379"
      },
      {
        "line": [
          "2500 E. 27th St. N"
        ],
        "city": "WICHITA",
        "state": "KS",
        "postalCode": "67219-4717"
      },
      {
        "line": [
          "6953 E Kenford Circle"
        ],
        "city": "WICHITA",
        "state": "KS",
        "postalCode": "67226-1026"
      },
      {
        "line": [
          "3515 SW 6th Ave"
        ],
        "city": "TOPEKA",
        "state": "KS",
        "postalCode": "66606-1900"
      },
      {
        "line": [
          "1630 N Main St"
        ],
        "city": "EL DORADO",
        "state": "KS",
        "postalCode": "67042-5105"
      },
      {
        "line": [
          "1655 S GEORGETOWN ST"
        ],
        "city": "WICHITA",
        "state": "KS",
        "postalCode": "67218-4140"
      },
      {
        "line": [
          "3039 West 2nd Street N"
        ],
        "city": "WICHITA",
        "state": "KS",
        "postalCode": "67203-5359"
      },
      {
        "line": [
          "1931 SW ARVONIA PL"
        ],
        "city": "TOPEKA",
        "state": "KS",
        "postalCode": "66615-1316"
      },
      {
        "line": [
          "108 N WALNUT ST"
        ],
        "city": "INMAN",
        "state": "KS",
        "postalCode": "67546-8016"
      },
      {
        "line": [
          "10200 West Maple St"
        ],
        "city": "WICHITA",
        "state": "KS",
        "postalCode": "67209-3198"
      },
      {
        "line": [
          "1001 S 7 HWY"
        ],
        "city": "BLUE SPRINGS",
        "state": "MO",
        "postalCode": "64014-3220"
      },
      {
        "line": [
          "2395 N somerset st"
        ],
        "city": "WICHITA",
        "state": "KS",
        "postalCode": "67204-5700"
      },
      {
        "line": [
          "5502 E POLO DR"
        ],
        "city": "WICHITA",
        "state": "KS",
        "postalCode": "67208-2752"
      }
    ],
    "extension": [
      {
        "url": "https://fhir.athena.io/StructureDefinition/ah-practice",
        "valueReference": {
          "reference": "Organization/a-1.Practice-19281"
        }
      },
      {
        "url": "https://fhir.athena.io/StructureDefinition/ah-brand",
        "valueReference": {
          "reference": "Organization/a-19281.Brand-1"
        }
      }
    ]
  },
  "fullUrl": "urn:uuid:5fe977d7-c9f3-58a8-929e-9a7efece40bb"
}