{
  "resource": {
    "resourceType": "Organization",
    "id": "d1f9a64f-57dd-5fe9-966f-4dc39546b2d2",
    "name": "REAP- San Angelo",
    "endpoint": [
      {
        "reference": "Endpoint/27a4e967-47aa-5a9c-a572-b8297ee268a2"
      },
      {
        "reference": "Endpoint/f3325d41-359d-5ed5-aecf-f9571d978c62"
      }
    ],
    "identifier": [
      {
        "system": "http://hl7.org/fhir/sid/us-npi",
        "value": "1669801585"
      },
      {
        "system": "http://hl7.org/fhir/sid/us-npi",
        "value": "1215348487"
      },
      {
        "system": "http://hl7.org/fhir/sid/us-npi",
        "value": "1730484031"
      },
      {
        "system": "http://hl7.org/fhir/sid/us-npi",
        "value": "1215999511"
      },
      {
        "system": "http://hl7.org/fhir/sid/us-npi",
        "value": "1750302923"
      },
      {
        "system": "http://hl7.org/fhir/sid/us-npi",
        "value": "1649232984"
      },
      {
        "system": "http://hl7.org/fhir/sid/us-npi",
        "value": "1962602300"
      },
      {
        "system": "http://hl7.org/fhir/sid/us-npi",
        "value": "1881656247"
      },
      {
        "system": "http://hl7.org/fhir/sid/us-npi",
        "value": "1124080320"
      },
      {
        "system": "http://hl7.org/fhir/sid/us-npi",
        "value": "1053373951"
      }
    ],
    "address": [
      {
        "line": [
          "2210 HOWARD"
        ],
        "city": "SAN ANGELO",
        "state": "TX",
        "postalCode": "76901-1318"
      },
      {
        "line": [
          "3501 KNICKERBOCKER RD"
        ],
        "city": "SAN ANGELO",
        "state": "TX",
        "postalCode": "76904-7610"
      },
      {
        "line": [
          "308 Hudspeth"
        ],
        "city": "SONORA",
        "state": "TX",
        "postalCode": "76950-8003"
      },
      {
        "line": [
          "400 W MURCHISON AVE"
        ],
        "city": "ELDORADO",
        "state": "TX",
        "postalCode": "76936-1246"
      },
      {
        "line": [
          "1915 GREENWOOD"
        ],
        "city": "SAN ANGELO",
        "state": "TX",
        "postalCode": "76901-1112"
      },
      {
        "line": [
          "438 HOUSTON HART"
        ],
        "city": "SAN ANGELO",
        "state": "TX",
        "postalCode": "76903-4089"
      },
      {
        "line": [
          "2141 HAMILTON WAY STE 108"
        ],
        "city": "SAN ANGELO",
        "state": "TX",
        "postalCode": "76904-6887"
      },
      {
        "line": [
          "120 E HARRIS"
        ],
        "city": "SAN ANGELO",
        "state": "TX",
        "postalCode": "76903-5904"
      },
      {
        "line": [
          "4343 OAK GROVE BLVD"
        ],
        "city": "SAN ANGELO",
        "state": "TX",
        "postalCode": "76904-4500"
      },
      {
        "line": [
          "609 RIO CONCHO DR"
        ],
        "city": "SAN ANGELO",
        "state": "TX",
        "postalCode": "76903-9900"
      },
      {
        "line": [
          "2713 SOUTH COMMERCIAL AVE"
        ],
        "city": "COLEMAN",
        "state": "TX",
        "postalCode": "76834-7503"
      }
    ],
    "extension": [
      {
        "url": "https://fhir.athena.io/StructureDefinition/ah-practice",
        "valueReference": {
          "reference": "Organization/a-1.Practice-1902"
        }
      },
      {
        "url": "https://fhir.athena.io/StructureDefinition/ah-brand",
        "valueReference": {
          "reference": "Organization/a-1902.Brand-2"
        }
      }
    ]
  },
  "fullUrl": "urn:uuid:d1f9a64f-57dd-5fe9-966f-4dc39546b2d2"
}