{
  "resource": {
    "resourceType": "Organization",
    "id": "362601c2-81ca-55e3-b5ec-145e79711a16",
    "name": "Nurse Practitioner Professional Resources",
    "endpoint": [
      {
        "reference": "Endpoint/27a4e967-47aa-5a9c-a572-b8297ee268a2"
      },
      {
        "reference": "Endpoint/eee54840-6b9d-5683-9bcf-8273580283e9"
      }
    ],
    "identifier": [
      {
        "system": "http://hl7.org/fhir/sid/us-npi",
        "value": "1558516260"
      }
    ],
    "address": [
      {
        "line": [
          "39 SUPAWNA RD."
        ],
        "city": "PENNSVILLE",
        "state": "NJ",
        "postalCode": "08070-9657"
      },
      {
        "line": [
          "1674 Delsea Dr"
        ],
        "city": "WOODBURY",
        "state": "NJ",
        "postalCode": "08096-4117"
      },
      {
        "line": [
          "455 HURFFVILLE CROSSKEYS RD"
        ],
        "city": "SEWELL",
        "state": "NJ",
        "postalCode": "08080-2328"
      },
      {
        "line": [
          "45 ROUTE 206"
        ],
        "city": "HAMMONTON",
        "state": "NJ",
        "postalCode": "08037-2722"
      },
      {
        "line": [
          "685 S. BREWSTER RD"
        ],
        "city": "VINELAND",
        "state": "NJ",
        "postalCode": "08361-6199"
      },
      {
        "line": [
          "1719 W MAIN ST"
        ],
        "city": "MILLVILLE",
        "state": "NJ",
        "postalCode": "08332-4632"
      },
      {
        "line": [
          "4361 ROUTE 42"
        ],
        "city": "BLACKWOOD",
        "state": "NJ",
        "postalCode": "08012-1794"
      },
      {
        "line": [
          "540 MULLICA HILL RD"
        ],
        "city": "GLASSBORO",
        "state": "NJ",
        "postalCode": "08028-1000"
      },
      {
        "line": [
          "3152 GLASSBORO CROSSKEYS RD"
        ],
        "city": "GLASSBORO",
        "state": "NJ",
        "postalCode": "08028-2723"
      },
      {
        "line": [
          "36 CUSHMAN ST"
        ],
        "city": "LAKEWOOD",
        "state": "NJ",
        "postalCode": "08701-5201"
      },
      {
        "line": [
          "339 GREENTREE RD"
        ],
        "city": "SEWELL",
        "state": "NJ",
        "postalCode": "08080-1728"
      },
      {
        "line": [
          "1611 SOUTH MAIN RD"
        ],
        "city": "VINELAND",
        "state": "NJ",
        "postalCode": "08360-6513"
      },
      {
        "line": [
          "199 STEELMANVILLE RD"
        ],
        "city": "EGG HARBOR TOWNSHIP",
        "state": "NJ",
        "postalCode": "08234-7571"
      },
      {
        "line": [
          "1640 SOUTH BLACKHORSE PIKE"
        ],
        "city": "WILLIAMSTOWN",
        "state": "NJ",
        "postalCode": "08094-9247"
      },
      {
        "line": [
          "432 CENTRAL AVENUE"
        ],
        "city": "LINWOOD",
        "state": "NJ",
        "postalCode": "08221-1372"
      }
    ],
    "extension": [
      {
        "url": "https://fhir.athena.io/StructureDefinition/ah-practice",
        "valueReference": {
          "reference": "Organization/a-1.Practice-26288"
        }
      },
      {
        "url": "https://fhir.athena.io/StructureDefinition/ah-brand",
        "valueReference": {
          "reference": "Organization/a-26288.Brand-1"
        }
      }
    ]
  },
  "fullUrl": "urn:uuid:362601c2-81ca-55e3-b5ec-145e79711a16"
}